raw_text,station_id,observation_time,latitude,longitude,temp_c,dewpoint_c,wind_dir_degrees,wind_speed_kt,wind_gust_kt,visibility_statute_mi,altim_in_hg,sea_level_pressure_mb,corrected,auto,auto_station,maintenance_indicator_on,no_signal,lightning_sensor_off,freezing_rain_sensor_off,present_weather_sensor_off,wx_string,sky_cover,cloud_base_ft_agl,sky_cover,cloud_base_ft_agl,sky_cover,cloud_base_ft_agl,sky_cover,cloud_base_ft_agl,flight_category,three_hr_pressure_tendency_mb,maxT_c,minT_c,maxT24hr_c,minT24hr_c,precip_in,pcp3hr_in,pcp6hr_in,pcp24hr_in,snow_in,vert_vis_ft,metar_type,elevation_m
CYMM 231118Z AUTO 10006KT 9SM BKN039 OVC060 00/M01 A3000 RMK SLP183,CYMM,2022-10-23T11:18:00Z,56.65,-111.22,0.0,-1.0,100,6,,9.0,30.0,1018.3,,TRUE,,,,,,,,BKN,3900,OVC,6000,,,,,VFR,,,,,,,,,,,,SPECI,371.0
CYET 231118Z AUTO 28002KT 6SM BR BKN004 OVC011 M01/ A2994 RMK DP MISG SLP181,CYET,2022-10-23T11:18:00Z,53.57,-116.47,-1.0,,280,2,,6.0,29.940945,1018.1,,TRUE,,,,,,,BR,BKN,400,OVC,1100,,,,,LIFR,,,,,,,,,,,,SPECI,925.0
PADK 231117Z AUTO 23030G39KT OVC014 10/08 A3017 RMK AO2 PK WND 24046/1058 P0001 PWINO $,PADK,2022-10-23T11:17:00Z,51.88,-176.65,10.0,8.0,230,30,39,,30.171259,,,TRUE,TRUE,TRUE,,,,TRUE,,OVC,1400,,,,,,,,,,,,,0.01,,,,,,SPECI,3.0
KHYI 231117Z AUTO 19003KT 10SM SCT019 RMK AO2 FZRANO $,KHYI,2022-10-23T11:17:00Z,29.88,-97.87,,,190,3,,10.0,,,,TRUE,TRUE,TRUE,,,TRUE,,,SCT,1900,,,,,,,VFR,,,,,,,,,,,,SPECI,180.0
KCKC 231117Z AUTO 08005KT 10SM CLR 09/07 A2976 RMK AO2,KCKC,2022-10-23T11:17:00Z,47.83,-90.38,9.0,7.0,80,5,,10.0,29.760826,,,TRUE,TRUE,,,,,,,CLR,,,,,,,,VFR,,,,,,,,,,,,METAR,544.0
CYVL 231117Z AUTO 11005KT 080V150 5SM -SN FEW028 OVC041 M09/M10 A3003 RMK SLP200,CYVL,2022-10-23T11:17:00Z,67.02,-126.13,-9.0,-10.0,110,5,,5.0,30.029528,1020.0,,TRUE,,,,,,,-SN,FEW,2800,OVC,4100,,,,,MVFR,,,,,,,,,,,,SPECI,261.0
CYPX 231117Z AUTO 28025KT 6SM -RA BR FEW014 BKN023 BKN030 OVC036 01/M01 A2985 RMK SLP112,CYPX,2022-10-23T11:17:00Z,60.03,-77.27,1.0,-1.0,280,25,,6.0,29.84941,1011.2,,TRUE,,,,,,,-RA BR,FEW,1400,BKN,2300,BKN,3000,OVC,3600,MVFR,,,,,,,,,,,,SPECI,10.0
PAKK 231116Z AUTO 18008KT 1/2SM SN FG OVC003 00/00 A2987 RMK AO2 P0000 FZRANO,PAKK,2022-10-23T11:16:00Z,64.93,-161.15,0.0,0.0,180,8,,0.5,29.870079,,,TRUE,TRUE,,,,TRUE,,SN FG,OVC,300,,,,,,,LIFR,,,,,,0.005,,,,,,SPECI,56.0
PADM 231116Z AUTO 36004KT 10SM FEW009 M06/M07 A3007 RMK AO2 FZRANO,PADM,2022-10-23T11:16:00Z,61.87,-162.03,-6.0,-7.0,360,4,,10.0,30.070866,,,TRUE,TRUE,,,,TRUE,,,FEW,900,,,,,,,VFR,,,,,,,,,,,,SPECI,17.0
KPVU 231116Z AUTO 14007KT 10SM BKN013 BKN035 OVC055 02/01 A2960 RMK AO2 RAE01 P0001 FZRANO,KPVU,2022-10-23T11:16:00Z,40.22,-111.72,2.0,1.0,140,7,,10.0,29.601377,,,TRUE,TRUE,,,,TRUE,,,BKN,1300,BKN,3500,OVC,5500,,,MVFR,,,,,,0.01,,,,,,SPECI,1370.0
KPTW 231116Z AUTO 31003KT 8SM OVC029 08/07 A3029 RMK AO2 T00780067,KPTW,2022-10-23T11:16:00Z,40.23,-75.55,7.8,6.7,310,3,,8.0,30.28937,,,TRUE,TRUE,,,,,,,OVC,2900,,,,,,,MVFR,,,,,,,,,,,,SPECI,88.0
KPQL 231116Z AUTO 00000KT 3SM BR CLR 09/08 A3012 RMK AO2 T00890083,KPQL,2022-10-23T11:16:00Z,30.47,-88.53,8.9,8.3,0,0,,3.0,30.121063,,,TRUE,TRUE,,,,,,BR,CLR,,,,,,,,MVFR,,,,,,,,,,,,SPECI,4.0
KJYG 231116Z AUTO 14012KT 10SM CLR 15/10 A2955 RMK AO2,KJYG,2022-10-23T11:16:00Z,43.98,-94.55,15.0,10.0,140,12,,10.0,29.551182,,,TRUE,TRUE,,,,,,,CLR,,,,,,,,VFR,,,,,,,,,,,,METAR,323.0
KHDN 231116Z AUTO 26014G19KT 3/4SM -SN BR OVC003 00/00 A2950 RMK AO2 UPE1059SNB1059 P0000 FZRANO,KHDN,2022-10-23T11:16:00Z,40.48,-107.22,0.0,0.0,260,14,19,0.75,29.500984,,,TRUE,TRUE,,,,TRUE,,-SN BR,OVC,300,,,,,,,LIFR,,,,,,0.005,,,,,,SPECI,2012.0
KCQM 231116Z AUTO 00000KT 10SM CLR 03/02 A2966 RMK AO2,KCQM,2022-10-23T11:16:00Z,47.82,-92.68,3.0,2.0,0,0,,10.0,29.660433,,,TRUE,TRUE,,,,,,,CLR,,,,,,,,VFR,,,,,,,,,,,,METAR,406.0
KBBB 231116Z AUTO 16010G15KT 10SM CLR 12/08 A2952 RMK AO2,KBBB,2022-10-23T11:16:00Z,45.32,-95.65,12.0,8.0,160,10,15,10.0,29.518702,,,TRUE,TRUE,,,,,,,CLR,,,,,,,,VFR,,,,,,,,,,,,METAR,315.0
KAUM 231116Z AUTO 15008KT 10SM CLR 15/11 A2966 RMK AO2,KAUM,2022-10-23T11:16:00Z,43.67,-92.92,15.0,11.0,150,8,,10.0,29.660433,,,TRUE,TRUE,,,,,,,CLR,,,,,,,,VFR,,,,,,,,,,,,SPECI,376.0
K40B 231116Z AUTO 00000KT 01/02 A3032 RMK AO1 SLP280 T00140018 50009,K40B,2022-10-23T11:16:00Z,46.62,-69.52,1.4,1.8,0,0,,,30.318897,1028.0,,TRUE,TRUE,,,,,,,,,,,,,,,,0.9,,,,,,,,,,,METAR,344.0
CYPH 231116Z AUTO 28011G18KT 9SM FEW013 BKN026 01/M01 A2997 RMK SLP152,CYPH,2022-10-23T11:16:00Z,58.47,-78.08,1.0,-1.0,280,11,18,9.0,29.970472,1015.2,,TRUE,,,,,,,,FEW,1300,BKN,2600,,,,,MVFR,,,,,,,,,,,,SPECI,24.0
PAUT 231115Z AUTO 26004KT 10SM OVC032 05/02 A3026 RMK AO2,PAUT,2022-10-23T11:15:00Z,54.13,-165.6,5.0,2.0,260,4,,10.0,30.259842,,,TRUE,TRUE,,,,,,,OVC,3200,,,,,,,VFR,,,,,,,,,,,,SPECI,25.0
PAKX 231115Z AUTO 18003KT 10SM CLR M02/M02 A2990 RMK AO2,PAKX,2022-10-23T11:15:00Z,60.2,-154.32,-2.0,-2.0,180,3,,10.0,29.899607,,,TRUE,TRUE,,,,,,,CLR,,,,,,,,VFR,,,,,,,,,,,,METAR,88.0
PABL 231115Z AUTO 17016G24KT 10SM SCT010 BKN047 OVC100 02/M01 A2986 RMK AO2 FZRANO $,PABL,2022-10-23T11:15:00Z,65.98,-161.15,2.0,-1.0,170,16,24,10.0,29.861221,,,TRUE,TRUE,TRUE,,,TRUE,,,SCT,1000,BKN,4700,OVC,10000,,,VFR,,,,,,,,,,,,SPECI,7.0
PAAD 231115Z AUTO 13008KT 7SM OVC009 M08/M08 A3003 RMK AO2 T10761081,PAAD,2022-10-23T11:15:00Z,70.13,-146.28,-7.6,-8.1,130,8,,7.0,30.029528,,,TRUE,TRUE,,,,,,,OVC,900,,,,,,,IFR,,,,,,,,,,,,SPECI,8.0
LMML 231115Z 20005KT 150V240 CAVOK 24/17 Q1026 NOSIG,LMML,2022-10-23T11:15:00Z,35.85,14.47,24.0,17.0,200,5,,6.21,30.295275,,,,,,TRUE,,,,,CAVOK,,,,,,,,VFR,,,,,,,,,,,,METAR,78.0
KZPH 231115Z AUTO 01004KT 10SM CLR 13/13 A3012 RMK A02 T01320128,KZPH,2022-10-23T11:15:00Z,28.23,-82.15,13.2,12.8,10,4,,10.0,30.121063,,,TRUE,TRUE,,,,,,,CLR,,,,,,,,VFR,,,,,,,,,,,,METAR,26.0
KY70 231115Z AUTO 14007KT 10SM CLR 10/10 A3004 RMK AO2 T01040099,KY70,2022-10-23T11:15:00Z,42.93,-85.07,10.4,9.9,140,7,,10.0,30.041338,,,TRUE,TRUE,,,,,,,CLR,,,,,,,,VFR,,,,,,,,,,,,SPECI,247.0
KY63 231115Z AUTO 12007KT 10SM CLR 12/07 A2952 RMK AO2 T01190072,KY63,2022-10-23T11:15:00Z,45.98,-96.0,11.9,7.2,120,7,,10.0,29.518702,,,TRUE,TRUE,,,,,,,CLR,,,,,,,,VFR,,,,,,,,,,,,SPECI,367.0
KY51 231115Z AUTO 14009KT 10SM CLR 14/13 A2977 RMK AO1 T01400128,KY51,2022-10-23T11:15:00Z,43.58,-90.9,14.0,12.8,140,9,,10.0,29.769686,,,TRUE,TRUE,,,,,,,CLR,,,,,,,,VFR,,,,,,,,,,,,METAR,390.0
KY49 231115Z AUTO 07003KT 10SM CLR 05/05 A2959 RMK AO2 T00530052,KY49,2022-10-23T11:15:00Z,47.15,-94.65,5.3,5.2,70,3,,10.0,29.589567,,,TRUE,TRUE,,,,,,,CLR,,,,,,,,VFR,,,,,,,,,,,,METAR,413.0
KY31 231115Z AUTO 00000KT 10SM CLR 04/03 A3006 RMK AO2 T00380028,KY31,2022-10-23T11:15:00Z,44.25,-84.18,3.8,2.8,0,0,,10.0,30.059055,,,TRUE,TRUE,,,,,,,CLR,,,,,,,,VFR,,,,,,,,,,,,METAR,264.0
KY23 231115Z AUTO 00000KT 10SM CLR 13/11 A2973 RMK AO2 T01340105,KY23,2022-10-23T11:15:00Z,45.3,-91.63,13.4,10.5,0,0,,10.0,29.731298,,,TRUE,TRUE,,,,,,,CLR,,,,,,,,VFR,,,,,,,,,,,,SPECI,322.0
KY19 231115Z AUTO 07014G20KT 10SM SCT027 OVC034 06/05 A2945 RMK AO2,KY19,2022-10-23T11:15:00Z,46.77,-100.9,6.0,5.0,70,14,20,10.0,29.450787,,,TRUE,TRUE,,,,,,,SCT,2700,OVC,3400,,,,,VFR,,,,,,,,,,,,METAR,591.0
KXSA 231115Z AUTO 32004KT 10SM SCT025 10/10 A3020 RMK AO2 T01000100,KXSA,2022-10-23T11:15:00Z,37.87,-76.9,10.0,10.0,320,4,,10.0,30.200787,,,TRUE,TRUE,,,,,,,SCT,2500,,,,,,,VFR,,,,,,,,,,,,METAR,41.0
KXNX 231115Z AUTO 00000KT 10SM OVC065 10/09 A3018 RMK A01,KXNX,2022-10-23T11:15:00Z,36.38,-86.42,10.0,9.0,0,0,,10.0,30.180119,,,TRUE,TRUE,,,,,,,OVC,6500,,,,,,,VFR,,,,,,,,,,,,SPECI,178.0
KXLL 231115Z AUTO 00000KT 10SM SCT032 SCT039 07/06 A3030 RMK AO2,KXLL,2022-10-23T11:15:00Z,40.57,-75.48,7.0,6.0,0,0,,10.0,30.301182,,,TRUE,TRUE,,,,,,,SCT,3200,SCT,3900,,,,,VFR,,,,,,,,,,,,METAR,118.0
KXER 231115Z AUTO 14010KT 10SM FEW039 FEW060 25/15 A2995 RMK A01,KXER,2022-10-23T11:15:00Z,,,25.0,15.0,140,10,,10.0,29.949802,,,TRUE,TRUE,,,,,,,FEW,3900,FEW,6000,,,,,VFR,,,,,,,,,,,,METAR,
KX60 231115Z AUTO 00000KT 10SM CLR 09/08 A3014 RMK AO2 T00880082,KX60,2022-10-23T11:15:00Z,29.35,-82.47,8.8,8.2,0,0,,10.0,30.138779,,,TRUE,TRUE,,,,,,,CLR,,,,,,,,VFR,,,,,,,,,,,,SPECI,21.0
KX07 231115Z AUTO 00000KT 10SM CLR 16/16 A3010 RMK A01,KX07,2022-10-23T11:15:00Z,27.9,-81.62,16.0,16.0,0,0,,10.0,30.100393,,,TRUE,TRUE,,,,,,,CLR,,,,,,,,VFR,,,,,,,,,,,,SPECI,36.0
KW96 231115Z AUTO 33003KT 10SM BKN024 09/08 A3019 RMK AO1 T00890082,KW96,2022-10-23T11:15:00Z,37.5,-77.12,8.9,8.2,330,3,,10.0,30.188976,,,TRUE,TRUE,,,,,,,BKN,2400,,,,,,,MVFR,,,,,,,,,,,,METAR,35.0
KW81 231115Z AUTO 33004KT 10SM CLR 08/05 A3020 RMK AO1 T00770045,KW81,2022-10-23T11:15:00Z,37.18,-78.1,7.7,4.5,330,4,,10.0,30.200787,,,TRUE,TRUE,,,,,,,CLR,,,,,,,,VFR,,,,,,,,,,,,METAR,121.0
KW78 231115Z AUTO 00000KT 10SM CLR 03/03 A3022 RMK AO1 T00310025,KW78,2022-10-23T11:15:00Z,36.7,-78.85,3.1,2.5,0,0,,10.0,30.221457,,,TRUE,TRUE,,,,,,,CLR,,,,,,,,VFR,,,,,,,,,,,,METAR,120.0
KW75 231115Z AUTO 32005KT 10SM OVC019 13/12 A3016 RMK AO1 T01300115,KW75,2022-10-23T11:15:00Z,37.6,-76.45,13.0,11.5,320,5,,10.0,30.159449,,,TRUE,TRUE,,,,,,,OVC,1900,,,,,,,MVFR,,,,,,,,,,,,METAR,8.0
KW63 231115Z AUTO 35005KT 10SM CLR 08/08 A3020 RMK AO1,KW63,2022-10-23T11:15:00Z,36.6,-78.55,8.0,8.0,350,5,,10.0,30.200787,,,TRUE,TRUE,,,,,,,CLR,,,,,,,,VFR,,,,,,,,,,,,SPECI,126.0
KW31 231115Z AUTO 10SM CLR 08/07 A3020 RMK AO1 T00830069,KW31,2022-10-23T11:15:00Z,36.95,-78.18,8.3,6.9,,,,10.0,30.200787,,,TRUE,TRUE,,,,,,,CLR,,,,,,,,VFR,,,,,,,,,,,,METAR,159.0
KW13 231115Z AUTO 10SM CLR 02/01 A3025 RMK AO1 T00150012,KW13,2022-10-23T11:15:00Z,38.08,-78.95,1.5,1.2,,,,10.0,30.250984,,,TRUE,TRUE,,,,,,,CLR,,,,,,,,VFR,,,,,,,,,,,,METAR,440.0
KVYS 231115Z AUTO 15011KT 10SM CLR 15/11 A2986 RMK AO2 T01480107,KVYS,2022-10-23T11:15:00Z,41.35,-89.15,14.8,10.7,150,11,,10.0,29.861221,,,TRUE,TRUE,,,,,,,CLR,,,,,,,,VFR,,,,,,,,,,,,METAR,198.0
KVWU 231115Z AUTO 07005KT 10SM CLR 05/03 A2960 RMK AO2,KVWU,2022-10-23T11:15:00Z,48.15,-94.52,5.0,3.0,70,5,,10.0,29.601377,,,TRUE,TRUE,,,,,,,CLR,,,,,,,,VFR,,,,,,,,,,,,SPECI,359.0
KVVV 231115Z 13008KT 10SM 09/06 A2948 RMK AO2,KVVV,2022-10-23T11:15:00Z,45.3,-96.42,9.0,6.0,130,8,,10.0,29.480314,,,,TRUE,,,,,,,,,,,,,,,,,,,,,,,,,,,SPECI,334.0
KVVS 231115Z AUTO 07004KT 10SM CLR 07/02 A3025 RMK AO2 T00720022,KVVS,2022-10-23T11:15:00Z,39.95,-79.65,7.2,2.2,70,4,,10.0,30.250984,,,TRUE,TRUE,,,,,,,CLR,,,,,,,,VFR,,,,,,,,,,,,METAR,386.0
KVTP 231115Z AUTO 25019G33KT 10SM SCT021 BKN036 OVC055 M06/M12 A2967 RMK AO2,KVTP,2022-10-23T11:15:00Z,37.5,-105.17,-6.0,-12.0,250,19,33,10.0,29.66929,,,TRUE,TRUE,,,,,,,SCT,2100,BKN,3600,OVC,5500,,,VFR,,,,,,,,,,,,METAR,3086.0
KVTI 231115Z AUTO 14010G16KT 10SM CLR 16/11 A2971 RMK AO2 T01600110,KVTI,2022-10-23T11:15:00Z,42.22,-92.02,16.0,11.0,140,10,16,10.0,29.71063,,,TRUE,TRUE,,,,,,,CLR,,,,,,,,VFR,,,,,,,,,,,,SPECI,256.0
KVNW 231115Z AUTO 16005KT 10SM CLR 13/08 A3011 RMK AO2,KVNW,2022-10-23T11:15:00Z,40.87,-84.62,13.0,8.0,160,5,,10.0,30.109253,,,TRUE,TRUE,,,,,,,CLR,,,,,,,,VFR,,,,,,,,,,,,METAR,238.0
KVLL 231115Z AUTO 00000KT 10SM CLR 09/07 A3015 RMK AO2 T00850073,KVLL,2022-10-23T11:15:00Z,42.55,-83.18,8.5,7.3,0,0,,10.0,30.15059,,,TRUE,TRUE,,,,,,,CLR,,,,,,,,VFR,,,,,,,,,,,,SPECI,214.0
KVJI 231115Z AUTO 00000KT 10SM CLR 06/01 A3024 RMK AO2 T00570009,KVJI,2022-10-23T11:15:00Z,36.68,-82.03,5.7,0.9,0,0,,10.0,30.239174,,,TRUE,TRUE,,,,,,,CLR,,,,,,,,VFR,,,,,,,,,,,,METAR,636.0
KVHN 231115Z AUTO 23009KT 10SM CLR 17/07 A2986 RMK AO2 T01750075,KVHN,2022-10-23T11:15:00Z,31.07,-104.78,17.5,7.5,230,9,,10.0,29.861221,,,TRUE,TRUE,,,,,,,CLR,,,,,,,,VFR,,,,,,,,,,,,METAR,1200.0
KVGC 231115Z AUTO 14003KT 7SM CLR 00/ A3031 RMK AO2,KVGC,2022-10-23T11:15:00Z,42.85,-75.57,0.0,,140,3,,7.0,30.31004,,,TRUE,TRUE,,,,,,,CLR,,,,,,,,VFR,,,,,,,,,,,,SPECI,346.0
KVER 231115Z AUTO 14011G14KT 10SM CLR 19/14 A2971 RMK AO2 T01920142,KVER,2022-10-23T11:15:00Z,38.95,-92.68,19.2,14.2,140,11,14,10.0,29.71063,,,TRUE,TRUE,,,,,,,CLR,,,,,,,,VFR,,,,,,,,,,,,METAR,209.0
KVDF 231115Z AUTO 03003KT 10SM CLR 16/14 A3011 RMK AO2,KVDF,2022-10-23T11:15:00Z,28.02,-82.33,16.0,14.0,30,3,,10.0,30.109253,,,TRUE,TRUE,,,,,,,CLR,,,,,,,,VFR,,,,,,,,,,,,METAR,5.0
KVCV 231115Z AUTO 27011G18KT 10SM FEW048 11/05 A2983 RMK AO2,KVCV,2022-10-23T11:15:00Z,34.58,-117.38,11.0,5.0,270,11,18,10.0,29.828741,,,TRUE,TRUE,,,,,,,FEW,4800,,,,,,,VFR,,,,,,,,,,,,METAR,871.0
KVAF 231115Z AUTO 20016G22KT 10SM SCT037 BKN045 26/17 A2994 RMK A01,KVAF,2022-10-23T11:15:00Z,27.35,-94.63,26.0,17.0,200,16,22,10.0,29.940945,,,TRUE,TRUE,,,,,,,SCT,3700,BKN,4500,,,,,VFR,,,,,,,,,,,,METAR,38.0
KUXL 231115Z AUTO 09005KT 10SM CLR 18/17 A3000 RMK AO2 T01810170,KUXL,2022-10-23T11:15:00Z,30.13,-93.38,18.1,17.0,90,5,,10.0,30.0,,,TRUE,TRUE,,,,,,,CLR,,,,,,,,VFR,,,,,,,,,,,,METAR,2.0
KUVA 231115Z AUTO 07004KT 7SM CLR 17/17 A2986 RMK AO2 T01670167,KUVA,2022-10-23T11:15:00Z,29.22,-99.75,16.7,16.7,70,4,,7.0,29.861221,,,TRUE,TRUE,,,,,,,CLR,,,,,,,,VFR,,,,,,,,,,,,METAR,285.0
KUTA 231115Z AUTO 16012KT 10SM CLR 16/14 A3004 RMK AO2 T01650136 $,KUTA,2022-10-23T11:15:00Z,34.68,-90.35,16.5,13.6,160,12,,10.0,30.041338,,,TRUE,TRUE,TRUE,,,,,,CLR,,,,,,,,VFR,,,,,,,,,,,,METAR,58.0
KUSE 231115Z AUTO 15004KT 10SM CLR 10/10 A3011 RMK AO2,KUSE,2022-10-23T11:15:00Z,41.62,-84.13,10.0,10.0,150,4,,10.0,30.109253,,,TRUE,TRUE,,,,,,,CLR,,,,,,,,VFR,,,,,,,,,,,,METAR,237.0
KUOX 231115Z AUTO 14004KT 10SM CLR 14/12 A3010 RMK AO2 PWINO,KUOX,2022-10-23T11:15:00Z,34.38,-89.53,14.0,12.0,140,4,,10.0,30.100393,,,TRUE,TRUE,,,,,TRUE,,CLR,,,,,,,,VFR,,,,,,,,,,,,METAR,123.0
KUNU 231115Z AUTO 13008KT 10SM CLR 13/11 A2988 RMK AO2 T01250111,KUNU,2022-10-23T11:15:00Z,43.42,-88.7,12.5,11.1,130,8,,10.0,29.878937,,,TRUE,TRUE,,,,,,,CLR,,,,,,,,VFR,,,,,,,,,,,,SPECI,281.0
KULM 231115Z AUTO 14012KT 10SM CLR 15/08 A2955 RMK AO2,KULM,2022-10-23T11:15:00Z,44.32,-94.5,15.0,8.0,140,12,,10.0,29.551182,,,TRUE,TRUE,,,,,,,CLR,,,,,,,,VFR,,,,,,,,,,,,SPECI,305.0
KUKT 231115Z AUTO 00000KT 10SM BKN029 OVC034 09/09 A3028 RMK A01,KUKT,2022-10-23T11:15:00Z,40.43,-75.38,9.0,9.0,0,0,,10.0,30.280512,,,TRUE,TRUE,,,,,,,BKN,2900,OVC,3400,,,,,MVFR,,,,,,,,,,,,METAR,156.0
KUCY 231115Z AUTO 17015KT 10SM OVC055 18/12 A3002 RMK A01,KUCY,2022-10-23T11:15:00Z,36.38,-88.98,18.0,12.0,170,15,,10.0,30.02067,,,TRUE,TRUE,,,,,,,OVC,5500,,,,,,,VFR,,,,,,,,,,,,METAR,97.0
KUBE 231115Z AUTO 13008KT 10SM CLR 13/11 A2971 RMK AO2,KUBE,2022-10-23T11:15:00Z,45.5,-91.98,13.0,11.0,130,8,,10.0,29.71063,,,TRUE,TRUE,,,,,,,CLR,,,,,,,,VFR,,,,,,,,,,,,METAR,376.0
KU68 231115Z AUTO 33011KT 10SM BKN050 OVC075 04/02 A2946 RMK AO2,KU68,2022-10-23T11:15:00Z,44.92,-108.45,4.0,2.0,330,11,,10.0,29.459646,,,TRUE,TRUE,,,,,,,BKN,5000,OVC,7500,,,,,VFR,,,,,,,,,,,,METAR,1244.0
KU55 231115Z AUTO 02006KT 10SM M01/M01 A2963 RMK A01,KU55,2022-10-23T11:15:00Z,37.85,-112.38,-1.0,-1.0,20,6,,10.0,29.630905,,,TRUE,TRUE,,,,,,,,,,,,,,,,,,,,,,,,,,,METAR,2060.0
KU42 231115Z AUTO 30004KT 5SM SCT004 BKN010 OVC017 01/01 A2962 RMK AO1 P0001 T00100010,KU42,2022-10-23T11:15:00Z,40.62,-111.98,1.0,1.0,300,4,,5.0,29.619095,,,TRUE,TRUE,,,,,,,SCT,400,BKN,1000,OVC,1700,,,MVFR,,,,,,0.01,,,,,,METAR,1399.0
KTYQ 231115Z AUTO 15008KT 10SM CLR 14/10 A3007 RMK AO2 T01380103,KTYQ,2022-10-23T11:15:00Z,40.03,-86.25,13.8,10.3,150,8,,10.0,30.070866,,,TRUE,TRUE,,,,,,,CLR,,,,,,,,VFR,,,,,,,,,,,,METAR,279.0
KTYL 231115Z AUTO 21018G29KT 10SM SCT034 BKN042 BKN055 11/05 A2974 RMK AO2,KTYL,2022-10-23T11:15:00Z,34.45,-110.12,11.0,5.0,210,18,29,10.0,29.740158,,,TRUE,TRUE,,,,,,,SCT,3400,BKN,4200,BKN,5500,,,VFR,,,,,,,,,,,,METAR,1748.0
KTWT 231115Z AUTO 15011G17KT 10SM CLR 16/10 A3005 RMK AO2,KTWT,2022-10-23T11:15:00Z,37.55,-87.95,16.0,10.0,150,11,17,10.0,30.050198,,,TRUE,TRUE,,,,,,,CLR,,,,,,,,VFR,,,,,,,,,,,,METAR,113.0
KTWM 231115Z AUTO 04005KT 10SM CLR 07/06 A2971 RMK AO2,KTWM,2022-10-23T11:15:00Z,47.05,-91.75,7.0,6.0,40,5,,10.0,29.71063,,,TRUE,TRUE,,,,,,,CLR,,,,,,,,VFR,,,,,,,,,,,,SPECI,331.0
KTVY 231115Z AUTO 05012G15KT 7SM -RA SCT009 OVC018 02/01 A2963 RMK AO2,KTVY,2022-10-23T11:15:00Z,40.62,-112.35,2.0,1.0,50,12,15,7.0,29.630905,,,TRUE,TRUE,,,,,,-RA,SCT,900,OVC,1800,,,,,MVFR,,,,,,,,,,,,METAR,1310.0
KTTF 231115Z AUTO 15003KT 10SM CLR 10/08 A3013 RMK AO2 T01020076,KTTF,2022-10-23T11:15:00Z,41.93,-83.42,10.2,7.6,150,3,,10.0,30.129921,,,TRUE,TRUE,,,,,,,CLR,,,,,,,,VFR,,,,,,,,,,,,SPECI,186.0
KTTA 231115Z AUTO 00000KT 10SM CLR 05/05 A3019 RMK AO2 T00510051,KTTA,2022-10-23T11:15:00Z,35.58,-79.1,5.1,5.1,0,0,,10.0,30.188976,,,TRUE,TRUE,,,,,,,CLR,,,,,,,,VFR,,,,,,,,,,,,METAR,71.0
KTQV 231115Z AUTO 35007KT 10SM CLR 10/07 A3020 RMK A01,KTQV,2022-10-23T11:15:00Z,36.0,-78.93,10.0,7.0,350,7,,10.0,30.200787,,,TRUE,TRUE,,,,,,,CLR,,,,,,,,VFR,,,,,,,,,,,,METAR,230.0
KTQH 231115Z AUTO 16009G16KT 10SM CLR 20/12 A2979 RMK AO2,KTQH,2022-10-23T11:15:00Z,35.93,-95.0,20.0,12.0,160,9,16,10.0,29.790354,,,TRUE,TRUE,,,,,,,CLR,,,,,,,,VFR,,,,,,,,,,,,METAR,265.0
KTOB 231115Z AUTO 14011KT 10SM CLR 13/08 A2967 RMK AO2,KTOB,2022-10-23T11:15:00Z,44.02,-92.82,13.0,8.0,140,11,,10.0,29.66929,,,TRUE,TRUE,,,,,,,CLR,,,,,,,,VFR,,,,,,,,,,,,SPECI,394.0
KTNU 231115Z AUTO 14011KT 10SM CLR 15/13 A2964 RMK A01,KTNU,2022-10-23T11:15:00Z,41.67,-93.02,15.0,13.0,140,11,,10.0,29.639763,,,TRUE,TRUE,,,,,,,CLR,,,,,,,,VFR,,,,,,,,,,,,METAR,287.0
KTMT 231115Z AUTO 00000KT 10SM SCT038 OVC045 M02/M04 A2984 RMK AO2 T10251040,KTMT,2022-10-23T11:15:00Z,39.47,-117.2,-2.5,-4.0,0,0,,10.0,29.840551,,,TRUE,TRUE,,,,,,,SCT,3800,OVC,4500,,,,,VFR,,,,,,,,,,,,METAR,1748.0
KTME 231115Z AUTO 14005KT 10SM 20/19 A2992 RMK AO2,KTME,2022-10-23T11:15:00Z,29.8,-95.9,20.0,19.0,140,5,,10.0,29.920275,,,TRUE,TRUE,,,,,,,,,,,,,,,,,,,,,,,,,,,METAR,49.0
KTKX 231115Z AUTO 18010KT 9SM FEW045 17/14 A2997 RMK AO2 TSNO,KTKX,2022-10-23T11:15:00Z,36.22,-90.03,17.0,14.0,180,10,,9.0,29.970472,,,TRUE,TRUE,,,TRUE,,,,FEW,4500,,,,,,,VFR,,,,,,,,,,,,METAR,73.0
KTKV 231115Z AUTO 00000KT 10SM CLR 11/09 A2983 RMK AO2 T01060088 PWINO,KTKV,2022-10-23T11:15:00Z,45.47,-89.82,10.6,8.8,0,0,,10.0,29.828741,,,TRUE,TRUE,,,,,TRUE,,CLR,,,,,,,,VFR,,,,,,,,,,,,SPECI,449.0
KTKC 231115Z AUTO 17010KT 10SM 14/08 A2950 RMK AO2 T01350080,KTKC,2022-10-23T11:15:00Z,44.25,-95.62,13.5,8.0,170,10,,10.0,29.500984,,,TRUE,TRUE,,,,,,,,,,,,,,,,,,,,,,,,,,,METAR,408.0
KTHA 231115Z AUTO 14003KT 10SM FEW048 06/05 A3017 RMK A01,KTHA,2022-10-23T11:15:00Z,35.38,-86.25,6.0,5.0,140,3,,10.0,30.171259,,,TRUE,TRUE,,,,,,,FEW,4800,,,,,,,VFR,,,,,,,,,,,,METAR,333.0
KTGI 231115Z AUTO 01014G19KT 10SM SCT009 OVC013 15/13 A3015 RMK AO1 T01490131,KTGI,2022-10-23T11:15:00Z,37.82,-75.98,14.9,13.1,10,14,19,10.0,30.15059,,,TRUE,TRUE,,,,,,,SCT,900,OVC,1300,,,,,MVFR,,,,,,,,,,,,METAR,1.0
KTEX 231115Z AUTO 04003KT 2SM -SN BKN007 OVC013 01/00 A2962 RMK AO2,KTEX,2022-10-23T11:15:00Z,37.95,-107.9,1.0,0.0,40,3,,2.0,29.619095,,,TRUE,TRUE,,,,,,-SN,BKN,700,OVC,1300,,,,,IFR,,,,,,,,,,,,METAR,2760.0
KTEW 231115Z AUTO 18011KT 10SM CLR 12/09 A3009 RMK AO2 T01210090,KTEW,2022-10-23T11:15:00Z,42.57,-84.42,12.1,9.0,180,11,,10.0,30.088583,,,TRUE,TRUE,,,,,,,CLR,,,,,,,,VFR,,,,,,,,,,,,SPECI,281.0
KTDF 231115Z AUTO 32003KT 10SM CLR 04/04 A3024 RMK AO2,KTDF,2022-10-23T11:15:00Z,36.28,-78.98,4.0,4.0,320,3,,10.0,30.239174,,,TRUE,TRUE,,,,,,,CLR,,,,,,,,VFR,,,,,,,,,,,,METAR,180.0
KTCY 231115Z AUTO 30009G15KT 10SM CLR 14/01 A2987 RMK A01,KTCY,2022-10-23T11:15:00Z,37.68,-121.43,14.0,1.0,300,9,15,10.0,29.870079,,,TRUE,TRUE,,,,,,,CLR,,,,,,,,VFR,,,,,,,,,,,,METAR,51.0
KT89 231115Z AUTO 14005KT 10SM FEW060 20/04 A2980 RMK A01,KT89,2022-10-23T11:15:00Z,29.27,-103.68,20.0,4.0,140,5,,10.0,29.799213,,,TRUE,TRUE,,,,,,,FEW,6000,,,,,,,VFR,,,,,,,,,,,,METAR,801.0
KT82 231115Z AUTO 19009G17KT 10SM OVC012 20/17 A2987 RMK AO2 T01960171,KT82,2022-10-23T11:15:00Z,30.25,-98.92,19.6,17.1,190,9,17,10.0,29.870079,,,TRUE,TRUE,,,,,,,OVC,1200,,,,,,,MVFR,,,,,,,,,,,,METAR,509.0
KT78 231115Z AUTO 14004KT 10SM BKN055 19/18 A2994 RMK AO2,KT78,2022-10-23T11:15:00Z,30.08,-94.7,19.0,18.0,140,4,,10.0,29.940945,,,TRUE,TRUE,,,,,,,BKN,5500,,,,,,,VFR,,,,,,,,,,,,METAR,21.0
KT74 231115Z AUTO 17006KT 10SM CLR 19/17 A2987 RMK AO2 T01890174,KT74,2022-10-23T11:15:00Z,30.57,-97.45,18.9,17.4,170,6,,10.0,29.870079,,,TRUE,TRUE,,,,,,,CLR,,,,,,,,VFR,,,,,,,,,,,,METAR,169.0
KT69 231115Z AUTO 19007KT 10SM CLR 22/20 A2985 RMK A01,KT69,2022-10-23T11:15:00Z,28.03,-97.55,22.0,20.0,190,7,,10.0,29.84941,,,TRUE,TRUE,,,,,,,CLR,,,,,,,,VFR,,,,,,,,,,,,METAR,15.0
KSZY 231115Z AUTO 17006KT 10SM SCT046 BKN050 15/11 A3010 RMK A01,KSZY,2022-10-23T11:15:00Z,35.2,-88.5,15.0,11.0,170,6,,10.0,30.100393,,,TRUE,TRUE,,,,,,,SCT,4600,BKN,5000,,,,,VFR,,,,,,,,,,,,METAR,184.0
KSZT 231115Z AUTO 00000KT 10SM SCT060 OVC080 03/02 A2981 RMK AO2,KSZT,2022-10-23T11:15:00Z,48.3,-116.57,3.0,2.0,0,0,,10.0,29.811024,,,TRUE,TRUE,,,,,,,SCT,6000,OVC,8000,,,,,VFR,,,,,,,,,,,,METAR,649.0
KSYN 231115Z AUTO 15015G20KT 10SM CLR 16/09 A2964 RMK AO2 T01640093,KSYN,2022-10-23T11:15:00Z,44.47,-93.02,16.4,9.3,150,15,20,10.0,29.639763,,,TRUE,TRUE,,,,,,,CLR,,,,,,,,VFR,,,,,,,,,,,,SPECI,280.0
KSYM 231115Z AUTO 00000KT 10SM CLR 12/07 A3021 RMK AO2,KSYM,2022-10-23T11:15:00Z,38.22,-83.58,12.0,7.0,0,0,,10.0,30.209646,,,TRUE,TRUE,,,,,,,CLR,,,,,,,,VFR,,,,,,,,,,,,METAR,307.0
KSYI 231115Z AUTO 12004KT 10SM CLR 11/08 A3016 RMK A01,KSYI,2022-10-23T11:15:00Z,35.57,-86.45,11.0,8.0,120,4,,10.0,30.159449,,,TRUE,TRUE,,,,,,,CLR,,,,,,,,VFR,,,,,,,,,,,,METAR,244.0
KSYF 231115Z AUTO 21012KT 10SM CLR 14/M01 A2931 RMK AO2 T01431014 PWINO,KSYF,2022-10-23T11:15:00Z,39.77,-101.8,14.3,-1.4,210,12,,10.0,29.309055,,,TRUE,TRUE,,,,,TRUE,,CLR,,,,,,,,VFR,,,,,,,,,,,,METAR,1041.0
KSXU 231115Z AUTO 22018G28KT 10SM SCT100 17/09 A2966 RMK AO2 T01670090,KSXU,2022-10-23T11:15:00Z,34.93,-104.65,16.7,9.0,220,18,28,10.0,29.660433,,,TRUE,TRUE,,,,,,,SCT,10000,,,,,,,VFR,,,,,,,,,,,,METAR,1465.0
KSXK 231115Z AUTO 13017KT 10SM CLR 13/11 A2944 RMK AO2,KSXK,2022-10-23T11:15:00Z,42.98,-96.17,13.0,11.0,130,17,,10.0,29.438976,,,TRUE,TRUE,,,,,,,CLR,,,,,,,,VFR,,,,,,,,,,,,METAR,430.0
KSWW 231115Z AUTO 19017G21KT 10SM CLR 20/12 A2976 RMK AO2 T02020116,KSWW,2022-10-23T11:15:00Z,32.47,-100.47,20.2,11.6,190,17,21,10.0,29.760826,,,TRUE,TRUE,,,,,,,CLR,,,,,,,,VFR,,,,,,,,,,,,METAR,718.0
KSVH 231115Z AUTO 00000KT 10SM CLR 03/02 A3022 RMK AO2 T00270016,KSVH,2022-10-23T11:15:00Z,35.75,-80.95,2.7,1.6,0,0,,10.0,30.221457,,,TRUE,TRUE,,,,,,,CLR,,,,,,,,VFR,,,,,,,,,,,,METAR,286.0
KSVE 231115Z AUTO 16003KT 10SM OVC040 00/M05 A2991 RMK AO2,KSVE,2022-10-23T11:15:00Z,40.37,-120.57,0.0,-5.0,160,3,,10.0,29.911417,,,TRUE,TRUE,,,,,,,OVC,4000,,,,,,,VFR,,,,,,,,,,,,METAR,1263.0
KSVC 231115Z AUTO 00000KT 10SM SCT036 SCT050 SCT070 15/13 A2984 RMK AO2 T01460132,KSVC,2022-10-23T11:15:00Z,32.63,-108.15,14.6,13.2,0,0,,10.0,29.840551,,,TRUE,TRUE,,,,,,,SCT,3600,SCT,5000,SCT,7000,,,VFR,,,,,,,,,,,,METAR,1638.0
KSUZ 231115Z AUTO 19011KT 10SM OVC035 20/16 A2995 RMK A01,KSUZ,2022-10-23T11:15:00Z,34.58,-92.48,20.0,16.0,190,11,,10.0,29.949802,,,TRUE,TRUE,,,,,,,OVC,3500,,,,,,,VFR,,,,,,,,,,,,METAR,114.0
KSUW 231115Z AUTO 06005KT 10SM OVC005 09/08 A2971 RMK AO2 T00900082,KSUW,2022-10-23T11:15:00Z,46.68,-92.1,9.0,8.2,60,5,,10.0,29.71063,,,TRUE,TRUE,,,,,,,OVC,500,,,,,,,IFR,,,,,,,,,,,,SPECI,205.0
KSUN 231115Z AUTO 36004KT 10SM CLR 00/M05 A2965 RMK AO2,KSUN,2022-10-23T11:15:00Z,43.5,-114.28,0.0,-5.0,360,4,,10.0,29.648623,,,TRUE,TRUE,,,,,,,CLR,,,,,,,,VFR,,,,,,,,,,,,METAR,1619.0
KSTK 231115Z AUTO 00000KT 10SM CLR 05/M03 A2927 RMK AO2,KSTK,2022-10-23T11:15:00Z,40.62,-103.27,5.0,-3.0,0,0,,10.0,29.27067,,,TRUE,TRUE,,,,,,,CLR,,,,,,,,VFR,,,,,,,,,,,,METAR,1228.0
KSTF 231115Z AUTO 00000KT 1 1/2SM BR CLR 12/12 A3011 RMK AO2,KSTF,2022-10-23T11:15:00Z,33.43,-88.85,12.0,12.0,0,0,,1.5,30.109253,,,TRUE,TRUE,,,,,,BR,CLR,,,,,,,,IFR,,,,,,,,,,,,METAR,99.0
KSTE 231115Z AUTO 13005KT 10SM CLR 15/10 A2983 RMK AO2 T01450100,KSTE,2022-10-23T11:15:00Z,44.55,-89.53,14.5,10.0,130,5,,10.0,29.828741,,,TRUE,TRUE,,,,,,,CLR,,,,,,,,VFR,,,,,,,,,,,,METAR,335.0
KSRR 231115Z AUTO 24043G54KT 10SM 14/07 A2976 RMK AO2,KSRR,2022-10-23T11:15:00Z,33.47,-105.52,14.0,7.0,240,43,54,10.0,29.760826,,,TRUE,TRUE,,,,,,,,,,,,,,,,,,,,,,,,,,,METAR,2063.0
KSRE 231115Z AUTO 10SM CLR 20/15 A2973 RMK AO2,KSRE,2022-10-23T11:15:00Z,35.27,-96.68,20.0,15.0,,,,10.0,29.731298,,,TRUE,TRUE,,,,,,,CLR,,,,,,,,VFR,,,,,,,,,,,,METAR,306.0
KSRB 231115Z AUTO 00000KT 10SM CLR 09/06 A3019 RMK A01,KSRB,2022-10-23T11:15:00Z,36.05,-85.53,9.0,6.0,0,0,,10.0,30.188976,,,TRUE,TRUE,,,,,,,CLR,,,,,,,,VFR,,,,,,,,,,,,METAR,303.0
KSQL 231115Z AUTO 30007KT 10SM CLR 12/05 A2991 RMK AO2,KSQL,2022-10-23T11:15:00Z,37.52,-122.25,12.0,5.0,300,7,,10.0,29.911417,,,TRUE,TRUE,,,,,,,CLR,,,,,,,,VFR,,,,,,,,,,,,METAR,1.0
KSPF 231115Z AUTO 30008KT 10SM FEW120 05/03 A2934 RMK AO2,KSPF,2022-10-23T11:15:00Z,44.47,-103.78,5.0,3.0,300,8,,10.0,29.338583,,,TRUE,TRUE,,,,,,,FEW,12000,,,,,,,VFR,,,,,,,,,,,,METAR,1191.0
KSPA 231115Z AUTO 00000KT 10SM CLR 07/02 A3021 RMK AO2,KSPA,2022-10-23T11:15:00Z,34.92,-81.95,7.0,2.0,0,0,,10.0,30.209646,,,TRUE,TRUE,,,,,,,CLR,,,,,,,,VFR,,,,,,,,,,,,METAR,242.0
KSOW 231115Z AUTO 20018G24KT 10SM BKN021 BKN027 BKN036 10/05 A2978 RMK AO2,KSOW,2022-10-23T11:15:00Z,34.27,-110.0,10.0,5.0,200,18,24,10.0,29.778543,,,TRUE,TRUE,,,,,,,BKN,2100,BKN,2700,BKN,3600,,,MVFR,,,,,,,,,,,,METAR,1954.0
KSNK 231115Z AUTO 18008KT 10SM CLR 19/11 A2974 RMK AO2 T01880105,KSNK,2022-10-23T11:15:00Z,32.7,-100.95,18.8,10.5,180,8,,10.0,29.740158,,,TRUE,TRUE,,,,,,,CLR,,,,,,,,VFR,,,,,,,,,,,,METAR,738.0
KSNC 231115Z AUTO 34005KT 10SM CLR 10/09 A3031 RMK AO2,KSNC,2022-10-23T11:15:00Z,41.38,-72.5,10.0,9.0,340,5,,10.0,30.31004,,,TRUE,TRUE,,,,,,,CLR,,,,,,,,VFR,,,,,,,,,,,,SPECI,114.0
KSMS 231115Z AUTO 00000KT 10SM CLR 08/07 A3020 RMK AO2,KSMS,2022-10-23T11:15:00Z,34.0,-80.37,8.0,7.0,0,0,,10.0,30.200787,,,TRUE,TRUE,,,,,,,CLR,,,,,,,,VFR,,,,,,,,,,,,SPECI,53.0
KSME 231115Z AUTO 00000KT 9SM BKN055 08/08 A3019 RMK AO2,KSME,2022-10-23T11:15:00Z,37.05,-84.62,8.0,8.0,0,0,,9.0,30.188976,,,TRUE,TRUE,,,,,,,BKN,5500,,,,,,,VFR,,,,,,,,,,,,METAR,279.0
KSLO 231115Z AUTO 15007KT 10SM CLR 18/11 A2994 RMK AO2 T01800113,KSLO,2022-10-23T11:15:00Z,38.65,-88.97,18.0,11.3,150,7,,10.0,29.940945,,,TRUE,TRUE,,,,,,,CLR,,,,,,,,VFR,,,,,,,,,,,,METAR,173.0
KSLH 231115Z AUTO 15005KT 10SM CLR 07/07 A3000 RMK AO2,KSLH,2022-10-23T11:15:00Z,45.65,-84.52,7.0,7.0,150,5,,10.0,30.0,,,TRUE,TRUE,,,,,,,CLR,,,,,,,,VFR,,,,,,,,,,,,METAR,193.0
KSJX 231115Z AUTO 16003KT 10SM CLR 14/11 A2996 RMK AO2 T01420112,KSJX,2022-10-23T11:15:00Z,45.7,-85.57,14.2,11.2,160,3,,10.0,29.958662,,,TRUE,TRUE,,,,,,,CLR,,,,,,,,VFR,,,,,,,,,,,,SPECI,202.0
KSIK 231115Z AUTO 16006KT 10SM CLR 17/12 A2999 RMK AO2,KSIK,2022-10-23T11:15:00Z,36.9,-89.57,17.0,12.0,160,6,,10.0,29.991142,,,TRUE,TRUE,,,,,,,CLR,,,,,,,,VFR,,,,,,,,,,,,METAR,95.0
KSIF 231115Z AUTO 00000KT 10SM CLR 01/01 A3024 RMK AO2 T00110011,KSIF,2022-10-23T11:15:00Z,36.43,-79.85,1.1,1.1,0,0,,10.0,30.239174,,,TRUE,TRUE,,,,,,,CLR,,,,,,,,VFR,,,,,,,,,,,,METAR,206.0
KSHD 231115Z AUTO 00000KT 10SM CLR M01/M02 A3028 RMK AO2 T10151017,KSHD,2022-10-23T11:15:00Z,38.27,-78.9,-1.5,-1.7,0,0,,10.0,30.280512,,,TRUE,TRUE,,,,,,,CLR,,,,,,,,VFR,,,,,,,,,,,,METAR,360.0
KSGS 231115Z AUTO 14004KT 10SM CLR 16/08 A2964 RMK AO2 T01560082,KSGS,2022-10-23T11:15:00Z,44.87,-93.03,15.6,8.2,140,4,,10.0,29.639763,,,TRUE,TRUE,,,,,,,CLR,,,,,,,,VFR,,,,,,,,,,,,SPECI,250.0
KSFQ 231115Z AUTO 03003KT 10SM OVC009 15/13 A3014 RMK AO2 T01450129,KSFQ,2022-10-23T11:15:00Z,36.68,-76.6,14.5,12.9,30,3,,10.0,30.138779,,,TRUE,TRUE,,,,,,,OVC,900,,,,,,,IFR,,,,,,,,,,,,METAR,19.0
KSEZ 231115Z AUTO 17014G22KT 130V190 10SM 12/09 A2970 RMK AO2 LTG DSNT N,KSEZ,2022-10-23T11:15:00Z,34.85,-111.78,12.0,9.0,170,14,22,10.0,29.698818,,,TRUE,TRUE,,,,,,,,,,,,,,,,,,,,,,,,,,,METAR,1455.0
KSEP 231115Z AUTO 17008KT 10SM CLR 19/16 A2982 RMK AO2 T01870164,KSEP,2022-10-23T11:15:00Z,32.22,-98.17,18.7,16.4,170,8,,10.0,29.819881,,,TRUE,TRUE,,,,,,,CLR,,,,,,,,VFR,,,,,,,,,,,,METAR,399.0
KSEM 231115Z AUTO 00000KT 10SM OVC040 08/08 A3016 RMK AO2,KSEM,2022-10-23T11:15:00Z,32.35,-86.98,8.0,8.0,0,0,,10.0,30.159449,,,TRUE,TRUE,,,,,,,OVC,4000,,,,,,,VFR,,,,,,,,,,,,METAR,48.0
KSEE 231115Z AUTO 28003KT 10SM BKN024 BKN030 16/14 A2980 RMK AO2,KSEE,2022-10-23T11:15:00Z,32.82,-116.97,16.0,14.0,280,3,,10.0,29.799213,,,TRUE,TRUE,,,,,,,BKN,2400,BKN,3000,,,,,MVFR,,,,,,,,,,,,METAR,113.0
KSDC 231115Z AUTO 16004KT 10SM CLR 08/02 A3028 RMK AO2,KSDC,2022-10-23T11:15:00Z,43.23,-77.12,8.0,2.0,160,4,,10.0,30.280512,,,TRUE,TRUE,,,,,,,CLR,,,,,,,,VFR,,,,,,,,,,,,SPECI,127.0
KSCX 231115Z AUTO 00000KT 10SM CLR 06/05 A3022 RMK A01,KSCX,2022-10-23T11:15:00Z,36.45,-84.58,6.0,5.0,0,0,,10.0,30.221457,,,TRUE,TRUE,,,,,,,CLR,,,,,,,,VFR,,,,,,,,,,,,METAR,462.0
KSCR 231115Z AUTO 00000KT 10SM CLR 05/05 A3022 RMK AO2 T00490049,KSCR,2022-10-23T11:15:00Z,35.7,-79.5,4.9,4.9,0,0,,10.0,30.221457,,,TRUE,TRUE,,,,,,,CLR,,,,,,,,VFR,,,,,,,,,,,,METAR,182.0
KSCD 231115Z AUTO 00000KT 7SM BKN110 05/05 A3019 RMK AO2 T00480047,KSCD,2022-10-23T11:15:00Z,33.17,-86.3,4.8,4.7,0,0,,7.0,30.188976,,,TRUE,TRUE,,,,,,,BKN,11000,,,,,,,VFR,,,,,,,,,,,,METAR,164.0
KSAZ 231115Z AUTO 13003KT 10SM CLR 12/07 A2957 RMK AO2,KSAZ,2022-10-23T11:15:00Z,46.37,-94.8,12.0,7.0,130,3,,10.0,29.568897,,,TRUE,TRUE,,,,,,,CLR,,,,,,,,VFR,,,,,,,,,,,,SPECI,391.0
KSAR 231115Z AUTO 16012G21KT 10SM SCT110 18/12 A2992 RMK AO2 T01800116,KSAR,2022-10-23T11:15:00Z,38.15,-89.7,18.0,11.6,160,12,21,10.0,29.920275,,,TRUE,TRUE,,,,,,,SCT,11000,,,,,,,VFR,,,,,,,,,,,,METAR,162.0
KSAA 231115Z AUTO 00000KT 7SM -SN SCT004 SCT011 OVC017 00/00 A2947 RMK AO2,KSAA,2022-10-23T11:15:00Z,41.45,-106.8,0.0,0.0,0,0,,7.0,29.471457,,,TRUE,TRUE,,,,,,-SN,SCT,400,SCT,1100,OVC,1700,,,MVFR,,,,,,,,,,,,METAR,2093.0
KS71 231115Z AUTO 06004KT 7SM 03/02 A2959 ,KS71,2022-10-23T11:15:00Z,48.6,-109.25,3.0,2.0,60,4,,7.0,29.589567,,,TRUE,,,,,,,,,,,,,,,,,,,,,,,,,,,,METAR,736.0
KS59 231115Z AUTO 00000KT 10SM 02/02 A2979 ,KS59,2022-10-23T11:15:00Z,48.28,-115.48,2.0,2.0,0,0,,10.0,29.790354,,,TRUE,,,,,,,,,,,,,,,,,,,,,,,,,,,,METAR,793.0
KS52 231115Z AUTO 00000KT 10SM BKN110 M04/M06 A2990 RMK AO2 T10381058,KS52,2022-10-23T11:15:00Z,48.42,-120.15,-3.8,-5.8,0,0,,10.0,29.899607,,,TRUE,TRUE,,,,,,,BKN,11000,,,,,,,VFR,,,,,,,,,,,,METAR,517.0
KS39 231115Z AUTO 00000KT 10SM FEW021 FEW026 SCT042 M02/M02 A2992 RMK AO2,KS39,2022-10-23T11:15:00Z,44.28,-120.9,-2.0,-2.0,0,0,,10.0,29.920275,,,TRUE,TRUE,,,,,,,FEW,2100,FEW,2600,SCT,4200,,,VFR,,,,,,,,,,,,METAR,987.0
KS33 231115Z AUTO 16003KT 10SM CLR M01/M02 A2994 RMK AO2,KS33,2022-10-23T11:15:00Z,44.67,-121.15,-1.0,-2.0,160,3,,10.0,29.940945,,,TRUE,TRUE,,,,,,,CLR,,,,,,,,VFR,,,,,,,,,,,,METAR,739.0
KS32 231115Z AUTO 05016KT 10SM FEW031 FEW038 BKN065 05/05 A2952 RMK AO2 TSNO,KS32,2022-10-23T11:15:00Z,47.42,-98.1,5.0,5.0,50,16,,10.0,29.518702,,,TRUE,TRUE,,,TRUE,,,,FEW,3100,FEW,3800,BKN,6500,,,VFR,,,,,,,,,,,,METAR,435.0
KS25 231115Z AUTO 08016G26KT 10SM OVC008 06/06 A2948 RMK AO2,KS25,2022-10-23T11:15:00Z,47.8,-103.25,6.0,6.0,80,16,26,10.0,29.480314,,,TRUE,TRUE,,,,,,,OVC,800,,,,,,,IFR,,,,,,,,,,,,METAR,632.0
KS24 231115Z AUTO 17006KT 10SM FEW060 14/08 A3015 RMK AO2,KS24,2022-10-23T11:15:00Z,,,14.0,8.0,170,6,,10.0,30.15059,,,TRUE,TRUE,,,,,,,FEW,6000,,,,,,,VFR,,,,,,,,,,,,SPECI,
KS21 231115Z AUTO 18006KT 10SM CLR M03/M04 A2995 RMK AO2,KS21,2022-10-23T11:15:00Z,43.88,-121.45,-3.0,-4.0,180,6,,10.0,29.949802,,,TRUE,TRUE,,,,,,,CLR,,,,,,,,VFR,,,,,,,,,,,,METAR,1269.0
KRZT 231115Z AUTO 17003KT 10SM CLR 11/07 A3019 RMK AO2 PWINO,KRZT,2022-10-23T11:15:00Z,39.43,-83.02,11.0,7.0,170,3,,10.0,30.188976,,,TRUE,TRUE,,,,,TRUE,,CLR,,,,,,,,VFR,,,,,,,,,,,,SPECI,217.0
KRZR 231115Z AUTO 00000KT 9SM CLR 03/03 A3021 RMK A01,KRZR,2022-10-23T11:15:00Z,35.22,-84.8,3.0,3.0,0,0,,9.0,30.209646,,,TRUE,TRUE,,,,,,,CLR,,,,,,,,VFR,,,,,,,,,,,,METAR,259.0
KRZN 231115Z AUTO 15009KT 10SM CLR 15/08 A2969 RMK AO2 T01480078,KRZN,2022-10-23T11:15:00Z,45.82,-92.37,14.8,7.8,150,9,,10.0,29.68996,,,TRUE,TRUE,,,,,,,CLR,,,,,,,,VFR,,,,,,,,,,,,METAR,301.0
KRZL 231115Z AUTO 15011G16KT 10SM OVC050 16/10 A2999 RMK AO2,KRZL,2022-10-23T11:15:00Z,40.95,-87.18,16.0,10.0,150,11,16,10.0,29.991142,,,TRUE,TRUE,,,,,,,OVC,5000,,,,,,,VFR,,,,,,,,,,,,METAR,210.0
KRYW 231115Z AUTO 20009G15KT 10SM OVC016 21/18 A2987 RMK AO2 T02100175,KRYW,2022-10-23T11:15:00Z,30.5,-97.97,21.0,17.5,200,9,15,10.0,29.870079,,,TRUE,TRUE,,,,,,,OVC,1600,,,,,,,MVFR,,,,,,,,,,,,METAR,370.0
KRYV 231115Z AUTO 13005KT 10SM CLR 13/11 A2987 RMK AO2 T01280105,KRYV,2022-10-23T11:15:00Z,43.17,-88.72,12.8,10.5,130,5,,10.0,29.870079,,,TRUE,TRUE,,,,,,,CLR,,,,,,,,VFR,,,,,,,,,,,,METAR,249.0
KRWV 231115Z AUTO 14005KT 10SM CLR 17/16 A2989 RMK AO2 T01740165,KRWV,2022-10-23T11:15:00Z,30.52,-96.7,17.4,16.5,140,5,,10.0,29.890747,,,TRUE,TRUE,,,,,,,CLR,,,,,,,,VFR,,,,,,,,,,,,METAR,116.0
KRVL 231115Z AUTO 00000KT 6SM BR CLR 00/M00 A3029 RMK AO2,KRVL,2022-10-23T11:15:00Z,40.68,-77.63,0.0,0.0,0,0,,6.0,30.28937,,,TRUE,TRUE,,,,,,BR,CLR,,,,,,,,VFR,,,,,,,,,,,,METAR,250.0
KRVJ 231115Z AUTO 34005KT 10SM CLR 06/05 A3017 RMK AO2 T00600054,KRVJ,2022-10-23T11:15:00Z,32.07,-82.15,6.0,5.4,340,5,,10.0,30.171259,,,TRUE,TRUE,,,,,,,CLR,,,,,,,,VFR,,,,,,,,,,,,METAR,60.0
KRVF 231115Z AUTO 33005KT 1 3/4SM -SN OVC003 00/M00 A2965 RMK AO2,KRVF,2022-10-23T11:15:00Z,45.53,-112.3,0.0,0.0,330,5,,1.75,29.648623,,,TRUE,TRUE,,,,,,-SN,OVC,300,,,,,,,LIFR,,,,,,,,,,,,METAR,1445.0
KRUQ 231115Z AUTO 00000KT 10SM CLR 02/02 A3023 RMK AO2 T00200015,KRUQ,2022-10-23T11:15:00Z,35.65,-80.52,2.0,1.5,0,0,,10.0,30.230314,,,TRUE,TRUE,,,,,,,CLR,,,,,,,,VFR,,,,,,,,,,,,METAR,231.0
KRUG 231115Z AUTO 06021G27KT 10SM OVC011 06/06 A2955 RMK AO2,KRUG,2022-10-23T11:15:00Z,48.38,-100.02,6.0,6.0,60,21,27,10.0,29.551182,,,TRUE,TRUE,,,,,,,OVC,1100,,,,,,,MVFR,,,,,,,,,,,,METAR,469.0
KRTS 231115Z AUTO 30005KT 10SM CLR M04/M10 A2991 RMK AO2,KRTS,2022-10-23T11:15:00Z,39.67,-119.88,-4.0,-10.0,300,5,,10.0,29.911417,,,TRUE,TRUE,,,,,,,CLR,,,,,,,,VFR,,,,,,,,,,,,METAR,1537.0
KRSV 231115Z AUTO 17011KT 10SM OVC070 17/11 A3002 RMK AO2 T01740108,KRSV,2022-10-23T11:15:00Z,39.02,-87.65,17.4,10.8,170,11,,10.0,30.02067,,,TRUE,TRUE,,,,,,,OVC,7000,,,,,,,VFR,,,,,,,,,,,,METAR,139.0
KRSN 231115Z AUTO 16008KT 10SM BKN046 17/15 A3004 RMK AO2 T01690145,KRSN,2022-10-23T11:15:00Z,32.52,-92.58,16.9,14.5,160,8,,10.0,30.041338,,,TRUE,TRUE,,,,,,,BKN,4600,,,,,,,VFR,,,,,,,,,,,,METAR,86.0
KRRT 231115Z AUTO 05010KT 10SM 08/06 A2964 RMK AO2,KRRT,2022-10-23T11:15:00Z,48.93,-95.33,8.0,6.0,50,10,,10.0,29.639763,,,TRUE,TRUE,,,,,,,,,,,,,,,,,,,,,,,,,,,METAR,327.0
KRRL 231115Z AUTO 12004KT 10SM CLR 11/09 A2983 RMK AO2 T01060092 TSNO,KRRL,2022-10-23T11:15:00Z,45.2,-89.72,10.6,9.2,120,4,,10.0,29.828741,,,TRUE,TRUE,,,TRUE,,,,CLR,,,,,,,,VFR,,,,,,,,,,,,SPECI,397.0
KRQB 231115Z AUTO 00000KT 2SM BR CLR 09/08 A3002 RMK AO2 VIS 1V5 T00850079,KRQB,2022-10-23T11:15:00Z,43.72,-85.5,8.5,7.9,0,0,,2.0,30.02067,,,TRUE,TRUE,,,,,,BR,CLR,,,,,,,,IFR,,,,,,,,,,,,SPECI,282.0
KRPJ 231115Z AUTO 16013KT 10SM CLR 14/12 A2987 RMK AO2 T01410120 TSNO,KRPJ,2022-10-23T11:15:00Z,41.88,-89.08,14.1,12.0,160,13,,10.0,29.870079,,,TRUE,TRUE,,,TRUE,,,,CLR,,,,,,,,VFR,,,,,,,,,,,,METAR,234.0
KRPH 231115Z AUTO 15008KT 130V190 10SM CLR 20/15 A2972 RMK AO2 T02040146 $,KRPH,2022-10-23T11:15:00Z,33.12,-98.55,20.4,14.6,150,8,,10.0,29.719488,,,TRUE,TRUE,TRUE,,,,,,CLR,,,,,,,,VFR,,,,,,,,,,,,METAR,341.0
KRPD 231115Z AUTO 11008KT 10SM CLR 14/11 A2973 RMK AO2 T01350110,KRPD,2022-10-23T11:15:00Z,45.42,-91.77,13.5,11.0,110,8,,10.0,29.731298,,,TRUE,TRUE,,,,,,,CLR,,,,,,,,VFR,,,,,,,,,,,,SPECI,334.0
KROX 231115Z AUTO 06007KT 10SM CLR 06/05 A2962 RMK AO2,KROX,2022-10-23T11:15:00Z,48.85,-95.7,6.0,5.0,60,7,,10.0,29.619095,,,TRUE,TRUE,,,,,,,CLR,,,,,,,,VFR,,,,,,,,,,,,SPECI,320.0
KRNV 231115Z AUTO 16009KT 10SM CLR A3005 RMK AO2 TSNO,KRNV,2022-10-23T11:15:00Z,33.77,-90.75,,,160,9,,10.0,30.050198,,,TRUE,TRUE,,,TRUE,,,,CLR,,,,,,,,VFR,,,,,,,,,,,,METAR,42.0
KRNP 231115Z AUTO 15005KT 10SM CLR 13/09 A3009 RMK AO2 T01320088,KRNP,2022-10-23T11:15:00Z,43.0,-84.13,13.2,8.8,150,5,,10.0,30.088583,,,TRUE,TRUE,,,,,,,CLR,,,,,,,,VFR,,,,,,,,,,,,SPECI,224.0
KRNH 231115Z AUTO 12003KT 10SM CLR 15/12 A2968 RMK AO2 T01480116,KRNH,2022-10-23T11:15:00Z,45.15,-92.53,14.8,11.6,120,3,,10.0,29.681103,,,TRUE,TRUE,,,,,,,CLR,,,,,,,,VFR,,,,,,,,,,,,METAR,302.0
KRNC 231115Z AUTO 00000KT 10SM FEW043 07/06 A3018 RMK A01,KRNC,2022-10-23T11:15:00Z,35.7,-85.85,7.0,6.0,0,0,,10.0,30.180119,,,TRUE,TRUE,,,,,,,FEW,4300,,,,,,,VFR,,,,,,,,,,,,METAR,310.0
KRMY 231115Z AUTO 13007KT 10SM CLR 13/10 A3007 RMK AO2 T01320097,KRMY,2022-10-23T11:15:00Z,42.25,-84.95,13.2,9.7,130,7,,10.0,30.070866,,,TRUE,TRUE,,,,,,,CLR,,,,,,,,VFR,,,,,,,,,,,,METAR,285.0
KRMN 231115Z AUTO 35005KT 10SM CLR 10/07 A3026 RMK AO2 T01000073,KRMN,2022-10-23T11:15:00Z,38.4,-77.45,10.0,7.3,350,5,,10.0,30.259842,,,TRUE,TRUE,,,,,,,CLR,,,,,,,,VFR,,,,,,,,,,,,METAR,50.0
KRLD 231115Z AUTO 00000KT 10SM OVC110 07/03 A2989 RMK AO2 T00680031,KRLD,2022-10-23T11:15:00Z,46.3,-119.3,6.8,3.1,0,0,,10.0,29.890747,,,TRUE,TRUE,,,,,,,OVC,11000,,,,,,,VFR,,,,,,,,,,,,METAR,118.0
KRKR 231115Z AUTO 19016G19KT 10SM SCT033 21/14 A2983 RMK AO2,KRKR,2022-10-23T11:15:00Z,35.02,-94.62,21.0,14.0,190,16,19,10.0,29.828741,,,TRUE,TRUE,,,,,,,SCT,3300,,,,,,,VFR,,,,,,,,,,,,METAR,136.0
KRHP 231115Z AUTO 00000KT 10SM CLR 00/M01 A3025 RMK AO2 T00001006,KRHP,2022-10-23T11:15:00Z,35.18,-83.85,0.0,-0.6,0,0,,10.0,30.250984,,,TRUE,TRUE,,,,,,,CLR,,,,,,,,VFR,,,,,,,,,,,,METAR,515.0
KRGK 231115Z AUTO 11006KT 10SM CLR 16/09 A2967 RMK AO2,KRGK,2022-10-23T11:15:00Z,44.58,-92.48,16.0,9.0,110,6,,10.0,29.66929,,,TRUE,TRUE,,,,,,,CLR,,,,,,,,VFR,,,,,,,,,,,,SPECI,238.0
KRFI 231115Z AUTO 15007KT 10SM CLR 21/16 A2993 RMK AO2 T02080155,KRFI,2022-10-23T11:15:00Z,32.15,-94.85,20.8,15.5,150,7,,10.0,29.929134,,,TRUE,TRUE,,,,,,,CLR,,,,,,,,VFR,,,,,,,,,,,,METAR,133.0
KRCZ 231115Z AUTO 35003KT 10SM CLR 08/08 A3020 RMK AO2 T00830077,KRCZ,2022-10-23T11:15:00Z,34.88,-79.77,8.3,7.7,350,3,,10.0,30.200787,,,TRUE,TRUE,,,,,,,CLR,,,,,,,,VFR,,,,,,,,,,,,METAR,110.0
KRCX 231115Z AUTO 12006KT 10SM SCT120 14/12 A2978 RMK AO2 T01410115,KRCX,2022-10-23T11:15:00Z,45.5,-91.0,14.1,11.5,120,6,,10.0,29.778543,,,TRUE,TRUE,,,,,,,SCT,12000,,,,,,,VFR,,,,,,,,,,,,SPECI,373.0
KRCM 231115Z AUTO 15010G15KT 10SM SCT120 19/12 A2965 RMK AO2,KRCM,2022-10-23T11:15:00Z,38.78,-93.8,19.0,12.0,150,10,15,10.0,29.648623,,,TRUE,TRUE,,,,,,,SCT,12000,,,,,,,VFR,,,,,,,,,,,,METAR,242.0
KRCE 231115Z AUTO 19021G27KT 10SM CLR 20/12 A2965 RMK AO2,KRCE,2022-10-23T11:15:00Z,35.48,-97.82,20.0,12.0,190,21,27,10.0,29.648623,,,TRUE,TRUE,,,,,,,CLR,,,,,,,,VFR,,,,,,,,,,,,METAR,412.0
KRAW 231115Z AUTO 19011G18KT 10SM SCT120 20/12 A2970 RMK AO2,KRAW,2022-10-23T11:15:00Z,38.35,-93.35,20.0,12.0,190,11,18,10.0,29.698818,,,TRUE,TRUE,,,,,,,SCT,12000,,,,,,,VFR,,,,,,,,,,,,METAR,285.0
KRAS 231115Z AUTO 15016KT 10SM SCT029 BKN055 A2988 RMK AO2,KRAS,2022-10-23T11:15:00Z,27.82,-97.08,,,150,16,,10.0,29.878937,,,TRUE,TRUE,,,,,,,SCT,2900,BKN,5500,,,,,VFR,,,,,,,,,,,,METAR,3.0
KPZZ 231115Z AUTO 13016KT 10SM CLR 25/15 A3003 RMK A01,KPZZ,2022-10-23T11:15:00Z,28.43,-91.03,25.0,15.0,130,16,,10.0,30.029528,,,TRUE,TRUE,,,,,,,CLR,,,,,,,,VFR,,,,,,,,,,,,METAR,25.0
KPZQ 231115Z AUTO 16007KT 10SM CLR 13/09 A3005 RMK AO2 T01280093,KPZQ,2022-10-23T11:15:00Z,45.4,-83.82,12.8,9.3,160,7,,10.0,30.050198,,,TRUE,TRUE,,,,,,,CLR,,,,,,,,VFR,,,,,,,,,,,,SPECI,199.0
KPYX 231115Z AUTO 21010KT 10SM CLR 17/09 A2955 RMK AO2 T01710086,KPYX,2022-10-23T11:15:00Z,36.42,-100.75,17.1,8.6,210,10,,10.0,29.551182,,,TRUE,TRUE,,,,,,,CLR,,,,,,,,VFR,,,,,,,,,,,,METAR,890.0
KPWD 231115Z AUTO 08022G30KT 10SM OVC007 03/03 A2953 RMK AO2,KPWD,2022-10-23T11:15:00Z,48.78,-104.52,3.0,3.0,80,22,30,10.0,29.530512,,,TRUE,TRUE,,,,,,,OVC,700,,,,,,,IFR,,,,,,,,,,,,METAR,690.0
KPWC 231115Z AUTO 13006KT 10SM CLR 09/07 A2963 RMK AO2,KPWC,2022-10-23T11:15:00Z,46.72,-94.38,9.0,7.0,130,6,,10.0,29.630905,,,TRUE,TRUE,,,,,,,CLR,,,,,,,,VFR,,,,,,,,,,,,SPECI,394.0
KPVJ 231115Z AUTO 17010G17KT 130V190 10SM CLR 20/16 A2971 RMK AO2 T02000156,KPVJ,2022-10-23T11:15:00Z,34.72,-97.22,20.0,15.6,170,10,17,10.0,29.71063,,,TRUE,TRUE,,,,,,,CLR,,,,,,,,VFR,,,,,,,,,,,,METAR,287.0
KPVF 231115Z AUTO 04004KT 10SM CLR 08/M05 A2985 RMK AO1,KPVF,2022-10-23T11:15:00Z,38.72,-120.75,8.0,-5.0,40,4,,10.0,29.84941,,,TRUE,TRUE,,,,,,,CLR,,,,,,,,VFR,,,,,,,,,,,,METAR,788.0
KPVB 231115Z AUTO 13009KT 10SM CLR 15/12 A2980 RMK AO1 T01480117,KPVB,2022-10-23T11:15:00Z,42.68,-90.43,14.8,11.7,130,9,,10.0,29.799213,,,TRUE,TRUE,,,,,,,CLR,,,,,,,,VFR,,,,,,,,,,,,METAR,311.0
KPUJ 231115Z AUTO 00000KT 7SM CLR 07/03 A3020 RMK AO2,KPUJ,2022-10-23T11:15:00Z,33.92,-84.93,7.0,3.0,0,0,,7.0,30.200787,,,TRUE,TRUE,,,,,,,CLR,,,,,,,,VFR,,,,,,,,,,,,METAR,385.0
KPTS 231115Z AUTO 19020G28KT 10SM SCT120 21/14 A2967 RMK AO2 T02120140 PWINO,KPTS,2022-10-23T11:15:00Z,37.45,-94.73,21.2,14.0,190,20,28,10.0,29.66929,,,TRUE,TRUE,,,,,TRUE,,SCT,12000,,,,,,,VFR,,,,,,,,,,,,SPECI,286.0
KPTD 231115Z AUTO 00000KT 10SM CLR 08/02 A3029 RMK AO2,KPTD,2022-10-23T11:15:00Z,44.68,-74.95,8.0,2.0,0,0,,10.0,30.28937,,,TRUE,TRUE,,,,,,,CLR,,,,,,,,VFR,,,,,,,,,,,,METAR,144.0
KPTB 231115Z AUTO 34006KT 10SM CLR 10/08 A3020 RMK AO2 T00990077,KPTB,2022-10-23T11:15:00Z,37.17,-77.52,9.9,7.7,340,6,,10.0,30.200787,,,TRUE,TRUE,,,,,,,CLR,,,,,,,,VFR,,,,,,,,,,,,SPECI,56.0
KPSO 231115Z AUTO 22019G26KT 10SM SCT039 SCT048 BKN065 10/01 A2969 RMK AO2 T00970012,KPSO,2022-10-23T11:15:00Z,37.28,-107.05,9.7,1.2,220,19,26,10.0,29.68996,,,TRUE,TRUE,,,,,,,SCT,3900,SCT,4800,BKN,6500,,,VFR,,,,,,,,,,,,METAR,2332.0
KPSK 231115Z AUTO 00000KT 10SM CLR 00/00 A3026 RMK AO2 T00020002,KPSK,2022-10-23T11:15:00Z,37.13,-80.67,0.2,0.2,0,0,,10.0,30.259842,,,TRUE,TRUE,,,,,,,CLR,,,,,,,,VFR,,,,,,,,,,,,METAR,629.0
KPRS 231115Z AUTO 12005KT 10SM CLR 21/08 A2982 RMK AO2 T02130076,KPRS,2022-10-23T11:15:00Z,29.63,-104.35,21.3,7.6,120,5,,10.0,29.819881,,,TRUE,TRUE,,,,,,,CLR,,,,,,,,VFR,,,,,,,,,,,,METAR,890.0
KPRO 231115Z AUTO 13012KT 10SM CLR 16/11 A2958 RMK AO2 T01610111,KPRO,2022-10-23T11:15:00Z,41.83,-94.17,16.1,11.1,130,12,,10.0,29.58071,,,TRUE,TRUE,,,,,,,CLR,,,,,,,,VFR,,,,,,,,,,,,METAR,308.0
KPRG 231115Z AUTO 16016G22KT 10SM SCT070 17/12 A2999 RMK AO2 T01700120,KPRG,2022-10-23T11:15:00Z,39.7,-87.67,17.0,12.0,160,16,22,10.0,29.991142,,,TRUE,TRUE,,,,,,,SCT,7000,,,,,,,VFR,,,,,,,,,,,,METAR,197.0
KPPO 231115Z AUTO 17006KT 10SM CLR 14/12 A3000 RMK AO2 T01420122,KPPO,2022-10-23T11:15:00Z,41.57,-86.73,14.2,12.2,170,6,,10.0,30.0,,,TRUE,TRUE,,,,,,,CLR,,,,,,,,VFR,,,,,,,,,,,,METAR,242.0
KPOV 231115Z AUTO 11003KT 10SM CLR 07/03 A3020 RMK AO2 T00690028 PWINO,KPOV,2022-10-23T11:15:00Z,41.22,-81.25,6.9,2.8,110,3,,10.0,30.200787,,,TRUE,TRUE,,,,,TRUE,,CLR,,,,,,,,VFR,,,,,,,,,,,,SPECI,363.0
KPNM 231115Z AUTO 11005KT 10SM CLR 13/08 A2963 RMK AO2 TSNO,KPNM,2022-10-23T11:15:00Z,45.53,-93.6,13.0,8.0,110,5,,10.0,29.630905,,,TRUE,TRUE,,,TRUE,,,,CLR,,,,,,,,VFR,,,,,,,,,,,,SPECI,298.0
KPMV 231115Z AUTO 15014G20KT 10SM CLR 17/13 A2946 RMK AO2 T01710128,KPMV,2022-10-23T11:15:00Z,40.95,-95.92,17.1,12.8,150,14,20,10.0,29.459646,,,TRUE,TRUE,,,,,,,CLR,,,,,,,,VFR,,,,,,,,,,,,METAR,365.0
KPMH 231115Z AUTO 00000KT 7SM CLR 08/06 A3021 RMK AO2 T00750056,KPMH,2022-10-23T11:15:00Z,38.83,-82.85,7.5,5.6,0,0,,7.0,30.209646,,,TRUE,TRUE,,,,,,,CLR,,,,,,,,VFR,,,,,,,,,,,,METAR,200.0
KPLR 231115Z AUTO 00000KT 3SM BR SCT025 SCT030 BKN040 06/05 A3020 RMK A01,KPLR,2022-10-23T11:15:00Z,33.57,-86.25,6.0,5.0,0,0,,3.0,30.200787,,,TRUE,TRUE,,,,,,BR,SCT,2500,SCT,3000,BKN,4000,,,MVFR,,,,,,,,,,,,METAR,145.0
KPKV 231115Z AUTO 15005KT 10SM SCT031 BKN046 BKN050 21/19 A2988 RMK AO2 T02110185,KPKV,2022-10-23T11:15:00Z,28.65,-96.68,21.1,18.5,150,5,,10.0,29.878937,,,TRUE,TRUE,,,,,,,SCT,3100,BKN,4600,BKN,5000,,,VFR,,,,,,,,,,,,METAR,8.0
KPHT 231115Z AUTO 17012KT 10SM BKN048 OVC055 17/11 A3007 RMK A01,KPHT,2022-10-23T11:15:00Z,36.33,-88.38,17.0,11.0,170,12,,10.0,30.070866,,,TRUE,TRUE,,,,,,,BKN,4800,OVC,5500,,,,,VFR,,,,,,,,,,,,METAR,172.0
KPHN 231115Z AUTO 00000KT 10SM CLR 10/07 A3014 RMK AO2,KPHN,2022-10-23T11:15:00Z,42.92,-82.52,10.0,7.0,0,0,,10.0,30.138779,,,TRUE,TRUE,,,,,,,CLR,,,,,,,,VFR,,,,,,,,,,,,METAR,195.0
KPGV 231115Z AUTO 34005KT 10SM CLR 12/12 A3013 RMK AO2,KPGV,2022-10-23T11:15:00Z,35.63,-77.4,12.0,12.0,340,5,,10.0,30.129921,,,TRUE,TRUE,,,,,,,CLR,,,,,,,,VFR,,,,,,,,,,,,SPECI,6.0
KPEZ 231115Z AUTO 14003KT 10SM CLR 20/18 A2986 RMK AO2 T01950181,KPEZ,2022-10-23T11:15:00Z,28.95,-98.52,19.5,18.1,140,3,,10.0,29.861221,,,TRUE,TRUE,,,,,,,CLR,,,,,,,,VFR,,,,,,,,,,,,METAR,126.0
KPEX 231115Z AUTO 13009KT 10SM CLR 13/08 A2957 RMK AO2,KPEX,2022-10-23T11:15:00Z,45.37,-94.73,13.0,8.0,130,9,,10.0,29.568897,,,TRUE,TRUE,,,,,,,CLR,,,,,,,,VFR,,,,,,,,,,,,METAR,359.0
KPDC 231115Z AUTO 10005KT 10SM CLR 15/11 A2976 RMK AO2 T01530110,KPDC,2022-10-23T11:15:00Z,43.02,-91.12,15.3,11.0,100,5,,10.0,29.760826,,,TRUE,TRUE,,,,,,,CLR,,,,,,,,VFR,,,,,,,,,,,,SPECI,201.0
KPCZ 231115Z AUTO 11004KT 10SM CLR 11/10 A2985 RMK AO2 T01100101,KPCZ,2022-10-23T11:15:00Z,44.33,-89.02,11.0,10.1,110,4,,10.0,29.84941,,,TRUE,TRUE,,,,,,,CLR,,,,,,,,VFR,,,,,,,,,,,,SPECI,248.0
KPCW 231115Z AUTO 17006KT 10SM OVC060 12/10 A3014 RMK AO2,KPCW,2022-10-23T11:15:00Z,41.52,-82.87,12.0,10.0,170,6,,10.0,30.138779,,,TRUE,TRUE,,,,,,,OVC,6000,,,,,,,VFR,,,,,,,,,,,,METAR,179.0
KPCM 231115Z AUTO 03003KT 10SM CLR 17/15 A3012 RMK AO2,KPCM,2022-10-23T11:15:00Z,28.0,-82.17,17.0,15.0,30,3,,10.0,30.121063,,,TRUE,TRUE,,,,,,,CLR,,,,,,,,VFR,,,,,,,,,,,,SPECI,43.0
KPCD 231115Z AUTO 16010G18KT 110V180 10SM BKN110 18/13 A2991 RMK AO2 T01800130,KPCD,2022-10-23T11:15:00Z,37.87,-89.87,18.0,13.0,160,10,18,10.0,29.911417,,,TRUE,TRUE,,,,,,,BKN,11000,,,,,,,VFR,,,,,,,,,,,,METAR,112.0
KPBH 231115Z AUTO 15004KT 10SM CLR 13/09 A2979 RMK AO2 T01310093,KPBH,2022-10-23T11:15:00Z,45.7,-90.4,13.1,9.3,150,4,,10.0,29.790354,,,TRUE,TRUE,,,,,,,CLR,,,,,,,,VFR,,,,,,,,,,,,METAR,445.0
KPAN 231115Z AUTO VRB07G16KT 170V230 4SM BR SCT007 BKN018 OVC034 11/10 A2978 RMK AO2 PWINO TSNO,KPAN,2022-10-23T11:15:00Z,34.25,-111.33,11.0,10.0,0,7,16,4.0,29.778543,,,TRUE,TRUE,,,TRUE,,TRUE,BR,SCT,700,BKN,1800,OVC,3400,,,MVFR,,,,,,,,,,,,METAR,1575.0
KP08 231115Z AUTO 20016G21KT 10SM CLR 20/13 A2973 RMK AO2,KP08,2022-10-23T11:15:00Z,32.93,-111.43,20.0,13.0,200,16,21,10.0,29.731298,,,TRUE,TRUE,,,,,,,CLR,,,,,,,,VFR,,,,,,,,,,,,METAR,477.0
KOZW 231115Z AUTO 14004KT 10SM CLR 11/09 A3010 RMK AO2 T01100090,KOZW,2022-10-23T11:15:00Z,42.62,-83.98,11.0,9.0,140,4,,10.0,30.100393,,,TRUE,TRUE,,,,,,,CLR,,,,,,,,VFR,,,,,,,,,,,,METAR,288.0
KOZS 231115Z AUTO 17011G17KT 10SM SCT100 20/12 A2975 RMK AO2,KOZS,2022-10-23T11:15:00Z,37.97,-92.68,20.0,12.0,170,11,17,10.0,29.749016,,,TRUE,TRUE,,,,,,,SCT,10000,,,,,,,VFR,,,,,,,,,,,,SPECI,321.0
KOXV 231115Z AUTO 14013KT 10SM CLR 17/11 A2964 RMK AO2,KOXV,2022-10-23T11:15:00Z,41.28,-93.12,17.0,11.0,140,13,,10.0,29.639763,,,TRUE,TRUE,,,,,,,CLR,,,,,,,,VFR,,,,,,,,,,,,METAR,280.0
KOXI 231115Z AUTO 16008KT 10SM SCT070 15/10 A2999 RMK AO1,KOXI,2022-10-23T11:15:00Z,41.33,-86.67,15.0,10.0,160,8,,10.0,29.991142,,,TRUE,TRUE,,,,,,,SCT,7000,,,,,,,VFR,,,,,,,,,,,,METAR,208.0
KOXD 231115Z AUTO 00000KT 10SM CLR 15/09 A3014 RMK AO2 T01450086,KOXD,2022-10-23T11:15:00Z,39.5,-84.78,14.5,8.6,0,0,,10.0,30.138779,,,TRUE,TRUE,,,,,,,CLR,,,,,,,,VFR,,,,,,,,,,,,SPECI,317.0
KOVL 231115Z AUTO 13009KT 10SM CLR 13/08 A2954 RMK AO2,KOVL,2022-10-23T11:15:00Z,44.78,-95.03,13.0,8.0,130,9,,10.0,29.53937,,,TRUE,TRUE,,,,,,,CLR,,,,,,,,VFR,,,,,,,,,,,,SPECI,329.0
KOSC 231115Z AUTO 20003KT 10SM CLR 09/09 A3007 RMK AO2 T00920088,KOSC,2022-10-23T11:15:00Z,44.45,-83.4,9.2,8.8,200,3,,10.0,30.070866,,,TRUE,TRUE,,,,,,,CLR,,,,,,,,VFR,,,,,,,,,,,,METAR,191.0
KORS 231115Z AUTO 18004KT 1 1/4SM BR SCT019 SCT024 OVC043 05/ A2997 RMK AO2,KORS,2022-10-23T11:15:00Z,48.7,-122.92,5.0,,180,4,,1.25,29.970472,,,TRUE,TRUE,,,,,,BR,SCT,1900,SCT,2400,OVC,4300,,,IFR,,,,,,,,,,,,METAR,7.0
KOQN 231115Z AUTO 04005KT 10SM OVC023 11/06 A3026 RMK AO2,KOQN,2022-10-23T11:15:00Z,39.98,-75.58,11.0,6.0,40,5,,10.0,30.259842,,,TRUE,TRUE,,,,,,,OVC,2300,,,,,,,MVFR,,,,,,,,,,,,METAR,141.0
KONZ 231115Z AUTO 17006KT 10SM SCT100 12/09 A3014 RMK AO2 T01150088,KONZ,2022-10-23T11:15:00Z,42.1,-83.15,11.5,8.8,170,6,,10.0,30.138779,,,TRUE,TRUE,,,,,,,SCT,10000,,,,,,,VFR,,,,,,,,,,,,SPECI,179.0
KONX 231115Z AUTO 01013G18KT 10SM OVC004 15/15 A3009 RMK AO2 T01510151,KONX,2022-10-23T11:15:00Z,36.4,-76.02,15.1,15.1,10,13,18,10.0,30.088583,,,TRUE,TRUE,,,,,,,OVC,400,,,,,,,LIFR,,,,,,,,,,,,METAR,4.0
KONM 231115Z AUTO 11003KT 10SM SCT085 SCT090 13/10 A2973 RMK AO2 T01260100,KONM,2022-10-23T11:15:00Z,34.02,-106.9,12.6,10.0,110,3,,10.0,29.731298,,,TRUE,TRUE,,,,,,,SCT,8500,SCT,9000,,,,,VFR,,,,,,,,,,,,METAR,1467.0
KONA 231115Z AUTO 12006KT 10SM CLR 15/10 A2972 RMK AO2,KONA,2022-10-23T11:15:00Z,44.07,-91.7,15.0,10.0,120,6,,10.0,29.719488,,,TRUE,TRUE,,,,,,,CLR,,,,,,,,VFR,,,,,,,,,,,,METAR,200.0
KOMH 231115Z AUTO 00000KT 10SM CLR 06/04 A3026 RMK AO2,KOMH,2022-10-23T11:15:00Z,38.25,-78.05,6.0,4.0,0,0,,10.0,30.259842,,,TRUE,TRUE,,,,,,,CLR,,,,,,,,VFR,,,,,,,,,,,,SPECI,136.0
KOLY 231115Z AUTO 16014G18KT 10SM CLR 18/10 A2999 RMK AO2 T01840100,KOLY,2022-10-23T11:15:00Z,38.72,-88.18,18.4,10.0,160,14,18,10.0,29.991142,,,TRUE,TRUE,,,,,,,CLR,,,,,,,,VFR,,,,,,,,,,,,METAR,144.0
KOLV 231115Z AUTO 16007KT 10SM CLR 16/13 A3005 RMK A01,KOLV,2022-10-23T11:15:00Z,34.98,-89.78,16.0,13.0,160,7,,10.0,30.050198,,,TRUE,TRUE,,,,,,,CLR,,,,,,,,VFR,,,,,,,,,,,,METAR,124.0
KOLG 231115Z AUTO 00000KT 10SM CLR 03/02 A2970 RMK AO1,KOLG,2022-10-23T11:15:00Z,46.3,-91.82,3.0,2.0,0,0,,10.0,29.698818,,,TRUE,TRUE,,,,,,,CLR,,,,,,,,VFR,,,,,,,,,,,,METAR,334.0
KOLE 231115Z AUTO 21008KT 10SM CLR 07/01 A3028 RMK AO2,KOLE,2022-10-23T11:15:00Z,42.23,-78.37,7.0,1.0,210,8,,10.0,30.280512,,,TRUE,TRUE,,,,,,,CLR,,,,,,,,VFR,,,,,,,,,,,,METAR,651.0
KOKV 231115Z AUTO 12003KT 7SM CLR 01/00 A3027 RMK AO2,KOKV,2022-10-23T11:15:00Z,39.13,-78.15,1.0,0.0,120,3,,7.0,30.268702,,,TRUE,TRUE,,,,,,,CLR,,,,,,,,VFR,,,,,,,,,,,,SPECI,213.0
KOJA 231115Z AUTO 19014G22KT 10SM CLR 20/12 A2963 RMK AO2 T02020120,KOJA,2022-10-23T11:15:00Z,35.55,-98.67,20.2,12.0,190,14,22,10.0,29.630905,,,TRUE,TRUE,,,,,,,CLR,,,,,,,,VFR,,,,,,,,,,,,METAR,490.0
KOIN 231115Z AUTO 22007KT 10SM CLR 12/02 A2937 RMK AO1 T01210019,KOIN,2022-10-23T11:15:00Z,39.83,-100.53,12.1,1.9,220,7,,10.0,29.371063,,,TRUE,TRUE,,,,,,,CLR,,,,,,,,VFR,,,,,,,,,,,,METAR,810.0
KOIC 231115Z AUTO 00000KT 10SM CLR M01/M01 A3035 RMK AO2 T10131014,KOIC,2022-10-23T11:15:00Z,42.57,-75.52,-1.3,-1.4,0,0,,10.0,30.351377,,,TRUE,TRUE,,,,,,,CLR,,,,,,,,VFR,,,,,,,,,,,,METAR,311.0
KOEO 231115Z AUTO 12008KT 10SM CLR 14/11 A2969 RMK AO2 T01430107,KOEO,2022-10-23T11:15:00Z,45.32,-92.7,14.3,10.7,120,8,,10.0,29.68996,,,TRUE,TRUE,,,,,,,CLR,,,,,,,,VFR,,,,,,,,,,,,METAR,269.0
KOEL 231115Z AUTO 22016KT 10SM CLR 16/05 A2937 RMK AO1 T01640046,KOEL,2022-10-23T11:15:00Z,39.12,-100.82,16.4,4.6,220,16,,10.0,29.371063,,,TRUE,TRUE,,,,,,,CLR,,,,,,,,VFR,,,,,,,,,,,,METAR,924.0
KOEB 231115Z AUTO 15007KT 10SM CLR 13/09 A3008 RMK AO2 T01250093,KOEB,2022-10-23T11:15:00Z,41.92,-85.05,12.5,9.3,150,7,,10.0,30.079725,,,TRUE,TRUE,,,,,,,CLR,,,,,,,,VFR,,,,,,,,,,,,SPECI,291.0
KOCQ 231115Z AUTO 14004KT 10SM CLR 10/10 A2989 RMK AO1 T01020102,KOCQ,2022-10-23T11:15:00Z,44.87,-87.92,10.2,10.2,140,4,,10.0,29.890747,,,TRUE,TRUE,,,,,,,CLR,,,,,,,,VFR,,,,,,,,,,,,METAR,181.0
KOAR 231115Z AUTO 21006KT 10SM CLR M13/M18 A2989 RMK AO2,KOAR,2022-10-23T11:15:00Z,36.67,-121.77,-13.0,-18.0,210,6,,10.0,29.890747,,,TRUE,TRUE,,,,,,,CLR,,,,,,,,VFR,,,,,,,,,,,,METAR,41.0
KO69 231115Z AUTO VRB05KT 10SM CLR 09/02 A2992 RMK A01,KO69,2022-10-23T11:15:00Z,38.25,-122.6,9.0,2.0,0,5,,10.0,29.920275,,,TRUE,TRUE,,,,,,,CLR,,,,,,,,VFR,,,,,,,,,,,,METAR,26.0
KO32 231115Z AUTO 33005KT 4SM HZ CLR 10/05 A2983 RMK AO2 T01010053 $,KO32,2022-10-23T11:15:00Z,36.67,-119.45,10.1,5.3,330,5,,4.0,29.828741,,,TRUE,TRUE,TRUE,,,,,HZ,CLR,,,,,,,,MVFR,,,,,,,,,,,,METAR,117.0
KO22 231115Z AUTO 00000KT 10SM CLR 03/M00 A2984 RMK A01,KO22,2022-10-23T11:15:00Z,38.03,-120.42,3.0,0.0,0,0,,10.0,29.840551,,,TRUE,TRUE,,,,,,,CLR,,,,,,,,VFR,,,,,,,,,,,,METAR,637.0
KO05 231115Z AUTO 00000KT 10SM FEW040 M01/M04 A2991 RMK A01,KO05,2022-10-23T11:15:00Z,40.28,-121.23,-1.0,-4.0,0,0,,10.0,29.911417,,,TRUE,TRUE,,,,,,,FEW,4000,,,,,,,VFR,,,,,,,,,,,,METAR,1380.0
KNUQ 231115Z AUTO 00000KT 10SM CLR 10/05 A2991 RMK AO2,KNUQ,2022-10-23T11:15:00Z,37.4,-122.05,10.0,5.0,0,0,,10.0,29.911417,,,TRUE,TRUE,,,,,,,CLR,,,,,,,,VFR,,,,,,,,,,,,METAR,9.0
KNSI 231115Z AUTO 31021G27KT BKN014 14/11 A2980 RMK AO2 PK WND 30029/1059 T01390106 PWINO $,KNSI,2022-10-23T11:15:00Z,33.23,-119.45,13.9,10.6,310,21,27,,29.799213,,,TRUE,TRUE,TRUE,,,,TRUE,,BKN,1400,,,,,,,,,,,,,,,,,,,SPECI,161.0
KN38 231115Z AUTO 00000KT 10SM CLR 02/02 A3030 RMK AO2,KN38,2022-10-23T11:15:00Z,41.73,-77.4,2.0,2.0,0,0,,10.0,30.301182,,,TRUE,TRUE,,,,,,,CLR,,,,,,,,VFR,,,,,,,,,,,,METAR,576.0
KN03 231115Z AUTO 03003KT 10SM CLR 00/00 A3032 RMK AO2,KN03,2022-10-23T11:15:00Z,42.6,-76.22,0.0,0.0,30,3,,10.0,30.318897,,,TRUE,TRUE,,,,,,,CLR,,,,,,,,VFR,,,,,,,,,,,,METAR,361.0
KMZZ 231115Z AUTO 16007KT 10SM BKN060 BKN070 14/10 A3008 RMK AO2 T01360104,KMZZ,2022-10-23T11:15:00Z,40.48,-85.68,13.6,10.4,160,7,,10.0,30.079725,,,TRUE,TRUE,,,,,,,BKN,6000,BKN,7000,,,,,VFR,,,,,,,,,,,,METAR,260.0
KMZH 231115Z AUTO 04003KT 2 1/2SM BR CLR 07/06 A2967 RMK AO2,KMZH,2022-10-23T11:15:00Z,46.42,-92.8,7.0,6.0,40,3,,2.5,29.66929,,,TRUE,TRUE,,,,,,BR,CLR,,,,,,,,IFR,,,,,,,,,,,,METAR,331.0
KMYP 231115Z AUTO 24035G45KT 10SM SCT016 BKN021 OVC036 M01/M05 A2975 RMK AO2,KMYP,2022-10-23T11:15:00Z,38.48,-106.32,-1.0,-5.0,240,35,45,10.0,29.749016,,,TRUE,TRUE,,,,,,,SCT,1600,BKN,2100,OVC,3600,,,MVFR,,,,,,,,,,,,METAR,3629.0
KMYJ 231115Z AUTO 14007KT 10SM CLR 16/12 A2976 RMK AO2,KMYJ,2022-10-23T11:15:00Z,39.15,-91.82,16.0,12.0,140,7,,10.0,29.760826,,,TRUE,TRUE,,,,,,,CLR,,,,,,,,VFR,,,,,,,,,,,,SPECI,249.0
KMWO 231115Z AUTO 00000KT 10SM CLR 08/ A3016 RMK AO2 T0083////,KMWO,2022-10-23T11:15:00Z,39.53,-84.4,8.3,,0,0,,10.0,30.159449,,,TRUE,TRUE,,,,,,,CLR,,,,,,,,VFR,,,,,,,,,,,,METAR,197.0
KMWM 231115Z AUTO 13010KT 10SM CLR 12/08 A2953 RMK AO2,KMWM,2022-10-23T11:15:00Z,43.9,-95.1,12.0,8.0,130,10,,10.0,29.530512,,,TRUE,TRUE,,,,,,,CLR,,,,,,,,VFR,,,,,,,,,,,,SPECI,427.0
KMWK 231115Z AUTO 00000KT 10SM CLR 03/02 A3025 RMK AO2 T00250018,KMWK,2022-10-23T11:15:00Z,36.47,-80.55,2.5,1.8,0,0,,10.0,30.250984,,,TRUE,TRUE,,,,,,,CLR,,,,,,,,VFR,,,,,,,,,,,,METAR,374.0
KMWC 231115Z AUTO 14005KT 10SM CLR 13/09 A2991 RMK AO2,KMWC,2022-10-23T11:15:00Z,43.12,-88.03,13.0,9.0,140,5,,10.0,29.911417,,,TRUE,TRUE,,,,,,,CLR,,,,,,,,VFR,,,,,,,,,,,,METAR,225.0
KMWA 231115Z AUTO 17018G24KT 10SM CLR 18/12 A2998 RMK AO2 T01810120,KMWA,2022-10-23T11:15:00Z,37.77,-89.02,18.1,12.0,170,18,24,10.0,29.97933,,,TRUE,TRUE,,,,,,,CLR,,,,,,,,VFR,,,,,,,,,,,,METAR,142.0
KMVH 231115Z AUTO 31018G25KT 10SM OVC034 00/M02 A2951 RMK AO2 PWINO,KMVH,2022-10-23T11:15:00Z,46.83,-108.93,0.0,-2.0,310,18,25,10.0,29.509842,,,TRUE,TRUE,,,,,TRUE,,OVC,3400,,,,,,,VFR,,,,,,,,,,,,METAR,1352.0
KMVE 231115Z AUTO 14009KT 10SM CLR 11/08 A2950 RMK AO2,KMVE,2022-10-23T11:15:00Z,44.97,-95.72,11.0,8.0,140,9,,10.0,29.500984,,,TRUE,TRUE,,,,,,,CLR,,,,,,,,VFR,,,,,,,,,,,,SPECI,319.0
KMUT 231115Z AUTO 14007KT 10SM CLR 16/14 A2976 RMK AO2,KMUT,2022-10-23T11:15:00Z,41.37,-91.15,16.0,14.0,140,7,,10.0,29.760826,,,TRUE,TRUE,,,,,,,CLR,,,,,,,,VFR,,,,,,,,,,,,METAR,166.0
KMTV 231115Z AUTO 00000KT 10SM CLR 00/00 A3027 RMK AO2 T00041005,KMTV,2022-10-23T11:15:00Z,36.63,-80.02,0.4,-0.5,0,0,,10.0,30.268702,,,TRUE,TRUE,,,,,,,CLR,,,,,,,,VFR,,,,,,,,,,,,SPECI,276.0
KMRT 231115Z AUTO 18003KT 10SM CLR 10/07 A3018 RMK AO2 T00950067,KMRT,2022-10-23T11:15:00Z,40.22,-83.35,9.5,6.7,180,3,,10.0,30.180119,,,TRUE,TRUE,,,,,,,CLR,,,,,,,,VFR,,,,,,,,,,,,METAR,302.0
KMRN 231115Z AUTO 00000KT 10SM CLR 02/01 A3026 RMK AO2 T00150010,KMRN,2022-10-23T11:15:00Z,35.82,-81.62,1.5,1.0,0,0,,10.0,30.259842,,,TRUE,TRUE,,,,,,,CLR,,,,,,,,VFR,,,,,,,,,,,,SPECI,375.0
KMRJ 231115Z AUTO 14008KT 10SM CLR 14/10 A2981 RMK AO2,KMRJ,2022-10-23T11:15:00Z,42.88,-90.23,14.0,10.0,140,8,,10.0,29.811024,,,TRUE,TRUE,,,,,,,CLR,,,,,,,,VFR,,,,,,,,,,,,SPECI,350.0
KMQI 231115Z AUTO 02017G22KT 10SM OVC006 17/16 A3005 RMK AO2 T01710161,KMQI,2022-10-23T11:15:00Z,35.92,-75.7,17.1,16.1,20,17,22,10.0,30.050198,,,TRUE,TRUE,,,,,,,OVC,600,,,,,,,IFR,,,,,,,,,,,,METAR,3.0
KMPR 231115Z AUTO 17018KT 10SM CLR 20/12 A2947 RMK AO2 T02000115,KMPR,2022-10-23T11:15:00Z,38.35,-97.68,20.0,11.5,170,18,,10.0,29.471457,,,TRUE,TRUE,,,,,,,CLR,,,,,,,,VFR,,,,,,,,,,,,METAR,455.0
KMOX 231115Z AUTO 13012KT 10SM CLR 12/05 A2951 RMK AO2,KMOX,2022-10-23T11:15:00Z,45.57,-95.97,12.0,5.0,130,12,,10.0,29.509842,,,TRUE,TRUE,,,,,,,CLR,,,,,,,,VFR,,,,,,,,,,,,METAR,346.0
KMOR 231115Z AUTO 00000KT 10SM CLR 08/06 A3021 RMK A01,KMOR,2022-10-23T11:15:00Z,36.18,-83.37,8.0,6.0,0,0,,10.0,30.209646,,,TRUE,TRUE,,,,,,,CLR,,,,,,,,VFR,,,,,,,,,,,,METAR,393.0
KMOP 231115Z AUTO 00000KT 10SM CLR 07/07 A3004 RMK AO2 T00710071,KMOP,2022-10-23T11:15:00Z,43.62,-84.73,7.1,7.1,0,0,,10.0,30.041338,,,TRUE,TRUE,,,,,,,CLR,,,,,,,,VFR,,,,,,,,,,,,METAR,229.0
KMNZ 231115Z AUTO 19012KT 10SM CLR 20/18 A2982 RMK AO2 T01980175,KMNZ,2022-10-23T11:15:00Z,31.67,-98.15,19.8,17.5,190,12,,10.0,29.819881,,,TRUE,TRUE,,,,,,,CLR,,,,,,,,VFR,,,,,,,,,,,,METAR,397.0
KMNV 231115Z AUTO 00000KT 10SM 05/05 A3022 RMK A01,KMNV,2022-10-23T11:15:00Z,35.55,-84.38,5.0,5.0,0,0,,10.0,30.221457,,,TRUE,TRUE,,,,,,,,,,,,,,,,,,,,,,,,,,,METAR,306.0
KMNI 231115Z AUTO 02003KT 10SM CLR 08/08 A3018 RMK AO2,KMNI,2022-10-23T11:15:00Z,33.58,-80.22,8.0,8.0,20,3,,10.0,30.180119,,,TRUE,TRUE,,,,,,,CLR,,,,,,,,VFR,,,,,,,,,,,,SPECI,29.0
KMNE 231115Z AUTO 15006KT 10SM CLR 18/17 A2998 RMK AO2 T01800165,KMNE,2022-10-23T11:15:00Z,32.65,-93.3,18.0,16.5,150,6,,10.0,29.97933,,,TRUE,TRUE,,,,,,,CLR,,,,,,,,VFR,,,,,,,,,,,,METAR,84.0
KMMI 231115Z AUTO 00000KT 10SM CLR 03/03 A3025 RMK A01,KMMI,2022-10-23T11:15:00Z,35.4,-84.57,3.0,3.0,0,0,,10.0,30.250984,,,TRUE,TRUE,,,,,,,CLR,,,,,,,,VFR,,,,,,,,,,,,SPECI,252.0
KMKS 231115Z AUTO 00000KT 10SM CLR 11/11 A3016 RMK AO2,KMKS,2022-10-23T11:15:00Z,33.18,-80.03,11.0,11.0,0,0,,10.0,30.159449,,,TRUE,TRUE,,,,,,,CLR,,,,,,,,VFR,,,,,,,,,,,,METAR,22.0
KMKN 231115Z AUTO 20009G14KT 10SM CLR 19/17 A2980 RMK AO2 T01900171,KMKN,2022-10-23T11:15:00Z,31.92,-98.6,19.0,17.1,200,9,14,10.0,29.799213,,,TRUE,TRUE,,,,,,,CLR,,,,,,,,VFR,,,,,,,,,,,,SPECI,428.0
KMKJ 231115Z AUTO 00000KT 10SM CLR M01/M01 A3028 RMK AO2 T10061011,KMKJ,2022-10-23T11:15:00Z,36.88,-81.33,-0.6,-1.1,0,0,,10.0,30.280512,,,TRUE,TRUE,,,,,,,CLR,,,,,,,,VFR,,,,,,,,,,,,SPECI,777.0
KMJQ 231115Z AUTO 14010KT 10SM CLR 12/08 A2955 RMK AO2,KMJQ,2022-10-23T11:15:00Z,43.63,-94.98,12.0,8.0,140,10,,10.0,29.551182,,,TRUE,TRUE,,,,,,,CLR,,,,,,,,VFR,,,,,,,,,,,,METAR,439.0
KMIO 231115Z AUTO 17018G24KT 10SM CLR 22/14 A2970 RMK AO2,KMIO,2022-10-23T11:15:00Z,36.92,-94.88,22.0,14.0,170,18,24,10.0,29.698818,,,TRUE,TRUE,,,,,,,CLR,,,,,,,,VFR,,,,,,,,,,,,SPECI,245.0
KMHR 231115Z AUTO 34010G18KT 10SM CLR 12/01 A2984 RMK A01,KMHR,2022-10-23T11:15:00Z,38.55,-121.28,12.0,1.0,340,10,18,10.0,29.840551,,,TRUE,TRUE,,,,,,,CLR,,,,,,,,VFR,,,,,,,,,,,,METAR,30.0
KMHL 231115Z AUTO 13007KT 10SM CLR 16/12 A2968 RMK AO2,KMHL,2022-10-23T11:15:00Z,39.1,-93.2,16.0,12.0,130,7,,10.0,29.681103,,,TRUE,TRUE,,,,,,,CLR,,,,,,,,VFR,,,,,,,,,,,,METAR,236.0
KMGR 231115Z AUTO 00000KT 10SM CLR 06/05 A3017 RMK AO2,KMGR,2022-10-23T11:15:00Z,31.08,-83.8,6.0,5.0,0,0,,10.0,30.171259,,,TRUE,TRUE,,,,,,,CLR,,,,,,,,VFR,,,,,,,,,,,,METAR,86.0
KMGN 231115Z AUTO 00000KT 10SM CLR 14/11 A2999 RMK AO2 T01450111,KMGN,2022-10-23T11:15:00Z,45.43,-84.92,14.5,11.1,0,0,,10.0,29.991142,,,TRUE,TRUE,,,,,,,CLR,,,,,,,,VFR,,,,,,,,,,,,SPECI,205.0
KMGG 231115Z AUTO 11004KT 10SM CLR 14/07 A2961 RMK AO2 T01400074 PWINO,KMGG,2022-10-23T11:15:00Z,45.23,-93.98,14.0,7.4,110,4,,10.0,29.610237,,,TRUE,TRUE,,,,,TRUE,,CLR,,,,,,,,VFR,,,,,,,,,,,,SPECI,310.0
KMEZ 231115Z AUTO 19007KT 110V240 10SM 20/16 A2991 RMK AO2 T01950158 $,KMEZ,2022-10-23T11:15:00Z,34.55,-94.2,19.5,15.8,190,7,,10.0,29.911417,,,TRUE,TRUE,TRUE,,,,,,,,,,,,,,,,,,,,,,,,,,SPECI,320.0
KMEV 231115Z AUTO 00000KT 10SM BKN055 OVC065 M05/M07 A2990 RMK AO2,KMEV,2022-10-23T11:15:00Z,38.98,-119.75,-5.0,-7.0,0,0,,10.0,29.899607,,,TRUE,TRUE,,,,,,,BKN,5500,OVC,6500,,,,,VFR,,,,,,,,,,,,METAR,1437.0
KMER 231115Z AUTO 35005KT 10SM CLR 11/02 A2985 RMK AO1,KMER,2022-10-23T11:15:00Z,37.38,-120.57,11.0,2.0,350,5,,10.0,29.84941,,,TRUE,TRUE,,,,,,,CLR,,,,,,,,VFR,,,,,,,,,,,,METAR,58.0
KMDZ 231115Z AUTO 14007KT 10SM SCT120 13/11 A2980 RMK AO2 T01320106 PWINO,KMDZ,2022-10-23T11:15:00Z,45.1,-90.3,13.2,10.6,140,7,,10.0,29.799213,,,TRUE,TRUE,,,,,TRUE,,SCT,12000,,,,,,,VFR,,,,,,,,,,,,METAR,446.0
KMDS 231115Z AUTO 15011KT 10SM CLR 12/11 A2943 RMK AO2,KMDS,2022-10-23T11:15:00Z,44.02,-97.08,12.0,11.0,150,11,,10.0,29.430119,,,TRUE,TRUE,,,,,,,CLR,,,,,,,,VFR,,,,,,,,,,,,SPECI,524.0
KMDD 231115Z AUTO 19015G20KT 10SM CLR 19/12 A2976 RMK AO2 T01860121,KMDD,2022-10-23T11:15:00Z,32.03,-102.1,18.6,12.1,190,15,20,10.0,29.760826,,,TRUE,TRUE,,,,,,,CLR,,,,,,,,VFR,,,,,,,,,,,,METAR,853.0
KMCJ 231115Z AUTO 14011KT 9SM SCT037 OVC060 22/19 A2990 RMK A01,KMCJ,2022-10-23T11:15:00Z,29.72,-95.4,22.0,19.0,140,11,,9.0,29.899607,,,TRUE,TRUE,,,,,,,SCT,3700,OVC,6000,,,,,VFR,,,,,,,,,,,,METAR,70.0
KMCD 231115Z AUTO 15008KT 10SM CLR 15/10 A2999 RMK AO2 T01460100,KMCD,2022-10-23T11:15:00Z,45.85,-84.63,14.6,10.0,150,8,,10.0,29.991142,,,TRUE,TRUE,,,,,,,CLR,,,,,,,,VFR,,,,,,,,,,,,SPECI,228.0
KMCC 231115Z AUTO 34005G11KT 10SM CLR 11/01 A2986 RMK AO2,KMCC,2022-10-23T11:15:00Z,38.67,-121.4,11.0,1.0,340,5,11,10.0,29.861221,,,TRUE,TRUE,,,,,,,CLR,,,,,,,,VFR,,,,,,,,,,,,METAR,21.0
KMBY 231115Z AUTO 13010KT 10SM CLR 17/11 A2971 RMK AO2,KMBY,2022-10-23T11:15:00Z,39.47,-92.43,17.0,11.0,130,10,,10.0,29.71063,,,TRUE,TRUE,,,,,,,CLR,,,,,,,,VFR,,,,,,,,,,,,SPECI,263.0
KMBT 231115Z AUTO 15004KT 10SM SCT037 OVC048 10/08 A3014 RMK A01,KMBT,2022-10-23T11:15:00Z,35.88,-86.38,10.0,8.0,150,4,,10.0,30.138779,,,TRUE,TRUE,,,,,,,SCT,3700,OVC,4800,,,,,VFR,,,,,,,,,,,,SPECI,187.0
KMBO 231115Z AUTO 00000KT 10SM CLR 14/14 A3008 RMK AO2,KMBO,2022-10-23T11:15:00Z,32.43,-90.1,14.0,14.0,0,0,,10.0,30.079725,,,TRUE,TRUE,,,,,,,CLR,,,,,,,,VFR,,,,,,,,,,,,SPECI,98.0
KMAW 231115Z AUTO 17012KT 10SM CLR 17/12 A2998 RMK AO1,KMAW,2022-10-23T11:15:00Z,36.6,-90.0,17.0,12.0,170,12,,10.0,29.97933,,,TRUE,TRUE,,,,,,,CLR,,,,,,,,VFR,,,,,,,,,,,,METAR,88.0
KMAO 231115Z AUTO 01004KT 10SM CLR 10/08 A3017 RMK AO2,KMAO,2022-10-23T11:15:00Z,34.18,-79.33,10.0,8.0,10,4,,10.0,30.171259,,,TRUE,TRUE,,,,,,,CLR,,,,,,,,VFR,,,,,,,,,,,,SPECI,27.0
KMAN 231115Z AUTO 32008KT 10SM BKN001 03/00 A2982 RMK A01,KMAN,2022-10-23T11:15:00Z,43.58,-116.52,3.0,0.0,320,8,,10.0,29.819881,,,TRUE,TRUE,,,,,,,BKN,100,,,,,,,LIFR,,,,,,,,,,,,METAR,773.0
KM91 231115Z AUTO 13003KT 10SM SCT047 BKN055 OVC065 13/11 A3012 RMK A01,KM91,2022-10-23T11:15:00Z,36.53,-86.92,13.0,11.0,130,3,,10.0,30.121063,,,TRUE,TRUE,,,,,,,SCT,4700,BKN,5500,OVC,6500,,,VFR,,,,,,,,,,,,SPECI,214.0
KM75 231115Z AUTO 02012G19KT 8SM OVC015 03/03 A2952 RMK A01,KM75,2022-10-23T11:15:00Z,48.37,-107.92,3.0,3.0,20,12,19,8.0,29.518702,,,TRUE,TRUE,,,,,,,OVC,1500,,,,,,,MVFR,,,,,,,,,,,,METAR,687.0
KM40 231115Z AUTO 00000KT 10SM CLR 11/11 A3014 RMK AO2,KM40,2022-10-23T11:15:00Z,33.87,-88.48,11.0,11.0,0,0,,10.0,30.138779,,,TRUE,TRUE,,,,,,,CLR,,,,,,,,VFR,,,,,,,,,,,,SPECI,68.0
KM30 231115Z AUTO 16008KT 10SM CLR 18/11 A3002 RMK AO2 T01810108,KM30,2022-10-23T11:15:00Z,37.18,-88.75,18.1,10.8,160,8,,10.0,30.02067,,,TRUE,TRUE,,,,,,,CLR,,,,,,,,VFR,,,,,,,,,,,,SPECI,116.0
KM25 231115Z AUTO 18009G14KT 10SM SCT050 17/11 A3005 RMK AO2 PWINO,KM25,2022-10-23T11:15:00Z,36.77,-88.58,17.0,11.0,180,9,14,10.0,30.050198,,,TRUE,TRUE,,,,,TRUE,,SCT,5000,,,,,,,VFR,,,,,,,,,,,,METAR,157.0
KM21 231115Z AUTO 17005KT 10SM BKN075 16/11 A3010 RMK AO2 T01600105,KM21,2022-10-23T11:15:00Z,37.22,-87.15,16.0,10.5,170,5,,10.0,30.100393,,,TRUE,TRUE,,,,,,,BKN,7500,,,,,,,VFR,,,,,,,,,,,,SPECI,127.0
KM08 231115Z AUTO 14005KT 10SM FEW043 BKN055 15/12 A3008 RMK A01,KM08,2022-10-23T11:15:00Z,35.22,-89.05,15.0,12.0,140,5,,10.0,30.079725,,,TRUE,TRUE,,,,,,,FEW,4300,BKN,5500,,,,,VFR,,,,,,,,,,,,SPECI,149.0
KM04 231115Z AUTO 18012KT 10SM CLR 18/13 A3003 RMK A01,KM04,2022-10-23T11:15:00Z,35.58,-89.58,18.0,13.0,180,12,,10.0,30.029528,,,TRUE,TRUE,,,,,,,CLR,,,,,,,,VFR,,,,,,,,,,,,SPECI,83.0
KM02 231115Z AUTO 19007KT 10SM 15/10 A3011 RMK A01,KM02,2022-10-23T11:15:00Z,36.13,-87.43,15.0,10.0,190,7,,10.0,30.109253,,,TRUE,TRUE,,,,,,,,,,,,,,,,,,,,,,,,,,,SPECI,268.0
KM01 231115Z AUTO 16009KT 10SM CLR 17/14 A3001 RMK AO2 T01750139 $,KM01,2022-10-23T11:15:00Z,35.2,-90.05,17.5,13.9,160,9,,10.0,30.008858,,,TRUE,TRUE,TRUE,,,,,,CLR,,,,,,,,VFR,,,,,,,,,,,,METAR,69.0
KLYV 231115Z AUTO 14005KT 10SM CLR 12/08 A2948 RMK AO2,KLYV,2022-10-23T11:15:00Z,43.62,-96.22,12.0,8.0,140,5,,10.0,29.480314,,,TRUE,TRUE,,,,,,,CLR,,,,,,,,VFR,,,,,,,,,,,,SPECI,435.0
KLYO 231115Z AUTO 16012KT 10SM CLR 18/10 A2946 RMK AO2 T01780096,KLYO,2022-10-23T11:15:00Z,38.35,-98.23,17.8,9.6,160,12,,10.0,29.459646,,,TRUE,TRUE,,,,,,,CLR,,,,,,,,VFR,,,,,,,,,,,,SPECI,515.0
KLXY 231115Z AUTO 15008G16KT 120V180 10SM SCT021 20/17 A2987 RMK AO2 T02000170,KLXY,2022-10-23T11:15:00Z,31.63,-96.52,20.0,17.0,150,8,16,10.0,29.870079,,,TRUE,TRUE,,,,,,,SCT,2100,,,,,,,VFR,,,,,,,,,,,,METAR,164.0
KLXL 231115Z AUTO 13006KT 10SM CLR 13/07 A2959 RMK AO2,KLXL,2022-10-23T11:15:00Z,45.95,-94.33,13.0,7.0,130,6,,10.0,29.589567,,,TRUE,TRUE,,,,,,,CLR,,,,,,,,VFR,,,,,,,,,,,,METAR,335.0
KLWA 231115Z AUTO 16004KT 10SM CLR 16/11 A3000 RMK AO2 T01590105,KLWA,2022-10-23T11:15:00Z,42.35,-86.25,15.9,10.5,160,4,,10.0,30.0,,,TRUE,TRUE,,,,,,,CLR,,,,,,,,VFR,,,,,,,,,,,,SPECI,199.0
KLVN 231115Z AUTO 15007KT 10SM CLR 14/08 A2964 RMK AO2,KLVN,2022-10-23T11:15:00Z,44.63,-93.23,14.0,8.0,150,7,,10.0,29.639763,,,TRUE,TRUE,,,,,,,CLR,,,,,,,,VFR,,,,,,,,,,,,METAR,292.0
KLVL 231115Z AUTO 32003KT 10SM CLR 10/09 A3019 RMK AO1 T01030086,KLVL,2022-10-23T11:15:00Z,36.78,-77.8,10.3,8.6,320,3,,10.0,30.188976,,,TRUE,TRUE,,,,,,,CLR,,,,,,,,VFR,,,,,,,,,,,,SPECI,98.0
KLUX 231115Z AUTO 01003KT 10SM CLR 05/03 A3021 RMK AO2,KLUX,2022-10-23T11:15:00Z,34.5,-81.95,5.0,3.0,10,3,,10.0,30.209646,,,TRUE,TRUE,,,,,,,CLR,,,,,,,,VFR,,,,,,,,,,,,SPECI,213.0
KLUM 231115Z AUTO 10004KT 10SM CLR 14/12 A2971 RMK AO2 T01440123,KLUM,2022-10-23T11:15:00Z,44.9,-91.87,14.4,12.3,100,4,,10.0,29.71063,,,TRUE,TRUE,,,,,,,CLR,,,,,,,,VFR,,,,,,,,,,,,SPECI,271.0
KLUL 231115Z AUTO 00000KT 10SM CLR 09/09 A3012 RMK A02 T00890088,KLUL,2022-10-23T11:15:00Z,31.67,-89.17,8.9,8.8,0,0,,10.0,30.121063,,,TRUE,TRUE,,,,,,,CLR,,,,,,,,VFR,,,,,,,,,,,,METAR,74.0
KLUG 231115Z AUTO 00000KT 10SM CLR 07/07 A3015 RMK A01,KLUG,2022-10-23T11:15:00Z,35.52,-86.8,7.0,7.0,0,0,,10.0,30.15059,,,TRUE,TRUE,,,,,,,CLR,,,,,,,,VFR,,,,,,,,,,,,SPECI,218.0
KLUD 231115Z AUTO 17012G21KT 7SM CLR 20/17 A2977 RMK AO2 T01960165,KLUD,2022-10-23T11:15:00Z,33.25,-97.58,19.6,16.5,170,12,21,7.0,29.769686,,,TRUE,TRUE,,,,,,,CLR,,,,,,,,VFR,,,,,,,,,,,,METAR,319.0
KLUA 231115Z AUTO 00000KT 10SM CLR 01/01 A3026 RMK AO2,KLUA,2022-10-23T11:15:00Z,38.67,-78.5,1.0,1.0,0,0,,10.0,30.259842,,,TRUE,TRUE,,,,,,,CLR,,,,,,,,VFR,,,,,,,,,,,,SPECI,273.0
KLRY 231115Z AUTO 19007KT 10SM CLR 21/12 A2966 RMK AO2,KLRY,2022-10-23T11:15:00Z,38.62,-94.35,21.0,12.0,190,7,,10.0,29.660433,,,TRUE,TRUE,,,,,,,CLR,,,,,,,,VFR,,,,,,,,,,,,SPECI,272.0
KLRU 231115Z AUTO 22012G19KT 10SM CLR 18/10 A2979 RMK AO2 T01800097,KLRU,2022-10-23T11:15:00Z,32.28,-106.92,18.0,9.7,220,12,19,10.0,29.790354,,,TRUE,TRUE,,,,,,,CLR,,,,,,,,VFR,,,,,,,,,,,,METAR,1355.0
KLRO 231115Z AUTO 00000KT 10SM CLR 13/13 A3014 RMK AO2,KLRO,2022-10-23T11:15:00Z,32.9,-79.78,13.0,13.0,0,0,,10.0,30.138779,,,TRUE,TRUE,,,,,,,CLR,,,,,,,,VFR,,,,,,,,,,,,SPECI,3.0
KLQK 231115Z AUTO 10SM CLR 02/02 A3020 RMK AO2 T00200017,KLQK,2022-10-23T11:15:00Z,34.82,-82.7,2.0,1.7,,,,10.0,30.200787,,,TRUE,TRUE,,,,,,,CLR,,,,,,,,VFR,,,,,,,,,,,,SPECI,291.0
KLNQ 231115Z AUTO 09003KT 10SM CLR 20/17 A3010 RMK AO2 T02000168,KLNQ,2022-10-23T11:15:00Z,29.35,-89.43,20.0,16.8,90,3,,10.0,30.100393,,,TRUE,TRUE,,,,,,,CLR,,,,,,,,VFR,,,,,,,,,,,,SPECI,1.0
KLNP 231115Z AUTO 20003KT 10SM CLR 09/01 A3025 RMK AO2,KLNP,2022-10-23T11:15:00Z,36.98,-82.52,9.0,1.0,200,3,,10.0,30.250984,,,TRUE,TRUE,,,,,,,CLR,,,,,,,,VFR,,,,,,,,,,,,SPECI,817.0
KLNN 231115Z AUTO 10SM CLR 14/02 A3019 RMK AO1 T01350020,KLNN,2022-10-23T11:15:00Z,41.68,-81.38,13.5,2.0,,,,10.0,30.188976,,,TRUE,TRUE,,,,,,,CLR,,,,,,,,VFR,,,,,,,,,,,,METAR,190.0
KLNL 231115Z AUTO 00000KT 10SM CLR 12/09 A2985 RMK AO2 T01220090,KLNL,2022-10-23T11:15:00Z,46.15,-89.22,12.2,9.0,0,0,,10.0,29.84941,,,TRUE,TRUE,,,,,,,CLR,,,,,,,,VFR,,,,,,,,,,,,SPECI,517.0
KLNC 231115Z AUTO 17011G15KT 10SM OVC020 21/16 A2984 RMK AO2 T02100164,KLNC,2022-10-23T11:15:00Z,32.58,-96.72,21.0,16.4,170,11,15,10.0,29.840551,,,TRUE,TRUE,,,,,,,OVC,2000,,,,,,,MVFR,,,,,,,,,,,,METAR,152.0
KLNA 231115Z AUTO 00000KT 10SM CLR 21/20 A3004 RMK AO2 T02050203 PNO,KLNA,2022-10-23T11:15:00Z,26.6,-80.08,20.5,20.3,0,0,,10.0,30.041338,,,TRUE,TRUE,,,,,,,CLR,,,,,,,,VFR,,,,,,,,,,,,SPECI,3.0
KLMT 231115Z AUTO 00000KT 10SM BKN027 BKN035 M03/M04 A2993 RMK AO2 T10281039,KLMT,2022-10-23T11:15:00Z,42.15,-121.72,-2.8,-3.9,0,0,,10.0,29.929134,,,TRUE,TRUE,,,,,,,BKN,2700,BKN,3500,,,,,MVFR,,,,,,,,,,,,SPECI,1246.0
KLKU 231115Z AUTO 34005KT 10SM CLR 06/05 A3023 RMK AO2 T00570050,KLKU,2022-10-23T11:15:00Z,38.02,-77.97,5.7,5.0,340,5,,10.0,30.230314,,,TRUE,TRUE,,,,,,,CLR,,,,,,,,VFR,,,,,,,,,,,,SPECI,146.0
KLKR 231115Z AUTO 00000KT 10SM FEW040 FEW050 06/05 A3021 RMK AO2,KLKR,2022-10-23T11:15:00Z,34.72,-80.85,6.0,5.0,0,0,,10.0,30.209646,,,TRUE,TRUE,,,,,,,FEW,4000,FEW,5000,,,,,VFR,,,,,,,,,,,,METAR,166.0
KLJF 231115Z AUTO 13007KT 10SM CLR 13/07 A2957 RMK AO2,KLJF,2022-10-23T11:15:00Z,45.1,-94.52,13.0,7.0,130,7,,10.0,29.568897,,,TRUE,TRUE,,,,,,,CLR,,,,,,,,VFR,,,,,,,,,,,,SPECI,347.0
KLHZ 231115Z AUTO 32004KT 10SM CLR 08/07 A3019 RMK AO2,KLHZ,2022-10-23T11:15:00Z,36.02,-78.33,8.0,7.0,320,4,,10.0,30.188976,,,TRUE,TRUE,,,,,,,CLR,,,,,,,,VFR,,,,,,,,,,,,METAR,104.0
KLHM 231115Z AUTO 35009KT 10SM CLR 09/00 A2985 RMK AO1,KLHM,2022-10-23T11:15:00Z,38.92,-121.35,9.0,0.0,350,9,,10.0,29.84941,,,TRUE,TRUE,,,,,,,CLR,,,,,,,,VFR,,,,,,,,,,,,METAR,36.0
KLHB 231115Z AUTO 14007KT 10SM CLR 19/17 A2989 RMK AO2 T01910170,KLHB,2022-10-23T11:15:00Z,30.87,-96.62,19.1,17.0,140,7,,10.0,29.890747,,,TRUE,TRUE,,,,,,,CLR,,,,,,,,VFR,,,,,,,,,,,,METAR,83.0
KLDM 231115Z AUTO 13004KT 10SM CLR 14/11 A2997 RMK AO2 T01390105,KLDM,2022-10-23T11:15:00Z,43.97,-86.4,13.9,10.5,130,4,,10.0,29.970472,,,TRUE,TRUE,,,,,,,CLR,,,,,,,,VFR,,,,,,,,,,,,SPECI,194.0
KLDJ 231115Z AUTO 02006KT 10SM BKN045 13/08 A3028 RMK AO2 T01280081,KLDJ,2022-10-23T11:15:00Z,40.62,-74.25,12.8,8.1,20,6,,10.0,30.280512,,,TRUE,TRUE,,,,,,,BKN,4500,,,,,,,VFR,,,,,,,,,,,,METAR,6.0
KLCG 231115Z AUTO 14011KT 10SM CLR 13/11 A2941 RMK AO2 T01270105,KLCG,2022-10-23T11:15:00Z,42.25,-96.98,12.7,10.5,140,11,,10.0,29.409449,,,TRUE,TRUE,,,,,,,CLR,,,,,,,,VFR,,,,,,,,,,,,METAR,434.0
KLBO 231115Z AUTO 17016G21KT 10SM BKN110 18/12 A2978 RMK AO2,KLBO,2022-10-23T11:15:00Z,37.65,-92.65,18.0,12.0,170,16,21,10.0,29.778543,,,TRUE,TRUE,,,,,,,BKN,11000,,,,,,,VFR,,,,,,,,,,,,SPECI,399.0
KLAL 231115Z AUTO 00000KT 10SM CLR 16/14 A3010 RMK AO2 T01580140,KLAL,2022-10-23T11:15:00Z,27.98,-82.02,15.8,14.0,0,0,,10.0,30.100393,,,TRUE,TRUE,,,,,,,CLR,,,,,,,,VFR,,,,,,,,,,,,METAR,39.0
KL52 231115Z AUTO 12003KT 7SM CLR 07/07 A2985 RMK A01,KL52,2022-10-23T11:15:00Z,35.1,-120.62,7.0,7.0,120,3,,7.0,29.84941,,,TRUE,TRUE,,,,,,,CLR,,,,,,,,VFR,,,,,,,,,,,,METAR,3.0
KL35 231115Z AUTO 24009KT 10SM OVC013 03/01 A2984 RMK AO2,KL35,2022-10-23T11:15:00Z,34.27,-116.85,3.0,1.0,240,9,,10.0,29.840551,,,TRUE,TRUE,,,,,,,OVC,1300,,,,,,,MVFR,,,,,,,,,,,,METAR,2062.0
KL18 231115Z AUTO 22004KT 10SM SCT020 BKN028 13/12 A2982 RMK AO2,KL18,2022-10-23T11:15:00Z,33.35,-117.25,13.0,12.0,220,4,,10.0,29.819881,,,TRUE,TRUE,,,,,,,SCT,2000,BKN,2800,,,,,MVFR,,,,,,,,,,,,METAR,215.0
KL08 231115Z AUTO 22005KT 10SM BKN050 16/12 A2971 RMK AO2,KL08,2022-10-23T11:15:00Z,33.27,-116.32,16.0,12.0,220,5,,10.0,29.71063,,,TRUE,TRUE,,,,,,,BKN,5000,,,,,,,VFR,,,,,,,,,,,,METAR,156.0
KKY8 231115Z AUTO 16007KT 130V200 10SM SCT070 17/13 A3008 RMK A01,KKY8,2022-10-23T11:15:00Z,37.95,-86.87,17.0,13.0,160,7,,10.0,30.079725,,,TRUE,TRUE,,,,,,,SCT,7000,,,,,,,VFR,,,,,,,,,,,,METAR,124.0
KK70 231115Z AUTO VRB05G10KT 10SM CLR 23/21 A3001 RMK AO2,KK70,2022-10-23T11:15:00Z,25.32,-80.28,23.0,21.0,0,5,10,10.0,30.008858,,,TRUE,TRUE,,,,,,,CLR,,,,,,,,VFR,,,,,,,,,,,,METAR,20.0
KJZI 231115Z AUTO 35006KT 10SM CLR 14/12 A3015 RMK AO2,KJZI,2022-10-23T11:15:00Z,32.7,-80.0,14.0,12.0,350,6,,10.0,30.15059,,,TRUE,TRUE,,,,,,,CLR,,,,,,,,VFR,,,,,,,,,,,,METAR,5.0
KJYO 231115Z AUTO 01006KT 10SM CLR 07/05 A3027 RMK AO2,KJYO,2022-10-23T11:15:00Z,39.07,-77.57,7.0,5.0,10,6,,10.0,30.268702,,,TRUE,TRUE,,,,,,,CLR,,,,,,,,VFR,,,,,,,,,,,,SPECI,112.0
KJYM 231115Z AUTO 15005KT 10SM CLR 11/09 A3010 RMK AO2 T01100090,KJYM,2022-10-23T11:15:00Z,41.92,-84.58,11.0,9.0,150,5,,10.0,30.100393,,,TRUE,TRUE,,,,,,,CLR,,,,,,,,VFR,,,,,,,,,,,,SPECI,357.0
KJYL 231115Z AUTO 00000KT 10SM CLR 06/05 A3019 RMK AO2 T00620049,KJYL,2022-10-23T11:15:00Z,32.65,-81.6,6.2,4.9,0,0,,10.0,30.188976,,,TRUE,TRUE,,,,,,,CLR,,,,,,,,VFR,,,,,,,,,,,,METAR,54.0
KJXI 231115Z AUTO 15007KT 10SM CLR 19/16 A2991 RMK AO2 T01920160,KJXI,2022-10-23T11:15:00Z,32.7,-94.95,19.2,16.0,150,7,,10.0,29.911417,,,TRUE,TRUE,,,,,,,CLR,,,,,,,,VFR,,,,,,,,,,,,METAR,130.0
KJWY 231115Z AUTO 18013G18KT 10SM OVC019 21/18 A2984 RMK AO2 T02100175,KJWY,2022-10-23T11:15:00Z,32.45,-96.92,21.0,17.5,180,13,18,10.0,29.840551,,,TRUE,TRUE,,,,,,,OVC,1900,,,,,,,MVFR,,,,,,,,,,,,METAR,211.0
KJWN 231115Z AUTO 07004KT 10SM 12/10 A3012 RMK A01,KJWN,2022-10-23T11:15:00Z,36.18,-86.88,12.0,10.0,70,4,,10.0,30.121063,,,TRUE,TRUE,,,,,,,,,,,,,,,,,,,,,,,,,,,METAR,149.0
KJWG 231115Z AUTO 17013G17KT 10SM CLR 21/12 A2963 RMK AO2 T02100119,KJWG,2022-10-23T11:15:00Z,35.87,-98.42,21.0,11.9,170,13,17,10.0,29.630905,,,TRUE,TRUE,,,,,,,CLR,,,,,,,,VFR,,,,,,,,,,,,METAR,469.0
KJVW 231115Z AUTO 12006KT 10SM CLR 15/15 A3007 RMK AO2,KJVW,2022-10-23T11:15:00Z,32.3,-90.42,15.0,15.0,120,6,,10.0,30.070866,,,TRUE,TRUE,,,,,,,CLR,,,,,,,,VFR,,,,,,,,,,,,SPECI,73.0
KJTC 231115Z AUTO 20012G22KT 10SM CLR 10/M01 A2979 RMK AO2,KJTC,2022-10-23T11:15:00Z,34.13,-109.32,10.0,-1.0,200,12,22,10.0,29.790354,,,TRUE,TRUE,,,,,,,CLR,,,,,,,,VFR,,,,,,,,,,,,METAR,2148.0
KJSY 231115Z AUTO 10SM BKN013 OVC075 M02/M03 A2982 RMK AO2 T10191031 TSNO,KJSY,2022-10-23T11:15:00Z,45.35,-117.25,-1.9,-3.1,,,,10.0,29.819881,,,TRUE,TRUE,,,TRUE,,,,BKN,1300,OVC,7500,,,,,MVFR,,,,,,,,,,,,METAR,1256.0
KJSO 231115Z AUTO 19007KT 10SM CLR 19/18 A2993 RMK AO2 T01850175 TSNO,KJSO,2022-10-23T11:15:00Z,31.87,-95.22,18.5,17.5,190,7,,10.0,29.929134,,,TRUE,TRUE,,,TRUE,,,,CLR,,,,,,,,VFR,,,,,,,,,,,,METAR,204.0
KJRO 231115Z AUTO 00000KT 04/03 A3022 RMK AO2 PWINO,KJRO,2022-10-23T11:15:00Z,,,4.0,3.0,0,0,,,30.221457,,,TRUE,TRUE,,,,,TRUE,,,,,,,,,,,,,,,,,,,,,,METAR,
KJQF 231115Z AUTO 00000KT 10SM CLR 04/03 A3024 RMK AO2,KJQF,2022-10-23T11:15:00Z,35.38,-80.72,4.0,3.0,0,0,,10.0,30.239174,,,TRUE,TRUE,,,,,,,CLR,,,,,,,,VFR,,,,,,,,,,,,METAR,204.0
KJPX 231115Z AUTO 04004KT 10SM CLR 13/13 A3028 RMK AO2 T01310130,KJPX,2022-10-23T11:15:00Z,40.95,-72.25,13.1,13.0,40,4,,10.0,30.280512,,,TRUE,TRUE,,,,,,,CLR,,,,,,,,VFR,,,,,,,,,,,,METAR,10.0
KJNX 231115Z AUTO 00000KT 10SM CLR 10/07 A3017 RMK AO2,KJNX,2022-10-23T11:15:00Z,35.53,-78.38,10.0,7.0,0,0,,10.0,30.171259,,,TRUE,TRUE,,,,,,,CLR,,,,,,,,VFR,,,,,,,,,,,,SPECI,41.0
KJMR 231115Z AUTO 11003KT 10SM CLR 11/07 A2968 RMK AO2,KJMR,2022-10-23T11:15:00Z,45.88,-93.27,11.0,7.0,110,3,,10.0,29.681103,,,TRUE,TRUE,,,,,,,CLR,,,,,,,,VFR,,,,,,,,,,,,SPECI,301.0
KJKJ 231115Z AUTO 03003KT 10SM CLR 02/M02 A2950 RMK AO2 TSNO,KJKJ,2022-10-23T11:15:00Z,46.83,-96.67,2.0,-2.0,30,3,,10.0,29.500984,,,TRUE,TRUE,,,TRUE,,,,CLR,,,,,,,,VFR,,,,,,,,,,,,SPECI,280.0
KJHN 231115Z AUTO 21015G20KT 10SM CLR 20/09 A2946 RMK AO2 T01990092,KJHN,2022-10-23T11:15:00Z,37.58,-101.73,19.9,9.2,210,15,20,10.0,29.459646,,,TRUE,TRUE,,,,,,,CLR,,,,,,,,VFR,,,,,,,,,,,,METAR,1013.0
KJFZ 231115Z AUTO 00000KT 10SM CLR 08/01 A3024 RMK AO2 T00800010,KJFZ,2022-10-23T11:15:00Z,37.07,-81.8,8.0,1.0,0,0,,10.0,30.239174,,,TRUE,TRUE,,,,,,,CLR,,,,,,,,VFR,,,,,,,,,,,,METAR,809.0
KJFX 231115Z AUTO 00000KT 3SM BR CLR 06/06 A3017 RMK AO2,KJFX,2022-10-23T11:15:00Z,33.9,-87.32,6.0,6.0,0,0,,3.0,30.171259,,,TRUE,TRUE,,,,,,BR,CLR,,,,,,,,MVFR,,,,,,,,,,,,METAR,144.0
KJDD 231115Z AUTO 16004KT 10SM OVC039 20/18 A2989 RMK AO2,KJDD,2022-10-23T11:15:00Z,32.75,-95.5,20.0,18.0,160,4,,10.0,29.890747,,,TRUE,TRUE,,,,,,,OVC,3900,,,,,,,VFR,,,,,,,,,,,,METAR,127.0
KJCA 231115Z AUTO 35004KT 10SM CLR 05/04 A3022 RMK AO2 T00450040,KJCA,2022-10-23T11:15:00Z,34.18,-83.57,4.5,4.0,350,4,,10.0,30.221457,,,TRUE,TRUE,,,,,,,CLR,,,,,,,,VFR,,,,,,,,,,,,METAR,287.0
KJAU 231115Z AUTO 00000KT 1 1/4SM BR BKN002 04/04 A3028 RMK A01,KJAU,2022-10-23T11:15:00Z,36.33,-84.17,4.0,4.0,0,0,,1.25,30.280512,,,TRUE,TRUE,,,,,,BR,BKN,200,,,,,,,LIFR,,,,,,,,,,,,METAR,350.0
KJAQ 231115Z AUTO 00000KT 10SM CLR 08/M01 A2984 RMK AO1 T00801013,KJAQ,2022-10-23T11:15:00Z,38.37,-120.8,8.0,-1.3,0,0,,10.0,29.840551,,,TRUE,TRUE,,,,,,,CLR,,,,,,,,VFR,,,,,,,,,,,,METAR,518.0
KIYA 231115Z AUTO 09003KT SCT050 SCT055 18/15 A3003 RMK AO2 T01760145 PWINO,KIYA,2022-10-23T11:15:00Z,29.98,-92.08,17.6,14.5,90,3,,,30.029528,,,TRUE,TRUE,,,,,TRUE,,SCT,5000,SCT,5500,,,,,,,,,,,,,,,,,METAR,4.0
KIXA 231115Z AUTO 36007KT 10SM CLR 10/10 A3017 RMK AO2,KIXA,2022-10-23T11:15:00Z,36.33,-77.63,10.0,10.0,360,7,,10.0,30.171259,,,TRUE,TRUE,,,,,,,CLR,,,,,,,,VFR,,,,,,,,,,,,METAR,43.0
KIWI 231115Z AUTO 00000KT 3/4SM BR VV002 07/06 A3037 RMK AO2 T00670056,KIWI,2022-10-23T11:15:00Z,43.97,-69.72,6.7,5.6,0,0,,0.75,30.369095,,,TRUE,TRUE,,,,,,BR,OVX,0,,,,,,,LIFR,,,,,,,,,,,200,SPECI,16.0
KIWA 231115Z AUTO 20012KT 10SM OVC070 20/14 A2972 RMK AO2 T02000135,KIWA,2022-10-23T11:15:00Z,33.3,-111.65,20.0,13.5,200,12,,10.0,29.719488,,,TRUE,TRUE,,,,,,,OVC,7000,,,,,,,VFR,,,,,,,,,,,,METAR,420.0
KIUA 231115Z AUTO 00000KT 10SM CLR 07/04 A3026 RMK AO2 T00730039,KIUA,2022-10-23T11:15:00Z,42.92,-77.33,7.3,3.9,0,0,,10.0,30.259842,,,TRUE,TRUE,,,,,,,CLR,,,,,,,,VFR,,,,,,,,,,,,METAR,248.0
KISQ 231115Z AUTO 19007KT 10SM CLR 11/10 A2994 RMK AO2 T01050096,KISQ,2022-10-23T11:15:00Z,45.97,-86.17,10.5,9.6,190,7,,10.0,29.940945,,,TRUE,TRUE,,,,,,,CLR,,,,,,,,VFR,,,,,,,,,,,,SPECI,206.0
KIRS 231115Z AUTO 15009KT 10SM SCT050 14/12 A3005 RMK AO2 T01400116,KIRS,2022-10-23T11:15:00Z,41.8,-85.43,14.0,11.6,150,9,,10.0,30.050198,,,TRUE,TRUE,,,,,,,SCT,5000,,,,,,,VFR,,,,,,,,,,,,SPECI,282.0
KIPJ 231115Z AUTO 00000KT 10SM CLR 03/03 A3023 RMK AO2 T00310027,KIPJ,2022-10-23T11:15:00Z,35.48,-81.17,3.1,2.7,0,0,,10.0,30.230314,,,TRUE,TRUE,,,,,,,CLR,,,,,,,,VFR,,,,,,,,,,,,METAR,266.0
KIOB 231115Z AUTO 19004KT 10SM SCT050 13/08 A3021 RMK AO2 PWINO,KIOB,2022-10-23T11:15:00Z,38.05,-83.98,13.0,8.0,190,4,,10.0,30.209646,,,TRUE,TRUE,,,,,TRUE,,SCT,5000,,,,,,,VFR,,,,,,,,,,,,METAR,301.0
KINJ 231115Z AUTO 17015G23KT 10SM OVC019 22/18 A2983 RMK AO2 T02170178,KINJ,2022-10-23T11:15:00Z,32.08,-97.1,21.7,17.8,170,15,23,10.0,29.828741,,,TRUE,TRUE,,,,,,,OVC,1900,,,,,,,MVFR,,,,,,,,,,,,METAR,208.0
KINF 231115Z AUTO 00000KT 10SM CLR 12/12 A3013 RMK AO2,KINF,2022-10-23T11:15:00Z,28.8,-82.32,12.0,12.0,0,0,,10.0,30.129921,,,TRUE,TRUE,,,,,,,CLR,,,,,,,,VFR,,,,,,,,,,,,SPECI,14.0
KIMT 231115Z AUTO 00000KT 1/4SM FG VV005 05/05 A2987 RMK AO2 T00500050,KIMT,2022-10-23T11:15:00Z,45.82,-88.12,5.0,5.0,0,0,,0.25,29.870079,,,TRUE,TRUE,,,,,,FG,OVX,0,,,,,,,LIFR,,,,,,,,,,,500,SPECI,343.0
KIMS 231115Z AUTO 13004KT 10SM SCT065 SCT075 13/10 A3015 RMK AO2,KIMS,2022-10-23T11:15:00Z,38.75,-85.47,13.0,10.0,130,4,,10.0,30.15059,,,TRUE,TRUE,,,,,,,SCT,6500,SCT,7500,,,,,VFR,,,,,,,,,,,,METAR,244.0
KIKW 231115Z AUTO 11007KT 10SM CLR 13/10 A3007 RMK AO2 T01270097,KIKW,2022-10-23T11:15:00Z,43.67,-84.27,12.7,9.7,110,7,,10.0,30.070866,,,TRUE,TRUE,,,,,,,CLR,,,,,,,,VFR,,,,,,,,,,,,SPECI,190.0
KIIY 231115Z AUTO 00000KT 10SM CLR 06/04 A3021 RMK AO2 T00610041,KIIY,2022-10-23T11:15:00Z,33.78,-82.82,6.1,4.1,0,0,,10.0,30.209646,,,TRUE,TRUE,,,,,,,CLR,,,,,,,,VFR,,,,,,,,,,,,METAR,192.0
KIGQ 231115Z AUTO 17010KT 10SM BKN050 16/11 A2995 RMK AO2 T01600106,KIGQ,2022-10-23T11:15:00Z,41.53,-87.53,16.0,10.6,170,10,,10.0,29.949802,,,TRUE,TRUE,,,,,,,BKN,5000,,,,,,,VFR,,,,,,,,,,,,METAR,187.0
KIFP 231115Z AUTO 36016KT 10SM FEW100 19/05 A2965 RMK AO2,KIFP,2022-10-23T11:15:00Z,35.15,-114.57,19.0,5.0,360,16,,10.0,29.648623,,,TRUE,TRUE,,,,,,,FEW,10000,,,,,,,VFR,,,,,,,,,,,,METAR,210.0
KIFA 231115Z AUTO 13010G14KT 10SM CLR 15/12 A2965 RMK AO2 T01520118,KIFA,2022-10-23T11:15:00Z,42.47,-93.27,15.2,11.8,130,10,14,10.0,29.648623,,,TRUE,TRUE,,,,,,,CLR,,,,,,,,VFR,,,,,,,,,,,,METAR,344.0
KIER 231115Z AUTO 14004KT 10SM OVC050 17/16 A3000 RMK AO2 T01680160,KIER,2022-10-23T11:15:00Z,31.73,-93.1,16.8,16.0,140,4,,10.0,30.0,,,TRUE,TRUE,,,,,,,OVC,5000,,,,,,,VFR,,,,,,,,,,,,METAR,35.0
KIDI 231115Z AUTO 00000KT 10SM CLR 04/02 A3030 RMK A01,KIDI,2022-10-23T11:15:00Z,40.63,-79.1,4.0,2.0,0,0,,10.0,30.301182,,,TRUE,TRUE,,,,,,,CLR,,,,,,,,VFR,,,,,,,,,,,,METAR,425.0
KIDA 231115Z AUTO 20010KT 10SM BKN004 OVC060 01/M01 A2964 RMK AO2 T00061011,KIDA,2022-10-23T11:15:00Z,43.52,-112.07,0.6,-1.1,200,10,,10.0,29.639763,,,TRUE,TRUE,,,,,,,BKN,400,OVC,6000,,,,,LIFR,,,,,,,,,,,,SPECI,1444.0
KI69 231115Z AUTO 00000KT 10SM SCT060 14/08 A3018 RMK AO2 T01350081,KI69,2022-10-23T11:15:00Z,39.08,-84.22,13.5,8.1,0,0,,10.0,30.180119,,,TRUE,TRUE,,,,,,,SCT,6000,,,,,,,VFR,,,,,,,,,,,,SPECI,238.0
KI68 231115Z AUTO 12003KT 10SM CLR 13/09 A3016 RMK AO1 T01330086,KI68,2022-10-23T11:15:00Z,39.47,-84.25,13.3,8.6,120,3,,10.0,30.159449,,,TRUE,TRUE,,,,,,,CLR,,,,,,,,VFR,,,,,,,,,,,,METAR,274.0
KI67 231115Z AUTO 00000KT 10SM CLR 07/07 A3015 RMK AO1,KI67,2022-10-23T11:15:00Z,39.25,-84.78,7.0,7.0,0,0,,10.0,30.15059,,,TRUE,TRUE,,,,,,,CLR,,,,,,,,VFR,,,,,,,,,,,,METAR,177.0
KI35 231115Z AUTO 00000KT 7SM CLR 05/05 A3025 RMK AO2 T00460046,KI35,2022-10-23T11:15:00Z,36.87,-83.37,4.6,4.6,0,0,,7.0,30.250984,,,TRUE,TRUE,,,,,,,CLR,,,,,,,,VFR,,,,,,,,,,,,METAR,467.0
KI23 231115Z AUTO 14003KT 10SM CLR 08/06 A3018 RMK AO1,KI23,2022-10-23T11:15:00Z,39.57,-83.42,8.0,6.0,140,3,,10.0,30.180119,,,TRUE,TRUE,,,,,,,CLR,,,,,,,,VFR,,,,,,,,,,,,SPECI,298.0
KHZX 231115Z AUTO 12005KT 10SM CLR 09/06 A2965 RMK AO2,KHZX,2022-10-23T11:15:00Z,46.62,-93.32,9.0,6.0,120,5,,10.0,29.648623,,,TRUE,TRUE,,,,,,,CLR,,,,,,,,VFR,,,,,,,,,,,,METAR,374.0
KHZL 231115Z AUTO 00000KT 7SM CLR 01/01 A3032 RMK AO2,KHZL,2022-10-23T11:15:00Z,40.98,-76.0,1.0,1.0,0,0,,7.0,30.318897,,,TRUE,TRUE,,,,,,,CLR,,,,,,,,VFR,,,,,,,,,,,,SPECI,481.0
KHZE 231115Z AUTO 07014G20KT 10SM OVC009 07/06 A2948 RMK AO2,KHZE,2022-10-23T11:15:00Z,47.28,-101.58,7.0,6.0,70,14,20,10.0,29.480314,,,TRUE,TRUE,,,,,,,OVC,900,,,,,,,IFR,,,,,,,,,,,,METAR,542.0
KHZD 231115Z AUTO 17007KT 10SM BKN050 OVC055 16/11 A3007 RMK A01,KHZD,2022-10-23T11:15:00Z,36.08,-88.47,16.0,11.0,170,7,,10.0,30.070866,,,TRUE,TRUE,,,,,,,BKN,5000,OVC,5500,,,,,VFR,,,,,,,,,,,,METAR,147.0
KHYX 231115Z AUTO 17005KT 10SM CLR 11/08 A3009 RMK AO2 T01050076,KHYX,2022-10-23T11:15:00Z,43.43,-83.87,10.5,7.6,170,5,,10.0,30.088583,,,TRUE,TRUE,,,,,,,CLR,,,,,,,,VFR,,,,,,,,,,,,METAR,181.0
KHYW 231115Z AUTO 00000KT 7SM CLR 09/08 A3016 RMK AO2,KHYW,2022-10-23T11:15:00Z,33.83,-79.12,9.0,8.0,0,0,,7.0,30.159449,,,TRUE,TRUE,,,,,,,CLR,,,,,,,,VFR,,,,,,,,,,,,METAR,10.0
KHXD 231115Z AUTO 00000KT 10SM CLR 13/12 A3016 RMK AO2,KHXD,2022-10-23T11:15:00Z,32.22,-80.7,13.0,12.0,0,0,,10.0,30.159449,,,TRUE,TRUE,,,,,,,CLR,,,,,,,,VFR,,,,,,,,,,,,METAR,5.0
KHWY 231115Z AUTO 00000KT 7SM CLR 03/01 A3028 RMK AO2 T00270014,KHWY,2022-10-23T11:15:00Z,38.58,-77.72,2.7,1.4,0,0,,7.0,30.280512,,,TRUE,TRUE,,,,,,,CLR,,,,,,,,VFR,,,,,,,,,,,,SPECI,93.0
KHVS 231115Z AUTO 36005KT 10SM BKN039 11/08 A3019 RMK AO2,KHVS,2022-10-23T11:15:00Z,34.4,-80.12,11.0,8.0,360,5,,10.0,30.188976,,,TRUE,TRUE,,,,,,,BKN,3900,,,,,,,VFR,,,,,,,,,,,,METAR,110.0
KHSP 231115Z AUTO 29005KT 10SM CLR 09/00 A3026 RMK AO2 T00851005,KHSP,2022-10-23T11:15:00Z,37.95,-79.82,8.5,-0.5,290,5,,10.0,30.259842,,,TRUE,TRUE,,,,,,,CLR,,,,,,,,VFR,,,,,,,,,,,,METAR,1148.0
KHSD 231115Z AUTO 18022G29KT 10SM CLR 22/12 A2963 RMK A01,KHSD,2022-10-23T11:15:00Z,35.6,-97.72,22.0,12.0,180,22,29,10.0,29.630905,,,TRUE,TRUE,,,,,,,CLR,,,,,,,,VFR,,,,,,,,,,,,METAR,358.0
KHSB 231115Z AUTO 17009G15KT 10SM CLR 18/14 A3000 RMK AO2 T01750136,KHSB,2022-10-23T11:15:00Z,37.82,-88.55,17.5,13.6,170,9,15,10.0,30.0,,,TRUE,TRUE,,,,,,,CLR,,,,,,,,VFR,,,,,,,,,,,,METAR,118.0
KHRX 231115Z AUTO 21009KT 10SM CLR 18/11 A2968 RMK AO2 T01790107,KHRX,2022-10-23T11:15:00Z,34.87,-102.33,17.9,10.7,210,9,,10.0,29.681103,,,TRUE,TRUE,,,,,,,CLR,,,,,,,,VFR,,,,,,,,,,,,METAR,1153.0
KHRJ 231115Z AUTO 31004KT 5SM HZ CLR 11/08 A3019 RMK AO2 T01070079,KHRJ,2022-10-23T11:15:00Z,35.38,-78.73,10.7,7.9,310,4,,5.0,30.188976,,,TRUE,TRUE,,,,,,HZ,CLR,,,,,,,,MVFR,,,,,,,,,,,,SPECI,55.0
KHQZ 231115Z AUTO 16008G14KT 10SM OVC022 21/17 A2984 RMK AO1 T02060165,KHQZ,2022-10-23T11:15:00Z,32.75,-96.53,20.6,16.5,160,8,14,10.0,29.840551,,,TRUE,TRUE,,,,,,,OVC,2200,,,,,,,MVFR,,,,,,,,,,,,METAR,136.0
KHQU 231115Z AUTO 00000KT 10SM CLR 04/03 A3021 RMK AO2 T00440034,KHQU,2022-10-23T11:15:00Z,33.53,-82.52,4.4,3.4,0,0,,10.0,30.209646,,,TRUE,TRUE,,,,,,,CLR,,,,,,,,VFR,,,,,,,,,,,,METAR,141.0
KHQG 231115Z AUTO 23019G26KT 10SM SCT001 SCT065 21/10 A2948 RMK AO2 T02070096,KHQG,2022-10-23T11:15:00Z,37.17,-101.37,20.7,9.6,230,19,26,10.0,29.480314,,,TRUE,TRUE,,,,,,,SCT,100,SCT,6500,,,,,VFR,,,,,,,,,,,,SPECI,956.0
KHQG 231115Z AUTO 23019G26KT 10SM SCT001 SCT065 21/10 A2948 RMK AO2 T02070096,KHQG,2022-10-23T11:15:00Z,37.17,-101.37,20.7,9.6,230,19,26,10.0,29.480314,,,TRUE,TRUE,,,,,,,SCT,100,SCT,6500,,,,,VFR,,,,,,,,,,,,SPECI,956.0
KHOE 231115Z AUTO 00000KT 10SM CLR 05/03 A3017 RMK AO2 T00500038,KHOE,2022-10-23T11:15:00Z,31.05,-82.78,5.0,3.8,0,0,,10.0,30.171259,,,TRUE,TRUE,,,,,,,CLR,,,,,,,,VFR,,,,,,,,,,,,SPECI,56.0
KHOB 231115Z AUTO 19007KT 10SM CLR 15/13 A2975 RMK AO2,KHOB,2022-10-23T11:15:00Z,32.67,-103.22,15.0,13.0,190,7,,10.0,29.749016,,,TRUE,TRUE,,,,,,,CLR,,,,,,,,VFR,,,,,,,,,,,,METAR,1112.0
KHNZ 231115Z AUTO 36003KT 10SM CLR 07/07 A3019 RMK AO2 T00660065,KHNZ,2022-10-23T11:15:00Z,36.37,-78.53,6.6,6.5,360,3,,10.0,30.188976,,,TRUE,TRUE,,,,,,,CLR,,,,,,,,VFR,,,,,,,,,,,,METAR,158.0
KHMT 231115Z AUTO 21009KT 10SM SCT008 SCT013 13/ A2980 RMK AO2 T0128////,KHMT,2022-10-23T11:15:00Z,33.73,-117.02,12.8,,210,9,,10.0,29.799213,,,TRUE,TRUE,,,,,,,SCT,800,SCT,1300,,,,,VFR,,,,,,,,,,,,METAR,462.0
KHMP 231115Z AUTO 00000KT 10SM CLR 04/03 A3025 RMK AO2 T00370035,KHMP,2022-10-23T11:15:00Z,33.38,-84.33,3.7,3.5,0,0,,10.0,30.250984,,,TRUE,TRUE,,,,,,,CLR,,,,,,,,VFR,,,,,,,,,,,,METAR,263.0
KHLX 231115Z AUTO 18003KT 10SM CLR 03/00 A3025 RMK AO2 T00310004,KHLX,2022-10-23T11:15:00Z,36.77,-80.82,3.1,0.4,180,3,,10.0,30.250984,,,TRUE,TRUE,,,,,,,CLR,,,,,,,,VFR,,,,,,,,,,,,SPECI,819.0
KHLB 231115Z AUTO 17005KT 10SM CLR 12/09 A3013 RMK A01,KHLB,2022-10-23T11:15:00Z,39.35,-85.27,12.0,9.0,170,5,,10.0,30.129921,,,TRUE,TRUE,,,,,,,CLR,,,,,,,,VFR,,,,,,,,,,,,SPECI,297.0
KHJH 231115Z AUTO 17008KT 10SM CLR 17/10 A2939 RMK AO2 T01650100,KHJH,2022-10-23T11:15:00Z,40.15,-97.58,16.5,10.0,170,8,,10.0,29.388779,,,TRUE,TRUE,,,,,,,CLR,,,,,,,,VFR,,,,,,,,,,,,METAR,449.0
KHIF 231115Z AUTO 34008KT 10SM SCT007 SCT011 BKN060 OVC095 03/02 A2958 RMK AO2 SLP011 $,KHIF,2022-10-23T11:15:00Z,41.12,-111.97,3.0,2.0,340,8,,10.0,29.58071,1001.1,,TRUE,TRUE,TRUE,,,,,,SCT,700,SCT,1100,BKN,6000,OVC,9500,VFR,,,,,,,,,,,,SPECI,1461.0
KHHV 231115Z AUTO 19014G21KT 10SM SCT040 25/17 A2991 RMK A01,KHHV,2022-10-23T11:15:00Z,26.93,-94.68,25.0,17.0,190,14,21,10.0,29.911417,,,TRUE,TRUE,,,,,,,SCT,4000,,,,,,,VFR,,,,,,,,,,,,METAR,25.0
KHHF 231115Z AUTO 21013G19KT 10SM CLR 21/11 A2957 RMK AO2 T02070106,KHHF,2022-10-23T11:15:00Z,35.9,-100.4,20.7,10.6,210,13,19,10.0,29.568897,,,TRUE,TRUE,,,,,,,CLR,,,,,,,,VFR,,,,,,,,,,,,METAR,729.0
KHFY 231115Z AUTO 15006KT 10SM CLR 15/12 A3008 RMK AO2 T01450117,KHFY,2022-10-23T11:15:00Z,39.63,-86.08,14.5,11.7,150,6,,10.0,30.079725,,,TRUE,TRUE,,,,,,,CLR,,,,,,,,VFR,,,,,,,,,,,,METAR,250.0
KHFJ 231115Z AUTO 18018G25KT 10SM CLR 20/13 A2975 RMK AO2,KHFJ,2022-10-23T11:15:00Z,36.9,-94.02,20.0,13.0,180,18,25,10.0,29.749016,,,TRUE,TRUE,,,,,,,CLR,,,,,,,,VFR,,,,,,,,,,,,SPECI,398.0
KHEG 231115Z AUTO 00000KT 9SM CLR 09/08 A3015 RMK AO2,KHEG,2022-10-23T11:15:00Z,30.28,-81.8,9.0,8.0,0,0,,9.0,30.15059,,,TRUE,TRUE,,,,,,,CLR,,,,,,,,VFR,,,,,,,,,,,,METAR,25.0
KHCO 231115Z AUTO 04009KT 10SM CLR 07/06 A2960 RMK AO2,KHCO,2022-10-23T11:15:00Z,48.75,-96.93,7.0,6.0,40,9,,10.0,29.601377,,,TRUE,TRUE,,,,,,,CLR,,,,,,,,VFR,,,,,,,,,,,,SPECI,250.0
KHCD 231115Z AUTO 11007KT 10SM CLR 13/07 A2958 RMK AO2 T01250073,KHCD,2022-10-23T11:15:00Z,44.87,-94.38,12.5,7.3,110,7,,10.0,29.58071,,,TRUE,TRUE,,,,,,,CLR,,,,,,,,VFR,,,,,,,,,,,,METAR,320.0
KHBI 231115Z AUTO 00000KT 10SM CLR 05/05 A3024 RMK AO2 T00510045,KHBI,2022-10-23T11:15:00Z,35.65,-79.9,5.1,4.5,0,0,,10.0,30.239174,,,TRUE,TRUE,,,,,,,CLR,,,,,,,,VFR,,,,,,,,,,,,SPECI,199.0
KHAI 231115Z AUTO 16008KT 10SM CLR 15/10 A3005 RMK AO2 T01510102,KHAI,2022-10-23T11:15:00Z,41.97,-85.6,15.1,10.2,160,8,,10.0,30.050198,,,TRUE,TRUE,,,,,,,CLR,,,,,,,,VFR,,,,,,,,,,,,METAR,250.0
KHAF 231115Z AUTO 34015G20KT 6SM HZ CLR 12/09 A2991 RMK AO2,KHAF,2022-10-23T11:15:00Z,37.52,-122.5,12.0,9.0,340,15,20,6.0,29.911417,,,TRUE,TRUE,,,,,,HZ,CLR,,,,,,,,VFR,,,,,,,,,,,,METAR,11.0
KHAE 231115Z AUTO 14008KT 10SM CLR 19/11 A2977 RMK AO2,KHAE,2022-10-23T11:15:00Z,39.73,-91.45,19.0,11.0,140,8,,10.0,29.769686,,,TRUE,TRUE,,,,,,,CLR,,,,,,,,VFR,,,,,,,,,,,,METAR,230.0
KH71 231115Z AUTO 17015G21KT 10SM CLR 22/14 A2972 RMK AO2,KH71,2022-10-23T11:15:00Z,36.22,-95.33,22.0,14.0,170,15,21,10.0,29.719488,,,TRUE,TRUE,,,,,,,CLR,,,,,,,,VFR,,,,,,,,,,,,SPECI,190.0
KGZS 231115Z AUTO 00000KT 3SM BR SCT049 BKN055 07/07 A3016 RMK A01,KGZS,2022-10-23T11:15:00Z,35.15,-87.05,7.0,7.0,0,0,,3.0,30.159449,,,TRUE,TRUE,,,,,,BR,SCT,4900,BKN,5500,,,,,MVFR,,,,,,,,,,,,SPECI,198.0
KGZL 231115Z AUTO 20013G19KT 10SM CLR 22/16 A2977 RMK AO2,KGZL,2022-10-23T11:15:00Z,35.28,-95.1,22.0,16.0,200,13,19,10.0,29.769686,,,TRUE,TRUE,,,,,,,CLR,,,,,,,,VFR,,,,,,,,,,,,METAR,176.0
KGYL 231115Z AUTO 12008KT 7SM CLR 12/08 A2958 RMK AO2 T01230075,KGYL,2022-10-23T11:15:00Z,44.77,-94.08,12.3,7.5,120,8,,7.0,29.58071,,,TRUE,TRUE,,,,,,,CLR,,,,,,,,VFR,,,,,,,,,,,,SPECI,304.0
KGYI 231115Z AUTO 18017G21KT 10SM CLR 20/17 A2979 RMK AO2 T02020165 TSNO,KGYI,2022-10-23T11:15:00Z,33.72,-96.67,20.2,16.5,180,17,21,10.0,29.790354,,,TRUE,TRUE,,,TRUE,,,,CLR,,,,,,,,VFR,,,,,,,,,,,,METAR,227.0
KGYF 231115Z AUTO 14018KT 10SM CLR 25/14 A2992 RMK AO2 T02550141,KGYF,2022-10-23T11:15:00Z,26.13,-94.9,25.5,14.1,140,18,,10.0,29.920275,,,TRUE,TRUE,,,,,,,CLR,,,,,,,,VFR,,,,,,,,,,,,METAR,65.0
KGYB 231115Z AUTO 16004KT 10SM CLR 19/18 A2988 RMK AO2 T01930178,KGYB,2022-10-23T11:15:00Z,30.17,-96.98,19.3,17.8,160,4,,10.0,29.878937,,,TRUE,TRUE,,,,,,,CLR,,,,,,,,VFR,,,,,,,,,,,,METAR,140.0
KGWW 231115Z AUTO 35006KT 10SM CLR 11/08 A3015 RMK AO2 T01080077,KGWW,2022-10-23T11:15:00Z,35.47,-77.97,10.8,7.7,350,6,,10.0,30.15059,,,TRUE,TRUE,,,,,,,CLR,,,,,,,,VFR,,,,,,,,,,,,SPECI,40.0
KGWR 231115Z AUTO 02009KT 10SM CLR 02/02 A2947 RMK A01,KGWR,2022-10-23T11:15:00Z,46.22,-97.65,2.0,2.0,20,9,,10.0,29.471457,,,TRUE,TRUE,,,,,,,CLR,,,,,,,,VFR,,,,,,,,,,,,SPECI,381.0
KGWB 231115Z AUTO 10003KT 10SM CLR 12/09 A3009 RMK AO2,KGWB,2022-10-23T11:15:00Z,41.3,-85.07,12.0,9.0,100,3,,10.0,30.088583,,,TRUE,TRUE,,,,,,,CLR,,,,,,,,VFR,,,,,,,,,,,,METAR,268.0
KGRY 231115Z AUTO 17013KT 10SM SCT040 SCT049 24/13 A3005 RMK A01,KGRY,2022-10-23T11:15:00Z,27.63,-90.45,24.0,13.0,170,13,,10.0,30.050198,,,TRUE,TRUE,,,,,,,SCT,4000,SCT,4900,,,,,VFR,,,,,,,,,,,,METAR,58.0
KGRN 231115Z AUTO 11003KT 10SM CLR M01/M06 A2925 RMK AO2 T10121064,KGRN,2022-10-23T11:15:00Z,42.8,-102.17,-1.2,-6.4,110,3,,10.0,29.25,,,TRUE,TRUE,,,,,,,CLR,,,,,,,,VFR,,,,,,,,,,,,METAR,1080.0
KGPM 231115Z AUTO 17012G21KT 10SM BKN021 22/17 A2981 RMK AO2 T02150166,KGPM,2022-10-23T11:15:00Z,32.7,-97.05,21.5,16.6,170,12,21,10.0,29.811024,,,TRUE,TRUE,,,,,,,BKN,2100,,,,,,,MVFR,,,,,,,,,,,,METAR,178.0
KGPH 231115Z AUTO 15005KT 10SM CLR 19/11 A2960 RMK AO2,KGPH,2022-10-23T11:15:00Z,39.33,-94.32,19.0,11.0,150,5,,10.0,29.601377,,,TRUE,TRUE,,,,,,,CLR,,,,,,,,VFR,,,,,,,,,,,,METAR,233.0
KGPC 231115Z AUTO 17010KT 10SM SCT050 BKN065 16/11 A3004 RMK AO2 T01580110,KGPC,2022-10-23T11:15:00Z,39.63,-86.82,15.8,11.0,170,10,,10.0,30.041338,,,TRUE,TRUE,,,,,,,SCT,5000,BKN,6500,,,,,VFR,,,,,,,,,,,,METAR,254.0
KGOO 231115Z AUTO 06004KT 10SM CLR 07/M08 A2984 RMK A01,KGOO,2022-10-23T11:15:00Z,39.22,-121.0,7.0,-8.0,60,4,,10.0,29.840551,,,TRUE,TRUE,,,,,,,CLR,,,,,,,,VFR,,,,,,,,,,,,METAR,950.0
KGNT 231115Z AUTO 22010G18KT 10SM CLR 11/02 A2977 RMK AO2 T01060022,KGNT,2022-10-23T11:15:00Z,35.17,-107.9,10.6,2.2,220,10,18,10.0,29.769686,,,TRUE,TRUE,,,,,,,CLR,,,,,,,,VFR,,,,,,,,,,,,METAR,1988.0
KGNG 231115Z AUTO 27014G21KT 10SM CLR M00/M00 A2971 RMK AO2,KGNG,2022-10-23T11:15:00Z,42.92,-114.77,0.0,0.0,270,14,21,10.0,29.71063,,,TRUE,TRUE,,,,,,,CLR,,,,,,,,VFR,,,,,,,,,,,,METAR,1128.0
KGLY 231115Z AUTO 18009KT 10SM CLR 20/13 A2967 RMK AO2,KGLY,2022-10-23T11:15:00Z,38.35,-93.68,20.0,13.0,180,9,,10.0,29.66929,,,TRUE,TRUE,,,,,,,CLR,,,,,,,,VFR,,,,,,,,,,,,SPECI,247.0
KGLX 231115Z AUTO VRB06KT 10SM BKN044 23/13 A3008 RMK A01,KGLX,2022-10-23T11:15:00Z,28.23,-88.98,23.0,13.0,0,6,,10.0,30.079725,,,TRUE,TRUE,,,,,,,BKN,4400,,,,,,,VFR,,,,,,,,,,,,METAR,32.0
KGKT 231115Z AUTO 00000KT 10SM FEW040 05/04 A3023 RMK A01,KGKT,2022-10-23T11:15:00Z,35.85,-83.53,5.0,4.0,0,0,,10.0,30.230314,,,TRUE,TRUE,,,,,,,FEW,4000,,,,,,,VFR,,,,,,,,,,,,SPECI,305.0
KGHW 231115Z AUTO 11008KT 10SM CLR 08/06 A2955 RMK AO2,KGHW,2022-10-23T11:15:00Z,45.63,-95.32,8.0,6.0,110,8,,10.0,29.551182,,,TRUE,TRUE,,,,,,,CLR,,,,,,,,VFR,,,,,,,,,,,,SPECI,423.0
KGHB 231115Z AUTO 00000G10KT 9SM BKN070 25/18 A3000 RMK A01,KGHB,2022-10-23T11:15:00Z,27.83,-91.98,25.0,18.0,0,0,10,9.0,30.0,,,TRUE,TRUE,,,,,,,BKN,7000,,,,,,,VFR,,,,,,,,,,,,METAR,30.0
KGGI 231115Z AUTO 14013KT 10SM CLR 18/13 A2968 RMK AO2 T01750125,KGGI,2022-10-23T11:15:00Z,41.72,-92.73,17.5,12.5,140,13,,10.0,29.681103,,,TRUE,TRUE,,,,,,,CLR,,,,,,,,VFR,,,,,,,,,,,,SPECI,305.0
KGGE 231115Z AUTO 00000KT 10SM CLR 11/10 A3015 RMK AO2,KGGE,2022-10-23T11:15:00Z,33.32,-79.32,11.0,10.0,0,0,,10.0,30.15059,,,TRUE,TRUE,,,,,,,CLR,,,,,,,,VFR,,,,,,,,,,,,METAR,9.0
KGED 231115Z AUTO 02008KT 10SM SCT006 OVC016 14/13 A3018 RMK AO2 RAE04 P0000 T01440128,KGED,2022-10-23T11:15:00Z,38.68,-75.37,14.4,12.8,20,8,,10.0,30.180119,,,TRUE,TRUE,,,,,,,SCT,600,OVC,1600,,,,,MVFR,,,,,,0.005,,,,,,SPECI,15.0
KGDJ 231115Z AUTO 16009KT 10SM CLR 20/17 A2980 RMK AO2 T02020171,KGDJ,2022-10-23T11:15:00Z,32.45,-97.82,20.2,17.1,160,9,,10.0,29.799213,,,TRUE,TRUE,,,,,,,CLR,,,,,,,,VFR,,,,,,,,,,,,METAR,235.0
KGDB 231115Z AUTO 11012G16KT 10SM CLR 13/09 A2953 RMK AO2 T01280085,KGDB,2022-10-23T11:15:00Z,44.75,-95.55,12.8,8.5,110,12,16,10.0,29.530512,,,TRUE,TRUE,,,,,,,CLR,,,,,,,,VFR,,,,,,,,,,,,METAR,316.0
KGCY 231115Z AUTO 00000KT 10SM CLR 08/03 A3021 RMK A01,KGCY,2022-10-23T11:15:00Z,36.2,-82.82,8.0,3.0,0,0,,10.0,30.209646,,,TRUE,TRUE,,,,,,,CLR,,,,,,,,VFR,,,,,,,,,,,,SPECI,488.0
KGAO 231115Z AUTO 09004KT 10SM CLR 18/16 A3007 RMK AO2 T01810163,KGAO,2022-10-23T11:15:00Z,29.45,-90.27,18.1,16.3,90,4,,10.0,30.070866,,,TRUE,TRUE,,,,,,,CLR,,,,,,,,VFR,,,,,,,,,,,,SPECI,0.0
KGAF 231115Z AUTO 01011KT 10SM CLR 06/05 A2959 RMK AO2,KGAF,2022-10-23T11:15:00Z,48.4,-97.37,6.0,5.0,10,11,,10.0,29.589567,,,TRUE,TRUE,,,,,,,CLR,,,,,,,,VFR,,,,,,,,,,,,METAR,250.0
KFYG 231115Z AUTO 14009KT 10SM CLR 19/13 A2981 RMK AO2,KFYG,2022-10-23T11:15:00Z,38.58,-91.0,19.0,13.0,140,9,,10.0,29.811024,,,TRUE,TRUE,,,,,,,CLR,,,,,,,,VFR,,,,,,,,,,,,SPECI,147.0
KFWS 231115Z AUTO 16009G16KT 10SM CLR 20/17 A2982 RMK AO2 T02050168,KFWS,2022-10-23T11:15:00Z,32.57,-97.3,20.5,16.8,160,9,16,10.0,29.819881,,,TRUE,TRUE,,,,,,,CLR,,,,,,,,VFR,,,,,,,,,,,,METAR,211.0
KFWC 231115Z AUTO 14008KT CLR 17/11 A2999 RMK AO1 T01700106 PWINO,KFWC,2022-10-23T11:15:00Z,38.38,-88.42,17.0,10.6,140,8,,,29.991142,,,TRUE,TRUE,,,,,TRUE,,CLR,,,,,,,,,,,,,,,,,,,,METAR,131.0
KFWB 231115Z AUTO 17007G16KT 130V200 10SM CLR 20/15 A2980 RMK AO2,KFWB,2022-10-23T11:15:00Z,36.7,-93.4,20.0,15.0,170,7,16,10.0,29.799213,,,TRUE,TRUE,,,,,,,CLR,,,,,,,,VFR,,,,,,,,,,,,SPECI,392.0
KFVX 231115Z AUTO 00000KT 10SM CLR 07/05 A3022 RMK AO2 T00660048,KFVX,2022-10-23T11:15:00Z,37.35,-78.43,6.6,4.8,0,0,,10.0,30.221457,,,TRUE,TRUE,,,,,,,CLR,,,,,,,,VFR,,,,,,,,,,,,SPECI,129.0
KFTN 231115Z AUTO 14007KT 10SM CLR 20/18 A2981 RMK A01,KFTN,2022-10-23T11:15:00Z,28.22,-100.02,20.0,18.0,140,7,,10.0,29.811024,,,TRUE,TRUE,,,,,,,CLR,,,,,,,,VFR,,,,,,,,,,,,METAR,236.0
KFSW 231115Z AUTO 15008G14KT 10SM OVC001 16/12 A2976 RMK AO2,KFSW,2022-10-23T11:15:00Z,40.67,-91.32,16.0,12.0,150,8,14,10.0,29.760826,,,TRUE,TRUE,,,,,,,OVC,100,,,,,,,LIFR,,,,,,,,,,,,METAR,219.0
KFSO 231115Z AUTO 00000KT 10SM CLR 08/03 A3033 RMK AO2 T00770033,KFSO,2022-10-23T11:15:00Z,44.93,-73.1,7.7,3.3,0,0,,10.0,30.33071,,,TRUE,TRUE,,,,,,,CLR,,,,,,,,VFR,,,,,,,,,,,,METAR,70.0
KFSE 231115Z AUTO 08003KT 10SM CLR 05/02 A2955 RMK AO2,KFSE,2022-10-23T11:15:00Z,47.58,-95.77,5.0,2.0,80,3,,10.0,29.551182,,,TRUE,TRUE,,,,,,,CLR,,,,,,,,VFR,,,,,,,,,,,,SPECI,389.0
KFRR 231115Z AUTO 27004KT 10SM CLR 01/01 A3027 RMK AO1,KFRR,2022-10-23T11:15:00Z,38.92,-78.25,1.0,1.0,270,4,,10.0,30.268702,,,TRUE,TRUE,,,,,,,CLR,,,,,,,,VFR,,,,,,,,,,,,METAR,213.0
KFRH 231115Z AUTO 15003KT 10SM SCT075 15/10 A3009 RMK AO1,KFRH,2022-10-23T11:15:00Z,38.5,-86.63,15.0,10.0,150,3,,10.0,30.088583,,,TRUE,TRUE,,,,,,,SCT,7500,,,,,,,VFR,,,,,,,,,,,,METAR,241.0
KFPK 231115Z AUTO 14003KT 10SM CLR 13/09 A3006 RMK AO2 T01260091,KFPK,2022-10-23T11:15:00Z,42.57,-84.82,12.6,9.1,140,3,,10.0,30.059055,,,TRUE,TRUE,,,,,,,CLR,,,,,,,,VFR,,,,,,,,,,,,SPECI,269.0
KFOA 231115Z AUTO 16014KT 10SM CLR 16/12 A2998 RMK AO2,KFOA,2022-10-23T11:15:00Z,38.67,-88.45,16.0,12.0,160,14,,10.0,29.97933,,,TRUE,TRUE,,,,,,,CLR,,,,,,,,VFR,,,,,,,,,,,,METAR,141.0
KFLY 231115Z AUTO 22024G31KT 10SM CLR 14/M04 A2942 RMK AO2 T01371045,KFLY,2022-10-23T11:15:00Z,38.95,-104.57,13.7,-4.5,220,24,31,10.0,29.421259,,,TRUE,TRUE,,,,,,,CLR,,,,,,,,VFR,,,,,,,,,,,,METAR,2096.0
KFKS 231115Z AUTO 14005KT 10SM CLR 15/11 A2996 RMK AO2 T01460107,KFKS,2022-10-23T11:15:00Z,44.63,-86.2,14.6,10.7,140,5,,10.0,29.958662,,,TRUE,TRUE,,,,,,,CLR,,,,,,,,VFR,,,,,,,,,,,,SPECI,189.0
KFKN 231115Z AUTO 00000KT 10SM CLR 12/11 A3014 RMK AO2 T01150106,KFKN,2022-10-23T11:15:00Z,36.7,-76.9,11.5,10.6,0,0,,10.0,30.138779,,,TRUE,TRUE,,,,,,,CLR,,,,,,,,VFR,,,,,,,,,,,,SPECI,9.0
KFKA 231115Z AUTO 13009KT 10SM SCT065 SCT070 14/10 A2972 RMK AO2 T01420099,KFKA,2022-10-23T11:15:00Z,43.68,-92.17,14.2,9.9,130,9,,10.0,29.719488,,,TRUE,TRUE,,,,,,,SCT,6500,SCT,7000,,,,,VFR,,,,,,,,,,,,SPECI,388.0
KFIN 231115Z AUTO 32003KT 10SM CLR 14/14 A3011 RMK AO2 T01410136,KFIN,2022-10-23T11:15:00Z,29.47,-81.2,14.1,13.6,320,3,,10.0,30.109253,,,TRUE,TRUE,,,,,,,CLR,,,,,,,,VFR,,,,,,,,,,,,METAR,10.0
KFHB 231115Z AUTO 33003KT 10SM CLR 14/12 A3012 RMK AO2,KFHB,2022-10-23T11:15:00Z,30.62,-81.47,14.0,12.0,330,3,,10.0,30.121063,,,TRUE,TRUE,,,,,,,CLR,,,,,,,,VFR,,,,,,,,,,,,METAR,4.0
KFGX 231115Z AUTO 19005KT 10SM CLR 13/07 A3020 RMK AO2 T01250073,KFGX,2022-10-23T11:15:00Z,38.55,-83.75,12.5,7.3,190,5,,10.0,30.200787,,,TRUE,TRUE,,,,,,,CLR,,,,,,,,VFR,,,,,,,,,,,,SPECI,279.0
KFGN 231115Z AUTO 07011KT 10SM CLR 08/04 A2966 RMK AO2,KFGN,2022-10-23T11:15:00Z,49.32,-94.9,8.0,4.0,70,11,,10.0,29.660433,,,TRUE,TRUE,,,,,,,CLR,,,,,,,,VFR,,,,,,,,,,,,SPECI,327.0
KFFX 231115Z AUTO 12005KT 10SM CLR 14/10 A3000 RMK AO2 T01350104,KFFX,2022-10-23T11:15:00Z,43.43,-86.0,13.5,10.4,120,5,,10.0,30.0,,,TRUE,TRUE,,,,,,,CLR,,,,,,,,VFR,,,,,,,,,,,,SPECI,234.0
KFFM 231115Z AUTO 11009KT 10SM CLR 12/06 A2949 RMK AO2,KFFM,2022-10-23T11:15:00Z,46.28,-96.15,12.0,6.0,110,9,,10.0,29.489174,,,TRUE,TRUE,,,,,,,CLR,,,,,,,,VFR,,,,,,,,,,,,SPECI,362.0
KFFA 231115Z AUTO 36007G17KT 310V030 7SM OVC007 17/17 A3004 RMK AO2 T01710169,KFFA,2022-10-23T11:15:00Z,36.02,-75.67,17.1,16.9,360,7,17,7.0,30.041338,,,TRUE,TRUE,,,,,,,OVC,700,,,,,,,IFR,,,,,,,,,,,,METAR,2.0
KFET 231115Z AUTO 13012KT 10SM CLR 17/13 A2942 RMK AO2 T01720133,KFET,2022-10-23T11:15:00Z,41.45,-96.52,17.2,13.3,130,12,,10.0,29.421259,,,TRUE,TRUE,,,,,,,CLR,,,,,,,,VFR,,,,,,,,,,,,METAR,366.0
KFDW 231115Z AUTO 01004KT 10SM CLR 07/06 A3020 RMK AO1,KFDW,2022-10-23T11:15:00Z,34.32,-81.12,7.0,6.0,10,4,,10.0,30.200787,,,TRUE,TRUE,,,,,,,CLR,,,,,,,,VFR,,,,,,,,,,,,METAR,174.0
KFBL 231115Z AUTO 13013G17KT 10SM CLR 16/10 A2963 RMK AO2,KFBL,2022-10-23T11:15:00Z,44.33,-93.32,16.0,10.0,130,13,17,10.0,29.630905,,,TRUE,TRUE,,,,,,,CLR,,,,,,,,VFR,,,,,,,,,,,,SPECI,318.0
KF70 231115Z AUTO 20004KT 10SM SCT032 13/12 A2981 RMK AO2,KF70,2022-10-23T11:15:00Z,33.57,-117.13,13.0,12.0,200,4,,10.0,29.811024,,,TRUE,TRUE,,,,,,,SCT,3200,,,,,,,VFR,,,,,,,,,,,,METAR,406.0
KF46 231115Z AUTO 19012G17KT 10SM OVC021 20/16 A2984 RMK AO2 T02030161,KF46,2022-10-23T11:15:00Z,32.93,-96.43,20.3,16.1,190,12,17,10.0,29.840551,,,TRUE,TRUE,,,,,,,OVC,2100,,,,,,,MVFR,,,,,,,,,,,,METAR,175.0
KF44 231115Z AUTO 18009KT 10SM OVC038 20/17 A2987 RMK AO2,KF44,2022-10-23T11:15:00Z,32.17,-95.83,20.0,17.0,180,9,,10.0,29.870079,,,TRUE,TRUE,,,,,,,OVC,3800,,,,,,,VFR,,,,,,,,,,,,METAR,137.0
KF17 231115Z AUTO 13003KT 10SM CLR 18/16 A2997 RMK AO2,KF17,2022-10-23T11:15:00Z,31.83,-94.15,18.0,16.0,130,3,,10.0,29.970472,,,TRUE,TRUE,,,,,,,CLR,,,,,,,,VFR,,,,,,,,,,,,METAR,93.0
KF05 231115Z AUTO 18014KT 10SM CLR 22/13 A2967 RMK AO2 T02160128,KF05,2022-10-23T11:15:00Z,34.23,-99.28,21.6,12.8,180,14,,10.0,29.66929,,,TRUE,TRUE,,,,,,,CLR,,,,,,,,VFR,,,,,,,,,,,,METAR,384.0
KF00 231115Z AUTO 18014G25KT 10SM OVC021 21/16 A2982 RMK AO2 T02060161,KF00,2022-10-23T11:15:00Z,33.62,-96.18,20.6,16.1,180,14,25,10.0,29.819881,,,TRUE,TRUE,,,,,,,OVC,2100,,,,,,,MVFR,,,,,,,,,,,,METAR,189.0
KEZZ 231115Z AUTO 15013KT 10SM CLR 18/12 A2960 RMK AO2 T01750120,KEZZ,2022-10-23T11:15:00Z,39.72,-94.28,17.5,12.0,150,13,,10.0,29.601377,,,TRUE,TRUE,,,,,,,CLR,,,,,,,,VFR,,,,,,,,,,,,METAR,317.0
KEZS 231115Z AUTO 17003KT 10SM CLR 14/13 A2987 RMK AO2 T01400125,KEZS,2022-10-23T11:15:00Z,44.78,-88.57,14.0,12.5,170,3,,10.0,29.870079,,,TRUE,TRUE,,,,,,,CLR,,,,,,,,VFR,,,,,,,,,,,,METAR,247.0
KEZM 231115Z AUTO 00000KT 10SM BKN029 03/03 A3020 RMK AO2,KEZM,2022-10-23T11:15:00Z,32.22,-83.13,3.0,3.0,0,0,,10.0,30.200787,,,TRUE,TRUE,,,,,,,BKN,2900,,,,,,,MVFR,,,,,,,,,,,,SPECI,86.0
KEZF 231115Z AUTO 00000KT 10SM CLR 07/06 A3022 RMK AO2 T00650063,KEZF,2022-10-23T11:15:00Z,38.27,-77.45,6.5,6.3,0,0,,10.0,30.221457,,,TRUE,TRUE,,,,,,,CLR,,,,,,,,VFR,,,,,,,,,,,,SPECI,26.0
KEYF 231115Z AUTO 34006KT 10SM CLR 12/09 A3016 RMK AO2 T01160093,KEYF,2022-10-23T11:15:00Z,34.6,-78.58,11.6,9.3,340,6,,10.0,30.159449,,,TRUE,TRUE,,,,,,,CLR,,,,,,,,VFR,,,,,,,,,,,,METAR,39.0
KEXX 231115Z AUTO 31003KT 10SM CLR 03/03 A3022 RMK AO2 T00330033,KEXX,2022-10-23T11:15:00Z,35.78,-80.3,3.3,3.3,310,3,,10.0,30.221457,,,TRUE,TRUE,,,,,,,CLR,,,,,,,,VFR,,,,,,,,,,,,SPECI,221.0
KEVU 231115Z AUTO 15010KT 10SM CLR 17/13 A2954 RMK AO2 T01790136,KEVU,2022-10-23T11:15:00Z,40.35,-94.92,17.9,13.6,150,10,,10.0,29.53937,,,TRUE,TRUE,,,,,,,CLR,,,,,,,,VFR,,,,,,,,,,,,SPECI,351.0
KETC 231115Z AUTO 33005KT 10SM CLR 11/10 A3015 RMK AO2 T01140095,KETC,2022-10-23T11:15:00Z,35.93,-77.55,11.4,9.5,330,5,,10.0,30.15059,,,TRUE,TRUE,,,,,,,CLR,,,,,,,,VFR,,,,,,,,,,,,SPECI,15.0
KETB 231115Z AUTO 11004KT 10SM CLR 11/10 A2990 RMK AO2,KETB,2022-10-23T11:15:00Z,43.42,-88.13,11.0,10.0,110,4,,10.0,29.899607,,,TRUE,TRUE,,,,,,,CLR,,,,,,,,VFR,,,,,,,,,,,,SPECI,269.0
KERY 231115Z AUTO 19005KT 10SM CLR 13/10 A2995 RMK AO2 T01290099,KERY,2022-10-23T11:15:00Z,46.3,-85.45,12.9,9.9,190,5,,10.0,29.949802,,,TRUE,TRUE,,,,,,,CLR,,,,,,,,VFR,,,,,,,,,,,,METAR,261.0
KERV 231115Z AUTO 17010KT 10SM OVC008 19/18 A2986 RMK AO2 T01930178,KERV,2022-10-23T11:15:00Z,29.98,-99.08,19.3,17.8,170,10,,10.0,29.861221,,,TRUE,TRUE,,,,,,,OVC,800,,,,,,,IFR,,,,,,,,,,,,METAR,483.0
KEQA 231115Z AUTO 18018G22KT 10SM CLR 22/12 A2956 RMK AO2,KEQA,2022-10-23T11:15:00Z,37.78,-96.82,22.0,12.0,180,18,22,10.0,29.56004,,,TRUE,TRUE,,,,,,,CLR,,,,,,,,VFR,,,,,,,,,,,,METAR,422.0
KEOE 231115Z AUTO 04004KT 10SM CLR 07/03 A3024 RMK AO2,KEOE,2022-10-23T11:15:00Z,34.32,-81.63,7.0,3.0,40,4,,10.0,30.239174,,,TRUE,TRUE,,,,,,,CLR,,,,,,,,VFR,,,,,,,,,,,,METAR,166.0
KEMV 231115Z AUTO 31007KT 10SM CLR 10/09 A3018 RMK AO2 T01000086,KEMV,2022-10-23T11:15:00Z,36.68,-77.48,10.0,8.6,310,7,,10.0,30.180119,,,TRUE,TRUE,,,,,,,CLR,,,,,,,,VFR,,,,,,,,,,,,METAR,35.0
KEMM 231115Z AUTO 31006KT 10SM CLR M02/M05 A2955 RMK AO2,KEMM,2022-10-23T11:15:00Z,41.82,-110.55,-2.0,-5.0,310,6,,10.0,29.551182,,,TRUE,TRUE,,,,,,,CLR,,,,,,,,VFR,,,,,,,,,,,,METAR,2219.0
KELO 231115Z AUTO 00000KT 7SM CLR 03/03 A2970 RMK AO2,KELO,2022-10-23T11:15:00Z,47.82,-91.83,3.0,3.0,0,0,,7.0,29.698818,,,TRUE,TRUE,,,,,,,CLR,,,,,,,,VFR,,,,,,,,,,,,METAR,438.0
KELK 231115Z AUTO 18013KT 10SM CLR 19/12 A2963 RMK AO2 SLP326 T01870124 $,KELK,2022-10-23T11:15:00Z,35.43,-99.4,18.7,12.4,180,13,,10.0,29.630905,1032.6,,TRUE,TRUE,TRUE,,,,,,CLR,,,,,,,,VFR,,,,,,,,,,,,SPECI,603.0
KELA 231115Z AUTO 00000KT 10SM CLR 17/16 A2989 RMK AO2 T01650159,KELA,2022-10-23T11:15:00Z,29.6,-96.32,16.5,15.9,0,0,,10.0,29.890747,,,TRUE,TRUE,,,,,,,CLR,,,,,,,,VFR,,,,,,,,,,,,METAR,56.0
KEKX 231115Z AUTO 15003KT 10SM CLR 12/09 A3014 RMK AO2 T01190088,KEKX,2022-10-23T11:15:00Z,37.68,-85.92,11.9,8.8,150,3,,10.0,30.138779,,,TRUE,TRUE,,,,,,,CLR,,,,,,,,VFR,,,,,,,,,,,,SPECI,234.0
KEKS 231115Z AUTO 04013KT 1/2SM -SN OVC003 M01/M02 A2965 RMK AO2,KEKS,2022-10-23T11:15:00Z,45.27,-111.65,-1.0,-2.0,40,13,,0.5,29.648623,,,TRUE,TRUE,,,,,,-SN,OVC,300,,,,,,,LIFR,,,,,,,,,,,,METAR,1636.0
KEKM 231115Z AUTO 14004KT 9SM FEW065 14/11 A3003 RMK AO2 T01350114,KEKM,2022-10-23T11:15:00Z,41.72,-86.0,13.5,11.4,140,4,,9.0,30.029528,,,TRUE,TRUE,,,,,,,FEW,6500,,,,,,,VFR,,,,,,,,,,,,SPECI,236.0
KEIK 231115Z AUTO 29003KT 10SM CLR 07/M05 A2930 RMK AO2 T00681050 PWINO,KEIK,2022-10-23T11:15:00Z,40.02,-105.05,6.8,-5.0,290,3,,10.0,29.300198,,,TRUE,TRUE,,,,,TRUE,,CLR,,,,,,,,VFR,,,,,,,,,,,,METAR,1551.0
KEHO 231115Z AUTO 00000KT 10SM CLR 04/03 A3022 RMK AO2 T00350031,KEHO,2022-10-23T11:15:00Z,35.25,-81.6,3.5,3.1,0,0,,10.0,30.221457,,,TRUE,TRUE,,,,,,,CLR,,,,,,,,VFR,,,,,,,,,,,,METAR,261.0
KEGV 231115Z AUTO 16004KT 10SM CLR 11/08 A2984 RMK AO2 T01140084,KEGV,2022-10-23T11:15:00Z,45.93,-89.27,11.4,8.4,160,4,,10.0,29.840551,,,TRUE,TRUE,,,,,,,CLR,,,,,,,,VFR,,,,,,,,,,,,SPECI,499.0
KEFT 231115Z AUTO 17011KT 10SM CLR 14/11 A2983 RMK AO2 T01380108,KEFT,2022-10-23T11:15:00Z,42.62,-89.6,13.8,10.8,170,11,,10.0,29.828741,,,TRUE,TRUE,,,,,,,CLR,,,,,,,,VFR,,,,,,,,,,,,SPECI,332.0
KEFK 231115Z AUTO 21005KT 10SM CLR 03/02 A3036 RMK AO2 T00330021,KEFK,2022-10-23T11:15:00Z,44.88,-72.23,3.3,2.1,210,5,,10.0,30.360237,,,TRUE,TRUE,,,,,,,CLR,,,,,,,,VFR,,,,,,,,,,,,SPECI,282.0
KEDN 231115Z AUTO 00000KT 10SM CLR 07/07 A3016 RMK AO2 T00680068,KEDN,2022-10-23T11:15:00Z,31.3,-85.9,6.8,6.8,0,0,,10.0,30.159449,,,TRUE,TRUE,,,,,,,CLR,,,,,,,,VFR,,,,,,,,,,,,SPECI,103.0
KEDJ 231115Z AUTO 15007KT 10SM SCT055 14/08 A3016 RMK A01,KEDJ,2022-10-23T11:15:00Z,40.37,-83.82,14.0,8.0,150,7,,10.0,30.159449,,,TRUE,TRUE,,,,,,,SCT,5500,,,,,,,VFR,,,,,,,,,,,,SPECI,341.0
KEDE 231115Z AUTO 36006KT 10SM OVC008 15/15 A3012 RMK AO2 T01510149,KEDE,2022-10-23T11:15:00Z,36.03,-76.57,15.1,14.9,360,6,,10.0,30.121063,,,TRUE,TRUE,,,,,,,OVC,800,,,,,,,IFR,,,,,,,,,,,,METAR,4.0
KECS 231115Z AUTO 29009KT 10SM CLR 10/00 A2933 RMK AO2,KECS,2022-10-23T11:15:00Z,43.88,-104.32,10.0,0.0,290,9,,10.0,29.329725,,,TRUE,TRUE,,,,,,,CLR,,,,,,,,VFR,,,,,,,,,,,,METAR,1273.0
KEBG 231115Z AUTO 00000KT 10SM CLR 18/18 A2985 RMK AO2 T01800177 PWINO,KEBG,2022-10-23T11:15:00Z,26.45,-98.13,18.0,17.7,0,0,,10.0,29.84941,,,TRUE,TRUE,,,,,TRUE,,CLR,,,,,,,,VFR,,,,,,,,,,,,METAR,21.0
KEBA 231115Z AUTO 00000KT 10SM CLR 06/05 A3021 RMK AO2 T00620052,KEBA,2022-10-23T11:15:00Z,34.1,-82.82,6.2,5.2,0,0,,10.0,30.209646,,,TRUE,TRUE,,,,,,,CLR,,,,,,,,VFR,,,,,,,,,,,,METAR,180.0
KE42 231115Z AUTO 19016KT 10SM CLR 18/10 A2957 RMK AO2 T01810100,KE42,2022-10-23T11:15:00Z,36.22,-101.2,18.1,10.0,190,16,,10.0,29.568897,,,TRUE,TRUE,,,,,,,CLR,,,,,,,,VFR,,,,,,,,,,,,METAR,942.0
KDZJ 231115Z AUTO 00000KT 5SM BR CLR 00/00 A3025 RMK AO2 T00040003,KDZJ,2022-10-23T11:15:00Z,34.85,-84.0,0.4,0.3,0,0,,5.0,30.250984,,,TRUE,TRUE,,,,,,BR,CLR,,,,,,,,MVFR,,,,,,,,,,,,METAR,578.0
KDZB 231115Z AUTO 19011G20KT 10SM OVC020 22/17 A2986 RMK AO2 T02180170,KDZB,2022-10-23T11:15:00Z,30.53,-98.37,21.8,17.0,190,11,20,10.0,29.861221,,,TRUE,TRUE,,,,,,,OVC,2000,,,,,,,MVFR,,,,,,,,,,,,METAR,329.0
KDYT 231115Z AUTO 08007G12KT 10SM BKN006 BKN024 BKN042 10/09 A2971 RMK AO2,KDYT,2022-10-23T11:15:00Z,46.72,-92.03,10.0,9.0,80,7,12,10.0,29.71063,,,TRUE,TRUE,,,,,,,BKN,600,BKN,2400,BKN,4200,,,IFR,,,,,,,,,,,,METAR,185.0
KDYB 231115Z AUTO 00000KT 10SM CLR 10/10 A3016 RMK AO2,KDYB,2022-10-23T11:15:00Z,33.07,-80.28,10.0,10.0,0,0,,10.0,30.159449,,,TRUE,TRUE,,,,,,,CLR,,,,,,,,VFR,,,,,,,,,,,,SPECI,15.0
KDYA 231115Z AUTO 00000KT 2 1/2SM BR CLR A3014 RMK AO2 VIS 1V5,KDYA,2022-10-23T11:15:00Z,32.47,-87.95,,,0,0,,2.5,30.138779,,,TRUE,TRUE,,,,,,BR,CLR,,,,,,,,IFR,,,,,,,,,,,,SPECI,33.0
KDXX 231115Z AUTO 11008KT 10SM CLR 09/06 A2950 RMK AO2,KDXX,2022-10-23T11:15:00Z,44.98,-96.18,9.0,6.0,110,8,,10.0,29.500984,,,TRUE,TRUE,,,,,,,CLR,,,,,,,,VFR,,,,,,,,,,,,SPECI,327.0
KDWA 231115Z AUTO 32008G15KT 10SM FEW038 FEW046 13/M01 A2989 RMK AO2,KDWA,2022-10-23T11:15:00Z,38.58,-121.85,13.0,-1.0,320,8,15,10.0,29.890747,,,TRUE,TRUE,,,,,,,FEW,3800,FEW,4600,,,,,VFR,,,,,,,,,,,,METAR,28.0
KDUH 231115Z AUTO 16004KT 10SM CLR 12/08 A3013 RMK AO2 T01200079,KDUH,2022-10-23T11:15:00Z,41.73,-83.65,12.0,7.9,160,4,,10.0,30.129921,,,TRUE,TRUE,,,,,,,CLR,,,,,,,,VFR,,,,,,,,,,,,SPECI,203.0
KDUC 231115Z AUTO 16013KT 10SM CLR 19/14 A2972 RMK AO2 T01900142,KDUC,2022-10-23T11:15:00Z,34.47,-97.97,19.0,14.2,160,13,,10.0,29.719488,,,TRUE,TRUE,,,,,,,CLR,,,,,,,,VFR,,,,,,,,,,,,METAR,339.0
KDUA 231115Z AUTO 18010KT 10SM SCT021 20/15 A2981 RMK AO2,KDUA,2022-10-23T11:15:00Z,33.95,-96.4,20.0,15.0,180,10,,10.0,29.811024,,,TRUE,TRUE,,,,,,,SCT,2100,,,,,,,VFR,,,,,,,,,,,,SPECI,209.0
KDTL 231115Z AUTO 08004KT 10SM CLR 06/04 A2953 RMK AO2,KDTL,2022-10-23T11:15:00Z,46.82,-95.88,6.0,4.0,80,4,,10.0,29.530512,,,TRUE,TRUE,,,,,,,CLR,,,,,,,,VFR,,,,,,,,,,,,SPECI,425.0
KDTA 231115Z AUTO 18005KT 1 1/4SM OVC003 00/00 A2963 RMK AO1,KDTA,2022-10-23T11:15:00Z,39.38,-112.5,0.0,0.0,180,5,,1.25,29.630905,,,TRUE,TRUE,,,,,,,OVC,300,,,,,,,LIFR,,,,,,,,,,,,METAR,1452.0
KDRM 231115Z AUTO 15006KT 10SM CLR 10/09 A3002 RMK AO2 T01040088,KDRM,2022-10-23T11:15:00Z,46.0,-83.75,10.4,8.8,150,6,,10.0,30.02067,,,TRUE,TRUE,,,,,,,CLR,,,,,,,,VFR,,,,,,,,,,,,SPECI,201.0
KDRI 231115Z AUTO 12005KT 10SM BKN055 17/17 A3001 RMK AO2 T01730170 $,KDRI,2022-10-23T11:15:00Z,30.83,-93.33,17.3,17.0,120,5,,10.0,30.008858,,,TRUE,TRUE,TRUE,,,,,,BKN,5500,,,,,,,VFR,,,,,,,,,,,,SPECI,59.0
KDNN 231115Z AUTO 00000KT 8SM CLR 05/04 A3022 RMK AO2 T00520045,KDNN,2022-10-23T11:15:00Z,34.72,-84.87,5.2,4.5,0,0,,8.0,30.221457,,,TRUE,TRUE,,,,,,,CLR,,,,,,,,VFR,,,,,,,,,,,,SPECI,216.0
KDNA 231115Z AUTO 24006KT 10SM CLR 18/10 A2979 RMK AO2,KDNA,2022-10-23T11:15:00Z,31.88,-106.7,18.0,10.0,240,6,,10.0,29.790354,,,TRUE,TRUE,,,,,,,CLR,,,,,,,,VFR,,,,,,,,,,,,METAR,1254.0
KDLZ 231115Z AUTO 00000KT 10SM CLR 09/06 A3017 RMK AO2,KDLZ,2022-10-23T11:15:00Z,40.28,-83.12,9.0,6.0,0,0,,10.0,30.171259,,,TRUE,TRUE,,,,,,,CLR,,,,,,,,VFR,,,,,,,,,,,,SPECI,287.0
KDLO 231115Z AUTO 30003KT 10SM CLR 10/03 A2984 RMK AO2 T00960025,KDLO,2022-10-23T11:15:00Z,35.75,-119.23,9.6,2.5,300,3,,10.0,29.840551,,,TRUE,TRUE,,,,,,,CLR,,,,,,,,VFR,,,,,,,,,,,,METAR,97.0
KDLL 231115Z AUTO 16014G18KT 10SM BKN120 14/11 A2982 RMK AO2 T01420110,KDLL,2022-10-23T11:15:00Z,43.52,-89.77,14.2,11.0,160,14,18,10.0,29.819881,,,TRUE,TRUE,,,,,,,BKN,12000,,,,,,,VFR,,,,,,,,,,,,METAR,297.0
KDKX 231115Z AUTO 00000KT M1/4SM FG OVC002 07/07 A3024 RMK A01,KDKX,2022-10-23T11:15:00Z,35.97,-83.87,7.0,7.0,0,0,,0.25,30.239174,,,TRUE,TRUE,,,,,,FG,OVC,200,,,,,,,LIFR,,,,,,,,,,,,SPECI,253.0
KDEW 231115Z AUTO 00000KT 10SM SCT023 OVC075 01/M01 A2981 RMK AO2 T00061006,KDEW,2022-10-23T11:15:00Z,47.97,-117.43,0.6,-0.6,0,0,,10.0,29.811024,,,TRUE,TRUE,,,,,,,SCT,2300,OVC,7500,,,,,VFR,,,,,,,,,,,,SPECI,672.0
KDEH 231115Z AUTO 15009G14KT 10SM BKN065 14/11 A2971 RMK AO2,KDEH,2022-10-23T11:15:00Z,43.27,-91.73,14.0,11.0,150,9,14,10.0,29.71063,,,TRUE,TRUE,,,,,,,BKN,6500,,,,,,,VFR,,,,,,,,,,,,SPECI,348.0
KDCM 231115Z AUTO 34004KT 10SM CLR 07/05 A3022 RMK AO2,KDCM,2022-10-23T11:15:00Z,34.78,-81.2,7.0,5.0,340,4,,10.0,30.221457,,,TRUE,TRUE,,,,,,,CLR,,,,,,,,VFR,,,,,,,,,,,,SPECI,191.0
KD95 231115Z AUTO 00000KT 10SM CLR 11/08 A3012 RMK AO2 T01070076,KD95,2022-10-23T11:15:00Z,43.07,-83.27,10.7,7.6,0,0,,10.0,30.121063,,,TRUE,TRUE,,,,,,,CLR,,,,,,,,VFR,,,,,,,,,,,,METAR,253.0
KD60 231115Z AUTO 07021G26KT 10SM OVC008 04/04 A2952 RMK AO2,KD60,2022-10-23T11:15:00Z,48.38,-102.9,4.0,4.0,70,21,26,10.0,29.518702,,,TRUE,TRUE,,,,,,,OVC,800,,,,,,,IFR,,,,,,,,,,,,SPECI,682.0
KD57 231115Z AUTO 07012G18KT 10SM 06/04 A2943 RMK AO2,KD57,2022-10-23T11:15:00Z,46.82,-101.87,6.0,4.0,70,12,18,10.0,29.430119,,,TRUE,TRUE,,,,,,,,,,,,,,,,,,,,,,,,,,,SPECI,636.0
KD55 231115Z AUTO 05018G25KT 10SM OVC006 06/06 A2960 RMK AO2,KD55,2022-10-23T11:15:00Z,48.75,-98.4,6.0,6.0,50,18,25,10.0,29.601377,,,TRUE,TRUE,,,,,,,OVC,600,,,,,,,IFR,,,,,,,,,,,,SPECI,488.0
KD50 231115Z AUTO 09015G21KT 7SM OVC009 04/03 A2960 RMK AO2,KD50,2022-10-23T11:15:00Z,48.93,-103.3,4.0,3.0,90,15,21,7.0,29.601377,,,TRUE,TRUE,,,,,,,OVC,900,,,,,,,IFR,,,,,,,,,,,,METAR,591.0
KD39 231115Z AUTO 12008KT 10SM CLR 11/07 A2957 RMK AO2 T01120072,KD39,2022-10-23T11:15:00Z,45.7,-94.93,11.2,7.2,120,8,,10.0,29.568897,,,TRUE,TRUE,,,,,,,CLR,,,,,,,,VFR,,,,,,,,,,,,METAR,378.0
KD25 231115Z AUTO 16008KT 10SM CLR 13/09 A2981 RMK AO2 T01250092,KD25,2022-10-23T11:15:00Z,46.12,-89.88,12.5,9.2,160,8,,10.0,29.811024,,,TRUE,TRUE,,,,,,,CLR,,,,,,,,VFR,,,,,,,,,,,,SPECI,490.0
KCZL 231115Z AUTO 00000KT 10SM CLR 05/05 A3024 RMK AO2,KCZL,2022-10-23T11:15:00Z,34.47,-84.93,5.0,5.0,0,0,,10.0,30.239174,,,TRUE,TRUE,,,,,,,CLR,,,,,,,,VFR,,,,,,,,,,,,SPECI,197.0
KCXW 231115Z AUTO 17011KT 10SM OVC028 21/16 A2992 RMK A01,KCXW,2022-10-23T11:15:00Z,35.02,-92.55,21.0,16.0,170,11,,10.0,29.920275,,,TRUE,TRUE,,,,,,,OVC,2800,,,,,,,MVFR,,,,,,,,,,,,SPECI,84.0
KCXU 231115Z AUTO 00000KT 10SM CLR 05/02 A3017 RMK AO1 T00480022,KCXU,2022-10-23T11:15:00Z,31.22,-84.23,4.8,2.2,0,0,,10.0,30.171259,,,TRUE,TRUE,,,,,,,CLR,,,,,,,,VFR,,,,,,,,,,,,SPECI,48.0
KCXP 231115Z AUTO 00000KT 10SM CLR M03/M06 A2991 RMK AO2,KCXP,2022-10-23T11:15:00Z,39.18,-119.73,-3.0,-6.0,0,0,,10.0,29.911417,,,TRUE,TRUE,,,,,,,CLR,,,,,,,,VFR,,,,,,,,,,,,METAR,1431.0
KCXE 231115Z AUTO 00000KT 10SM CLR 07/07 A3021 RMK AO1 T00700065,KCXE,2022-10-23T11:15:00Z,36.78,-78.5,7.0,6.5,0,0,,10.0,30.209646,,,TRUE,TRUE,,,,,,,CLR,,,,,,,,VFR,,,,,,,,,,,,SPECI,154.0
KCWC 231115Z AUTO 14010KT 10SM CLR 20/12 A2971 RMK AO2 T01950122,KCWC,2022-10-23T11:15:00Z,33.85,-98.48,19.5,12.2,140,10,,10.0,29.71063,,,TRUE,TRUE,,,,,,,CLR,,,,,,,,VFR,,,,,,,,,,,,METAR,304.0
KCVX 231115Z AUTO 14005KT 10SM CLR 13/11 A2998 RMK AO2 T01300106,KCVX,2022-10-23T11:15:00Z,45.3,-85.27,13.0,10.6,140,5,,10.0,29.97933,,,TRUE,TRUE,,,,,,,CLR,,,,,,,,VFR,,,,,,,,,,,,SPECI,196.0
KCVH 231115Z AUTO 00000KT 10SM CLR 07/04 A2991 RMK A01,KCVH,2022-10-23T11:15:00Z,36.9,-121.42,7.0,4.0,0,0,,10.0,29.911417,,,TRUE,TRUE,,,,,,,CLR,,,,,,,,VFR,,,,,,,,,,,,METAR,68.0
KCVC 231115Z AUTO 00000KT 10SM CLR 06/04 A3020 RMK AO2,KCVC,2022-10-23T11:15:00Z,33.63,-83.85,6.0,4.0,0,0,,10.0,30.200787,,,TRUE,TRUE,,,,,,,CLR,,,,,,,,VFR,,,,,,,,,,,,SPECI,240.0
KCTZ 231115Z AUTO 00000KT 10SM CLR 12/10 A3017 RMK AO2 T01170102,KCTZ,2022-10-23T11:15:00Z,34.98,-78.37,11.7,10.2,0,0,,10.0,30.171259,,,TRUE,TRUE,,,,,,,CLR,,,,,,,,VFR,,,,,,,,,,,,SPECI,43.0
KCTY 231115Z AUTO 00000KT 10SM CLR 06/05 A3014 RMK AO2 T00610048,KCTY,2022-10-23T11:15:00Z,29.63,-83.1,6.1,4.8,0,0,,10.0,30.138779,,,TRUE,TRUE,,,,,,,CLR,,,,,,,,VFR,,,,,,,,,,,,METAR,12.0
KCSQ 231115Z AUTO 14009G15KT 10SM CLR 15/13 A2957 RMK AO2,KCSQ,2022-10-23T11:15:00Z,41.02,-94.37,15.0,13.0,140,9,15,10.0,29.568897,,,TRUE,TRUE,,,,,,,CLR,,,,,,,,VFR,,,,,,,,,,,,SPECI,394.0
KCRX 231115Z AUTO 16006KT 10SM CLR 13/10 A3011 RMK AO2,KCRX,2022-10-23T11:15:00Z,34.92,-88.6,13.0,10.0,160,6,,10.0,30.109253,,,TRUE,TRUE,,,,,,,CLR,,,,,,,,VFR,,,,,,,,,,,,SPECI,128.0
KCQW 231115Z AUTO 00000KT 10SM CLR 08/07 A3020 RMK AO2 PWINO,KCQW,2022-10-23T11:15:00Z,34.72,-79.95,8.0,7.0,0,0,,10.0,30.200787,,,TRUE,TRUE,,,,,TRUE,,CLR,,,,,,,,VFR,,,,,,,,,,,,METAR,67.0
KCQF 231115Z AUTO 00000KT 10SM CLR 10/08 A3013 RMK AO2,KCQF,2022-10-23T11:15:00Z,30.47,-87.88,10.0,8.0,0,0,,10.0,30.129921,,,TRUE,TRUE,,,,,,,CLR,,,,,,,,VFR,,,,,,,,,,,,METAR,21.0
KCPU 231115Z AUTO 00000KT 10SM CLR 05/M01 A2985 RMK AO2 T00451015,KCPU,2022-10-23T11:15:00Z,38.15,-120.65,4.5,-1.5,0,0,,10.0,29.84941,,,TRUE,TRUE,,,,,,,CLR,,,,,,,,VFR,,,,,,,,,,,,METAR,400.0
KCPT 231115Z AUTO 17010KT 10SM CLR 20/18 A2982 RMK A01,KCPT,2022-10-23T11:15:00Z,32.35,-97.43,20.0,18.0,170,10,,10.0,29.819881,,,TRUE,TRUE,,,,,,,CLR,,,,,,,,VFR,,,,,,,,,,,,METAR,260.0
KCPK 231115Z AUTO 03010KT 15/13 A3012 RMK AO2 T01480134,KCPK,2022-10-23T11:15:00Z,36.67,-76.32,14.8,13.4,30,10,,,30.121063,,,TRUE,TRUE,,,,,,,,,,,,,,,,,,,,,,,,,,,METAR,4.0
KCPF 231115Z AUTO 00000KT 10SM CLR 06/06 A3022 RMK AO2,KCPF,2022-10-23T11:15:00Z,37.38,-83.27,6.0,6.0,0,0,,10.0,30.221457,,,TRUE,TRUE,,,,,,,CLR,,,,,,,,VFR,,,,,,,,,,,,METAR,382.0
KCOQ 231115Z AUTO 10006KT 1/4SM FG OVC002 07/07 A2968 RMK AO2 TSNO,KCOQ,2022-10-23T11:15:00Z,46.7,-92.5,7.0,7.0,100,6,,0.25,29.681103,,,TRUE,TRUE,,,TRUE,,,FG,OVC,200,,,,,,,LIFR,,,,,,,,,,,,SPECI,390.0
KCNB 231115Z AUTO 09003KT 10SM CLR 06/04 A2949 RMK AO2 T00630043,KCNB,2022-10-23T11:15:00Z,44.73,-96.27,6.3,4.3,90,3,,10.0,29.489174,,,TRUE,TRUE,,,,,,,CLR,,,,,,,,VFR,,,,,,,,,,,,SPECI,363.0
KCMR 231115Z AUTO 24012G25KT 10SM BKN009 OVC012 06/04 A2972 RMK AO2,KCMR,2022-10-23T11:15:00Z,35.3,-112.2,6.0,4.0,240,12,25,10.0,29.719488,,,TRUE,TRUE,,,,,,,BKN,900,OVC,1200,,,,,IFR,,,,,,,,,,,,METAR,2039.0
KCLW 231115Z AUTO 08003KT 10SM CLR 17/13 A3009 RMK AO2,KCLW,2022-10-23T11:15:00Z,27.98,-82.75,17.0,13.0,80,3,,10.0,30.088583,,,TRUE,TRUE,,,,,,,CLR,,,,,,,,VFR,,,,,,,,,,,,SPECI,21.0
KCLS 231115Z AUTO 00000KT 1/4SM -UP BKN004 OVC028 02/02 A3000 RMK AO2,KCLS,2022-10-23T11:15:00Z,46.68,-122.98,2.0,2.0,0,0,,0.25,30.0,,,TRUE,TRUE,,,,,,UP,BKN,400,OVC,2800,,,,,LIFR,,,,,,,,,,,,METAR,52.0
KCLK 231115Z AUTO 17010KT 10SM CLR 18/11 A2963 RMK AO2,KCLK,2022-10-23T11:15:00Z,35.53,-98.93,18.0,11.0,170,10,,10.0,29.630905,,,TRUE,TRUE,,,,,,,CLR,,,,,,,,VFR,,,,,,,,,,,,METAR,489.0
KCLI 231115Z AUTO 16005KT 10SM CLR 12/10 A2987 RMK AO2 T01150102,KCLI,2022-10-23T11:15:00Z,44.62,-88.73,11.5,10.2,160,5,,10.0,29.870079,,,TRUE,TRUE,,,,,,,CLR,,,,,,,,VFR,,,,,,,,,,,,SPECI,248.0
KCKZ 231115Z AUTO 04006KT 10SM OVC026 11/05 A3028 RMK AO2,KCKZ,2022-10-23T11:15:00Z,40.38,-75.28,11.0,5.0,40,6,,10.0,30.280512,,,TRUE,TRUE,,,,,,,OVC,2600,,,,,,,MVFR,,,,,,,,,,,,SPECI,160.0
KCKN 231115Z AUTO 06008KT 10SM CLR 06/03 A2955 RMK AO2,KCKN,2022-10-23T11:15:00Z,47.85,-96.62,6.0,3.0,60,8,,10.0,29.551182,,,TRUE,TRUE,,,,,,,CLR,,,,,,,,VFR,,,,,,,,,,,,METAR,272.0
KCKM 231115Z AUTO 15008KT 10SM SCT035 BKN042 17/14 A3005 RMK A01,KCKM,2022-10-23T11:15:00Z,34.3,-90.52,17.0,14.0,150,8,,10.0,30.050198,,,TRUE,TRUE,,,,,,,SCT,3500,BKN,4200,,,,,VFR,,,,,,,,,,,,SPECI,52.0
KCKI 231115Z AUTO 32003KT 10SM CLR 07/06 A3017 RMK AO2,KCKI,2022-10-23T11:15:00Z,33.72,-79.85,7.0,6.0,320,3,,10.0,30.171259,,,TRUE,TRUE,,,,,,,CLR,,,,,,,,VFR,,,,,,,,,,,,METAR,19.0
KCJR 231115Z AUTO 00000KT 10SM CLR 05/04 A3026 RMK AO2 T00530040,KCJR,2022-10-23T11:15:00Z,38.53,-77.87,5.3,4.0,0,0,,10.0,30.259842,,,TRUE,TRUE,,,,,,,CLR,,,,,,,,VFR,,,,,,,,,,,,SPECI,90.0
KCIR 231115Z AUTO 20011G17KT 10SM CLR 19/12 A3000 RMK AO2 T01860124,KCIR,2022-10-23T11:15:00Z,37.07,-89.22,18.6,12.4,200,11,17,10.0,30.0,,,TRUE,TRUE,,,,,,,CLR,,,,,,,,VFR,,,,,,,,,,,,SPECI,96.0
KCIC 231115Z AUTO 32011KT 10SM CLR 10/00 A2990 RMK AO1,KCIC,2022-10-23T11:15:00Z,39.78,-121.85,10.0,0.0,320,11,,10.0,29.899607,,,TRUE,TRUE,,,,,,,CLR,,,,,,,,VFR,,,,,,,,,,,,METAR,72.0
KCGC 231115Z AUTO 11/10 RMK AO2 PWINO PNO,KCGC,2022-10-23T11:15:00Z,28.87,-82.57,11.0,10.0,,,,,,,,TRUE,TRUE,,,,,TRUE,,,,,,,,,,,,,,,,,,,,,,SPECI,3.0
KCFS 231115Z AUTO 00000KT 10SM CLR 12/09 A3010 RMK AO2 T01150086,KCFS,2022-10-23T11:15:00Z,43.47,-83.45,11.5,8.6,0,0,,10.0,30.100393,,,TRUE,TRUE,,,,,,,CLR,,,,,,,,VFR,,,,,,,,,,,,METAR,214.0
KCFO 231115Z AUTO 21013KT 10SM CLR 15/M05 A2935 RMK AO2 T01461046,KCFO,2022-10-23T11:15:00Z,39.78,-104.55,14.6,-4.6,210,13,,10.0,29.350393,,,TRUE,TRUE,,,,,,,CLR,,,,,,,,VFR,,,,,,,,,,,,METAR,1672.0
KCFJ 231115Z AUTO 16010KT 10SM SCT075 14/07 A3003 RMK AO2 T01410070,KCFJ,2022-10-23T11:15:00Z,39.98,-86.92,14.1,7.0,160,10,,10.0,30.029528,,,TRUE,TRUE,,,,,,,SCT,7500,,,,,,,VFR,,,,,,,,,,,,SPECI,243.0
KCFE 231115Z AUTO 12007KT 10SM FEW024 SCT029 BKN043 14/07 A2960 RMK AO2,KCFE,2022-10-23T11:15:00Z,45.17,-93.85,14.0,7.0,120,7,,10.0,29.601377,,,TRUE,TRUE,,,,,,,FEW,2400,SCT,2900,BKN,4300,,,VFR,,,,,,,,,,,,SPECI,292.0
KCFD 231115Z AUTO 16006KT 10SM CLR 19/18 A2991 RMK AO2 T01920179,KCFD,2022-10-23T11:15:00Z,30.72,-96.33,19.2,17.9,160,6,,10.0,29.911417,,,TRUE,TRUE,,,,,,,CLR,,,,,,,,VFR,,,,,,,,,,,,METAR,106.0
KCEY 231115Z AUTO 14004KT 10SM BKN055 16/11 A3007 RMK A01,KCEY,2022-10-23T11:15:00Z,36.67,-88.37,16.0,11.0,140,4,,10.0,30.070866,,,TRUE,TRUE,,,,,,,BKN,5500,,,,,,,VFR,,,,,,,,,,,,SPECI,172.0
KCDN 231115Z AUTO 00000KT 10SM FEW042 09/07 A3020 RMK AO2,KCDN,2022-10-23T11:15:00Z,34.28,-80.57,9.0,7.0,0,0,,10.0,30.200787,,,TRUE,TRUE,,,,,,,FEW,4200,,,,,,,VFR,,,,,,,,,,,,SPECI,90.0
KCDI 231115Z AUTO 00000KT 10SM CLR 04/04 A3022 RMK AO2 T00360036,KCDI,2022-10-23T11:15:00Z,39.97,-81.58,3.6,3.6,0,0,,10.0,30.221457,,,TRUE,TRUE,,,,,,,CLR,,,,,,,,VFR,,,,,,,,,,,,SPECI,241.0
KCDH 231115Z AUTO 14007KT 10SM SCT043 18/17 A2997 RMK AO2,KCDH,2022-10-23T11:15:00Z,33.62,-92.77,18.0,17.0,140,7,,10.0,29.970472,,,TRUE,TRUE,,,,,,,SCT,4300,,,,,,,VFR,,,,,,,,,,,,METAR,38.0
KCDA 231115Z AUTO 00000KT 10SM 02/01 A3038 RMK AO2 T00210014,KCDA,2022-10-23T11:15:00Z,44.57,-72.02,2.1,1.4,0,0,,10.0,30.380905,,,TRUE,TRUE,,,,,,,,,,,,,,,,,,,,,,,,,,,METAR,357.0
KCCY 231115Z AUTO 14014KT 10SM FEW065 15/12 A2967 RMK AO2,KCCY,2022-10-23T11:15:00Z,43.07,-92.62,15.0,12.0,140,14,,10.0,29.66929,,,TRUE,TRUE,,,,,,,FEW,6500,,,,,,,VFR,,,,,,,,,,,,SPECI,340.0
KCCB 231115Z AUTO 27005KT 10SM SCT006 BKN011 OVC016 14/14 A2979 RMK AO2,KCCB,2022-10-23T11:15:00Z,34.12,-117.68,14.0,14.0,270,5,,10.0,29.790354,,,TRUE,TRUE,,,,,,,SCT,600,BKN,1100,OVC,1600,,,MVFR,,,,,,,,,,,,METAR,440.0
KCCA 231115Z AUTO 16007G14KT 9SM OVC036 20/15 A2991 RMK AO2,KCCA,2022-10-23T11:15:00Z,35.6,-92.45,20.0,15.0,160,7,14,9.0,29.911417,,,TRUE,TRUE,,,,,,,OVC,3600,,,,,,,VFR,,,,,,,,,,,,METAR,152.0
KCBK 231115Z AUTO 20013G18KT 10SM CLR 15/05 A2936 RMK AO2 T01500046,KCBK,2022-10-23T11:15:00Z,39.43,-101.05,15.0,4.6,200,13,18,10.0,29.359253,,,TRUE,TRUE,,,,,,,CLR,,,,,,,,VFR,,,,,,,,,,,,SPECI,970.0
KCBG 231115Z AUTO 00000KT 10SM CLR 16/06 A2964 RMK AO2,KCBG,2022-10-23T11:15:00Z,45.57,-93.27,16.0,6.0,0,0,,10.0,29.639763,,,TRUE,TRUE,,,,,,,CLR,,,,,,,,VFR,,,,,,,,,,,,SPECI,285.0
KCAD 231115Z AUTO 17004KT 10SM CLR 13/10 A3001 RMK AO2 T01290100,KCAD,2022-10-23T11:15:00Z,44.27,-85.42,12.9,10.0,170,4,,10.0,30.008858,,,TRUE,TRUE,,,,,,,CLR,,,,,,,,VFR,,,,,,,,,,,,METAR,397.0
KC83 231115Z AUTO 25009KT 10SM CLR 11/02 A2988 RMK AO2,KC83,2022-10-23T11:15:00Z,37.83,-121.62,11.0,2.0,250,9,,10.0,29.878937,,,TRUE,TRUE,,,,,,,CLR,,,,,,,,VFR,,,,,,,,,,,,METAR,16.0
KC35 231115Z AUTO 15004KT 10SM CLR 15/11 A2980 RMK AO2 T01450113 PWINO,KC35,2022-10-23T11:15:00Z,43.53,-89.98,14.5,11.3,150,4,,10.0,29.799213,,,TRUE,TRUE,,,,,TRUE,,CLR,,,,,,,,VFR,,,,,,,,,,,,METAR,272.0
KC29 231115Z AUTO 14007KT 10SM CLR 16/12 A2984 RMK AO1 T01570117,KC29,2022-10-23T11:15:00Z,43.12,-89.53,15.7,11.7,140,7,,10.0,29.840551,,,TRUE,TRUE,,,,,,,CLR,,,,,,,,VFR,,,,,,,,,,,,METAR,282.0
KC09 231115Z AUTO 17012G18KT 10SM CLR 16/11 A2990 RMK AO2 T01630113,KC09,2022-10-23T11:15:00Z,41.43,-88.42,16.3,11.3,170,12,18,10.0,29.899607,,,TRUE,TRUE,,,,,,,CLR,,,,,,,,VFR,,,,,,,,,,,,SPECI,179.0
KC07 231115Z AUTO 19007G19KT 160V230 7SM BKN005 OVC010 00/00 A2953 RMK AO2,KC07,2022-10-23T11:15:00Z,40.35,-106.7,0.0,0.0,190,7,19,7.0,29.530512,,,TRUE,TRUE,,,,,,,BKN,500,OVC,1000,,,,,IFR,,,,,,,,,,,,METAR,3224.0
KBXK 231115Z AUTO 23007KT 10SM SCT050 OVC060 19/10 A2971 RMK A01,KBXK,2022-10-23T11:15:00Z,33.42,-112.68,19.0,10.0,230,7,,10.0,29.71063,,,TRUE,TRUE,,,,,,,SCT,5000,OVC,6000,,,,,VFR,,,,,,,,,,,,METAR,303.0
KBXA 231115Z AUTO 00000KT 1 1/2SM OVC002 10/09 A3010 RMK AO2 T00950085,KBXA,2022-10-23T11:15:00Z,30.82,-89.87,9.5,8.5,0,0,,1.5,30.100393,,,TRUE,TRUE,,,,,,,OVC,200,,,,,,,LIFR,,,,,,,,,,,,SPECI,35.0
KBWW 231115Z AUTO 08013G20KT 10SM OVC110 06/04 A2938 RMK AO2,KBWW,2022-10-23T11:15:00Z,46.17,-103.3,6.0,4.0,80,13,20,10.0,29.379921,,,TRUE,TRUE,,,,,,,OVC,11000,,,,,,,VFR,,,,,,,,,,,,SPECI,911.0
KBWP 231115Z AUTO 09006KT 10SM CLR 06/01 A2948 RMK AO2,KBWP,2022-10-23T11:15:00Z,46.25,-96.62,6.0,1.0,90,6,,10.0,29.480314,,,TRUE,TRUE,,,,,,,CLR,,,,,,,,VFR,,,,,,,,,,,,SPECI,294.0
KBVU 231115Z AUTO 09004KT 10SM BKN095 OVC110 13/05 A2970 RMK AO2,KBVU,2022-10-23T11:15:00Z,35.95,-114.87,13.0,5.0,90,4,,10.0,29.698818,,,TRUE,TRUE,,,,,,,BKN,9500,OVC,11000,,,,,VFR,,,,,,,,,,,,METAR,654.0
KBVN 231115Z AUTO 12009KT 10SM CLR 12/10 A2935 RMK AO2 T01220103,KBVN,2022-10-23T11:15:00Z,41.73,-98.05,12.2,10.3,120,9,,10.0,29.350393,,,TRUE,TRUE,,,,,,,CLR,,,,,,,,VFR,,,,,,,,,,,,METAR,547.0
KBVI 231115Z AUTO 10003KT 10SM CLR 10/03 A3024 RMK AO2 T00970025,KBVI,2022-10-23T11:15:00Z,40.77,-80.37,9.7,2.5,100,3,,10.0,30.239174,,,TRUE,TRUE,,,,,,,CLR,,,,,,,,VFR,,,,,,,,,,,,METAR,387.0
KBUR 231115Z 17003KT 10SM OVC015 17/13 A2978 RMK AO2 T01670128,KBUR,2022-10-23T11:15:00Z,34.2,-118.37,16.7,12.8,170,3,,10.0,29.778543,,,,TRUE,,,,,,,OVC,1500,,,,,,,MVFR,,,,,,,,,,,,SPECI,221.0
KBTN 231115Z AUTO 04006KT 9SM CLR 03/02 A2944 RMK AO2,KBTN,2022-10-23T11:15:00Z,45.82,-97.75,3.0,2.0,40,6,,9.0,29.438976,,,TRUE,TRUE,,,,,,,CLR,,,,,,,,VFR,,,,,,,,,,,,SPECI,400.0
KBTA 231115Z AUTO 15013G21KT 10SM CLR 18/13 A2944 RMK AO2 T01760130,KBTA,2022-10-23T11:15:00Z,41.42,-96.12,17.6,13.0,150,13,21,10.0,29.438976,,,TRUE,TRUE,,,,,,,CLR,,,,,,,,VFR,,,,,,,,,,,,SPECI,400.0
KBRY 231115Z AUTO 12005KT 10SM FEW210 13/09 A3013 RMK AO2 T01290087,KBRY,2022-10-23T11:15:00Z,37.82,-85.5,12.9,8.7,120,5,,10.0,30.129921,,,TRUE,TRUE,,,,,,,FEW,21000,,,,,,,VFR,,,,,,,,,,,,SPECI,192.0
KBRG 231115Z AUTO 21013KT 10SM SCT095 15/04 A2974 RMK AO2 T01540036,KBRG,2022-10-23T11:15:00Z,34.65,-106.83,15.4,3.6,210,13,,10.0,29.740158,,,TRUE,TRUE,,,,,,,SCT,9500,,,,,,,VFR,,,,,,,,,,,,SPECI,1585.0
KBQX 231115Z AUTO 17023G28KT 8SM 26/18 A2991 RMK A01,KBQX,2022-10-23T11:15:00Z,28.5,-95.72,26.0,18.0,170,23,28,8.0,29.911417,,,TRUE,TRUE,,,,,,,,,,,,,,,,,,,,,,,,,,,METAR,34.0
KBPG 231115Z AUTO 18015KT 10SM CLR 19/12 A2975 RMK AO2 T01900122,KBPG,2022-10-23T11:15:00Z,32.22,-101.52,19.0,12.2,180,15,,10.0,29.749016,,,TRUE,TRUE,,,,,,,CLR,,,,,,,,VFR,,,,,,,,,,,,METAR,782.0
KBPC 231115Z AUTO 23012KT 10SM CLR 19/09 A2959 RMK AO2,KBPC,2022-10-23T11:15:00Z,35.88,-101.03,19.0,9.0,230,12,,10.0,29.589567,,,TRUE,TRUE,,,,,,,CLR,,,,,,,,VFR,,,,,,,,,,,,METAR,844.0
KBOW 231115Z AUTO 00000KT 10SM CLR 18/15 A3010 RMK AO2,KBOW,2022-10-23T11:15:00Z,27.93,-81.77,18.0,15.0,0,0,,10.0,30.100393,,,TRUE,TRUE,,,,,,,CLR,,,,,,,,VFR,,,,,,,,,,,,SPECI,38.0
KBNW 231115Z AUTO 14013KT 10SM CLR 14/12 A2961 RMK AO2,KBNW,2022-10-23T11:15:00Z,42.03,-93.83,14.0,12.0,140,13,,10.0,29.610237,,,TRUE,TRUE,,,,,,,CLR,,,,,,,,VFR,,,,,,,,,,,,SPECI,350.0
KBNL 231115Z AUTO 00000KT 10SM CLR 07/05 A3019 RMK AO2,KBNL,2022-10-23T11:15:00Z,33.25,-81.38,7.0,5.0,0,0,,10.0,30.188976,,,TRUE,TRUE,,,,,,,CLR,,,,,,,,VFR,,,,,,,,,,,,METAR,76.0
KBKT 231115Z AUTO 35006KT 10SM CLR 08/06 A3020 RMK AO1 T00800063,KBKT,2022-10-23T11:15:00Z,37.07,-77.95,8.0,6.3,350,6,,10.0,30.200787,,,TRUE,TRUE,,,,,,,CLR,,,,,,,,VFR,,,,,,,,,,,,SPECI,134.0
KBKS 231115Z AUTO 13004KT 9SM CLR 19/19 A2982 RMK AO2 SLP060 T01940194 $,KBKS,2022-10-23T11:15:00Z,27.2,-98.12,19.4,19.4,130,4,,9.0,29.819881,1006.0,,TRUE,TRUE,TRUE,,,,,,CLR,,,,,,,,VFR,,,,,,,,,,,,METAR,34.0
KBKD 231115Z AUTO 18012G17KT 10SM CLR 21/14 A2973 RMK AO2 T02110140,KBKD,2022-10-23T11:15:00Z,32.72,-98.88,21.1,14.0,180,12,17,10.0,29.731298,,,TRUE,TRUE,,,,,,,CLR,,,,,,,,VFR,,,,,,,,,,,,METAR,383.0
KBJC 231115Z AUTO 22005KT 10SM CLR 15/M05 A2932 RMK AO2,KBJC,2022-10-23T11:15:00Z,39.9,-105.1,15.0,-5.0,220,5,,10.0,29.320866,,,TRUE,TRUE,,,,,,,CLR,,,,,,,,VFR,,,,,,,,,,,,METAR,1694.0
KBIE 231115Z AUTO 16008KT 10SM CLR 18/13 A2942 RMK AO2 T01800130,KBIE,2022-10-23T11:15:00Z,40.28,-96.75,18.0,13.0,160,8,,10.0,29.421259,,,TRUE,TRUE,,,,,,,CLR,,,,,,,,VFR,,,,,,,,,,,,METAR,398.0
KBGF 231115Z AUTO 14004KT 10SM CLR 13/05 A3018 RMK A01,KBGF,2022-10-23T11:15:00Z,35.18,-86.07,13.0,5.0,140,4,,10.0,30.180119,,,TRUE,TRUE,,,,,,,CLR,,,,,,,,VFR,,,,,,,,,,,,SPECI,295.0
KBGE 231115Z AUTO 05003KT 10SM CLR 06/04 A3017 RMK AO2 T00610041,KBGE,2022-10-23T11:15:00Z,30.97,-84.63,6.1,4.1,50,3,,10.0,30.171259,,,TRUE,TRUE,,,,,,,CLR,,,,,,,,VFR,,,,,,,,,,,,METAR,40.0
KBEA 231115Z AUTO 13005KT 10SM CLR 18/18 A2985 RMK AO2 T01820175 PWINO,KBEA,2022-10-23T11:15:00Z,28.37,-97.78,18.2,17.5,130,5,,10.0,29.84941,,,TRUE,TRUE,,,,,TRUE,,CLR,,,,,,,,VFR,,,,,,,,,,,,METAR,83.0
KBDU 231115Z AUTO 00000KT 10SM CLR 09/M02 A2930 RMK AO2,KBDU,2022-10-23T11:15:00Z,40.03,-105.23,9.0,-2.0,0,0,,10.0,29.300198,,,TRUE,TRUE,,,,,,,CLR,,,,,,,,VFR,,,,,,,,,,,,METAR,1614.0
KBDH 231115Z AUTO 13009KT 10SM CLR 13/07 A2957 RMK AO2,KBDH,2022-10-23T11:15:00Z,45.12,-95.13,13.0,7.0,130,9,,10.0,29.568897,,,TRUE,TRUE,,,,,,,CLR,,,,,,,,VFR,,,,,,,,,,,,SPECI,341.0
KBCK 231115Z AUTO 07003KT 10SM CLR 11/09 A2976 RMK AO2 T01050089,KBCK,2022-10-23T11:15:00Z,44.25,-90.85,10.5,8.9,70,3,,10.0,29.760826,,,TRUE,TRUE,,,,,,,CLR,,,,,,,,VFR,,,,,,,,,,,,SPECI,256.0
KBCB 231115Z AUTO 00000KT 7SM CLR 02/02 A3029 RMK AO2 T00160016,KBCB,2022-10-23T11:15:00Z,37.22,-80.42,1.6,1.6,0,0,,7.0,30.28937,,,TRUE,TRUE,,,,,,,CLR,,,,,,,,VFR,,,,,,,,,,,,SPECI,642.0
KBBP 231115Z AUTO 00000KT 7SM CLR 06/06 A3019 RMK AO2,KBBP,2022-10-23T11:15:00Z,34.62,-79.73,6.0,6.0,0,0,,7.0,30.188976,,,TRUE,TRUE,,,,,,,CLR,,,,,,,,VFR,,,,,,,,,,,,METAR,44.0
KBAX 231115Z AUTO 15004KT 10SM CLR 11/09 A3011 RMK AO2 T01140086,KBAX,2022-10-23T11:15:00Z,43.78,-82.98,11.4,8.6,150,4,,10.0,30.109253,,,TRUE,TRUE,,,,,,,CLR,,,,,,,,VFR,,,,,,,,,,,,METAR,229.0
KBAM 231115Z AUTO 00000KT 10SM SCT041 BKN050 OVC090 02/00 A2983 RMK AO1,KBAM,2022-10-23T11:15:00Z,40.6,-116.87,2.0,0.0,0,0,,10.0,29.828741,,,TRUE,TRUE,,,,,,,SCT,4100,BKN,5000,OVC,9000,,,VFR,,,,,,,,,,,,METAR,1381.0
KBAC 231115Z AUTO 04009G17KT 10SM CLR 05/05 A2951 RMK AO2,KBAC,2022-10-23T11:15:00Z,46.93,-98.02,5.0,5.0,40,9,17,10.0,29.509842,,,TRUE,TRUE,,,,,,,CLR,,,,,,,,VFR,,,,,,,,,,,,SPECI,423.0
KAZC 231115Z AUTO 24010G16KT 10SM -RA BKN028 BKN033 OVC048 05/03 A2970 RMK AO2,KAZC,2022-10-23T11:15:00Z,36.97,-113.02,5.0,3.0,240,10,16,10.0,29.698818,,,TRUE,TRUE,,,,,,-RA,BKN,2800,BKN,3300,OVC,4800,,,MVFR,,,,,,,,,,,,METAR,1476.0
KAXV 231115Z AUTO 15006KT 10SM SCT060 12/08 A3013 RMK AO2,KAXV,2022-10-23T11:15:00Z,40.5,-84.3,12.0,8.0,150,6,,10.0,30.129921,,,TRUE,TRUE,,,,,,,SCT,6000,,,,,,,VFR,,,,,,,,,,,,METAR,278.0
KAXS 231115Z AUTO 16007KT 10SM CLR 20/13 A2967 RMK AO2 T01970125,KAXS,2022-10-23T11:15:00Z,34.7,-99.33,19.7,12.5,160,7,,10.0,29.66929,,,TRUE,TRUE,,,,,,,CLR,,,,,,,,VFR,,,,,,,,,,,,SPECI,433.0
KAXH 231115Z AUTO 00000KT 10SM SCT031 SCT038 BKN055 20/20 A2993 RMK AO2 T02030196,KAXH,2022-10-23T11:15:00Z,29.52,-95.48,20.3,19.6,0,0,,10.0,29.929134,,,TRUE,TRUE,,,,,,,SCT,3100,SCT,3800,BKN,5500,,,VFR,,,,,,,,,,,,METAR,18.0
KAVQ 231115Z AUTO 19012KT 10SM CLR 20/11 A2975 RMK AO2 T01960109,KAVQ,2022-10-23T11:15:00Z,32.4,-111.22,19.6,10.9,190,12,,10.0,29.749016,,,TRUE,TRUE,,,,,,,CLR,,,,,,,,VFR,,,,,,,,,,,,METAR,618.0
KAVC 231115Z AUTO 36006KT 10SM CLR 09/09 A3024 RMK AO2 T00860085,KAVC,2022-10-23T11:15:00Z,36.68,-78.05,8.6,8.5,360,6,,10.0,30.239174,,,TRUE,TRUE,,,,,,,CLR,,,,,,,,VFR,,,,,,,,,,,,SPECI,119.0
KATS 231115Z AUTO 21016KT 10SM CLR 19/10 A2971 RMK AO2,KATS,2022-10-23T11:15:00Z,32.85,-104.47,19.0,10.0,210,16,,10.0,29.71063,,,TRUE,TRUE,,,,,,,CLR,,,,,,,,VFR,,,,,,,,,,,,METAR,1073.0
KATP 231115Z AUTO 13010KT 10SM FEW050 FEW055 25/14 A3005 RMK A01,KATP,2022-10-23T11:15:00Z,27.2,-90.03,25.0,14.0,130,10,,10.0,30.050198,,,TRUE,TRUE,,,,,,,FEW,5000,FEW,5500,,,,,VFR,,,,,,,,,,,,METAR,50.0
KATA 231115Z AUTO 16005KT 10SM FEW024 19/17 A2992 RMK AO2 SLP032 T01880166 $,KATA,2022-10-23T11:15:00Z,33.1,-94.2,18.8,16.6,160,5,,10.0,29.920275,1003.2,,TRUE,TRUE,TRUE,,,,,,FEW,2400,,,,,,,VFR,,,,,,,,,,,,METAR,85.0
KASN 231115Z AUTO 00000KT 10SM CLR 06/05 A3019 RMK AO2 T00590050,KASN,2022-10-23T11:15:00Z,33.57,-86.05,5.9,5.0,0,0,,10.0,30.188976,,,TRUE,TRUE,,,,,,,CLR,,,,,,,,VFR,,,,,,,,,,,,SPECI,159.0
KASJ 231115Z AUTO 34003KT 10SM SCT010 11/11 A3015 RMK AO2 T01120112,KASJ,2022-10-23T11:15:00Z,36.28,-77.17,11.2,11.2,340,3,,10.0,30.15059,,,TRUE,TRUE,,,,,,,SCT,1000,,,,,,,VFR,,,,,,,,,,,,SPECI,20.0
KARW 231115Z AUTO 01004KT 10SM CLR 12/11 A3015 RMK AO2,KARW,2022-10-23T11:15:00Z,32.42,-80.63,12.0,11.0,10,4,,10.0,30.15059,,,TRUE,TRUE,,,,,,,CLR,,,,,,,,VFR,,,,,,,,,,,,SPECI,2.0
KARV 231115Z AUTO 16005KT 10SM CLR 13/09 A2982 RMK AO2 T01260092,KARV,2022-10-23T11:15:00Z,45.92,-89.72,12.6,9.2,160,5,,10.0,29.819881,,,TRUE,TRUE,,,,,,,CLR,,,,,,,,VFR,,,,,,,,,,,,METAR,494.0
KARM 231115Z AUTO 11003KT 10SM CLR 17/17 A2990 RMK AO2 T01700168 TSNO,KARM,2022-10-23T11:15:00Z,29.25,-96.15,17.0,16.8,110,3,,10.0,29.899607,,,TRUE,TRUE,,,TRUE,,,,CLR,,,,,,,,VFR,,,,,,,,,,,,METAR,29.0
KAQX 231115Z AUTO 00000KT 10SM CLR 09/08 A3017 RMK AO2,KAQX,2022-10-23T11:15:00Z,32.98,-81.27,9.0,8.0,0,0,,10.0,30.171259,,,TRUE,TRUE,,,,,,,CLR,,,,,,,,VFR,,,,,,,,,,,,SPECI,48.0
KANW 231115Z AUTO 15006KT 10SM CLR 08/03 A2928 RMK AO2 T00830030,KANW,2022-10-23T11:15:00Z,42.57,-100.0,8.3,3.0,150,6,,10.0,29.279528,,,TRUE,TRUE,,,,,,,CLR,,,,,,,,VFR,,,,,,,,,,,,SPECI,788.0
KANQ 231115Z AUTO 14007KT 10SM BKN044 BKN050 12/10 A3008 RMK AO2,KANQ,2022-10-23T11:15:00Z,41.63,-85.08,12.0,10.0,140,7,,10.0,30.079725,,,TRUE,TRUE,,,,,,,BKN,4400,BKN,5000,,,,,VFR,,,,,,,,,,,,METAR,299.0
KANE 231115Z AUTO 13008KT 10SM CLR 17/09 A2963 RMK AO2,KANE,2022-10-23T11:15:00Z,45.15,-93.22,17.0,9.0,130,8,,10.0,29.630905,,,TRUE,TRUE,,,,,,,CLR,,,,,,,,VFR,,,,,,,,,,,,SPECI,276.0
KAMN 231115Z AUTO 13006KT 10SM CLR 12/09 A3006 RMK AO2 T01170093,KAMN,2022-10-23T11:15:00Z,43.32,-84.68,11.7,9.3,130,6,,10.0,30.059055,,,TRUE,TRUE,,,,,,,CLR,,,,,,,,VFR,,,,,,,,,,,,SPECI,228.0
KALX 231115Z AUTO 00000KT 10SM CLR 07/06 A3019 RMK AO2 T00700064,KALX,2022-10-23T11:15:00Z,32.92,-85.97,7.0,6.4,0,0,,10.0,30.188976,,,TRUE,TRUE,,,,,,,CLR,,,,,,,,VFR,,,,,,,,,,,,SPECI,198.0
KALM 231115Z AUTO 17013G18KT 10SM OVC036 19/08 A2976 RMK AO2,KALM,2022-10-23T11:15:00Z,32.83,-105.98,19.0,8.0,170,13,18,10.0,29.760826,,,TRUE,TRUE,,,,,,,OVC,3600,,,,,,,VFR,,,,,,,,,,,,METAR,1267.0
KAIT 231115Z AUTO 00000KT 10SM CLR 05/04 A2962 RMK AO2,KAIT,2022-10-23T11:15:00Z,46.53,-93.67,5.0,4.0,0,0,,10.0,29.619095,,,TRUE,TRUE,,,,,,,CLR,,,,,,,,VFR,,,,,,,,,,,,SPECI,367.0
KAIK 231115Z AUTO 05003KT 10SM CLR 07/04 A3020 RMK AO2 T00730043,KAIK,2022-10-23T11:15:00Z,33.65,-81.68,7.3,4.3,50,3,,10.0,30.200787,,,TRUE,TRUE,,,,,,,CLR,,,,,,,,VFR,,,,,,,,,,,,SPECI,155.0
KAIG 231115Z AUTO 12005KT 10SM CLR 10/09 A2986 RMK AO2 T00970091,KAIG,2022-10-23T11:15:00Z,45.15,-89.12,9.7,9.1,120,5,,10.0,29.861221,,,TRUE,TRUE,,,,,,,CLR,,,,,,,,VFR,,,,,,,,,,,,SPECI,462.0
KAID 231115Z AUTO 17005KT 10SM BKN060 16/09 A3009 RMK AO2 T01550089,KAID,2022-10-23T11:15:00Z,40.12,-85.62,15.5,8.9,170,5,,10.0,30.088583,,,TRUE,TRUE,,,,,,,BKN,6000,,,,,,,VFR,,,,,,,,,,,,SPECI,277.0
KAHQ 231115Z AUTO 14009KT 10SM CLR 15/13 A2942 RMK AO2 T01520125,KAHQ,2022-10-23T11:15:00Z,41.23,-96.6,15.2,12.5,140,9,,10.0,29.421259,,,TRUE,TRUE,,,,,,,CLR,,,,,,,,VFR,,,,,,,,,,,,METAR,372.0
KAGO 231115Z AUTO 16004KT 10SM OVC035 18/16 A2995 RMK A01,KAGO,2022-10-23T11:15:00Z,33.23,-93.22,18.0,16.0,160,4,,10.0,29.949802,,,TRUE,TRUE,,,,,,,OVC,3500,,,,,,,VFR,,,,,,,,,,,,SPECI,91.0
KAGI 231115Z AUTO 17014KT 10SM CLR 25/15 A2999 RMK AO2 T02530147,KAGI,2022-10-23T11:15:00Z,27.55,-92.45,25.3,14.7,170,14,,10.0,29.991142,,,TRUE,TRUE,,,,,,,CLR,,,,,,,,VFR,,,,,,,,,,,,SPECI,41.0
KAFP 231115Z AUTO 00000KT 7SM CLR 04/03 A3021 RMK AO2 T00360030,KAFP,2022-10-23T11:15:00Z,35.02,-80.08,3.6,3.0,0,0,,7.0,30.209646,,,TRUE,TRUE,,,,,,,CLR,,,,,,,,VFR,,,,,,,,,,,,SPECI,91.0
KAEL 231115Z AUTO 14011G16KT 10SM CLR 16/11 A2963 RMK AO2,KAEL,2022-10-23T11:15:00Z,43.68,-93.37,16.0,11.0,140,11,16,10.0,29.630905,,,TRUE,TRUE,,,,,,,CLR,,,,,,,,VFR,,,,,,,,,,,,SPECI,382.0
KAEJ 231115Z AUTO 20012G19KT 10SM 10/M05 A2953 RMK AO2 T01001055,KAEJ,2022-10-23T11:15:00Z,38.82,-106.12,10.0,-5.5,200,12,19,10.0,29.530512,,,TRUE,TRUE,,,,,,,,,,,,,,,,,,,,,,,,,,,METAR,2420.0
KAEG 231115Z AUTO 21009KT 10SM SCT070 BKN085 13/05 A2974 RMK AO2 T01250051,KAEG,2022-10-23T11:15:00Z,35.13,-106.8,12.5,5.1,210,9,,10.0,29.740158,,,TRUE,TRUE,,,,,,,SCT,7000,BKN,8500,,,,,VFR,,,,,,,,,,,,METAR,1771.0
KACQ 231115Z AUTO 13013KT 10SM CLR 15/09 A2963 RMK AO2,KACQ,2022-10-23T11:15:00Z,44.07,-93.55,15.0,9.0,130,13,,10.0,29.630905,,,TRUE,TRUE,,,,,,,CLR,,,,,,,,VFR,,,,,,,,,,,,SPECI,339.0
KACP 231115Z AUTO 11003KT 10SM CLR 16/14 A3002 RMK AO2,KACP,2022-10-23T11:15:00Z,30.75,-92.68,16.0,14.0,110,3,,10.0,30.02067,,,TRUE,TRUE,,,,,,,CLR,,,,,,,,VFR,,,,,,,,,,,,SPECI,31.0
KACJ 231115Z AUTO 04004KT 10SM CLR 05/03 A3018 RMK AO2 T00540034,KACJ,2022-10-23T11:15:00Z,32.12,-84.18,5.4,3.4,40,4,,10.0,30.180119,,,TRUE,TRUE,,,,,,,CLR,,,,,,,,VFR,,,,,,,,,,,,METAR,140.0
KACB 231115Z AUTO 00000KT 10SM CLR 10/09 A3000 RMK AO2 T01030094,KACB,2022-10-23T11:15:00Z,44.98,-85.2,10.3,9.4,0,0,,10.0,30.0,,,TRUE,TRUE,,,,,,,CLR,,,,,,,,VFR,,,,,,,,,,,,METAR,189.0
KAAS 231115Z AUTO 14006KT 10SM CLR 11/07 A3022 RMK AO1,KAAS,2022-10-23T11:15:00Z,37.35,-85.32,11.0,7.0,140,6,,10.0,30.221457,,,TRUE,TRUE,,,,,,,CLR,,,,,,,,VFR,,,,,,,,,,,,METAR,270.0
KAAA 231115Z AUTO 17009G16KT 10SM CLR 17/11 A2988 RMK AO2 T01680113,KAAA,2022-10-23T11:15:00Z,40.17,-89.33,16.8,11.3,170,9,16,10.0,29.878937,,,TRUE,TRUE,,,,,,,CLR,,,,,,,,VFR,,,,,,,,,,,,METAR,179.0
K9MN 231115Z AUTO 12009KT 10SM CLR 16/10 A2969 RMK AO1 T01550095,K9MN,2022-10-23T11:15:00Z,44.02,-92.48,15.5,9.5,120,9,,10.0,29.68996,,,TRUE,TRUE,,,,,,,CLR,,,,,,,,VFR,,,,,,,,,,,,METAR,308.0
K9A5 231115Z AUTO 00000KT 5SM CLR 05/05 A3023 RMK AO2 T00460046,K9A5,2022-10-23T11:15:00Z,34.68,-85.28,4.6,4.6,0,0,,5.0,30.230314,,,TRUE,TRUE,,,,,,,CLR,,,,,,,,MVFR,,,,,,,,,,,,METAR,234.0
K96D 231115Z AUTO 02011G16KT 10SM SCT050 06/06 A2964 RMK AO2,K96D,2022-10-23T11:15:00Z,48.93,-97.9,6.0,6.0,20,11,16,10.0,29.639763,,,TRUE,TRUE,,,,,,,SCT,5000,,,,,,,VFR,,,,,,,,,,,,METAR,290.0
K8W2 231115Z AUTO 00000KT 10SM CLR 00/00 A3026 RMK AO1 T00040000,K8W2,2022-10-23T11:15:00Z,38.65,-78.7,0.4,0.0,0,0,,10.0,30.259842,,,TRUE,TRUE,,,,,,,CLR,,,,,,,,VFR,,,,,,,,,,,,METAR,295.0
K8A3 231115Z AUTO 19005KT 10SM CLR 14/04 A3019 RMK A01,K8A3,2022-10-23T11:15:00Z,36.42,-85.32,14.0,4.0,190,5,,10.0,30.188976,,,TRUE,TRUE,,,,,,,CLR,,,,,,,,VFR,,,,,,,,,,,,METAR,413.0
K82V 231115Z AUTO 33006KT 10SM CLR 08/M06 A2933 RMK AO2,K82V,2022-10-23T11:15:00Z,41.15,-104.13,8.0,-6.0,330,6,,10.0,29.329725,,,TRUE,TRUE,,,,,,,CLR,,,,,,,,VFR,,,,,,,,,,,,METAR,1563.0
K82C 231115Z AUTO 15008KT 10SM CLR 15/12 A2979 RMK AO2 T01470118,K82C,2022-10-23T11:15:00Z,43.83,-90.13,14.7,11.8,150,8,,10.0,29.790354,,,TRUE,TRUE,,,,,,,CLR,,,,,,,,VFR,,,,,,,,,,,,SPECI,273.0
K81R 231115Z AUTO 17009KT 10SM CLR 20/17 A2982 RMK AO2 T01990172,K81R,2022-10-23T11:15:00Z,31.23,-98.72,19.9,17.2,170,9,,10.0,29.819881,,,TRUE,TRUE,,,,,,,CLR,,,,,,,,VFR,,,,,,,,,,,,METAR,381.0
K7W6 231115Z AUTO 33010G15KT 10SM OVC012 16/16 A3005 RMK AO2 T01610161,K7W6,2022-10-23T11:15:00Z,35.55,-75.95,16.1,16.1,330,10,15,10.0,30.050198,,,TRUE,TRUE,,,,,,,OVC,1200,,,,,,,MVFR,,,,,,,,,,,,SPECI,1.0
K7W4 231115Z AUTO 33003KT 10SM CLR 07/06 A3022 RMK AO1 T00660063,K7W4,2022-10-23T11:15:00Z,37.97,-77.75,6.6,6.3,330,3,,10.0,30.221457,,,TRUE,TRUE,,,,,,,CLR,,,,,,,,VFR,,,,,,,,,,,,METAR,115.0
K7L2 231115Z AUTO 08014KT 10SM CLR 06/04 A2942 RMK AO2,K7L2,2022-10-23T11:15:00Z,46.22,-100.25,6.0,4.0,80,14,,10.0,29.421259,,,TRUE,TRUE,,,,,,,CLR,,,,,,,,VFR,,,,,,,,,,,,METAR,541.0
K7BM 231115Z AUTO 21011G26KT 140V260 7SM -SN SCT016 BKN022 OVC029 05/M03 A2960 RMK AO2,K7BM,2022-10-23T11:15:00Z,38.78,-106.22,5.0,-3.0,210,11,26,7.0,29.601377,,,TRUE,TRUE,,,,,,-SN,SCT,1600,BKN,2200,OVC,2900,,,MVFR,,,,,,,,,,,,METAR,2996.0
K79S 231115Z AUTO 24005KT 01/01 A2963 ,K79S,2022-10-23T11:15:00Z,47.85,-110.63,1.0,1.0,240,5,,,29.630905,,,TRUE,,,,,,,,,,,,,,,,,,,,,,,,,,,,METAR,874.0
K77S 231115Z AUTO 23008KT 10SM BKN039 OVC046 08/08 A3001 RMK A01,K77S,2022-10-23T11:15:00Z,43.93,-123.0,8.0,8.0,230,8,,10.0,30.008858,,,TRUE,TRUE,,,,,,,BKN,3900,OVC,4600,,,,,VFR,,,,,,,,,,,,METAR,161.0
K6S2 231115Z AUTO 00000KT 1 1/4SM BR OVC001 06/06 A3004 RMK AO2,K6S2,2022-10-23T11:15:00Z,43.98,-124.12,6.0,6.0,0,0,,1.25,30.041338,,,TRUE,TRUE,,,,,,BR,OVC,100,,,,,,,LIFR,,,,,,,,,,,,METAR,16.0
K6S0 231115Z AUTO 26028G35KT 10SM FEW047 OVC055 03/M04 A2952 RMK A01,K6S0,2022-10-23T11:15:00Z,45.8,-109.97,3.0,-4.0,260,28,35,10.0,29.518702,,,TRUE,TRUE,,,,,,,FEW,4700,OVC,5500,,,,,VFR,,,,,,,,,,,,METAR,1364.0
K6L4 231115Z AUTO 00000KT 10SM CLR 12/02 A3022 RMK AO2,K6L4,2022-10-23T11:15:00Z,37.85,-81.92,12.0,2.0,0,0,,10.0,30.221457,,,TRUE,TRUE,,,,,,,CLR,,,,,,,,VFR,,,,,,,,,,,,SPECI,504.0
K6B9 231115Z AUTO 00000KT 10SM CLR 09/06 A3028 RMK AO2,K6B9,2022-10-23T11:15:00Z,42.92,-76.43,9.0,6.0,0,0,,10.0,30.280512,,,TRUE,TRUE,,,,,,,CLR,,,,,,,,VFR,,,,,,,,,,,,METAR,306.0
K6B0 231115Z AUTO 00000KT 10SM CLR 04/04 A3034 RMK AO2 T00400036,K6B0,2022-10-23T11:15:00Z,43.98,-73.1,4.0,3.6,0,0,,10.0,30.339567,,,TRUE,TRUE,,,,,,,CLR,,,,,,,,VFR,,,,,,,,,,,,METAR,149.0
K6A2 231115Z AUTO 00000KT 10SM CLR 04/03 A3021 RMK AO2,K6A2,2022-10-23T11:15:00Z,33.23,-84.27,4.0,3.0,0,0,,10.0,30.209646,,,TRUE,TRUE,,,,,,,CLR,,,,,,,,VFR,,,,,,,,,,,,METAR,290.0
K65S 231115Z AUTO 00000KT 10SM FEW011 BKN050 OVC095 01/01 A2982 RMK AO2,K65S,2022-10-23T11:15:00Z,48.73,-116.3,1.0,1.0,0,0,,10.0,29.819881,,,TRUE,TRUE,,,,,,,FEW,1100,BKN,5000,OVC,9500,,,VFR,,,,,,,,,,,,METAR,708.0
K63S 231115Z AUTO 00000KT 10SM SCT044 OVC070 04/02 A2983 RMK A01,K63S,2022-10-23T11:15:00Z,48.53,-117.88,4.0,2.0,0,0,,10.0,29.828741,,,TRUE,TRUE,,,,,,,SCT,4400,OVC,7000,,,,,VFR,,,,,,,,,,,,METAR,571.0
K5T9 231115Z AUTO 09006KT 9SM CLR 17/17 A2978 RMK A01,K5T9,2022-10-23T11:15:00Z,28.85,-100.52,17.0,17.0,90,6,,9.0,29.778543,,,TRUE,TRUE,,,,,,,CLR,,,,,,,,VFR,,,,,,,,,,,,METAR,269.0
K5SM 231115Z AUTO 22015G30KT 1/2SM SN OVC002 M01/M02 A2955 RMK AO2,K5SM,2022-10-23T11:15:00Z,39.43,-107.38,-1.0,-2.0,220,15,30,0.5,29.551182,,,TRUE,TRUE,,,,,,SN,OVC,200,,,,,,,LIFR,,,,,,,,,,,,METAR,3229.0
K5M9 231115Z AUTO 16005KT 10SM OVC055 18/10 A3005 RMK AO2 T01760100,K5M9,2022-10-23T11:15:00Z,37.33,-88.12,17.6,10.0,160,5,,10.0,30.050198,,,TRUE,TRUE,,,,,,,OVC,5500,,,,,,,VFR,,,,,,,,,,,,METAR,199.0
K5H4 231115Z AUTO 06016G23KT 10SM -UP OVC008 06/M06 A2954 RMK AO2,K5H4,2022-10-23T11:15:00Z,47.78,-99.93,6.0,-6.0,60,16,23,10.0,29.53937,,,TRUE,TRUE,,,,,,UP,OVC,800,,,,,,,IFR,,,,,,,,,,,,METAR,490.0
K57C 231115Z AUTO 15006KT 10SM CLR 13/11 A2988 RMK AO2 T01310106,K57C,2022-10-23T11:15:00Z,42.8,-88.37,13.1,10.6,150,6,,10.0,29.878937,,,TRUE,TRUE,,,,,,,CLR,,,,,,,,VFR,,,,,,,,,,,,METAR,454.0
K54J 231115Z AUTO 00000KT 10SM CLR 09/06 A3017 RMK AO2 T00860057,K54J,2022-10-23T11:15:00Z,30.73,-86.15,8.6,5.7,0,0,,10.0,30.171259,,,TRUE,TRUE,,,,,,,CLR,,,,,,,,VFR,,,,,,,,,,,,METAR,87.0
K54A 231115Z AUTO 02004KT 10SM CLR 17/18 A3006 RMK AO2,K54A,2022-10-23T11:15:00Z,26.85,-82.25,17.0,18.0,20,4,,10.0,30.059055,,,TRUE,TRUE,,,,,,,CLR,,,,,,,,VFR,,,,,,,,,,,,METAR,2.0
K4V0 231115Z AUTO 00000KT 7SM -SN SCT015 BKN023 OVC037 00/00 A2953 RMK AO2 T00000000,K4V0,2022-10-23T11:15:00Z,40.1,-108.77,0.0,0.0,0,0,,7.0,29.530512,,,TRUE,TRUE,,,,,,-SN,SCT,1500,BKN,2300,OVC,3700,,,MVFR,,,,,,,,,,,,METAR,1602.0
K4S1 231115Z AUTO 06005KT 7SM CLR 07/06 A3005 RMK AO2,K4S1,2022-10-23T11:15:00Z,42.42,-124.42,7.0,6.0,60,5,,7.0,30.050198,,,TRUE,TRUE,,,,,,,CLR,,,,,,,,VFR,,,,,,,,,,,,METAR,7.0
K4R5 231115Z AUTO 00000KT 5SM BR SCT003 BKN120 03/03 A2972 RMK AO2 T00340034,K4R5,2022-10-23T11:15:00Z,46.78,-90.77,3.4,3.4,0,0,,5.0,29.719488,,,TRUE,TRUE,,,,,,BR,SCT,300,BKN,12000,,,,,MVFR,,,,,,,,,,,,METAR,195.0
K4M9 231115Z AUTO 14007KT 10SM CLR 16/14 A2994 RMK AO2 PWINO,K4M9,2022-10-23T11:15:00Z,36.4,-90.65,16.0,14.0,140,7,,10.0,29.940945,,,TRUE,TRUE,,,,,TRUE,,CLR,,,,,,,,VFR,,,,,,,,,,,,METAR,86.0
K4I3 231115Z AUTO 10003KT 10SM CLR 10/07 A3020 RMK AO2,K4I3,2022-10-23T11:15:00Z,40.33,-82.53,10.0,7.0,100,3,,10.0,30.200787,,,TRUE,TRUE,,,,,,,CLR,,,,,,,,VFR,,,,,,,,,,,,SPECI,361.0
K4F2 231115Z AUTO 14006KT 10SM CLR 17/16 A2994 RMK AO2 T01710159,K4F2,2022-10-23T11:15:00Z,32.18,-94.3,17.1,15.9,140,6,,10.0,29.940945,,,TRUE,TRUE,,,,,,,CLR,,,,,,,,VFR,,,,,,,,,,,,METAR,76.0
K4A9 231115Z AUTO 04004KT 10SM CLR 07/06 A3019 RMK AO2 T00680056,K4A9,2022-10-23T11:15:00Z,34.47,-85.72,6.8,5.6,40,4,,10.0,30.188976,,,TRUE,TRUE,,,,,,,CLR,,,,,,,,VFR,,,,,,,,,,,,METAR,273.0
K4A6 231115Z AUTO 00000KT 10SM SCT022 SCT041 BKN055 07/07 A3021 RMK AO2,K4A6,2022-10-23T11:15:00Z,34.68,-86.0,7.0,7.0,0,0,,10.0,30.209646,,,TRUE,TRUE,,,,,,,SCT,2200,SCT,4100,BKN,5500,,,VFR,,,,,,,,,,,,METAR,191.0
K46U 231115Z AUTO 31006KT 10SM BKN024 BKN033 OVC046 01/M02 A2960 RMK A01,K46U,2022-10-23T11:15:00Z,43.18,-111.05,1.0,-2.0,310,6,,10.0,29.601377,,,TRUE,TRUE,,,,,,,BKN,2400,BKN,3300,OVC,4600,,,MVFR,,,,,,,,,,,,METAR,1718.0
K46D 231115Z AUTO 06009KT 10SM CLR 05/04 A2954 RMK AO2,K46D,2022-10-23T11:15:00Z,47.45,-99.15,5.0,4.0,60,9,,10.0,29.53937,,,TRUE,TRUE,,,,,,,CLR,,,,,,,,VFR,,,,,,,,,,,,METAR,488.0
K42J 231115Z AUTO 01003KT 10SM FEW033 FEW045 SCT050 09/09 A3013 RMK A01,K42J,2022-10-23T11:15:00Z,29.85,-82.05,9.0,9.0,10,3,,10.0,30.129921,,,TRUE,TRUE,,,,,,,FEW,3300,FEW,4500,SCT,5000,,,VFR,,,,,,,,,,,,METAR,57.0
K41U 231115Z AUTO 19007KT 10SM SCT027 OVC050 01/01 A2959 RMK AO1 T00060006,K41U,2022-10-23T11:15:00Z,39.33,-111.6,0.6,0.6,190,7,,10.0,29.589567,,,TRUE,TRUE,,,,,,,SCT,2700,OVC,5000,,,,,VFR,,,,,,,,,,,,METAR,1676.0
K40U 231115Z AUTO 30006KT 2 1/2SM -SN BR SCT010 BKN016 OVC037 00/M01 A2956 RMK AO2 T10031014,K40U,2022-10-23T11:15:00Z,40.98,-109.68,-0.3,-1.4,300,6,,2.5,29.56004,,,TRUE,TRUE,,,,,,-SN BR,SCT,1000,BKN,1600,OVC,3700,,,IFR,,,,,,,,,,,,METAR,1882.0
K3U3 231115Z AUTO 00000KT 10SM M01/M02 A2967 ,K3U3,2022-10-23T11:15:00Z,46.15,-112.87,-1.0,-2.0,0,0,,10.0,29.66929,,,TRUE,,,,,,,,,,,,,,,,,,,,,,,,,,,,METAR,1534.0
K3S8 231115Z AUTO 00000KT 8SM OVC004 06/05 A3007 RMK AO2,K3S8,2022-10-23T11:15:00Z,42.5,-123.4,6.0,5.0,0,0,,8.0,30.070866,,,TRUE,TRUE,,,,,,,OVC,400,,,,,,,LIFR,,,,,,,,,,,,METAR,339.0
K3N8 231115Z AUTO 07006KT 10SM CLR 04/03 A2953 RMK AO2 T00390026,K3N8,2022-10-23T11:15:00Z,47.25,-95.92,3.9,2.6,70,6,,10.0,29.530512,,,TRUE,TRUE,,,,,,,CLR,,,,,,,,VFR,,,,,,,,,,,,METAR,379.0
K3LF 231115Z AUTO 15010KT 10SM CLR 16/10 A2990 RMK AO2 T01570100,K3LF,2022-10-23T11:15:00Z,39.17,-89.67,15.7,10.0,150,10,,10.0,29.899607,,,TRUE,TRUE,,,,,,,CLR,,,,,,,,VFR,,,,,,,,,,,,METAR,207.0
K3J7 231115Z AUTO 00000KT 10SM CLR 07/04 A3020 RMK AO2,K3J7,2022-10-23T11:15:00Z,33.6,-83.13,7.0,4.0,0,0,,10.0,30.200787,,,TRUE,TRUE,,,,,,,CLR,,,,,,,,VFR,,,,,,,,,,,,METAR,207.0
K3F3 231115Z AUTO 14008G17KT 10SM CLR 18/16 A3000 RMK AO2 T01760163,K3F3,2022-10-23T11:15:00Z,32.07,-93.77,17.6,16.3,140,8,17,10.0,30.0,,,TRUE,TRUE,,,,,,,CLR,,,,,,,,VFR,,,,,,,,,,,,METAR,96.0
K3AU 231115Z AUTO 18014G20KT 10SM CLR 21/10 A2955 RMK AO2,K3AU,2022-10-23T11:15:00Z,37.67,-97.08,21.0,10.0,180,14,20,10.0,29.551182,,,TRUE,TRUE,,,,,,,CLR,,,,,,,,VFR,,,,,,,,,,,,METAR,403.0
K38S 231115Z AUTO 00000KT 10SM 01/M01 A2970 ,K38S,2022-10-23T11:15:00Z,46.38,-112.77,1.0,-1.0,0,0,,10.0,29.698818,,,TRUE,,,,,,,,,,,,,,,,,,,,,,,,,,,,METAR,1430.0
K35A 231115Z AUTO 00000KT 10SM CLR 04/03 A3025 RMK A02,K35A,2022-10-23T11:15:00Z,34.68,-81.63,4.0,3.0,0,0,,10.0,30.250984,,,TRUE,TRUE,,,,,,,CLR,,,,,,,,VFR,,,,,,,,,,,,SPECI,186.0
K33N 231115Z AUTO 02007KT 10SM OVC019 12/12 A3021 RMK A01,K33N,2022-10-23T11:15:00Z,39.22,-75.6,12.0,12.0,20,7,,10.0,30.209646,,,TRUE,TRUE,,,,,,,OVC,1900,,,,,,,MVFR,,,,,,,,,,,,METAR,17.0
K2V5 231115Z AUTO 23008G14KT 10SM CLR 16/M01 A2929 RMK AO2,K2V5,2022-10-23T11:15:00Z,40.1,-102.25,16.0,-1.0,230,8,14,10.0,29.291338,,,TRUE,TRUE,,,,,,,CLR,,,,,,,,VFR,,,,,,,,,,,,METAR,1117.0
K2R9 231115Z AUTO 09003KT 10SM SCT046 18/17 A2987 RMK AO2 T01770170,K2R9,2022-10-23T11:15:00Z,28.82,-97.87,17.7,17.0,90,3,,10.0,29.870079,,,TRUE,TRUE,,,,,,,SCT,4600,,,,,,,VFR,,,,,,,,,,,,METAR,88.0
K2P2 231115Z AUTO 19008G14KT 10SM SCT110 11/11 A2991 RMK AO2 T01050105,K2P2,2022-10-23T11:15:00Z,45.38,-86.92,10.5,10.5,190,8,14,10.0,29.911417,,,TRUE,TRUE,,,,,,,SCT,11000,,,,,,,VFR,,,,,,,,,,,,METAR,182.0
K2M2 231115Z AUTO 12003KT 10SM OVC060 12/09 A3015 RMK A01,K2M2,2022-10-23T11:15:00Z,35.23,-87.25,12.0,9.0,120,3,,10.0,30.15059,,,TRUE,TRUE,,,,,,,OVC,6000,,,,,,,VFR,,,,,,,,,,,,METAR,286.0
K2J9 231115Z AUTO 00000KT 10SM CLR 05/04 A3017 RMK AO2,K2J9,2022-10-23T11:15:00Z,30.6,-84.55,5.0,4.0,0,0,,10.0,30.171259,,,TRUE,TRUE,,,,,,,CLR,,,,,,,,VFR,,,,,,,,,,,,METAR,62.0
K2J3 231115Z AUTO 00000KT 10SM CLR 07/04 A3019 RMK AO2 T00700042,K2J3,2022-10-23T11:15:00Z,32.98,-82.38,7.0,4.2,0,0,,10.0,30.188976,,,TRUE,TRUE,,,,,,,CLR,,,,,,,,VFR,,,,,,,,,,,,METAR,97.0
K2G2 231115Z AUTO 00000KT 10SM CLR 08/05 A3022 RMK A01,K2G2,2022-10-23T11:15:00Z,,,8.0,5.0,0,0,,10.0,30.221457,,,TRUE,TRUE,,,,,,,CLR,,,,,,,,VFR,,,,,,,,,,,,METAR,
K2D5 231115Z AUTO 05013KT 9SM OVC019 04/03 A2946 RMK AO2,K2D5,2022-10-23T11:15:00Z,46.17,-98.08,4.0,3.0,50,13,,9.0,29.459646,,,TRUE,TRUE,,,,,,,OVC,1900,,,,,,,MVFR,,,,,,,,,,,,METAR,407.0
K2C8 231115Z AUTO 36009KT 10SM OVC045 06/06 A2962 RMK AO2,K2C8,2022-10-23T11:15:00Z,48.78,-97.63,6.0,6.0,360,9,,10.0,29.619095,,,TRUE,TRUE,,,,,,,OVC,4500,,,,,,,VFR,,,,,,,,,,,,METAR,271.0
K2A0 231115Z AUTO 00000KT M1/4SM FG OVC002 04/04 A3022 RMK A01,K2A0,2022-10-23T11:15:00Z,35.48,-84.93,4.0,4.0,0,0,,0.25,30.221457,,,TRUE,TRUE,,,,,,FG,OVC,200,,,,,,,LIFR,,,,,,,,,,,,METAR,219.0
K28J 231115Z AUTO 00000KT 10SM FEW013 FEW020 BKN038 08/07 A3013 RMK AO2 TSNO,K28J,2022-10-23T11:15:00Z,29.65,-81.68,8.0,7.0,0,0,,10.0,30.129921,,,TRUE,TRUE,,,TRUE,,,,FEW,1300,FEW,2000,BKN,3800,,,VFR,,,,,,,,,,,,METAR,9.0
K27K 231115Z AUTO 17003KT 10SM SCT060 12/07 A3018 RMK AO1,K27K,2022-10-23T11:15:00Z,38.23,-84.43,12.0,7.0,170,3,,10.0,30.180119,,,TRUE,TRUE,,,,,,,SCT,6000,,,,,,,VFR,,,,,,,,,,,,METAR,283.0
K24J 231115Z AUTO 00000KT 10SM 04/04 A3015 RMK A01,K24J,2022-10-23T11:15:00Z,30.3,-83.03,4.0,4.0,0,0,,10.0,30.15059,,,TRUE,TRUE,,,,,,,,,,,,,,,,,,,,,,,,,,,METAR,30.0
K24A 231115Z AUTO 13004KT 10SM CLR 04/02 A3027 RMK AO2 T00420016,K24A,2022-10-23T11:15:00Z,35.32,-83.2,4.2,1.6,130,4,,10.0,30.268702,,,TRUE,TRUE,,,,,,,CLR,,,,,,,,VFR,,,,,,,,,,,,SPECI,864.0
K22N 231115Z AUTO 00000KT 10SM OVC032 01/00 A3033 RMK AO2,K22N,2022-10-23T11:15:00Z,40.8,-75.77,1.0,0.0,0,0,,10.0,30.33071,,,TRUE,TRUE,,,,,,,OVC,3200,,,,,,,VFR,,,,,,,,,,,,SPECI,159.0
K21D 231115Z AUTO 13006KT 10SM CLR 16/08 A2967 RMK AO2,K21D,2022-10-23T11:15:00Z,45.0,-92.85,16.0,8.0,130,6,,10.0,29.66929,,,TRUE,TRUE,,,,,,,CLR,,,,,,,,VFR,,,,,,,,,,,,SPECI,281.0
K20U 231115Z AUTO 11013G24KT 10SM OVC008 06/06 A2943 RMK AO2,K20U,2022-10-23T11:15:00Z,46.93,-103.98,6.0,6.0,110,13,24,10.0,29.430119,,,TRUE,TRUE,,,,,,,OVC,800,,,,,,,IFR,,,,,,,,,,,,SPECI,839.0
K1V6 231115Z AUTO 26016G25KT 10SM CLR 17/M01 A2944 RMK AO2,K1V6,2022-10-23T11:15:00Z,38.43,-105.1,17.0,-1.0,260,16,25,10.0,29.438976,,,TRUE,TRUE,,,,,,,CLR,,,,,,,,VFR,,,,,,,,,,,,METAR,1658.0
K1U7 231115Z AUTO 35007KT 10SM BKN034 BKN040 OVC055 M00/M00 A2958 RMK A01,K1U7,2022-10-23T11:15:00Z,42.25,-111.33,0.0,0.0,350,7,,10.0,29.58071,,,TRUE,TRUE,,,,,,,BKN,3400,BKN,4000,OVC,5500,,,VFR,,,,,,,,,,,,METAR,1808.0
K1S5 231115Z AUTO 00000KT 10SM OVC085 02/01 A2989 RMK AO2 T00170005,K1S5,2022-10-23T11:15:00Z,46.33,-119.97,1.7,0.5,0,0,,10.0,29.890747,,,TRUE,TRUE,,,,,,,OVC,8500,,,,,,,VFR,,,,,,,,,,,,METAR,228.0
K1S3 231115Z AUTO 27004KT 9SM 06/06 A2942 ,K1S3,2022-10-23T11:15:00Z,46.27,-106.62,6.0,6.0,270,4,,9.0,29.421259,,,TRUE,,,,,,,,,,,,,,,,,,,,,,,,,,,,METAR,831.0
K1R7 231115Z AUTO 00000KT 10SM CLR 13/13 A3010 RMK AO2 PWINO,K1R7,2022-10-23T11:15:00Z,31.6,-90.42,13.0,13.0,0,0,,10.0,30.100393,,,TRUE,TRUE,,,,,TRUE,,CLR,,,,,,,,VFR,,,,,,,,,,,,METAR,142.0
K1P1 231115Z AUTO 00000KT 5SM BR CLR 00/00 A3037 RMK AO2 T00000000,K1P1,2022-10-23T11:15:00Z,43.78,-71.75,0.0,0.0,0,0,,5.0,30.369095,,,TRUE,TRUE,,,,,,BR,CLR,,,,,,,,MVFR,,,,,,,,,,,,METAR,155.0
K1M5 231115Z AUTO 17008KT 10SM OVC060 14/10 A3013 RMK A01,K1M5,2022-10-23T11:15:00Z,36.6,-86.48,14.0,10.0,170,8,,10.0,30.129921,,,TRUE,TRUE,,,,,,,OVC,6000,,,,,,,VFR,,,,,,,,,,,,METAR,239.0
K1K1 231115Z AUTO 18014G23KT 10SM CLR 21/11 A2954 RMK AO2 T02100105,K1K1,2022-10-23T11:15:00Z,37.77,-97.12,21.0,10.5,180,14,23,10.0,29.53937,,,TRUE,TRUE,,,,,,,CLR,,,,,,,,VFR,,,,,,,,,,,,METAR,411.0
K1H2 231115Z AUTO 12011KT 10SM CLR 17/11 A2997 RMK AO2 T01670111,K1H2,2022-10-23T11:15:00Z,39.07,-88.53,16.7,11.1,120,11,,10.0,29.970472,,,TRUE,TRUE,,,,,,,CLR,,,,,,,,VFR,,,,,,,,,,,,METAR,174.0
K1F0 231115Z AUTO 16009G15KT 10SM SCT020 20/17 A2976 RMK AO2 T01980166,K1F0,2022-10-23T11:15:00Z,34.15,-97.12,19.8,16.6,160,9,15,10.0,29.760826,,,TRUE,TRUE,,,,,,,SCT,2000,,,,,,,VFR,,,,,,,,,,,,METAR,256.0
K1D1 231115Z AUTO 00000KT 9SM CLR 02/01 A2949 RMK AO2,K1D1,2022-10-23T11:15:00Z,45.23,-96.57,2.0,1.0,0,0,,9.0,29.489174,,,TRUE,TRUE,,,,,,,CLR,,,,,,,,VFR,,,,,,,,,,,,METAR,341.0
K1A9 231115Z AUTO 00000KT 10SM CLR 06/06 A3017 RMK AO2 T00600057,K1A9,2022-10-23T11:15:00Z,32.43,-86.52,6.0,5.7,0,0,,10.0,30.171259,,,TRUE,TRUE,,,,,,,CLR,,,,,,,,VFR,,,,,,,,,,,,METAR,65.0
K1A5 231115Z AUTO 00000KT 10SM CLR M01/M02 A3031 RMK AO2 T10101016,K1A5,2022-10-23T11:15:00Z,35.22,-83.42,-1.0,-1.6,0,0,,10.0,30.31004,,,TRUE,TRUE,,,,,,,CLR,,,,,,,,VFR,,,,,,,,,,,,METAR,611.0
K18H 231115Z AUTO 16016KT 10SM CLR 26/15 A2997 RMK A01,K18H,2022-10-23T11:15:00Z,26.13,-92.03,26.0,15.0,160,16,,10.0,29.970472,,,TRUE,TRUE,,,,,,,CLR,,,,,,,,VFR,,,,,,,,,,,,METAR,30.0
K18A 231115Z AUTO 00000KT 10SM CLR 05/04 A3022 RMK AO2 T00460036,K18A,2022-10-23T11:15:00Z,34.35,-83.13,4.6,3.6,0,0,,10.0,30.221457,,,TRUE,TRUE,,,,,,,CLR,,,,,,,,VFR,,,,,,,,,,,,METAR,260.0
K15M 231115Z AUTO 00000KT 10SM CLR 11/11 A3013 RMK AO2 T01120107 $,K15M,2022-10-23T11:15:00Z,34.77,-88.17,11.2,10.7,0,0,,10.0,30.129921,,,TRUE,TRUE,TRUE,,,,,,CLR,,,,,,,,VFR,,,,,,,,,,,,METAR,192.0
K14Y 231115Z AUTO 14006KT 10SM CLR 12/07 A2957 RMK AO2,K14Y,2022-10-23T11:15:00Z,45.9,-94.87,12.0,7.0,140,6,,10.0,29.568897,,,TRUE,TRUE,,,,,,,CLR,,,,,,,,VFR,,,,,,,,,,,,SPECI,404.0
K13K 231115Z AUTO 17019G24KT 10SM CLR 21/13 A2959 RMK AO2 T02080132,K13K,2022-10-23T11:15:00Z,37.85,-96.3,20.8,13.2,170,19,24,10.0,29.589567,,,TRUE,TRUE,,,,,,,CLR,,,,,,,,VFR,,,,,,,,,,,,METAR,367.0
K10G 231115Z AUTO 16005KT 10SM CLR 12/04 A3021 RMK AO2,K10G,2022-10-23T11:15:00Z,,,12.0,4.0,160,5,,10.0,30.209646,,,TRUE,TRUE,,,,,,,CLR,,,,,,,,VFR,,,,,,,,,,,,SPECI,
K0VG 231115Z AUTO 00000KT 10SM CLR 03/03 A3025 RMK AO2,K0VG,2022-10-23T11:15:00Z,36.65,-83.22,3.0,3.0,0,0,,10.0,30.250984,,,TRUE,TRUE,,,,,,,CLR,,,,,,,,VFR,,,,,,,,,,,,METAR,426.0
K0S9 231115Z AUTO 00000KT 1/4SM FG BKN001 BKN028 OVC042 02/02 A2998 RMK AO2,K0S9,2022-10-23T11:15:00Z,48.05,-122.82,2.0,2.0,0,0,,0.25,29.97933,,,TRUE,TRUE,,,,,,FG,BKN,100,BKN,2800,OVC,4200,,,LIFR,,,,,,,,,,,,METAR,33.0
K0R0 231115Z AUTO 00000KT 8SM CLR 11/10 A3012 RMK AO2,K0R0,2022-10-23T11:15:00Z,31.3,-89.82,11.0,10.0,0,0,,8.0,30.121063,,,TRUE,TRUE,,,,,,,CLR,,,,,,,,VFR,,,,,,,,,,,,METAR,76.0
K0F2 231115Z AUTO 16010G16KT 10SM CLR 19/16 A2974 RMK AO2 T01900157,K0F2,2022-10-23T11:15:00Z,33.6,-97.78,19.0,15.7,160,10,16,10.0,29.740158,,,TRUE,TRUE,,,,,,,CLR,,,,,,,,VFR,,,,,,,,,,,,METAR,330.0
K0E0 231115Z AUTO 22011KT 10SM CLR 12/04 A2977 RMK AO2 T01230036 TSNO,K0E0,2022-10-23T11:15:00Z,34.98,-106.0,12.3,3.6,220,11,,10.0,29.769686,,,TRUE,TRUE,,,TRUE,,,,CLR,,,,,,,,VFR,,,,,,,,,,,,METAR,1887.0
K0CO 231115Z AUTO 24028G43KT 10SM SCT110 M02/M08 A2962 RMK AO2,K0CO,2022-10-23T11:15:00Z,39.8,-105.77,-2.0,-8.0,240,28,43,10.0,29.619095,,,TRUE,TRUE,,,,,,,SCT,11000,,,,,,,VFR,,,,,,,,,,,,METAR,3804.0
K0A9 231115Z AUTO 00000KT 9SM CLR 04/02 A3023 RMK A01,K0A9,2022-10-23T11:15:00Z,36.37,-82.17,4.0,2.0,0,0,,9.0,30.230314,,,TRUE,TRUE,,,,,,,CLR,,,,,,,,VFR,,,,,,,,,,,,METAR,479.0
K0A0 231115Z AUTO 19016G23KT 10SM CLR 18/12 A2975 RMK AO2,K0A0,2022-10-23T11:15:00Z,32.98,-106.97,18.0,12.0,190,16,23,10.0,29.749016,,,TRUE,TRUE,,,,,,,CLR,,,,,,,,VFR,,,,,,,,,,,,METAR,1401.0
K08D 231115Z AUTO 07019G26KT 10SM OVC008 05/05 A2953 RMK AO2,K08D,2022-10-23T11:15:00Z,48.3,-102.4,5.0,5.0,70,19,26,10.0,29.530512,,,TRUE,TRUE,,,,,,,OVC,800,,,,,,,IFR,,,,,,,,,,,,SPECI,683.0
K06D 231115Z AUTO 03014G19KT 10SM OVC007 05/05 A2961 RMK AO2,K06D,2022-10-23T11:15:00Z,48.88,-99.62,5.0,5.0,30,14,19,10.0,29.610237,,,TRUE,TRUE,,,,,,,OVC,700,,,,,,,IFR,,,,,,,,,,,,METAR,554.0
K05U 231115Z AUTO 00000KT 4SM BR M02/M02 A2980 RMK A01,K05U,2022-10-23T11:15:00Z,39.6,-116.0,-2.0,-2.0,0,0,,4.0,29.799213,,,TRUE,TRUE,,,,,,BR,,,,,,,,,,,,,,,,,,,,,METAR,1813.0
K04W 231115Z AUTO 09003KT 10SM CLR 05/05 A2966 RMK AO2,K04W,2022-10-23T11:15:00Z,46.02,-92.9,5.0,5.0,90,3,,10.0,29.660433,,,TRUE,TRUE,,,,,,,CLR,,,,,,,,VFR,,,,,,,,,,,,METAR,310.0
CYOW 231115Z 10004KT 15SM FEW240 02/01 A3027 RMK CI1 TEMP 2 C SLP257,CYOW,2022-10-23T11:15:00Z,45.32,-75.67,2.0,1.0,100,4,,15.0,30.268702,1025.7,,,,,,,,,,FEW,24000,,,,,,,VFR,,,,,,,,,,,,SPECI,111.0
CYFC 231115Z AUTO 00000KT 1/8SM R09/1000FT/N FG VV002 02/02 A3036 RMK SLP285,CYFC,2022-10-23T11:15:00Z,45.87,-66.53,2.0,2.0,0,0,,0.13,30.360237,1028.5,,TRUE,,,,,,,FG,OVX,0,,,,,,,LIFR,,,,,,,,,,,200,SPECI,16.0
CWPF 231115Z AUTO 36001KT 06/05 RMK AO1 SLP152 T00610048 51018,CWPF,2022-10-23T11:15:00Z,48.43,-123.43,6.1,4.8,360,1,,,,1015.2,,TRUE,TRUE,,,,,,,,,,,,,,,,1.8,,,,,,,,,,,METAR,5.0
PFNO 231114Z AUTO 14019KT 2 1/2SM -SN BR BKN014 OVC020 00/M01 A2985 RMK AO2 P0000 FZRANO,PFNO,2022-10-23T11:14:00Z,66.82,-161.02,0.0,-1.0,140,19,,2.5,29.84941,,,TRUE,TRUE,,,,TRUE,,-SN BR,BKN,1400,OVC,2000,,,,,IFR,,,,,,0.005,,,,,,METAR,14.0
PARS 231114Z AUTO 00000KT 10SM SCT001 A3004 RMK AO2 FZRANO $,PARS,2022-10-23T11:14:00Z,61.77,-161.32,,,0,0,,10.0,30.041338,,,TRUE,TRUE,TRUE,,,TRUE,,,SCT,100,,,,,,,VFR,,,,,,,,,,,,METAR,15.0
KRWL 231114Z AUTO 28013KT 1 3/4SM -SN BR FEW011 OVC020 01/M01 A2946 RMK AO2 P0000 T00061011,KRWL,2022-10-23T11:14:00Z,41.8,-107.2,0.6,-1.1,280,13,,1.75,29.459646,,,TRUE,TRUE,,,,,,-SN BR,FEW,1100,OVC,2000,,,,,IFR,,,,,,0.005,,,,,,SPECI,2066.0
KLWT 231114Z AUTO 29010KT 2SM -SN BR BKN005 OVC017 M01/M01 A2955 RMK AO2 SNB00 P0000 T10061011 $,KLWT,2022-10-23T11:14:00Z,47.05,-109.47,-0.6,-1.1,290,10,,2.0,29.551182,,,TRUE,TRUE,TRUE,,,,,-SN BR,BKN,500,OVC,1700,,,,,IFR,,,,,,0.005,,,,,,SPECI,1254.0
KLEB 231114Z 04003KT 2 1/2SM BR BKN001 03/02 A3035 RMK AO2 T00280017,KLEB,2022-10-23T11:14:00Z,43.63,-72.3,2.8,1.7,40,3,,2.5,30.351377,,,,TRUE,,,,,,BR,BKN,100,,,,,,,LIFR,,,,,,,,,,,,SPECI,169.0
KCTB 231114Z AUTO 35023KT 1 1/2SM -SN BR M01/M01 A2968 RMK AO2 PK WND 35032/1104 P0000 T10061011 $,KCTB,2022-10-23T11:14:00Z,48.6,-112.37,-0.6,-1.1,350,23,,1.5,29.681103,,,TRUE,TRUE,TRUE,,,,,-SN BR,,,,,,,,,,,,,,,0.005,,,,,,SPECI,1172.0
KBCE 231114Z AUTO 28005KT 3SM -SN BR OVC020 M01/M02 A2960 RMK AO2 P0000 T10111022,KBCE,2022-10-23T11:14:00Z,37.7,-112.15,-1.1,-2.2,280,5,,3.0,29.601377,,,TRUE,TRUE,,,,,,-SN BR,OVC,2000,,,,,,,MVFR,,,,,,0.005,,,,,,SPECI,2311.0
CYWE 231114Z AUTO 28006KT 170V290 9SM OVC023 M07/M11 A3005 RMK ICE MISG SLP211,CYWE,2022-10-23T11:14:00Z,64.18,-114.08,-7.0,-11.0,280,6,,9.0,30.050198,1021.1,,TRUE,,,,,,,,OVC,2300,,,,,,,MVFR,,,,,,,,,,,,SPECI,374.0
CYGW 231114Z AUTO 22005KT 190V260 9SM FEW022 SCT029 OVC035 03/01 A3014 RMK SLP210,CYGW,2022-10-23T11:14:00Z,55.27,-77.77,3.0,1.0,220,5,,9.0,30.138779,1021.0,,TRUE,,,,,,,,FEW,2200,SCT,2900,OVC,3500,,,VFR,,,,,,,,,,,,SPECI,13.0
CWKM 231114Z AUTO 09018G24KT ////SM FEW005 OVC043 M06/M06 A3004,CWKM,2022-10-23T11:14:00Z,69.6,-140.17,-6.0,-6.0,90,18,24,,30.041338,,,TRUE,,,,,,,,FEW,500,OVC,4300,,,,,,,,,,,,,,,,,SPECI,8.0
PASM 231113Z AUTO 16006KT 9SM BKN002 OVC020 M01/M01 A3000 RMK AO2 FZRANO,PASM,2022-10-23T11:13:00Z,62.07,-163.3,-1.0,-1.0,160,6,,9.0,30.0,,,TRUE,TRUE,,,,TRUE,,,BKN,200,OVC,2000,,,,,LIFR,,,,,,,,,,,,METAR,108.0
PABE 231113Z 20007KT 3/4SM -SN BR VV001 M04/M04 A3006 RMK AO2 UPB03E05FZRAB05E09SNB09 P0000 I1000 T10391044 RVRNO,PABE,2022-10-23T11:13:00Z,60.78,-161.83,-3.9,-4.4,200,7,,0.75,30.059055,,,,TRUE,,,,,,-SN BR,OVX,0,,,,,,,LIFR,,,,,,0.005,,,,,100,SPECI,28.0
KXVG 231113Z AUTO 00000KT 10SM CLR 06/04 A2960 RMK AO2,KXVG,2022-10-23T11:13:00Z,46.98,-94.2,6.0,4.0,0,0,,10.0,29.601377,,,TRUE,TRUE,,,,,,,CLR,,,,,,,,VFR,,,,,,,,,,,,SPECI,407.0
KOWA 231113Z AUTO 13013G18KT 10SM CLR 16/10 A2963 RMK AO2,KOWA,2022-10-23T11:13:00Z,44.12,-93.25,16.0,10.0,130,13,18,10.0,29.630905,,,TRUE,TRUE,,,,,,,CLR,,,,,,,,VFR,,,,,,,,,,,,SPECI,345.0
KORB 231113Z AUTO 12004KT 10SM CLR 08/06 A2963 RMK AO2,KORB,2022-10-23T11:13:00Z,48.02,-92.87,8.0,6.0,120,4,,10.0,29.630905,,,TRUE,TRUE,,,,,,,CLR,,,,,,,,VFR,,,,,,,,,,,,METAR,407.0
KLUF 231113Z AUTO 22013KT 10SM FEW029 SCT040 SCT060 BKN075 21/14 A2967 RMK AO2 DZE03 SLP035 $,KLUF,2022-10-23T11:13:00Z,33.53,-112.37,21.0,14.0,220,13,,10.0,29.66929,1003.5,,TRUE,TRUE,TRUE,,,,,,FEW,2900,SCT,4000,SCT,6000,BKN,7500,VFR,,,,,,,,,,,,SPECI,333.0
KFOZ 231113Z AUTO 00000KT 10SM CLR 06/05 A2967 RMK AO2,KFOZ,2022-10-23T11:13:00Z,47.77,-93.65,6.0,5.0,0,0,,10.0,29.66929,,,TRUE,TRUE,,,,,,,CLR,,,,,,,,VFR,,,,,,,,,,,,SPECI,412.0
KETH 231113Z AUTO 00000KT 10SM 04/00 A2950 RMK AO2,KETH,2022-10-23T11:13:00Z,45.78,-96.55,4.0,0.0,0,0,,10.0,29.500984,,,TRUE,TRUE,,,,,,,,,,,,,,,,,,,,,,,,,,,SPECI,309.0
KDVP 231113Z AUTO 13008KT 10SM CLR 08/07 A2952 RMK AO2 T00830066,KDVP,2022-10-23T11:13:00Z,43.98,-95.78,8.3,6.6,130,8,,10.0,29.518702,,,TRUE,TRUE,,,,,,,CLR,,,,,,,,VFR,,,,,,,,,,,,METAR,493.0
KDOV 231113Z AUTO 35010KT 10SM -DZ FEW011 OVC020 12/12 A3019 RMK AO2 DZB1058 CIG 017 RWY14 CIG 017 RWY19 SLP227,KDOV,2022-10-23T11:13:00Z,39.12,-75.47,12.0,12.0,350,10,,10.0,30.188976,1022.7,,TRUE,TRUE,,,,,,-DZ,FEW,1100,OVC,2000,,,,,MVFR,,,,,,,,,,,,SPECI,6.0
KAQP 231113Z AUTO 16010KT 10SM 12/06 A2949 RMK AO2,KAQP,2022-10-23T11:13:00Z,45.22,-96.0,12.0,6.0,160,10,,10.0,29.489174,,,TRUE,TRUE,,,,,,,,,,,,,,,,,,,,,,,,,,,METAR,312.0
EGWC 231113Z 12008KT 9999 VCSH SCT009 15/13 Q0999 RMK GRN,EGWC,2022-10-23T11:13:00Z,52.63,-2.3,15.0,13.0,120,8,,6.21,29.498032,,,,,,,,,,VCSH,SCT,900,,,,,,,VFR,,,,,,,,,,,,METAR,79.0
CYVP 231113Z 28014G21KT 15SM FEW022 FEW027 BKN048 02/M03 A2991 RMK CF1SC1SC6 CF TR SLP132,CYVP,2022-10-23T11:13:00Z,58.12,-68.42,2.0,-3.0,280,14,21,15.0,29.911417,1013.2,,,,,,,,,,FEW,2200,FEW,2700,BKN,4800,,,VFR,,,,,,,,,,,,METAR,28.0
CYCY 231113Z AUTO 31011KT 9SM OVC018 M04/M06 A2947 RMK SLP983,CYCY,2022-10-23T11:13:00Z,70.48,-68.52,-4.0,-6.0,310,11,,9.0,29.471457,998.3,,TRUE,,,,,,,,OVC,1800,,,,,,,MVFR,,,,,,,,,,,,SPECI,73.0
PFKW 231112Z AUTO 19004KT 1SM BR OVC003 M04/M04 A3006 RMK AO2 FZRANO,PFKW,2022-10-23T11:12:00Z,60.8,-161.43,-4.0,-4.0,190,4,,1.0,30.059055,,,TRUE,TRUE,,,,TRUE,,BR,OVC,300,,,,,,,LIFR,,,,,,,,,,,,METAR,4.0
KRIL 231112Z AUTO 32020G39KT 4SM +RA FEW014 BKN028 OVC045 04/02 A2947 RMK AO2 PK WND 32039/1104 WSHFT 1052 PRESRR P0008 T00440017,KRIL,2022-10-23T11:12:00Z,39.53,-107.73,4.4,1.7,320,20,39,4.0,29.471457,,,TRUE,TRUE,,,,,,+RA,FEW,1400,BKN,2800,OVC,4500,,,MVFR,,,,,,0.08,,,,,,SPECI,1683.0
KPWT 231112Z AUTO 00000KT 3/4SM BR CLR 02/02 A2999 RMK AO2 FZRANO,KPWT,2022-10-23T11:12:00Z,47.5,-122.77,2.0,2.0,0,0,,0.75,29.991142,,,TRUE,TRUE,,,,TRUE,,BR,CLR,,,,,,,,LIFR,,,,,,,,,,,,METAR,143.0
KMLF 231112Z AUTO 18007KT 3/4SM BR BKN004 OVC015 01/00 A2963 RMK AO2 T00060000 $,KMLF,2022-10-23T11:12:00Z,38.42,-113.02,0.6,0.0,180,7,,0.75,29.630905,,,TRUE,TRUE,TRUE,,,,,BR,BKN,400,OVC,1500,,,,,LIFR,,,,,,,,,,,,METAR,1537.0
KFUL 231112Z AUTO 11003KT 10SM SCT026 SCT037 16/12 A2977 RMK AO2 T01610122,KFUL,2022-10-23T11:12:00Z,33.87,-117.98,16.1,12.2,110,3,,10.0,29.769686,,,TRUE,TRUE,,,,,,,SCT,2600,SCT,3700,,,,,VFR,,,,,,,,,,,,METAR,23.0
KFLG 231112Z AUTO 24029G44KT 2 1/2SM RA BR BKN015 OVC022 06/04 A2968 RMK AO2 PK WND 23044/1105 VIS 1 3/4V3 P0005 T00610044,KFLG,2022-10-23T11:12:00Z,35.13,-111.67,6.1,4.4,240,29,44,2.5,29.681103,,,TRUE,TRUE,,,,,,RA BR,BKN,1500,OVC,2200,,,,,IFR,,,,,,0.05,,,,,,SPECI,2134.0
KAUG 231112Z AUTO 00000KT 1/4SM FG VV002 06/06 A3036 RMK AO2 T00610061,KAUG,2022-10-23T11:12:00Z,44.32,-69.8,6.1,6.1,0,0,,0.25,30.360237,,,TRUE,TRUE,,,,,,FG,OVX,0,,,,,,,LIFR,,,,,,,,,,,200,SPECI,107.0
CYAY 231112Z AUTO 22012KT 9SM SCT012 09/07 A3006 RMK SLP183,CYAY,2022-10-23T11:12:00Z,51.38,-56.07,9.0,7.0,220,12,,9.0,30.059055,1018.3,,TRUE,,,,,,,,SCT,1200,,,,,,,VFR,,,,,,,,,,,,SPECI,23.0
YPXM 231111Z AUTO 19004KT 130V210 9999 // BKN003 BKN008 OVC011 24/24 Q1012,YPXM,2022-10-23T11:11:00Z,-10.45,105.68,24.0,24.0,190,4,,6.21,29.88189,,,TRUE,,,,,,,,BKN,300,BKN,800,OVC,1100,,,LIFR,,,,,,,,,,,,SPECI,262.0
YLIS 231111Z AUTO 18011KT 9999 // BKN010 BKN032 OVC115 18/17 Q1008 RERA,YLIS,2022-10-23T11:11:00Z,-28.83,153.27,18.0,17.0,180,11,,6.21,29.763779,,,TRUE,,,,,,,,BKN,1000,BKN,3200,OVC,11500,,,MVFR,,,,,,,,,,,,SPECI,6.0
YCFS 231111Z AUTO 15012KT 6000 -SHRA BKN011 BKN020 OVC029 19/17 Q1011,YCFS,2022-10-23T11:11:00Z,-30.32,153.12,19.0,17.0,150,12,,3.73,29.852362,,,TRUE,,,,,,,-SHRA,BKN,1100,BKN,2000,OVC,2900,,,MVFR,,,,,,,,,,,,SPECI,2.0
PAIK 231111Z AUTO 11010G17KT 1 1/4SM -SN BR BKN007 OVC015 M01/M02 A2989 RMK AO2 CIG 007V011 P0000 FZRANO,PAIK,2022-10-23T11:11:00Z,66.98,-160.43,-1.0,-2.0,110,10,17,1.25,29.890747,,,TRUE,TRUE,,,,TRUE,,-SN BR,BKN,700,OVC,1500,,,,,IFR,,,,,,0.005,,,,,,METAR,49.0
LHBP 231111Z 17005KT 100V230 9000 SCT005 14/13 Q1022 TEMPO TL1200 BKN006,LHBP,2022-10-23T11:11:00Z,47.43,19.27,14.0,13.0,170,5,,5.59,30.177166,,,,,,,,,,,SCT,500,,,,,,,VFR,,,,,,,,,,,,METAR,141.0
KRNT 231111Z AUTO 14004KT 10SM SCT026 BKN050 OVC060 07/05 A2999 RMK AO2 T00670050,KRNT,2022-10-23T11:11:00Z,47.5,-122.22,6.7,5.0,140,4,,10.0,29.991142,,,TRUE,TRUE,,,,,,,SCT,2600,BKN,5000,OVC,6000,,,VFR,,,,,,,,,,,,SPECI,7.0
KNGU 231111Z 01017G27KT 10SM OVC009 16/13 A3011 RMK AO2 PK WND 01027/1102 T01560133 $,KNGU,2022-10-23T11:11:00Z,36.93,-76.27,15.6,13.3,10,17,27,10.0,30.109253,,,,TRUE,TRUE,,,,,,OVC,900,,,,,,,IFR,,,,,,,,,,,,SPECI,3.0
KGTF 231111Z 32012KT 2SM -SN BR OVC005 00/M01 A2963 RMK AO2 P0000 T00001006 $,KGTF,2022-10-23T11:11:00Z,47.47,-111.38,0.0,-0.6,320,12,,2.0,29.630905,,,,TRUE,TRUE,,,,,-SN BR,OVC,500,,,,,,,IFR,,,,,,0.005,,,,,,SPECI,1117.0
KARB 231111Z AUTO 00000KT 2SM BR CLR 04/03 A3012 RMK AO2 T00390028,KARB,2022-10-23T11:11:00Z,42.22,-83.73,3.9,2.8,0,0,,2.0,30.121063,,,TRUE,TRUE,,,,,,BR,CLR,,,,,,,,IFR,,,,,,,,,,,,METAR,251.0
K0J4 231111Z AUTO 00000KT 10SM CLR 06/03 A3018 RMK AO2 TSB04E08 T00610033 $,K0J4,2022-10-23T11:11:00Z,31.05,-86.32,6.1,3.3,0,0,,10.0,30.180119,,,TRUE,TRUE,TRUE,,,,,,CLR,,,,,,,,VFR,,,,,,,,,,,,METAR,96.0
CYXS 231111Z AUTO 16003KT 150V230 1 3/4SM BR FEW001 OVC011 M00/M00 A2993 RMK SLP169,CYXS,2022-10-23T11:11:00Z,53.88,-122.68,0.0,0.0,160,3,,1.75,29.929134,1016.9,,TRUE,,,,,,,BR,FEW,100,OVC,1100,,,,,IFR,,,,,,,,,,,,SPECI,685.0
CYIO 231111Z AUTO 16004KT 9SM -SNRA OVC050 M08/M09 A2945 RMK SLP982,CYIO,2022-10-23T11:11:00Z,72.68,-77.97,-8.0,-9.0,160,4,,9.0,29.450787,998.2,,TRUE,,,,,,,-SN -RA,OVC,5000,,,,,,,VFR,,,,,,,,,,,,SPECI,61.0
CWOB 231111Z AUTO 29013G22KT 260V320 ////SM SCT026 SCT031 BKN039 M03/M03 A2926,CWOB,2022-10-23T11:11:00Z,63.33,-64.15,-3.0,-3.0,290,13,22,,29.258858,,,TRUE,,,,,,,,SCT,2600,SCT,3100,BKN,3900,,,,,,,,,,,,,,,SPECI,369.0
BGTL 231111Z AUTO 19008KT 9999 BKN019 OVC048 M04/M08 A2945 RMK AO2 SNE01 SLP960 TSNO $,BGTL,2022-10-23T11:11:00Z,76.53,-68.75,-4.0,-8.0,190,8,,6.21,29.450787,996.0,,TRUE,TRUE,TRUE,,TRUE,,,,BKN,1900,OVC,4800,,,,,MVFR,,,,,,,,,,,,METAR,79.0
RJOC 231110Z 04022KT 5000 SHRA BR FEW010 SCT015 BKN020 16/14 Q1014 RMK 1CU010 4CU015 5CU020 A2996,RJOC,2022-10-23T11:10:00Z,35.42,132.88,16.0,14.0,40,22,,3.11,29.940945,,,,,,,,,,SHRA BR,FEW,1000,SCT,1500,BKN,2000,,,MVFR,,,,,,,,,,,,METAR,2.0
PARY 231110Z AUTO 00000KT 3SM BR OVC028 M03/M04 A2998 RMK AO2 FZRANO,PARY,2022-10-23T11:10:00Z,64.73,-155.47,-3.0,-4.0,0,0,,3.0,29.97933,,,TRUE,TRUE,,,,TRUE,,BR,OVC,2800,,,,,,,MVFR,,,,,,,,,,,,METAR,185.0
PAKV 231110Z AUTO 00000KT 1 1/2SM BR BKN003 BKN046 OVC070 M04/M05 A3002 RMK AO2 T10441050 TSNO,PAKV,2022-10-23T11:10:00Z,64.33,-158.72,-4.4,-5.0,0,0,,1.5,30.02067,,,TRUE,TRUE,,,TRUE,,,BR,BKN,300,BKN,4600,OVC,7000,,,LIFR,,,,,,,,,,,,METAR,53.0
PAHX 231110Z AUTO 20004KT 10SM BKN003 M03/M03 A3003 RMK AO2 FZRANO,PAHX,2022-10-23T11:10:00Z,62.7,-159.57,-3.0,-3.0,200,4,,10.0,30.029528,,,TRUE,TRUE,,,,TRUE,,,BKN,300,,,,,,,LIFR,,,,,,,,,,,,METAR,20.0
PAGL 231110Z AUTO 22009KT 9SM BKN015 OVC025 03/02 A2989 RMK AO2 PWINO $,PAGL,2022-10-23T11:10:00Z,64.55,-163.0,3.0,2.0,220,9,,9.0,29.890747,,,TRUE,TRUE,TRUE,,,,TRUE,,BKN,1500,OVC,2500,,,,,MVFR,,,,,,,,,,,,METAR,20.0
PAFB 231110Z AUTO 00000KT 3/8SM FZFG OVC060 M03/M03 A2994 RMK AO2 SLP150 RVRNO,PAFB,2022-10-23T11:10:00Z,64.83,-147.62,-3.0,-3.0,0,0,,0.38,29.940945,1015.0,,TRUE,TRUE,,,,,,FZFG,OVC,6000,,,,,,,LIFR,,,,,,,,,,,,METAR,137.0
KWBF 231110Z AUTO 12010G17KT 10SM 25/13 A3004 RMK A01,KWBF,2022-10-23T11:10:00Z,26.93,-90.5,25.0,13.0,120,10,17,10.0,30.041338,,,TRUE,TRUE,,,,,,,,,,,,,,,,,,,,,,,,,,,METAR,40.0
KTRL 231110Z AUTO 17014KT 10SM BKN025 20/16 A2985 RMK AO2 T02000156,KTRL,2022-10-23T11:10:00Z,32.72,-96.27,20.0,15.6,170,14,,10.0,29.84941,,,TRUE,TRUE,,,,,,,BKN,2500,,,,,,,MVFR,,,,,,,,,,,,METAR,144.0
KSNH 231110Z AUTO 16005KT 10SM OVC060 16/11 A3010 RMK A01,KSNH,2022-10-23T11:10:00Z,35.17,-88.22,16.0,11.0,160,5,,10.0,30.100393,,,TRUE,TRUE,,,,,,,OVC,6000,,,,,,,VFR,,,,,,,,,,,,METAR,142.0
KS85 231110Z AUTO 06017G22KT 10SM OVC013 06/06 A2945 RMK A01 Culbertson ,KS85,2022-10-23T11:10:00Z,48.15,-104.5,6.0,6.0,60,17,22,10.0,29.450787,,,TRUE,TRUE,,,,,,,OVC,1300,,,,,,,MVFR,,,,,,,,,,,,METAR,596.0
KQFX 231110Z AUTO 11002KT 9999 CLR 18/16 / RMK A02 TSNO,KQFX,2022-10-23T11:10:00Z,,,18.0,16.0,110,2,,6.21,,,,TRUE,TRUE,,,TRUE,,,,CLR,,,,,,,,VFR,,,,,,,,,,,,METAR,
KQFW 231110Z AUTO 05001KT 3200 BR BKN001 08/08 A2992 RMK A02 TSNO,KQFW,2022-10-23T11:10:00Z,,,8.0,8.0,50,1,,1.99,29.920275,,,TRUE,TRUE,,,TRUE,,,BR,BKN,100,,,,,,,LIFR,,,,,,,,,,,,METAR,
KQFV 231110Z AUTO 36001KT 9999 CLR 07/01 A3013 RMK A02 TSNO,KQFV,2022-10-23T11:10:00Z,,,7.0,1.0,360,1,,6.21,30.129921,,,TRUE,TRUE,,,TRUE,,,,CLR,,,,,,,,VFR,,,,,,,,,,,,METAR,
KQFU 231110Z AUTO 16001KT 9999 CLR 12/M02 A3016 RMK A02 TSNO,KQFU,2022-10-23T11:10:00Z,,,12.0,-2.0,160,1,,6.21,30.159449,,,TRUE,TRUE,,,TRUE,,,,CLR,,,,,,,,VFR,,,,,,,,,,,,METAR,
KQFT 231110Z AUTO 33003KT 9999 CLR 14/M02 A3009 RMK A02 TSNO,KQFT,2022-10-23T11:10:00Z,,,14.0,-2.0,330,3,,6.21,30.088583,,,TRUE,TRUE,,,TRUE,,,,CLR,,,,,,,,VFR,,,,,,,,,,,,METAR,
KQFB 231110Z AUTO 27001KT 9000 HZ FEW034 14/10 A3011 RMK A02 TSNO,KQFB,2022-10-23T11:10:00Z,,,14.0,10.0,270,1,,5.59,30.109253,,,TRUE,TRUE,,,TRUE,,,HZ,FEW,3400,,,,,,,VFR,,,,,,,,,,,,METAR,
KQEY 231110Z AUTO 04001KT 9999 CLR 12/05 A2982 RMK A02 TSNO,KQEY,2022-10-23T11:10:00Z,,,12.0,5.0,40,1,,6.21,29.819881,,,TRUE,TRUE,,,TRUE,,,,CLR,,,,,,,,VFR,,,,,,,,,,,,METAR,
KQEW 231110Z AUTO 24003KT 9999 // CLR 14/06 A3008 RMK A02 TSNO,KQEW,2022-10-23T11:10:00Z,,,14.0,6.0,240,3,,6.21,30.079725,,,TRUE,TRUE,,,TRUE,,,,CLR,,,,,,,,VFR,,,,,,,,,,,,METAR,
KQEV 231110Z AUTO 16001KT 9999 CLR 10/04 A3008 RMK A02 TSNO,KQEV,2022-10-23T11:10:00Z,,,10.0,4.0,160,1,,6.21,30.079725,,,TRUE,TRUE,,,TRUE,,,,CLR,,,,,,,,VFR,,,,,,,,,,,,METAR,
KQER 231110Z AUTO 36001KT 9999 CLR 10/M00 A3006 RMK A02 TSNO,KQER,2022-10-23T11:10:00Z,,,10.0,0.0,360,1,,6.21,30.059055,,,TRUE,TRUE,,,TRUE,,,,CLR,,,,,,,,VFR,,,,,,,,,,,,METAR,
KQEQ 231110Z AUTO 32003KT 9999 CLR 11/M00 A3016 RMK A02 TSNO,KQEQ,2022-10-23T11:10:00Z,,,11.0,0.0,320,3,,6.21,30.159449,,,TRUE,TRUE,,,TRUE,,,,CLR,,,,,,,,VFR,,,,,,,,,,,,METAR,
KQEP 231110Z AUTO 26004KT 9999 CLR 12/00 A3012 RMK A02 TSNO,KQEP,2022-10-23T11:10:00Z,,,12.0,0.0,260,4,,6.21,30.121063,,,TRUE,TRUE,,,TRUE,,,,CLR,,,,,,,,VFR,,,,,,,,,,,,METAR,
KQEN 231110Z AUTO 27005KT 1200 -SHRA BR FEW001 SCT055 BKN075 / / RMK A02 TSNO,KQEN,2022-10-23T11:10:00Z,,,,,270,5,,0.75,,,,TRUE,TRUE,,,TRUE,,,-SHRA BR,FEW,100,SCT,5500,BKN,7500,,,LIFR,,,,,,,,,,,,METAR,
KQEJ 231110Z AUTO 00000KT 9000 // CLR 21/21 / RMK A02 TSNO,KQEJ,2022-10-23T11:10:00Z,,,21.0,21.0,0,0,,5.59,,,,TRUE,TRUE,,,TRUE,,,,CLR,,,,,,,,VFR,,,,,,,,,,,,METAR,
KQEI 231110Z AUTO 16001KT 9999 BKN002 08/07 A3008 RMK A02 TSNO,KQEI,2022-10-23T11:10:00Z,,,8.0,7.0,160,1,,6.21,30.079725,,,TRUE,TRUE,,,TRUE,,,,BKN,200,,,,,,,LIFR,,,,,,,,,,,,METAR,
KMRC 231110Z AUTO 20007KT 10SM OVC060 15/11 A3012 RMK A01,KMRC,2022-10-23T11:10:00Z,35.55,-87.18,15.0,11.0,200,7,,10.0,30.121063,,,TRUE,TRUE,,,,,,,OVC,6000,,,,,,,VFR,,,,,,,,,,,,METAR,205.0
KM54 231110Z AUTO 08003KT 10SM BKN043 OVC050 14/08 A3013 RMK A01,KM54,2022-10-23T11:10:00Z,36.18,-86.32,14.0,8.0,80,3,,10.0,30.129921,,,TRUE,TRUE,,,,,,,BKN,4300,OVC,5000,,,,,VFR,,,,,,,,,,,,SPECI,168.0
KGVW 231110Z AUTO 13010G19KT 10SM FEW046 BKN055 25/18 A2995 RMK A01,KGVW,2022-10-23T11:10:00Z,29.13,-94.55,25.0,18.0,130,10,19,10.0,29.949802,,,TRUE,TRUE,,,,,,,FEW,4600,BKN,5500,,,,,VFR,,,,,,,,,,,,METAR,37.0
KGRF 231110Z 00000KT 1 1/2SM BR CLR 02/01 A2996 RMK AO2A VIS 1 1/2V7 SLP151 $,KGRF,2022-10-23T11:10:00Z,47.07,-122.57,2.0,1.0,0,0,,1.5,29.958662,1015.1,,,TRUE,TRUE,,,,,BR,CLR,,,,,,,,IFR,,,,,,,,,,,,METAR,91.0
KGFA 231110Z AUTO 32009KT 4SM -SN BKN007 OVC016 00/00 A2963 RMK AO2 BKN V OVC SLP061 $,KGFA,2022-10-23T11:10:00Z,47.5,-111.18,0.0,0.0,320,9,,4.0,29.630905,1006.1,,TRUE,TRUE,TRUE,,,,,-SN,BKN,700,OVC,1600,,,,,IFR,,,,,,,,,,,,METAR,1058.0
KGBK 231110Z AUTO 15011G18KT 9SM SCT037 SCT044 OVC070 26/17 A2998 RMK A01,KGBK,2022-10-23T11:10:00Z,27.2,-92.2,26.0,17.0,150,11,18,9.0,29.97933,,,TRUE,TRUE,,,,,,,SCT,3700,SCT,4400,OVC,7000,,,VFR,,,,,,,,,,,,METAR,20.0
KFYE 231110Z AUTO 16009KT 10SM CLR 17/12 A3006 RMK A01,KFYE,2022-10-23T11:10:00Z,35.2,-89.38,17.0,12.0,160,9,,10.0,30.059055,,,TRUE,TRUE,,,,,,,CLR,,,,,,,,VFR,,,,,,,,,,,,SPECI,133.0
KFOT 231110Z AUTO 28005KT 6SM BKN010 08/08 A3003 RMK AO1,KFOT,2022-10-23T11:10:00Z,40.55,-124.13,8.0,8.0,280,5,,6.0,30.029528,,,TRUE,TRUE,,,,,,,BKN,1000,,,,,,,MVFR,,,,,,,,,,,,METAR,118.0
KDSF 231110Z AUTO 08009KT 10SM CLR 23/13 A3008 RMK A01,KDSF,2022-10-23T11:10:00Z,28.35,-88.27,23.0,13.0,80,9,,10.0,30.079725,,,TRUE,TRUE,,,,,,,CLR,,,,,,,,VFR,,,,,,,,,,,,METAR,40.0
KDLN 231110Z AUTO 20007KT 3SM -SN BR FEW005 BKN018 OVC029 M02/M02 A2963 RMK AO2 P0000 T10171017,KDLN,2022-10-23T11:10:00Z,45.25,-112.55,-1.7,-1.7,200,7,,3.0,29.630905,,,TRUE,TRUE,,,,,,-SN BR,FEW,500,BKN,1800,OVC,2900,,,MVFR,,,,,,0.005,,,,,,METAR,1586.0
KADW 231110Z AUTO 36007KT 10SM BKN026 09/07 A3021 RMK AO2 SLP238 $,KADW,2022-10-23T11:10:00Z,38.82,-76.87,9.0,7.0,360,7,,10.0,30.209646,1023.8,,TRUE,TRUE,TRUE,,,,,,BKN,2600,,,,,,,MVFR,,,,,,,,,,,,SPECI,87.0
K6S8 231110Z AUTO 28006G14KT 10SM 04/02 A2952 RMK A01 Laurel,K6S8,2022-10-23T11:10:00Z,45.7,-108.77,4.0,2.0,280,6,14,10.0,29.518702,,,TRUE,TRUE,,,,,,,,,,,,,,,,,,,,,,,,,,,SPECI,1072.0
K36K 231110Z AUTO 22006KT 10SM SCT024 SCT029 SCT033 13/08 A2949 RMK AO2,K36K,2022-10-23T11:10:00Z,37.97,-101.25,13.0,8.0,220,6,,10.0,29.489174,,,TRUE,TRUE,,,,,,,SCT,2400,SCT,2900,SCT,3300,,,VFR,,,,,,,,,,,,METAR,938.0
EKKA 231110Z AUTO 18005KT 150V210 7000 OVC003/// 12/12 Q1012,EKKA,2022-10-23T11:10:00Z,56.3,9.12,12.0,12.0,180,5,,4.35,29.88189,,,TRUE,,,,,,,,OVC,300,,,,,,,LIFR,,,,,,,,,,,,SPECI,50.0
CYQZ 231110Z AUTO VRB02KT 6SM BR OVC002 M00/M00 A2997 RMK SLP178,CYQZ,2022-10-23T11:10:00Z,53.02,-122.52,0.0,0.0,0,2,,6.0,29.970472,1017.8,,TRUE,,,,,,,BR,OVC,200,,,,,,,LIFR,,,,,,,,,,,,SPECI,548.0
PASN 231109Z AUTO 23013KT 10SM SCT026 04/01 A3004 RMK AO2 T00440006 TSNO $,PASN,2022-10-23T11:09:00Z,57.15,-170.22,4.4,0.6,230,13,,10.0,30.041338,,,TRUE,TRUE,TRUE,,TRUE,,,,SCT,2600,,,,,,,VFR,,,,,,,,,,,,METAR,8.0
MPDA 231109Z 06003KT 2000 BR SCT001 FEW017TCU 23/23 Q1010,MPDA,2022-10-23T11:09:00Z,8.4,-82.43,23.0,23.0,60,3,,1.24,29.822834,,,,,,,,,,BR,SCT,100,FEW,1700,,,,,IFR,,,,,,,,,,,,SPECI,15.0
KNRS 231109Z AUTO 28012KT 10SM SCT026 17/13 A2982 RMK AO2 T01720133 $ ,KNRS,2022-10-23T11:09:00Z,32.57,-117.12,17.2,13.3,280,12,,10.0,29.819881,,,TRUE,TRUE,TRUE,,,,,,SCT,2600,,,,,,,VFR,,,,,,,,,,,,SPECI,15.0
KMRH 231109Z AUTO 35010KT 10SM BKN014 OVC090 16/13 A3007 RMK AO2 T01560133,KMRH,2022-10-23T11:09:00Z,34.73,-76.65,15.6,13.3,350,10,,10.0,30.070866,,,TRUE,TRUE,,,,,,,BKN,1400,OVC,9000,,,,,MVFR,,,,,,,,,,,,METAR,2.0
KEAR 231109Z AUTO 17007KT 1 3/4SM -RA CLR 08/04 A2934 RMK AO2 VIS 3/4V5 P0000,KEAR,2022-10-23T11:09:00Z,40.72,-99.0,8.0,4.0,170,7,,1.75,29.338583,,,TRUE,TRUE,,,,,,-RA,CLR,,,,,,,,IFR,,,,,,0.005,,,,,,METAR,649.0
CYBW 231109Z AUTO 32006KT 3SM -SN BKN009 BKN013 M01/M01 A2987 RMK SLP167,CYBW,2022-10-23T11:09:00Z,51.1,-114.37,-1.0,-1.0,320,6,,3.0,29.870079,1016.7,,TRUE,,,,,,,-SN,BKN,900,BKN,1300,,,,,IFR,,,,,,,,,,,,SPECI,1197.0
YWLM 231108Z AUTO 08006KT 9999 // BKN012 OVC081 19/18 Q1013,YWLM,2022-10-23T11:08:00Z,-32.8,151.83,19.0,18.0,80,6,,6.21,29.911417,,,TRUE,,,,,,,,BKN,1200,OVC,8100,,,,,MVFR,,,,,,,,,,,,SPECI,7.0
PAHL 231108Z AUTO 14003KT 10SM OVC030 M02/M03 A2999 RMK AO2 FZRANO,PAHL,2022-10-23T11:08:00Z,65.7,-156.35,-2.0,-3.0,140,3,,10.0,29.991142,,,TRUE,TRUE,,,,TRUE,,,OVC,3000,,,,,,,MVFR,,,,,,,,,,,,SPECI,49.0
KSHN 231108Z AUTO 00000KT 4SM BR FEW002 M01/M01 A2997 RMK AO2 T10061011,KSHN,2022-10-23T11:08:00Z,47.23,-123.13,-0.6,-1.1,0,0,,4.0,29.970472,,,TRUE,TRUE,,,,,,BR,FEW,200,,,,,,,MVFR,,,,,,,,,,,,METAR,84.0
KMGJ 231108Z AUTO 00000KT 10SM SCT026 OVC032 05/04 A3031 RMK AO2 T00500044,KMGJ,2022-10-23T11:08:00Z,41.52,-74.27,5.0,4.4,0,0,,10.0,30.31004,,,TRUE,TRUE,,,,,,,SCT,2600,OVC,3200,,,,,VFR,,,,,,,,,,,,METAR,106.0
KMBL 231108Z AUTO 10007KT 2 1/2SM BR CLR 12/11 A2997 RMK AO2,KMBL,2022-10-23T11:08:00Z,44.27,-86.25,12.0,11.0,100,7,,2.5,29.970472,,,TRUE,TRUE,,,,,,BR,CLR,,,,,,,,IFR,,,,,,,,,,,,SPECI,187.0
KGGW 231108Z AUTO 08018G24KT 2 1/2SM BR OVC006 06/04 A2947 RMK AO2 T00610044,KGGW,2022-10-23T11:08:00Z,48.22,-106.62,6.1,4.4,80,18,24,2.5,29.471457,,,TRUE,TRUE,,,,,,BR,OVC,600,,,,,,,IFR,,,,,,,,,,,,METAR,698.0
KCNY 231108Z AUTO 18004KT 9SM -RA BKN018 OVC024 04/03 A2952 RMK AO2 P0003 T00440033,KCNY,2022-10-23T11:08:00Z,38.77,-109.75,4.4,3.3,180,4,,9.0,29.518702,,,TRUE,TRUE,,,,,,-RA,BKN,1800,OVC,2400,,,,,MVFR,,,,,,0.03,,,,,,METAR,1392.0
CYPY 231108Z AUTO 04002KT 5SM -SN FEW029 OVC050 M03/M05 A3008 RMK SLP207,CYPY,2022-10-23T11:08:00Z,58.77,-111.12,-3.0,-5.0,40,2,,5.0,30.079725,1020.7,,TRUE,,,,,,,-SN,FEW,2900,OVC,5000,,,,,MVFR,,,,,,,,,,,,SPECI,225.0
CWSA 231108Z AUTO 10003KT 5SM BR BKN013 OVC210 14/14 A3039 RMK SLP294,CWSA,2022-10-23T11:08:00Z,43.93,-60.0,14.0,14.0,100,3,,5.0,30.389763,1029.4,,TRUE,,,,,,,BR,BKN,1300,OVC,21000,,,,,MVFR,,,,,,,,,,,,SPECI,4.0
SVBM 231107Z /////KT 9999 BKN013 22/19 Q1014,SVBM,2022-10-23T11:07:00Z,10.05,-69.37,22.0,19.0,,,,6.21,29.940945,,,,,,,,,,,BKN,1300,,,,,,,MVFR,,,,,,,,,,,,METAR,624.0
PAQH 231107Z AUTO 11005KT 2 1/2SM BR SCT002 M03/M04 A3008 RMK AO2 FZRANO,PAQH,2022-10-23T11:07:00Z,59.75,-161.85,-3.0,-4.0,110,5,,2.5,30.079725,,,TRUE,TRUE,,,,TRUE,,BR,SCT,200,,,,,,,IFR,,,,,,,,,,,,SPECI,8.0
KWVL 231107Z AUTO 00000KT M1/4SM FG OVC001 07/07 A3034 RMK AO2,KWVL,2022-10-23T11:07:00Z,44.52,-69.67,7.0,7.0,0,0,,0.25,30.339567,,,TRUE,TRUE,,,,,,FG,OVC,100,,,,,,,LIFR,,,,,,,,,,,,SPECI,87.0
KWRL 231107Z AUTO 33008KT 10SM -RA SCT012 BKN023 OVC046 04/03 A2943 RMK AO2 P0000 T00440028,KWRL,2022-10-23T11:07:00Z,43.97,-107.95,4.4,2.8,330,8,,10.0,29.430119,,,TRUE,TRUE,,,,,,-RA,SCT,1200,BKN,2300,OVC,4600,,,MVFR,,,,,,0.005,,,,,,SPECI,1281.0
KSDB 231107Z AUTO 33021G35KT 10SM SCT016 06/02 A2981 RMK AO2 PK WND 32035/1101 T00610022 $,KSDB,2022-10-23T11:07:00Z,34.75,-118.72,6.1,2.2,330,21,35,10.0,29.811024,,,TRUE,TRUE,TRUE,,,,,,SCT,1600,,,,,,,VFR,,,,,,,,,,,,METAR,1377.0
KOKB 231107Z AUTO 25004KT 9SM BKN031 BKN036 16/12 A2980 RMK AO2 T01610117,KOKB,2022-10-23T11:07:00Z,33.22,-117.35,16.1,11.7,250,4,,9.0,29.799213,,,TRUE,TRUE,,,,,,,BKN,3100,BKN,3600,,,,,VFR,,,,,,,,,,,,SPECI,7.0
KMYF 231107Z AUTO 26004KT 10SM SCT021 BKN028 16/13 A2981 RMK AO2 T01560133,KMYF,2022-10-23T11:07:00Z,32.82,-117.13,15.6,13.3,260,4,,10.0,29.811024,,,TRUE,TRUE,,,,,,,SCT,2100,BKN,2800,,,,,MVFR,,,,,,,,,,,,SPECI,128.0
KMLS 231107Z AUTO 34007KT 8SM FEW012 BKN028 05/04 A2939 RMK AO2 T00500039,KMLS,2022-10-23T11:07:00Z,46.43,-105.88,5.0,3.9,340,7,,8.0,29.388779,,,TRUE,TRUE,,,,,,,FEW,1200,BKN,2800,,,,,MVFR,,,,,,,,,,,,SPECI,800.0
KMEH 231107Z AUTO 00000KT 10SM BKN012 OVC018 01/00 A2983 RMK AO2 UPE01SNB01E02 P0000 T00110000,KMEH,2022-10-23T11:07:00Z,45.52,-118.42,1.1,0.0,0,0,,10.0,29.828741,,,TRUE,TRUE,,,,,,,BKN,1200,OVC,1800,,,,,MVFR,,,,,,0.005,,,,,,METAR,1138.0
CYQR 231107Z 06017G24KT 12SM -RA BKN008 OVC038 02/00 A2970 RMK SC7SC1 CIG VRB 6-10 SLP078,CYQR,2022-10-23T11:07:00Z,50.43,-104.67,2.0,0.0,60,17,24,12.0,29.698818,1007.8,,,,,,,,,-RA,BKN,800,OVC,3800,,,,,IFR,,,,,,,,,,,,SPECI,576.0
CYKY 231107Z 03010G15KT 15SM -RA SCT024 OVC054 01/M02 A2981 RMK SC4SC4 SLP116,CYKY,2022-10-23T11:07:00Z,51.52,-109.17,1.0,-2.0,30,10,15,15.0,29.811024,1011.6,,,,,,,,,-RA,SCT,2400,OVC,5400,,,,,VFR,,,,,,,,,,,,SPECI,692.0
YSNF 231106Z AUTO 08019G29KT 9999 // SCT036 18/14 Q1023 RF00/0/000/0,YSNF,2022-10-23T11:06:00Z,-29.03,167.93,18.0,14.0,80,19,29,6.21,30.206694,,,TRUE,,,,,,,,SCT,3600,,,,,,,VFR,,,,,,,,,,,,SPECI,113.0
LIVC 231106Z AUTO 22018KT 200V270 //// 10/06 Q1030,LIVC,2022-10-23T11:06:00Z,44.2,10.68,10.0,6.0,220,18,,,30.413385,,,TRUE,,,,,,,,,,,,,,,,,,,,,,,,,,,,METAR,2139.0
KNBT 231106Z AUTO 35014G23KT 10SM SCT011 OVC055 19/14 A3006 RMK AO2 T01890144,KNBT,2022-10-23T11:06:00Z,35.02,-76.47,18.9,14.4,350,14,23,10.0,30.059055,,,TRUE,TRUE,,,,,,,SCT,1100,OVC,5500,,,,,VFR,,,,,,,,,,,,METAR,5.0
KBWI 231106Z 27003KT 10SM BKN027 BKN150 BKN250 09/06 A3024 RMK AO2 T00890061 $,KBWI,2022-10-23T11:06:00Z,39.17,-76.68,8.9,6.1,270,3,,10.0,30.239174,,,,TRUE,TRUE,,,,,,BKN,2700,BKN,15000,BKN,25000,,,MVFR,,,,,,,,,,,,SPECI,42.0
KAVX 231106Z AUTO 27012KT 8SM BKN008 OVC014 13/11 A2980 RMK AO2 CIG 007V011 T01280106,KAVX,2022-10-23T11:06:00Z,33.4,-118.42,12.8,10.6,270,12,,8.0,29.799213,,,TRUE,TRUE,,,,,,,BKN,800,OVC,1400,,,,,IFR,,,,,,,,,,,,SPECI,482.0
EGUL 231106Z AUTO 12008KT 9999 -RA FEW010 BKN028 BKN034 16/15 A2959 RMK AO2 RAE1058DZB1058E00RAB00 CIG 028V036 SLP023 $,EGUL,2022-10-23T11:06:00Z,52.42,0.57,16.0,15.0,120,8,,6.21,29.589567,1002.3,,TRUE,TRUE,TRUE,,,,,-RA,FEW,1000,BKN,2800,BKN,3400,,,MVFR,,,,,,,,,,,,SPECI,8.0
KNKX 231105Z 27005KT 10SM BKN024 14/13 A2981 RMK AO2 T01440133,KNKX,2022-10-23T11:05:00Z,32.87,-117.13,14.4,13.3,270,5,,10.0,29.811024,,,,TRUE,,,,,,,BKN,2400,,,,,,,MVFR,,,,,,,,,,,,METAR,138.0
KGXF 231105Z AUTO 24011KT 10SM BKN028 BKN038 BKN060 21/15 A2971 RMK AO2 CIG 028V047 SLP050 FZRANO $,KGXF,2022-10-23T11:05:00Z,32.88,-112.72,21.0,15.0,240,11,,10.0,29.71063,1005.0,,TRUE,TRUE,TRUE,,,TRUE,,,BKN,2800,BKN,3800,BKN,6000,,,MVFR,,,,,,,,,,,,METAR,261.0
ETIH 231105Z AUTO 11005KT 9999 BKN008 12/09 A3005 RMK AO2 SLP183 $,ETIH,2022-10-23T11:05:00Z,49.22,11.83,12.0,9.0,110,5,,6.21,30.050198,1018.3,,TRUE,TRUE,TRUE,,,,,,BKN,800,,,,,,,IFR,,,,,,,,,,,,SPECI,436.0
YABA 231104Z AUTO 05015KT 8000 // BKN073 OVC081 15/14 Q1010,YABA,2022-10-23T11:04:00Z,-34.93,117.8,15.0,14.0,50,15,,4.97,29.822834,,,TRUE,,,,,,,,BKN,7300,OVC,8100,,,,,MVFR,,,,,,,,,,,,SPECI,67.0
KEEO 231104Z AUTO 29013G23KT 1SM -SN BR VV011 01/M01 A2953 RMK AO2 P0001 T00061011,KEEO,2022-10-23T11:04:00Z,40.05,-107.88,0.6,-1.1,290,13,23,1.0,29.530512,,,TRUE,TRUE,,,,,,-SN BR,OVX,0,,,,,,,LIFR,,,,,,0.01,,,,,1100,METAR,1957.0
SVVA 231103Z AUTO 00000KT NCD 23/21 Q1012,SVVA,2022-10-23T11:03:00Z,10.15,-67.92,23.0,21.0,0,0,,,29.88189,,,TRUE,,,,,,,,CLR,,,,,,,,,,,,,,,,,,,,METAR,428.0
SVSR 231103Z AUTO NIL,SVSR,2022-10-23T11:03:00Z,7.87,-67.43,,,,,,,,,,TRUE,,,,,,,,,,,,,,,,,,,,,,,,,,,,METAR,49.0
SVPR 231103Z AUTO 07004KT NCD 23/21 Q1012,SVPR,2022-10-23T11:03:00Z,8.3,-62.77,23.0,21.0,70,4,,,29.88189,,,TRUE,,,,,,,,CLR,,,,,,,,,,,,,,,,,,,,METAR,140.0
SVPA 231103Z AUTO NIL,SVPA,2022-10-23T11:03:00Z,5.62,-67.6,,,,,,,,,,TRUE,,,,,,,,,,,,,,,,,,,,,,,,,,,,METAR,77.0
SVMT 231103Z AUTO 03002KT NCD 24/24 Q1011,SVMT,2022-10-23T11:03:00Z,9.75,-63.17,24.0,24.0,30,2,,,29.852362,,,TRUE,,,,,,,,CLR,,,,,,,,,,,,,,,,,,,,METAR,67.0
SVMI 231103Z AUTO 10002KT NCD ///// Q1011,SVMI,2022-10-23T11:03:00Z,10.6,-67.0,,,100,2,,,29.852362,,,TRUE,,,,,,,,CLR,,,,,,,,,,,,,,,,,,,,METAR,48.0
SVMG 231103Z AUTO 11006KT NCD 27/26 Q1011,SVMG,2022-10-23T11:03:00Z,10.92,-63.97,27.0,26.0,110,6,,,29.852362,,,TRUE,,,,,,,,CLR,,,,,,,,,,,,,,,,,,,,METAR,16.0
SVMC 231103Z AUTO NIL,SVMC,2022-10-23T11:03:00Z,10.57,-71.72,,,,,,,,,,TRUE,,,,,,,,,,,,,,,,,,,,,,,,,,,,METAR,76.0
SVLO 231103Z AUTO NIL,SVLO,2022-10-23T11:03:00Z,11.8,-66.18,,,,,,,,,,TRUE,,,,,,,,,,,,,,,,,,,,,,,,,,,,METAR,3.0
SVJM 231103Z AUTO 14001KT NCD 20/20 Q1011,SVJM,2022-10-23T11:03:00Z,9.92,-67.38,20.0,20.0,140,1,,,29.852362,,,TRUE,,,,,,,,CLR,,,,,,,,,,,,,,,,,,,,METAR,448.0
SVGU 231103Z AUTO NIL,SVGU,2022-10-23T11:03:00Z,9.03,-69.75,,,,,,,,,,TRUE,,,,,,,,,,,,,,,,,,,,,,,,,,,,METAR,165.0
SVGD 231103Z AUTO 23005KT NCD 24/24 Q1011,SVGD,2022-10-23T11:03:00Z,7.22,-70.75,24.0,24.0,230,5,,,29.852362,,,TRUE,,,,,,,,CLR,,,,,,,,,,,,,,,,,,,,METAR,129.0
SVFM 231103Z AUTO 00000KT NCD 20/18 Q1013,SVFM,2022-10-23T11:03:00Z,10.48,-66.83,20.0,18.0,0,0,,,29.911417,,,TRUE,,,,,,,,CLR,,,,,,,,,,,,,,,,,,,,METAR,852.0
SVCS 231103Z AUTO 12002KT NCD 44/42 Q1015,SVCS,2022-10-23T11:03:00Z,10.3,-66.82,44.0,42.0,120,2,,,29.970472,,,TRUE,,,,,,,,CLR,,,,,,,,,,,,,,,,,,,,METAR,656.0
SVCJ 231103Z AUTO NIL,SVCJ,2022-10-23T11:03:00Z,9.65,-68.58,,,,,,,,,,TRUE,,,,,,,,,,,,,,,,,,,,,,,,,,,,METAR,156.0
SVCB 231103Z AUTO 08005KT NCD 25/23 Q1010,SVCB,2022-10-23T11:03:00Z,8.12,-63.53,25.0,23.0,80,5,,,29.822834,,,TRUE,,,,,,,,CLR,,,,,,,,,,,,,,,,,,,,METAR,47.0
SVBS 231103Z AUTO 03002KT NCD 23/// Q1013,SVBS,2022-10-23T11:03:00Z,10.25,-67.65,,,30,2,,,29.911417,,,TRUE,,,,,,,,CLR,,,,,,,,,,,,,,,,,,,,METAR,435.0
SVBI 231103Z AUTO 30002KT NCD 25/23 Q1014,SVBI,2022-10-23T11:03:00Z,8.62,-70.22,25.0,23.0,300,2,,,29.940945,,,TRUE,,,,,,,,CLR,,,,,,,,,,,,,,,,,,,,METAR,185.0
SVBC 231103Z AUTO 11003KT NCD 25/24 Q1011,SVBC,2022-10-23T11:03:00Z,10.12,-64.68,25.0,24.0,110,3,,,29.852362,,,TRUE,,,,,,,,CLR,,,,,,,,,,,,,,,,,,,,METAR,7.0
KSLC 231103Z 32003KT 10SM -RA SCT014 BKN019 OVC025 04/02 A2961 RMK AO2 P0000 T00390017 $,KSLC,2022-10-23T11:03:00Z,40.77,-111.97,3.9,1.7,320,3,,10.0,29.610237,,,,TRUE,TRUE,,,,,-RA,SCT,1400,BKN,1900,OVC,2500,,,MVFR,,,,,,0.005,,,,,,SPECI,1286.0
KROS 231103Z AUTO 14004KT 10SM CLR 17/10 A2966 RMK AO2,KROS,2022-10-23T11:03:00Z,45.7,-92.95,17.0,10.0,140,4,,10.0,29.660433,,,TRUE,TRUE,,,,,,,CLR,,,,,,,,VFR,,,,,,,,,,,,SPECI,282.0
KRKD 231103Z AUTO 00000KT 3SM BR OVC002 05/05 A3036 RMK AO2,KRKD,2022-10-23T11:03:00Z,44.07,-69.1,5.0,5.0,0,0,,3.0,30.360237,,,TRUE,TRUE,,,,,,BR,OVC,200,,,,,,,LIFR,,,,,,,,,,,,SPECI,15.0
KNMM 231103Z AUTO 00000KT 6SM BR FEW002 09/08 A3013 RMK AO2 VIS 3/4 SOUTH T00890078 $,KNMM,2022-10-23T11:03:00Z,32.53,-88.53,8.9,7.8,0,0,,6.0,30.129921,,,TRUE,TRUE,TRUE,,,,,BR,FEW,200,,,,,,,VFR,,,,,,,,,,,,METAR,94.0
KMWT 231103Z AUTO 16007KT 120V190 10SM SCT025 BKN032 21/16 A2989 RMK AO2 T02060156,KMWT,2022-10-23T11:03:00Z,34.55,-93.58,20.6,15.6,160,7,,10.0,29.890747,,,TRUE,TRUE,,,,,,,SCT,2500,BKN,3200,,,,,VFR,,,,,,,,,,,,SPECI,220.0
CYYN 231103Z AUTO 05014G20KT 1 3/4SM -SN OVC003 00/M00 A2966 RMK ICE SLP075,CYYN,2022-10-23T11:03:00Z,50.28,-107.68,0.0,0.0,50,14,20,1.75,29.660433,1007.5,,TRUE,,,,,,,-SN,OVC,300,,,,,,,LIFR,,,,,,,,,,,,SPECI,814.0
CYQI 231103Z 05004KT 7SM PRFG OVC230 07/07 A3038 RMK FG1CS7 VIS 1/2SM S SLP289,CYQI,2022-10-23T11:03:00Z,43.83,-66.08,7.0,7.0,50,4,,7.0,30.380905,1028.9,,,,,,,,,PRFG,OVC,23000,,,,,,,VFR,,,,,,,,,,,,SPECI,37.0
KLXV 231102Z AUTO 17009G18KT 7SM -SN OVC031 01/M01 A2958 RMK AO2 P0000 T00111011 $,KLXV,2022-10-23T11:02:00Z,39.23,-106.32,1.1,-1.1,170,9,18,7.0,29.58071,,,TRUE,TRUE,TRUE,,,,,-SN,OVC,3100,,,,,,,VFR,,,,,,0.005,,,,,,SPECI,3027.0
PAFS 231101Z AUTO 00000KT 10SM OVC021 M02/M03 A3000 RMK AO2 UPB1032E1050 SLP168 P0000 T10221028 FZRANO,PAFS,2022-10-23T11:01:00Z,63.02,-154.35,-2.2,-2.8,0,0,,10.0,30.0,1016.8,,TRUE,TRUE,,,,TRUE,,,OVC,2100,,,,,,,MVFR,,,,,,0.005,,,,,,METAR,131.0
PACD 231101Z AUTO 27009KT 10SM OVC029 06/04 A3020 RMK AO2 T00560039 TSNO,PACD,2022-10-23T11:01:00Z,55.22,-162.72,5.6,3.9,270,9,,10.0,30.200787,,,TRUE,TRUE,,,TRUE,,,,OVC,2900,,,,,,,MVFR,,,,,,,,,,,,SPECI,23.0
LHDC 231101Z AUTO 19010KT 160V240 4700 BR OVC004 12/11 Q1024,LHDC,2022-10-23T11:01:00Z,47.48,21.62,12.0,11.0,190,10,,2.92,30.236221,,,TRUE,,,,,,,BR,OVC,400,,,,,,,LIFR,,,,,,,,,,,,SPECI,105.0
KEVM 231101Z AUTO 05005KT 10SM CLR 05/04 A2968 RMK AO2,KEVM,2022-10-23T11:01:00Z,47.42,-92.5,5.0,4.0,50,5,,10.0,29.681103,,,TRUE,TRUE,,,,,,,CLR,,,,,,,,VFR,,,,,,,,,,,,METAR,419.0
CYNA 231101Z AUTO 30003KT 6SM BR CLR 04/04 A3020 RMK ICE MISG SLP229,CYNA,2022-10-23T11:01:00Z,50.18,-61.78,4.0,4.0,300,3,,6.0,30.200787,1022.9,,TRUE,,,,,,,BR,CLR,,,,,,,,VFR,,,,,,,,,,,,SPECI,9.0
ZYTX 231100Z 06002MPS CAVOK 06/M06 Q1024 NOSIG,ZYTX,2022-10-23T11:00:00Z,41.63,123.48,6.0,-6.0,60,4,,6.21,30.236221,,,,,,TRUE,,,,,CAVOK,,,,,,,,VFR,,,,,,,,,,,,METAR,56.0
ZYTL 231100Z VRB01MPS CAVOK 11/M01 Q1024 NOSIG,ZYTL,2022-10-23T11:00:00Z,38.97,121.55,11.0,-1.0,0,2,,6.21,30.236221,,,,,,TRUE,,,,,CAVOK,,,,,,,,VFR,,,,,,,,,,,,METAR,33.0
ZYHB 231100Z 33002MPS 9999 FEW046 04/M04 Q1023 NOSIG,ZYHB,2022-10-23T11:00:00Z,45.62,126.25,4.0,-4.0,330,4,,6.21,30.206694,,,,,,TRUE,,,,,FEW,4600,,,,,,,VFR,,,,,,,,,,,,METAR,134.0
ZYCC 231100Z 33002MPS 280V030 9999 BKN033 05/M07 Q1023 NOSIG,ZYCC,2022-10-23T11:00:00Z,43.98,125.68,5.0,-7.0,330,4,,6.21,30.206694,,,,,,TRUE,,,,,BKN,3300,,,,,,,VFR,,,,,,,,,,,,METAR,211.0
ZWWW 231100Z 31002MPS CAVOK 14/02 Q1021 NOSIG,ZWWW,2022-10-23T11:00:00Z,43.9,87.47,14.0,2.0,310,4,,6.21,30.147638,,,,,,TRUE,,,,,CAVOK,,,,,,,,VFR,,,,,,,,,,,,METAR,654.0
ZWSH 231100Z AUTO 13002MPS 090V170 8000 // ///////// 17/M06 Q1021,ZWSH,2022-10-23T11:00:00Z,39.55,76.02,17.0,-6.0,130,4,,4.97,30.147638,,,TRUE,,,,,,,,,,,,,,,,,,,,,,,,,,,,METAR,1374.0
ZUUU 231100Z 20002MPS 160V220 9999 FEW030TCU BKN030 24/14 Q1019 NOSIG,ZUUU,2022-10-23T11:00:00Z,30.58,103.95,24.0,14.0,200,4,,6.21,30.088583,,,,,,TRUE,,,,,FEW,3000,BKN,3000,,,,,MVFR,,,,,,,,,,,,METAR,494.0
ZUTF 231100Z 14002MPS 110V180 7000 NSC 23/15 Q1019 NOSIG,ZUTF,2022-10-23T11:00:00Z,30.3,104.43,23.0,15.0,140,4,,4.35,30.088583,,,,,,TRUE,,,,,CLR,,,,,,,,MVFR,,,,,,,,,,,,METAR,443.0
ZUGY 231100Z VRB01MPS CAVOK 21/10 Q1022 NOSIG,ZUGY,2022-10-23T11:00:00Z,26.53,106.8,21.0,10.0,0,2,,6.21,30.177166,,,,,,TRUE,,,,,CAVOK,,,,,,,,VFR,,,,,,,,,,,,METAR,1130.0
ZUCK 231100Z 02006MPS 5000 BR NSC 20/15 Q1020 NOSIG,ZUCK,2022-10-23T11:00:00Z,29.72,106.63,20.0,15.0,20,12,,3.11,30.11811,,,,,,TRUE,,,,BR,CLR,,,,,,,,MVFR,,,,,,,,,,,,METAR,416.0
ZSSS 231100Z 01006MPS CAVOK 17/08 Q1023 NOSIG,ZSSS,2022-10-23T11:00:00Z,31.2,121.33,17.0,8.0,10,12,,6.21,30.206694,,,,,,TRUE,,,,,CAVOK,,,,,,,,VFR,,,,,,,,,,,,METAR,2.0
ZSQD 231100Z 02002MPS CAVOK 15/05 Q1023 NOSIG,ZSQD,2022-10-23T11:00:00Z,36.27,120.38,15.0,5.0,20,4,,6.21,30.206694,,,,,,TRUE,,,,,CAVOK,,,,,,,,VFR,,,,,,,,,,,,METAR,8.0
ZSPD 231100Z 01006MPS CAVOK 17/09 Q1023 NOSIG,ZSPD,2022-10-23T11:00:00Z,31.15,121.8,17.0,9.0,10,12,,6.21,30.206694,,,,,,TRUE,,,,,CAVOK,,,,,,,,VFR,,,,,,,,,,,,METAR,4.0
ZSOF 231100Z 07002MPS CAVOK 17/10 Q1023 NOSIG,ZSOF,2022-10-23T11:00:00Z,31.98,116.97,17.0,10.0,70,4,,6.21,30.206694,,,,,,TRUE,,,,,CAVOK,,,,,,,,VFR,,,,,,,,,,,,METAR,23.0
ZSNJ 231100Z 07003MPS CAVOK 17/08 Q1023 NOSIG,ZSNJ,2022-10-23T11:00:00Z,31.75,118.87,17.0,8.0,70,6,,6.21,30.206694,,,,,,TRUE,,,,,CAVOK,,,,,,,,VFR,,,,,,,,,,,,METAR,27.0
ZSNB 231100Z 02003MPS 350V060 CAVOK 19/13 Q1022 NOSIG,ZSNB,2022-10-23T11:00:00Z,29.83,121.47,19.0,13.0,20,6,,6.21,30.177166,,,,,,TRUE,,,,,CAVOK,,,,,,,,VFR,,,,,,,,,,,,METAR,5.0
ZSHC 231100Z 01003MPS 340V040 5000 HZ SCT046 20/14 Q1022 NOSIG,ZSHC,2022-10-23T11:00:00Z,30.22,120.43,20.0,14.0,10,6,,3.11,30.177166,,,,,,TRUE,,,,HZ,SCT,4600,,,,,,,MVFR,,,,,,,,,,,,METAR,8.0
ZSFZ 231100Z 02004MPS 340V040 9999 FEW026 22/18 Q1019 NOSIG,ZSFZ,2022-10-23T11:00:00Z,25.93,119.67,22.0,18.0,20,8,,6.21,30.088583,,,,,,TRUE,,,,,FEW,2600,,,,,,,VFR,,,,,,,,,,,,METAR,14.0
ZSAM 231100Z 05004MPS CAVOK 24/16 Q1016 NOSIG,ZSAM,2022-10-23T11:00:00Z,24.53,118.13,24.0,16.0,50,8,,6.21,30.0,,,,,,TRUE,,,,,CAVOK,,,,,,,,VFR,,,,,,,,,,,,METAR,13.0
ZPPP 231100Z VRB01MPS 9999 SCT040 16/14 Q1027 NOSIG,ZPPP,2022-10-23T11:00:00Z,25.0,102.65,16.0,14.0,0,2,,6.21,30.324802,,,,,,TRUE,,,,,SCT,4000,,,,,,,VFR,,,,,,,,,,,,METAR,1885.0
ZMUB 231100Z VRB02MPS CAVOK 03/M09 Q1018 NOSIG RMK QFE656.3 41,ZMUB,2022-10-23T11:00:00Z,47.83,106.75,3.0,-9.0,0,4,,6.21,30.059055,,,,,,TRUE,,,,,CAVOK,,,,,,,,VFR,,,,,,,,,,,,SPECI,1300.0
ZMCK 231100Z 07003MPS CAVOK 06/M07 Q1019 NOSIG RMK QFE648.4 39,ZMCK,2022-10-23T11:00:00Z,47.65,106.82,6.0,-7.0,70,6,,6.21,30.088583,,,,,,TRUE,,,,,CAVOK,,,,,,,,VFR,,,,,,,,,,,,METAR,1366.0
ZLXY 231100Z 27001MPS 8000 NSC 16/10 Q1023 NOSIG,ZLXY,2022-10-23T11:00:00Z,34.43,108.75,16.0,10.0,270,2,,4.97,30.206694,,,,,,TRUE,,,,,CLR,,,,,,,,MVFR,,,,,,,,,,,,METAR,478.0
ZLLL 231100Z 11002MPS CAVOK 14/01 Q1024 NOSIG,ZLLL,2022-10-23T11:00:00Z,36.52,103.62,14.0,1.0,110,4,,6.21,30.236221,,,,,,TRUE,,,,,CAVOK,,,,,,,,VFR,,,,,,,,,,,,METAR,1939.0
ZJSY 231100Z 33002MPS 300V050 CAVOK 26/22 Q1012 NOSIG,ZJSY,2022-10-23T11:00:00Z,18.3,109.42,26.0,22.0,330,4,,6.21,29.88189,,,,,,TRUE,,,,,CAVOK,,,,,,,,VFR,,,,,,,,,,,,METAR,27.0
ZJHK 231100Z 02002MPS 340V050 CAVOK 26/19 Q1013 NOSIG,ZJHK,2022-10-23T11:00:00Z,19.93,110.43,26.0,19.0,20,4,,6.21,29.911417,,,,,,TRUE,,,,,CAVOK,,,,,,,,VFR,,,,,,,,,,,,METAR,21.0
ZHHH 231100Z 02003MPS CAVOK 23/09 Q1021 NOSIG,ZHHH,2022-10-23T11:00:00Z,30.78,114.22,23.0,9.0,20,6,,6.21,30.147638,,,,,,TRUE,,,,,CAVOK,,,,,,,,VFR,,,,,,,,,,,,METAR,33.0
ZHCC 231100Z 00000MPS 6000 NSC 14/07 Q1023 NOSIG,ZHCC,2022-10-23T11:00:00Z,34.52,113.83,14.0,7.0,0,0,,3.73,30.206694,,,,,,TRUE,,,,,CLR,,,,,,,,MVFR,,,,,,,,,,,,METAR,149.0
ZGSZ 231100Z 18004MPS CAVOK 27/22 Q1013 BECMG AT1250 10005MPS,ZGSZ,2022-10-23T11:00:00Z,22.63,113.8,27.0,22.0,180,8,,6.21,29.911417,,,,,,,,,,,CAVOK,,,,,,,,VFR,,0.5,,,,,,,,,,SPECI,18.0
ZGOW 231100Z 11005MPS CAVOK 25/18 Q1015 NOSIG,ZGOW,2022-10-23T11:00:00Z,23.55,116.5,25.0,18.0,110,10,,6.21,29.970472,,,,,,TRUE,,,,,CAVOK,,,,,,,,VFR,,,,,,,,,,,,METAR,4.0
ZGNN 231100Z 28002MPS 200V340 CAVOK 28/21 Q1014 NOSIG,ZGNN,2022-10-23T11:00:00Z,22.62,108.17,28.0,21.0,280,4,,6.21,29.940945,,,,,,TRUE,,,,,CAVOK,,,,,,,,VFR,,,,,,,,,,,,METAR,128.0
ZGKL 231100Z 04005MPS CAVOK 29/08 Q1016 NOSIG,ZGKL,2022-10-23T11:00:00Z,25.22,110.03,29.0,8.0,40,10,,6.21,30.0,,,,,,TRUE,,,,,CAVOK,,,,,,,,VFR,,,,,,,,,,,,METAR,151.0
ZGHA 231100Z 32003MPS CAVOK 25/12 Q1018 NOSIG,ZGHA,2022-10-23T11:00:00Z,28.18,113.22,25.0,12.0,320,6,,6.21,30.059055,,,,,,TRUE,,,,,CAVOK,,,,,,,,VFR,,,,,,,,,,,,METAR,61.0
ZGGG 231100Z 33004MPS CAVOK 30/17 Q1013 NOSIG,ZGGG,2022-10-23T11:00:00Z,23.4,113.3,30.0,17.0,330,8,,6.21,29.911417,,,,,,TRUE,,,,,CAVOK,,,,,,,,VFR,,,,,,,,,,,,METAR,11.0
ZBYN 231100Z 08001MPS CAVOK 12/M04 Q1024 NOSIG,ZBYN,2022-10-23T11:00:00Z,37.73,112.63,12.0,-4.0,80,2,,6.21,30.236221,,,,,,TRUE,,,,,CAVOK,,,,,,,,VFR,,,,,,,,,,,,METAR,778.0
ZBTJ 231100Z 00000MPS CAVOK 13/M01 Q1023 NOSIG,ZBTJ,2022-10-23T11:00:00Z,39.12,117.35,13.0,-1.0,0,0,,6.21,30.206694,,,,,,TRUE,,,,,CAVOK,,,,,,,,VFR,,,,,,,,,,,,METAR,4.0
ZBSJ 231100Z VRB01MPS CAVOK 14/01 Q1023 NOSIG,ZBSJ,2022-10-23T11:00:00Z,38.28,114.7,14.0,1.0,0,2,,6.21,30.206694,,,,,,TRUE,,,,,CAVOK,,,,,,,,VFR,,,,,,,,,,,,METAR,70.0
ZBHH 231100Z 05003MPS CAVOK 06/M08 Q1025 NOSIG,ZBHH,2022-10-23T11:00:00Z,40.85,111.82,6.0,-8.0,50,6,,6.21,30.265747,,,,,,TRUE,,,,,CAVOK,,,,,,,,VFR,,,,,,,,,,,,METAR,1081.0
ZBAD 231100Z 17002MPS CAVOK 11/00 Q1023 NOSIG,ZBAD,2022-10-23T11:00:00Z,39.5,116.42,11.0,0.0,170,4,,6.21,30.206694,,,,,,TRUE,,,,,CAVOK,,,,,,,,VFR,,,,,,,,,,,,METAR,25.0
ZBAA 231100Z 16002MPS 140V200 CAVOK 10/00 Q1023 NOSIG,ZBAA,2022-10-23T11:00:00Z,40.07,116.6,10.0,0.0,160,4,,6.21,30.206694,,,,,,TRUE,,,,,CAVOK,,,,,,,,VFR,,,,,,,,,,,,METAR,31.0
YWHA 231100Z AUTO 19013KT 9999 // BKN014 BKN042 OVC051 17/15 Q1010,YWHA,2022-10-23T11:00:00Z,-33.07,137.52,17.0,15.0,190,13,,6.21,29.822834,,,TRUE,,,,,,,,BKN,1400,BKN,4200,OVC,5100,,,MVFR,,,,,,,,,,,,SPECI,12.0
YSSY 231100Z 17010KT 9000 SHRA FEW010 SCT017 BKN045 18/17 Q1014,YSSY,2022-10-23T11:00:00Z,-33.95,151.17,18.0,17.0,170,10,,5.59,29.940945,,,,,,,,,,SHRA,FEW,1000,SCT,1700,BKN,4500,,,VFR,,,,,,,,,,,,METAR,3.0
YSNW 231100Z AUTO 16006KT 9999 // BKN003 BKN007 OVC010 16/16 Q1015,YSNW,2022-10-23T11:00:00Z,-34.95,150.53,16.0,16.0,160,6,,6.21,29.970472,,,TRUE,,,,,,,,BKN,300,BKN,700,OVC,1000,,,LIFR,,,,,,,,,,,,SPECI,109.0
YSCB 231100Z AUTO 11006KT 9999 // BKN022 BKN067 OVC096 14/11 Q1016,YSCB,2022-10-23T11:00:00Z,-35.3,149.18,14.0,11.0,110,6,,6.21,30.0,,,TRUE,,,,,,,,BKN,2200,BKN,6700,OVC,9600,,,MVFR,,,,,,,,,,,,METAR,577.0
YPPH 231100Z 19010KT 9999 -RA FEW014 BKN048 OVC120 15/13 Q1008,YPPH,2022-10-23T11:00:00Z,-31.93,115.98,15.0,13.0,190,10,,6.21,29.763779,,,,,,,,,,-RA,FEW,1400,BKN,4800,OVC,12000,,,VFR,,,,,,,,,,,,METAR,16.0
YPPD 231100Z AUTO 28015KT 9999 // NCD 27/18 Q1007 RF00.0/000.0,YPPD,2022-10-23T11:00:00Z,-20.37,118.62,27.0,18.0,280,15,,6.21,29.734253,,,TRUE,,,,,,,,CLR,,,,,,,,VFR,,,,,,,,,,,,METAR,6.0
YPLM 231100Z AUTO 24017KT 9999 // NCD 23/16 Q1010 RF00.0/000.0,YPLM,2022-10-23T11:00:00Z,-22.23,114.08,23.0,16.0,240,17,,6.21,29.822834,,,TRUE,,,,,,,,CLR,,,,,,,,VFR,,,,,,,,,,,,METAR,5.0
YPKG 231100Z AUTO 09010KT 9999 // NCD 22/05 Q1010 RF00.0/000.0,YPKG,2022-10-23T11:00:00Z,-30.78,121.45,22.0,5.0,90,10,,6.21,29.822834,,,TRUE,,,,,,,,CLR,,,,,,,,VFR,,,,,,,,,,,,METAR,372.0
YPEA 231100Z AUTO 18007KT 9999 -SHRA BKN013 BKN019 BKN026 15/13 Q1008,YPEA,2022-10-23T11:00:00Z,-31.67,116.02,15.0,13.0,180,7,,6.21,29.763779,,,TRUE,,,,,,,-SHRA,BKN,1300,BKN,1900,BKN,2600,,,MVFR,,,,,,,,,,,,SPECI,38.0
YPDN 231100Z 29010KT 9999 BKN022 30/25 Q1006,YPDN,2022-10-23T11:00:00Z,-12.42,130.9,30.0,25.0,290,10,,6.21,29.704725,,,,,,,,,,,BKN,2200,,,,,,,MVFR,,,,,,,,,,,,METAR,32.0
YPCC 231100Z AUTO 14015KT 9999 // NCD 27/21 Q1011 RF00.0/000.0,YPCC,2022-10-23T11:00:00Z,-12.18,96.83,27.0,21.0,140,15,,6.21,29.852362,,,TRUE,,,,,,,,CLR,,,,,,,,VFR,,,,,,,,,,,,METAR,3.0
YPAD 231100Z 19011KT 9999 -RA BKN018 OVC090 15/13 Q1010,YPAD,2022-10-23T11:00:00Z,-34.95,138.52,15.0,13.0,190,11,,6.21,29.822834,,,,,,,,,,-RA,BKN,1800,OVC,9000,,,,,MVFR,,,,,,,,,,,,METAR,2.0
YMTG 231100Z AUTO 15011KT 9999 -RA BKN007 BKN024 OVC068 13/12 Q1014,YMTG,2022-10-23T11:00:00Z,-37.75,140.78,13.0,12.0,150,11,,6.21,29.940945,,,TRUE,,,,,,,-RA,BKN,700,BKN,2400,OVC,6800,,,IFR,,,,,,,,,,,,SPECI,65.0
YMML 231100Z 16010KT 9999 FEW037 SCT065 BKN115 15/11 Q1014,YMML,2022-10-23T11:00:00Z,-37.67,144.82,15.0,11.0,160,10,,6.21,29.940945,,,,,,,,,,,FEW,3700,SCT,6500,BKN,11500,,,VFR,,,,,,,,,,,,METAR,115.0
YMLT 231100Z AUTO 16015KT 9999 // BKN038 OVC125 09/05 Q1025,YMLT,2022-10-23T11:00:00Z,-41.53,147.2,9.0,5.0,160,15,,6.21,30.265747,,,TRUE,,,,,,,,BKN,3800,OVC,12500,,,,,VFR,,,,,,,,,,,,METAR,167.0
YMHB 231100Z 12010KT CAVOK 11/03 Q1028,YMHB,2022-10-23T11:00:00Z,-42.83,147.52,11.0,3.0,120,10,,6.21,30.35433,,,,,,,,,,,CAVOK,,,,,,,,VFR,,,,,,,,,,,,METAR,2.0
YMER 231100Z AUTO 21006KT 9999 // OVC011 16/15 Q1018,YMER,2022-10-23T11:00:00Z,-36.92,149.9,16.0,15.0,210,6,,6.21,30.059055,,,TRUE,,,,,,,,OVC,1100,,,,,,,MVFR,,,,,,,,,,,,SPECI,2.0
YMAV 231100Z AUTO 12018KT 9999 // OVC022 15/11 Q1015 RF00.0/000.0,YMAV,2022-10-23T11:00:00Z,-38.03,144.48,15.0,11.0,120,18,,6.21,29.970472,,,TRUE,,,,,,,,OVC,2200,,,,,,,MVFR,,,,,,,,,,,,METAR,11.0
YLHI 231100Z AUTO 07024KT 6000 // OVC016 20/17 Q1017 RF00.0/000.0,YLHI,2022-10-23T11:00:00Z,-31.53,159.07,20.0,17.0,70,24,,3.73,30.029528,,,TRUE,,,,,,,,OVC,1600,,,,,,,MVFR,,,,,,,,,,,,METAR,2.0
YGFN 231100Z AUTO 17005KT 9999 -RA BKN007 OVC013 18/18 Q1010,YGFN,2022-10-23T11:00:00Z,-29.77,153.03,18.0,18.0,170,5,,6.21,29.822834,,,TRUE,,,,,,,-RA,BKN,700,OVC,1300,,,,,IFR,,,,,,,,,,,,SPECI,26.0
YCOM 231100Z AUTO 13005KT //// // OVC015 ///// Q1018,YCOM,2022-10-23T11:00:00Z,-36.3,148.97,,,130,5,,,30.059055,,,TRUE,,,,,,,,OVC,1500,,,,,,,,,,,,,,,,,,,SPECI,930.0
YBWW 231100Z AUTO 17009KT 9999 // NCD 17/15 Q1009 RF00.0/000.0,YBWW,2022-10-23T11:00:00Z,-27.55,151.8,17.0,15.0,170,9,,6.21,29.793306,,,TRUE,,,,,,,,CLR,,,,,,,,VFR,,,,,,,,,,,,METAR,460.0
YBRM 231100Z AUTO 27010KT 9999 // NCD 27/22 Q1007 RF00.0/000.0,YBRM,2022-10-23T11:00:00Z,-17.93,122.23,27.0,22.0,270,10,,6.21,29.734253,,,TRUE,,,,,,,,CLR,,,,,,,,VFR,,,,,,,,,,,,METAR,11.0
YBRK 231100Z AUTO 05004KT 9999 // NCD 24/19 Q1007 RF00.0/000.0,YBRK,2022-10-23T11:00:00Z,-23.37,150.47,24.0,19.0,50,4,,6.21,29.734253,,,TRUE,,,,,,,,CLR,,,,,,,,VFR,,,,,,,,,,,,METAR,10.0
YBLN 231100Z AUTO 18010KT 9999 // ////// 16/12 Q1009 RF00.0/000.0,YBLN,2022-10-23T11:00:00Z,-33.68,115.4,16.0,12.0,180,10,,6.21,29.793306,,,TRUE,,,,,,,,,,,,,,,,,,,,,,,,,,,,METAR,17.0
YBCS 231100Z AUTO 35004KT 9999 // BKN018 27/24 Q1007,YBCS,2022-10-23T11:00:00Z,-16.87,145.75,27.0,24.0,350,4,,6.21,29.734253,,,TRUE,,,,,,,,BKN,1800,,,,,,,MVFR,,,,,,,,,,,,METAR,2.0
YBCG 231100Z AUTO 22012KT 9999 SHRA OVC015 OVC023 19/17 Q1005,YBCG,2022-10-23T11:00:00Z,-28.17,153.5,19.0,17.0,220,12,,6.21,29.675198,,,TRUE,,,,,,,SHRA,OVC,1500,OVC,2300,,,,,MVFR,,,,,,,,,,,,METAR,5.0
YBBN 231100Z 22012KT 9999 FEW047 BKN055 20/16 Q1006,YBBN,2022-10-23T11:00:00Z,-27.38,153.13,20.0,16.0,220,12,,6.21,29.704725,,,,,,,,,,,FEW,4700,BKN,5500,,,,,VFR,,,,,,,,,,,,METAR,3.0
YBAS 231100Z AUTO 15015KT 9999 // NCD 26/14 Q1009 RF00.0/000.0,YBAS,2022-10-23T11:00:00Z,-23.8,133.9,26.0,14.0,150,15,,6.21,29.793306,,,TRUE,,,,,,,,CLR,,,,,,,,VFR,,,,,,,,,,,,METAR,549.0
WSSS 231100Z 34004KT 9999 FEW018 SCT160 BKN270 28/23 Q1009 NOSIG,WSSS,2022-10-23T11:00:00Z,1.37,103.97,28.0,23.0,340,4,,6.21,29.793306,,,,,,TRUE,,,,,FEW,1800,SCT,16000,BKN,27000,,,VFR,,,,,,,,,,,,METAR,17.0
WSSL 231100Z 36004KT 320V030 9999 FEW018 SCT160 BKN270 28/23 Q1009,WSSL,2022-10-23T11:00:00Z,1.42,103.87,28.0,23.0,360,4,,6.21,29.793306,,,,,,,,,,,FEW,1800,SCT,16000,BKN,27000,,,VFR,,,,,,,,,,,,METAR,11.0
WSAP 231100Z 32002KT 9999 FEW016 SCT150 BKN260 28/22 Q1009,WSAP,2022-10-23T11:00:00Z,1.37,103.92,28.0,22.0,320,2,,6.21,29.793306,,,,,,,,,,,FEW,1600,SCT,15000,BKN,26000,,,VFR,,,,,,,,,,,,METAR,20.0
WMSA 231100Z 01009KT 320V030 5000 TSRA FEW010 FEW016CB SCT023 24/23 Q1010,WMSA,2022-10-23T11:00:00Z,3.13,101.55,24.0,23.0,10,9,,3.11,29.822834,,,,,,,,,,TSRA,FEW,1000,FEW,1600,SCT,2300,,,MVFR,,,,,,,,,,,,METAR,19.0
WMKP 231100Z VRB02KT 9999 FEW025 30/22 Q1009 NOSIG,WMKP,2022-10-23T11:00:00Z,5.28,100.27,30.0,22.0,0,2,,6.21,29.793306,,,,,,TRUE,,,,,FEW,2500,,,,,,,VFR,,,,,,,,,,,,METAR,4.0
WMKN 231100Z 33004KT 290V010 9999 FEW018 28/25 Q1009,WMKN,2022-10-23T11:00:00Z,5.37,103.1,28.0,25.0,330,4,,6.21,29.793306,,,,,,,,,,,FEW,1800,,,,,,,VFR,,,,,,,,,,,,METAR,12.0
WMKM 231100Z 26004KT 200V340 9999 FEW017CB SCT027 28/25 Q1010,WMKM,2022-10-23T11:00:00Z,2.27,102.25,28.0,25.0,260,4,,6.21,29.822834,,,,,,,,,,,FEW,1700,SCT,2700,,,,,VFR,,,,,,,,,,,,METAR,9.0
WMKL 231100Z VRB02KT 9999 FEW020 30/25 Q1009,WMKL,2022-10-23T11:00:00Z,6.32,99.72,30.0,25.0,0,2,,6.21,29.793306,,,,,,,,,,,FEW,2000,,,,,,,VFR,,,,,,,,,,,,METAR,4.0
WMKK 231100Z 26004KT 190V320 9999 TS FEW017CB 28/25 Q1009 NOSIG,WMKK,2022-10-23T11:00:00Z,2.75,101.72,28.0,25.0,260,4,,6.21,29.793306,,,,,,TRUE,,,,TS,FEW,1700,,,,,,,VFR,,,,,,,,,,,,METAR,21.0
WMKJ 231100Z VRB03KT 9999 FEW023 27/24 Q1009,WMKJ,2022-10-23T11:00:00Z,1.63,103.67,27.0,24.0,0,3,,6.21,29.793306,,,,,,,,,,,FEW,2300,,,,,,,VFR,,,,,,,,,,,,METAR,38.0
WMKI 231100Z VRB02KT 9999 FEW027 29/24 Q1009,WMKI,2022-10-23T11:00:00Z,4.57,101.08,29.0,24.0,0,2,,6.21,29.793306,,,,,,,,,,,FEW,2700,,,,,,,VFR,,,,,,,,,,,,METAR,37.0
WMKE 231100Z VRB01KT 9999 SCT020 28/25 Q1008,WMKE,2022-10-23T11:00:00Z,4.53,103.43,28.0,25.0,0,1,,6.21,29.763779,,,,,,,,,,,SCT,2000,,,,,,,VFR,,,,,,,,,,,,METAR,5.0
WMKD 231100Z 00000KT 9999 FEW025 27/25 Q1008 NOSIG,WMKD,2022-10-23T11:00:00Z,3.77,103.22,27.0,25.0,0,0,,6.21,29.763779,,,,,,TRUE,,,,,FEW,2500,,,,,,,VFR,,,,,,,,,,,,METAR,18.0
WMKC 231100Z VRB01KT 9999 FEW020 27/24 Q1009,WMKC,2022-10-23T11:00:00Z,6.17,102.28,27.0,24.0,0,1,,6.21,29.793306,,,,,,,,,,,FEW,2000,,,,,,,VFR,,,,,,,,,,,,METAR,7.0
WMKB 231100Z 02007KT 350V050 9999 FEW024 29/23 Q1009 NOSIG,WMKB,2022-10-23T11:00:00Z,5.47,100.38,29.0,23.0,20,7,,6.21,29.793306,,,,,,TRUE,,,,,FEW,2400,,,,,,,VFR,,,,,,,,,,,,METAR,4.0
WMKA 231100Z VRB02KT 9999 FEW020 29/23 Q1009,WMKA,2022-10-23T11:00:00Z,6.2,100.4,29.0,23.0,0,2,,6.21,29.793306,,,,,,,,,,,FEW,2000,,,,,,,VFR,,,,,,,,,,,,METAR,5.0
WMBA 231100Z VRB02KT 9000 -RA SCT030 28/26 Q1008,WMBA,2022-10-23T11:00:00Z,4.22,100.7,28.0,26.0,0,2,,5.59,29.763779,,,,,,,,,,-RA,SCT,3000,,,,,,,VFR,,,,,,,,,,,,METAR,9.0
WMAU 231100Z 30004KT 9000 SCT025 28/24 Q1009,WMAU,2022-10-23T11:00:00Z,2.38,103.88,28.0,24.0,300,4,,5.59,29.793306,,,,,,,,,,,SCT,2500,,,,,,,VFR,,,,,,,,,,,,METAR,5.0
WIPP 231100Z 22003KT 9999 FEW010 28/24 Q1009,WIPP,2022-10-23T11:00:00Z,-2.88,104.7,28.0,24.0,220,3,,6.21,29.793306,,,,,,,,,,,FEW,1000,,,,,,,VFR,,,,,,,,,,,,METAR,7.0
WIOO 231100Z 25004KT 6000 SCT013 27/24 Q1009 NOSIG,WIOO,2022-10-23T11:00:00Z,-0.15,109.4,27.0,24.0,250,4,,3.73,29.793306,,,,,,TRUE,,,,,SCT,1300,,,,,,,MVFR,,,,,,,,,,,,METAR,4.0
WIMM 231100Z 00000KT 9999 SCT017 28/25 Q1009 NOSIG,WIMM,2022-10-23T11:00:00Z,3.57,98.67,28.0,25.0,0,0,,6.21,29.793306,,,,,,TRUE,,,,,SCT,1700,,,,,,,VFR,,,,,,,,,,,,METAR,27.0
WIII 231100Z 25010KT 8000 SCT020 29/23 Q1009 NOSIG,WIII,2022-10-23T11:00:00Z,-6.13,106.67,29.0,23.0,250,10,,4.97,29.793306,,,,,,TRUE,,,,,SCT,2000,,,,,,,MVFR,,,,,,,,,,,,METAR,9.0
WIEE 231100Z 31004KT 280V340 0650 +TSRA FEW015CB OVC016 23/23 Q1010 TEMPO 0500 RA OVC016 RMK CB OVER THE FIELD,WIEE,2022-10-23T11:00:00Z,-0.78,100.28,23.0,23.0,310,4,,0.4,29.822834,,,,,,,,,,+TSRA,FEW,1500,OVC,1600,,,,,LIFR,,,,,,,,,,,,METAR,5.0
WIDD 231100Z 36005KT 9999 SCT014 28/24 Q1011 NOSIG,WIDD,2022-10-23T11:00:00Z,1.12,104.12,28.0,24.0,360,5,,6.21,29.852362,,,,,,TRUE,,,,,SCT,1400,,,,,,,VFR,,,,,,,,,,,,METAR,26.0
WIBB 231100Z 00000KT 8000 FEW015 28/24 Q1008,WIBB,2022-10-23T11:00:00Z,0.47,101.45,28.0,24.0,0,0,,4.97,29.763779,,,,,,,,,,,FEW,1500,,,,,,,MVFR,,,,,,,,,,,,METAR,41.0
WBSB 231100Z 08002KT 9000 -SHRA SCT015 FEW016CB BKN140 27/27 Q1010 TEMPO 7000 -SHRA,WBSB,2022-10-23T11:00:00Z,4.93,114.92,27.0,27.0,80,2,,5.59,29.822834,,,,,,,,,,-SHRA,SCT,1500,FEW,1600,BKN,14000,,,VFR,,,,,,,,,,,,SPECI,15.0
WBKW 231100Z VRB01KT 9999 FEW016 25/24 Q1009,WBKW,2022-10-23T11:00:00Z,4.32,118.12,25.0,24.0,0,1,,6.21,29.793306,,,,,,,,,,,FEW,1600,,,,,,,VFR,,,,,,,,,,,,METAR,17.0
WBKT 231100Z VRB02KT 9999 FEW014 26/25 Q1009,WBKT,2022-10-23T11:00:00Z,6.92,116.83,26.0,25.0,0,2,,6.21,29.793306,,,,,,,,,,,FEW,1400,,,,,,,VFR,,,,,,,,,,,,METAR,11.0
WBKS 231100Z VRB03KT 9999 FEW016 27/25 Q1009,WBKS,2022-10-23T11:00:00Z,5.9,118.07,27.0,25.0,0,3,,6.21,29.793306,,,,,,,,,,,FEW,1600,,,,,,,VFR,,,,,,,,,,,,METAR,13.0
WBKL 231100Z VRB01KT 9999 FEW015 FEW017CB 27/25 Q1010,WBKL,2022-10-23T11:00:00Z,5.3,115.25,27.0,25.0,0,1,,6.21,29.822834,,,,,,,,,,,FEW,1500,FEW,1700,,,,,VFR,,,,,,,,,,,,METAR,29.0
WBKK 231100Z 13003KT 9999 FEW014 27/25 Q1009 NOSIG,WBKK,2022-10-23T11:00:00Z,5.93,116.05,27.0,25.0,130,3,,6.21,29.793306,,,,,,TRUE,,,,,FEW,1400,,,,,,,VFR,,,,,,,,,,,,METAR,9.0
WBGY 231100Z AUTO 17006KT 080V230 //// // ////// 28/25 Q1008,WBGY,2022-10-23T11:00:00Z,1.22,111.45,28.0,25.0,170,6,,,29.763779,,,TRUE,,,,,,,,,,,,,,,,,,,,,,,,,,,,METAR,13.0
WBGS 231100Z 35003KT 320V020 1500 +TSRA SCT007 FEW015CB SCT016 24/24 Q1010,WBGS,2022-10-23T11:00:00Z,2.27,111.98,24.0,24.0,350,3,,0.93,29.822834,,,,,,,,,,+TSRA,SCT,700,FEW,1500,SCT,1600,,,LIFR,,,,,,,,,,,,METAR,26.0
WBGR 231100Z 32004KT 260V360 9999 SCT016 28/25 Q1010,WBGR,2022-10-23T11:00:00Z,4.32,113.98,28.0,25.0,320,4,,6.21,29.822834,,,,,,,,,,,SCT,1600,,,,,,,VFR,,,,,,,,,,,,METAR,18.0
WBGG 231100Z 27006KT 210V020 9999 FEW015CB SCT020 26/24 Q1009 NOSIG,WBGG,2022-10-23T11:00:00Z,1.48,110.35,26.0,24.0,270,6,,6.21,29.793306,,,,,,TRUE,,,,,FEW,1500,SCT,2000,,,,,VFR,,,,,,,,,,,,METAR,26.0
WBGB 231100Z 00000KT 9999 -RA SCT016 25/25 Q1010,WBGB,2022-10-23T11:00:00Z,3.12,113.02,25.0,25.0,0,0,,6.21,29.822834,,,,,,,,,,-RA,SCT,1600,,,,,,,VFR,,,,,,,,,,,,METAR,34.0
WARR 231100Z 35004KT 9999 SCT020CB 25/24 Q1009 NOSIG,WARR,2022-10-23T11:00:00Z,-7.37,112.78,25.0,24.0,350,4,,6.21,29.793306,,,,,,TRUE,,,,,SCT,2000,,,,,,,VFR,,,,,,,,,,,,METAR,3.0
WAQQ 231100Z 07003KT 8000 FEW015CB SCT015 29/25 Q1008 NOSIG,WAQQ,2022-10-23T11:00:00Z,3.33,117.57,29.0,25.0,70,3,,4.97,29.763779,,,,,,TRUE,,,,,FEW,1500,SCT,1500,,,,,MVFR,,,,,,,,,,,,METAR,6.0
WAPP 231100Z 35006KT CAVOK 27/25 Q1008 NOSIG,WAPP,2022-10-23T11:00:00Z,-3.7,128.08,27.0,25.0,350,6,,6.21,29.763779,,,,,,TRUE,,,,,CAVOK,,,,,,,,VFR,,,,,,,,,,,,METAR,20.0
WAOO 231100Z 25003KT 9999 FEW017 28/25 Q1008 NOSIG,WAOO,2022-10-23T11:00:00Z,-3.45,114.77,28.0,25.0,250,3,,6.21,29.763779,,,,,,TRUE,,,,,FEW,1700,,,,,,,VFR,,,,,,,,,,,,METAR,23.0
WAMM 231100Z VRB01KT 9000 FEW017CB SCT018 25/25 Q1010 NOSIG RMK CB IN CLIMB,WAMM,2022-10-23T11:00:00Z,1.55,124.92,25.0,25.0,0,1,,5.59,29.822834,,,,,,TRUE,,,,,FEW,1700,SCT,1800,,,,,VFR,,,,,,,,,,,,METAR,86.0
WALL 231100Z 18001KT 9999 FEW020 28/26 Q1008 NOSIG,WALL,2022-10-23T11:00:00Z,-1.27,116.9,28.0,26.0,180,1,,6.21,29.763779,,,,,,TRUE,,,,,FEW,2000,,,,,,,VFR,,,,,,,,,,,,METAR,3.0
WAJJ 231100Z 28002KT 9999 SCT012 27/23 Q1007 NOSIG,WAJJ,2022-10-23T11:00:00Z,-2.58,140.52,27.0,23.0,280,2,,6.21,29.734253,,,,,,TRUE,,,,,SCT,1200,,,,,,,VFR,,,,,,,,,,,,METAR,93.0
WAHS 231100Z 29003KT 7000 FEW013CB SCT014 28/25 Q1009 RMK CB TO SE,WAHS,2022-10-23T11:00:00Z,-6.98,110.38,28.0,25.0,290,3,,4.35,29.793306,,,,,,,,,,,FEW,1300,SCT,1400,,,,,MVFR,,,,,,,,,,,,METAR,3.0
WADL 231100Z 00000KT 7000 BKN016 27/25 Q1009 NOSIG,WADL,2022-10-23T11:00:00Z,-8.75,116.28,27.0,25.0,0,0,,4.35,29.793306,,,,,,TRUE,,,,,BKN,1600,,,,,,,MVFR,,,,,,,,,,,,METAR,97.0
WADD 231100Z 25005KT 9999 FEW016 29/26 Q1009 NOSIG,WADD,2022-10-23T11:00:00Z,-8.73,115.17,29.0,26.0,250,5,,6.21,29.793306,,,,,,TRUE,,,,,FEW,1600,,,,,,,VFR,,,,,,,,,,,,METAR,3.0
WAAA 231100Z 03003KT 7000 -RA SCT019 26/24 Q1009 NOSIG,WAAA,2022-10-23T11:00:00Z,-5.07,119.55,26.0,24.0,30,3,,4.35,29.793306,,,,,,TRUE,,,,-RA,SCT,1900,,,,,,,MVFR,,,,,,,,,,,,METAR,13.0
VYYY 231100Z 16010KT 7000 SCT020 FEW025CB 33/24 Q1008,VYYY,2022-10-23T11:00:00Z,16.9,96.13,33.0,24.0,160,10,,4.35,29.763779,,,,,,,,,,,SCT,2000,FEW,2500,,,,,MVFR,,,,,,,,,,,,METAR,31.0
VVTS 231100Z VRB02KT 5000 TSRA SCT015 FEW017CB 27/26 Q1010 TEMPO TL1105 5000 TSRA RMK CB OVER RWY,VVTS,2022-10-23T11:00:00Z,10.82,106.67,27.0,26.0,0,2,,3.11,29.822834,,,,,,,,,,TSRA,SCT,1500,FEW,1700,,,,,MVFR,,,,,,,,,,,,SPECI,10.0
VVPQ 231100Z 16002KT 9999 SCT015 28/25 Q1009 NOSIG,VVPQ,2022-10-23T11:00:00Z,10.23,103.97,28.0,25.0,160,2,,6.21,29.793306,,,,,,TRUE,,,,,SCT,1500,,,,,,,VFR,,,,,,,,,,,,METAR,8.0
VVPB 231100Z 29004KT 9000 FEW013 SCT050 26/24 Q1014 NOSIG,VVPB,2022-10-23T11:00:00Z,16.38,107.7,26.0,24.0,290,4,,5.59,29.940945,,,,,,TRUE,,,,,FEW,1300,SCT,5000,,,,,VFR,,,,,,,,,,,,METAR,15.0
VVNB 231100Z VRB02KT CAVOK 30/22 Q1013 NOSIG,VVNB,2022-10-23T11:00:00Z,21.22,105.8,30.0,22.0,0,2,,6.21,29.911417,,,,,,TRUE,,,,,CAVOK,,,,,,,,VFR,,,,,,,,,,,,METAR,6.0
VVDN 231100Z 02008KT 9999 FEW015 SCT060 27/23 Q1013 NOSIG,VVDN,2022-10-23T11:00:00Z,16.03,108.2,27.0,23.0,20,8,,6.21,29.911417,,,,,,TRUE,,,,,FEW,1500,SCT,6000,,,,,VFR,,,,,,,,,,,,METAR,7.0
VVCT 231100Z VRB03KT 8000 -TSRA SCT013 SCT015CB 26/25 Q1010 NOSIG CB/W/NE,VVCT,2022-10-23T11:00:00Z,10.08,105.72,26.0,25.0,0,3,,4.97,29.822834,,,,,,TRUE,,,,-TSRA,SCT,1300,SCT,1500,,,,,MVFR,,,,,,,,,,,,METAR,6.0
VVCR 231100Z 04012KT 9999 FEW015 27/20 Q1012 NOSIG,VVCR,2022-10-23T11:00:00Z,12.0,109.22,27.0,20.0,40,12,,6.21,29.88189,,,,,,TRUE,,,,,FEW,1500,,,,,,,VFR,,,,,,,,,,,,METAR,12.0
VVCI 231100Z 14004KT 110V170 CAVOK 28/22 Q1013 NOSIG,VVCI,2022-10-23T11:00:00Z,20.82,106.73,28.0,22.0,140,4,,6.21,29.911417,,,,,,TRUE,,,,,CAVOK,,,,,,,,VFR,,,,,,,,,,,,METAR,6.0
VTUW 231100Z 12005KT CAVOK 27/18 Q1011 NOSIG,VTUW,2022-10-23T11:00:00Z,17.38,104.63,27.0,18.0,120,5,,6.21,29.852362,,,,,,TRUE,,,,,CAVOK,,,,,,,,VFR,,,,,,,,,,,,METAR,167.0
VTUV 231100Z 03003KT 9000 NSC 28/21 Q1011 NOSIG,VTUV,2022-10-23T11:00:00Z,16.12,103.78,28.0,21.0,30,3,,5.59,29.852362,,,,,,TRUE,,,,,CLR,,,,,,,,VFR,,,,,,,,,,,,METAR,136.0
VTUU 231100Z 01004KT CAVOK 29/23 Q1010 NOSIG,VTUU,2022-10-23T11:00:00Z,15.25,104.87,29.0,23.0,10,4,,6.21,29.822834,,,,,,TRUE,,,,,CAVOK,,,,,,,,VFR,,,,,,,,,,,,METAR,119.0
VTUQ 231100Z 35003KT 9999 FEW035 26/23 Q1011 NOSIG,VTUQ,2022-10-23T11:00:00Z,14.95,102.32,26.0,23.0,350,3,,6.21,29.852362,,,,,,TRUE,,,,,FEW,3500,,,,,,,VFR,,,,,,,,,,,,METAR,225.0
VTUO 231100Z 05002KT 9000 NSC 28/24 Q1011 NOSIG,VTUO,2022-10-23T11:00:00Z,15.23,103.25,28.0,24.0,50,2,,5.59,29.852362,,,,,,TRUE,,,,,CLR,,,,,,,,VFR,,,,,,,,,,,,METAR,182.0
VTUL 231100Z 00000KT 9999 FEW030 27/22 Q1012 NOSIG,VTUL,2022-10-23T11:00:00Z,17.43,101.72,27.0,22.0,0,0,,6.21,29.88189,,,,,,TRUE,,,,,FEW,3000,,,,,,,VFR,,,,,,,,,,,,METAR,257.0
VTUK 231100Z 06004KT 9000 FEW030 29/17 Q1012 NOSIG,VTUK,2022-10-23T11:00:00Z,16.47,102.78,29.0,17.0,60,4,,5.59,29.88189,,,,,,TRUE,,,,,FEW,3000,,,,,,,VFR,,,,,,,,,,,,METAR,190.0
VTUI 231100Z 11003KT CAVOK 28/22 Q1011 NOSIG,VTUI,2022-10-23T11:00:00Z,17.2,104.12,28.0,22.0,110,3,,6.21,29.852362,,,,,,TRUE,,,,,CAVOK,,,,,,,,VFR,,,,,,,,,,,,METAR,162.0
VTUD 231100Z 10002KT CAVOK 29/17 Q1012 NOSIG,VTUD,2022-10-23T11:00:00Z,17.37,102.78,29.0,17.0,100,2,,6.21,29.88189,,,,,,TRUE,,,,,CAVOK,,,,,,,,VFR,,,,,,,,,,,,METAR,177.0
VTST 231100Z 32003KT 9999 FEW030 28/24 Q1009 NOSIG,VTST,2022-10-23T11:00:00Z,7.52,99.62,28.0,24.0,320,3,,6.21,29.793306,,,,,,TRUE,,,,,FEW,3000,,,,,,,VFR,,,,,,,,,,,,METAR,17.0
VTSS 231100Z 09004KT 9999 FEW020 SCT100 28/24 Q1009 NOSIG,VTSS,2022-10-23T11:00:00Z,6.92,100.38,28.0,24.0,90,4,,6.21,29.793306,,,,,,TRUE,,,,,FEW,2000,SCT,10000,,,,,VFR,,,,,,,,,,,,METAR,28.0
VTSR 231100Z VRB02KT 9999 -RA SCT025 26/23 Q1011 NOSIG,VTSR,2022-10-23T11:00:00Z,9.78,98.58,26.0,23.0,0,2,,6.21,29.852362,,,,,,TRUE,,,,-RA,SCT,2500,,,,,,,VFR,,,,,,,,,,,,METAR,23.0
VTSP 231100Z 30007KT 270V330 9999 FEW018 BKN100 27/24 Q1010 NOSIG,VTSP,2022-10-23T11:00:00Z,8.12,98.32,27.0,24.0,300,7,,6.21,29.822834,,,,,,TRUE,,,,,FEW,1800,BKN,10000,,,,,VFR,,,,,,,,,,,,METAR,12.0
VTSM 231100Z VRB02KT 9999 FEW020 30/25 Q1011 NOSIG,VTSM,2022-10-23T11:00:00Z,9.55,100.07,30.0,25.0,0,2,,6.21,29.852362,,,,,,TRUE,,,,,FEW,2000,,,,,,,VFR,,,,,,,,,,,,METAR,12.0
VTSG 231100Z 02007KT 330V070 7000 -RA FEW017 SCT030 BKN070 25/24 Q1011 NOSIG,VTSG,2022-10-23T11:00:00Z,8.1,98.98,25.0,24.0,20,7,,4.35,29.852362,,,,,,TRUE,,,,-RA,FEW,1700,SCT,3000,BKN,7000,,,MVFR,,,,,,,,,,,,METAR,32.0
VTSF 231100Z 36003KT 9999 FEW018 SCT100 29/26 Q1010 NOSIG,VTSF,2022-10-23T11:00:00Z,8.53,99.95,29.0,26.0,360,3,,6.21,29.822834,,,,,,TRUE,,,,,FEW,1800,SCT,10000,,,,,VFR,,,,,,,,,,,,METAR,6.0
VTSE 231100Z 26007KT 230V290 9000 -RA FEW016CB BKN020 26/25 Q1010 NOSIG,VTSE,2022-10-23T11:00:00Z,10.72,99.37,26.0,25.0,260,7,,5.59,29.822834,,,,,,TRUE,,,,-RA,FEW,1600,BKN,2000,,,,,MVFR,,,,,,,,,,,,METAR,8.0
VTSC 231100Z 00000KT 9999 FEW018 27/23 Q1010 NOSIG,VTSC,2022-10-23T11:00:00Z,6.52,101.75,27.0,23.0,0,0,,6.21,29.822834,,,,,,TRUE,,,,,FEW,1800,,,,,,,VFR,,,,,,,,,,,,METAR,5.0
VTSB 231100Z 00000KT 9999 SCT020 25/23 Q1011 NOSIG,VTSB,2022-10-23T11:00:00Z,9.12,99.15,25.0,23.0,0,0,,6.21,29.852362,,,,,,TRUE,,,,,SCT,2000,,,,,,,VFR,,,,,,,,,,,,METAR,10.0
VTPP 231100Z 27003KT CAVOK 30/20 Q1011 NOSIG,VTPP,2022-10-23T11:00:00Z,16.78,100.28,30.0,20.0,270,3,,6.21,29.852362,,,,,,TRUE,,,,,CAVOK,,,,,,,,VFR,,,,,,,,,,,,METAR,45.0
VTPO 231100Z VRB02KT 9999 FEW025 32/21 Q1011 NOSIG,VTPO,2022-10-23T11:00:00Z,17.23,99.82,32.0,21.0,0,2,,6.21,29.852362,,,,,,TRUE,,,,,FEW,2500,,,,,,,VFR,,,,,,,,,,,,METAR,58.0
VTPM 231100Z 06006KT 9999 FEW045 SCT065 29/20 Q1011 NOSIG,VTPM,2022-10-23T11:00:00Z,16.7,98.53,29.0,20.0,60,6,,6.21,29.852362,,,,,,TRUE,,,,,FEW,4500,SCT,6500,,,,,VFR,,,,,,,,,,,,METAR,211.0
VTPH 231100Z 00000KT 9999 FEW030 28/24 Q1010 NOSIG,VTPH,2022-10-23T11:00:00Z,12.63,99.95,28.0,24.0,0,0,,6.21,29.822834,,,,,,TRUE,,,,,FEW,3000,,,,,,,VFR,,,,,,,,,,,,METAR,12.0
VTPB 231100Z 00000KT 9999 FEW030 28/21 Q1011 NOSIG,VTPB,2022-10-23T11:00:00Z,16.67,101.2,28.0,21.0,0,0,,6.21,29.852362,,,,,,TRUE,,,,,FEW,3000,,,,,,,VFR,,,,,,,,,,,,METAR,134.0
VTCT 231100Z 00000KT CAVOK 28/21 Q1013 NOSIG,VTCT,2022-10-23T11:00:00Z,19.95,99.88,28.0,21.0,0,0,,6.21,29.911417,,,,,,TRUE,,,,,CAVOK,,,,,,,,VFR,,,,,,,,,,,,METAR,389.0
VTCP 231100Z VRB01KT CAVOK 29/23 Q1011 NOSIG,VTCP,2022-10-23T11:00:00Z,18.13,100.17,29.0,23.0,0,1,,6.21,29.852362,,,,,,TRUE,,,,,CAVOK,,,,,,,,VFR,,,,,,,,,,,,METAR,166.0
VTCN 231100Z 30001KT CAVOK 27/24 Q1012 NOSIG,VTCN,2022-10-23T11:00:00Z,18.82,100.78,27.0,24.0,300,1,,6.21,29.88189,,,,,,TRUE,,,,,CAVOK,,,,,,,,VFR,,,,,,,,,,,,METAR,211.0
VTCL 231100Z 19003KT 9999 SCT025 29/21 Q1012 NOSIG,VTCL,2022-10-23T11:00:00Z,18.27,99.52,29.0,21.0,190,3,,6.21,29.88189,,,,,,TRUE,,,,,SCT,2500,,,,,,,VFR,,,,,,,,,,,,METAR,240.0
VTCH 231100Z 11003KT 070V140 9999 FEW020TCU SCT025 29/24 Q1011 NOSIG,VTCH,2022-10-23T11:00:00Z,19.3,97.98,29.0,24.0,110,3,,6.21,29.852362,,,,,,TRUE,,,,,FEW,2000,SCT,2500,,,,,VFR,,,,,,,,,,,,METAR,266.0
VTCC 231100Z 31004KT 9999 -RA FEW025CB BKN035 24/23 Q1013 NOSIG,VTCC,2022-10-23T11:00:00Z,18.77,98.97,24.0,23.0,310,4,,6.21,29.911417,,,,,,TRUE,,,,-RA,FEW,2500,BKN,3500,,,,,VFR,,,,,,,,,,,,METAR,308.0
VTBU 231100Z 32004KT 6000 FEW020 28/24 Q1010 NOSIG,VTBU,2022-10-23T11:00:00Z,12.68,101.0,28.0,24.0,320,4,,3.73,29.822834,,,,,,TRUE,,,,,FEW,2000,,,,,,,MVFR,,,,,,,,,,,,METAR,12.0
VTBS 231100Z 25006KT 9999 VCSH FEW020CB SCT045 30/24 Q1010 NOSIG,VTBS,2022-10-23T11:00:00Z,13.68,100.75,30.0,24.0,250,6,,6.21,29.822834,,,,,,TRUE,,,,VCSH,FEW,2000,SCT,4500,,,,,VFR,,,,,,,,,,,,METAR,1.0
VTBO 231100Z 00000KT 9999 FEW025 29/26 Q1009,VTBO,2022-10-23T11:00:00Z,12.28,102.32,29.0,26.0,0,0,,6.21,29.793306,,,,,,,,,,,FEW,2500,,,,,,,VFR,,,,,,,,,,,,METAR,25.0
VTBD 231100Z 33006KT 300V010 9999 FEW020 30/22 Q1010 NOSIG,VTBD,2022-10-23T11:00:00Z,13.92,100.6,30.0,22.0,330,6,,6.21,29.822834,,,,,,TRUE,,,,,FEW,2000,,,,,,,VFR,,,,,,,,,,,,METAR,6.0
"VRMM 231100Z 24013KT 9999 SCT016 FEW017CB OVC100 27/24 Q1010 CB ENE,S TEMPO 4000 SHRA",VRMM,2022-10-23T11:00:00Z,4.2,73.52,27.0,24.0,240,13,,6.21,29.822834,,,,,,,,,,,SCT,1600,FEW,1700,OVC,10000,,,VFR,,,,,,,,,,,,SPECI,2.0
VRMH 231100Z 24009KT 9999 FEW017TCU BKN250 29/26 Q1010,VRMH,2022-10-23T11:00:00Z,6.75,73.17,29.0,26.0,240,9,,6.21,29.822834,,,,,,,,,,,FEW,1700,BKN,25000,,,,,VFR,,,,,,,,,,,,METAR,1.0
VRMG 231100Z 21006KT 9999 FEW018 FEW019CB BKN270 30/25 Q1011 CB SSW NOSIG,VRMG,2022-10-23T11:00:00Z,-0.7,73.15,30.0,25.0,210,6,,6.21,29.852362,,,,,,TRUE,,,,,FEW,1800,FEW,1900,BKN,27000,,,VFR,,,,,,,,,,,,METAR,3.0
VQPR 231100Z 17006G16KT 9999 SCT040 BKN070 19/03 Q1024,VQPR,2022-10-23T11:00:00Z,27.4,89.43,19.0,3.0,170,6,16,6.21,30.236221,,,,,,,,,,,SCT,4000,BKN,7000,,,,,VFR,,,,,,,,,,,,METAR,2227.0
VOVZ 231100Z 03007KT 5000 HZ FEW018 BKN220 31/20 Q1006 NOSIG,VOVZ,2022-10-23T11:00:00Z,17.72,83.22,31.0,20.0,30,7,,3.11,29.704725,,,,,,TRUE,,,,HZ,FEW,1800,BKN,22000,,,,,MVFR,,,,,,,,,,,,METAR,4.0
VOTV 231100Z 26005KT 6000 FEW015 FEW025CB BKN080 29/24 Q1010 NOSIG,VOTV,2022-10-23T11:00:00Z,8.48,76.92,29.0,24.0,260,5,,3.73,29.822834,,,,,,TRUE,,,,,FEW,1500,FEW,2500,BKN,8000,,,MVFR,,,,,,,,,,,,METAR,9.0
VOTR 231100Z 29006KT 4000 HZ FEW016 SCT100 FEW025TCU 32/24 Q1008 NOSIG,VOTR,2022-10-23T11:00:00Z,10.77,78.72,32.0,24.0,290,6,,2.49,29.763779,,,,,,TRUE,,,,HZ,FEW,1600,SCT,10000,FEW,2500,,,IFR,,,,,,,,,,,,METAR,90.0
VOTP 231100Z 35010KT 6000 FEW020 32/14 Q1008 NOSIG,VOTP,2022-10-23T11:00:00Z,13.63,79.55,32.0,14.0,350,10,,3.73,29.763779,,,,,,TRUE,,,,,FEW,2000,,,,,,,MVFR,,,,,,,,,,,,METAR,103.0
VOTK 231100Z 16004KT 5000 HZ FEW020 BKN100 30/24 Q1009 NOSIG,VOTK,2022-10-23T11:00:00Z,8.72,78.02,30.0,24.0,160,4,,3.11,29.793306,,,,,,TRUE,,,,HZ,FEW,2000,BKN,10000,,,,,MVFR,,,,,,,,,,,,METAR,25.0
VORY 231100Z 27004KT 6000 FEW020 BKN090 33/21 Q1007 NOSIG,VORY,2022-10-23T11:00:00Z,17.1,81.82,33.0,21.0,270,4,,3.73,29.734253,,,,,,TRUE,,,,,FEW,2000,BKN,9000,,,,,MVFR,,,,,,,,,,,,METAR,47.0
VOMY 231100Z 33005KT 6000 SCT015 28/18 Q1013,VOMY,2022-10-23T11:00:00Z,12.23,76.65,28.0,18.0,330,5,,3.73,29.911417,,,,,,,,,,,SCT,1500,,,,,,,MVFR,,,,,,,,,,,,METAR,727.0
VOMM 231100Z 34007KT 6000 SCT020 33/22 Q1007 TEMPO 5000 HZ,VOMM,2022-10-23T11:00:00Z,13.0,80.17,33.0,22.0,340,7,,3.73,29.734253,,,,,,,,,,,SCT,2000,,,,,,,MVFR,,,,,,,,,,,,METAR,7.0
VOML 231100Z 27008KT 5000 HZ FEW015 31/23 Q1009 NOSIG,VOML,2022-10-23T11:00:00Z,12.97,74.88,31.0,23.0,270,8,,3.11,29.793306,,,,,,TRUE,,,,HZ,FEW,1500,,,,,,,MVFR,,,,,,,,,,,,METAR,100.0
VOMD 231100Z 20002KT 5000 HZ FEW020 FEW025TCU 33/22 Q1009 NOSIG,VOMD,2022-10-23T11:00:00Z,9.83,78.08,33.0,22.0,200,2,,3.11,29.793306,,,,,,TRUE,,,,HZ,FEW,2000,FEW,2500,,,,,MVFR,,,,,,,,,,,,METAR,135.0
VOKN 231100Z 29007KT 6000 SCT012 FEW025CB 31/26 Q1009 TEMPO 5000 BR,VOKN,2022-10-23T11:00:00Z,11.92,75.55,31.0,26.0,290,7,,3.73,29.793306,,,,,,,,,,,SCT,1200,FEW,2500,,,,,MVFR,,,,,,,,,,,,METAR,105.0
VOHY 231100Z 36010KT 6000 NSC 27/11 Q1013 NOSIG,VOHY,2022-10-23T11:00:00Z,17.45,78.47,27.0,11.0,360,10,,3.73,29.911417,,,,,,TRUE,,,,,CLR,,,,,,,,MVFR,,,,,,,,,,,,METAR,540.0
VOHS 231100Z 02008KT 6000 FEW020 27/15 Q1013 NOSIG,VOHS,2022-10-23T11:00:00Z,17.23,78.43,27.0,15.0,20,8,,3.73,29.911417,,,,,,TRUE,,,,,FEW,2000,,,,,,,MVFR,,,,,,,,,,,,METAR,607.0
VOHB 231100Z 03006KT 8000 NSC 29/15 Q1013,VOHB,2022-10-23T11:00:00Z,15.37,75.08,29.0,15.0,30,6,,4.97,29.911417,,,,,,,,,,,CLR,,,,,,,,MVFR,,,,,,,,,,,,METAR,661.0
VOCP 231100Z 34007KT 6000 FEW020 31/12 Q1009 NOSIG,VOCP,2022-10-23T11:00:00Z,14.5,78.77,31.0,12.0,340,7,,3.73,29.793306,,,,,,TRUE,,,,,FEW,2000,,,,,,,MVFR,,,,,,,,,,,,METAR,134.0
VOCL 231100Z 23008KT 6000 SCT012 SCT018 FEW025CB 28/23 Q1009 NOSIG,VOCL,2022-10-23T11:00:00Z,11.13,75.95,28.0,23.0,230,8,,3.73,29.793306,,,,,,TRUE,,,,,SCT,1200,SCT,1800,FEW,2500,,,MVFR,,,,,,,,,,,,METAR,104.0
VOCI 231100Z 26007KT 6000 FEW015 SCT080 29/25 Q1009 NOSIG,VOCI,2022-10-23T11:00:00Z,10.15,76.4,29.0,25.0,260,7,,3.73,29.793306,,,,,,TRUE,,,,,FEW,1500,SCT,8000,,,,,MVFR,,,,,,,,,,,,METAR,8.0
VOCB 231100Z 23009KT 5000 HZ SCT012 FEW020TCU SCT080 29/22 Q1011 NOSIG,VOCB,2022-10-23T11:00:00Z,11.02,77.03,29.0,22.0,230,9,,3.11,29.852362,,,,,,TRUE,,,,HZ,SCT,1200,FEW,2000,SCT,8000,,,MVFR,,,,,,,,,,,,METAR,394.0
VOBZ 231100Z 31006KT 6000 NSC 31/21 Q1007 NOSIG,VOBZ,2022-10-23T11:00:00Z,16.52,80.78,31.0,21.0,310,6,,3.73,29.734253,,,,,,TRUE,,,,,CLR,,,,,,,,MVFR,,,,,,,,,,,,METAR,26.0
VOBM 231100Z 03005KT CAVOK 27/11 Q1015,VOBM,2022-10-23T11:00:00Z,15.85,74.62,27.0,11.0,30,5,,6.21,29.970472,,,,,,,,,,,CAVOK,,,,,,,,VFR,,,,,,,,,,,,METAR,758.0
VOBL 231100Z 30012KT 8000 FEW012 26/12 Q1014 NOSIG,VOBL,2022-10-23T11:00:00Z,13.2,77.7,26.0,12.0,300,12,,4.97,29.940945,,,,,,TRUE,,,,,FEW,1200,,,,,,,MVFR,,,,,,,,,,,,METAR,908.0
VOBG 231100Z 32006KT 6000 SCT012 27/15 Q1014 NOSIG,VOBG,2022-10-23T11:00:00Z,12.95,77.65,27.0,15.0,320,6,,3.73,29.940945,,,,,,TRUE,,,,,SCT,1200,,,,,,,MVFR,,,,,,,,,,,,METAR,884.0
VNKT 231100Z 29008KT 9999 FEW025 SCT040 24/09 Q1020 NOSIG,VNKT,2022-10-23T11:00:00Z,27.68,85.37,24.0,9.0,290,8,,6.21,30.11811,,,,,,TRUE,,,,,FEW,2500,SCT,4000,,,,,VFR,,,,,,,,,,,,METAR,1334.0
VMMC 231100Z 11015KT 9999 FEW015 25/23 Q1013 NOSIG,VMMC,2022-10-23T11:00:00Z,22.15,113.58,25.0,23.0,110,15,,6.21,29.911417,,,,,,TRUE,,,,,FEW,1500,,,,,,,VFR,,,,,,,,,,,,METAR,1.0
VLVT 231100Z 00000KT 6000 FEW200 28/20 Q1011 NOSIG,VLVT,2022-10-23T11:00:00Z,17.98,102.57,28.0,20.0,0,0,,3.73,29.852362,,,,,,TRUE,,,,,FEW,20000,,,,,,,MVFR,,,,,,,,,,,,METAR,171.0
VLSK 231100Z 36006KT 8000 SCT040 30/17 Q1012 NOSIG,VLSK,2022-10-23T11:00:00Z,16.55,104.75,30.0,17.0,360,6,,4.97,29.88189,,,,,,TRUE,,,,,SCT,4000,,,,,,,MVFR,,,,,,,,,,,,METAR,148.0
VLPS 231100Z 36002KT 9999 FEW030 BKN100 30/23 Q1010 NOSIG,VLPS,2022-10-23T11:00:00Z,15.13,105.78,30.0,23.0,360,2,,6.21,29.822834,,,,,,TRUE,,,,,FEW,3000,BKN,10000,,,,,VFR,,,,,,,,,,,,METAR,102.0
VLLN 231100Z 18002KT 8000 FEW020 FEW100 27/22 Q1014 NOSIG,VLLN,2022-10-23T11:00:00Z,20.97,101.4,27.0,22.0,180,2,,4.97,29.940945,,,,,,TRUE,,,,,FEW,2000,FEW,10000,,,,,MVFR,,,,,,,,,,,,METAR,548.0
VLLB 231100Z 36002KT 9999 FEW027 SCT060 29/19 Q1011 NOSIG,VLLB,2022-10-23T11:00:00Z,19.9,102.17,29.0,19.0,360,2,,6.21,29.852362,,,,,,TRUE,,,,,FEW,2700,SCT,6000,,,,,VFR,,,,,,,,,,,,METAR,297.0
VILK 231100Z VRB02KT 5000 HZ FEW020 30/21 Q1012 NOSIG,VILK,2022-10-23T11:00:00Z,26.75,80.88,30.0,21.0,0,2,,3.11,29.88189,,,,,,TRUE,,,,HZ,FEW,2000,,,,,,,MVFR,,,,,,,,,,,,METAR,121.0
VIJP 231100Z 04003KT 4000 HZ NSC 31/11 Q1015 NOSIG,VIJP,2022-10-23T11:00:00Z,26.82,75.8,31.0,11.0,40,3,,2.49,29.970472,,,,,,TRUE,,,,HZ,CLR,,,,,,,,IFR,,,,,,,,,,,,METAR,383.0
VIDP 231100Z 25004KT 3000 HZ NSC 30/09 Q1014 NOSIG,VIDP,2022-10-23T11:00:00Z,28.57,77.12,30.0,9.0,250,4,,1.86,29.940945,,,,,,TRUE,,,,HZ,CLR,,,,,,,,IFR,,,,,,,,,,,,METAR,236.0
VIAR 231100Z 30006KT 6000 NSC 29/10 Q1015 NOSIG,VIAR,2022-10-23T11:00:00Z,31.7,74.8,29.0,10.0,300,6,,3.73,29.970472,,,,,,TRUE,,,,,CLR,,,,,,,,MVFR,,,,,,,,,,,,METAR,226.0
VHHH 231100Z 10013KT 9999 FEW018 26/20 Q1013 NOSIG,VHHH,2022-10-23T11:00:00Z,22.32,113.92,26.0,20.0,100,13,,6.21,29.911417,,,,,,TRUE,,,,,FEW,1800,,,,,,,VFR,,,,,,,,,,,,METAR,9.0
VGHS 231100Z 24006KT 3500 HZ SCT010 BKN100 29/24 Q1009 TEMPO RA,VGHS,2022-10-23T11:00:00Z,23.85,90.4,29.0,24.0,240,6,,2.17,29.793306,,,,,,,,,,HZ,SCT,1000,BKN,10000,,,,,IFR,,,,,,,,,,,,METAR,11.0
VGEG 231100Z 33010KT 4000 RERA SCT016 FEW028CB OVC100 27/25 Q1008 NOSIG,VGEG,2022-10-23T11:00:00Z,22.23,91.82,27.0,25.0,330,10,,2.49,29.763779,,,,,,TRUE,,,,,SCT,1600,FEW,2800,OVC,10000,,,IFR,,,,,,,,,,,,METAR,7.0
VERU 231100Z 09005KT 5000 BR SCT020 BKN100 28/24 Q1010 NOSIG,VERU,2022-10-23T11:00:00Z,26.13,89.92,28.0,24.0,90,5,,3.11,29.822834,,,,,,TRUE,,,,BR,SCT,2000,BKN,10000,,,,,MVFR,,,,,,,,,,,,METAR,45.0
VERP 231100Z 02008KT 5000 HZ NSC 29/16 Q1011 NOSIG,VERP,2022-10-23T11:00:00Z,21.18,81.73,29.0,16.0,20,8,,3.11,29.852362,,,,,,TRUE,,,,HZ,CLR,,,,,,,,MVFR,,,,,,,,,,,,METAR,318.0
VERC 231100Z 36008KT 5000 HZ FEW020 SCT100 26/15 Q1013 NOSIG,VERC,2022-10-23T11:00:00Z,23.32,85.32,26.0,15.0,360,8,,3.11,29.911417,,,,,,TRUE,,,,HZ,FEW,2000,SCT,10000,,,,,MVFR,,,,,,,,,,,,METAR,646.0
VEPT 231100Z 30004KT 5000 HZ FEW020 SCT100 32/17 Q1009 NOSIG,VEPT,2022-10-23T11:00:00Z,25.6,85.08,32.0,17.0,300,4,,3.11,29.793306,,,,,,TRUE,,,,HZ,FEW,2000,SCT,10000,,,,,MVFR,,,,,,,,,,,,METAR,53.0
VEMN 231100Z 00000KT 4000 BR SCT018 BKN100 27/21 Q1011 NOSIG,VEMN,2022-10-23T11:00:00Z,27.47,95.02,27.0,21.0,0,0,,2.49,29.852362,,,,,,TRUE,,,,BR,SCT,1800,BKN,10000,,,,,IFR,,,,,,,,,,,,METAR,111.0
VELR 231100Z 08002KT 6000 FEW010 SCT020 OVC080 27/23 Q1011,VELR,2022-10-23T11:00:00Z,27.3,94.1,27.0,23.0,80,2,,3.73,29.852362,,,,,,,,,,,FEW,1000,SCT,2000,OVC,8000,,,MVFR,,,,,,,,,,,,METAR,101.0
VEKI 231100Z 26005KT 5000 HZ NSC 29/19 Q1011 NOSIG,VEKI,2022-10-23T11:00:00Z,,,29.0,19.0,260,5,,3.11,29.852362,,,,,,TRUE,,,,HZ,CLR,,,,,,,,MVFR,,,,,,,,,,,,METAR,
VEJS 231100Z 05004KT 5000 HZ SCT020 BKN100 32/16 Q1009,VEJS,2022-10-23T11:00:00Z,22.82,86.17,32.0,16.0,50,4,,3.11,29.793306,,,,,,,,,,HZ,SCT,2000,BKN,10000,,,,,MVFR,,,,,,,,,,,,METAR,151.0
VEJR 231100Z 05005KT 5000 HZ SCT100 28/16 Q1011,VEJR,2022-10-23T11:00:00Z,19.07,82.03,28.0,16.0,50,5,,3.11,29.852362,,,,,,,,,,HZ,SCT,10000,,,,,,,MVFR,,,,,,,,,,,,METAR,555.0
VEJH 231100Z 04004KT 4500 HZ BKN100 30/19 Q1010,VEJH,2022-10-23T11:00:00Z,21.92,84.03,30.0,19.0,40,4,,2.8,29.822834,,,,,,,,,,HZ,BKN,10000,,,,,,,IFR,,,,,,,,,,,,METAR,231.0
VEIM 231100Z 02003KT 4000 BR SCT018 BKN100 25/21 Q1015 NOSIG,VEIM,2022-10-23T11:00:00Z,24.77,93.9,25.0,21.0,20,3,,2.49,29.970472,,,,,,TRUE,,,,BR,SCT,1800,BKN,10000,,,,,IFR,,,,,,,,,,,,METAR,777.0
VEGY 231100Z 00000KT 4000 HZ SCT100 30/21 Q1011 NOSIG,VEGY,2022-10-23T11:00:00Z,24.75,84.95,30.0,21.0,0,0,,2.49,29.852362,,,,,,TRUE,,,,HZ,SCT,10000,,,,,,,IFR,,,,,,,,,,,,METAR,115.0
VEGT 231100Z 01002KT 3000 BR SCT018 BKN100 27/24 Q1011 NOSIG,VEGT,2022-10-23T11:00:00Z,26.1,91.58,27.0,24.0,10,2,,1.86,29.852362,,,,,,TRUE,,,,BR,SCT,1800,BKN,10000,,,,,IFR,,,,,,,,,,,,METAR,50.0
VEDO 231100Z 32003KT 5000 HZ SCT100 29/16 Q1011 NOSIG,VEDO,2022-10-23T11:00:00Z,,,29.0,16.0,320,3,,3.11,29.852362,,,,,,TRUE,,,,HZ,SCT,10000,,,,,,,MVFR,,,,,,,,,,,,METAR,
VEDG 231100Z 08003KT 4500 HZ SCT020 BKN090 30/22 Q1009 NOSIG,VEDG,2022-10-23T11:00:00Z,23.62,87.25,30.0,22.0,80,3,,2.8,29.793306,,,,,,TRUE,,,,HZ,SCT,2000,BKN,9000,,,,,IFR,,,,,,,,,,,,METAR,88.0
VECO 231100Z 00000KT 6000 FEW025 29/22 Q1010,VECO,2022-10-23T11:00:00Z,26.33,89.47,29.0,22.0,0,0,,3.73,29.822834,,,,,,,,,,,FEW,2500,,,,,,,MVFR,,,,,,,,,,,,METAR,48.0
VECC 231100Z 12004KT 2800 HZ SCT018 BKN090 28/24 Q1008 BECMG 3000 HZ,VECC,2022-10-23T11:00:00Z,22.65,88.43,28.0,24.0,120,4,,1.74,29.763779,,,,,,,,,,HZ,SCT,1800,BKN,9000,,,,,IFR,,,,,,,,,,,,METAR,11.0
VEBS 231100Z 02005KT 3500 HZ SCT018 SCT100 28/25 Q1008 NOSIG,VEBS,2022-10-23T11:00:00Z,20.25,85.82,28.0,25.0,20,5,,2.17,29.763779,,,,,,TRUE,,,,HZ,SCT,1800,SCT,10000,,,,,IFR,,,,,,,,,,,,METAR,42.0
VEBN 231100Z 34004KT 4000 HZ NSC 31/19 Q1011 NOSIG,VEBN,2022-10-23T11:00:00Z,25.45,82.85,31.0,19.0,340,4,,2.49,29.852362,,,,,,TRUE,,,,HZ,CLR,,,,,,,,IFR,,,,,,,,,,,,METAR,81.0
VEAT 231100Z 00000KT 3000 BR FEW018 FEW030CB BKN100 28/26 Q1009 NOSIG,VEAT,2022-10-23T11:00:00Z,23.88,91.25,28.0,26.0,0,0,,1.86,29.793306,,,,,,TRUE,,,,BR,FEW,1800,FEW,3000,BKN,10000,,,IFR,,,,,,,,,,,,METAR,20.0
VDSV 231100Z 22003KT 9999 FEW015 28/25 Q1009,VDSV,2022-10-23T11:00:00Z,10.58,103.63,28.0,25.0,220,3,,6.21,29.793306,,,,,,,,,,,FEW,1500,,,,,,,VFR,,,,,,,,,,,,METAR,1.0
VDSR 231100Z 23005KT 9000 SCT015 28/25 Q1008,VDSR,2022-10-23T11:00:00Z,13.42,103.8,28.0,25.0,230,5,,5.59,29.763779,,,,,,,,,,,SCT,1500,,,,,,,VFR,,,,,,,,,,,,METAR,16.0
VDPP 231100Z 04006KT 9999 SCT015 FEW017CB 30/25 Q1009 RMK CB:E,VDPP,2022-10-23T11:00:00Z,11.55,104.83,30.0,25.0,40,6,,6.21,29.793306,,,,,,,,,,,SCT,1500,FEW,1700,,,,,VFR,,,,,,,,,,,,SPECI,10.0
VAUD 231100Z 05005KT 6000 NSC 31/07 Q1015 NOSIG,VAUD,2022-10-23T11:00:00Z,24.62,73.9,31.0,7.0,50,5,,3.73,29.970472,,,,,,TRUE,,,,,CLR,,,,,,,,MVFR,,,,,,,,,,,,METAR,506.0
VASU 231100Z 12005KT 6000 NSC 32/13 Q1011 NOSIG,VASU,2022-10-23T11:00:00Z,21.12,72.73,32.0,13.0,120,5,,3.73,29.852362,,,,,,TRUE,,,,,CLR,,,,,,,,MVFR,,,,,,,,,,,,METAR,6.0
VASD 231100Z 07007KT 5000 HZ NSC 28/07 Q1014 NOSIG,VASD,2022-10-23T11:00:00Z,19.68,74.38,28.0,7.0,70,7,,3.11,29.940945,,,,,,TRUE,,,,HZ,CLR,,,,,,,,MVFR,,,,,,,,,,,,METAR,587.0
VARK 231100Z 07004KT 6000 NSC 36/13 Q1012 NOSIG,VARK,2022-10-23T11:00:00Z,22.3,70.77,36.0,13.0,70,4,,3.73,29.88189,,,,,,TRUE,,,,,CLR,,,,,,,,MVFR,,,,,,,,,,,,METAR,125.0
VAOZ 231100Z 05008KT 6000 NSC 28/07 Q1015 NOSIG,VAOZ,2022-10-23T11:00:00Z,20.12,73.92,28.0,7.0,50,8,,3.73,29.970472,,,,,,TRUE,,,,,CLR,,,,,,,,MVFR,,,,,,,,,,,,METAR,598.0
VAKE 231100Z 09008KT 5000 FU NSC 35/09 Q1012 NOSIG,VAKE,2022-10-23T11:00:00Z,23.13,70.12,35.0,9.0,90,8,,3.11,29.88189,,,,,,TRUE,,,,FU,CLR,,,,,,,,MVFR,,,,,,,,,,,,METAR,29.0
VAJJ 231100Z 04006KT 5000 FU FEW020 32/12 Q1010 NOSIG,VAJJ,2022-10-23T11:00:00Z,19.08,72.83,32.0,12.0,40,6,,3.11,29.822834,,,,,,TRUE,,,,FU,FEW,2000,,,,,,,MVFR,,,,,,,,,,,,METAR,1.0
VAJB 231100Z 36006KT 4000 HZ 28/15 Q1013 NOSIG,VAJB,2022-10-23T11:00:00Z,23.18,80.05,28.0,15.0,360,6,,2.49,29.911417,,,,,,TRUE,,,,HZ,,,,,,,,,,,,,,,,,,,,,METAR,489.0
VAID 231100Z 05008KT 6000 NSC 29/09 Q1015 NOSIG,VAID,2022-10-23T11:00:00Z,22.72,75.8,29.0,9.0,50,8,,3.73,29.970472,,,,,,TRUE,,,,,CLR,,,,,,,,MVFR,,,,,,,,,,,,METAR,564.0
VABP 231100Z 33009KT 6000 NSC 30/04 Q1014 NOSIG,VABP,2022-10-23T11:00:00Z,23.28,77.33,30.0,4.0,330,9,,3.73,29.940945,,,,,,TRUE,,,,,CLR,,,,,,,,MVFR,,,,,,,,,,,,METAR,520.0
VABO 231100Z 05005KT 6000 NSC 34/14 Q1012 NOSIG,VABO,2022-10-23T11:00:00Z,22.33,73.22,34.0,14.0,50,5,,3.73,29.88189,,,,,,TRUE,,,,,CLR,,,,,,,,MVFR,,,,,,,,,,,,METAR,36.0
VABB 231100Z 02009KT 5000 FU FEW020 33/11 Q1010 NOSIG,VABB,2022-10-23T11:00:00Z,19.1,72.87,33.0,11.0,20,9,,3.11,29.822834,,,,,,TRUE,,,,FU,FEW,2000,,,,,,,MVFR,,,,,,,,,,,,METAR,14.0
VAAH 231100Z 05007KT 6000 NSC 36/14 Q1012 NOSIG,VAAH,2022-10-23T11:00:00Z,23.07,72.63,36.0,14.0,50,7,,3.73,29.88189,,,,,,TRUE,,,,,CLR,,,,,,,,MVFR,,,,,,,,,,,,METAR,52.0
UWWW 231100Z 19005MPS 9999 SCT033 03/M02 Q1024 R15/CLRD60 NOSIG RMK QFE756/1008,UWWW,2022-10-23T11:00:00Z,53.5,50.17,3.0,-2.0,190,10,,6.21,30.236221,,,,,,TRUE,,,,,SCT,3300,,,,,,,VFR,,,,,,,,,,,,SPECI,124.0
UWUU 231100Z 19004MPS 150V230 9999 BKN040 04/M05 Q1026 R14R/0///60 NOSIG,UWUU,2022-10-23T11:00:00Z,54.57,55.87,4.0,-5.0,190,8,,6.21,30.295275,,,,,,TRUE,,,,,BKN,4000,,,,,,,VFR,,,,,,,,,,,,SPECI,137.0
UWSG 231100Z 18004MPS 130V210 9999 SCT029 08/02 Q1023 R26/CLRD70 NOSIG RMK QFE765/1020,UWSG,2022-10-23T11:00:00Z,51.72,46.17,8.0,2.0,180,8,,6.21,30.206694,,,,,,TRUE,,,,,SCT,2900,,,,,,,VFR,,,,,,,,,,,,METAR,31.0
UWPS 231100Z 19006MPS 9999 BKN021 05/02 Q1020 R20/CLRD60 NOSIG RMK QFE747,UWPS,2022-10-23T11:00:00Z,54.12,45.2,5.0,2.0,190,12,,6.21,30.11811,,,,,,TRUE,,,,,BKN,2100,,,,,,,MVFR,,,,,,,,,,,,METAR,206.0
UWOR 231100Z 26004MPS CAVOK 02/M04 Q1029 R25/CLRD65 NOSIG RMK QFE748/0998,UWOR,2022-10-23T11:00:00Z,51.07,58.6,2.0,-4.0,260,8,,6.21,30.383858,,,,,,TRUE,,,,,CAVOK,,,,,,,,VFR,,,,,,,,,,,,METAR,270.0
UWOO 231100Z 18005MPS CAVOK 05/M04 Q1029 R26/65D NOSIG RMK QFE761/1015,UWOO,2022-10-23T11:00:00Z,51.8,55.47,5.0,-4.0,180,10,,6.21,30.383858,,,,,,TRUE,,,,,CAVOK,,,,,,,,VFR,,,,,,,,,,,,METAR,90.0
UWLW 231100Z 20006MPS CAVOK 05/01 Q1022 R20/CLRD60 NOSIG RMK QFE761/1015,UWLW,2022-10-23T11:00:00Z,54.4,48.8,5.0,1.0,200,12,,6.21,30.177166,,,,,,TRUE,,,,,CAVOK,,,,,,,,VFR,,,,,,,,,,,,SPECI,67.0
UWLL 231100Z 19006MPS 9999 BKN045CB 05/02 Q1022 R20/090065 NOSIG RMK QFE756/1008,UWLL,2022-10-23T11:00:00Z,54.27,48.23,5.0,2.0,190,12,,6.21,30.177166,,,,,,TRUE,,,,,BKN,4500,,,,,,,VFR,,,,,,,,,,,,METAR,119.0
UWKS 231100Z 20007MPS 9999 BKN047 04/M02 Q1018 R24/010060 NOSIG RMK QFE749,UWKS,2022-10-23T11:00:00Z,56.08,47.35,4.0,-2.0,200,14,,6.21,30.059055,,,,,,TRUE,,,,,BKN,4700,,,,,,,VFR,,,,,,,,,,,,METAR,165.0
UWKE 231100Z 20005MPS 9999 OVC043 02/M02 Q1022 R21/090070 NOSIG RMK QFE750/1000,UWKE,2022-10-23T11:00:00Z,55.57,52.08,2.0,-2.0,200,10,,6.21,30.177166,,,,,,TRUE,,,,,OVC,4300,,,,,,,VFR,,,,,,,,,,,,SPECI,193.0
UWKD 231100Z 18005MPS 9999 OVC049 05/M00 Q1020 R29/60D NOSIG RMK QFE754/1005,UWKD,2022-10-23T11:00:00Z,55.62,49.28,5.0,0.0,180,10,,6.21,30.11811,,,,,,TRUE,,,,,OVC,4900,,,,,,,VFR,,,,,,,,,,,,METAR,114.0
UWGG 231100Z 21007MPS 9999 BKN040 08/02 Q1015 R18L/090060 NOSIG,UWGG,2022-10-23T11:00:00Z,56.23,43.78,8.0,2.0,210,14,,6.21,29.970472,,,,,,TRUE,,,,,BKN,4000,,,,,,,VFR,,,,,,,,,,,,METAR,73.0
UUYY 231100Z 21006MPS 9999 SCT026CB BKN041 02/M01 Q1004 R18/61D NOSIG RMK QFE745/0993,UUYY,2022-10-23T11:00:00Z,61.65,50.83,2.0,-1.0,210,12,,6.21,29.64567,,,,,,TRUE,,,,,SCT,2600,BKN,4100,,,,,VFR,,,,,,,,,,,,METAR,107.0
UUWW 231100Z 14004MPS 7000 OVC005 05/03 Q1011 R24/000070 NOSIG,UUWW,2022-10-23T11:00:00Z,55.6,37.27,5.0,3.0,140,8,,4.35,29.852362,,,,,,TRUE,,,,,OVC,500,,,,,,,IFR,,,,,,,,,,,,METAR,195.0
UUOO 231100Z 14004MPS 9999 -RA BKN018 09/07 Q1015 R12/010070 NOSIG RMK QFE747,UUOO,2022-10-23T11:00:00Z,51.82,39.23,9.0,7.0,140,8,,6.21,29.970472,,,,,,TRUE,,,,-RA,BKN,1800,,,,,,,MVFR,,,,,,,,,,,,SPECI,154.0
UUOL 231100Z 14005MPS 9999 -RA OVC024 08/06 Q1015 R15/290150 NOSIG,UUOL,2022-10-23T11:00:00Z,52.7,39.53,8.0,6.0,140,10,,6.21,29.970472,,,,,,TRUE,,,,-RA,OVC,2400,,,,,,,MVFR,,,,,,,,,,,,METAR,176.0
UUOK 231100Z 18004MPS 150V210 9000 -RA OVC003 09/08 Q1012 R12/190055 NOSIG RMK QBB110 QFE741/0989,UUOK,2022-10-23T11:00:00Z,51.75,36.28,9.0,8.0,180,8,,5.59,29.88189,,,,,,TRUE,,,,-RA,OVC,300,,,,,,,LIFR,,,,,,,,,,,,METAR,203.0
UUOB 231100Z 17005MPS 7000 -RA BKN007 OVC/// 10/09 Q1014 R11/290060 NOSIG,UUOB,2022-10-23T11:00:00Z,50.65,36.58,10.0,9.0,170,10,,4.35,29.940945,,,,,,TRUE,,,,-RA,BKN,700,,,,,,,IFR,,,,,,,,,,,,METAR,218.0
UUMO 231100Z 16003MPS 6000 OVC006 05/05 Q1012 R25/290050 NOSIG RMK QBB190 QFE743/0991,UUMO,2022-10-23T11:00:00Z,55.52,37.5,5.0,5.0,160,6,,3.73,29.88189,,,,,,TRUE,,,,,OVC,600,,,,,,,IFR,,,,,,,,,,,,METAR,167.0
UUEE 231100Z 18004MPS 9000 OVC009 06/04 Q1011 R24L/CLRD62 R24C/CLRD62 NOSIG,UUEE,2022-10-23T11:00:00Z,55.97,37.42,6.0,4.0,180,8,,5.59,29.852362,,,,,,TRUE,,,,,OVC,900,,,,,,,IFR,,,,,,,,,,,,METAR,186.0
UUDL 231100Z 23004MPS 9999 OVC038 08/02 Q1011 R23/010060 NOSIG RMK QFE750,UUDL,2022-10-23T11:00:00Z,57.57,40.17,8.0,2.0,230,8,,6.21,29.852362,,,,,,TRUE,,,,,OVC,3800,,,,,,,VFR,,,,,,,,,,,,METAR,88.0
UUDD 231100Z 17004MPS 8000 OVC007 06/04 Q1012 R88/60D NOSIG,UUDD,2022-10-23T11:00:00Z,55.4,37.9,6.0,4.0,170,8,,4.97,29.88189,,,,,,TRUE,,,,,OVC,700,,,,,,,IFR,,,,,,,,,,,,METAR,165.0
UUBW 231100Z 14003MPS 9999 OVC010 06/04 Q1012 R30/010060 NOSIG,UUBW,2022-10-23T11:00:00Z,55.55,38.15,6.0,4.0,140,6,,6.21,29.88189,,,,,,TRUE,,,,,OVC,1000,,,,,,,MVFR,,,,,,,,,,,,METAR,111.0
UUBP 231100Z 18002MPS 4700 -RA BR OVC014 08/08 Q1010 R16/////// NOSIG RMK QFE740/0986,UUBP,2022-10-23T11:00:00Z,53.22,34.18,8.0,8.0,180,4,,2.92,29.822834,,,,,,TRUE,,,,-RA BR,OVC,1400,,,,,,,IFR,,,,,,,,,,,,SPECI,197.0
UUBC 231100Z 15003MPS 8000 -RA OVC004 07/06 Q1011 R31/190055 NOSIG RMK QBB120 QFE741/0988,UUBC,2022-10-23T11:00:00Z,54.55,36.37,7.0,6.0,150,6,,4.97,29.852362,,,,,,TRUE,,,,-RA,OVC,400,,,,,,,LIFR,,,,,,,,,,,,METAR,198.0
UTTT 231100Z 32004KT 290V020 9999 SCT060CB 12/08 Q1028 R08L/19//60 NOSIG,UTTT,2022-10-23T11:00:00Z,41.27,69.27,12.0,8.0,320,4,,6.21,30.35433,,,,,,TRUE,,,,,SCT,6000,,,,,,,VFR,,,,,,,,,,,,METAR,429.0
UTST 231100Z 25006KT 220V280 CAVOK 22/05 Q1024 R25/CLRD70 NOSIG,UTST,2022-10-23T11:00:00Z,37.28,67.32,22.0,5.0,250,6,,6.21,30.236221,,,,,,TRUE,,,,,CAVOK,,,,,,,,VFR,,,,,,,,,,,,SPECI,311.0
UTSS 231100Z 31004KT 280V350 9999 BKN013 BKN060CB 13/10 Q1026 R09/290255 NOSIG,UTSS,2022-10-23T11:00:00Z,39.7,66.98,13.0,10.0,310,4,,6.21,30.295275,,,,,,TRUE,,,,,BKN,1300,BKN,6000,,,,,MVFR,,,,,,,,,,,,METAR,665.0
UTSK 231100Z 34010KT 9999 SCT050CB 13/10 Q1026 R34/CLRD70,UTSK,2022-10-23T11:00:00Z,38.8,65.77,13.0,10.0,340,10,,6.21,30.295275,,,,,,,,,,,SCT,5000,,,,,,,VFR,,,,,,,,,,,,SPECI,399.0
UTSB 231100Z 34008KT CAVOK 17/04 Q1026 R01/CLRD70 NOSIG,UTSB,2022-10-23T11:00:00Z,39.77,64.48,17.0,4.0,340,8,,6.21,30.295275,,,,,,TRUE,,,,,CAVOK,,,,,,,,VFR,,,,,,,,,,,,SPECI,225.0
UTSA 231100Z 34004KT 290V360 8000 NSC 16/06 Q1026 R25/CLRD70 NOSIG,UTSA,2022-10-23T11:00:00Z,40.12,65.17,16.0,6.0,340,4,,4.97,30.295275,,,,,,TRUE,,,,,CLR,,,,,,,,MVFR,,,,,,,,,,,,SPECI,346.0
UTNU 231100Z 02006KT CAVOK 14/02 Q1028 R31/CLRD70 NOSIG,UTNU,2022-10-23T11:00:00Z,41.58,60.63,14.0,2.0,20,6,,6.21,30.35433,,,,,,TRUE,,,,,CAVOK,,,,,,,,VFR,,,,,,,,,,,,SPECI,97.0
UTNN 231100Z 08004KT CAVOK 13/M01 Q1029 R33/CLRD60 NOSIG,UTNN,2022-10-23T11:00:00Z,42.48,59.63,13.0,-1.0,80,4,,6.21,30.383858,,,,,,TRUE,,,,,CAVOK,,,,,,,,VFR,,,,,,,,,,,,SPECI,76.0
UTFN 231100Z 36004KT 5000 -SHRA BR OVC050CB 13/09 Q1027 R28/290060 NOSIG,UTFN,2022-10-23T11:00:00Z,40.98,71.57,13.0,9.0,360,4,,3.11,30.324802,,,,,,TRUE,,,,-SHRA BR,OVC,5000,,,,,,,MVFR,,,,,,,,,,,,METAR,477.0
UTFF 231100Z 35008KT 9999 NSC 15/07 Q1027 R18/CLRD70,UTFF,2022-10-23T11:00:00Z,40.37,71.73,15.0,7.0,350,8,,6.21,30.324802,,,,,,,,,,,CLR,,,,,,,,VFR,,,,,,,,,,,,METAR,612.0
UTDT 231100Z 21002MPS 170V250 4400 HZ SCT023 BKN100 23/09 Q1022 R35/CLRD70 RMK QFE727/0969,UTDT,2022-10-23T11:00:00Z,37.87,68.87,23.0,9.0,210,4,,2.73,30.177166,,,,,,,,,,HZ,SCT,2300,BKN,10000,,,,,IFR,,,,,,,,,,,,METAR,443.0
UTDL 231100Z 25007MPS 9999 -SHRA BKN049CB OVC086 11/09 Q1027 R26/29//55 NOSIG RMK QFE732/0976,UTDL,2022-10-23T11:00:00Z,40.22,69.7,11.0,9.0,250,14,,6.21,30.324802,,,,,,TRUE,,,,-SHRA,BKN,4900,OVC,8600,,,,,VFR,,,,,,,,,,,,METAR,436.0
UTDK 231100Z VRB02MPS 4100 HZ BKN025 21/09 Q1025 R01/09//70 RMK QFE710/0947,UTDK,2022-10-23T11:00:00Z,37.98,69.8,21.0,9.0,0,4,,2.55,30.265747,,,,,,,,,,HZ,BKN,2500,,,,,,,IFR,,,,,,,,,,,,METAR,675.0
UTDD 231100Z VRB01MPS 7000 FEW066 BKN130 21/07 Q1024 R09/D NOSIG RMK QFE699/0932,UTDD,2022-10-23T11:00:00Z,38.53,68.82,21.0,7.0,0,2,,4.35,30.236221,,,,,,TRUE,,,,,FEW,6600,BKN,13000,,,,,MVFR,,,,,,,,,,,,METAR,785.0
UTAV 231100Z 36010KT CAVOK 15/08 Q1026 R31/CLRD70 NOSIG,UTAV,2022-10-23T11:00:00Z,39.08,63.62,15.0,8.0,360,10,,6.21,30.295275,,,,,,TRUE,,,,,CAVOK,,,,,,,,VFR,,,,,,,,,,,,METAR,187.0
UTAT 231100Z 12004KT 050V190 CAVOK 15/03 Q1028 R08/CLRD70 NOSIG,UTAT,2022-10-23T11:00:00Z,41.77,59.83,15.0,3.0,120,4,,6.21,30.35433,,,,,,TRUE,,,,,CAVOK,,,,,,,,VFR,,,,,,,,,,,,METAR,84.0
UTAM 231100Z 05010KT CAVOK 20/09 Q1025 R88/CLRD7 NOSIG,UTAM,2022-10-23T11:00:00Z,37.62,61.9,20.0,9.0,50,10,,6.21,30.265747,,,,,,TRUE,,,,,CAVOK,,,,,,,,VFR,,,,,,,,,,,,METAR,218.0
UTAK 231100Z 08010KT 9999 -SHRA SCT033CB OVC100 12/08 Q1024 R16R//50 NOSIG,UTAK,2022-10-23T11:00:00Z,40.05,53.0,12.0,8.0,80,10,,6.21,30.236221,,,,,,TRUE,,,,-SHRA,SCT,3300,OVC,10000,,,,,VFR,,,,,,,,,,,,METAR,83.0
UTAA 231100Z 12008KT 090V150 9999 FEW033CB OVC033 17/09 Q1024 R88/70D NOSIG,UTAA,2022-10-23T11:00:00Z,37.98,58.37,17.0,9.0,120,8,,6.21,30.236221,,,,,,TRUE,,,,,FEW,3300,OVC,3300,,,,,VFR,,,,,,,,,,,,METAR,207.0
USTR 231100Z 25006G11MPS 9999 SCT044 02/M09 Q1019 R30/CLRD65 R21/CLRD65 NOSIG,USTR,2022-10-23T11:00:00Z,57.18,65.32,2.0,-9.0,250,12,21,6.21,30.088583,,,,,,TRUE,,,,,SCT,4400,,,,,,,VFR,,,,,,,,,,,,SPECI,93.0
USSS 231100Z 25007MPS CAVOK 03/M08 Q1021 R26R/010060 R26L/010060 NOSIG RMK QFE745/0993,USSS,2022-10-23T11:00:00Z,56.75,60.78,3.0,-8.0,250,14,,6.21,30.147638,,,,,,TRUE,,,,,CAVOK,,,,,,,,VFR,,,,,,,,,,,,SPECI,222.0
USRR 231100Z 25007MPS CAVOK 00/M03 Q1006 R25/CLRD60 NOSIG RMK QFE749,USRR,2022-10-23T11:00:00Z,61.33,73.42,0.0,-3.0,250,14,,6.21,29.704725,,,,,,TRUE,,,,,CAVOK,,,,,,,,VFR,,,,,,,,,,,,SPECI,52.0
USPP 231100Z 22009MPS CAVOK 03/M04 Q1019 R21/090060 TEMPO 27010G18MPS 1400 SHSNRA BKN011CB RMK QFE753,USPP,2022-10-23T11:00:00Z,57.92,56.02,3.0,-4.0,220,17,,6.21,30.088583,,,,,,,,,,,CAVOK,,,,,,,,VFR,,,,,,,,,,,,SPECI,120.0
USNN 231100Z 29005G10MPS 250V320 9999 BKN021CB 00/M03 Q1005 R21/0///65 TEMPO 3000 -SHSN RMK QFE749,USNN,2022-10-23T11:00:00Z,60.95,76.48,0.0,-3.0,290,10,19,6.21,29.675198,,,,,,,,,,,BKN,2100,,,,,,,MVFR,,,,,,,,,,,,SPECI,52.0
USHH 231100Z 26006MPS CAVOK 01/M06 Q1008 R24/010060 NOSIG,USHH,2022-10-23T11:00:00Z,61.03,69.08,1.0,-6.0,260,12,,6.21,29.763779,,,,,,TRUE,,,,,CAVOK,,,,,,,,VFR,,,,,,,,,,,,METAR,46.0
USDA 231100Z 31005MPS 9999 BKN025CB M01/M02 Q0987 R22/520245 NOSIG RMK QFE739/0986,USDA,2022-10-23T11:00:00Z,71.2,72.05,-1.0,-2.0,310,10,,6.21,29.143702,,,,,,TRUE,,,,,BKN,2500,,,,,,,MVFR,,,,,,,,,,,,METAR,5.0
USCM 231100Z 24006MPS 9999 NSC 03/M08 Q1025 R18/090060 TEMPO 27013MPS RMK QFE731,USCM,2022-10-23T11:00:00Z,53.4,58.75,3.0,-8.0,240,12,,6.21,30.265747,,,,,,,,,,,CLR,,,,,,,,VFR,,,,,,,,,,,,METAR,425.0
USCC 231100Z 26006MPS CAVOK 03/M10 Q1023 R27/000060 NOSIG RMK QFE747,USCC,2022-10-23T11:00:00Z,55.3,61.5,3.0,-10.0,260,12,,6.21,30.206694,,,,,,TRUE,,,,,CAVOK,,,,,,,,VFR,,,,,,,,,,,,SPECI,227.0
URWW 231100Z 19005MPS 140V220 9999 SCT036 11/02 Q1023 R24/010070 NOSIG,URWW,2022-10-23T11:00:00Z,48.78,44.33,11.0,2.0,190,10,,6.21,30.206694,,,,,,TRUE,,,,,SCT,3600,,,,,,,VFR,,,,,,,,,,,,SPECI,131.0
URWI 231100Z 19005MPS CAVOK 14/00 Q1023 R09/010065 NOSIG,URWI,2022-10-23T11:00:00Z,46.37,44.33,14.0,0.0,190,10,,6.21,30.206694,,,,,,TRUE,,,,,CAVOK,,,,,,,,VFR,,,,,,,,,,,,SPECI,145.0
URWA 231100Z 17003MPS 130V220 CAVOK 12/01 Q1026 R27/010070 NOSIG RMK QFE771/1029,URWA,2022-10-23T11:00:00Z,46.28,47.98,12.0,1.0,170,6,,6.21,30.295275,,,,,,TRUE,,,,,CAVOK,,,,,,,,VFR,,,,,,,,,,,,SPECI,-19.0
URSS 231100Z 16002MPS 110V220 9999 NSC 17/07 Q1020 R02/010070 R06/010070 NOSIG RMK R06/22001MPS QFE764,URSS,2022-10-23T11:00:00Z,43.45,39.92,17.0,7.0,160,4,,6.21,30.11811,,,,,,TRUE,,,,,CLR,,,,,,,,VFR,,,,,,,,,,,,METAR,4.0
URRP 231100Z 16005MPS 9999 SCT044 14/04 Q1020 R05/CLRD70 NOSIG RMK QFE760/1014,URRP,2022-10-23T11:00:00Z,47.5,39.92,14.0,4.0,160,10,,6.21,30.11811,,,,,,TRUE,,,,,SCT,4400,,,,,,,VFR,,,,,,,,,,,,METAR,73.0
URMT 231100Z 14005MPS CAVOK 15/01 Q1021 R25/010070 NOSIG RMK QFE727,URMT,2022-10-23T11:00:00Z,45.12,42.12,15.0,1.0,140,10,,6.21,30.147638,,,,,,TRUE,,,,,CAVOK,,,,,,,,VFR,,,,,,,,,,,,SPECI,448.0
URMO 231100Z 07002MPS 020V110 9999 NSC 15/01 Q1022 R09/010070 NOSIG RMK QFE722/0963,URMO,2022-10-23T11:00:00Z,43.2,44.6,15.0,1.0,70,4,,6.21,30.177166,,,,,,TRUE,,,,,CLR,,,,,,,,VFR,,,,,,,,,,,,METAR,505.0
URMN 231100Z 08004MPS 9999 NSC 16/01 Q1021 R24/010070 NOSIG RMK QFE729,URMN,2022-10-23T11:00:00Z,43.52,43.63,16.0,1.0,80,8,,6.21,30.147638,,,,,,TRUE,,,,,CLR,,,,,,,,VFR,,,,,,,,,,,,SPECI,424.0
URMM 231100Z 11007MPS 9999 NSC 14/02 Q1021 R12/090070 NOSIG RMK QFE738/0984,URMM,2022-10-23T11:00:00Z,44.22,43.07,14.0,2.0,110,14,,6.21,30.147638,,,,,,TRUE,,,,,CLR,,,,,,,,VFR,,,,,,,,,,,,METAR,318.0
URML 231100Z 16009MPS 9999 FEW018 BKN045 16/11 Q1024 R14/01//70 NOSIG RMK QFE768/1024,URML,2022-10-23T11:00:00Z,42.82,47.65,16.0,11.0,160,17,,6.21,30.236221,,,,,,TRUE,,,,,FEW,1800,BKN,4500,,,,,VFR,,,,,,,,,,,,METAR,4.0
URMG 231100Z 12004MPS CAVOK 14/06 Q1022 R08/090070 NOSIG RMK QFE752/1003,URMG,2022-10-23T11:00:00Z,43.38,45.7,14.0,6.0,120,8,,6.21,30.177166,,,,,,TRUE,,,,,CAVOK,,,,,,,,VFR,,,,,,,,,,,,METAR,160.0
URKK 231100Z 12003MPS 9999 SCT///CB 16/05 Q1020 R05R/CLRD70 NOSIG RMK QFE762,URKK,2022-10-23T11:00:00Z,45.03,39.15,16.0,5.0,120,6,,6.21,30.11811,,,,,,TRUE,,,,,,,,,,,,,,,,,,,,,,,,,SPECI,29.0
URKA 231100Z 19009MPS 9999 SCT///CB 17/11 Q1018 R22/010070 TEMPO 20012G17MPS 2000 TSRA BKN020CB RMK QFE758/1011,URKA,2022-10-23T11:00:00Z,45.0,37.35,17.0,11.0,190,17,,6.21,30.059055,,,,,,,,,,,,,,,,,,,,,,1.2,,,,,,,,,METAR,41.0
UOOO 231100Z 18002MPS 9999 -SHSN BKN017CB M04/M04 Q0986 R19/39//42 NOSIG RMK QFE723/0965,UOOO,2022-10-23T11:00:00Z,69.32,87.33,-4.0,-4.0,180,4,,6.21,29.114174,,,,,,TRUE,,,,-SHSN,BKN,1700,,,,,,,MVFR,,,,,,,,,,,,SPECI,177.0
UNWW 231100Z 24016G23MPS 9000 -SHRA BKN016CB 04/00 Q1010 R19/09//60 NOSIG RMK QFE731,UNWW,2022-10-23T11:00:00Z,53.82,86.88,4.0,0.0,240,31,45,5.59,29.822834,,,,,,TRUE,,,,-SHRA,BKN,1600,,,,,,,MVFR,,,,,,,,,,,,METAR,307.0
UNTT 231100Z 30005MPS 1400 1300S R21/1400N SHSN SCT008 BKN020CB M01/M02 Q1006 R21/690245 NOSIG RMK QFE740,UNTT,2022-10-23T11:00:00Z,56.38,85.22,-1.0,-2.0,300,10,,0.87,29.704725,,,,,,TRUE,,,,SHSN,SCT,800,BKN,2000,,,,,LIFR,,,,,,,,,,,,METAR,179.0
UNOO 231100Z 24005MPS 9999 BKN033CB 01/M02 Q1020 R25/290150 NOSIG RMK QFE756,UNOO,2022-10-23T11:00:00Z,54.97,73.32,1.0,-2.0,240,10,,6.21,30.11811,,,,,,TRUE,,,,,BKN,3300,,,,,,,VFR,,,,,,,,,,,,METAR,85.0
UNNT 231100Z 27006MPS 9999 OVC034CB 00/M01 Q1013 R25/290155 R34/290155 NOSIG RMK QFE750/1000,UNNT,2022-10-23T11:00:00Z,55.02,82.65,0.0,-1.0,270,12,,6.21,29.911417,,,,,,TRUE,,,,,OVC,3400,,,,,,,VFR,,,,,,,,,,,,SPECI,106.0
UNKL 231100Z 25011G18MPS 9999 SCT045 13/M01 Q0998 R29/CLRD65 NOSIG RMK QFE723,UNKL,2022-10-23T11:00:00Z,56.17,92.48,13.0,-1.0,250,21,35,6.21,29.468504,,,,,,TRUE,,,,,SCT,4500,,,,,,,VFR,,,,,,,,,,,,METAR,278.0
UNEE 231100Z 27008MPS 6000 -SHSN SCT008 BKN016CB 00/M01 Q1007 R23/290155 NOSIG RMK QFE732,UNEE,2022-10-23T11:00:00Z,55.27,86.1,0.0,-1.0,270,16,,3.73,29.734253,,,,,,TRUE,,,,-SHSN,SCT,800,BKN,1600,,,,,MVFR,,,,,,,,,,,,METAR,261.0
UNBB 231100Z 27010MPS 4300 -SHSN SCT009 BKN017CB 00/M01 Q1016 R24/290153 NOSIG RMK QFE739,UNBB,2022-10-23T11:00:00Z,53.37,83.53,0.0,-1.0,270,19,,2.67,30.0,,,,,,TRUE,,,,-SHSN,SCT,900,BKN,1700,,,,,IFR,,,,,,,,,,,,METAR,249.0
UNAA 231100Z 23007MPS CAVOK 14/04 Q1005 R20/CLRD65 NOSIG RMK QFE731,UNAA,2022-10-23T11:00:00Z,53.75,91.4,14.0,4.0,230,14,,6.21,29.675198,,,,,,TRUE,,,,,CAVOK,,,,,,,,VFR,,,,,,,,,,,,SPECI,249.0
UMOO 231100Z 28004MPS 6000 OVC007 07/06 Q1012 NOSIG,UMOO,2022-10-23T11:00:00Z,53.95,30.1,7.0,6.0,280,8,,3.73,29.88189,,,,,,TRUE,,,,,OVC,700,,,,,,,IFR,,,,,,,,,,,,METAR,188.0
UMMS 231100Z 26004MPS 9999 OVC006 09/08 Q1012 NOSIG RMK QBB200,UMMS,2022-10-23T11:00:00Z,53.88,28.03,9.0,8.0,260,8,,6.21,29.88189,,,,,,TRUE,,,,,OVC,600,,,,,,,IFR,,,,,,,,,,,,METAR,196.0
UMMG 231100Z 28005G08MPS 9999 BKN016 OVC066 12/11 Q1015 NOSIG,UMMG,2022-10-23T11:00:00Z,53.6,24.05,12.0,11.0,280,10,16,6.21,29.970472,,,,,,TRUE,,,,,BKN,1600,OVC,6600,,,,,MVFR,,,,,,,,,,,,METAR,125.0
UMKK 231100Z VRB01MPS 9999 OVC008 13/12 Q1014 R24/290095 NOSIG RMK QFE760/1013,UMKK,2022-10-23T11:00:00Z,54.88,20.57,13.0,12.0,0,2,,6.21,29.940945,,,,,,TRUE,,,,,OVC,800,,,,,,,IFR,,,,,,,,,,,,METAR,6.0
UMII 231100Z 26003MPS 4100 BR OVC006 05/04 Q1010 TEMPO 2000 BKN005 RMK QBB180,UMII,2022-10-23T11:00:00Z,55.13,30.35,5.0,4.0,260,6,,2.55,29.822834,,,,,,,,,,BR,OVC,600,,,,,,,IFR,,,,,,,,,,,,METAR,208.0
UMGG 231100Z 30005MPS 7000 OVC006 10/08 Q1012 NOSIG RMK QBB180,UMGG,2022-10-23T11:00:00Z,52.53,31.02,10.0,8.0,300,10,,4.35,29.88189,,,,,,TRUE,,,,,OVC,600,,,,,,,IFR,,,,,,,,,,,,METAR,135.0
UMBB 231100Z 28006G09MPS 9999 OVC025CB 15/12 Q1017 NOSIG,UMBB,2022-10-23T11:00:00Z,52.12,23.9,15.0,12.0,280,12,17,6.21,30.029528,,,,,,TRUE,,,,,OVC,2500,,,,,,,MVFR,,,,,,,,,,,,METAR,138.0
ULWC 231100Z 21003G08MPS 9999 BKN027 07/02 Q1007 R21/010060 NOSIG RMK QFE745/0993,ULWC,2022-10-23T11:00:00Z,59.28,38.02,7.0,2.0,210,6,16,6.21,29.734253,,,,,,TRUE,,,,,BKN,2700,,,,,,,MVFR,,,,,,,,,,,,METAR,113.0
ULPB 231100Z 23005MPS 9999 SCT013 BKN040 06/05 Q1001 R19/120055 NOSIG RMK QFE747/0996,ULPB,2022-10-23T11:00:00Z,61.88,34.15,6.0,5.0,230,10,,6.21,29.557087,,,,,,TRUE,,,,,SCT,1300,BKN,4000,,,,,VFR,,,,,,,,,,,,METAR,41.0
ULOO 231100Z 19002MPS 160V230 9999 BKN009 OVC040 05/04 Q1008 R19/090060 NOSIG RMK QFE752,ULOO,2022-10-23T11:00:00Z,57.78,28.4,5.0,4.0,190,4,,6.21,29.763779,,,,,,TRUE,,,,,BKN,900,OVC,4000,,,,,IFR,,,,,,,,,,,,METAR,46.0
ULMM 231100Z 28005MPS 9999 FEW007 BKN016CB 02/02 Q0984 R31/290156 NOSIG RMK OBST OBSC QFE731,ULMM,2022-10-23T11:00:00Z,68.78,32.75,2.0,2.0,280,10,,6.21,29.055119,,,,,,TRUE,,,,,FEW,700,BKN,1600,,,,,MVFR,,,,,,,,,,,,SPECI,79.0
ULLI 231100Z 24004MPS 9999 OVC031 06/04 Q1006 R28R/290050 NOSIG,ULLI,2022-10-23T11:00:00Z,59.8,30.27,6.0,4.0,240,8,,6.21,29.704725,,,,,,TRUE,,,,,OVC,3100,,,,,,,VFR,,,,,,,,,,,,METAR,25.0
ULAA 231100Z 25005MPS 210V290 9999 FEW026 06/00 Q0992 R26/190065 NOSIG RMK QFE743/0991,ULAA,2022-10-23T11:00:00Z,64.6,40.72,6.0,0.0,250,10,,6.21,29.291338,,,,,,TRUE,,,,,FEW,2600,,,,,,,VFR,,,,,,,,,,,,SPECI,10.0
UIUU 231100Z 34003MPS 9999 NSC 02/M03 Q1013 R26/60D NOSIG RMK QFE716/0954,UIUU,2022-10-23T11:00:00Z,51.8,107.45,2.0,-3.0,340,6,,6.21,29.911417,,,,,,TRUE,,,,,CLR,,,,,,,,VFR,,,,,,,,,,,,METAR,508.0
UIII 231100Z 17006MPS CAVOK 06/01 Q1006 R12/60D NOSIG RMK QFE713/0950,UIII,2022-10-23T11:00:00Z,52.27,104.37,6.0,1.0,170,12,,6.21,29.704725,,,,,,TRUE,,,,,CAVOK,,,,,,,,VFR,,,,,,,,,,,,METAR,480.0
UIBB 231100Z 16004MPS 9999 SCT050CB 10/02 Q1001 R12/290150 NOSIG RMK QFE708/0944,UIBB,2022-10-23T11:00:00Z,56.37,101.7,10.0,2.0,160,8,,6.21,29.557087,,,,,,TRUE,,,,,SCT,5000,,,,,,,VFR,,,,,,,,,,,,METAR,485.0
UIAA 231100Z 30002MPS 9999 NSC M02/M07 Q1017 R29/70D NOSIG RMK QFE704/0939,UIAA,2022-10-23T11:00:00Z,52.02,113.32,-2.0,-7.0,300,4,,6.21,30.029528,,,,,,TRUE,,,,,CLR,,,,,,,,VFR,,,,,,,,,,,,METAR,650.0
UHWW 231100Z 32003MPS 9999 BKN040CB 06/01 Q1019 R25L/0///70 NOSIG RMK QFE763,UHWW,2022-10-23T11:00:00Z,43.4,132.15,6.0,1.0,320,6,,6.21,30.088583,,,,,,TRUE,,,,,BKN,4000,,,,,,,VFR,,,,,,,,,,,,METAR,11.0
UHSS 231100Z 03002MPS 9999 NSC M02/M03 Q1014 R01/70D NOSIG RMK QFE759/1013,UHSS,2022-10-23T11:00:00Z,46.88,142.72,-2.0,-3.0,30,4,,6.21,29.940945,,,,,,TRUE,,,,,CLR,,,,,,,,VFR,,,,,,,,,,,,METAR,14.0
UHPP 231100Z 35003MPS 9999 BKN110 M03/M07 Q1009 R34L/CLRD65 NOSIG RMK QFE753/1005,UHPP,2022-10-23T11:00:00Z,53.17,158.45,-3.0,-7.0,350,6,,6.21,29.793306,,,,,,TRUE,,,,,BKN,11000,,,,,,,VFR,,,,,,,,,,,,METAR,33.0
UHMM 231100Z 00000MPS 9999 NSC M15/M18 Q1010 RMK QFE743 R28/08001MPS,UHMM,2022-10-23T11:00:00Z,59.92,150.72,-15.0,-18.0,0,0,,6.21,29.822834,,,,,,,,,,,CLR,,,,,,,,VFR,,,,,,,,,,,,METAR,175.0
UHMA 231100Z 30004MPS 9999 SCT011 BKN020 OVC033 M05/M07 Q1007 R01/////// NOSIG RMK TDZ R01/30004G06MPS END R01/30004G05MPS QFE751/1002,UHMA,2022-10-23T11:00:00Z,64.73,177.73,-5.0,-7.0,300,8,,6.21,29.734253,,,,,,TRUE,,,,,SCT,1100,BKN,2000,OVC,3300,,,MVFR,,,,,,,,,,,,METAR,53.0
UHHH 231100Z 22003MPS CAVOK M00/M03 Q1018 R23R/090060 NOSIG RMK QFE757/1009,UHHH,2022-10-23T11:00:00Z,48.52,135.18,0.0,-3.0,220,6,,6.21,30.059055,,,,,,TRUE,,,,,CAVOK,,,,,,,,VFR,,,,,,,,,,,,METAR,74.0
UHBB 231100Z 00000MPS CAVOK M00/M08 Q1020 R36/090060 NOSIG RMK QFE747/0997,UHBB,2022-10-23T11:00:00Z,50.43,127.42,0.0,-8.0,0,0,,6.21,30.11811,,,,,,TRUE,,,,,CAVOK,,,,,,,,VFR,,,,,,,,,,,,METAR,185.0
UGTB 231100Z 17006KT 140V220 CAVOK 17/02 Q1024 NOSIG,UGTB,2022-10-23T11:00:00Z,41.67,44.95,17.0,2.0,170,6,,6.21,30.236221,,,,,,TRUE,,,,,CAVOK,,,,,,,,VFR,,,,,,,,,,,,METAR,468.0
UGSB 231100Z 35007KT CAVOK 18/09 Q1020 NOSIG,UGSB,2022-10-23T11:00:00Z,41.62,41.6,18.0,9.0,350,7,,6.21,30.11811,,,,,,TRUE,,,,,CAVOK,,,,,,,,VFR,,,,,,,,,,,,METAR,32.0
UGKO 231100Z 08012KT CAVOK 21/07 Q1020 NOSIG,UGKO,2022-10-23T11:00:00Z,42.18,42.48,21.0,7.0,80,12,,6.21,30.11811,,,,,,TRUE,,,,,CAVOK,,,,,,,,VFR,,,,,,,,,,,,METAR,44.0
UERR 231100Z 16008MPS 9999 SCT020CB 01/M02 Q0998 R25/910050 NOSIG RMK QFE718/0957,UERR,2022-10-23T11:00:00Z,62.53,114.05,1.0,-2.0,160,16,,6.21,29.468504,,,,,,TRUE,,,,,SCT,2000,,,,,,,VFR,,,,,,,,,,,,METAR,352.0
UERP 231100Z 17002MPS 7000 -SN BKN013 OVC100 M02/M03 Q0993 RMK QFE700,UERP,2022-10-23T11:00:00Z,66.4,112.03,-2.0,-3.0,170,4,,4.35,29.320866,,,,,,,,,,-SN,BKN,1300,OVC,10000,,,,,MVFR,,,,,,,,,,,,METAR,514.0
UEEE 231100Z 17002MPS 9999 FEW010 BKN030CB M05/M06 Q1015 R23L/490143 NOSIG RMK QFE752,UEEE,2022-10-23T11:00:00Z,62.08,129.77,-5.0,-6.0,170,4,,6.21,29.970472,,,,,,TRUE,,,,,FEW,1000,BKN,3000,,,,,MVFR,,,,,,,,,,,,METAR,106.0
UDYZ 231100Z VRB02KT 9999 FEW040 17/04 Q1023 R09/010070 NOSIG,UDYZ,2022-10-23T11:00:00Z,40.15,44.4,17.0,4.0,0,2,,6.21,30.206694,,,,,,TRUE,,,,,FEW,4000,,,,,,,VFR,,,,,,,,,,,,METAR,851.0
UDSG 231100Z 25005KT 210V300 9999 NSC 13/M02 Q1025 R02/CLRD70 NOSIG,UDSG,2022-10-23T11:00:00Z,40.75,43.87,13.0,-2.0,250,5,,6.21,30.265747,,,,,,TRUE,,,,,CLR,,,,,,,,VFR,,,,,,,,,,,,METAR,1515.0
UCFO 231100Z 09002MPS 030V130 4600 FU FEW033 14/07 Q1027 R12/0///95 NOSIG,UCFO,2022-10-23T11:00:00Z,40.6,72.8,14.0,7.0,90,4,,2.86,30.324802,,,,,,TRUE,,,,FU,FEW,3300,,,,,,,IFR,,,,,,,,,,,,METAR,881.0
UCFM 231100Z 06003MPS 9000 -RA BKN006 08/07 Q1030 R08/2///95 NOSIG,UCFM,2022-10-23T11:00:00Z,43.07,74.48,8.0,7.0,60,6,,5.59,30.413385,,,,,,TRUE,,,,-RA,BKN,600,,,,,,,IFR,,,,,,,,,,,,METAR,632.0
UCFL 231100Z 24004MPS 9999 BKN030CB 10/02 Q1024 R07/CLRD95,UCFL,2022-10-23T11:00:00Z,42.58,76.7,10.0,2.0,240,8,,6.21,30.236221,,,,,,,,,,,BKN,3000,,,,,,,MVFR,,,,,,,,,,,,METAR,1654.0
UBEE 231100Z 35004KT 9999 SCT033 18/09 Q1024 NOSIG,UBEE,2022-10-23T11:00:00Z,40.63,47.13,18.0,9.0,350,4,,6.21,30.236221,,,,,,TRUE,,,,,SCT,3300,,,,,,,VFR,,,,,,,,,,,,METAR,14.0
UBBZ 231100Z 07006KT 030V090 9999 BKN040 15/09 Q1025 NOSIG RMK MT OBSC,UBBZ,2022-10-23T11:00:00Z,,,15.0,9.0,70,6,,6.21,30.265747,,,,,,TRUE,,,,,BKN,4000,,,,,,,VFR,,,,,,,,,,,,METAR,
UBBY 231100Z 28006KT 9999 SCT070 17/06 Q1026 NOSIG RMK MT OP,UBBY,2022-10-23T11:00:00Z,41.57,46.67,17.0,6.0,280,6,,6.21,30.295275,,,,,,TRUE,,,,,SCT,7000,,,,,,,VFR,,,,,,,,,,,,METAR,383.0
UBBQ 231100Z VRB02KT 9999 BKN070 15/08 Q1024 NOSIG RMK MT OBSC,UBBQ,2022-10-23T11:00:00Z,40.82,47.72,15.0,8.0,0,2,,6.21,30.236221,,,,,,TRUE,,,,,BKN,7000,,,,,,,VFR,,,,,,,,,,,,METAR,339.0
UBBN 231100Z 18004KT 9999 SCT046 15/08 Q1023 NOSIG RMK MT OP QFE692,UBBN,2022-10-23T11:00:00Z,39.18,45.45,15.0,8.0,180,4,,6.21,30.206694,,,,,,TRUE,,,,,SCT,4600,,,,,,,VFR,,,,,,,,,,,,METAR,857.0
UBBL 231100Z 34015KT 9000 BKN037 15/11 Q1024 NOSIG RMK MT OBSC,UBBL,2022-10-23T11:00:00Z,38.75,48.82,15.0,11.0,340,15,,5.59,30.236221,,,,,,TRUE,,,,,BKN,3700,,,,,,,VFR,,,,,,,,,,,,METAR,-11.0
UBBG 231100Z 32004KT 260V050 9999 FEW100 16/08 Q1024 NOSIG,UBBG,2022-10-23T11:00:00Z,40.73,46.32,16.0,8.0,320,4,,6.21,30.236221,,,,,,TRUE,,,,,FEW,10000,,,,,,,VFR,,,,,,,,,,,,METAR,333.0
UBBF 231100Z VRB02KT 9999 SCT020 BKN070 14/08 Q1024 NOSIG RMK MT OBSC,UBBF,2022-10-23T11:00:00Z,39.6,47.2,14.0,8.0,0,2,,6.21,30.236221,,,,,,TRUE,,,,,SCT,2000,BKN,7000,,,,,VFR,,,,,,,,,,,,METAR,370.0
UBBB 231100Z 10012KT 9999 BKN021 16/11 Q1024 NOSIG,UBBB,2022-10-23T11:00:00Z,40.47,50.07,16.0,11.0,100,12,,6.21,30.236221,,,,,,TRUE,,,,,BKN,2100,,,,,,,MVFR,,,,,,,,,,,,METAR,94.0
UAUU 231100Z 22004MPS 190V250 9999 SCT038 00/M04 Q1027 NOSIG RMK QFE754/1005,UAUU,2022-10-23T11:00:00Z,53.2,63.55,0.0,-4.0,220,8,,6.21,30.324802,,,,,,TRUE,,,,,SCT,3800,,,,,,,VFR,,,,,,,,,,,,SPECI,177.0
UASS 231100Z 28008MPS 9999 BKN046 03/M05 Q1026 NOSIG RMK QFE751/1002,UASS,2022-10-23T11:00:00Z,50.35,80.23,3.0,-5.0,280,16,,6.21,30.295275,,,,,,TRUE,,,,,BKN,4600,,,,,,,VFR,,,,,,,,,,,,SPECI,215.0
UASP 231100Z 27007MPS 9999 OVC032CB 02/M01 Q1024 NOSIG RMK QFE757/1009,UASP,2022-10-23T11:00:00Z,52.2,77.07,2.0,-1.0,270,14,,6.21,30.236221,,,,,,TRUE,,,,,OVC,3200,,,,,,,VFR,,,,,,,,,,,,METAR,122.0
UASK 231100Z 29009MPS 9999 BKN043 BKN063 04/M04 Q1025 NOSIG RMK QFE743/0991,UASK,2022-10-23T11:00:00Z,50.03,82.5,4.0,-4.0,290,17,,6.21,30.265747,,,,,,TRUE,,,,,BKN,4300,BKN,6300,,,,,VFR,,,,,,,,,,,,METAR,285.0
UARR 231100Z 20006MPS 9999 SCT042 06/M01 Q1027 NOSIG RMK QFE766/1022,UARR,2022-10-23T11:00:00Z,51.15,51.53,6.0,-1.0,200,12,,6.21,30.324802,,,,,,TRUE,,,,,SCT,4200,,,,,,,VFR,,,,,,,,,,,,SPECI,33.0
UAOO 231100Z 06003MPS 020V100 9999 SCT040 10/M01 Q1031 NOSIG RMK QFE761/1015,UAOO,2022-10-23T11:00:00Z,44.7,65.6,10.0,-1.0,60,6,,6.21,30.442913,,,,,,TRUE,,,,,SCT,4000,,,,,,,VFR,,,,,,,,,,,,SPECI,130.0
UAKD 231100Z 32003MPS CAVOK 06/M14 Q1031 NOSIG RMK QFE740/0986,UAKD,2022-10-23T11:00:00Z,47.7,67.73,6.0,-14.0,320,6,,6.21,30.442913,,,,,,TRUE,,,,,CAVOK,,,,,,,,VFR,,,,,,,,,,,,SPECI,379.0
UAIT 231100Z VRB01MPS CAVOK 12/01 Q1029 NOSIG RMK QFE745/0993,UAIT,2022-10-23T11:00:00Z,43.32,68.55,12.0,1.0,0,2,,6.21,30.383858,,,,,,TRUE,,,,,CAVOK,,,,,,,,VFR,,,,,,,,,,,,METAR,301.0
UADD 231100Z 05003MPS 7000 OVC007 06/06 Q1030 NOSIG RMK MT OBSC QFE713/0951,UADD,2022-10-23T11:00:00Z,42.85,71.3,6.0,6.0,50,6,,4.35,30.413385,,,,,,TRUE,,,,,OVC,700,,,,,,,IFR,,,,,,,,,,,,SPECI,663.0
UACP 231100Z 26006MPS 9999 -SHSN BKN037CB 01/M03 Q1022 NOSIG RMK QFE754/1005,UACP,2022-10-23T11:00:00Z,54.78,69.18,1.0,-3.0,260,12,,6.21,30.177166,,,,,,TRUE,,,,-SHSN,BKN,3700,,,,,,,VFR,,,,,,,,,,,,SPECI,134.0
UACK 231100Z 28009MPS 9999 BKN035 M00/M05 Q1025 NOSIG RMK QFE745/0993,UACK,2022-10-23T11:00:00Z,53.32,69.58,0.0,-5.0,280,17,,6.21,30.265747,,,,,,TRUE,,,,,BKN,3500,,,,,,,VFR,,,,,,,,,,,,METAR,261.0
UAAT 231100Z 20005MPS 9999 SCT013 OVC040CB 06/05 Q1030 NOSIG RMK QFE720/0960,UAAT,2022-10-23T11:00:00Z,45.12,78.45,6.0,5.0,200,10,,6.21,30.413385,,,,,,TRUE,,,,,SCT,1300,OVC,4000,,,,,VFR,,,,,,,,,,,,METAR,588.0
UAAH 231100Z 34008MPS 9999 FEW045 06/M07 Q1030 NOSIG RMK QFE733/0977,UAAH,2022-10-23T11:00:00Z,46.9,75.0,6.0,-7.0,340,16,,6.21,30.413385,,,,,,TRUE,,,,,FEW,4500,,,,,,,VFR,,,,,,,,,,,,SPECI,427.0
TVSA 231100Z 03004KT 9999 SCT020 27/24 Q1012 NOSIG ,TVSA,2022-10-23T11:00:00Z,13.15,-61.15,27.0,24.0,30,4,,6.21,29.88189,,,,,,TRUE,,,,,SCT,2000,,,,,,,VFR,,,,,,,,,,,,METAR,3.0
TUPJ 231100Z 05006KT 10SM VCSH SCT019 27/25 A2993 RMK Q1013 VIS16KM,TUPJ,2022-10-23T11:00:00Z,18.43,-64.53,27.0,25.0,50,6,,10.0,29.929134,,,,,,,,,,VCSH,SCT,1900,,,,,,,VFR,,,,,,,,,,,,SPECI,6.0
TTPP 231100Z 00000KT 9999 4000 FU FEW010CB FEW016TCU 25/24 Q1011 NOSIG RMK FU-ENE. CB/TCU-SSW,TTPP,2022-10-23T11:00:00Z,10.58,-61.35,25.0,24.0,0,0,,6.21,29.852362,,,,,,TRUE,,,,FU,FEW,1000,FEW,1600,,,,,VFR,,,,,,,,,,,,METAR,11.0
TTCP 231100Z 05004KT 9999 VCSH SCT016 26/25 Q1011 NOSIG RMK VCSH NE/SE/SW,TTCP,2022-10-23T11:00:00Z,11.15,-60.85,26.0,25.0,50,4,,6.21,29.852362,,,,,,TRUE,,,,VCSH,SCT,1600,,,,,,,VFR,,,,,,,,,,,,METAR,13.0
TQPF 231100Z 04002KT 9999 FEW019 26/25 Q1013,TQPF,2022-10-23T11:00:00Z,18.2,-63.05,26.0,25.0,40,2,,6.21,29.911417,,,,,,,,,,,FEW,1900,,,,,,,VFR,,,,,,,,,,,,METAR,33.0
"TNCM 231100Z 04005KT 010V070 9999 VCSH FEW014 28/23 Q1014 NOSIG RMK VCSH W, NW",TNCM,2022-10-23T11:00:00Z,18.05,-63.12,28.0,23.0,40,5,,6.21,29.940945,,,,,,TRUE,,,,VCSH,FEW,1400,,,,,,,VFR,,,,,,,,,,,,SPECI,9.0
TNCC 231100Z 12005KT 9999 VCSH FEW016TCU 27/24 Q1011 NOSIG,TNCC,2022-10-23T11:00:00Z,12.2,-68.97,27.0,24.0,120,5,,6.21,29.852362,,,,,,TRUE,,,,VCSH,FEW,1600,,,,,,,VFR,,,,,,,,,,,,METAR,10.0
TNCA 231100Z 09008KT 9999 FEW017 28/25 Q1011 NOSIG,TNCA,2022-10-23T11:00:00Z,12.5,-70.0,28.0,25.0,90,8,,6.21,29.852362,,,,,,TRUE,,,,,FEW,1700,,,,,,,VFR,,,,,,,,,,,,METAR,7.0
TLPL 231100Z 10006KT 9999 SCT026 28/24 Q1012 NOSIG,TLPL,2022-10-23T11:00:00Z,13.75,-60.95,28.0,24.0,100,6,,6.21,29.88189,,,,,,TRUE,,,,,SCT,2600,,,,,,,VFR,,,,,,,,,,,,METAR,13.0
TKPK 231100Z 02005KT 9999 FEW020 27/23 Q1013,TKPK,2022-10-23T11:00:00Z,17.3,-62.72,27.0,23.0,20,5,,6.21,29.911417,,,,,,,,,,,FEW,2000,,,,,,,VFR,,,,,,,,,,,,METAR,62.0
TGPY 231100Z VRB02KT 9999 FEW018 BKN038 27/25 Q1012 NOSIG,TGPY,2022-10-23T11:00:00Z,12.0,-61.78,27.0,25.0,0,2,,6.21,29.88189,,,,,,TRUE,,,,,FEW,1800,BKN,3800,,,,,VFR,,,,,,,,,,,,METAR,12.0
TFFR 231100Z AUTO 00000KT CAVOK 24/24 Q1013,TFFR,2022-10-23T11:00:00Z,16.27,-61.53,24.0,24.0,0,0,,6.21,29.911417,,,TRUE,,,,,,,,CAVOK,,,,,,,,VFR,,,,,,,,,,,,METAR,6.0
TFFF 231100Z AUTO 14004KT CAVOK 25/24 Q1012,TFFF,2022-10-23T11:00:00Z,14.6,-61.0,25.0,24.0,140,4,,6.21,29.88189,,,TRUE,,,,,,,,CAVOK,,,,,,,,VFR,,,,,,,,,,,,METAR,3.0
TDPD 231100Z 28004KT 9999 FEW016 25/24 Q1013,TDPD,2022-10-23T11:00:00Z,15.55,-61.3,25.0,24.0,280,4,,6.21,29.911417,,,,,,,,,,,FEW,1600,,,,,,,VFR,,,,,,,,,,,,METAR,13.0
TBPB 231100Z 11010KT 9999 FEW016 29/24 Q1012 NOSIG,TBPB,2022-10-23T11:00:00Z,13.07,-59.48,29.0,24.0,110,10,,6.21,29.88189,,,,,,TRUE,,,,,FEW,1600,,,,,,,VFR,,,,,,,,,,,,METAR,55.0
TAPA 231100Z 26003KT 9999 BKN020 25/22 Q1013 NOSIG,TAPA,2022-10-23T11:00:00Z,17.13,-61.78,25.0,22.0,260,3,,6.21,29.911417,,,,,,TRUE,,,,,BKN,2000,,,,,,,MVFR,,,,,,,,,,,,METAR,15.0
SYCJ 231100Z 08004KT 9999 FEW015 26/25 Q1011 NOSIG,SYCJ,2022-10-23T11:00:00Z,6.5,-58.25,26.0,25.0,80,4,,6.21,29.852362,,,,,,TRUE,,,,,FEW,1500,,,,,,,VFR,,,,,,,,,,,,SPECI,30.0
SVSA 231100Z 00000KT 9999 BKN060 XX/XX Q////,SVSA,2022-10-23T11:00:00Z,7.83,-72.45,,,0,0,,6.21,,,,,,,,,,,,BKN,6000,,,,,,,VFR,,,,,,,,,,,,METAR,383.0
SVJC 231100Z 07005KT 9999 FEW015 XX/XX Q////,SVJC,2022-10-23T11:00:00Z,11.77,-70.15,,,70,5,,6.21,,,,,,,,,,,,FEW,1500,,,,,,,VFR,,,,,,,,,,,,METAR,21.0
SUMU 231100Z 15011KT 9999 BKN020 14/10 Q1023 NOSIG,SUMU,2022-10-23T11:00:00Z,-34.83,-56.02,14.0,10.0,150,11,,6.21,30.206694,,,,,,TRUE,,,,,BKN,2000,,,,,,,MVFR,,,,,,,,,,,,METAR,32.0
SULS 231100Z 16015KT 9999 FEW015 15/08 Q1022,SULS,2022-10-23T11:00:00Z,-34.87,-55.1,15.0,8.0,160,15,,6.21,30.177166,,,,,,,,,,,FEW,1500,,,,,,,VFR,,,,,,,,,,,,METAR,22.0
SUCA 231100Z 15009KT 9999 SCT015 BKN030 15/09 Q1023,SUCA,2022-10-23T11:00:00Z,-34.45,-57.77,15.0,9.0,150,9,,6.21,30.206694,,,,,,,,,,,SCT,1500,BKN,3000,,,,,MVFR,,,,,,,,,,,,METAR,26.0
SUAA 231100Z 16009KT 9999 SCT016 15/11 Q1023,SUAA,2022-10-23T11:00:00Z,-34.78,-56.25,15.0,11.0,160,9,,6.21,30.206694,,,,,,,,,,,SCT,1600,,,,,,,VFR,,,,,,,,,,,,METAR,48.0
SPSO 231100Z 06002KT 8000 3000SW OVC007 14/13 Q1015 RMK PP000,SPSO,2022-10-23T11:00:00Z,-13.73,-76.22,14.0,13.0,60,2,,4.97,29.970472,,,,,,,,,,,OVC,700,,,,,,,IFR,,,,,,,,,,,,METAR,8.0
SPRU 231100Z 16007KT 5000 BR FEW011 14/13 Q1014 RMK PP000,SPRU,2022-10-23T11:00:00Z,-8.08,-79.12,14.0,13.0,160,7,,3.11,29.940945,,,,,,,,,,BR,FEW,1100,,,,,,,MVFR,,,,,,,,,,,,SPECI,23.0
SPQT 231100Z 08004KT 9000 -RA SCT004 OVC100 24/23 Q1010 NOSIG RMK PP002,SPQT,2022-10-23T11:00:00Z,-3.78,-73.32,24.0,23.0,80,4,,5.59,29.822834,,,,,,TRUE,,,,-RA,SCT,400,OVC,10000,,,,,VFR,,,,,,,,,,,,SPECI,92.0
SPJC 231100Z 18007KT 9999 OVC011 15/12 Q1015 NOSIG RMK PP000,SPJC,2022-10-23T11:00:00Z,-12.02,-77.12,15.0,12.0,180,7,,6.21,29.970472,,,,,,TRUE,,,,,OVC,1100,,,,,,,MVFR,,,,,,,,,,,,SPECI,26.0
SOCA 231100Z AUTO VRB02KT CAVOK 27/25 Q1012 NOSIG,SOCA,2022-10-23T11:00:00Z,4.82,-52.37,27.0,25.0,0,2,,6.21,29.88189,,,TRUE,,,TRUE,,,,,CAVOK,,,,,,,,VFR,,,,,,,,,,,,METAR,7.0
SMJP 231100Z 10005KT 9999 FEW012 27/25 Q1012 NOSIG,SMJP,2022-10-23T11:00:00Z,5.45,-55.18,27.0,25.0,100,5,,6.21,29.88189,,,,,,TRUE,,,,,FEW,1200,,,,,,,VFR,,,,,,,,,,,,SPECI,14.0
SLVR 231100Z 16003KT 9999 SCT070 BKN200 22/20 Q1015,SLVR,2022-10-23T11:00:00Z,-17.63,-63.13,22.0,20.0,160,3,,6.21,29.970472,,,,,,,,,,,SCT,7000,BKN,20000,,,,,VFR,,,,,,,,,,,,METAR,377.0
SLTR 231100Z 00000KT 5000 BR FEW005 BKN070 22/22 Q1013,SLTR,2022-10-23T11:00:00Z,-14.83,-64.92,22.0,22.0,0,0,,3.11,29.911417,,,,,,,,,,BR,FEW,500,BKN,7000,,,,,MVFR,,,,,,,,,,,,SPECI,157.0
SLSV 231100Z 00000KT 9999 OVC070 21/20 Q1013,SLSV,2022-10-23T11:00:00Z,-16.4,-61.05,21.0,20.0,0,0,,6.21,29.911417,,,,,,,,,,,OVC,7000,,,,,,,VFR,,,,,,,,,,,,METAR,450.0
SLSA 231100Z 00000KT 9999 SCT005 BKN080 23/23 Q1012,SLSA,2022-10-23T11:00:00Z,-13.77,-65.43,23.0,23.0,0,0,,6.21,29.88189,,,,,,,,,,,SCT,500,BKN,8000,,,,,VFR,,,,,,,,,,,,METAR,144.0
SLRI 231100Z 18004KT 9999 BKN004 OVC070 23/22 Q1013,SLRI,2022-10-23T11:00:00Z,-11.02,-66.08,23.0,22.0,180,4,,6.21,29.911417,,,,,,,,,,,BKN,400,OVC,7000,,,,,LIFR,,,,,,,,,,,,METAR,136.0
SLPS 231100Z 00000KT 9999 SCT070 24/18 Q1008,SLPS,2022-10-23T11:00:00Z,-18.98,-57.82,24.0,18.0,0,0,,6.21,29.763779,,,,,,,,,,,SCT,7000,,,,,,,VFR,,,,,,,,,,,,METAR,136.0
SLLP 231100Z 09004KT 6000 FEW005 SCT200 05/02 Q1038,SLLP,2022-10-23T11:00:00Z,-16.52,-68.17,5.0,2.0,90,4,,3.73,30.649607,,,,,,,,,,,FEW,500,SCT,20000,,,,,MVFR,,,,,,,,,,,,METAR,4061.0
SLET 231100Z 15004KT 9999 SCT070 BKN200 23/20 Q1015,SLET,2022-10-23T11:00:00Z,-17.8,-63.17,23.0,20.0,150,4,,6.21,29.970472,,,,,,,,,,,SCT,7000,BKN,20000,,,,,VFR,,,,,,,,,,,,METAR,421.0
SLCP 231100Z 00000KT 9999 BKN070 20/20 Q1017,SLCP,2022-10-23T11:00:00Z,-16.15,-62.02,20.0,20.0,0,0,,6.21,30.029528,,,,,,,,,,,BKN,7000,,,,,,,VFR,,,,,,,,,,,,METAR,502.0
SLCB 231100Z VRB02KT 9999 BKN030 BKN070 16/07 Q1027,SLCB,2022-10-23T11:00:00Z,-17.42,-66.18,16.0,7.0,0,2,,6.21,30.324802,,,,,,,,,,,BKN,3000,BKN,7000,,,,,MVFR,,,,,,,,,,,,METAR,2560.0
SKSP 231100Z 06010KT 030V090 9999 SCT016 28/25 Q1010 RMK A2984,SKSP,2022-10-23T11:00:00Z,12.58,-81.72,28.0,25.0,60,10,,6.21,29.822834,,,,,,,,,,,SCT,1600,,,,,,,VFR,,,,,,,,,,,,SPECI,6.0
SKRG 231100Z VRB02KT 4000 BR BKN004 SCT010 12/12 Q1025 NOSIG RMK A3027,SKRG,2022-10-23T11:00:00Z,6.17,-75.42,12.0,12.0,0,2,,2.49,30.265747,,,,,,TRUE,,,,BR,BKN,400,SCT,1000,,,,,LIFR,,,,,,,,,,,,SPECI,2132.0
SKPE 231100Z VRB02KT 8000 4000SW BCFG BKN008 SCT080 19/18 Q1018 RMK BCFG/SW/W/NW A3006,SKPE,2022-10-23T11:00:00Z,4.82,-75.73,19.0,18.0,0,2,,4.97,30.059055,,,,,,,,,,BCFG,BKN,800,SCT,8000,,,,,IFR,,,,,,,,,,,,SPECI,1341.0
SKLT 231100Z VRB02KT 9999 SCT010 BKN080 23/23 Q1012 REDZ RMK A2989,SKLT,2022-10-23T11:00:00Z,-4.2,-69.93,23.0,23.0,0,2,,6.21,29.88189,,,,,,,,,,,SCT,1000,BKN,8000,,,,,VFR,,,,,,,,,,,,SPECI,78.0
SKCL 231100Z VRB02KT 4000 BR BKN010 SCT020 20/20 Q1016 NOSIG RMK A3001,SKCL,2022-10-23T11:00:00Z,3.53,-76.37,20.0,20.0,0,2,,2.49,30.0,,,,,,TRUE,,,,BR,BKN,1000,SCT,2000,,,,,IFR,,,,,,,,,,,,SPECI,967.0
SKCG 231100Z 08004KT 050V150 9999 FEW017CB SCT070 24/23 Q1010 RMK CB/S A2982,SKCG,2022-10-23T11:00:00Z,10.43,-75.52,24.0,23.0,80,4,,6.21,29.822834,,,,,,,,,,,FEW,1700,SCT,7000,,,,,VFR,,,,,,,,,,,,SPECI,6.0
SKBQ 231100Z 17008KT 9999 BKN007 24/23 Q1010 NOSIG RMK A2986,SKBQ,2022-10-23T11:00:00Z,10.87,-74.77,24.0,23.0,170,8,,6.21,29.822834,,,,,,TRUE,,,,,BKN,700,,,,,,,IFR,,,,,,,,,,,,METAR,23.0
SKBO 231100Z 33003KT 5000 BR FEW015 SCT100 12/11 Q1026 NOSIG RMK A3033,SKBO,2022-10-23T11:00:00Z,4.7,-74.15,12.0,11.0,330,3,,3.11,30.295275,,,,,,TRUE,,,,BR,FEW,1500,SCT,10000,,,,,MVFR,,,,,,,,,,,,SPECI,2547.0
SKBG 231100Z 00000KT 9999 MIFG FEW017 SCT090 19/18 Q1015 RMK A2999,SKBG,2022-10-23T11:00:00Z,7.13,-73.18,19.0,18.0,0,0,,6.21,29.970472,,,,,,,,,,MIFG,FEW,1700,SCT,9000,,,,,VFR,,,,,,,,,,,,SPECI,1187.0
SGAS 231100Z 12006KT CAVOK 23/17 Q1017,SGAS,2022-10-23T11:00:00Z,-25.25,-57.52,23.0,17.0,120,6,,6.21,30.029528,,,,,,,,,,,CAVOK,,,,,,,,VFR,,,,,,,,,,,,METAR,83.0
SEMT 231100Z 22006KT 9999 FEW010 OVC016 22/18 Q1013 RMK A2995,SEMT,2022-10-23T11:00:00Z,-0.95,-80.67,22.0,18.0,220,6,,6.21,29.911417,,,,,,,,,,,FEW,1000,OVC,1600,,,,,MVFR,,,,,,,,,,,,SPECI,13.0
SELT 231100Z 19002KT 9999 SCT012 BKN100 10/10 Q1029,SELT,2022-10-23T11:00:00Z,-0.92,-78.62,10.0,10.0,190,2,,6.21,30.383858,,,,,,,,,,,SCT,1200,BKN,10000,,,,,VFR,,,,,,,,,,,,SPECI,2779.0
SEGU 231100Z 22005KT 9999 FEW013 BKN026 BKN100 22/19 Q1012 NOSIG RMK A2990,SEGU,2022-10-23T11:00:00Z,-2.15,-79.88,22.0,19.0,220,5,,6.21,29.88189,,,,,,TRUE,,,,,FEW,1300,BKN,2600,BKN,10000,,,MVFR,,,,,,,,,,,,SPECI,6.0
SECU 231100Z 07002KT 9999 FEW005 BKN030 12/12 Q1026,SECU,2022-10-23T11:00:00Z,-2.88,-78.98,12.0,12.0,70,2,,6.21,30.295275,,,,,,,,,,,FEW,500,BKN,3000,,,,,MVFR,,,,,,,,,,,,METAR,2516.0
SCVM 231100Z VRB02KT 6000 OVC010 10/08 Q1019,SCVM,2022-10-23T11:00:00Z,-32.95,-71.48,10.0,8.0,0,2,,3.73,30.088583,,,,,,,,,,,OVC,1000,,,,,,,MVFR,,,,,,,,,,,,METAR,136.0
SCVD 231100Z AUTO 05003KT 9999 OVC032 07/07 Q1017,SCVD,2022-10-23T11:00:00Z,-39.65,-73.08,7.0,7.0,50,3,,6.21,30.029528,,,TRUE,,,,,,,,OVC,3200,,,,,,,VFR,,,,,,,,,,,,METAR,19.0
SCTN 231100Z AUTO 01007KT 9999 BKN021 OVC039 08/06 Q1016,SCTN,2022-10-23T11:00:00Z,-42.92,-72.7,8.0,6.0,10,7,,6.21,30.0,,,TRUE,,,,,,,,BKN,2100,OVC,3900,,,,,MVFR,,,,,,,,,,,,METAR,8.0
SCTE 231100Z 02004KT 350V050 9999 FEW015 SCT025 05/05 Q1016 NOSIG,SCTE,2022-10-23T11:00:00Z,-41.43,-73.08,5.0,5.0,20,4,,6.21,30.0,,,,,,TRUE,,,,,FEW,1500,SCT,2500,,,,,VFR,,,,,,,,,,,,METAR,85.0
SCTB 231100Z 00000KT CAVOK 10/05 Q1018,SCTB,2022-10-23T11:00:00Z,-33.45,-70.53,10.0,5.0,0,0,,6.21,30.059055,,,,,,,,,,,CAVOK,,,,,,,,VFR,,,,,,,,,,,,METAR,655.0
SCSN 231100Z AUTO VRB02KT 9999 OVC014 10/08 Q1019,SCSN,2022-10-23T11:00:00Z,-33.65,-71.62,10.0,8.0,0,2,,6.21,30.088583,,,TRUE,,,,,,,,OVC,1400,,,,,,,MVFR,,,,,,,,,,,,METAR,73.0
SCSE 231100Z 20003KT 9999 FEW008 OVC010 11/11 Q1019,SCSE,2022-10-23T11:00:00Z,-29.92,-71.2,11.0,11.0,200,3,,6.21,30.088583,,,,,,,,,,,FEW,800,OVC,1000,,,,,MVFR,,,,,,,,,,,,METAR,141.0
SCRG 231100Z 21003KT CAVOK 11/04 Q1018,SCRG,2022-10-23T11:00:00Z,-34.17,-70.77,11.0,4.0,210,3,,6.21,30.059055,,,,,,,,,,,CAVOK,,,,,,,,VFR,,,,,,,,,,,,METAR,488.0
SCQP 231100Z 07003KT 0400 R01/0500 FG VV002 06/06 Q1018,SCQP,2022-10-23T11:00:00Z,-38.92,-72.65,6.0,6.0,70,3,,0.25,30.059055,,,,,,,,,,FG,OVX,0,,,,,,,LIFR,,,,,,,,,,,200,METAR,97.0
SCPQ 231100Z AUTO 35008KT 9999 FEW025 OVC033 06/03 Q1014,SCPQ,2022-10-23T11:00:00Z,-42.33,-73.72,6.0,3.0,350,8,,6.21,29.940945,,,TRUE,,,,,,,,FEW,2500,OVC,3300,,,,,VFR,,,,,,,,,,,,METAR,166.0
SCPD 231100Z AUTO 00000KT //// ///////// 10/04 Q1018,SCPD,2022-10-23T11:00:00Z,,,10.0,4.0,0,0,,,30.059055,,,TRUE,,,,,,,,,,,,,,,,,,,,,,,,,,,,METAR,
SCON 231100Z AUTO 36005KT 320V050 9999 SCT034/// OVC039/// 07/04 Q1014,SCON,2022-10-23T11:00:00Z,-43.13,-73.62,7.0,4.0,360,5,,6.21,29.940945,,,TRUE,,,,,,,,SCT,3400,OVC,3900,,,,,VFR,,,,,,,,,,,,METAR,11.0
SCMK 231100Z AUTO 35013KT //// // OVC038/// 09/05 Q1013,SCMK,2022-10-23T11:00:00Z,-43.9,-73.73,9.0,5.0,350,13,,,29.911417,,,TRUE,,,,,,,,OVC,3800,,,,,,,,,,,,,,,,,,,METAR,22.0
SCJO 231100Z AUTO 14002KT CAVOK 03/02 Q1017,SCJO,2022-10-23T11:00:00Z,-40.6,-73.05,3.0,2.0,140,2,,6.21,30.029528,,,TRUE,,,,,,,,CAVOK,,,,,,,,VFR,,,,,,,,,,,,METAR,61.0
SCIP 231100Z 24005KT 210V280 9999 FEW015 BKN035 17/14 Q1020 NOSIG,SCIP,2022-10-23T11:00:00Z,-27.17,-109.43,17.0,14.0,240,5,,6.21,30.11811,,,,,,TRUE,,,,,FEW,1500,BKN,3500,,,,,VFR,,,,,,,,,,,,METAR,48.0
SCIE 231100Z 00000KT 9999 BKN030 10/06 Q1018,SCIE,2022-10-23T11:00:00Z,-36.77,-73.07,10.0,6.0,0,0,,6.21,30.059055,,,,,,,,,,,BKN,3000,,,,,,,MVFR,,,,,,,,,,,,METAR,8.0
SCIC 231100Z AUTO VRB02KT //// R/////// // NCD 08/06 Q1018,SCIC,2022-10-23T11:00:00Z,-34.97,-71.22,8.0,6.0,0,2,,,30.059055,,,TRUE,,,,,,,,CLR,,,,,,,,,,,,,,,,,,,,METAR,230.0
SCFT 231100Z AUTO VRB02KT CAVOK 05/03 Q1012,SCFT,2022-10-23T11:00:00Z,-43.18,-71.85,5.0,3.0,0,2,,6.21,29.88189,,,TRUE,,,,,,,,CAVOK,,,,,,,,VFR,,,,,,,,,,,,METAR,345.0
SCFA 231100Z 20010KT 9999 BKN018 14/09 Q1017 NOSIG,SCFA,2022-10-23T11:00:00Z,-23.43,-70.43,14.0,9.0,200,10,,6.21,30.029528,,,,,,TRUE,,,,,BKN,1800,,,,,,,MVFR,,,,,,,,,,,,METAR,113.0
SCEL 231100Z VRB02KT CAVOK 09/06 Q1018 NOSIG,SCEL,2022-10-23T11:00:00Z,-33.38,-70.78,9.0,6.0,0,2,,6.21,30.059055,,,,,,TRUE,,,,,CAVOK,,,,,,,,VFR,,,,,,,,,,,,METAR,478.0
SCDA 231100Z 14003KT 9999 OVC018 14/10 Q1017,SCDA,2022-10-23T11:00:00Z,-20.53,-70.17,14.0,10.0,140,3,,6.21,30.029528,,,,,,,,,,,OVC,1800,,,,,,,MVFR,,,,,,,,,,,,METAR,41.0
SCCY 231100Z 06005KT 010V100 9999 FEW033 SCT080 07/01 Q1009 RMK AC LENT,SCCY,2022-10-23T11:00:00Z,-45.58,-72.1,7.0,1.0,60,5,,6.21,29.793306,,,,,,,,,,,FEW,3300,SCT,8000,,,,,VFR,,,,,,,,,,,,METAR,301.0
SCCI 231100Z 33012KT 9999 SCT040 BKN100 07/04 Q0991 NOSIG,SCCI,2022-10-23T11:00:00Z,-53.0,-70.85,7.0,4.0,330,12,,6.21,29.26181,,,,,,TRUE,,,,,SCT,4000,BKN,10000,,,,,VFR,,,,,,,,,,,,METAR,37.0
SCCH 231100Z AUTO 00000KT CAVOK 05/04 Q1018,SCCH,2022-10-23T11:00:00Z,-36.57,-72.02,5.0,4.0,0,0,,6.21,30.059055,,,TRUE,,,,,,,,CAVOK,,,,,,,,VFR,,,,,,,,,,,,METAR,148.0
SCCF 231100Z 10018KT CAVOK 07/M20 Q1027,SCCF,2022-10-23T11:00:00Z,-22.5,-68.9,7.0,-20.0,100,18,,6.21,30.324802,,,,,,,,,,,CAVOK,,,,,,,,VFR,,,,,,,,,,,,METAR,2290.0
SCBA 231100Z 30020KT CAVOK 06/M02 Q1006,SCBA,2022-10-23T11:00:00Z,-45.92,-71.68,6.0,-2.0,300,20,,6.21,29.704725,,,,,,,,,,,CAVOK,,,,,,,,VFR,,,,,,,,,,,,METAR,516.0
SCAT 231100Z AUTO 31004KT 270V340 9000 OVC009/// 12/10 Q1018,SCAT,2022-10-23T11:00:00Z,-27.27,-70.77,12.0,10.0,310,4,,5.59,30.059055,,,TRUE,,,,,,,,OVC,900,,,,,,,IFR,,,,,,,,,,,,METAR,209.0
SCAR 231100Z 08006KT 9999 OVC025 15/11 Q1017,SCAR,2022-10-23T11:00:00Z,-18.35,-70.33,15.0,11.0,80,6,,6.21,30.029528,,,,,,,,,,,OVC,2500,,,,,,,MVFR,,,,,,,,,,,,METAR,57.0
SCAP 231100Z AUTO /////KT ///V/// //// // ////// ///// Q////,SCAP,2022-10-23T11:00:00Z,-43.62,-71.8,,,,,,,,,,TRUE,,,,,,,,,,,,,,,,,,,,,,,,,,,,METAR,252.0
SAZS 231100Z 31015KT 9999 FEW100 10/01 Q1013 RMK PP///,SAZS,2022-10-23T11:00:00Z,-41.15,-71.17,10.0,1.0,310,15,,6.21,29.911417,,,,,,,,,,,FEW,10000,,,,,,,VFR,,,,,,,,,,,,METAR,843.0
SAZN 231100Z 07005KT CAVOK 13/04 Q1014,SAZN,2022-10-23T11:00:00Z,-38.95,-68.15,13.0,4.0,70,5,,6.21,29.940945,,,,,,,,,,,CAVOK,,,,,,,,VFR,,,,,,,,,,,,METAR,273.0
SAZM 231100Z 00000KT CAVOK 09/07 Q1025 RMK PP///,SAZM,2022-10-23T11:00:00Z,-37.92,-57.57,9.0,7.0,0,0,,6.21,30.265747,,,,,,,,,,,CAVOK,,,,,,,,VFR,,,,,,,,,,,,METAR,17.0
SAWH 231100Z VRB03KT 9999 SCT040 08/03 Q0989 RMK PPO000,SAWH,2022-10-23T11:00:00Z,-54.85,-68.3,8.0,3.0,0,3,,6.21,29.202755,,,,,,,,,,,SCT,4000,,,,,,,VFR,,,,,,,,,,,,METAR,22.0
SAWG 231100Z 32005KT 9999 FEW025 SCT030 BKN080 10/01 Q0994,SAWG,2022-10-23T11:00:00Z,-51.62,-69.27,10.0,1.0,320,5,,6.21,29.350393,,,,,,,,,,,FEW,2500,SCT,3000,BKN,8000,,,VFR,,,,,,,,,,,,METAR,15.0
SAWE 231100Z 32012KT CAVOK 08/07 Q0992 RMK PP001,SAWE,2022-10-23T11:00:00Z,-53.78,-67.75,8.0,7.0,320,12,,6.21,29.291338,,,,,,,,,,,CAVOK,,,,,,,,VFR,,,,,,,,,,,,METAR,22.0
SAVC 231100Z 30012KT CAVOK 13/M07 Q1006 RMK PP000,SAVC,2022-10-23T11:00:00Z,-45.78,-67.47,13.0,-7.0,300,12,,6.21,29.704725,,,,,,,,,,,CAVOK,,,,,,,,VFR,,,,,,,,,,,,METAR,58.0
SASJ 231100Z VRB01KT 9999 BKN060 19/10 Q1020 RMK PP000,SASJ,2022-10-23T11:00:00Z,-24.38,-65.1,19.0,10.0,0,1,,6.21,30.11811,,,,,,,,,,,BKN,6000,,,,,,,VFR,,,,,,,,,,,,METAR,913.0
SASA 231100Z VRB02KT 9999 FEW040 BKN050 18/10 Q1021 RMK PP000,SASA,2022-10-23T11:00:00Z,-24.85,-65.48,18.0,10.0,0,2,,6.21,30.147638,,,,,,,,,,,FEW,4000,BKN,5000,,,,,VFR,,,,,,,,,,,,METAR,1235.0
SARP 231100Z 14008KT CAVOK 20/16 Q1019,SARP,2022-10-23T11:00:00Z,-27.38,-55.97,20.0,16.0,140,8,,6.21,30.088583,,,,,,,,,,,CAVOK,,,,,,,,VFR,,,,,,,,,,,,METAR,123.0
SARL 231100Z 18012KT 9999 SCT008 14/11 Q1021,SARL,2022-10-23T11:00:00Z,-29.68,-57.15,14.0,11.0,180,12,,6.21,30.147638,,,,,,,,,,,SCT,800,,,,,,,VFR,,,,,,,,,,,,METAR,70.0
SARI 231100Z 18004KT 090V220 CAVOK 19/16 Q1018 RMK PP000,SARI,2022-10-23T11:00:00Z,-25.73,-54.47,19.0,16.0,180,4,,6.21,30.059055,,,,,,,,,,,CAVOK,,,,,,,,VFR,,,,,,,,,,,,METAR,268.0
SARF 231100Z 16007KT 9999 FEW030 20/18 Q1018,SARF,2022-10-23T11:00:00Z,-26.22,-58.22,20.0,18.0,160,7,,6.21,30.059055,,,,,,,,,,,FEW,3000,,,,,,,VFR,,,,,,,,,,,,METAR,65.0
SARE 231100Z 15009KT CAVOK 17/14 Q1019 RMK PP///,SARE,2022-10-23T11:00:00Z,-27.43,-59.05,17.0,14.0,150,9,,6.21,30.088583,,,,,,,,,,,CAVOK,,,,,,,,VFR,,,,,,,,,,,,METAR,52.0
SARC 231100Z 14007KT CAVOK 18/14 Q1019,SARC,2022-10-23T11:00:00Z,-27.43,-58.77,18.0,14.0,140,7,,6.21,30.088583,,,,,,,,,,,CAVOK,,,,,,,,VFR,,,,,,,,,,,,METAR,60.0
SAOC 231100Z 02014KT CAVOK 09/07 Q1020,SAOC,2022-10-23T11:00:00Z,-33.08,-64.27,9.0,7.0,20,14,,6.21,30.11811,,,,,,,,,,,CAVOK,,,,,,,,VFR,,,,,,,,,,,,METAR,422.0
SANT 231100Z 17004KT 8000 SCT028 OVC059 16/11 Q1020 RMK PP000,SANT,2022-10-23T11:00:00Z,-26.85,-65.1,16.0,11.0,170,4,,4.97,30.11811,,,,,,,,,,,SCT,2800,OVC,5900,,,,,MVFR,,,,,,,,,,,,METAR,446.0
SAME 231100Z 07003KT CAVOK 11/08 Q1016,SAME,2022-10-23T11:00:00Z,-32.82,-68.78,11.0,8.0,70,3,,6.21,30.0,,,,,,,,,,,CAVOK,,,,,,,,VFR,,,,,,,,,,,,METAR,709.0
SAEZ 231100Z 13006KT 9999 SCT038 12/08 Q1024 NOSIG RMK PP000,SAEZ,2022-10-23T11:00:00Z,-34.82,-58.53,12.0,8.0,130,6,,6.21,30.236221,,,,,,TRUE,,,,,SCT,3800,,,,,,,VFR,,,,,,,,,,,,METAR,16.0
SADF 231100Z 14005KT 9999 FEW042 13/08 Q1023 RMK PP000,SADF,2022-10-23T11:00:00Z,-34.45,-58.58,13.0,8.0,140,5,,6.21,30.206694,,,,,,,,,,,FEW,4200,,,,,,,VFR,,,,,,,,,,,,METAR,4.0
SACO 231100Z 02007KT CAVOK 11/07 Q1021 NOSIG RMK PP000,SACO,2022-10-23T11:00:00Z,-31.32,-64.22,11.0,7.0,20,7,,6.21,30.147638,,,,,,TRUE,,,,,CAVOK,,,,,,,,VFR,,,,,,,,,,,,METAR,474.0
SABE 231100Z 14005KT 100V200 9999 BKN036 13/07 Q1023 NOSIG RMK PP000,SABE,2022-10-23T11:00:00Z,-34.57,-58.42,13.0,7.0,140,5,,6.21,30.206694,,,,,,TRUE,,,,,BKN,3600,,,,,,,VFR,,,,,,,,,,,,METAR,3.0
SAAR 231100Z 09010KT 9999 FEW009 12/10 Q1023 RMK PP000,SAAR,2022-10-23T11:00:00Z,-32.92,-60.77,12.0,10.0,90,10,,6.21,30.206694,,,,,,,,,,,FEW,900,,,,,,,VFR,,,,,,,,,,,,METAR,24.0
RPVM 231100Z 32005KT 300V010 9999 FEW018CB BKN300 29/26 Q1009 RMK A2980 CB NE/NW WITH OCNL LTG,RPVM,2022-10-23T11:00:00Z,10.32,123.98,29.0,26.0,320,5,,6.21,29.793306,,,,,,,,,,,FEW,1800,BKN,30000,,,,,VFR,,,,,,,,,,,,METAR,9.0
RPMD 231100Z 29004KT 250V320 9999 FEW016 SCT090 27/23 Q1008 RMK A2977,RPMD,2022-10-23T11:00:00Z,7.12,125.65,27.0,23.0,290,4,,6.21,29.763779,,,,,,,,,,,FEW,1600,SCT,9000,,,,,VFR,,,,,,,,,,,,METAR,19.0
RPLL 231100Z 11005KT 070V150 9999 FEW023CB FEW025 SCT100 28/24 Q1009 NOSIG RMK A2980 CB W WITH OCNL LTG,RPLL,2022-10-23T11:00:00Z,14.52,121.0,28.0,24.0,110,5,,6.21,29.793306,,,,,,TRUE,,,,,FEW,2300,FEW,2500,SCT,10000,,,VFR,,,,,,,,,,,,METAR,15.0
RPLI 231100Z 10004KT 9999 FEW018 SCT100 27/25 Q1009 RETS NOSIG RMK A2980,RPLI,2022-10-23T11:00:00Z,18.17,120.52,27.0,25.0,100,4,,6.21,29.793306,,,,,,TRUE,,,,,FEW,1800,SCT,10000,,,,,VFR,,,,,,,,,,,,METAR,5.0
RPLB 231100Z 34003KT 240V050 8000 FEW018CB SCT020 BKN300 28/25 Q1010 NOSIG RMK A2983 CB S/W WITH OCNL LTG,RPLB,2022-10-23T11:00:00Z,14.8,120.27,28.0,25.0,340,3,,4.97,29.822834,,,,,,TRUE,,,,,FEW,1800,SCT,2000,BKN,30000,,,MVFR,,,,,,,,,,,,METAR,19.0
ROYN 231100Z AUTO 01026KT 8000 -RA FEW015 SCT017 BKN033 24/24 Q1015,ROYN,2022-10-23T11:00:00Z,24.47,122.97,24.0,24.0,10,26,,4.97,29.970472,,,TRUE,,,,,,,-RA,FEW,1500,SCT,1700,BKN,3300,,,MVFR,,,,,,,,,,,,METAR,21.0
RORY 231100Z AUTO 02015G26KT 9999 FEW015 SCT024 OVC045 25/22 Q1012,RORY,2022-10-23T11:00:00Z,27.05,128.4,25.0,22.0,20,15,26,6.21,29.88189,,,TRUE,,,,,,,,FEW,1500,SCT,2400,OVC,4500,,,VFR,,,,,,,,,,,,METAR,13.0
RORK 231100Z AUTO 26007KT 9999 BKN009 BKN039 BKN150 27/25 Q1009,RORK,2022-10-23T11:00:00Z,25.93,131.32,27.0,25.0,260,7,,6.21,29.793306,,,TRUE,,,,,,,,BKN,900,BKN,3900,BKN,15000,,,IFR,,,,,,,,,,,,METAR,11.0
ROMY 231100Z 01015G25KT 9999 VCSH SCT015 BKN050 BKN160 24/22 Q1013,ROMY,2022-10-23T11:00:00Z,24.78,125.27,24.0,22.0,10,15,25,6.21,29.911417,,,,,,,,,,VCSH,SCT,1500,BKN,5000,BKN,16000,,,VFR,,,,,,,,,,,,METAR,38.0
ROMD 231100Z AUTO 26004KT 220V300 9999 FEW008 SCT010 BKN011 27/26 Q1009,ROMD,2022-10-23T11:00:00Z,25.83,131.25,27.0,26.0,260,4,,6.21,29.793306,,,TRUE,,,,,,,,FEW,800,SCT,1000,BKN,1100,,,MVFR,,,,,,,,,,,,METAR,45.0
ROIG 231100Z 01011KT 9999 VCSH FEW014 BKN030 24/23 Q1014,ROIG,2022-10-23T11:00:00Z,24.38,124.23,24.0,23.0,10,11,,6.21,29.940945,,,,,,,,,,VCSH,FEW,1400,BKN,3000,,,,,MVFR,,,,,,,,,,,,METAR,37.0
RODN 231100Z 01011KT 10SM -RA BKN021 BKN027 OVC037 25/21 A2987 RMK AO2A RAB00 CIG 021V027 SLP120 $,RODN,2022-10-23T11:00:00Z,26.35,127.77,25.0,21.0,10,11,,10.0,29.870079,1012.0,,,TRUE,TRUE,,,,,-RA,BKN,2100,BKN,2700,OVC,3700,,,MVFR,,,,,,,,,,,,SPECI,38.0
ROAH 231100Z 02022KT 9999 -SHRA SCT022 BKN035 26/21 Q1012 RMK 3CU022 6SC035 A2989,ROAH,2022-10-23T11:00:00Z,26.18,127.65,26.0,21.0,20,22,,6.21,29.88189,,,,,,,,,,-SHRA,SCT,2200,BKN,3500,,,,,VFR,,,,,,,,,,,,METAR,6.0
RKTU 231100Z 11001KT CAVOK 11/05 Q1019,RKTU,2022-10-23T11:00:00Z,36.7,127.5,11.0,5.0,110,1,,6.21,30.088583,,,,,,,,,,,CAVOK,,,,,,,,VFR,,,,,,,,,,,,METAR,46.0
RKTN 231100Z 15007KT 9999 BKN050 15/09 Q1018,RKTN,2022-10-23T11:00:00Z,35.88,128.65,15.0,9.0,150,7,,6.21,30.059055,,,,,,,,,,,BKN,5000,,,,,,,VFR,,,,,,,,,,,,METAR,25.0
RKSS 231100Z 29007KT CAVOK 12/00 Q1020 NOSIG,RKSS,2022-10-23T11:00:00Z,37.55,126.78,12.0,0.0,290,7,,6.21,30.11811,,,,,,TRUE,,,,,CAVOK,,,,,,,,VFR,,,,,,,,,,,,METAR,18.0
RKSM 231100Z 32007KT 9999 SKC 14/M04 A3011,RKSM,2022-10-23T11:00:00Z,37.43,127.12,14.0,-4.0,320,7,,6.21,30.109253,,,,,,,,,,,SKC,,,,,,,,VFR,,,,,,,,,,,,METAR,18.0
RKSI 231100Z 32013KT CAVOK 13/02 Q1020 NOSIG,RKSI,2022-10-23T11:00:00Z,37.47,126.45,13.0,2.0,320,13,,6.21,30.11811,,,,,,TRUE,,,,,CAVOK,,,,,,,,VFR,,,,,,,,,,,,METAR,7.0
RKPK 231100Z 04011KT CAVOK 17/09 Q1017,RKPK,2022-10-23T11:00:00Z,35.17,128.93,17.0,9.0,40,11,,6.21,30.029528,,,,,,,,,,,CAVOK,,,,,,,,VFR,,,,,,,,,,,,METAR,3.0
RKPC 231100Z 36005KT 290V040 CAVOK 15/08 Q1020 NOSIG,RKPC,2022-10-23T11:00:00Z,33.5,126.48,15.0,8.0,360,5,,6.21,30.11811,,,,,,TRUE,,,,,CAVOK,,,,,,,,VFR,,,,,,,,,,,,METAR,23.0
RKNY 231100Z 22005KT CAVOK 09/09 Q1018 NOSIG,RKNY,2022-10-23T11:00:00Z,38.07,128.67,9.0,9.0,220,5,,6.21,30.059055,,,,,,TRUE,,,,,CAVOK,,,,,,,,VFR,,,,,,,,,,,,METAR,76.0
RKJB 231100Z 01007KT CAVOK 11/06 Q1020 NOSIG,RKJB,2022-10-23T11:00:00Z,34.98,126.38,11.0,6.0,10,7,,6.21,30.11811,,,,,,TRUE,,,,,CAVOK,,,,,,,,VFR,,,,,,,,,,,,METAR,16.0
RJTT 231100Z 06007KT 9999 FEW030 20/16 Q1008 BECMG 04008KT RMK 1CU030 A2979,RJTT,2022-10-23T11:00:00Z,35.55,139.77,20.0,16.0,60,7,,6.21,29.763779,,,,,,,,,,,FEW,3000,,,,,,,VFR,,,,,,,,,,,,METAR,5.0
RJSY 231100Z 33007G18KT 280V010 9999 FEW015 SCT030 BKN040 13/05 Q1014,RJSY,2022-10-23T11:00:00Z,38.82,139.78,13.0,5.0,330,7,18,6.21,29.940945,,,,,,,,,,,FEW,1500,SCT,3000,BKN,4000,,,VFR,,,,,,,,,,,,METAR,17.0
RJSS 231100Z 32012KT 9999 -SHRA FEW020 SCT050 BKN080 14/08 Q1011,RJSS,2022-10-23T11:00:00Z,38.13,140.92,14.0,8.0,320,12,,6.21,29.852362,,,,,,,,,,-SHRA,FEW,2000,SCT,5000,BKN,8000,,,VFR,,,,,,,,,,,,METAR,5.0
RJSN 231100Z 12005KT 040V170 9999 -SHRA FEW015 SCT025 BKN035 12/11 Q1014,RJSN,2022-10-23T11:00:00Z,37.95,139.12,12.0,11.0,120,5,,6.21,29.940945,,,,,,,,,,-SHRA,FEW,1500,SCT,2500,BKN,3500,,,VFR,,,,,,,,,,,,METAR,4.0
RJSM 231100Z 27008KT 9999 FEW015 SCT035 09/03 Q1012,RJSM,2022-10-23T11:00:00Z,40.7,141.37,9.0,3.0,270,8,,6.21,29.88189,,,,,,,,,,,FEW,1500,SCT,3500,,,,,VFR,,,,,,,,,,,,METAR,31.0
RJSK 231100Z 32004KT 9999 FEW020 SCT050 08/06 Q1014,RJSK,2022-10-23T11:00:00Z,39.62,140.22,8.0,6.0,320,4,,6.21,29.940945,,,,,,,,,,,FEW,2000,SCT,5000,,,,,VFR,,,,,,,,,,,,METAR,95.0
RJSF 231100Z 35013KT 9999 FEW015 BKN025 BKN040 13/10 Q1012,RJSF,2022-10-23T11:00:00Z,37.22,140.42,13.0,10.0,350,13,,6.21,29.88189,,,,,,,,,,,FEW,1500,BKN,2500,BKN,4000,,,MVFR,,,,,,,,,,,,METAR,373.0
RJSA 231100Z 22005KT 9999 FEW010 BKN050 06/05 Q1012,RJSA,2022-10-23T11:00:00Z,40.72,140.68,6.0,5.0,220,5,,6.21,29.88189,,,,,,,,,,,FEW,1000,BKN,5000,,,,,VFR,,,,,,,,,,,,METAR,196.0
RJOT 231100Z 14005KT 9999 -RA FEW030 SCT060 BKN080 16/12 Q1012,RJOT,2022-10-23T11:00:00Z,34.22,134.02,16.0,12.0,140,5,,6.21,29.88189,,,,,,,,,,-RA,FEW,3000,SCT,6000,BKN,8000,,,VFR,,,,,,,,,,,,METAR,181.0
RJOS 231100Z 29005KT 9999 FEW030 19/09 Q1011,RJOS,2022-10-23T11:00:00Z,34.12,134.62,19.0,9.0,290,5,,6.21,29.852362,,,,,,,,,,,FEW,3000,,,,,,,VFR,,,,,,,,,,,,METAR,3.0
RJOR 231100Z 04024KT 9999 VCSH FEW015 SCT025 BKN040 15/13 Q1014,RJOR,2022-10-23T11:00:00Z,35.52,134.17,15.0,13.0,40,24,,6.21,29.940945,,,,,,,,,,VCSH,FEW,1500,SCT,2500,BKN,4000,,,VFR,,,,,,,,,,,,METAR,11.0
RJOO 231100Z 32010KT 9999 FEW030 17/11 Q1012 RMK 1CU030 A2988,RJOO,2022-10-23T11:00:00Z,34.78,135.43,17.0,11.0,320,10,,6.21,29.88189,,,,,,,,,,,FEW,3000,,,,,,,VFR,,,,,,,,,,,,METAR,11.0
RJOM 231100Z 11008KT 9999 FEW050 19/14 Q1012 WS R32,RJOM,2022-10-23T11:00:00Z,33.82,132.68,19.0,14.0,110,8,,6.21,29.88189,,,,,,,,,,,FEW,5000,,,,,,,VFR,,,,,,,,,,,,SPECI,3.0
RJOK 231100Z 01006KT 9999 FEW030 19/12 Q1011,RJOK,2022-10-23T11:00:00Z,33.53,133.67,19.0,12.0,10,6,,6.21,29.852362,,,,,,,,,,,FEW,3000,,,,,,,VFR,,,,,,,,,,,,METAR,7.0
RJOH 231100Z 03020KT 9999 -SHRA FEW008 SCT015 BKN030 16/13 Q1013,RJOH,2022-10-23T11:00:00Z,35.48,133.25,16.0,13.0,30,20,,6.21,29.911417,,,,,,,,,,-SHRA,FEW,800,SCT,1500,BKN,3000,,,MVFR,,,,,,,,,,,,METAR,6.0
RJOB 231100Z 34003KT 300V050 9999 FEW025 16/11 Q1012,RJOB,2022-10-23T11:00:00Z,34.75,133.85,16.0,11.0,340,3,,6.21,29.88189,,,,,,,,,,,FEW,2500,,,,,,,VFR,,,,,,,,,,,,METAR,242.0
RJOA 231100Z 32008KT 9999 FEW025 16/11 Q1013,RJOA,2022-10-23T11:00:00Z,34.43,132.92,16.0,11.0,320,8,,6.21,29.911417,,,,,,,,,,,FEW,2500,,,,,,,VFR,,,,,,,,,,,,METAR,318.0
RJNT 231100Z VRB01KT 9999 -SHRA FEW010 SCT020 BKN025 14/12 Q1014,RJNT,2022-10-23T11:00:00Z,36.63,137.18,14.0,12.0,0,1,,6.21,29.940945,,,,,,,,,,-SHRA,FEW,1000,SCT,2000,BKN,2500,,,MVFR,,,,,,,,,,,,METAR,30.0
RJNS 231100Z 27016KT 9999 FEW030 18/09 Q1008,RJNS,2022-10-23T11:00:00Z,34.8,138.18,18.0,9.0,270,16,,6.21,29.763779,,,,,,,,,,,FEW,3000,,,,,,,VFR,,,,,,,,,,,,METAR,133.0
RJNK 231100Z 05012KT 9999 FEW010 BKN020 BKN030 14/11 Q1014,RJNK,2022-10-23T11:00:00Z,36.38,136.42,14.0,11.0,50,12,,6.21,29.940945,,,,,,,,,,,FEW,1000,BKN,2000,BKN,3000,,,MVFR,,,,,,,,,,,,METAR,7.0
RJKI 231100Z AUTO 02015KT 5000 BR FEW015 BKN019 BKN027 23/21 Q1012,RJKI,2022-10-23T11:00:00Z,28.32,129.92,23.0,21.0,20,15,,3.11,29.88189,,,TRUE,,,,,,,BR,FEW,1500,BKN,1900,BKN,2700,,,MVFR,,,,,,,,,,,,METAR,6.0
RJKA 231100Z AUTO 35012KT 9999 FEW023 OVC080 23/20 Q1012,RJKA,2022-10-23T11:00:00Z,28.42,129.72,23.0,20.0,350,12,,6.21,29.88189,,,TRUE,,,,,,,,FEW,2300,OVC,8000,,,,,VFR,,,,,,,,,,,,METAR,7.0
RJGG 231100Z 31015KT CAVOK 20/14 Q1010 NOSIG,RJGG,2022-10-23T11:00:00Z,34.87,136.8,20.0,14.0,310,15,,6.21,29.822834,,,,,,TRUE,,,,,CAVOK,,,,,,,,VFR,,,,,,,,,,,,METAR,5.0
RJFU 231100Z 36011KT CAVOK 19/14 Q1014,RJFU,2022-10-23T11:00:00Z,32.92,129.92,19.0,14.0,360,11,,6.21,29.940945,,,,,,,,,,,CAVOK,,,,,,,,VFR,,,,,,,,,,,,METAR,2.0
RJFT 231100Z 34004KT 250V050 9999 SCT045 17/12 Q1014,RJFT,2022-10-23T11:00:00Z,32.83,130.85,17.0,12.0,340,4,,6.21,29.940945,,,,,,,,,,,SCT,4500,,,,,,,VFR,,,,,,,,,,,,METAR,188.0
RJFS 231100Z 35005KT 9999 FEW030 16/13 Q1014,RJFS,2022-10-23T11:00:00Z,33.15,130.3,16.0,13.0,350,5,,6.21,29.940945,,,,,,,,,,,FEW,3000,,,,,,,VFR,,,,,,,,,,,,METAR,2.0
RJFR 231100Z 30007KT 9999 FEW030 19/12 Q1014,RJFR,2022-10-23T11:00:00Z,33.83,131.03,19.0,12.0,300,7,,6.21,29.940945,,,,,,,,,,,FEW,3000,,,,,,,VFR,,,,,,,,,,,,METAR,9.0
RJFO 231100Z 32006KT 9999 FEW035 19/13 Q1013,RJFO,2022-10-23T11:00:00Z,33.47,131.73,19.0,13.0,320,6,,6.21,29.911417,,,,,,,,,,,FEW,3500,,,,,,,VFR,,,,,,,,,,,,METAR,3.0
RJFM 231100Z 04004KT 9999 FEW015 SCT020 BKN040 23/19 Q1012,RJFM,2022-10-23T11:00:00Z,31.87,131.43,23.0,19.0,40,4,,6.21,29.88189,,,,,,,,,,,FEW,1500,SCT,2000,BKN,4000,,,VFR,,,,,,,,,,,,METAR,10.0
RJFK 231100Z 34006KT 9999 FEW030 17/13 Q1013 RMK 1CU030 A2994,RJFK,2022-10-23T11:00:00Z,31.8,130.72,17.0,13.0,340,6,,6.21,29.911417,,,,,,,,,,,FEW,3000,,,,,,,VFR,,,,,,,,,,,,METAR,271.0
RJFF 231100Z 35008KT 9999 FEW030 19/12 Q1014 NOSIG RMK 1CU030 A2997,RJFF,2022-10-23T11:00:00Z,33.58,130.45,19.0,12.0,350,8,,6.21,29.940945,,,,,,TRUE,,,,,FEW,3000,,,,,,,VFR,,,,,,,,,,,,METAR,7.0
RJEC 231100Z 32006KT 9999 -SHRA FEW001 SCT003 BKN007 05/05 Q1010,RJEC,2022-10-23T11:00:00Z,43.67,142.43,5.0,5.0,320,6,,6.21,29.822834,,,,,,,,,,-SHRA,FEW,100,SCT,300,BKN,700,,,IFR,,,,,,,,,,,,METAR,209.0
RJDT 231100Z 36005KT 320V060 9999 FEW030 SCT050 17/13 Q1015,RJDT,2022-10-23T11:00:00Z,34.28,129.32,17.0,13.0,360,5,,6.21,29.970472,,,,,,,,,,,FEW,3000,SCT,5000,,,,,VFR,,,,,,,,,,,,METAR,61.0
RJDC 231100Z 32004KT 260V020 9999 FEW035 18/12 Q1014,RJDC,2022-10-23T11:00:00Z,33.92,131.27,18.0,12.0,320,4,,6.21,29.940945,,,,,,,,,,,FEW,3500,,,,,,,VFR,,,,,,,,,,,,METAR,5.0
RJDB 231100Z AUTO 34005KT 9999 NCD 18/10 Q1014,RJDB,2022-10-23T11:00:00Z,33.75,129.78,18.0,10.0,340,5,,6.21,29.940945,,,TRUE,,,,,,,,CLR,,,,,,,,VFR,,,,,,,,,,,,METAR,13.0
RJCO 231100Z 05004KT 360V080 9999 FEW020 SCT050 BKN080 07/06 Q1012,RJCO,2022-10-23T11:00:00Z,43.12,141.37,7.0,6.0,50,4,,6.21,29.88189,,,,,,,,,,,FEW,2000,SCT,5000,BKN,8000,,,VFR,,,,,,,,,,,,METAR,7.0
RJCM 231100Z 29003KT 9999 -SHRA FEW010 SCT020 BKN030 07/06 Q1010,RJCM,2022-10-23T11:00:00Z,43.88,144.17,7.0,6.0,290,3,,6.21,29.822834,,,,,,,,,,-SHRA,FEW,1000,SCT,2000,BKN,3000,,,MVFR,,,,,,,,,,,,METAR,30.0
RJCK 231100Z 05004KT 010V080 9999 -SHRA FEW010 SCT030 BKN040 07/06 Q1009,RJCK,2022-10-23T11:00:00Z,43.03,144.18,7.0,6.0,50,4,,6.21,29.793306,,,,,,,,,,-SHRA,FEW,1000,SCT,3000,BKN,4000,,,VFR,,,,,,,,,,,,METAR,94.0
RJCH 231100Z 29007KT 9999 FEW030 BKN050 08/03 Q1012,RJCH,2022-10-23T11:00:00Z,41.77,140.82,8.0,3.0,290,7,,6.21,29.88189,,,,,,,,,,,FEW,3000,BKN,5000,,,,,VFR,,,,,,,,,,,,METAR,36.0
RJCC 231100Z 35007KT 9999 FEW015 SCT040 BKN090 07/06 Q1011 RMK 1ST015 3CU040 6AC090 A2986,RJCC,2022-10-23T11:00:00Z,42.77,141.68,7.0,6.0,350,7,,6.21,29.852362,,,,,,,,,,,FEW,1500,SCT,4000,BKN,9000,,,VFR,,,,,,,,,,,,METAR,19.0
RJCB 231100Z 02005KT 270V040 9999 SCT030 BKN050 07/05 Q1009,RJCB,2022-10-23T11:00:00Z,42.72,143.22,7.0,5.0,20,5,,6.21,29.793306,,,,,,,,,,,SCT,3000,BKN,5000,,,,,VFR,,,,,,,,,,,,METAR,149.0
RJBE 231100Z 32003KT 9999 FEW030 19/11 Q1011,RJBE,2022-10-23T11:00:00Z,34.63,135.23,19.0,11.0,320,3,,6.21,29.852362,,,,,,,,,,,FEW,3000,,,,,,,VFR,,,,,,,,,,,,METAR,5.0
RJBB 231100Z 05010KT 9999 FEW030 19/12 Q1011 NOSIG,RJBB,2022-10-23T11:00:00Z,34.43,135.25,19.0,12.0,50,10,,6.21,29.852362,,,,,,TRUE,,,,,FEW,3000,,,,,,,VFR,,,,,,,,,,,,METAR,8.0
RJAH 231100Z 03010KT 9999 FEW030 SCT080 BKN/// 17/12 Q1009,RJAH,2022-10-23T11:00:00Z,36.17,140.42,17.0,12.0,30,10,,6.21,29.793306,,,,,,,,,,,FEW,3000,SCT,8000,,,,,VFR,,,,,,,,,,,,SPECI,31.0
RJAA 231100Z 03005KT 350V060 9999 FEW030 SCT090 19/15 Q1008 NOSIG RMK 1CU030 4AC090 A2979,RJAA,2022-10-23T11:00:00Z,35.77,140.38,19.0,15.0,30,5,,6.21,29.763779,,,,,,TRUE,,,,,FEW,3000,SCT,9000,,,,,VFR,,,,,,,,,,,,METAR,36.0
RCTP 231100Z 04020KT 9000 VCSH FEW012 BKN018 BKN025 23/20 Q1017 WS R05R NOSIG RMK A3004,RCTP,2022-10-23T11:00:00Z,25.07,121.22,23.0,20.0,40,20,,5.59,30.029528,,,,,,TRUE,,,,VCSH,FEW,1200,BKN,1800,BKN,2500,,,MVFR,,,,,,,,,,,,METAR,33.0
RCSS 231100Z 05005KT 330V090 9999 -RA FEW012 SCT025 BKN040 23/20 Q1017 NOSIG RMK A3005 RA AMT 0.4MM,RCSS,2022-10-23T11:00:00Z,25.07,121.55,23.0,20.0,50,5,,6.21,30.029528,,,,,,TRUE,,,,-RA,FEW,1200,SCT,2500,BKN,4000,,,VFR,,,,,,,,,,,,METAR,8.0
RCNN 231100Z 02006KT 9999 FEW012 SCT025 BKN050 25/20 Q1012 RMK A2991,RCNN,2022-10-23T11:00:00Z,22.93,120.2,25.0,20.0,20,6,,6.21,29.88189,,,,,,,,,,,FEW,1200,SCT,2500,BKN,5000,,,VFR,,,,,,,,,,,,SPECI,15.0
RCMQ 231100Z 01013KT 9000 -RA FEW006 BKN025 BKN050 20/20 Q1014 NOSIG RMK A2996,RCMQ,2022-10-23T11:00:00Z,24.27,120.62,20.0,20.0,10,13,,5.59,29.940945,,,,,,TRUE,,,,-RA,FEW,600,BKN,2500,BKN,5000,,,MVFR,,,,,,,,,,,,SPECI,202.0
RCKH 231100Z 01003KT 350V060 8000 FEW015 SCT030 BKN150 28/23 Q1011 NOSIG RMK A2988,RCKH,2022-10-23T11:00:00Z,22.57,120.33,28.0,23.0,10,3,,4.97,29.852362,,,,,,TRUE,,,,,FEW,1500,SCT,3000,BKN,15000,,,MVFR,,,,,,,,,,,,METAR,6.0
RCFN 231100Z VRB02KT 9999 -RA SCT005 BKN015 OVC035 22/22 Q1015 NOSIG RMK A2999,RCFN,2022-10-23T11:00:00Z,22.77,121.1,22.0,22.0,0,2,,6.21,29.970472,,,,,,TRUE,,,,-RA,SCT,500,BKN,1500,OVC,3500,,,MVFR,,,,,,,,,,,,SPECI,42.0
PLCH 231100Z 10004KT 9999 SCT019 SCT040 26/23 Q1009,PLCH,2022-10-23T11:00:00Z,1.98,-157.35,26.0,23.0,100,4,,6.21,29.793306,,,,,,,,,,,SCT,1900,SCT,4000,,,,,VFR,,,,,,,,,,,,METAR,5.0
PKWA 231100Z AUTO 08008KT 10SM SCT018 SCT027 BKN120 27/24 A2986 RMK AO2 T02660238,PKWA,2022-10-23T11:00:00Z,8.72,167.72,26.6,23.8,80,8,,10.0,29.861221,,,TRUE,TRUE,,,,,,,SCT,1800,SCT,2700,BKN,12000,,,VFR,,,,,,,,,,,,SPECI,6.0
PASC 231100Z 10010KT 1 1/2SM BR OVC006 M07/M07 A3002 RMK AO2 I1001 T10671072 $,PASC,2022-10-23T11:00:00Z,70.2,-148.47,-6.7,-7.2,100,10,,1.5,30.02067,,,,TRUE,TRUE,,,,,BR,OVC,600,,,,,,,IFR,,,,,,,,,,,,SPECI,17.0
OTHH 231100Z 03008KT 010V070 CAVOK 34/15 Q1015 NOSIG,OTHH,2022-10-23T11:00:00Z,25.27,51.6,34.0,15.0,30,8,,6.21,29.970472,,,,,,TRUE,,,,,CAVOK,,,,,,,,VFR,,,,,,,,,,,,METAR,3.0
OTBD 231100Z 02008KT CAVOK 35/13 Q1015 NOSIG,OTBD,2022-10-23T11:00:00Z,25.25,51.57,35.0,13.0,20,8,,6.21,29.970472,,,,,,TRUE,,,,,CAVOK,,,,,,,,VFR,,,,,,,,,,,,METAR,13.0
OSLK 231100Z 01006KT 8000 SCT030 29/13 Q1017,OSLK,2022-10-23T11:00:00Z,35.4,35.95,29.0,13.0,10,6,,4.97,30.029528,,,,,,,,,,,SCT,3000,,,,,,,MVFR,,,,,,,,,,,,METAR,47.0
OSKL 231100Z 24004KT CAVOK 24/05 Q1019,OSKL,2022-10-23T11:00:00Z,37.03,41.2,24.0,5.0,240,4,,6.21,30.088583,,,,,,,,,,,CAVOK,,,,,,,,VFR,,,,,,,,,,,,METAR,443.0
OSDI 231100Z 08008KT CAVOK 25/09 Q1019,OSDI,2022-10-23T11:00:00Z,33.42,36.52,25.0,9.0,80,8,,6.21,30.088583,,,,,,,,,,,CAVOK,,,,,,,,VFR,,,,,,,,,,,,METAR,614.0
ORSU 231100Z VRB02KT 8000 SCT045 SCT080 27/15 Q1021,ORSU,2022-10-23T11:00:00Z,35.57,45.32,27.0,15.0,0,2,,4.97,30.147638,,,,,,,,,,,SCT,4500,SCT,8000,,,,,MVFR,,,,,,,,,,,,METAR,760.0
ORNI 231100Z 04003KT 6000 NSC 34/11 Q1014,ORNI,2022-10-23T11:00:00Z,31.98,44.4,34.0,11.0,40,3,,3.73,29.940945,,,,,,,,,,,CLR,,,,,,,,MVFR,,,,,,,,,,,,METAR,33.0
ORMM 231100Z 23004KT CAVOK 39/06 Q1014 NOSIG,ORMM,2022-10-23T11:00:00Z,30.53,47.67,39.0,6.0,230,4,,6.21,29.940945,,,,,,TRUE,,,,,CAVOK,,,,,,,,VFR,,,,,,,,,,,,METAR,2.0
ORER 231100Z VRB05KT CAVOK 28/08 Q1020,ORER,2022-10-23T11:00:00Z,36.23,43.97,28.0,8.0,0,5,,6.21,30.11811,,,,,,,,,,,CAVOK,,,,,,,,VFR,,,,,,,,,,,,METAR,399.0
ORBI 231100Z 34008KT 5000 DU NSC 33/16 Q1014 NOSIG,ORBI,2022-10-23T11:00:00Z,33.27,44.23,33.0,16.0,340,8,,3.11,29.940945,,,,,,TRUE,,,,DU,CLR,,,,,,,,MVFR,,,,,,,,,,,,METAR,37.0
OPST 231100Z 31004KT 4000 HZ NSC 30/11 Q1015 NOSIG 31%,OPST,2022-10-23T11:00:00Z,32.53,74.37,30.0,11.0,310,4,,2.49,29.970472,,,,,,TRUE,,,,HZ,CLR,,,,,,,,IFR,,,,,,,,,,,,METAR,234.0
OPPS 231100Z 05006KT 6000 HZ NSC 27/10 Q1016,OPPS,2022-10-23T11:00:00Z,33.98,71.52,27.0,10.0,50,6,,3.73,30.0,,,,,,,,,,HZ,CLR,,,,,,,,MVFR,,,,,,,,,,,,METAR,356.0
OPMT 231100Z 18004KT 4000 HZ NSC 32/13 Q1014 NOSIG,OPMT,2022-10-23T11:00:00Z,30.2,71.42,32.0,13.0,180,4,,2.49,29.940945,,,,,,TRUE,,,,HZ,CLR,,,,,,,,IFR,,,,,,,,,,,,METAR,122.0
OPKC 231100Z 23013KT 6000 NSC 35/09 Q1013 NOSIG,OPKC,2022-10-23T11:00:00Z,24.9,67.13,35.0,9.0,230,13,,3.73,29.911417,,,,,,TRUE,,,,,CLR,,,,,,,,MVFR,,,,,,,,,,,,METAR,20.0
OPIS 231100Z 27004KT 7000 NSC 28/08 Q1016 NOSIG,OPIS,2022-10-23T11:00:00Z,33.55,72.83,28.0,8.0,270,4,,4.35,30.0,,,,,,TRUE,,,,,CLR,,,,,,,,MVFR,,,,,,,,,,,,METAR,542.0
OMSJ 231100Z 30012KT CAVOK 35/14 Q1014 NOSIG,OMSJ,2022-10-23T11:00:00Z,25.32,55.52,35.0,14.0,300,12,,6.21,29.940945,,,,,,TRUE,,,,,CAVOK,,,,,,,,VFR,,,,,,,,,,,,METAR,33.0
OMRK 231100Z 34010KT CAVOK 35/17 Q1014 A2997,OMRK,2022-10-23T11:00:00Z,25.62,55.93,35.0,17.0,340,10,,6.21,29.940945,,,,,,,,,,,CAVOK,,,,,,,,VFR,,,,,,,,,,,,METAR,18.0
OMFJ 231100Z 08005KT 7000 NSC 32/19 Q1014 A2996,OMFJ,2022-10-23T11:00:00Z,25.1,56.32,32.0,19.0,80,5,,4.35,29.940945,,,,,,,,,,,CLR,,,,,,,,MVFR,,,,,,,,,,,,METAR,27.0
OMDW 231100Z 18003KT 130V250 CAVOK 37/07 Q1015 BECMG 34014KT,OMDW,2022-10-23T11:00:00Z,24.9,55.17,37.0,7.0,180,3,,6.21,29.970472,,,,,,,,,,,CAVOK,,,,,,,,VFR,,,,,,,,,,,,METAR,34.0
OMDB 231100Z 34011KT CAVOK 35/14 Q1014 NOSIG,OMDB,2022-10-23T11:00:00Z,25.25,55.37,35.0,14.0,340,11,,6.21,29.940945,,,,,,TRUE,,,,,CAVOK,,,,,,,,VFR,,,,,,,,,,,,METAR,5.0
OMAL 231100Z 18007KT 090V260 CAVOK 35/08 Q1016 BECMG 27008KT,OMAL,2022-10-23T11:00:00Z,24.25,55.6,35.0,8.0,180,7,,6.21,30.0,,,,,,,,,,,CAVOK,,,,,,,,VFR,,,,,,,,,,,,METAR,247.0
OMAD 231100Z 34010KT CAVOK 33/21 Q1014 NOSIG,OMAD,2022-10-23T11:00:00Z,24.42,54.47,33.0,21.0,340,10,,6.21,29.940945,,,,,,TRUE,,,,,CAVOK,,,,,,,,VFR,,,,,,,,,,,,METAR,9.0
OMAA 231100Z 30013KT CAVOK 34/17 Q1013 NOSIG,OMAA,2022-10-23T11:00:00Z,24.42,54.65,34.0,17.0,300,13,,6.21,29.911417,,,,,,TRUE,,,,,CAVOK,,,,,,,,VFR,,,,,,,,,,,,METAR,13.0
OLBA 231100Z 32006KT 280V350 8000 NSC 27/18 Q1018 NOSIG,OLBA,2022-10-23T11:00:00Z,33.82,35.48,27.0,18.0,320,6,,4.97,30.059055,,,,,,TRUE,,,,,CLR,,,,,,,,MVFR,,,,,,,,,,,,METAR,29.0
OKBK 231100Z 10006KT CAVOK 37/12 Q1014 NOSIG,OKBK,2022-10-23T11:00:00Z,29.22,47.97,37.0,12.0,100,6,,6.21,29.940945,,,,,,TRUE,,,,,CAVOK,,,,,,,,VFR,,,,,,,,,,,,METAR,55.0
OJAQ 231100Z 35005KT 6000 HZ 30/16 Q1015 NOSIG,OJAQ,2022-10-23T11:00:00Z,29.62,35.02,30.0,16.0,350,5,,3.73,29.970472,,,,,,TRUE,,,,HZ,,,,,,,,,,,,,,,,,,,,,METAR,45.0
OJAM 231100Z 09006KT 5000 HZ NSC 26/08 Q1019 NOSIG,OJAM,2022-10-23T11:00:00Z,31.98,35.98,26.0,8.0,90,6,,3.11,30.088583,,,,,,TRUE,,,,HZ,CLR,,,,,,,,MVFR,,,,,,,,,,,,METAR,765.0
OJAI 231100Z 10009KT 5000 HZ SCT035 SCT080 26/09 Q1019 NOSIG,OJAI,2022-10-23T11:00:00Z,31.72,36.0,26.0,9.0,100,9,,3.11,30.088583,,,,,,TRUE,,,,HZ,SCT,3500,SCT,8000,,,,,MVFR,,,,,,,,,,,,METAR,723.0
OIZJ 231100Z 26006KT 8000 NSC 30/26 Q1013,OIZJ,2022-10-23T11:00:00Z,25.65,57.8,30.0,26.0,260,6,,4.97,29.911417,,,,,,,,,,,CLR,,,,,,,,MVFR,,,,,,,,,,,,METAR,6.0
OIZI 231100Z 23006KT CAVOK 35/03 Q1016,OIZI,2022-10-23T11:00:00Z,27.23,60.72,35.0,3.0,230,6,,6.21,30.0,,,,,,,,,,,CAVOK,,,,,,,,VFR,,,,,,,,,,,,METAR,622.0
OIZH 231100Z 04008KT CAVOK 29/M06 Q1022 A3021 NOSIG,OIZH,2022-10-23T11:00:00Z,29.47,60.92,29.0,-6.0,40,8,,6.21,30.177166,,,,,,TRUE,,,,,CAVOK,,,,,,,,VFR,,,,,,,,,,,,METAR,1378.0
OIZC 231100Z 22016KT 5000 SA NSC 31/21 Q1012,OIZC,2022-10-23T11:00:00Z,25.45,60.38,31.0,21.0,220,16,,3.11,29.88189,,,,,,,,,,SA,CLR,,,,,,,,MVFR,,,,,,,,,,,,METAR,13.0
OIZB 231100Z 34010KT 9000 NSC 32/07 Q1016,OIZB,2022-10-23T11:00:00Z,31.1,61.55,32.0,7.0,340,10,,5.59,30.0,,,,,,,,,,,CLR,,,,,,,,VFR,,,,,,,,,,,,METAR,483.0
OIYY 231100Z 09002KT 6000 NSC 30/M03 Q1022 NOSIG,OIYY,2022-10-23T11:00:00Z,31.9,54.28,30.0,-3.0,90,2,,3.73,30.177166,,,,,,TRUE,,,,,CLR,,,,,,,,MVFR,,,,,,,,,,,,METAR,1226.0
OITZ 231100Z 30002KT 9000 FEW015 FEW025CB SCT035 BKN080 18/09 Q1021 A3017 RETSRA,OITZ,2022-10-23T11:00:00Z,36.77,48.37,18.0,9.0,300,2,,5.59,30.147638,,,,,,,,,,,FEW,1500,FEW,2500,SCT,3500,BKN,8000,VFR,,,,,,,,,,,,METAR,1630.0
OITT 231100Z 25010KT 9999 FEW030TCU FEW032CB 16/09 Q1024 A3025,OITT,2022-10-23T11:00:00Z,38.13,46.23,16.0,9.0,250,10,,6.21,30.236221,,,,,,,,,,,FEW,3000,FEW,3200,,,,,VFR,,,,,,,,,,,,METAR,1353.0
OITR 231100Z 08004KT 9999 FEW035CB SCT040 15/08 Q1022,OITR,2022-10-23T11:00:00Z,37.67,45.07,15.0,8.0,80,4,,6.21,30.177166,,,,,,,,,,,FEW,3500,SCT,4000,,,,,VFR,,,,,,,,,,,,METAR,1312.0
OITP 231100Z 31004KT 9999 BKN040 15/15 Q1025,OITP,2022-10-23T11:00:00Z,39.6,47.88,15.0,15.0,310,4,,6.21,30.265747,,,,,,,,,,,BKN,4000,,,,,,,VFR,,,,,,,,,,,,METAR,72.0
OITM 231100Z 29004KT 8000 FEW035 20/09 Q1021,OITM,2022-10-23T11:00:00Z,37.35,46.15,20.0,9.0,290,4,,4.97,30.147638,,,,,,,,,,,FEW,3500,,,,,,,MVFR,,,,,,,,,,,,METAR,1340.0
OITL 231100Z 28006KT 9999 FEW010 SCT035 13/07 Q1023 NOSIG,OITL,2022-10-23T11:00:00Z,38.33,48.42,13.0,7.0,280,6,,6.21,30.206694,,,,,,TRUE,,,,,FEW,1000,SCT,3500,,,,,VFR,,,,,,,,,,,,METAR,1314.0
OITK 231100Z 01006KT 9999 SCT030CB FEW035 BKN090 13/07 Q1023,OITK,2022-10-23T11:00:00Z,38.42,44.98,13.0,7.0,10,6,,6.21,30.206694,,,,,,,,,,,SCT,3000,FEW,3500,BKN,9000,,,VFR,,,,,,,,,,,,METAR,1192.0
OISY 231100Z 00000KT CAVOK 26/M07 Q1027,OISY,2022-10-23T11:00:00Z,30.7,51.55,26.0,-7.0,0,0,,6.21,30.324802,,,,,,,,,,,CAVOK,,,,,,,,VFR,,,,,,,,,,,,METAR,1800.0
OISS 231100Z 08004KT 6000 NSC 27/M04 Q1023 A3023,OISS,2022-10-23T11:00:00Z,29.53,52.58,27.0,-4.0,80,4,,3.73,30.206694,,,,,,,,,,,CLR,,,,,,,,MVFR,,,,,,,,,,,,METAR,1484.0
OISR 231100Z 00000KT CAVOK 36/11 Q1017 A3004 NOSIG,OISR,2022-10-23T11:00:00Z,27.37,53.2,36.0,11.0,0,0,,6.21,30.029528,,,,,,TRUE,,,,,CAVOK,,,,,,,,VFR,,,,,,,,,,,,METAR,402.0
OISL 231100Z 28010KT CAVOK 33/06 Q1017 A3005 NOSIG,OISL,2022-10-23T11:00:00Z,27.67,54.37,33.0,6.0,280,10,,6.21,30.029528,,,,,,TRUE,,,,,CAVOK,,,,,,,,VFR,,,,,,,,,,,,METAR,804.0
OISF 231100Z 16010KT CAVOK 29/M04 Q1022 A3021,OISF,2022-10-23T11:00:00Z,28.9,53.72,29.0,-4.0,160,10,,6.21,30.177166,,,,,,,,,,,CAVOK,,,,,,,,VFR,,,,,,,,,,,,METAR,1305.0
OISA 231100Z 24002KT CAVOK 25/M10 Q1026 A3031,OISA,2022-10-23T11:00:00Z,31.03,52.78,25.0,-10.0,240,2,,6.21,30.295275,,,,,,,,,,,CAVOK,,,,,,,,VFR,,,,,,,,,,,,METAR,1949.0
OINZ 231100Z 06006KT 9999 SCT030 BKN090 23/16 Q1020,OINZ,2022-10-23T11:00:00Z,36.63,53.2,23.0,16.0,60,6,,6.21,30.11811,,,,,,,,,,,SCT,3000,BKN,9000,,,,,VFR,,,,,,,,,,,,METAR,8.0
OINR 231100Z 33016KT 9999 SCT022CB SCT026 BKN090 19/15 Q1019 RETS,OINR,2022-10-23T11:00:00Z,36.9,50.67,19.0,15.0,330,16,,6.21,30.088583,,,,,,,,,,,SCT,2200,SCT,2600,BKN,9000,,,VFR,,,,,,,,,,,,METAR,-19.0
OINN 231100Z 31017KT 9999 SCT023CB SCT026 24/19 Q1017,OINN,2022-10-23T11:00:00Z,36.67,51.47,24.0,19.0,310,17,,6.21,30.029528,,,,,,,,,,,SCT,2300,SCT,2600,,,,,VFR,,,,,,,,,,,,METAR,-25.0
OINK 231100Z 20004KT 9999 FEW030 24/14 Q1019 A3012,OINK,2022-10-23T11:00:00Z,37.25,55.1,24.0,14.0,200,4,,6.21,30.088583,,,,,,,,,,,FEW,3000,,,,,,,VFR,,,,,,,,,,,,METAR,30.0
OING 231100Z 12010KT 9999 FEW025 BKN100 23/16 Q1022 NOSIG,OING,2022-10-23T11:00:00Z,36.9,54.4,23.0,16.0,120,10,,6.21,30.177166,,,,,,TRUE,,,,,FEW,2500,BKN,10000,,,,,VFR,,,,,,,,,,,,METAR,0.0
OINE 231100Z 24006KT 9999 SCT025 BKN080 24/14 Q1021,OINE,2022-10-23T11:00:00Z,37.38,55.45,24.0,14.0,240,6,,6.21,30.147638,,,,,,,,,,,SCT,2500,BKN,8000,,,,,VFR,,,,,,,,,,,,METAR,125.0
OINB 231100Z 06004KT CAVOK 23/17 Q1018,OINB,2022-10-23T11:00:00Z,36.72,52.65,23.0,17.0,60,4,,6.21,30.059055,,,,,,,,,,,CAVOK,,,,,,,,VFR,,,,,,,,,,,,METAR,-20.0
OIMS 231100Z 20006KT 8000 NSC 26/10 Q1023,OIMS,2022-10-23T11:00:00Z,36.17,57.6,26.0,10.0,200,6,,4.97,30.206694,,,,,,,,,,,CLR,,,,,,,,MVFR,,,,,,,,,,,,METAR,920.0
OIMQ 231100Z 26004KT CAVOK 23/07 Q1022,OIMQ,2022-10-23T11:00:00Z,35.27,58.47,23.0,7.0,260,4,,6.21,30.177166,,,,,,,,,,,CAVOK,,,,,,,,VFR,,,,,,,,,,,,METAR,1101.0
OIMN 231100Z 08002KT 9999 FEW030TCU SCT190 20/10 Q1023,OIMN,2022-10-23T11:00:00Z,37.48,57.3,20.0,10.0,80,2,,6.21,30.206694,,,,,,,,,,,FEW,3000,SCT,19000,,,,,VFR,,,,,,,,,,,,METAR,1065.0
OIMM 231100Z 16006KT CAVOK 19/10 Q1024 A3025,OIMM,2022-10-23T11:00:00Z,36.23,59.63,19.0,10.0,160,6,,6.21,30.236221,,,,,,,,,,,CAVOK,,,,,,,,VFR,,,,,,,,,,,,METAR,995.0
OIMJ 231100Z 02008KT 9999 SCT030CB 21/07 Q1023,OIMJ,2022-10-23T11:00:00Z,36.43,55.1,21.0,7.0,20,8,,6.21,30.206694,,,,,,,,,,,SCT,3000,,,,,,,VFR,,,,,,,,,,,,METAR,1285.0
OIMD 231100Z 11004KT 8000 FEW035 25/07 Q1019,OIMD,2022-10-23T11:00:00Z,34.38,58.63,25.0,7.0,110,4,,4.97,30.088583,,,,,,,,,,,FEW,3500,,,,,,,MVFR,,,,,,,,,,,,METAR,1097.0
OIMB 231100Z 36008KT 9999 FEW040 29/M09 Q1022 A3021,OIMB,2022-10-23T11:00:00Z,32.9,59.28,29.0,-9.0,360,8,,6.21,30.177166,,,,,,,,,,,FEW,4000,,,,,,,VFR,,,,,,,,,,,,METAR,1512.0
OIKQ 231100Z 17010KT 6000 NSC 32/26 Q1014 NOSIG,OIKQ,2022-10-23T11:00:00Z,26.75,55.9,32.0,26.0,170,10,,3.73,29.940945,,,,,,TRUE,,,,,CLR,,,,,,,,MVFR,,,,,,,,,,,,METAR,9.0
OIKO 231100Z 21006KT CAVOK 35/16 Q1014,OIKO,2022-10-23T11:00:00Z,27.1,57.07,35.0,16.0,210,6,,6.21,29.940945,,,,,,,,,,,CAVOK,,,,,,,,VFR,,,,,,,,,,,,METAR,32.0
OIKK 231100Z 03006KT CAVOK 27/M07 Q1024 A3025,OIKK,2022-10-23T11:00:00Z,30.25,56.97,27.0,-7.0,30,6,,6.21,30.236221,,,,,,,,,,,CAVOK,,,,,,,,VFR,,,,,,,,,,,,METAR,1749.0
OIKB 231100Z 22010KT 5000 HZ FEW030 32/22 Q1013 A2994 NOSIG,OIKB,2022-10-23T11:00:00Z,27.22,56.37,32.0,22.0,220,10,,3.11,29.911417,,,,,,TRUE,,,,HZ,FEW,3000,,,,,,,MVFR,,,,,,,,,,,,METAR,6.0
OIIS 231100Z 22004KT 9999 FEW030TCU 26/03 Q1022,OIIS,2022-10-23T11:00:00Z,35.38,53.67,26.0,3.0,220,4,,6.21,30.177166,,,,,,,,,,,FEW,3000,,,,,,,VFR,,,,,,,,,,,,METAR,1115.0
OIIP 231100Z 04004KT 7000 FEW030CB SCT040 BKN100 21/05 Q1021 A3017,OIIP,2022-10-23T11:00:00Z,35.78,50.83,21.0,5.0,40,4,,4.35,30.147638,,,,,,,,,,,FEW,3000,SCT,4000,BKN,10000,,,MVFR,,,,,,,,,,,,METAR,1270.0
OIIK 231100Z 15010KT 9999 FEW040 BKN090 21/07 Q1022,OIIK,2022-10-23T11:00:00Z,36.25,50.05,21.0,7.0,150,10,,6.21,30.177166,,,,,,,,,,,FEW,4000,BKN,9000,,,,,VFR,,,,,,,,,,,,METAR,1278.0
OIII 231100Z 18004KT 9999 SCT040 SCT100 24/02 Q1022 A3019 NOSIG,OIII,2022-10-23T11:00:00Z,35.68,51.3,24.0,2.0,180,4,,6.21,30.177166,,,,,,TRUE,,,,,SCT,4000,SCT,10000,,,,,VFR,,,,,,,,,,,,METAR,1182.0
OIIE 231100Z 05003KT 9999 FEW040 SCT100 25/03 Q1021,OIIE,2022-10-23T11:00:00Z,35.42,51.15,25.0,3.0,50,3,,6.21,30.147638,,,,,,,,,,,FEW,4000,SCT,10000,,,,,VFR,,,,,,,,,,,,METAR,993.0
OIHR 231100Z 25021KT 6000 SCT035 25/M01 Q1024,OIHR,2022-10-23T11:00:00Z,34.13,49.85,25.0,-1.0,250,21,,3.73,30.236221,,,,,,,,,,,SCT,3500,,,,,,,MVFR,,,,,,,,,,,,METAR,1658.0
OIHM 231100Z 24008KT 9999 FEW035CB BKN040 23/M03 Q1025,OIHM,2022-10-23T11:00:00Z,34.28,48.82,23.0,-3.0,240,8,,6.21,30.265747,,,,,,,,,,,FEW,3500,BKN,4000,,,,,VFR,,,,,,,,,,,,METAR,1744.0
OIHH 231100Z 25014G23KT 8000 FEW030CB BKN040 24/M02 Q1024 A3025,OIHH,2022-10-23T11:00:00Z,34.87,48.55,24.0,-2.0,250,14,23,4.97,30.236221,,,,,,,,,,,FEW,3000,BKN,4000,,,,,MVFR,,,,,,,,,,,,METAR,1742.0
OIGG 231100Z 32006KT 3500 -RADZ BKN005 FEW015CB SCT080 16/16 Q1023,OIGG,2022-10-23T11:00:00Z,37.33,49.6,16.0,16.0,320,6,,2.17,30.206694,,,,,,,,,,-RA -DZ,BKN,500,FEW,1500,SCT,8000,,,IFR,,,,,,,,,,,,METAR,-16.0
OIFS 231100Z 22012KT 9999 FEW040 24/M10 Q1027,OIFS,2022-10-23T11:00:00Z,32.28,50.85,24.0,-10.0,220,12,,6.21,30.324802,,,,,,,,,,,FEW,4000,,,,,,,VFR,,,,,,,,,,,,METAR,2042.0
OIFM 231100Z VRB02KT 5000 HZ NSC 26/M03 Q1025 A3028,OIFM,2022-10-23T11:00:00Z,32.75,51.87,26.0,-3.0,0,2,,3.11,30.265747,,,,,,,,,,HZ,CLR,,,,,,,,MVFR,,,,,,,,,,,,METAR,1539.0
OIFK 231100Z 00000KT 9999 FEW040 28/00 Q1021,OIFK,2022-10-23T11:00:00Z,33.9,51.58,28.0,0.0,0,0,,6.21,30.147638,,,,,,,,,,,FEW,4000,,,,,,,VFR,,,,,,,,,,,,METAR,1058.0
OICS 231100Z 24014KT 9999 FEW035TCU 26/M00 Q1022 A3019,OICS,2022-10-23T11:00:00Z,35.25,47.02,26.0,0.0,240,14,,6.21,30.177166,,,,,,,,,,,FEW,3500,,,,,,,VFR,,,,,,,,,,,,METAR,1369.0
OICM 231100Z 27002KT CAVOK 38/06 Q1011,OICM,2022-10-23T11:00:00Z,,,38.0,6.0,270,2,,6.21,29.852362,,,,,,,,,,,CAVOK,,,,,,,,VFR,,,,,,,,,,,,METAR,
OICK 231100Z 26014KT 9999 FEW050 SCT200 29/M02 Q1022,OICK,2022-10-23T11:00:00Z,33.43,48.28,29.0,-2.0,260,14,,6.21,30.177166,,,,,,,,,,,FEW,5000,SCT,20000,,,,,VFR,,,,,,,,,,,,METAR,1156.0
OICJ 231100Z 09023KT 9999 SCT045 27/04 Q1024,OICJ,2022-10-23T11:00:00Z,33.9,48.75,27.0,4.0,90,23,,6.21,30.236221,,,,,,,,,,,SCT,4500,,,,,,,VFR,,,,,,,,,,,,METAR,1565.0
OICI 231100Z 15010KT 9999 FEW035 BKN190 27/M01 Q1024 A3026,OICI,2022-10-23T11:00:00Z,33.58,46.4,27.0,-1.0,150,10,,6.21,30.236221,,,,,,,,,,,FEW,3500,BKN,19000,,,,,VFR,,,,,,,,,,,,METAR,1323.0
OICC 231100Z 22014KT 9999 FEW045CB SCT050 SCT090 28/M07 Q1022 A3020,OICC,2022-10-23T11:00:00Z,34.35,47.17,28.0,-7.0,220,14,,6.21,30.177166,,,,,,,,,,,FEW,4500,SCT,5000,SCT,9000,,,VFR,,,,,,,,,,,,METAR,1310.0
OIBV 231100Z 36008KT 7000 NSC 34/22 Q1014,OIBV,2022-10-23T11:00:00Z,26.82,53.35,34.0,22.0,360,8,,4.35,29.940945,,,,,,,,,,,CLR,,,,,,,,MVFR,,,,,,,,,,,,METAR,23.0
OIBS 231100Z 09004KT 3500 HZ NSC 34/26 Q1014,OIBS,2022-10-23T11:00:00Z,25.9,54.55,34.0,26.0,90,4,,2.17,29.940945,,,,,,,,,,HZ,CLR,,,,,,,,IFR,,,,,,,,,,,,METAR,4.0
OIBQ 231100Z 00000KT 8000 NSC 31/23 Q1015 A2998,OIBQ,2022-10-23T11:00:00Z,29.27,50.32,31.0,23.0,0,0,,4.97,29.970472,,,,,,,,,,,CLR,,,,,,,,MVFR,,,,,,,,,,,,METAR,3.0
OIBP 231100Z 30008KT 8000 NSC 35/19 Q1019 A2994,OIBP,2022-10-23T11:00:00Z,27.38,52.73,35.0,19.0,300,8,,4.97,30.088583,,,,,,,,,,,CLR,,,,,,,,MVFR,,,,,,,,,,,,METAR,13.0
OIBL 231100Z 20006KT 5000 HZ NSC 32/23 Q1014,OIBL,2022-10-23T11:00:00Z,26.53,54.82,32.0,23.0,200,6,,3.11,29.940945,,,,,,,,,,HZ,CLR,,,,,,,,MVFR,,,,,,,,,,,,METAR,25.0
OIBK 231100Z 23008KT 8000 NSC 33/22 Q1014 NOSIG,OIBK,2022-10-23T11:00:00Z,26.53,53.98,33.0,22.0,230,8,,4.97,29.940945,,,,,,TRUE,,,,,CLR,,,,,,,,MVFR,,,,,,,,,,,,METAR,27.0
OIBJ 231100Z AUTO 19005KT //// // ////// 31/08 Q////,OIBJ,2022-10-23T11:00:00Z,27.82,52.35,31.0,8.0,190,5,,,,,,TRUE,,,,,,,,,,,,,,,,,,,,,,,,,,,,METAR,647.0
OIBH 231100Z 21010KT 5000 HZ NSC 32/25 Q1014 A2996,OIBH,2022-10-23T11:00:00Z,27.2,54.32,32.0,25.0,210,10,,3.11,29.940945,,,,,,,,,,HZ,CLR,,,,,,,,MVFR,,,,,,,,,,,,METAR,412.0
OIBB 231100Z 27008KT 6000 NSC 32/22 Q1014 A2996 NOSIG,OIBB,2022-10-23T11:00:00Z,28.93,50.83,32.0,22.0,270,8,,3.73,29.940945,,,,,,TRUE,,,,,CLR,,,,,,,,MVFR,,,,,,,,,,,,METAR,15.0
OIBA 231100Z 25004KT CAVOK 34/20 Q1013,OIBA,2022-10-23T11:00:00Z,25.88,55.03,34.0,20.0,250,4,,6.21,29.911417,,,,,,,,,,,CAVOK,,,,,,,,VFR,,,,,,,,,,,,METAR,7.0
OIAW 231100Z 15004KT 8000 NSC 35/18 Q1014,OIAW,2022-10-23T11:00:00Z,31.33,48.77,35.0,18.0,150,4,,4.97,29.940945,,,,,,,,,,,CLR,,,,,,,,MVFR,,,,,,,,,,,,METAR,25.0
OIAM 231100Z 23004KT CAVOK 36/16 Q1014,OIAM,2022-10-23T11:00:00Z,30.55,49.15,36.0,16.0,230,4,,6.21,29.940945,,,,,,,,,,,CAVOK,,,,,,,,VFR,,,,,,,,,,,,METAR,7.0
OIAH 231100Z 24010KT CAVOK 33/06 Q1019,OIAH,2022-10-23T11:00:00Z,30.33,50.83,33.0,6.0,240,10,,6.21,30.088583,,,,,,,,,,,CAVOK,,,,,,,,VFR,,,,,,,,,,,,METAR,730.0
OIAG 231100Z 34004KT CAVOK 38/13 Q1015,OIAG,2022-10-23T11:00:00Z,30.73,49.68,38.0,13.0,340,4,,6.21,29.970472,,,,,,,,,,,CAVOK,,,,,,,,VFR,,,,,,,,,,,,METAR,17.0
OIAA 231100Z 18002KT CAVOK 40/08 Q1014,OIAA,2022-10-23T11:00:00Z,30.35,48.22,40.0,8.0,180,2,,6.21,29.940945,,,,,,,,,,,CAVOK,,,,,,,,VFR,,,,,,,,,,,,METAR,4.0
OEYN 231100Z 19009KT CAVOK 37/18 Q1010 NOSIG,OEYN,2022-10-23T11:00:00Z,24.13,38.07,37.0,18.0,190,9,,6.21,29.822834,,,,,,TRUE,,,,,CAVOK,,,,,,,,VFR,,,,,,,,,,,,METAR,20.0
OEWJ 231100Z 30016KT CAVOK 30/20 Q1014 NOSIG,OEWJ,2022-10-23T11:00:00Z,26.18,36.47,30.0,20.0,300,16,,6.21,29.940945,,,,,,TRUE,,,,,CAVOK,,,,,,,,VFR,,,,,,,,,,,,METAR,8.0
OEWD 231100Z 12012KT CAVOK 34/14 Q1017 NOSIG,OEWD,2022-10-23T11:00:00Z,20.5,45.2,34.0,14.0,120,12,,6.21,30.029528,,,,,,TRUE,,,,,CAVOK,,,,,,,,VFR,,,,,,,,,,,,METAR,629.0
OETR 231100Z 09012KT 8000 NSC 29/12 Q1018 NOSIG,OETR,2022-10-23T11:00:00Z,31.7,38.73,29.0,12.0,90,12,,4.97,30.059055,,,,,,TRUE,,,,,CLR,,,,,,,,MVFR,,,,,,,,,,,,METAR,854.0
OETF 231100Z 14006KT 9999 FEW030 30/M05 Q1023 NOSIG,OETF,2022-10-23T11:00:00Z,21.47,40.53,30.0,-5.0,140,6,,6.21,30.206694,,,,,,TRUE,,,,,FEW,3000,,,,,,,VFR,,,,,,,,,,,,METAR,1460.0
OETB 231100Z 30005KT CAVOK 30/08 Q1016 NOSIG,OETB,2022-10-23T11:00:00Z,28.37,36.62,30.0,8.0,300,5,,6.21,30.0,,,,,,TRUE,,,,,CAVOK,,,,,,,,VFR,,,,,,,,,,,,METAR,770.0
OESK 231100Z 08008KT CAVOK 32/07 Q1019 NOSIG,OESK,2022-10-23T11:00:00Z,29.78,40.1,32.0,7.0,80,8,,6.21,30.088583,,,,,,TRUE,,,,,CAVOK,,,,,,,,VFR,,,,,,,,,,,,METAR,671.0
OESH 231100Z 06004KT CAVOK 34/06 Q1016 NOSIG,OESH,2022-10-23T11:00:00Z,17.47,47.12,34.0,6.0,60,4,,6.21,30.0,,,,,,TRUE,,,,,CAVOK,,,,,,,,VFR,,,,,,,,,,,,METAR,720.0
OERR 231100Z 06012KT CAVOK 29/09 Q1016 NOSIG,OERR,2022-10-23T11:00:00Z,30.9,41.13,29.0,9.0,60,12,,6.21,30.0,,,,,,TRUE,,,,,CAVOK,,,,,,,,VFR,,,,,,,,,,,,METAR,554.0
OERK 231100Z 21006KT CAVOK 34/02 Q1019 NOSIG,OERK,2022-10-23T11:00:00Z,24.95,46.72,34.0,2.0,210,6,,6.21,30.088583,,,,,,TRUE,,,,,CAVOK,,,,,,,,VFR,,,,,,,,,,,,METAR,618.0
OERF 231100Z 22008KT CAVOK 37/M04 Q1015 NOSIG,OERF,2022-10-23T11:00:00Z,29.62,43.48,37.0,-4.0,220,8,,6.21,29.970472,,,,,,TRUE,,,,,CAVOK,,,,,,,,VFR,,,,,,,,,,,,METAR,441.0
OEPA 231100Z 27007KT CAVOK 38/09 Q1017 NOSIG,OEPA,2022-10-23T11:00:00Z,28.33,46.12,38.0,9.0,270,7,,6.21,30.029528,,,,,,TRUE,,,,,CAVOK,,,,,,,,VFR,,,,,,,,,,,,METAR,361.0
OENG 231100Z 09008KT CAVOK 30/05 Q1020 NOSIG,OENG,2022-10-23T11:00:00Z,17.62,44.42,30.0,5.0,90,8,,6.21,30.11811,,,,,,TRUE,,,,,CAVOK,,,,,,,,VFR,,,,,,,,,,,,METAR,1210.0
OEMN 231100Z 19005KT CAVOK 37/16 Q1014,OEMN,2022-10-23T11:00:00Z,,,37.0,16.0,190,5,,6.21,29.940945,,,,,,,,,,,CAVOK,,,,,,,,VFR,,,,,,,,,,,,METAR,
OEMA 231100Z 12012KT CAVOK 37/M06 Q1017 NOSIG,OEMA,2022-10-23T11:00:00Z,24.55,39.7,37.0,-6.0,120,12,,6.21,30.029528,,,,,,TRUE,,,,,CAVOK,,,,,,,,VFR,,,,,,,,,,,,METAR,639.0
OEKM 231100Z 36003KT CAVOK 25/M05 Q1026 NOSIG,OEKM,2022-10-23T11:00:00Z,18.3,42.78,25.0,-5.0,360,3,,6.21,30.295275,,,,,,TRUE,,,,,CAVOK,,,,,,,,VFR,,,,,,,,,,,,METAR,2038.0
OEKJ 231100Z 17008KT CAVOK 35/M01 Q1021,OEKJ,2022-10-23T11:00:00Z,24.07,47.58,35.0,-1.0,170,8,,6.21,30.147638,,,,,,,,,,,CAVOK,,,,,,,,VFR,,,,,,,,,,,,METAR,487.0
OEJN 231100Z 28011KT CAVOK 33/23 Q1011 NOSIG,OEJN,2022-10-23T11:00:00Z,21.68,39.15,33.0,23.0,280,11,,6.21,29.852362,,,,,,TRUE,,,,,CAVOK,,,,,,,,VFR,,,,,,,,,,,,METAR,8.0
OEJB 231100Z AUTO 26006KT CAVOK 38/04 Q1014 NOSIG,OEJB,2022-10-23T11:00:00Z,27.05,49.4,38.0,4.0,260,6,,6.21,29.940945,,,TRUE,,,TRUE,,,,,CAVOK,,,,,,,,VFR,,,,,,,,,,,,METAR,6.0
OEHL 231100Z 21010KT CAVOK 33/M01 Q1020,OEHL,2022-10-23T11:00:00Z,27.43,41.68,33.0,-1.0,210,10,,6.21,30.11811,,,,,,,,,,,CAVOK,,,,,,,,VFR,,,,,,,,,,,,METAR,1002.0
OEGT 231100Z 00000KT CAVOK 30/05 Q1016 NOSIG,OEGT,2022-10-23T11:00:00Z,31.42,37.27,30.0,5.0,0,0,,6.21,30.0,,,,,,TRUE,,,,,CAVOK,,,,,,,,VFR,,,,,,,,,,,,METAR,512.0
OEGS 231100Z 15006KT CAVOK 34/07 Q1017,OEGS,2022-10-23T11:00:00Z,26.3,43.77,34.0,7.0,150,6,,6.21,30.029528,,,,,,,,,,,CAVOK,,,,,,,,VFR,,,,,,,,,,,,METAR,647.0
OEGN 231100Z 22010KT 9999 FEW030 35/23 Q1012 NOSIG,OEGN,2022-10-23T11:00:00Z,16.9,42.58,35.0,23.0,220,10,,6.21,29.88189,,,,,,TRUE,,,,,FEW,3000,,,,,,,VFR,,,,,,,,,,,,METAR,5.0
OEDR 231100Z 09010KT CAVOK 33/09 Q1014,OEDR,2022-10-23T11:00:00Z,26.27,50.17,33.0,9.0,90,10,,6.21,29.940945,,,,,,,,,,,CAVOK,,,,,,,,VFR,,,,,,,,,,,,METAR,17.0
OEDM 231100Z 06004KT CAVOK 32/M03 Q1019,OEDM,2022-10-23T11:00:00Z,24.45,44.12,32.0,-3.0,60,4,,6.21,30.088583,,,,,,,,,,,CAVOK,,,,,,,,VFR,,,,,,,,,,,,METAR,922.0
OEDF 231100Z 28007KT CAVOK 38/01 Q1014 NOSIG,OEDF,2022-10-23T11:00:00Z,26.43,49.82,38.0,1.0,280,7,,6.21,29.940945,,,,,,TRUE,,,,,CAVOK,,,,,,,,VFR,,,,,,,,,,,,METAR,15.0
OEBH 231100Z 21003KT CAVOK 30/10 Q1019 NOSIG,OEBH,2022-10-23T11:00:00Z,19.98,42.62,30.0,10.0,210,3,,6.21,30.088583,,,,,,TRUE,,,,,CAVOK,,,,,,,,VFR,,,,,,,,,,,,METAR,1167.0
OEBA 231100Z 17006KT CAVOK 27/07 Q1023 NOSIG,OEBA,2022-10-23T11:00:00Z,20.3,41.63,27.0,7.0,170,6,,6.21,30.206694,,,,,,TRUE,,,,,CAVOK,,,,,,,,VFR,,,,,,,,,,,,METAR,1659.0
OEAO 231100Z 18012KT 9999 FEW040 35/02 Q1016 NOSIG,OEAO,2022-10-23T11:00:00Z,26.48,38.12,35.0,2.0,180,12,,6.21,30.0,,,,,,TRUE,,,,,FEW,4000,,,,,,,VFR,,,,,,,,,,,,METAR,615.0
OEAH 231100Z 32003KT CAVOK 38/M02 Q1015 NOSIG,OEAH,2022-10-23T11:00:00Z,25.28,49.48,38.0,-2.0,320,3,,6.21,29.970472,,,,,,TRUE,,,,,CAVOK,,,,,,,,VFR,,,,,,,,,,,,METAR,180.0
OEAB 231100Z 09004KT 9999 FEW020 25/M03 Q1026 NOSIG,OEAB,2022-10-23T11:00:00Z,18.23,42.65,25.0,-3.0,90,4,,6.21,30.295275,,,,,,TRUE,,,,,FEW,2000,,,,,,,VFR,,,,,,,,,,,,METAR,2092.0
OBBI 231100Z 10007KT CAVOK 32/21 Q1015 NOSIG,OBBI,2022-10-23T11:00:00Z,26.27,50.63,32.0,21.0,100,7,,6.21,29.970472,,,,,,TRUE,,,,,CAVOK,,,,,,,,VFR,,,,,,,,,,,,METAR,6.0
NZWN 231100Z AUTO 01025KT 9999 FEW015/// 14/11 Q1025 NOSIG,NZWN,2022-10-23T11:00:00Z,-41.32,174.8,14.0,11.0,10,25,,6.21,30.265747,,,TRUE,,,TRUE,,,,,FEW,1500,,,,,,,VFR,,,,,,,,,,,,METAR,12.0
NZCH 231100Z AUTO 27004KT 230V330 9999 NCD 16/M01 Q1019 NOSIG,NZCH,2022-10-23T11:00:00Z,-43.48,172.52,16.0,-1.0,270,4,,6.21,30.088583,,,TRUE,,,TRUE,,,,,CLR,,,,,,,,VFR,,,,,,,,,,,,METAR,36.0
NZAA 231100Z AUTO 20009KT 9999 NCD 15/12 Q1031 NOSIG,NZAA,2022-10-23T11:00:00Z,-37.02,174.8,15.0,12.0,200,9,,6.21,30.442913,,,TRUE,,,TRUE,,,,,CLR,,,,,,,,VFR,,,,,,,,,,,,METAR,7.0
NWWW 231100Z AUTO 05007KT 360V080 9999 FEW041 OVC100 25/17 Q1013 TEMPO RA FEW020TCU,NWWW,2022-10-23T11:00:00Z,-22.02,166.22,25.0,17.0,50,7,,6.21,29.911417,,,TRUE,,,,,,,,FEW,4100,OVC,10000,,,,,VFR,,,,,,,,,,,,SPECI,16.0
NLWW 231100Z AUTO 08004KT 9999 FEW019/// 27/24 Q1011 TEMPO 4000 SHRA BKN014 FEW020CB,NLWW,2022-10-23T11:00:00Z,-13.23,-176.18,27.0,24.0,80,4,,6.21,29.852362,,,TRUE,,,,,,,,FEW,1900,,,,,,,VFR,,,,,,,,,,,,METAR,24.0
NIUE 231100Z AUTO 31005KT 280V350 23/23 Q1011,NIUE,2022-10-23T11:00:00Z,-19.07,-169.92,23.0,23.0,310,5,,,29.852362,,,TRUE,,,,,,,,,,,,,,,,,,,,,,,,,,,,METAR,22.0
NGTA 231100Z 10005KT 9999 FEW019 BKN040 27/23 Q1010,NGTA,2022-10-23T11:00:00Z,1.37,173.13,27.0,23.0,100,5,,6.21,29.822834,,,,,,,,,,,FEW,1900,BKN,4000,,,,,VFR,,,,,,,,,,,,METAR,8.0
NGFU 231100Z 08004KT 9999 -SHRA FEW015CB OVC100 26/23 Q1010,NGFU,2022-10-23T11:00:00Z,-8.52,179.18,26.0,23.0,80,4,,6.21,29.822834,,,,,,,,,,-SHRA,FEW,1500,OVC,10000,,,,,VFR,,,,,,,,,,,,METAR,2.0
NFTF 231100Z 13008KT 9999 -DZ FEW010 SCT015 BKN100 22/20 Q1016,NFTF,2022-10-23T11:00:00Z,-21.23,-175.15,22.0,20.0,130,8,,6.21,30.0,,,,,,,,,,-DZ,FEW,1000,SCT,1500,BKN,10000,,,VFR,,,,,,,,,,,,METAR,38.0
NFNA 231100Z 13006KT 9999 -SHRA SCT020 BKN048 25/21 Q1014,NFNA,2022-10-23T11:00:00Z,-18.05,178.57,25.0,21.0,130,6,,6.21,29.940945,,,,,,,,,,-SHRA,SCT,2000,BKN,4800,,,,,VFR,,,,,,,,,,,,METAR,6.0
NFFN 231100Z 00000KT 9999 FEW030 SCT300 24/20 Q1013 NOSIG,NFFN,2022-10-23T11:00:00Z,-17.75,177.45,24.0,20.0,0,0,,6.21,29.911417,,,,,,TRUE,,,,,FEW,3000,SCT,30000,,,,,VFR,,,,,,,,,,,,METAR,14.0
NCSW 231100Z AUTO 07001KT //// ////// 27/24 Q1011,NCSW,2022-10-23T11:00:00Z,,,27.0,24.0,70,1,,,29.852362,,,TRUE,,,,,,,,,,,,,,,,,,,,,,,,,,,,METAR,
NCRK 231100Z AUTO 02003KT //// ////// 26/21 Q1011,NCRK,2022-10-23T11:00:00Z,-10.02,-161.1,26.0,21.0,20,3,,,29.852362,,,TRUE,,,,,,,,,,,,,,,,,,,,,,,,,,,,METAR,7.0
NCRG 231100Z AUTO 08009KT 9999 FEW011/// SCT038/// 24/22 Q1011,NCRG,2022-10-23T11:00:00Z,-21.2,-159.82,24.0,22.0,80,9,,6.21,29.852362,,,TRUE,,,,,,,,FEW,1100,SCT,3800,,,,,VFR,,,,,,,,,,,,METAR,7.0
NCPY 231100Z AUTO 04011KT //// ////// 27/22 Q1011,NCPY,2022-10-23T11:00:00Z,-9.02,-158.03,27.0,22.0,40,11,,,29.852362,,,TRUE,,,,,,,,,,,,,,,,,,,,,,,,,,,,METAR,2.0
NCPL 231100Z AUTO 34003KT //// ////// 26/24 Q1012,NCPL,2022-10-23T11:00:00Z,1.98,-157.48,26.0,24.0,340,3,,,29.88189,,,TRUE,,,,,,,,,,,,,,,,,,,,,,,,,,,,METAR,3.0
NCPK 231100Z AUTO NIL,NCPK,2022-10-23T11:00:00Z,-10.9,-165.83,,,,,,,,,,TRUE,,,,,,,,,,,,,,,,,,,,,,,,,,,,METAR,5.0
NCNS 231100Z AUTO 03003KT //// ////// 27/23 Q1011,NCNS,2022-10-23T11:00:00Z,,,27.0,23.0,30,3,,,29.852362,,,TRUE,,,,,,,,,,,,,,,,,,,,,,,,,,,,METAR,
NCMR 231100Z AUTO 04003KT //// ////// ///// Q1012,NCMR,2022-10-23T11:00:00Z,-19.85,-157.7,,,40,3,,,29.88189,,,TRUE,,,,,,,,,,,,,,,,,,,,,,,,,,,,METAR,8.0
NCMK 231100Z AUTO NIL,NCMK,2022-10-23T11:00:00Z,-20.15,-157.33,,,,,,,,,,TRUE,,,,,,,,,,,,,,,,,,,,,,,,,,,,METAR,13.0
NCMH 231100Z AUTO 01003KT //// ////// ///// Q1011,NCMH,2022-10-23T11:00:00Z,-10.38,-161.0,,,10,3,,,29.852362,,,TRUE,,,,,,,,,,,,,,,,,,,,,,,,,,,,METAR,1.0
NCMG 231100Z AUTO 04004KT //// ////// ///// Q////,NCMG,2022-10-23T11:00:00Z,-21.88,-157.9,,,40,4,,,,,,TRUE,,,,,,,,,,,,,,,,,,,,,,,,,,,,METAR,14.0
NCAT 231100Z AUTO 02002KT //// ////// ///// Q////,NCAT,2022-10-23T11:00:00Z,-19.97,-158.12,,,20,2,,,,,,TRUE,,,,,,,,,,,,,,,,,,,,,,,,,,,,METAR,11.0
NCAI 231100Z AUTO 07004KT //// ////// 26/23 Q1012,NCAI,2022-10-23T11:00:00Z,-18.82,-159.77,26.0,23.0,70,4,,,29.88189,,,TRUE,,,,,,,,,,,,,,,,,,,,,,,,,,,,METAR,7.0
MZBZ 231100Z 00000KT 9999 FEW019 21/21 A2995 Q1014 NOSIG,MZBZ,2022-10-23T11:00:00Z,17.53,-88.3,21.0,21.0,0,0,,6.21,29.940945,,,,,,TRUE,,,,,FEW,1900,,,,,,,VFR,,,,,,,,,,,,METAR,6.0
MYNN 231100Z 04006KT 9999 FEW020 26/20 A3001,MYNN,2022-10-23T11:00:00Z,25.03,-77.47,26.0,20.0,40,6,,6.21,30.008858,,,,,,,,,,,FEW,2000,,,,,,,VFR,,,,,,,,,,,,METAR,5.0
MYGF 231100Z VRB01KT 9999 FEW020 19/18 A3002,MYGF,2022-10-23T11:00:00Z,26.55,-78.7,19.0,18.0,0,1,,6.21,30.02067,,,,,,,,,,,FEW,2000,,,,,,,VFR,,,,,,,,,,,,METAR,2.0
MWCR 231100Z 06004KT 9999 FEW018 25/24 Q1012,MWCR,2022-10-23T11:00:00Z,19.3,-81.37,25.0,24.0,60,4,,6.21,29.88189,,,,,,,,,,,FEW,1800,,,,,,,VFR,,,,,,,,,,,,METAR,4.0
MTPP 231100Z 12005KT 9000 FEW020 23/22 Q1012 A2989,MTPP,2022-10-23T11:00:00Z,18.57,-72.3,23.0,22.0,120,5,,5.59,29.88189,,,,,,,,,,,FEW,2000,,,,,,,VFR,,,,,,,,,,,,METAR,36.0
MROC 231100Z 05007KT 020V090 9999 FEW040 19/17 A3002 NOSIG,MROC,2022-10-23T11:00:00Z,10.0,-84.22,19.0,17.0,50,7,,6.21,30.02067,,,,,,TRUE,,,,,FEW,4000,,,,,,,VFR,,,,,,,,,,,,METAR,900.0
MPTO 231100Z VRB02KT 9000 SCT018 23/23 Q1010 NOSIG,MPTO,2022-10-23T11:00:00Z,9.05,-79.38,23.0,23.0,0,2,,5.59,29.822834,,,,,,TRUE,,,,,SCT,1800,,,,,,,VFR,,,,,,,,,,,,METAR,7.0
MNMG 231100Z 00000KT 9999 FEW021 23/21 Q1010 A2983 NOSIG,MNMG,2022-10-23T11:00:00Z,12.15,-86.17,23.0,21.0,0,0,,6.21,29.822834,,,,,,TRUE,,,,,FEW,2100,,,,,,,VFR,,,,,,,,,,,,METAR,59.0
MKJS 231100Z 08003KT 9999 FEW022CB 26/24 Q1011,MKJS,2022-10-23T11:00:00Z,18.5,-77.92,26.0,24.0,80,3,,6.21,29.852362,,,,,,,,,,,FEW,2200,,,,,,,VFR,,,,,,,,,,,,METAR,3.0
MKJP 231100Z 01008KT 9999 FEW020 BKN022CB 27/23 Q1012,MKJP,2022-10-23T11:00:00Z,17.93,-76.78,27.0,23.0,10,8,,6.21,29.88189,,,,,,,,,,,FEW,2000,BKN,2200,,,,,MVFR,,,,,,,,,,,,METAR,3.0
MHTG 231100Z 01010KT 8000 SCT008 BKN026 BKN080 19/19 Q1018 A3006 NOSIG,MHTG,2022-10-23T11:00:00Z,14.07,-87.22,19.0,19.0,10,10,,4.97,30.059055,,,,,,TRUE,,,,,SCT,800,BKN,2600,BKN,8000,,,MVFR,,,,,,,,,,,,METAR,1001.0
MHLM 231100Z 03002KT 6000 -RA SCT020 OVC070 23/22 Q1014 A2994 NOSIG,MHLM,2022-10-23T11:00:00Z,15.45,-87.93,23.0,22.0,30,2,,3.73,29.940945,,,,,,TRUE,,,,-RA,SCT,2000,OVC,7000,,,,,MVFR,,,,,,,,,,,,METAR,32.0
MGPB 231100Z 00000KT 99999 FEW014 SCT016 BKN080 23/22 Q1012 A2988,MGPB,2022-10-23T11:00:00Z,15.73,-88.58,23.0,22.0,0,0,,6.21,29.88189,,,,,,,,,,,FEW,1400,SCT,1600,BKN,8000,,,VFR,,,,,,,,,,,,METAR,6.0
MGGT 231100Z 01012KT 9999 FEW002 BKN012 16/16 Q1021 A3015,MGGT,2022-10-23T11:00:00Z,14.58,-90.53,16.0,16.0,10,12,,6.21,30.147638,,,,,,,,,,,FEW,200,BKN,1200,,,,,MVFR,,,,,,,,,,,,METAR,1497.0
MDST 231100Z 00000KT 9999 SCT016 BKN300 22/22 Q1013,MDST,2022-10-23T11:00:00Z,19.4,-70.6,22.0,22.0,0,0,,6.21,29.911417,,,,,,,,,,,SCT,1600,BKN,30000,,,,,VFR,,,,,,,,,,,,METAR,175.0
MDSD 231100Z 03004KT 9999 FEW016CB SCT016 23/23 Q1014 CB/SE,MDSD,2022-10-23T11:00:00Z,18.42,-69.67,23.0,23.0,30,4,,6.21,29.940945,,,,,,,,,,,FEW,1600,SCT,1600,,,,,VFR,,,,,,,,,,,,METAR,18.0
MDPP 231100Z 00000KT 9999 SCT018 23/22 Q1012,MDPP,2022-10-23T11:00:00Z,19.75,-70.57,23.0,22.0,0,0,,6.21,29.88189,,,,,,,,,,,SCT,1800,,,,,,,VFR,,,,,,,,,,,,METAR,9.0
MDPC 231100Z 01003KT 9999 FEW017CB SCT018 24/23 Q1013 CB/S,MDPC,2022-10-23T11:00:00Z,18.57,-68.37,24.0,23.0,10,3,,6.21,29.911417,,,,,,,,,,,FEW,1700,SCT,1800,,,,,VFR,,,,,,,,,,,,SPECI,10.0
LZZI 231100Z VRB01KT 9999 BKN011 12/10 Q1022,LZZI,2022-10-23T11:00:00Z,49.23,18.62,12.0,10.0,0,1,,6.21,30.177166,,,,,,,,,,,BKN,1100,,,,,,,MVFR,,,,,,,,,,,,METAR,311.0
LZTT 231100Z 26011KT 9999 FEW036 17/07 Q1021 NOSIG,LZTT,2022-10-23T11:00:00Z,49.07,20.25,17.0,7.0,260,11,,6.21,30.147638,,,,,,TRUE,,,,,FEW,3600,,,,,,,VFR,,,,,,,,,,,,METAR,693.0
LZPP 231100Z VRB02KT 3500 BR OVC003 12/11 Q1021,LZPP,2022-10-23T11:00:00Z,48.62,17.83,12.0,11.0,0,2,,2.17,30.147638,,,,,,,,,,BR,OVC,300,,,,,,,LIFR,,,,,,,,,,,,METAR,160.0
LZKZ 231100Z 17004KT 140V200 2500 BR BKN003 10/10 Q1022 BECMG 3000 BR,LZKZ,2022-10-23T11:00:00Z,48.67,21.23,10.0,10.0,170,4,,1.55,30.177166,,,,,,,,,,BR,BKN,300,,,,,,,LIFR,,,,,,,,,,,,SPECI,227.0
LZIB 231100Z 07007KT 1100 R31/1400U R22/1300U BR SCT001 OVC002 10/10 Q1022 BECMG 2500 BR OVC004,LZIB,2022-10-23T11:00:00Z,48.17,17.22,10.0,10.0,70,7,,0.68,30.177166,,,,,,,,,,BR,SCT,100,OVC,200,,,,,LIFR,,,,,,,,,,,,SPECI,129.0
LYTV 231100Z 28004KT 9999 FEW040 22/16 Q1025 NOSIG,LYTV,2022-10-23T11:00:00Z,42.4,18.72,22.0,16.0,280,4,,6.21,30.265747,,,,,,TRUE,,,,,FEW,4000,,,,,,,VFR,,,,,,,,,,,,METAR,3.0
LYPG 231100Z VRB02KT CAVOK 22/07 Q1025 NOSIG,LYPG,2022-10-23T11:00:00Z,42.37,19.25,22.0,7.0,0,2,,6.21,30.265747,,,,,,TRUE,,,,,CAVOK,,,,,,,,VFR,,,,,,,,,,,,METAR,32.0
LYNI 231100Z VRB02KT 9999 FEW030 21/11 Q1024 NOSIG,LYNI,2022-10-23T11:00:00Z,43.33,21.85,21.0,11.0,0,2,,6.21,30.236221,,,,,,TRUE,,,,,FEW,3000,,,,,,,VFR,,,,,,,,,,,,METAR,197.0
LYBE 231100Z 14004KT 080V200 CAVOK 20/13 Q1024 NOSIG,LYBE,2022-10-23T11:00:00Z,44.82,20.28,20.0,13.0,140,4,,6.21,30.236221,,,,,,TRUE,,,,,CAVOK,,,,,,,,VFR,,,,,,,,,,,,METAR,93.0
LWSK 231100Z 00000KT CAVOK 20/11 Q1024 NOSIG,LWSK,2022-10-23T11:00:00Z,41.97,21.63,20.0,11.0,0,0,,6.21,30.236221,,,,,,TRUE,,,,,CAVOK,,,,,,,,VFR,,,,,,,,,,,,METAR,232.0
LWOH 231100Z 18005KT CAVOK 17/11 Q1026,LWOH,2022-10-23T11:00:00Z,41.18,20.75,17.0,11.0,180,5,,6.21,30.295275,,,,,,,,,,,CAVOK,,,,,,,,VFR,,,,,,,,,,,,METAR,700.0
LUKK 231100Z 34013KT 310V020 9999 OVC016 15/11 Q1017 NOSIG,LUKK,2022-10-23T11:00:00Z,46.93,28.93,15.0,11.0,340,13,,6.21,30.029528,,,,,,TRUE,,,,,OVC,1600,,,,,,,MVFR,,,,,,,,,,,,METAR,102.0
LRTZ 231100Z 33012G22KT 9999 SCT200 22/09 Q1018 BLU BLU,LRTZ,2022-10-23T11:00:00Z,43.98,28.62,22.0,9.0,330,12,22,6.21,30.059055,,,,,,,,,,,SCT,20000,,,,,,,VFR,,,,,,,,,,,,METAR,45.0
LRTR 231100Z 17005KT 8000 SCT012 SCT014 BKN018 15/13 Q1024,LRTR,2022-10-23T11:00:00Z,45.82,21.33,15.0,13.0,170,5,,4.97,30.236221,,,,,,,,,,,SCT,1200,SCT,1400,BKN,1800,,,MVFR,,,,,,,,,,,,METAR,104.0
LRTM 231100Z 31007KT 9999 FEW015 BKN035 15/10 Q1023,LRTM,2022-10-23T11:00:00Z,46.47,24.42,15.0,10.0,310,7,,6.21,30.206694,,,,,,,,,,,FEW,1500,BKN,3500,,,,,VFR,,,,,,,,,,,,METAR,289.0
LRTC 231100Z 34012KT 310V010 9999 FEW040 21/07 Q1018,LRTC,2022-10-23T11:00:00Z,45.07,28.72,21.0,7.0,340,12,,6.21,30.059055,,,,,,,,,,,FEW,4000,,,,,,,VFR,,,,,,,,,,,,METAR,52.0
LRSV 231100Z 32016KT 290V350 9999 FEW028 17/11 Q1019,LRSV,2022-10-23T11:00:00Z,47.68,26.35,17.0,11.0,320,16,,6.21,30.088583,,,,,,,,,,,FEW,2800,,,,,,,VFR,,,,,,,,,,,,METAR,406.0
LRSM 231100Z AUTO 27007KT 9999 SCT010/// OVC013/// 14/12 Q1023,LRSM,2022-10-23T11:00:00Z,47.7,22.88,14.0,12.0,270,7,,6.21,30.206694,,,TRUE,,,,,,,,SCT,1000,OVC,1300,,,,,MVFR,,,,,,,,,,,,METAR,123.0
LRSB 231100Z 32008KT 9999 FEW033 SCT044 17/09 Q1023,LRSB,2022-10-23T11:00:00Z,45.78,24.08,17.0,9.0,320,8,,6.21,30.206694,,,,,,,,,,,FEW,3300,SCT,4400,,,,,VFR,,,,,,,,,,,,METAR,442.0
LROP 231100Z 05005KT CAVOK 24/08 Q1019 NOSIG,LROP,2022-10-23T11:00:00Z,44.57,26.1,24.0,8.0,50,5,,6.21,30.088583,,,,,,TRUE,,,,,CAVOK,,,,,,,,VFR,,,,,,,,,,,,METAR,92.0
LROD 231100Z 18009KT 9999 BKN007 13/11 Q1024,LROD,2022-10-23T11:00:00Z,47.03,21.88,13.0,11.0,180,9,,6.21,30.236221,,,,,,,,,,,BKN,700,,,,,,,IFR,,,,,,,,,,,,METAR,132.0
LRIA 231100Z 32010KT 9999 FEW018 SCT025 BKN029 16/13 Q1018,LRIA,2022-10-23T11:00:00Z,47.17,27.62,16.0,13.0,320,10,,6.21,30.059055,,,,,,,,,,,FEW,1800,SCT,2500,BKN,2900,,,MVFR,,,,,,,,,,,,METAR,71.0
LRFT 231100Z 33010KT 9999 BKN050 23/09 Q1019 BLU BLU,LRFT,2022-10-23T11:00:00Z,44.38,27.72,23.0,9.0,330,10,,6.21,30.088583,,,,,,,,,,,BKN,5000,,,,,,,VFR,,,,,,,,,,,,METAR,54.0
LRCV 231100Z 27010KT CAVOK 22/08 Q1021,LRCV,2022-10-23T11:00:00Z,44.32,23.88,22.0,8.0,270,10,,6.21,30.147638,,,,,,,,,,,CAVOK,,,,,,,,VFR,,,,,,,,,,,,METAR,192.0
LRCT 231100Z 33012KT 9999 BKN035 BKN044 17/09 Q1023 BLU BLU,LRCT,2022-10-23T11:00:00Z,46.5,23.88,17.0,9.0,330,12,,6.21,30.206694,,,,,,,,,,,BKN,3500,BKN,4400,,,,,VFR,,,,,,,,,,,,METAR,324.0
LRCL 231100Z 31007KT 280V340 9999 SCT030 16/09 Q1023,LRCL,2022-10-23T11:00:00Z,46.78,23.68,16.0,9.0,310,7,,6.21,30.206694,,,,,,,,,,,SCT,3000,,,,,,,VFR,,,,,,,,,,,,METAR,313.0
LRCK 231100Z 32014KT 290V350 9999 FEW048 22/09 Q1019 NOSIG,LRCK,2022-10-23T11:00:00Z,44.37,28.48,22.0,9.0,320,14,,6.21,30.088583,,,,,,TRUE,,,,,FEW,4800,,,,,,,VFR,,,,,,,,,,,,METAR,108.0
LRBS 231100Z 27005KT 210V020 CAVOK 24/09 Q1019 NOSIG,LRBS,2022-10-23T11:00:00Z,44.5,26.08,24.0,9.0,270,5,,6.21,30.088583,,,,,,TRUE,,,,,CAVOK,,,,,,,,VFR,,,,,,,,,,,,METAR,91.0
LRBO 231100Z 32020KT 9999 FEW060 SCT150 22/08 Q1019 BLU BLU,LRBO,2022-10-23T11:00:00Z,45.22,26.97,22.0,8.0,320,20,,6.21,30.088583,,,,,,,,,,,FEW,6000,SCT,15000,,,,,VFR,,,,,,,,,,,,METAR,104.0
LRBM 231100Z 28005KT 260V330 3300 BR OVC005 12/11 Q1023,LRBM,2022-10-23T11:00:00Z,47.67,23.47,12.0,11.0,280,5,,2.05,30.206694,,,,,,,,,,BR,OVC,500,,,,,,,IFR,,,,,,,,,,,,METAR,180.0
LRBC 231100Z 00000KT 9999 FEW018 17/11 Q1019,LRBC,2022-10-23T11:00:00Z,46.52,26.92,17.0,11.0,0,0,,6.21,30.088583,,,,,,,,,,,FEW,1800,,,,,,,VFR,,,,,,,,,,,,METAR,183.0
LRAR 231100Z 19005KT 140V230 9999 BKN011 14/12 Q1024,LRAR,2022-10-23T11:00:00Z,46.18,21.27,14.0,12.0,190,5,,6.21,30.236221,,,,,,,,,,,BKN,1100,,,,,,,MVFR,,,,,,,,,,,,METAR,102.0
LQTZ 231100Z 07003KT 360V110 CAVOK 22/15 Q1023,LQTZ,2022-10-23T11:00:00Z,44.47,18.73,22.0,15.0,70,3,,6.21,30.206694,,,,,,,,,,,CAVOK,,,,,,,,VFR,,,,,,,,,,,,METAR,242.0
LQSA 231100Z VRB01KT CAVOK 20/10 Q1024 NOSIG,LQSA,2022-10-23T11:00:00Z,43.82,18.32,20.0,10.0,0,1,,6.21,30.236221,,,,,,TRUE,,,,,CAVOK,,,,,,,,VFR,,,,,,,,,,,,SPECI,505.0
LQMO 231100Z VRB02KT CAVOK 23/12 Q1023,LQMO,2022-10-23T11:00:00Z,43.28,17.83,23.0,12.0,0,2,,6.21,30.206694,,,,,,,,,,,CAVOK,,,,,,,,VFR,,,,,,,,,,,,SPECI,49.0
LQBK 231100Z VRB02KT CAVOK 19/18 Q1023 NOSIG,LQBK,2022-10-23T11:00:00Z,44.93,17.3,19.0,18.0,0,2,,6.21,30.206694,,,,,,TRUE,,,,,CAVOK,,,,,,,,VFR,,,,,,,,,,,,METAR,114.0
LPPT 231100Z 22016KT 9999 FEW020 BKN025 FEW030TCU 20/15 Q1015,LPPT,2022-10-23T11:00:00Z,38.77,-9.13,20.0,15.0,220,16,,6.21,29.970472,,,,,,,,,,,FEW,2000,BKN,2500,FEW,3000,,,MVFR,,,,,,,,,,,,METAR,98.0
LPPS 231100Z 28007KT 250V320 9999 FEW015 21/12 Q1019,LPPS,2022-10-23T11:00:00Z,33.07,-16.35,21.0,12.0,280,7,,6.21,30.088583,,,,,,,,,,,FEW,1500,,,,,,,VFR,,,,,,,,,,,,METAR,89.0
LPPR 231100Z 22013KT 190V260 9000 SHRA FEW008 SCT015 SCT020CB 16/16 Q1011,LPPR,2022-10-23T11:00:00Z,41.23,-8.68,16.0,16.0,220,13,,5.59,29.852362,,,,,,,,,,SHRA,FEW,800,SCT,1500,SCT,2000,,,VFR,,,,,,,,,,,,METAR,64.0
LPPD 231100Z 28020KT 9999 FEW008 BKN014 19/18 Q1014,LPPD,2022-10-23T11:00:00Z,37.73,-25.68,19.0,18.0,280,20,,6.21,29.940945,,,,,,,,,,,FEW,800,BKN,1400,,,,,MVFR,,,,,,,,,,,,METAR,62.0
LPMT 231100Z 21013KT 9999 FEW030 21/13 Q1015,LPMT,2022-10-23T11:00:00Z,38.7,-9.05,21.0,13.0,210,13,,6.21,29.970472,,,,,,,,,,,FEW,3000,,,,,,,VFR,,,,,,,,,,,,METAR,4.0
LPMR 231100Z 20010KT 9999 FEW020 FEW023CB BKN025 18/16 Q1014,LPMR,2022-10-23T11:00:00Z,39.82,-8.88,18.0,16.0,200,10,,6.21,29.940945,,,,,,,,,,,FEW,2000,FEW,2300,BKN,2500,,,MVFR,,,,,,,,,,,,METAR,50.0
LPMA 231100Z 15005KT 070V200 9999 SCT016 23/15 Q1019,LPMA,2022-10-23T11:00:00Z,32.7,-16.77,23.0,15.0,150,5,,6.21,30.088583,,,,,,,,,,,SCT,1600,,,,,,,VFR,,,,,,,,,,,,METAR,54.0
LPLA 231100Z /////KT 9999 SCT014 BKN032 19/18 Q1015,LPLA,2022-10-23T11:00:00Z,38.77,-27.1,19.0,18.0,,,,6.21,29.970472,,,,,,,,,,,SCT,1400,BKN,3200,,,,,VFR,,,,,,,,,,,,SPECI,60.0
LPHR 231100Z 30014KT 9999 SCT016 19/16 Q1016,LPHR,2022-10-23T11:00:00Z,38.52,-28.72,19.0,16.0,300,14,,6.21,30.0,,,,,,,,,,,SCT,1600,,,,,,,VFR,,,,,,,,,,,,METAR,39.0
LPFR 231100Z 25005KT 220V300 9999 FEW018 BKN035 20/17 Q1018,LPFR,2022-10-23T11:00:00Z,37.02,-7.97,20.0,17.0,250,5,,6.21,30.059055,,,,,,,,,,,FEW,1800,BKN,3500,,,,,VFR,,,,,,,,,,,,METAR,3.0
LPFL 231100Z 33011KT 280V360 6000 -RA SCT017 18/15 Q1018,LPFL,2022-10-23T11:00:00Z,39.45,-31.12,18.0,15.0,330,11,,3.73,30.059055,,,,,,,,,,-RA,SCT,1700,,,,,,,MVFR,,,,,,,,,,,,METAR,35.0
LPBJ 231100Z 22011KT 9999 FEW030 20/12 Q1017,LPBJ,2022-10-23T11:00:00Z,38.08,-7.93,20.0,12.0,220,11,,6.21,30.029528,,,,,,,,,,,FEW,3000,,,,,,,VFR,,,,,,,,,,,,METAR,196.0
LPAZ 231100Z 27016KT 7000 -RA SCT004 BKN008 18/17 Q1016,LPAZ,2022-10-23T11:00:00Z,36.97,-25.17,18.0,17.0,270,16,,4.35,30.0,,,,,,,,,,-RA,SCT,400,BKN,800,,,,,IFR,,,,,,,,,,,,METAR,96.0
LOAV 231100Z 19004KT CAVOK 13/09,LOAV,2022-10-23T11:00:00Z,47.97,16.27,13.0,9.0,190,4,,6.21,,,,,,,,,,,,CAVOK,,,,,,,,VFR,,,,,,,,,,,,METAR,232.0
LOAN 231100Z 10006KT 0400 FG VV002,LOAN,2022-10-23T11:00:00Z,47.85,16.25,,,100,6,,0.25,,,,,,,,,,,FG,OVX,0,,,,,,,LIFR,,,,,,,,,,,200,METAR,266.0
LKTB 231100Z 05003KT 350V090 3200 BR OVC002 10/10 Q1021 NOSIG,LKTB,2022-10-23T11:00:00Z,49.15,16.68,10.0,10.0,50,3,,1.99,30.147638,,,,,,TRUE,,,,BR,OVC,200,,,,,,,LIFR,,,,,,,,,,,,METAR,233.0
LKPR 231100Z 36006KT 320V030 9999 2000N VCFG FEW001 14/13 Q1019 TEMPO 1300 BR,LKPR,2022-10-23T11:00:00Z,50.1,14.27,14.0,13.0,360,6,,6.21,30.088583,,,,,,,,,,VCFG,FEW,100,,,,,,,VFR,,,,,,,,,,,,SPECI,364.0
LKPD 231100Z 07004KT 020V110 9999 FEW016 SCT230 16/13 Q1019 NOSIG RMK BLU BLU,LKPD,2022-10-23T11:00:00Z,50.02,15.73,16.0,13.0,70,4,,6.21,30.088583,,,,,,TRUE,,,,,FEW,1600,SCT,23000,,,,,VFR,,,,,,,,,,,,METAR,226.0
LKNA 231100Z 12006KT 9000 1500E SCT002 BKN230 12/11 Q1021 NOSIG,LKNA,2022-10-23T11:00:00Z,49.17,16.12,12.0,11.0,120,6,,5.59,30.147638,,,,,,TRUE,,,,,SCT,200,BKN,23000,,,,,VFR,,,,,,,,,,,,METAR,460.0
LKMT 231100Z 24010KT 9999 FEW020 15/11 Q1021 NOSIG,LKMT,2022-10-23T11:00:00Z,49.68,18.12,15.0,11.0,240,10,,6.21,30.147638,,,,,,TRUE,,,,,FEW,2000,,,,,,,VFR,,,,,,,,,,,,METAR,251.0
LKLN 231100Z AUTO VRB02KT 9999 OVC003 10/10 Q1018,LKLN,2022-10-23T11:00:00Z,49.68,13.27,10.0,10.0,0,2,,6.21,30.059055,,,TRUE,,,,,,,,OVC,300,,,,,,,LIFR,,,,,,,,,,,,METAR,353.0
LKKV 231100Z 16004KT 130V200 CAVOK 17/08 Q1018,LKKV,2022-10-23T11:00:00Z,50.2,12.92,17.0,8.0,160,4,,6.21,30.059055,,,,,,,,,,,CAVOK,,,,,,,,VFR,,,,,,,,,,,,METAR,600.0
LKKU 231100Z 18002KT 9999 FEW033 16/13 Q1021,LKKU,2022-10-23T11:00:00Z,49.05,17.45,16.0,13.0,180,2,,6.21,30.147638,,,,,,,,,,,FEW,3300,,,,,,,VFR,,,,,,,,,,,,METAR,176.0
LKKB 231100Z 04007KT 010V070 0300 R24/0450D FG VV002 10/10 Q1019 NOSIG,LKKB,2022-10-23T11:00:00Z,50.12,14.53,10.0,10.0,40,7,,0.19,30.088583,,,,,,TRUE,,,,FG,OVX,0,,,,,,,LIFR,,,,,,,,,,,200,METAR,281.0
LKCV 231100Z 11004KT 070V160 CAVOK 18/11 Q1019 NOSIG RMK BLU BLU,LKCV,2022-10-23T11:00:00Z,49.93,15.38,18.0,11.0,110,4,,6.21,30.088583,,,,,,TRUE,,,,,CAVOK,,,,,,,,VFR,,,,,,,,,,,,METAR,234.0
LJPZ 231100Z 18007KT 130V210 9999 FEW023 SCT043 BKN060 23/17 Q1022,LJPZ,2022-10-23T11:00:00Z,45.47,13.62,23.0,17.0,180,7,,6.21,30.177166,,,,,,,,,,,FEW,2300,SCT,4300,BKN,6000,,,VFR,,,,,,,,,,,,METAR,2.0
LJMB 231100Z 21006KT 170V250 9999 FEW023 BKN180 18/13 Q1021,LJMB,2022-10-23T11:00:00Z,46.47,15.67,18.0,13.0,210,6,,6.21,30.147638,,,,,,,,,,,FEW,2300,BKN,18000,,,,,VFR,,,,,,,,,,,,METAR,263.0
LJLJ 231100Z VRB02KT 9999 FEW003 BKN026 12/11 Q1023 NOSIG,LJLJ,2022-10-23T11:00:00Z,46.22,14.47,12.0,11.0,0,2,,6.21,30.206694,,,,,,TRUE,,,,,FEW,300,BKN,2600,,,,,MVFR,,,,,,,,,,,,METAR,363.0
LJCE 231100Z VRB02KT 9999 FEW015 SCT200 18/14 Q1022 RMK BLU,LJCE,2022-10-23T11:00:00Z,45.9,15.52,18.0,14.0,0,2,,6.21,30.177166,,,,,,,,,,,FEW,1500,SCT,20000,,,,,VFR,,,,,,,,,,,,METAR,153.0
LFYR 231100Z AUTO 17010KT 9999 //////TCU 22/14 Q1006,LFYR,2022-10-23T11:00:00Z,47.32,1.68,22.0,14.0,170,10,,6.21,29.704725,,,TRUE,,,,,,,,,,,,,,,,,,,,,,,,,,,,METAR,83.0
LFVP 231100Z AUTO 25012KT CAVOK 12/11 Q1027 NOSIG,LFVP,2022-10-23T11:00:00Z,46.77,-56.18,12.0,11.0,250,12,,6.21,30.324802,,,TRUE,,,TRUE,,,,,CAVOK,,,,,,,,VFR,,,,,,,,,,,,METAR,5.0
LFTW 231100Z AUTO 15014KT 9999 FEW017 SCT024 23/19 Q1017 BECMG 15015G25KT FEW005 BKN014,LFTW,2022-10-23T11:00:00Z,43.75,4.42,23.0,19.0,150,14,,6.21,30.029528,,,TRUE,,,,,,,,FEW,1700,SCT,2400,,,,,VFR,,,,,,,,,,,,SPECI,91.0
LFTH 231100Z AUTO 08011KT 9999 FEW020 25/20 Q1019 TEMPO BKN013,LFTH,2022-10-23T11:00:00Z,43.1,6.15,25.0,20.0,80,11,,6.21,30.088583,,,TRUE,,,,,,,,FEW,2000,,,,,,,VFR,,,,,,,,,,,,SPECI,3.0
LFSX 231100Z AUTO 14007KT CAVOK 20/14 Q1013,LFSX,2022-10-23T11:00:00Z,47.77,6.35,20.0,14.0,140,7,,6.21,29.911417,,,TRUE,,,,,,,,CAVOK,,,,,,,,VFR,,,,,,,,,,,,METAR,266.0
LFST 231100Z AUTO 18004KT 140V210 CAVOK 19/14 Q1013 NOSIG,LFST,2022-10-23T11:00:00Z,48.53,7.63,19.0,14.0,180,4,,6.21,29.911417,,,TRUE,,,TRUE,,,,,CAVOK,,,,,,,,VFR,,,,,,,,,,,,METAR,149.0
LFSO 231100Z AUTO 20019KT CAVOK 20/14 Q1012,LFSO,2022-10-23T11:00:00Z,48.57,5.97,20.0,14.0,200,19,,6.21,29.88189,,,TRUE,,,,,,,,CAVOK,,,,,,,,VFR,,,,,,,,,,,,METAR,328.0
LFSN 231100Z AUTO 20011KT 160V230 CAVOK 22/14 Q1011,LFSN,2022-10-23T11:00:00Z,48.68,6.22,22.0,14.0,200,11,,6.21,29.852362,,,TRUE,,,,,,,,CAVOK,,,,,,,,VFR,,,,,,,,,,,,METAR,214.0
LFSM 231100Z AUTO 05005KT 020V110 CAVOK 19/14 Q1013,LFSM,2022-10-23T11:00:00Z,47.48,6.78,19.0,14.0,50,5,,6.21,29.911417,,,TRUE,,,,,,,,CAVOK,,,,,,,,VFR,,,,,,,,,,,,METAR,317.0
LFSL 231100Z AUTO 19003KT 140V280 9999 //////CB 21/13 Q1011 TEMPO 18020G35KT 4000 TSRA,LFSL,2022-10-23T11:00:00Z,45.03,1.48,21.0,13.0,190,3,,6.21,29.852362,,,TRUE,,,,,,,,,,,,,,,,,,,,,,,,,,,,METAR,300.0
LFSI 231100Z AUTO 17010KT 140V200 CAVOK 23/15 Q1009,LFSI,2022-10-23T11:00:00Z,48.62,4.9,23.0,15.0,170,10,,6.21,29.793306,,,TRUE,,,,,,,,CAVOK,,,,,,,,VFR,,,,,,,,,,,,METAR,136.0
LFSG 231100Z AUTO 19012KT CAVOK 19/13 Q1012,LFSG,2022-10-23T11:00:00Z,48.33,6.07,19.0,13.0,190,12,,6.21,29.88189,,,TRUE,,,,,,,,CAVOK,,,,,,,,VFR,,,,,,,,,,,,METAR,320.0
LFSD 231100Z AUTO VRB02KT 9999 ////// 18/15 Q1012,LFSD,2022-10-23T11:00:00Z,47.27,5.08,18.0,15.0,0,2,,6.21,29.88189,,,TRUE,,,,,,,,,,,,,,,,,,,,,,,,,,,,SPECI,218.0
LFSB 231100Z AUTO 11009KT CAVOK 19/12 Q1014 NOSIG,LFSB,2022-10-23T11:00:00Z,47.6,7.52,19.0,12.0,110,9,,6.21,29.940945,,,TRUE,,,TRUE,,,,,CAVOK,,,,,,,,VFR,,,,,,,,,,,,METAR,262.0
LFRZ 231100Z AUTO 20024KT 9999 FEW034 BKN110 20/15 Q1000 TEMPO TSRA BECMG 11008KT,LFRZ,2022-10-23T11:00:00Z,47.32,-2.17,20.0,15.0,200,24,,6.21,29.52756,,,TRUE,,,,,,,,FEW,3400,BKN,11000,,,,,VFR,,-0.8,,,,,,,,,,SPECI,2.0
LFRV 231100Z AUTO 18017G34KT 160V220 9999 -RA FEW029/// SCT036/// BKN070/// ///CB 16/12 Q1000,LFRV,2022-10-23T11:00:00Z,47.72,-2.72,16.0,12.0,180,17,34,6.21,29.52756,,,TRUE,,,,,,,-RA,FEW,2900,SCT,3600,BKN,7000,,,VFR,,,,,,,,,,,,METAR,132.0
LFRU 231100Z AUTO 19004KT 140V250 6000 +RA FEW040/// BKN047/// BKN054/// ///CB 13/12 Q0999,LFRU,2022-10-23T11:00:00Z,48.6,-3.82,13.0,12.0,190,4,,3.73,29.498032,,,TRUE,,,,,,,+RA,FEW,4000,BKN,4700,BKN,5400,,,MVFR,,,,,,,,,,,,METAR,85.0
LFRT 231100Z AUTO 12007KT 9999 //////TCU 17/12 Q0998,LFRT,2022-10-23T11:00:00Z,48.53,-2.85,17.0,12.0,120,7,,6.21,29.468504,,,TRUE,,,,,,,,,,,,,,,,,,,,,,,,,,,,SPECI,134.0
LFRS 231100Z AUTO 21020G32KT 180V250 9999 SCT045 BKN062 BKN088 22/13 Q1002 BECMG 22022G45KT 4000 SHRA BKN050CB,LFRS,2022-10-23T11:00:00Z,47.17,-1.6,22.0,13.0,210,20,32,6.21,29.586615,,,TRUE,,,,,,,,SCT,4500,BKN,6200,BKN,8800,,,VFR,,,,,,,,,,,,METAR,26.0
LFRQ 231100Z AUTO 15005KT 070V210 9999 SCT008/// SCT044/// BKN140/// //////CB 14/14 Q0998 TEMPO 2000 TSRAGR BKN008 BKN015CB BECMG 21020G40KT,LFRQ,2022-10-23T11:00:00Z,47.97,-4.17,14.0,14.0,150,5,,6.21,29.468504,,,TRUE,,,,,,,,SCT,800,SCT,4400,BKN,14000,,,VFR,,,-2.0,,,,,,,,,SPECI,94.0
LFRO 231100Z AUTO 21007KT 170V230 9999 2800 +RA FEW023/// BKN054/// BKN064/// //////CB 14/12 Q0999,LFRO,2022-10-23T11:00:00Z,48.75,-3.47,14.0,12.0,210,7,,6.21,29.498032,,,TRUE,,,,,,,+RA,FEW,2300,BKN,5400,BKN,6400,,,VFR,,,,,,,,,,,,METAR,86.0
LFRN 231100Z AUTO 16017G27KT 9999 SCT028 BKN035 BKN043 21/15 Q1000 TEMPO 2000 TSRAGR BKN012CB,LFRN,2022-10-23T11:00:00Z,48.07,-1.73,21.0,15.0,160,17,27,6.21,29.52756,,,TRUE,,,,,,,,SCT,2800,BKN,3500,BKN,4300,,,VFR,,,,,,,,,,,,METAR,35.0
LFRM 231100Z AUTO 15007KT 120V180 CAVOK 20/14 Q1003 TEMPO 19016G35KT 4000 SHRA BKN050CB,LFRM,2022-10-23T11:00:00Z,47.95,0.2,20.0,14.0,150,7,,6.21,29.616142,,,TRUE,,,,,,,,CAVOK,,,,,,,,VFR,,,,,,,,,,,,METAR,51.0
LFRL 231100Z AUTO 14006KT 110V180 2200 RA BR BKN007/// BKN011/// BKN016/// //////CB 12/12 Q0998,LFRL,2022-10-23T11:00:00Z,48.27,-4.43,12.0,12.0,140,6,,1.37,29.468504,,,TRUE,,,,,,,RA BR,BKN,700,BKN,1100,BKN,1600,,,IFR,,,,,,,,,,,,METAR,80.0
LFRK 231100Z AUTO 17013KT 9999 SCT025 BKN100 20/16 Q1002 TEMPO 18015G25KT 3000 SHRA BKN010 BKN035CB,LFRK,2022-10-23T11:00:00Z,49.17,-0.45,20.0,16.0,170,13,,6.21,29.586615,,,TRUE,,,,,,,,SCT,2500,BKN,10000,,,,,VFR,,,,,,,,,,,,METAR,66.0
LFRJ 231100Z AUTO 17009KT 4500 +RA BR FEW011/// BKN018/// BKN024/// //////CB 12/12 Q0999,LFRJ,2022-10-23T11:00:00Z,48.52,-4.15,12.0,12.0,170,9,,2.8,29.498032,,,TRUE,,,,,,,+RA BR,FEW,1100,BKN,1800,BKN,2400,,,IFR,,,,,,,,,,,,METAR,109.0
LFRI 231100Z AUTO 20022KT 180V240 CAVOK 21/14 Q1003 BECMG 20018G35KT 4000 SHRA BKN050CB,LFRI,2022-10-23T11:00:00Z,46.7,-1.37,21.0,14.0,200,22,,6.21,29.616142,,,TRUE,,,,,,,,CAVOK,,,,,,,,VFR,,,1.8,,,,,,,,,METAR,89.0
LFRH 231100Z AUTO 19014KT 9999 //////TCU 16/12 Q0999 TEMPO 2000 TSRA BKN020CB BECMG 20015G30KT,LFRH,2022-10-23T11:00:00Z,47.77,-3.45,16.0,12.0,190,14,,6.21,29.498032,,,TRUE,,,,,,,,,,,,,,,,,,,1.5,,,,,,,,,SPECI,46.0
LFRG 231100Z AUTO 17010KT 140V220 9999 FEW025 BKN220 19/14 Q1003 TEMPO 18015G25KT 3000 SHRA BKN010 BKN035CB,LFRG,2022-10-23T11:00:00Z,49.37,0.15,19.0,14.0,170,10,,6.21,29.616142,,,TRUE,,,,,,,,FEW,2500,BKN,22000,,,,,VFR,,,,,,,,,,,,SPECI,146.0
LFRD 231100Z AUTO 13008KT 100V170 CAVOK 20/16 Q0999 TEMPO 2000 TSRAGR BKN012CB BECMG 19015G30KT,LFRD,2022-10-23T11:00:00Z,48.58,-2.07,20.0,16.0,130,8,,6.21,29.498032,,,TRUE,,,,,,,,CAVOK,,,,,,,,VFR,,,,,,,,,,,,METAR,56.0
LFRC 231100Z AUTO 14009KT 100V160 CAVOK 19/15 Q1000 TEMPO VRB20G40KT 2000 TSRAGR BKN008 BKN015CB,LFRC,2022-10-23T11:00:00Z,49.63,-1.47,19.0,15.0,140,9,,6.21,29.52756,,,TRUE,,,,,,,,CAVOK,,,,,,,,VFR,,,,,,,,,,,,METAR,137.0
LFRB 231100Z AUTO 18009KT 5000 RA BR FEW011/// SCT017/// OVC066/// //////CB 12/11 Q0998 TEMPO 2000 TSRAGR BKN008 BKN020CB BECMG 22020G40KT,LFRB,2022-10-23T11:00:00Z,48.45,-4.42,12.0,11.0,180,9,,3.11,29.468504,,,TRUE,,,,,,,RA BR,FEW,1100,SCT,1700,OVC,6600,,,MVFR,,,,,,,,,,,,METAR,91.0
LFQQ 231100Z AUTO 14011KT CAVOK 18/15 Q1005 NOSIG,LFQQ,2022-10-23T11:00:00Z,50.57,3.1,18.0,15.0,140,11,,6.21,29.675198,,,TRUE,,,TRUE,,,,,CAVOK,,,,,,,,VFR,,,,,,,,,,,,METAR,43.0
LFQG 231100Z AUTO 13009KT 9999 ///TCU 19/15 Q1009,LFQG,2022-10-23T11:00:00Z,47.0,3.1,19.0,15.0,130,9,,6.21,29.793306,,,TRUE,,,,,,,,,,,,,,,,,,,,,,,,,,,,METAR,172.0
LFQB 231100Z AUTO 18010KT CAVOK 22/15 Q1008,LFQB,2022-10-23T11:00:00Z,48.32,4.02,22.0,15.0,180,10,,6.21,29.763779,,,TRUE,,,,,,,,CAVOK,,,,,,,,VFR,,,,,,,,,,,,METAR,107.0
LFQA 231100Z AUTO 14007KT 080V170 CAVOK 21/16 Q1008,LFQA,2022-10-23T11:00:00Z,49.2,4.15,21.0,16.0,140,7,,6.21,29.763779,,,TRUE,,,,,,,,CAVOK,,,,,,,,VFR,,,,,,,,,,,,METAR,92.0
LFPV 231100Z AUTO 17012KT 140V200 CAVOK 20/14 Q1006 TEMPO 4500 -SHRA BKN035TCU BECMG 20015G30KT,LFPV,2022-10-23T11:00:00Z,48.77,2.2,20.0,14.0,170,12,,6.21,29.704725,,,TRUE,,,,,,,,CAVOK,,,,,,,,VFR,,,1.5,,,,,,,,,SPECI,171.0
LFPT 231100Z AUTO 19011KT CAVOK 21/14 Q1005,LFPT,2022-10-23T11:00:00Z,49.1,2.03,21.0,14.0,190,11,,6.21,29.675198,,,TRUE,,,,,,,,CAVOK,,,,,,,,VFR,,,,,,,,,,,,METAR,91.0
LFPO 231100Z 18009KT CAVOK 21/14 Q1006 NOSIG,LFPO,2022-10-23T11:00:00Z,48.72,2.38,21.0,14.0,180,9,,6.21,29.704725,,,,,,TRUE,,,,,CAVOK,,,,,,,,VFR,,,,,,,,,,,,METAR,88.0
LFPN 231100Z AUTO 17010KT CAVOK 21/14 Q1006 TEMPO 18015G25KT SCT060TCU,LFPN,2022-10-23T11:00:00Z,48.75,2.12,21.0,14.0,170,10,,6.21,29.704725,,,TRUE,,,,,,,,CAVOK,,,,,,,,VFR,,,,,,,,,,,,METAR,152.0
LFPM 231100Z AUTO 17011KT CAVOK 21/15 Q1006,LFPM,2022-10-23T11:00:00Z,48.62,2.67,21.0,15.0,170,11,,6.21,29.704725,,,TRUE,,,,,,,,CAVOK,,,,,,,,VFR,,,,,,,,,,,,METAR,91.0
LFPG 231100Z 18013KT CAVOK 21/14 Q1006 NOSIG,LFPG,2022-10-23T11:00:00Z,49.02,2.53,21.0,14.0,180,13,,6.21,29.704725,,,,,,TRUE,,,,,CAVOK,,,,,,,,VFR,,,,,,,,,,,,METAR,107.0
LFPB 231100Z AUTO 16013KT CAVOK 21/14 Q1006 TEMPO SCT050TCU BECMG 19015G25KT,LFPB,2022-10-23T11:00:00Z,48.97,2.42,21.0,14.0,160,13,,6.21,29.704725,,,TRUE,,,,,,,,CAVOK,,,,,,,,VFR,,,,,,,,,,,,SPECI,50.0
LFOZ 231100Z AUTO 15011KT 9999 ///TCU 22/14 Q1007,LFOZ,2022-10-23T11:00:00Z,47.9,2.17,22.0,14.0,150,11,,6.21,29.734253,,,TRUE,,,,,,,,,,,,,,,,,,,,,,,,,,,,METAR,121.0
LFOV 231100Z AUTO 15009KT 120V180 CAVOK 20/15 Q1002,LFOV,2022-10-23T11:00:00Z,48.03,-0.75,20.0,15.0,150,9,,6.21,29.586615,,,TRUE,,,,,,,,CAVOK,,,,,,,,VFR,,,,,,,,,,,,METAR,99.0
LFOT 231100Z AUTO 19013KT 160V220 CAVOK 23/14 Q1004 TEMPO 22020G35KT SCT050CB,LFOT,2022-10-23T11:00:00Z,47.43,0.72,23.0,14.0,190,13,,6.21,29.64567,,,TRUE,,,,,,,,CAVOK,,,,,,,,VFR,,,,,,,,,,,,SPECI,107.0
LFOP 231100Z AUTO 16012KT CAVOK 18/14 Q1004 NOSIG,LFOP,2022-10-23T11:00:00Z,49.37,1.17,18.0,14.0,160,12,,6.21,29.64567,,,TRUE,,,TRUE,,,,,CAVOK,,,,,,,,VFR,,,,,,,,,,,,METAR,149.0
LFOK 231100Z AUTO 18013KT CAVOK 21/16 Q1008 TEMPO 2000 TSRA BKN060CB,LFOK,2022-10-23T11:00:00Z,48.78,4.15,21.0,16.0,180,13,,6.21,29.763779,,,TRUE,,,,,,,,CAVOK,,,,,,,,VFR,,,,,,,,,,,,METAR,166.0
LFOJ 231100Z AUTO 18013KT CAVOK 21/14 Q1005 TEMPO 21020G30KT 4000 -SHRA SCT050CB,LFOJ,2022-10-23T11:00:00Z,47.98,1.75,21.0,14.0,180,13,,6.21,29.675198,,,TRUE,,,,,,,,CAVOK,,,,,,,,VFR,,,-2.0,,,,,,,,,METAR,122.0
LFOH 231100Z AUTO 15007KT 9999 BKN025 19/14 Q1002 NOSIG,LFOH,2022-10-23T11:00:00Z,49.52,0.08,19.0,14.0,150,7,,6.21,29.586615,,,TRUE,,,TRUE,,,,,BKN,2500,,,,,,,MVFR,,,,,,,,,,,,METAR,87.0
LFOE 231100Z AUTO 19013KT CAVOK 21/15 Q1004 TEMPO 24025G40KT 2000 TSRA SCT035CB,LFOE,2022-10-23T11:00:00Z,49.02,1.22,21.0,15.0,190,13,,6.21,29.64567,,,TRUE,,,,,,,,CAVOK,,,,,,,,VFR,,,,,,,,,,,,SPECI,132.0
LFOB 231100Z AUTO 16011KT CAVOK 20/15 Q1005 TEMPO 18020G30KT 2000 TSRA BKN060CB,LFOB,2022-10-23T11:00:00Z,49.47,2.12,20.0,15.0,160,11,,6.21,29.675198,,,TRUE,,,,,,,,CAVOK,,,,,,,,VFR,,,,,,,,,,,,SPECI,99.0
LFOA 231100Z AUTO 16008KT 9999 FEW028/// BKN110/// //////TCU 20/14 Q1008,LFOA,2022-10-23T11:00:00Z,47.05,2.63,20.0,14.0,160,8,,6.21,29.763779,,,TRUE,,,,,,,,FEW,2800,BKN,11000,,,,,VFR,,,,,,,,,,,,METAR,174.0
LFMY 231100Z AUTO 09008KT 070V140 CAVOK 26/17 Q1017,LFMY,2022-10-23T11:00:00Z,43.6,5.1,26.0,17.0,90,8,,6.21,30.029528,,,TRUE,,,,,,,,CAVOK,,,,,,,,VFR,,,,,,,,,,,,METAR,57.0
LFMV 231100Z AUTO 15005KT CAVOK 25/16 Q1017 TEMPO 14015G25KT,LFMV,2022-10-23T11:00:00Z,43.9,4.9,25.0,16.0,150,5,,6.21,30.029528,,,TRUE,,,,,,,,CAVOK,,,,,,,,VFR,,,,,,,,,,,,METAR,33.0
LFMU 231100Z AUTO 08011KT 9999 BKN013 BKN019 BKN140 22/19 Q1016 TEMPO BKN008,LFMU,2022-10-23T11:00:00Z,43.32,3.35,22.0,19.0,80,11,,6.21,30.0,,,TRUE,,,,,,,,BKN,1300,BKN,1900,BKN,14000,,,MVFR,,,,,,,,,,,,METAR,14.0
LFMT 231100Z AUTO 13018KT 7000 OVC006 22/21 Q1017 BECMG 4000 BR,LFMT,2022-10-23T11:00:00Z,43.57,3.97,22.0,21.0,130,18,,4.35,30.029528,,,TRUE,,,,,,,,OVC,600,,,,,,,IFR,,,,,,,,,,,,SPECI,1.0
LFMP 231100Z AUTO 05008KT 020V080 CAVOK 27/17 Q1014 TEMPO 22015G25KT,LFMP,2022-10-23T11:00:00Z,42.73,2.87,27.0,17.0,50,8,,6.21,29.940945,,,TRUE,,,,,,,,CAVOK,,,,,,,,VFR,,,,,,,,,,,,SPECI,41.0
LFMO 231100Z AUTO VRB03KT CAVOK 21/17 Q1018 TEMPO 19015G25KT,LFMO,2022-10-23T11:00:00Z,44.13,4.87,21.0,17.0,0,3,,6.21,30.059055,,,TRUE,,,,,,,,CAVOK,,,,,,,,VFR,,,,,,,,,,,,METAR,56.0
LFMN 231100Z 08004KT 050V110 CAVOK 23/16 Q1021 NOSIG,LFMN,2022-10-23T11:00:00Z,43.65,7.2,23.0,16.0,80,4,,6.21,30.147638,,,,,,TRUE,,,,,CAVOK,,,,,,,,VFR,,,,,,,,,,,,METAR,4.0
LFML 231100Z AUTO 09009KT CAVOK 28/16 Q1017 BECMG 14015G25KT,LFML,2022-10-23T11:00:00Z,43.45,5.22,28.0,16.0,90,9,,6.21,30.029528,,,TRUE,,,,,,,,CAVOK,,,,,,,,VFR,,,,,,,,,,,,SPECI,20.0
LFMK 231100Z AUTO 09013KT 060V130 CAVOK 21/18 Q1015 TEMPO 09015G25KT,LFMK,2022-10-23T11:00:00Z,43.22,2.32,21.0,18.0,90,13,,6.21,29.970472,,,TRUE,,,,,,,,CAVOK,,,,,,,,VFR,,,,,,,,,,,,METAR,124.0
LFMI 231100Z AUTO 11011KT CAVOK 26/16 Q1017 BECMG 15015G25KT,LFMI,2022-10-23T11:00:00Z,43.52,4.93,26.0,16.0,110,11,,6.21,30.029528,,,TRUE,,,,,,,,CAVOK,,,,,,,,VFR,,,,,,,,,,,,METAR,20.0
LFMH 231100Z AUTO 17020KT CAVOK 23/14 Q1013,LFMH,2022-10-23T11:00:00Z,45.52,4.28,23.0,14.0,170,20,,6.21,29.911417,,,TRUE,,,,,,,,CAVOK,,,,,,,,VFR,,,,,,,,,,,,METAR,400.0
LFMD 231100Z AUTO 07005KT 030V130 CAVOK 24/17 Q1021 NOSIG,LFMD,2022-10-23T11:00:00Z,43.53,6.95,24.0,17.0,70,5,,6.21,30.147638,,,TRUE,,,TRUE,,,,,CAVOK,,,,,,,,VFR,,,,,,,,,,,,METAR,2.0
LFMC 231100Z AUTO 11013KT 9999 ////// 24/18 Q1020,LFMC,2022-10-23T11:00:00Z,43.37,6.38,24.0,18.0,110,13,,6.21,30.11811,,,TRUE,,,,,,,,,,,,,,,,,,,,,,,,,,,,METAR,79.0
LFLY 231100Z AUTO 18024G36KT CAVOK 23/14 Q1013 TEMPO 18015G25KT,LFLY,2022-10-23T11:00:00Z,45.72,4.95,23.0,14.0,180,24,36,6.21,29.911417,,,TRUE,,,,,,,,CAVOK,,,,,,,,VFR,,,,,,,,,,,,SPECI,197.0
LFLX 231100Z AUTO 17014KT 9999 //////TCU 23/15 Q1007 TEMPO 23020G35KT SHRA FEW040CB BKN070,LFLX,2022-10-23T11:00:00Z,46.87,1.73,23.0,15.0,170,14,,6.21,29.734253,,,TRUE,,,,,,,,,,,,,,,,,,,,,,,,,,,,METAR,157.0
LFLW 231100Z AUTO 14017KT 9999 ///TCU 19/13 Q1013 TEMPO -TSRA BKN120CB BECMG 14015G25KT,LFLW,2022-10-23T11:00:00Z,44.88,2.42,19.0,13.0,140,17,,6.21,29.911417,,,TRUE,,,,,,,,,,,,,,,,,,,,,,,,,,,,METAR,638.0
LFLV 231100Z AUTO 18012KT 140V220 CAVOK 24/14 Q1010,LFLV,2022-10-23T11:00:00Z,46.17,3.38,24.0,14.0,180,12,,6.21,29.822834,,,TRUE,,,,,,,,CAVOK,,,,,,,,VFR,,,,,,,,,,,,METAR,248.0
LFLU 231100Z AUTO 18016KT CAVOK 21/17 Q1016,LFLU,2022-10-23T11:00:00Z,44.92,4.98,21.0,17.0,180,16,,6.21,30.0,,,TRUE,,,,,,,,CAVOK,,,,,,,,VFR,,,,,,,,,,,,METAR,162.0
LFLS 231100Z AUTO 20008KT 170V230 CAVOK 21/14 Q1016 NOSIG,LFLS,2022-10-23T11:00:00Z,45.37,5.32,21.0,14.0,200,8,,6.21,30.0,,,TRUE,,,TRUE,,,,,CAVOK,,,,,,,,VFR,,,,,,,,,,,,METAR,386.0
LFLP 231100Z AUTO VRB02KT CAVOK 15/12 Q1017 TEMPO 23012KT,LFLP,2022-10-23T11:00:00Z,45.92,6.1,15.0,12.0,0,2,,6.21,30.029528,,,TRUE,,,,,,,,CAVOK,,,,,,,,VFR,,,,,,,,,,,,METAR,460.0
LFLN 231100Z AUTO 17013KT CAVOK 23/15 Q1010 TEMPO 22025G45KT 2500 TSRAGR SCT050CB,LFLN,2022-10-23T11:00:00Z,46.42,4.02,23.0,15.0,170,13,,6.21,29.822834,,,TRUE,,,,,,,,CAVOK,,,,,,,,VFR,,,,,,,,,,,,METAR,238.0
LFLL 231100Z 19029G41KT CAVOK 23/13 Q1013 NOSIG,LFLL,2022-10-23T11:00:00Z,45.72,5.07,23.0,13.0,190,29,41,6.21,29.911417,,,,,,TRUE,,,,,CAVOK,,,,,,,,VFR,,,,,,,,,,,,METAR,234.0
LFLH 231100Z AUTO 19012KT CAVOK 21/15 Q1011,LFLH,2022-10-23T11:00:00Z,46.83,4.82,21.0,15.0,190,12,,6.21,29.852362,,,TRUE,,,,,,,,CAVOK,,,,,,,,VFR,,,,,,,,,,,,METAR,190.0
LFLC 231100Z AUTO 18021KT CAVOK 25/13 Q1010 TEMPO 20035G60KT 2000 +TSRA BKN100CB,LFLC,2022-10-23T11:00:00Z,45.78,3.17,25.0,13.0,180,21,,6.21,29.822834,,,TRUE,,,,,,,,CAVOK,,,,,,,,VFR,,,3.5,,,,,,,,,SPECI,325.0
LFLB 231100Z AUTO 36004KT 330V050 CAVOK 14/13 Q1016 TEMPO 20012KT,LFLB,2022-10-23T11:00:00Z,45.63,5.87,14.0,13.0,360,4,,6.21,30.0,,,TRUE,,,,,,,,CAVOK,,,,,,,,VFR,,,1.2,,,,,,,,,SPECI,234.0
LFKS 231100Z AUTO 09005KT 040V130 CAVOK 24/19 Q1021,LFKS,2022-10-23T11:00:00Z,41.92,9.4,24.0,19.0,90,5,,6.21,30.147638,,,TRUE,,,,,,,,CAVOK,,,,,,,,VFR,,,,,,,,,,,,METAR,22.0
LFKJ 231100Z AUTO 24005KT CAVOK 30/08 Q1021 NOSIG,LFKJ,2022-10-23T11:00:00Z,41.92,8.8,30.0,8.0,240,5,,6.21,30.147638,,,TRUE,,,TRUE,,,,,CAVOK,,,,,,,,VFR,,,,,,,,,,,,METAR,9.0
LFKF 231100Z AUTO VRB03KT CAVOK 31/17 Q1021 NOSIG,LFKF,2022-10-23T11:00:00Z,41.5,9.08,31.0,17.0,0,3,,6.21,30.147638,,,TRUE,,,TRUE,,,,,CAVOK,,,,,,,,VFR,,,,,,,,,,,,METAR,15.0
LFKC 231100Z AUTO 34005KT 310V020 CAVOK 27/12 Q1020 NOSIG,LFKC,2022-10-23T11:00:00Z,42.52,8.8,27.0,12.0,340,5,,6.21,30.11811,,,TRUE,,,TRUE,,,,,CAVOK,,,,,,,,VFR,,,,,,,,,,,,METAR,38.0
LFKB 231100Z AUTO 01005KT 330V040 9999 FEW018 BKN024 24/19 Q1022 BECMG 14010KT,LFKB,2022-10-23T11:00:00Z,42.55,9.48,24.0,19.0,10,5,,6.21,30.177166,,,TRUE,,,,,,,,FEW,1800,BKN,2400,,,,,MVFR,,,,,,,,,,,,SPECI,7.0
LFJR 231100Z AUTO 16006KT CAVOK 21/15 Q1003,LFJR,2022-10-23T11:00:00Z,47.57,-0.32,21.0,15.0,160,6,,6.21,29.616142,,,TRUE,,,,,,,,CAVOK,,,,,,,,VFR,,,,,,,,,,,,METAR,50.0
LFJL 231100Z AUTO 18016KT CAVOK 21/15 Q1011 NOSIG,LFJL,2022-10-23T11:00:00Z,48.97,6.25,21.0,15.0,180,16,,6.21,29.852362,,,TRUE,,,TRUE,,,,,CAVOK,,,,,,,,VFR,,,,,,,,,,,,METAR,259.0
LFHP 231100Z AUTO 17013G24KT 140V210 CAVOK 19/13 Q1015,LFHP,2022-10-23T11:00:00Z,45.07,3.77,19.0,13.0,170,13,24,6.21,29.970472,,,TRUE,,,,,,,,CAVOK,,,,,,,,VFR,,,,,,,,,,,,METAR,829.0
LFGJ 231100Z AUTO 19020G31KT CAVOK 22/13 Q1011 NOSIG,LFGJ,2022-10-23T11:00:00Z,47.05,5.43,22.0,13.0,190,20,31,6.21,29.852362,,,TRUE,,,TRUE,,,,,CAVOK,,,,,,,,VFR,,,,,,,,,,,,METAR,191.0
LFGA 231100Z AUTO 16007KT CAVOK 19/11 Q1013,LFGA,2022-10-23T11:00:00Z,48.1,7.35,19.0,11.0,160,7,,6.21,29.911417,,,TRUE,,,,,,,,CAVOK,,,,,,,,VFR,,,,,,,,,,,,METAR,191.0
LFCR 231100Z AUTO 16023G38KT 9999 //////TCU 23/13 Q1013 TEMPO FEW050CB BKN120 BECMG 14016G26KT,LFCR,2022-10-23T11:00:00Z,44.4,2.47,23.0,13.0,160,23,38,6.21,29.911417,,,TRUE,,,,,,,,,,,,,,,,,,,,,,,,,,,,METAR,576.0
LFCK 231100Z AUTO 14014KT CAVOK 25/14 Q1015 BECMG 12016G26KT,LFCK,2022-10-23T11:00:00Z,43.55,2.28,25.0,14.0,140,14,,6.21,29.970472,,,TRUE,,,,,,,,CAVOK,,,,,,,,VFR,,,,,,,,,,,,METAR,223.0
LFBZ 231100Z AUTO 21008KT 150V260 CAVOK 25/11 Q1009 TEMPO 18015G30KT,LFBZ,2022-10-23T11:00:00Z,43.47,-1.53,25.0,11.0,210,8,,6.21,29.793306,,,TRUE,,,,,,,,CAVOK,,,,,,,,VFR,,,,,,,,,,,,SPECI,70.0
LFBY 231100Z AUTO 22012KT 9999 // ////// 26/10 Q1008,LFBY,2022-10-23T11:00:00Z,43.68,-1.07,26.0,10.0,220,12,,6.21,29.763779,,,TRUE,,,,,,,,,,,,,,,,,,,,,,,,,,,,METAR,32.0
LFBX 231100Z AUTO 13006KT 080V180 9999 //////TCU 21/13 Q1009,LFBX,2022-10-23T11:00:00Z,45.2,0.82,21.0,13.0,130,6,,6.21,29.793306,,,TRUE,,,,,,,,,,,,,,,,,,,,,,,,,,,,METAR,97.0
LFBU 231100Z AUTO 17012G22KT 140V220 CAVOK 23/12 Q1007 TEMPO 20020G35KT,LFBU,2022-10-23T11:00:00Z,45.72,0.22,23.0,12.0,170,12,22,6.21,29.734253,,,TRUE,,,,,,,,CAVOK,,,,,,,,VFR,,,2.0,,,,,,,,,METAR,124.0
LFBT 231100Z AUTO 15005KT 050V220 CAVOK 25/08 Q1011 TEMPO 20020G35KT FEW060CB BKN110,LFBT,2022-10-23T11:00:00Z,43.18,0.0,25.0,8.0,150,5,,6.21,29.852362,,,TRUE,,,,,,,,CAVOK,,,,,,,,VFR,,,2.0,,,,,,,,,METAR,359.0
LFBP 231100Z AUTO 23012KT CAVOK 25/11 Q1010 BECMG 20016G26KT,LFBP,2022-10-23T11:00:00Z,43.38,-0.42,25.0,11.0,230,12,,6.21,29.822834,,,TRUE,,,,,,,,CAVOK,,,,,,,,VFR,,,1.6,,,,,,,,,SPECI,182.0
LFBO 231100Z AUTO 16018KT CAVOK 27/13 Q1011 TEMPO 15018G28KT,LFBO,2022-10-23T11:00:00Z,43.62,1.37,27.0,13.0,160,18,,6.21,29.852362,,,TRUE,,,,,,,,CAVOK,,,,,,,,VFR,,,,,,,,,,,,SPECI,150.0
LFBM 231100Z AUTO 20006KT 170V250 9999 // NSC 25/11 Q1009,LFBM,2022-10-23T11:00:00Z,43.92,-0.5,25.0,11.0,200,6,,6.21,29.793306,,,TRUE,,,,,,,,CLR,,,,,,,,VFR,,,,,,,,,,,,SPECI,56.0
LFBL 231100Z AUTO 18011KT 9999 //////CB 18/13 Q1010 TEMPO 20020G35KT,LFBL,2022-10-23T11:00:00Z,45.87,1.17,18.0,13.0,180,11,,6.21,29.822834,,,TRUE,,,,,,,,,,,,,,,,,,,2.0,,,,,,,,,METAR,402.0
LFBI 231100Z AUTO 19019KT CAVOK 22/13 Q1006 TEMPO SHRA SCT080CB BECMG 20018G38KT,LFBI,2022-10-23T11:00:00Z,46.58,0.32,22.0,13.0,190,19,,6.21,29.704725,,,TRUE,,,,,,,,CAVOK,,,,,,,,VFR,,,1.8,,,,,,,,,SPECI,117.0
LFBH 231100Z AUTO 20024G35KT CAVOK 22/14 Q1004 NOSIG,LFBH,2022-10-23T11:00:00Z,46.18,-1.2,22.0,14.0,200,24,35,6.21,29.64567,,,TRUE,,,TRUE,,,,,CAVOK,,,,,,,,VFR,,,,,,,,,,,,METAR,18.0
LFBG 231100Z AUTO 19016KT CAVOK 22/13 Q1006,LFBG,2022-10-23T11:00:00Z,45.67,-0.32,22.0,13.0,190,16,,6.21,29.704725,,,TRUE,,,,,,,,CAVOK,,,,,,,,VFR,,,,,,,,,,,,METAR,28.0
LFBF 231100Z AUTO 15006KT 090V190 CAVOK 26/14 Q1012,LFBF,2022-10-23T11:00:00Z,43.53,1.37,26.0,14.0,150,6,,6.21,29.88189,,,TRUE,,,,,,,,CAVOK,,,,,,,,VFR,,,,,,,,,,,,METAR,159.0
LFBE 231100Z AUTO 15008KT 9999 //////TCU 21/15 Q1009 TEMPO 21020G30KT BECMG NSC,LFBE,2022-10-23T11:00:00Z,44.82,0.52,21.0,15.0,150,8,,6.21,29.793306,,,TRUE,,,,,,,,,,,,,,,,,,,-2.0,,,,,,,,,METAR,49.0
LFBD 231100Z AUTO 19012KT 160V220 CAVOK 24/12 Q1007 TEMPO 21020G35KT,LFBD,2022-10-23T11:00:00Z,44.82,-0.7,24.0,12.0,190,12,,6.21,29.734253,,,TRUE,,,,,,,,CAVOK,,,,,,,,VFR,,,-2.0,,,,,,,,,SPECI,48.0
LFBC 231100Z AUTO 22019KT CAVOK 23/14 Q1007,LFBC,2022-10-23T11:00:00Z,44.52,-1.12,23.0,14.0,220,19,,6.21,29.734253,,,TRUE,,,,,,,,CAVOK,,,,,,,,VFR,,,,,,,,,,,,METAR,22.0
LFBA 231100Z AUTO 06004KT 040V110 CAVOK 21/15 Q1010 NOSIG,LFBA,2022-10-23T11:00:00Z,44.17,0.6,21.0,15.0,60,4,,6.21,29.822834,,,TRUE,,,TRUE,,,,,CAVOK,,,,,,,,VFR,,,,,,,,,,,,METAR,68.0
LFAT 231100Z AUTO 16010KT 120V190 CAVOK 19/15 Q1003 TEMPO 18020G35KT 2000 TSRA BKN040CB,LFAT,2022-10-23T11:00:00Z,50.52,1.62,19.0,15.0,160,10,,6.21,29.616142,,,TRUE,,,,,,,,CAVOK,,,,,,,,VFR,,,,,,,,,,,,SPECI,2.0
LFAQ 231100Z AUTO 16011KT CAVOK 18/15 Q1005 NOSIG,LFAQ,2022-10-23T11:00:00Z,49.97,2.7,18.0,15.0,160,11,,6.21,29.675198,,,TRUE,,,TRUE,,,,,CAVOK,,,,,,,,VFR,,,,,,,,,,,,METAR,107.0
LFAC 231100Z AUTO 15010KT CAVOK 18/15 Q1003,LFAC,2022-10-23T11:00:00Z,50.97,1.95,18.0,15.0,150,10,,6.21,29.616142,,,TRUE,,,,,,,,CAVOK,,,,,,,,VFR,,,,,,,,,,,,METAR,3.0
LEZL 231100Z 25009KT 9999 SCT020 23/18 Q1018 NOSIG,LEZL,2022-10-23T11:00:00Z,37.42,-5.9,23.0,18.0,250,9,,6.21,30.059055,,,,,,TRUE,,,,,SCT,2000,,,,,,,VFR,,,,,,,,,,,,METAR,26.0
LEZG 231100Z 29009G19KT 240V350 9999 SCT075 SCT085 25/11 Q1015,LEZG,2022-10-23T11:00:00Z,41.67,-1.02,25.0,11.0,290,9,19,6.21,29.970472,,,,,,,,,,,SCT,7500,SCT,8500,,,,,VFR,,,,,,,,,,,,METAR,245.0
LEXJ 231100Z 21022G42KT 160V260 9999 FEW070 22/09 Q1005,LEXJ,2022-10-23T11:00:00Z,43.42,-3.82,22.0,9.0,210,22,42,6.21,29.675198,,,,,,,,,,,FEW,7000,,,,,,,VFR,,,,,,,,,,,,METAR,1.0
LEVX 231100Z 23016G29KT 190V270 9999 BKN015 BKN021 17/14 Q1009 TEMPO BKN010,LEVX,2022-10-23T11:00:00Z,42.23,-8.62,17.0,14.0,230,16,29,6.21,29.793306,,,,,,,,,,,BKN,1500,BKN,2100,,,,,MVFR,,,,,,,,,,,,SPECI,253.0
LEVT 231100Z 21040G58KT 170V240 9999 FEW045 20/08 Q1008,LEVT,2022-10-23T11:00:00Z,42.87,-2.72,20.0,8.0,210,40,58,6.21,29.763779,,,,,,,,,,,FEW,4500,,,,,,,VFR,,,,,,,,,,,,METAR,501.0
LEVS 231100Z 23013KT 9999 BKN026 15/12 Q1018,LEVS,2022-10-23T11:00:00Z,40.37,-3.78,15.0,12.0,230,13,,6.21,30.059055,,,,,,,,,,,BKN,2600,,,,,,,MVFR,,,,,,,,,,,,METAR,683.0
LEVD 231100Z 21024KT 9999 FEW037 15/08 Q1014,LEVD,2022-10-23T11:00:00Z,41.72,-4.85,15.0,8.0,210,24,,6.21,29.940945,,,,,,,,,,,FEW,3700,,,,,,,VFR,,,,,,,,,,,,METAR,844.0
LEVC 231100Z 09002KT 9999 FEW060 23/17 Q1017 NOSIG,LEVC,2022-10-23T11:00:00Z,39.5,-0.47,23.0,17.0,90,2,,6.21,30.029528,,,,,,TRUE,,,,,FEW,6000,,,,,,,VFR,,,,,,,,,,,,METAR,58.0
LETU 231100Z AUTO 22020KT 9999 NCD 25/10 Q1014,LETU,2022-10-23T11:00:00Z,,,25.0,10.0,220,20,,6.21,29.940945,,,TRUE,,,,,,,,CLR,,,,,,,,VFR,,,,,,,,,,,,METAR,
LETO 231100Z 24013KT 210V270 9999 BKN025 OVC045 16/13 Q1018 NOSIG,LETO,2022-10-23T11:00:00Z,40.48,-3.47,16.0,13.0,240,13,,6.21,30.059055,,,,,,TRUE,,,,,BKN,2500,OVC,4500,,,,,MVFR,,,,,,,,,,,,METAR,598.0
LETL 231100Z AUTO 21024KT CAVOK 19/07 Q1020,LETL,2022-10-23T11:00:00Z,40.42,-1.22,19.0,7.0,210,24,,6.21,30.11811,,,TRUE,,,,,,,,CAVOK,,,,,,,,VFR,,,,,,,,,,,,METAR,1024.0
LESU 231100Z 02004KT 340V050 9999 -RA VCFG FEW005 BKN065 OVC076 13/12 Q1021,LESU,2022-10-23T11:00:00Z,42.33,1.4,13.0,12.0,20,4,,6.21,30.147638,,,,,,,,,,-RA VCFG,FEW,500,BKN,6500,OVC,7600,,,VFR,,,,,,,,,,,,METAR,802.0
LEST 231100Z 24019G33KT 190V290 9000 -SHRA BKN008 SCT025TCU 15/13 Q1006 TEMPO 3000 SHRA,LEST,2022-10-23T11:00:00Z,42.88,-8.42,15.0,13.0,240,19,33,5.59,29.704725,,,,,,,,,,-SHRA,BKN,800,SCT,2500,,,,,IFR,,,,,,,,,,,,SPECI,363.0
LESO 231100Z 20016KT 170V240 9999 FEW025 26/11 Q1008,LESO,2022-10-23T11:00:00Z,43.35,-1.8,26.0,11.0,200,16,,6.21,29.763779,,,,,,,,,,,FEW,2500,,,,,,,VFR,,,,,,,,,,,,METAR,3.0
LESB 231100Z AUTO 21010KT 180V250 CAVOK 28/17 Q1018,LESB,2022-10-23T11:00:00Z,39.6,2.7,28.0,17.0,210,10,,6.21,30.059055,,,TRUE,,,,,,,,CAVOK,,,,,,,,VFR,,,,,,,,,,,,METAR,48.0
LESA 231100Z 23023G33KT 9999 FEW028 15/08 Q1015,LESA,2022-10-23T11:00:00Z,40.95,-5.5,15.0,8.0,230,23,33,6.21,29.970472,,,,,,,,,,,FEW,2800,,,,,,,VFR,,,,,,,,,,,,METAR,788.0
LERT 231100Z 18008KT 150V210 9999 FEW007 23/20 Q1018 NOSIG,LERT,2022-10-23T11:00:00Z,36.63,-6.33,23.0,20.0,180,8,,6.21,30.059055,,,,,,TRUE,,,,,FEW,700,,,,,,,VFR,,,,,,,,,,,,METAR,27.0
LERS 231100Z VRB01KT 9999 SCT018 BKN020 23/21 Q1017,LERS,2022-10-23T11:00:00Z,41.13,1.17,23.0,21.0,0,1,,6.21,30.029528,,,,,,,,,,,SCT,1800,BKN,2000,,,,,MVFR,,,,,,,,,,,,METAR,68.0
LERI 231100Z 27002KT 9999 NSC 27/15 Q1017 NOSIG,LERI,2022-10-23T11:00:00Z,37.95,-1.22,27.0,15.0,270,2,,6.21,30.029528,,,,,,TRUE,,,,,CLR,,,,,,,,VFR,,,,,,,,,,,,METAR,74.0
LEPP 231100Z 18015KT 9999 FEW058 21/10 Q1013,LEPP,2022-10-23T11:00:00Z,42.77,-1.65,21.0,10.0,180,15,,6.21,29.911417,,,,,,,,,,,FEW,5800,,,,,,,VFR,,,,,,,,,,,,METAR,448.0
LEPA 231100Z 22008KT 190V250 CAVOK 29/19 Q1018 NOSIG,LEPA,2022-10-23T11:00:00Z,39.55,2.73,29.0,19.0,220,8,,6.21,30.059055,,,,,,TRUE,,,,,CAVOK,,,,,,,,VFR,,,,,,,,,,,,METAR,8.0
LEMO 231100Z 26011KT 230V290 9999 FEW021 23/17 Q1018 NOSIG,LEMO,2022-10-23T11:00:00Z,37.17,-5.62,23.0,17.0,260,11,,6.21,30.059055,,,,,,TRUE,,,,,FEW,2100,,,,,,,VFR,,,,,,,,,,,,METAR,82.0
LEMI 231100Z 15006KT CAVOK 26/17 Q1018,LEMI,2022-10-23T11:00:00Z,37.8,-1.12,26.0,17.0,150,6,,6.21,30.059055,,,,,,,,,,,CAVOK,,,,,,,,VFR,,,,,,,,,,,,METAR,193.0
LEMH 231100Z 21010KT 170V250 CAVOK 26/19 Q1019,LEMH,2022-10-23T11:00:00Z,39.87,4.22,26.0,19.0,210,10,,6.21,30.088583,,,,,,,,,,,CAVOK,,,,,,,,VFR,,,,,,,,,,,,METAR,82.0
LEMG 231100Z 13005KT CAVOK 24/16 Q1018 NOSIG,LEMG,2022-10-23T11:00:00Z,36.67,-4.47,24.0,16.0,130,5,,6.21,30.059055,,,,,,TRUE,,,,,CAVOK,,,,,,,,VFR,,,,,,,,,,,,METAR,5.0
LEMD 231100Z 23013KT 200V340 9999 FEW022TCU BKN035 17/12 Q1018 NOSIG,LEMD,2022-10-23T11:00:00Z,40.45,-3.57,17.0,12.0,230,13,,6.21,30.059055,,,,,,TRUE,,,,,FEW,2200,BKN,3500,,,,,VFR,,,,,,,,,,,,METAR,589.0
LELO 231100Z AUTO 20015KT 180V240 9999 FEW070 24/06 Q1012,LELO,2022-10-23T11:00:00Z,42.45,-2.32,24.0,6.0,200,15,,6.21,29.88189,,,TRUE,,,,,,,,FEW,7000,,,,,,,VFR,,,,,,,,,,,,METAR,352.0
LELN 231100Z 20023G34KT 170V230 9999 BKN018 BKN030 12/09 Q1011,LELN,2022-10-23T11:00:00Z,42.58,-5.65,12.0,9.0,200,23,34,6.21,29.852362,,,,,,,,,,,BKN,1800,BKN,3000,,,,,MVFR,,,,,,,,,,,,METAR,911.0
LELL 231100Z VRB02KT CAVOK 23/16 Q1017,LELL,2022-10-23T11:00:00Z,41.52,2.1,23.0,16.0,0,2,,6.21,30.029528,,,,,,,,,,,CAVOK,,,,,,,,VFR,,,,,,,,,,,,METAR,136.0
LELC 231100Z 13003KT 100V170 CAVOK 26/20 Q1018 NOSIG,LELC,2022-10-23T11:00:00Z,37.77,-0.8,26.0,20.0,130,3,,6.21,30.059055,,,,,,TRUE,,,,,CAVOK,,,,,,,,VFR,,,,,,,,,,,,METAR,3.0
LEJR 231100Z 23008KT 190V270 9999 FEW025 24/16 Q1018,LEJR,2022-10-23T11:00:00Z,36.75,-6.07,24.0,16.0,230,8,,6.21,30.059055,,,,,,,,,,,FEW,2500,,,,,,,VFR,,,,,,,,,,,,METAR,25.0
LEIB 231100Z 21010KT CAVOK 25/20 Q1017 NOSIG,LEIB,2022-10-23T11:00:00Z,38.87,1.38,25.0,20.0,210,10,,6.21,30.029528,,,,,,TRUE,,,,,CAVOK,,,,,,,,VFR,,,,,,,,,,,,METAR,4.0
LEHC 231100Z VRB01KT 9999 FEW070 18/14 Q1017,LEHC,2022-10-23T11:00:00Z,42.08,-0.32,18.0,14.0,0,1,,6.21,30.029528,,,,,,,,,,,FEW,7000,,,,,,,VFR,,,,,,,,,,,,METAR,540.0
LEGT 231100Z 23012KT 200V260 9999 FEW013 BKN021 16/14 Q1018,LEGT,2022-10-23T11:00:00Z,40.28,-3.72,16.0,14.0,230,12,,6.21,30.059055,,,,,,,,,,,FEW,1300,BKN,2100,,,,,MVFR,,,,,,,,,,,,METAR,619.0
LEGR 231100Z VRB02KT CAVOK 24/10 Q1020,LEGR,2022-10-23T11:00:00Z,37.18,-3.78,24.0,10.0,0,2,,6.21,30.11811,,,,,,,,,,,CAVOK,,,,,,,,VFR,,,,,,,,,,,,METAR,560.0
LEGE 231100Z 17005KT 130V200 CAVOK 24/18 Q1016,LEGE,2022-10-23T11:00:00Z,41.9,2.77,24.0,18.0,170,5,,6.21,30.0,,,,,,,,,,,CAVOK,,,,,,,,VFR,,,,,,,,,,,,METAR,140.0
LEDA 231100Z 06011KT 9999 FEW060 20/15 Q1016,LEDA,2022-10-23T11:00:00Z,41.73,0.53,20.0,15.0,60,11,,6.21,30.0,,,,,,,,,,,FEW,6000,,,,,,,VFR,,,,,,,,,,,,METAR,352.0
LECV 231100Z 22011KT 9999 SCT004 BKN010 13/12 Q1018,LECV,2022-10-23T11:00:00Z,40.68,-3.75,13.0,12.0,220,11,,6.21,30.059055,,,,,,,,,,,SCT,400,BKN,1000,,,,,MVFR,,,,,,,,,,,,METAR,995.0
LECO 231100Z 23016G29KT 190V280 9999 -SHRA SCT029 FEW030TCU BKN035 19/14 Q1004 TEMPO RA,LECO,2022-10-23T11:00:00Z,43.3,-8.37,19.0,14.0,230,16,29,6.21,29.64567,,,,,,,,,,-SHRA,SCT,2900,FEW,3000,BKN,3500,,,VFR,,,,,,,,,,,,SPECI,80.0
LECH 231100Z AUTO VRB02KT 9000 NSC 22/17 Q1018,LECH,2022-10-23T11:00:00Z,40.2,0.07,22.0,17.0,0,2,,5.59,30.059055,,,TRUE,,,,,,,,CLR,,,,,,,,VFR,,,,,,,,,,,,METAR,360.0
LEBZ 231100Z 23010KT 190V270 9999 FEW026 SCT043 21/13 Q1017,LEBZ,2022-10-23T11:00:00Z,38.87,-6.82,21.0,13.0,230,10,,6.21,30.029528,,,,,,,,,,,FEW,2600,SCT,4300,,,,,VFR,,,,,,,,,,,,METAR,183.0
LEBT 231100Z AUTO 19003KT 170V250 CAVOK 23/16 Q1017,LEBT,2022-10-23T11:00:00Z,39.58,-0.45,23.0,16.0,190,3,,6.21,30.029528,,,TRUE,,,,,,,,CAVOK,,,,,,,,VFR,,,,,,,,,,,,METAR,50.0
LEBR 231100Z AUTO 20020KT 9999 FEW071 24/09 Q1014,LEBR,2022-10-23T11:00:00Z,42.2,-1.43,24.0,9.0,200,20,,6.21,29.940945,,,TRUE,,,,,,,,FEW,7100,,,,,,,VFR,,,,,,,,,,,,METAR,347.0
LEBL 231100Z 34003KT 260V010 9999 FEW020 23/19 Q1017 NOSIG,LEBL,2022-10-23T11:00:00Z,41.28,2.07,23.0,19.0,340,3,,6.21,30.029528,,,,,,TRUE,,,,,FEW,2000,,,,,,,VFR,,,,,,,,,,,,METAR,2.0
LEBG 231100Z 21024G35KT 180V240 9999 FEW024 16/07 Q1015,LEBG,2022-10-23T11:00:00Z,42.37,-3.62,16.0,7.0,210,24,35,6.21,29.970472,,,,,,,,,,,FEW,2400,,,,,,,VFR,,,,,,,,,,,,METAR,892.0
LEBB 231100Z 25017G39KT 190V290 9999 FEW071 25/09 Q1008 NOSIG,LEBB,2022-10-23T11:00:00Z,43.28,-2.92,25.0,9.0,250,17,39,6.21,29.763779,,,,,,TRUE,,,,,FEW,7100,,,,,,,VFR,,,,,,,,,,,,METAR,38.0
LEBA 231100Z 26003KT 190V300 9999 FEW018 SCT025 22/18 Q1018,LEBA,2022-10-23T11:00:00Z,37.85,-4.83,22.0,18.0,260,3,,6.21,30.059055,,,,,,,,,,,FEW,1800,SCT,2500,,,,,VFR,,,,,,,,,,,,METAR,88.0
LEAS 231100Z 22016G26KT 190V260 9999 FEW074 21/13 Q1003 NOSIG,LEAS,2022-10-23T11:00:00Z,43.57,-6.03,21.0,13.0,220,16,26,6.21,29.616142,,,,,,TRUE,,,,,FEW,7400,,,,,,,VFR,,,,,,,,,,,,METAR,120.0
LEAO 231100Z 23011KT 190V280 9999 SCT045 21/10 Q1019,LEAO,2022-10-23T11:00:00Z,38.95,-3.73,21.0,10.0,230,11,,6.21,30.088583,,,,,,,,,,,SCT,4500,,,,,,,VFR,,,,,,,,,,,,METAR,621.0
LEAM 231100Z 21006KT 190V250 CAVOK 23/19 Q1018,LEAM,2022-10-23T11:00:00Z,36.85,-2.37,23.0,19.0,210,6,,6.21,30.059055,,,,,,,,,,,CAVOK,,,,,,,,VFR,,,,,,,,,,,,METAR,16.0
LEAL 231100Z 22005KT 170V270 CAVOK 27/17 Q1017 NOSIG,LEAL,2022-10-23T11:00:00Z,38.27,-0.55,27.0,17.0,220,5,,6.21,30.029528,,,,,,TRUE,,,,,CAVOK,,,,,,,,VFR,,,,,,,,,,,,METAR,26.0
LEAG 231100Z AUTO 09004KT 050V150 CAVOK 24/18 Q1018,LEAG,2022-10-23T11:00:00Z,36.12,-5.45,24.0,18.0,90,4,,6.21,30.059055,,,TRUE,,,,,,,,CAVOK,,,,,,,,VFR,,,,,,,,,,,,METAR,4.0
LEAB 231100Z 24010KT CAVOK 22/10 Q1020 NOSIG,LEAB,2022-10-23T11:00:00Z,38.95,-1.85,22.0,10.0,240,10,,6.21,30.11811,,,,,,TRUE,,,,,CAVOK,,,,,,,,VFR,,,,,,,,,,,,METAR,704.0
LDZD 231100Z 15008KT 110V190 CAVOK 22/16 Q1024 NOSIG,LDZD,2022-10-23T11:00:00Z,44.1,15.33,22.0,16.0,150,8,,6.21,30.236221,,,,,,TRUE,,,,,CAVOK,,,,,,,,VFR,,,,,,,,,,,,METAR,82.0
LDZA 231100Z VRB02KT 9999 FEW007 18/16 Q1022 BECMG 22008KT,LDZA,2022-10-23T11:00:00Z,45.72,16.07,18.0,16.0,0,2,,6.21,30.177166,,,,,,,,,,,FEW,700,,,,,,,VFR,,,,,,,,,,,,SPECI,103.0
LDSP 231100Z 09006KT 060V130 CAVOK 22/14 Q1024 NOSIG,LDSP,2022-10-23T11:00:00Z,43.53,16.3,22.0,14.0,90,6,,6.21,30.236221,,,,,,TRUE,,,,,CAVOK,,,,,,,,VFR,,,,,,,,,,,,METAR,16.0
LDRI 231100Z 17008KT 120V210 9999 FEW010 SCT033 BKN052 21/17 Q1024,LDRI,2022-10-23T11:00:00Z,45.22,14.57,21.0,17.0,170,8,,6.21,30.236221,,,,,,,,,,,FEW,1000,SCT,3300,BKN,5200,,,VFR,,,,,,,,,,,,METAR,80.0
LDPL 231100Z 15008KT 080V230 9999 BKN012 20/18 Q1023 BECMG SCT015,LDPL,2022-10-23T11:00:00Z,44.88,13.92,20.0,18.0,150,8,,6.21,30.206694,,,,,,,,,,,BKN,1200,,,,,,,MVFR,,,,,,,,,,,,SPECI,63.0
LDOS 231100Z 13004KT 100V170 7000 FEW013 BKN027 16/15 Q1023,LDOS,2022-10-23T11:00:00Z,45.47,18.82,16.0,15.0,130,4,,4.35,30.206694,,,,,,,,,,,FEW,1300,BKN,2700,,,,,MVFR,,,,,,,,,,,,METAR,82.0
LDLO 231100Z 16010KT 9999 BKN015 21/18 Q1023,LDLO,2022-10-23T11:00:00Z,44.57,14.4,21.0,18.0,160,10,,6.21,30.206694,,,,,,,,,,,BKN,1500,,,,,,,MVFR,,,,,,,,,,,,METAR,46.0
LDDU 231100Z 20005KT 150V240 9999 FEW026 21/16 Q1025 NOSIG,LDDU,2022-10-23T11:00:00Z,42.57,18.27,21.0,16.0,200,5,,6.21,30.265747,,,,,,TRUE,,,,,FEW,2600,,,,,,,VFR,,,,,,,,,,,,METAR,156.0
LCPH 231100Z 24006KT 170V260 9999 FEW030 26/11 Q1018,LCPH,2022-10-23T11:00:00Z,34.72,32.47,26.0,11.0,240,6,,6.21,30.059055,,,,,,,,,,,FEW,3000,,,,,,,VFR,,,,,,,,,,,,METAR,8.0
LCLK 231100Z 05012KT 9999 FEW025 28/14 Q1018 NOSIG,LCLK,2022-10-23T11:00:00Z,34.87,33.62,28.0,14.0,50,12,,6.21,30.059055,,,,,,TRUE,,,,,FEW,2500,,,,,,,VFR,,,,,,,,,,,,METAR,2.0
LBWN 231100Z 31017KT 290V360 CAVOK 24/09 Q1018 NOSIG,LBWN,2022-10-23T11:00:00Z,43.22,27.82,24.0,9.0,310,17,,6.21,30.059055,,,,,,TRUE,,,,,CAVOK,,,,,,,,VFR,,,,,,,,,,,,METAR,74.0
LBSF 231100Z 29015KT CAVOK 21/09 Q1024 NOSIG,LBSF,2022-10-23T11:00:00Z,42.65,23.37,21.0,9.0,290,15,,6.21,30.236221,,,,,,TRUE,,,,,CAVOK,,,,,,,,VFR,,,,,,,,,,,,METAR,592.0
LBPD 231100Z AUTO 30023KT 9999 NCD 26/07 Q1020 NOSIG,LBPD,2022-10-23T11:00:00Z,42.05,24.85,26.0,7.0,300,23,,6.21,30.11811,,,TRUE,,,TRUE,,,,,CLR,,,,,,,,VFR,,,,,,,,,,,,METAR,182.0
LBGO 231100Z AUTO 27021KT 9999 NCD 23/09 Q1021 NOSIG,LBGO,2022-10-23T11:00:00Z,43.15,25.72,23.0,9.0,270,21,,6.21,30.147638,,,TRUE,,,TRUE,,,,,CLR,,,,,,,,VFR,,,,,,,,,,,,METAR,84.0
LBBG 231100Z 31014KT CAVOK 26/10 Q1019 NOSIG,LBBG,2022-10-23T11:00:00Z,42.57,27.52,26.0,10.0,310,14,,6.21,30.088583,,,,,,TRUE,,,,,CAVOK,,,,,,,,VFR,,,,,,,,,,,,METAR,41.0
KVEL 231100Z AUTO 26005KT 1SM -SN BR VV007 01/M01 A2952 RMK AO2 PRESRR P0001 T00061006,KVEL,2022-10-23T11:00:00Z,40.45,-109.52,0.6,-0.6,260,5,,1.0,29.518702,,,TRUE,TRUE,,,,,,-SN BR,OVX,0,,,,,,,LIFR,,,,,,0.01,,,,,700,SPECI,1604.0
KSBD 231100Z AUTO 00000KT 10SM SCT014 SCT028 OVC050 15/11 A2980 RMK AO2 T01480111,KSBD,2022-10-23T11:00:00Z,34.08,-117.25,14.8,11.1,0,0,,10.0,29.799213,,,TRUE,TRUE,,,,,,,SCT,1400,SCT,2800,OVC,5000,,,VFR,,,,,,,,,,,,METAR,353.0
KQAZ 231100Z AUTO 11012G18KT 9999 CLR 32/03 A3006 RMK AO2 WSHFT 1052 SLP176 WND DATA ESTMD,KQAZ,2022-10-23T11:00:00Z,,,32.0,3.0,110,12,18,6.21,30.059055,1017.6,,TRUE,TRUE,,,,,,,CLR,,,,,,,,VFR,,,,,,,,,,,,METAR,
KNEL 231100Z AUTO 03003KT 10SM BKN042 BKN060 OVC085 14/09 A3024 RMK AO2 SLP237 T01390089 $,KNEL,2022-10-23T11:00:00Z,40.03,-74.33,13.9,8.9,30,3,,10.0,30.239174,1023.7,,TRUE,TRUE,TRUE,,,,,,BKN,4200,BKN,6000,OVC,8500,,,VFR,,,,,,,,,,,,METAR,26.0
KJSL 231100Z AUTO 13015G22KT 10SM BKN042 BKN049 OVC070 A3000 RMK A01,KJSL,2022-10-23T11:00:00Z,26.23,-95.22,,,130,15,22,10.0,30.0,,,TRUE,TRUE,,,,,,,BKN,4200,BKN,4900,OVC,7000,,,VFR,,,,,,,,,,,,METAR,45.0
KHDC 231100Z AUTO 00000KT 10SM CLR 13/13 A3008 RMK AO2 TSNO,KHDC,2022-10-23T11:00:00Z,30.52,-90.42,13.0,13.0,0,0,,10.0,30.079725,,,TRUE,TRUE,,,TRUE,,,,CLR,,,,,,,,VFR,,,,,,,,,,,,METAR,12.0
KGZN 231100Z AUTO 18012KT 10SM CLR 19/14 A2974 RMK AO2,KGZN,2022-10-23T11:00:00Z,32.37,-99.02,19.0,14.0,180,12,,10.0,29.740158,,,TRUE,TRUE,,,,,,,CLR,,,,,,,,VFR,,,,,,,,,,,,METAR,522.0
KFDK 231100Z AUTO 00000KT 10SM CLR 03/03 A3027 RMK AO2,KFDK,2022-10-23T11:00:00Z,39.42,-77.37,3.0,3.0,0,0,,10.0,30.268702,,,TRUE,TRUE,,,,,,,CLR,,,,,,,,VFR,,,,,,,,,,,,METAR,82.0
KCWF 231100Z 10004KT 10SM SCT050 16/15 A2999,KCWF,2022-10-23T11:00:00Z,30.22,-93.15,16.0,15.0,100,4,,10.0,29.991142,,,,,,,,,,,SCT,5000,,,,,,,VFR,,,,,,,,,,,,SPECI,4.0
HSSK 231100Z 02016KT 8000 37/08 Q1012 NOSIG,HSSK,2022-10-23T11:00:00Z,15.58,32.55,37.0,8.0,20,16,,4.97,29.88189,,,,,,TRUE,,,,,,,,,,,,,,,,,,,,,,,,,METAR,380.0
HSPN 231100Z 04014 9999 SCT030 32/23 Q1013,HSPN,2022-10-23T11:00:00Z,19.43,37.23,32.0,23.0,40,14,,6.21,29.911417,,,,,,,,,,,SCT,3000,,,,,,,VFR,,,,,,,,,,,,METAR,43.0
HSOB 231100Z 03004KT CAVOK 35/07 Q1014,HSOB,2022-10-23T11:00:00Z,13.17,30.22,35.0,7.0,30,4,,6.21,29.940945,,,,,,,,,,,CAVOK,,,,,,,,VFR,,,,,,,,,,,,METAR,574.0
HSFS 231100Z 05012KT CAVOK 34/02 Q1017,HSFS,2022-10-23T11:00:00Z,13.62,25.32,34.0,2.0,50,12,,6.21,30.029528,,,,,,,,,,,CAVOK,,,,,,,,VFR,,,,,,,,,,,,METAR,734.0
HSDN 231100Z 36020 4000BL 33/08 Q1016,HSDN,2022-10-23T11:00:00Z,19.17,30.42,33.0,8.0,360,20,,,30.0,,,,,,,,,,,,,,,,,,,,,,,,,,,,,,,METAR,235.0
HRZA 231100Z 28003KT 9999 BKN025 25/15 Q1020 NOSIG,HRZA,2022-10-23T11:00:00Z,-2.47,28.92,25.0,15.0,280,3,,6.21,30.11811,,,,,,TRUE,,,,,BKN,2500,,,,,,,MVFR,,,,,,,,,,,,METAR,1591.0
HRYR 231100Z VRB06KT 9999 SCT025 29/11 Q1020 NOSIG,HRYR,2022-10-23T11:00:00Z,-1.97,30.13,29.0,11.0,0,6,,6.21,30.11811,,,,,,TRUE,,,,,SCT,2500,,,,,,,VFR,,,,,,,,,,,,METAR,1493.0
HKWJ 231100Z 00000KT 9999 BKN036 31/18 Q1012,HKWJ,2022-10-23T11:00:00Z,1.75,40.08,31.0,18.0,0,0,,6.21,29.88189,,,,,,,,,,,BKN,3600,,,,,,,VFR,,,,,,,,,,,,METAR,254.0
HKNW 231100Z 12015KT 9999 BKN028 27/09 Q1023,HKNW,2022-10-23T11:00:00Z,-1.32,36.82,27.0,9.0,120,15,,6.21,30.206694,,,,,,,,,,,BKN,2800,,,,,,,MVFR,,,,,,,,,,,,METAR,1666.0
HKKI 231100Z 23007KT 9999 FEW026CB SCT027 29/14 Q1017,HKKI,2022-10-23T11:00:00Z,-0.1,34.75,29.0,14.0,230,7,,6.21,30.029528,,,,,,,,,,,FEW,2600,SCT,2700,,,,,VFR,,,,,,,,,,,,METAR,1152.0
HKJK 231100Z 07009KT 9999 BKN028 27/10 Q1022 NOSIG,HKJK,2022-10-23T11:00:00Z,-1.32,36.92,27.0,10.0,70,9,,6.21,30.177166,,,,,,TRUE,,,,,BKN,2800,,,,,,,MVFR,,,,,,,,,,,,METAR,1615.0
HKEL 231100Z 16007KT 9999 SCT024 25/07 Q1025,HKEL,2022-10-23T11:00:00Z,0.4,35.23,25.0,7.0,160,7,,6.21,30.265747,,,,,,,,,,,SCT,2400,,,,,,,VFR,,,,,,,,,,,,METAR,2116.0
HETR 231100Z 29026KT 6000 FEW025 27/19 Q1015,HETR,2022-10-23T11:00:00Z,28.22,33.65,27.0,19.0,290,26,,3.73,29.970472,,,,,,,,,,,FEW,2500,,,,,,,MVFR,,,,,,,,,,,,METAR,35.0
HESW 231100Z 30012KT 9999 SCT025 25/03 Q1022,HESW,2022-10-23T11:00:00Z,29.35,25.5,25.0,3.0,300,12,,6.21,30.177166,,,,,,,,,,,SCT,2500,,,,,,,VFR,,,,,,,,,,,,METAR,101.0
HEIS 231100Z 32006KT 9999 SCT025 27/15 Q1018,HEIS,2022-10-23T11:00:00Z,30.58,32.25,27.0,15.0,320,6,,6.21,30.059055,,,,,,,,,,,SCT,2500,,,,,,,VFR,,,,,,,,,,,,METAR,14.0
HECA 231100Z 29011KT 9999 SCT025 26/11 Q1018 NOSIG,HECA,2022-10-23T11:00:00Z,30.12,31.4,26.0,11.0,290,11,,6.21,30.059055,,,,,,TRUE,,,,,SCT,2500,,,,,,,VFR,,,,,,,,,,,,METAR,68.0
HCMM 231100Z 14008KT 9999 SCT024 FEW025TCU 29/24 Q1013,HCMM,2022-10-23T11:00:00Z,2.02,45.3,29.0,24.0,140,8,,6.21,29.911417,,,,,,,,,,,SCT,2400,FEW,2500,,,,,VFR,,,,,,,,,,,,METAR,6.0
HCMF 231100Z 36014KT 9999 FEWO46 28/24 Q1012,HCMF,2022-10-23T11:00:00Z,11.27,49.13,28.0,24.0,360,14,,6.21,29.88189,,,,,,,,,,,,,,,,,,,,,,,,,,,,,,,METAR,8.0
GVSV 231100Z 05028KT 9999 FEW018 28/21 Q1015 NOSIG,GVSV,2022-10-23T11:00:00Z,16.83,-25.07,28.0,21.0,50,28,,6.21,29.970472,,,,,,TRUE,,,,,FEW,1800,,,,,,,VFR,,,,,,,,,,,,METAR,16.0
GVNP 231100Z 03018KT 9999 SCT016 28/20 Q1015 NOSIG,GVNP,2022-10-23T11:00:00Z,14.95,-23.48,28.0,20.0,30,18,,6.21,29.970472,,,,,,TRUE,,,,,SCT,1600,,,,,,,VFR,,,,,,,,,,,,METAR,70.0
GVBA 231100Z 05018KT 9999 SCT014 28/21 Q1016 NOSIG,GVBA,2022-10-23T11:00:00Z,16.13,-22.88,28.0,21.0,50,18,,6.21,30.0,,,,,,TRUE,,,,,SCT,1400,,,,,,,VFR,,,,,,,,,,,,METAR,23.0
GVAC 231100Z 05019KT 9999 SCT014 27/20 Q1016 NOSIG,GVAC,2022-10-23T11:00:00Z,16.73,-22.93,27.0,20.0,50,19,,6.21,30.0,,,,,,TRUE,,,,,SCT,1400,,,,,,,VFR,,,,,,,,,,,,METAR,54.0
GQPP 231100Z 02018KT 6000 NSC 24/19 Q1015 NOSIG,GQPP,2022-10-23T11:00:00Z,20.92,-17.02,24.0,19.0,20,18,,3.73,29.970472,,,,,,TRUE,,,,,CLR,,,,,,,,MVFR,,,,,,,,,,,,METAR,5.0
GQNO 231100Z 02008KT 330V040 CAVOK 30/17 Q1013 NOSIG,GQNO,2022-10-23T11:00:00Z,18.3,-15.97,30.0,17.0,20,8,,6.21,29.911417,,,,,,TRUE,,,,,CAVOK,,,,,,,,VFR,,,,,,,,,,,,METAR,1.0
GOTT 231100Z 26004KT 9999 BKN013 30/25 Q1014,GOTT,2022-10-23T11:00:00Z,13.73,-13.65,30.0,25.0,260,4,,6.21,29.940945,,,,,,,,,,,BKN,1300,,,,,,,MVFR,,,,,,,,,,,,METAR,53.0
GOTK 231100Z 28002KT CAVOK 29/25 Q1014,GOTK,2022-10-23T11:00:00Z,12.57,-12.22,29.0,25.0,280,2,,6.21,29.940945,,,,,,,,,,,CAVOK,,,,,,,,VFR,,,,,,,,,,,,METAR,165.0
GOSS 231100Z 32006KT 270V360 CAVOK 32/25 Q1014,GOSS,2022-10-23T11:00:00Z,16.05,-16.45,32.0,25.0,320,6,,6.21,29.940945,,,,,,,,,,,CAVOK,,,,,,,,VFR,,,,,,,,,,,,METAR,3.0
GOSP 231100Z 28002KT CAVOK 32/24 Q1013,GOSP,2022-10-23T11:00:00Z,16.68,-14.97,32.0,24.0,280,2,,6.21,29.911417,,,,,,,,,,,CAVOK,,,,,,,,VFR,,,,,,,,,,,,METAR,10.0
GOSM 231100Z 28002KT CAVOK 34/28 Q1013,GOSM,2022-10-23T11:00:00Z,15.6,-13.33,34.0,28.0,280,2,,6.21,29.911417,,,,,,,,,,,CAVOK,,,,,,,,VFR,,,,,,,,,,,,METAR,28.0
GOOY 231100Z 32004KT 9999 FEW013 30/25 Q1014,GOOY,2022-10-23T11:00:00Z,14.73,-17.5,30.0,25.0,320,4,,6.21,29.940945,,,,,,,,,,,FEW,1300,,,,,,,VFR,,,,,,,,,,,,METAR,21.0
GOOK 231100Z 28006KT 9999 BKN016 32/27 Q1015,GOOK,2022-10-23T11:00:00Z,14.15,-16.07,32.0,27.0,280,6,,6.21,29.970472,,,,,,,,,,,BKN,1600,,,,,,,MVFR,,,,,,,,,,,,METAR,8.0
GOOG 231100Z 28004KT CAVOK 34/24 Q1011,GOOG,2022-10-23T11:00:00Z,15.4,-15.08,34.0,24.0,280,4,,6.21,29.852362,,,,,,,,,,,CAVOK,,,,,,,,VFR,,,,,,,,,,,,METAR,38.0
GOOD 231100Z 00000KT 9999 SCT015 32/27 Q1014,GOOD,2022-10-23T11:00:00Z,14.65,-16.22,32.0,27.0,0,0,,6.21,29.940945,,,,,,,,,,,SCT,1500,,,,,,,VFR,,,,,,,,,,,,METAR,9.0
GOGS 231100Z VRB02KT 9999 FEW015 30/27 Q1014,GOGS,2022-10-23T11:00:00Z,12.4,-16.75,30.0,27.0,0,2,,6.21,29.940945,,,,,,,,,,,FEW,1500,,,,,,,VFR,,,,,,,,,,,,METAR,13.0
GOGK 231100Z 32004KT CAVOK 31/25 Q1013,GOGK,2022-10-23T11:00:00Z,12.9,-14.97,31.0,25.0,320,4,,6.21,29.911417,,,,,,,,,,,CAVOK,,,,,,,,VFR,,,,,,,,,,,,METAR,37.0
GOGG 231100Z 32004KT 9999 FEW016TCU 32/26 Q1014,GOGG,2022-10-23T11:00:00Z,12.55,-16.27,32.0,26.0,320,4,,6.21,29.940945,,,,,,,,,,,FEW,1600,,,,,,,VFR,,,,,,,,,,,,METAR,24.0
GOBD 231100Z VRB04KT 8000 FEW015 31/24 Q1014 NOSIG,GOBD,2022-10-23T11:00:00Z,14.67,-17.07,31.0,24.0,0,4,,4.97,29.940945,,,,,,TRUE,,,,,FEW,1500,,,,,,,MVFR,,,,,,,,,,,,METAR,90.0
GMTT 231100Z 24007KT 210V270 8000 FEW020 24/21 Q1018 NOSIG,GMTT,2022-10-23T11:00:00Z,35.72,-5.9,24.0,21.0,240,7,,4.97,30.059055,,,,,,TRUE,,,,,FEW,2000,,,,,,,MVFR,,,,,,,,,,,,METAR,19.0
GMTN 231100Z 08006KT 040V130 9999 FEW020 SCT200 25/18 Q1018 NOSIG,GMTN,2022-10-23T11:00:00Z,35.58,-5.32,25.0,18.0,80,6,,6.21,30.059055,,,,,,TRUE,,,,,FEW,2000,SCT,20000,,,,,VFR,,,,,,,,,,,,METAR,10.0
GMTA 231100Z 33006KT 300V010 25/17 Q1018,GMTA,2022-10-23T11:00:00Z,35.17,-3.85,25.0,17.0,330,6,,,30.059055,,,,,,,,,,,,,,,,,,,,,,,,,,,,,,,METAR,14.0
GMMZ 231100Z VRB01KT 9999 FEW030 24/M05 Q1026 NOSIG,GMMZ,2022-10-23T11:00:00Z,30.93,-6.9,24.0,-5.0,0,1,,6.21,30.295275,,,,,,TRUE,,,,,FEW,3000,,,,,,,VFR,,,,,,,,,,,,METAR,1139.0
GMMX 231100Z VRB03KT CAVOK 27/12 Q1019 NOSIG,GMMX,2022-10-23T11:00:00Z,31.62,-8.03,27.0,12.0,0,3,,6.21,30.088583,,,,,,TRUE,,,,,CAVOK,,,,,,,,VFR,,,,,,,,,,,,METAR,465.0
GMMW 231100Z VRB02KT CAVOK 30/09 Q1018 NOSIG,GMMW,2022-10-23T11:00:00Z,34.98,-3.02,30.0,9.0,0,2,,6.21,30.059055,,,,,,TRUE,,,,,CAVOK,,,,,,,,VFR,,,,,,,,,,,,METAR,174.0
GMMN 231100Z 01003KT 310V060 9999 NCD 25/15 Q1019 NOSIG,GMMN,2022-10-23T11:00:00Z,33.37,-7.58,25.0,15.0,10,3,,6.21,30.088583,,,,,,TRUE,,,,,CLR,,,,,,,,VFR,,,,,,,,,,,,METAR,196.0
GMMI 231100Z VRB03KT 7000 NSC 28/12 Q1018 NOSIG,GMMI,2022-10-23T11:00:00Z,31.4,-9.68,28.0,12.0,0,3,,4.35,30.059055,,,,,,TRUE,,,,,CLR,,,,,,,,MVFR,,,,,,,,,,,,METAR,102.0
GMME 231100Z 01004KT 300V060 5000 FEW016 SCT200 25/18 Q1018 NOSIG,GMME,2022-10-23T11:00:00Z,34.05,-6.77,25.0,18.0,10,4,,3.11,30.059055,,,,,,TRUE,,,,,FEW,1600,SCT,20000,,,,,MVFR,,,,,,,,,,,,METAR,84.0
GMFO 231100Z 16018KT 9999 NCD 29/M00 Q1021 NOSIG,GMFO,2022-10-23T11:00:00Z,34.78,-1.92,29.0,0.0,160,18,,6.21,30.147638,,,,,,TRUE,,,,,CLR,,,,,,,,VFR,,,,,,,,,,,,METAR,452.0
GMFK 231100Z 11006KT 050V160 CAVOK 23/M04 Q1028 NOSIG,GMFK,2022-10-23T11:00:00Z,31.95,-4.4,23.0,-4.0,110,6,,6.21,30.35433,,,,,,TRUE,,,,,CAVOK,,,,,,,,VFR,,,,,,,,,,,,METAR,1033.0
GMFF 231100Z 02004KT 310V050 CAVOK 28/03 Q1021 NOSIG,GMFF,2022-10-23T11:00:00Z,33.92,-4.97,28.0,3.0,20,4,,6.21,30.147638,,,,,,TRUE,,,,,CAVOK,,,,,,,,VFR,,,,,,,,,,,,METAR,575.0
GMAT 231100Z 06004KT 7000 NSC 24/19 Q1018 NOSIG,GMAT,2022-10-23T11:00:00Z,28.43,-11.15,24.0,19.0,60,4,,4.35,30.059055,,,,,,TRUE,,,,,CLR,,,,,,,,MVFR,,,,,,,,,,,,METAR,192.0
GMAD 231100Z 08013KT 050V120 CAVOK 34/M01 Q1017 NOSIG,GMAD,2022-10-23T11:00:00Z,30.32,-9.42,34.0,-1.0,80,13,,6.21,30.029528,,,,,,TRUE,,,,,CAVOK,,,,,,,,VFR,,,,,,,,,,,,METAR,66.0
GLRB 231100Z 00000KT 9999 BKN016 28/24 Q1014 NOSIG,GLRB,2022-10-23T11:00:00Z,6.25,-10.35,28.0,24.0,0,0,,6.21,29.940945,,,,,,TRUE,,,,,BKN,1600,,,,,,,MVFR,,,,,,,,,,,,METAR,12.0
GGOV 231100Z VRB02KT 9999 FEW014 31/22 Q1014 NOSIG,GGOV,2022-10-23T11:00:00Z,11.88,-15.65,31.0,22.0,0,2,,6.21,29.940945,,,,,,TRUE,,,,,FEW,1400,,,,,,,VFR,,,,,,,,,,,,METAR,31.0
GEML 231100Z 07006KT 040V110 CAVOK 26/17 Q1018,GEML,2022-10-23T11:00:00Z,35.27,-2.95,26.0,17.0,70,6,,6.21,30.059055,,,,,,,,,,,CAVOK,,,,,,,,VFR,,,,,,,,,,,,METAR,48.0
GECE 231100Z AUTO 14005KT 090V200 CAVOK 23/18 Q1018,GECE,2022-10-23T11:00:00Z,35.88,-5.3,23.0,18.0,140,5,,6.21,30.059055,,,TRUE,,,,,,,,CAVOK,,,,,,,,VFR,,,,,,,,,,,,METAR,2.0
GCXO 231100Z 30005KT 8000 1500SE BCFG -DZ FEW000 SCT004 BKN010 19/19 Q1021 NOSIG,GCXO,2022-10-23T11:00:00Z,28.48,-16.35,19.0,19.0,300,5,,4.97,30.147638,,,,,,TRUE,,,,BCFG -DZ,FEW,0,SCT,400,BKN,1000,,,MVFR,,,,,,,,,,,,SPECI,623.0
GCTS 231100Z 10014KT 9999 FEW019 25/19 Q1019 NOSIG,GCTS,2022-10-23T11:00:00Z,28.05,-16.57,25.0,19.0,100,14,,6.21,30.088583,,,,,,TRUE,,,,,FEW,1900,,,,,,,VFR,,,,,,,,,,,,METAR,59.0
GCRR 231100Z 08013KT 9999 FEW025 24/21 Q1018,GCRR,2022-10-23T11:00:00Z,28.95,-13.58,24.0,21.0,80,13,,6.21,30.059055,,,,,,,,,,,FEW,2500,,,,,,,VFR,,,,,,,,,,,,METAR,9.0
GCLP 231100Z 03017KT 9999 FEW025 25/19 Q1019 NOSIG,GCLP,2022-10-23T11:00:00Z,27.92,-15.38,25.0,19.0,30,17,,6.21,30.088583,,,,,,TRUE,,,,,FEW,2500,,,,,,,VFR,,,,,,,,,,,,METAR,16.0
GCLA 231100Z 03007KT 350V090 9999 SCT025 25/18 Q1019,GCLA,2022-10-23T11:00:00Z,28.62,-17.75,25.0,18.0,30,7,,6.21,30.088583,,,,,,,,,,,SCT,2500,,,,,,,VFR,,,,,,,,,,,,METAR,20.0
GCFV 231100Z 04010KT 9999 SCT012 25/21 Q1018,GCFV,2022-10-23T11:00:00Z,28.43,-13.87,25.0,21.0,40,10,,6.21,30.059055,,,,,,,,,,,SCT,1200,,,,,,,VFR,,,,,,,,,,,,METAR,11.0
GAMB 231100Z 14002KT CAVOK 35/19 Q1015,GAMB,2022-10-23T11:00:00Z,14.52,-4.08,35.0,19.0,140,2,,6.21,29.970472,,,,,,,,,,,CAVOK,,,,,,,,VFR,,,,,,,,,,,,METAR,271.0
GAKD 231100Z 32006KT 9999 FEW020 30/25 Q1015,GAKD,2022-10-23T11:00:00Z,14.48,-11.4,30.0,25.0,320,6,,6.21,29.970472,,,,,,,,,,,FEW,2000,,,,,,,VFR,,,,,,,,,,,,METAR,53.0
GABS 231100Z VRB03KT 8000 ////// 31/18 Q1017 NOSIG,GABS,2022-10-23T11:00:00Z,12.53,-7.95,31.0,18.0,0,3,,4.97,30.029528,,,,,,TRUE,,,,,,,,,,,,,,,,,,,,,,,,,SPECI,375.0
FYWW 231100Z 34003KT 9999 FEW040CB SCT045TCU 30/08 Q1022,FYWW,2022-10-23T11:00:00Z,-22.57,17.1,30.0,8.0,340,3,,6.21,30.177166,,,,,,,,,,,FEW,4000,SCT,4500,,,,,VFR,,,,,,,,,,,,METAR,1672.0
FYWH 231100Z 07007KT 9999 FEW040TCU SCT045 29/10 Q1023 BECMG SCT040TCU,FYWH,2022-10-23T11:00:00Z,-22.47,17.47,29.0,10.0,70,7,,6.21,30.206694,,,,,,,,,,,FEW,4000,SCT,4500,,,,,VFR,,,,,,,,,,,,METAR,1699.0
FYWE 231100Z 04005G18KT 350V090 9999 SCT050TCU 30/05 Q1023,FYWE,2022-10-23T11:00:00Z,-22.62,17.08,30.0,5.0,40,5,18,6.21,30.206694,,,,,,,,,,,SCT,5000,,,,,,,VFR,,,,,,,,,,,,METAR,1700.0
FYRU 231100Z 18003KT 9999 FEW040 33/09 Q1019,FYRU,2022-10-23T11:00:00Z,-17.95,19.72,33.0,9.0,180,3,,6.21,30.088583,,,,,,,,,,,FEW,4000,,,,,,,VFR,,,,,,,,,,,,METAR,1104.0
FYLZ 231100Z AUTO 20021KT //// // ////// 21/13 Q1013,FYLZ,2022-10-23T11:00:00Z,-26.68,15.25,21.0,13.0,200,21,,,29.911417,,,TRUE,,,,,,,,,,,,,,,,,,,,,,,,,,,,METAR,129.0
FYKM 231100Z 28004KT 9999 FEW030 36/08 Q1015,FYKM,2022-10-23T11:00:00Z,-17.63,24.18,36.0,8.0,280,4,,6.21,29.970472,,,,,,,,,,,FEW,3000,,,,,,,VFR,,,,,,,,,,,,METAR,959.0
FYGF 231100Z 02005KT 9999 FEW040 SCT100 30/11 Q1021,FYGF,2022-10-23T11:00:00Z,-19.6,18.12,30.0,11.0,20,5,,6.21,30.147638,,,,,,,,,,,FEW,4000,SCT,10000,,,,,VFR,,,,,,,,,,,,METAR,1407.0
FWKI 231100Z 08012KT CAVOK 29/10 Q1019 NOSIG,FWKI,2022-10-23T11:00:00Z,-13.78,33.78,29.0,10.0,80,12,,6.21,30.088583,,,,,,TRUE,,,,,CAVOK,,,,,,,,VFR,,,,,,,,,,,,METAR,1225.0
FWCL 231100Z VRB02KT 9999 SCT030 32/09 Q1017 NOSIG,FWCL,2022-10-23T11:00:00Z,-15.67,34.97,32.0,9.0,0,2,,6.21,30.029528,,,,,,TRUE,,,,,SCT,3000,,,,,,,VFR,,,,,,,,,,,,METAR,774.0
FTTJ 231100Z 14007KT 140V200 8000 FEW040 35/21 Q1012 NOSIG,FTTJ,2022-10-23T11:00:00Z,12.13,15.03,35.0,21.0,140,7,,4.97,29.88189,,,,,,TRUE,,,,,FEW,4000,,,,,,,MVFR,,,,,,,,,,,,METAR,295.0
FTTD 231100Z 00000KT 9999 FEW040 29/22 Q1014,FTTD,2022-10-23T11:00:00Z,8.62,16.07,29.0,22.0,0,0,,6.21,29.940945,,,,,,,,,,,FEW,4000,,,,,,,VFR,,,,,,,,,,,,METAR,420.0
FTTA 231100Z 12007KT 9999 SCT033 33/23 Q1014,FTTA,2022-10-23T11:00:00Z,9.15,18.37,33.0,23.0,120,7,,6.21,29.940945,,,,,,,,,,,SCT,3300,,,,,,,VFR,,,,,,,,,,,,METAR,361.0
FSIA 231100Z 13012KT 9999 SCT021 28/23 Q1012 NOSIG,FSIA,2022-10-23T11:00:00Z,-4.67,55.52,28.0,23.0,130,12,,6.21,29.88189,,,,,,TRUE,,,,,SCT,2100,,,,,,,VFR,,,,,,,,,,,,METAR,3.0
FQXA 231100Z VRB02KT 9999 FEW010 BKN020 OVC025 25/20 Q1018,FQXA,2022-10-23T11:00:00Z,-25.05,33.62,25.0,20.0,0,2,,6.21,30.059055,,,,,,,,,,,FEW,1000,BKN,2000,OVC,2500,,,MVFR,,,,,,,,,,,,METAR,3.0
FQTT 231100Z 16005KT CAVOK 39/14 Q1012,FQTT,2022-10-23T11:00:00Z,-16.1,33.63,39.0,14.0,160,5,,6.21,29.88189,,,,,,,,,,,CAVOK,,,,,,,,VFR,,,,,,,,,,,,METAR,146.0
FQQL 231100Z 13014KT CAVOK 32/22 Q1015,FQQL,2022-10-23T11:00:00Z,-17.87,36.87,32.0,22.0,130,14,,6.21,29.970472,,,,,,,,,,,CAVOK,,,,,,,,VFR,,,,,,,,,,,,METAR,5.0
FQPB 231100Z 05017KT 9999 FEW020 29/22 Q1016,FQPB,2022-10-23T11:00:00Z,-12.98,40.52,29.0,22.0,50,17,,6.21,30.0,,,,,,,,,,,FEW,2000,,,,,,,VFR,,,,,,,,,,,,METAR,101.0
FQNP 231100Z 05009KT 020V080 CAVOK 33/10 Q1016,FQNP,2022-10-23T11:00:00Z,-15.1,39.27,33.0,10.0,50,9,,6.21,30.0,,,,,,,,,,,CAVOK,,,,,,,,VFR,,,,,,,,,,,,METAR,434.0
FQNC 231100Z /////KT 9999 FEW020 29/// Q1016,FQNC,2022-10-23T11:00:00Z,-14.48,40.72,,,,,,6.21,30.0,,,,,,,,,,,FEW,2000,,,,,,,VFR,,,,,,,,,,,,METAR,112.0
FQMA 231100Z 11007KT 9999 BKN020 27/19 Q1016 NOSIG,FQMA,2022-10-23T11:00:00Z,-25.92,32.57,27.0,19.0,110,7,,6.21,30.0,,,,,,TRUE,,,,,BKN,2000,,,,,,,MVFR,,,,,,,,,,,,METAR,34.0
FQLC 231100Z 10008KT 9999 FEW015 28/11 Q1021,FQLC,2022-10-23T11:00:00Z,-13.27,35.25,28.0,11.0,100,8,,6.21,30.147638,,,,,,,,,,,FEW,1500,,,,,,,VFR,,,,,,,,,,,,METAR,1362.0
FQIN 231100Z 09004KT 9999 SCT020 BKN025 27/20 Q1017,FQIN,2022-10-23T11:00:00Z,-23.87,35.38,27.0,20.0,90,4,,6.21,30.029528,,,,,,,,,,,SCT,2000,BKN,2500,,,,,MVFR,,,,,,,,,,,,METAR,10.0
FQCH 231100Z /////KT 9999 FEW020 30/18 Q1020,FQCH,2022-10-23T11:00:00Z,-19.15,33.43,30.0,18.0,,,,6.21,30.11811,,,,,,,,,,,FEW,2000,,,,,,,VFR,,,,,,,,,,,,METAR,695.0
FQBR 231100Z 11013KT 9999 SCT018 29/23 Q1015,FQBR,2022-10-23T11:00:00Z,-19.8,34.9,29.0,23.0,110,13,,6.21,29.970472,,,,,,,,,,,SCT,1800,,,,,,,VFR,,,,,,,,,,,,METAR,14.0
FOON 231100Z /////KT 9999 BKN013 FEW020CB 31/23 Q1013,FOON,2022-10-23T11:00:00Z,-1.65,13.43,31.0,23.0,,,,6.21,29.911417,,,,,,,,,,,BKN,1300,FEW,2000,,,,,MVFR,,,,,,,,,,,,SPECI,440.0
FOOL 231100Z 24004KT 190V350 9999 SCT012 29/25 Q1013 NOSIG,FOOL,2022-10-23T11:00:00Z,0.45,9.42,29.0,25.0,240,4,,6.21,29.911417,,,,,,TRUE,,,,,SCT,1200,,,,,,,VFR,,,,,,,,,,,,METAR,9.0
FOOG 231100Z 20006KT 170V230 9000 BR FEW012 FEW020CB BKN050 29/24 Q1013,FOOG,2022-10-23T11:00:00Z,-0.7,8.75,29.0,24.0,200,6,,5.59,29.911417,,,,,,,,,,BR,FEW,1200,FEW,2000,BKN,5000,,,VFR,,,,,,,,,,,,METAR,4.0
FOOB 231100Z /////KT 9999 SCT013 BKN026 27/22 Q1012,FOOB,2022-10-23T11:00:00Z,2.07,11.48,27.0,22.0,,,,6.21,29.88189,,,,,,,,,,,SCT,1300,BKN,2600,,,,,MVFR,,,,,,,,,,,,METAR,599.0
FOGR 231100Z /////KT 9999 SCT010 BKN027 30/24 Q////,FOGR,2022-10-23T11:00:00Z,-0.7,10.25,30.0,24.0,,,,6.21,,,,,,,,,,,,SCT,1000,BKN,2700,,,,,MVFR,,,,,,,,,,,,METAR,25.0
FOGO 231100Z /////KT 9999 SCT011 BKN030 26/22 Q////,FOGO,2022-10-23T11:00:00Z,1.53,11.58,26.0,22.0,,,,6.21,,,,,,,,,,,,SCT,1100,BKN,3000,,,,,MVFR,,,,,,,,,,,,METAR,660.0
FOGM 231100Z /////KT 9999 SCT012 BKN030 29/24 Q////,FOGM,2022-10-23T11:00:00Z,-1.83,11.05,29.0,24.0,,,,6.21,,,,,,,,,,,,SCT,1200,BKN,3000,,,,,MVFR,,,,,,,,,,,,METAR,90.0
FNUG 231100Z 09008KT 9999 SCT025 FEW027TCU 29/19 Q1015,FNUG,2022-10-23T11:00:00Z,-7.6,15.02,29.0,19.0,90,8,,6.21,29.970472,,,,,,,,,,,SCT,2500,FEW,2700,,,,,VFR,,,,,,,,,,,,METAR,829.0
FNUE 231100Z 00000KT CAVOK 29/22 Q1022,FNUE,2022-10-23T11:00:00Z,-11.77,19.9,29.0,22.0,0,0,,6.21,30.177166,,,,,,,,,,,CAVOK,,,,,,,,VFR,,,,,,,,,,,,METAR,1354.0
FNSO 231100Z 25010KT 9999 BKN016 28/24 Q////,FNSO,2022-10-23T11:00:00Z,-6.13,12.37,28.0,24.0,250,10,,6.21,,,,,,,,,,,,BKN,1600,,,,,,,MVFR,,,,,,,,,,,,METAR,7.0
FNSA 231100Z 00000KT 9999 FEW030 29/20 Q1016,FNSA,2022-10-23T11:00:00Z,-9.68,20.43,29.0,20.0,0,0,,6.21,30.0,,,,,,,,,,,FEW,3000,,,,,,,VFR,,,,,,,,,,,,METAR,1096.0
FNHU 231100Z 00000KT 9999 BKN014 SCT060 26/17 Q1023,FNHU,2022-10-23T11:00:00Z,-12.82,15.77,26.0,17.0,0,0,,6.21,30.206694,,,,,,,,,,,BKN,1400,SCT,6000,,,,,MVFR,,,,,,,,,,,,METAR,1697.0
FNDU 231100Z 00000KT 9999 FEW018 ///// Q////,FNDU,2022-10-23T11:00:00Z,-7.4,20.82,,,0,0,,6.21,,,,,,,,,,,,FEW,1800,,,,,,,VFR,,,,,,,,,,,,METAR,749.0
FNCA 231100Z 18007KT 9999 FEW010 BKN015 27/24 Q1013,FNCA,2022-10-23T11:00:00Z,-5.58,12.18,27.0,24.0,180,7,,6.21,29.911417,,,,,,,,,,,FEW,1000,BKN,1500,,,,,MVFR,,,,,,,,,,,,METAR,14.0
FMNN 231100Z 28006KT 9999 FEW020 32/// Q1014,FMNN,2022-10-23T11:00:00Z,-13.32,48.32,,,280,6,,6.21,29.940945,,,,,,,,,,,FEW,2000,,,,,,,VFR,,,,,,,,,,,,METAR,10.0
FMNM 231100Z 33013KT 9999 FEW023 31/21 Q1015 NOSIG,FMNM,2022-10-23T11:00:00Z,-15.67,46.35,31.0,21.0,330,13,,6.21,29.970472,,,,,,TRUE,,,,,FEW,2300,,,,,,,VFR,,,,,,,,,,,,METAR,18.0
FMMT 231100Z 05010G21KT 010V090 9999 FEW017 27/22 Q1017 NOSIG,FMMT,2022-10-23T11:00:00Z,-18.12,49.38,27.0,22.0,50,10,21,6.21,30.029528,,,,,,TRUE,,,,,FEW,1700,,,,,,,VFR,,,,,,,,,,,,METAR,13.0
FMMI 231100Z VRB05KT 9999 BKN020CB 30/11 Q1020 NOSIG,FMMI,2022-10-23T11:00:00Z,-18.8,47.47,30.0,11.0,0,5,,6.21,30.11811,,,,,,TRUE,,,,,BKN,2000,,,,,,,MVFR,,,,,,,,,,,,METAR,1269.0
FMEP 231100Z AUTO 24008KT CAVOK 26/20 Q1019 TEMPO 4000 SHRA,FMEP,2022-10-23T11:00:00Z,-21.32,55.42,26.0,20.0,240,8,,6.21,30.088583,,,TRUE,,,,,,,,CAVOK,,,,,,,,VFR,,,,,,,,,,,,METAR,21.0
FMEE 231100Z AUTO 08011KT 9999 BKN070/// OVC082/// 26/19 Q1019 TEMPO 4500 SHRA,FMEE,2022-10-23T11:00:00Z,-20.88,55.52,26.0,19.0,80,11,,6.21,30.088583,,,TRUE,,,,,,,,BKN,7000,OVC,8200,,,,,VFR,,,,,,,,,,,,METAR,20.0
FMCZ 231100Z AUTO 18007KT 150V220 CAVOK 30/21 Q1015 NOSIG,FMCZ,2022-10-23T11:00:00Z,-12.8,45.27,30.0,21.0,180,7,,6.21,29.970472,,,TRUE,,,TRUE,,,,,CAVOK,,,,,,,,VFR,,,,,,,,,,,,METAR,7.0
FMCH 231100Z 11012KT 080V160 9999 SCT020 31/19 Q1016 NOSIG,FMCH,2022-10-23T11:00:00Z,-11.53,43.27,31.0,19.0,110,12,,6.21,30.0,,,,,,TRUE,,,,,SCT,2000,,,,,,,VFR,,,,,,,,,,,,METAR,30.0
FIMP 231100Z 05012KT 9999 VCSH BKN015 SCT050 26/20 Q1020,FIMP,2022-10-23T11:00:00Z,-20.43,57.68,26.0,20.0,50,12,,6.21,30.11811,,,,,,,,,,VCSH,BKN,1500,SCT,5000,,,,,MVFR,,,,,,,,,,,,METAR,57.0
FGSL 231100Z 10010KT 060V120 6000 -TSRA BKN006 FEW016CB BKN030 25/23 Q1014 TEMPO 4000 TSRA,FGSL,2022-10-23T11:00:00Z,3.75,8.72,25.0,23.0,100,10,,3.73,29.940945,,,,,,,,,,-TSRA,BKN,600,FEW,1600,BKN,3000,,,IFR,,,,,,,,,,,,METAR,23.0
FDST 231100Z AUTO 23003KT //// // ////// 23/15 Q1017,FDST,2022-10-23T11:00:00Z,-26.43,31.95,23.0,15.0,230,3,,,30.029528,,,TRUE,,,,,,,,,,,,,,,,,,,,,,,,,,,,METAR,642.0
FDSK 231100Z VRB04KT 9999 SCT035 27/15 Q1018 NOSIG,FDSK,2022-10-23T11:00:00Z,-26.35,31.72,27.0,15.0,0,4,,6.21,30.059055,,,,,,TRUE,,,,,SCT,3500,,,,,,,VFR,,,,,,,,,,,,METAR,323.0
FDPP 231100Z AUTO /////KT //// // ////// 22/22 Q1018,FDPP,2022-10-23T11:00:00Z,-25.97,31.25,22.0,22.0,,,,,30.059055,,,TRUE,,,,,,,,,,,,,,,,,,,,,,,,,,,,METAR,1023.0
FDOT 231100Z AUTO 04001KT //// // ////// 30/18 Q1018,FDOT,2022-10-23T11:00:00Z,-26.7,31.43,30.0,18.0,40,1,,,30.059055,,,TRUE,,,,,,,,,,,,,,,,,,,,,,,,,,,,METAR,342.0
FDMY 231100Z AUTO 15003KT //// // ////// 26/17 Q1028,FDMY,2022-10-23T11:00:00Z,-25.88,31.52,26.0,17.0,150,3,,,30.35433,,,TRUE,,,,,,,,,,,,,,,,,,,,,,,,,,,,METAR,401.0
FDBB 231100Z AUTO 03003KT //// // ////// 30/17 Q1015,FDBB,2022-10-23T11:00:00Z,-26.8,31.93,30.0,17.0,30,3,,,29.970472,,,TRUE,,,,,,,,,,,,,,,,,,,,,,,,,,,,METAR,106.0
FBSK 231100Z 34008KT 280V030 CAVOK 28/13 Q1019 NOSIG,FBSK,2022-10-23T11:00:00Z,-24.55,25.92,28.0,13.0,340,8,,6.21,30.088583,,,,,,TRUE,,,,,CAVOK,,,,,,,,VFR,,,,,,,,,,,,METAR,1007.0
FBPM 231100Z 01004KT 280V080 CAVOK 31/14 Q1018,FBPM,2022-10-23T11:00:00Z,-21.17,27.48,31.0,14.0,10,4,,6.21,30.059055,,,,,,,,,,,CAVOK,,,,,,,,VFR,,,,,,,,,,,,METAR,1009.0
FBKE 231100Z VRB05KT 9999 SCT030 FEW035CB 35/07 Q1016,FBKE,2022-10-23T11:00:00Z,-17.82,25.17,35.0,7.0,0,5,,6.21,30.0,,,,,,,,,,,SCT,3000,FEW,3500,,,,,VFR,,,,,,,,,,,,METAR,999.0
FAUP 231100Z 31013KT 9999 SCT050TCU 37/07 Q1013 NOSIG,FAUP,2022-10-23T11:00:00Z,-28.38,21.27,37.0,7.0,310,13,,6.21,29.911417,,,,,,TRUE,,,,,SCT,5000,,,,,,,VFR,,,,,,,,,,,,METAR,845.0
FAPP 231100Z 06005KT 9999 FEW030 25/14 Q1024 NOSIG,FAPP,2022-10-23T11:00:00Z,-23.83,29.45,25.0,14.0,60,5,,6.21,30.236221,,,,,,TRUE,,,,,FEW,3000,,,,,,,VFR,,,,,,,,,,,,METAR,1238.0
FAPE 231100Z 08009KT 060V120 9999 FEW030 23/16 Q1016 NOSIG,FAPE,2022-10-23T11:00:00Z,-33.98,25.6,23.0,16.0,80,9,,6.21,30.0,,,,,,TRUE,,,,,FEW,3000,,,,,,,VFR,,,,,,,,,,,,METAR,58.0
FAOR 231100Z 32011KT 280V360 9999 SCT045 24/12 Q1023 NOSIG,FAOR,2022-10-23T11:00:00Z,-26.13,28.23,24.0,12.0,320,11,,6.21,30.206694,,,,,,TRUE,,,,,SCT,4500,,,,,,,VFR,,,,,,,,,,,,METAR,1684.0
FAMM 231100Z 32011KT 9999 FEW035 30/12 Q1020 NOSIG,FAMM,2022-10-23T11:00:00Z,-25.8,25.53,30.0,12.0,320,11,,6.21,30.11811,,,,,,TRUE,,,,,FEW,3500,,,,,,,VFR,,,,,,,,,,,,METAR,1280.0
FALW 231100Z AUTO 21012KT //// // ////// 29/13 Q1013,FALW,2022-10-23T11:00:00Z,-32.97,18.17,29.0,13.0,210,12,,,29.911417,,,TRUE,,,,,,,,,,,,,,,,,,,,,,,,,,,,METAR,31.0
FALE 231100Z 12007KT 080V180 9999 FEW025 SCT040 23/16 Q1017 NOSIG,FALE,2022-10-23T11:00:00Z,-29.62,31.12,23.0,16.0,120,7,,6.21,30.029528,,,,,,TRUE,,,,,FEW,2500,SCT,4000,,,,,VFR,,,,,,,,,,,,METAR,109.0
FALA 231100Z 33009KT 260V020 9999 FEW035 26/14 Q1022 NOSIG,FALA,2022-10-23T11:00:00Z,-25.93,27.92,26.0,14.0,330,9,,6.21,30.177166,,,,,,TRUE,,,,,FEW,3500,,,,,,,VFR,,,,,,,,,,,,METAR,1365.0
FAKN 231100Z 04005KT 9999 SCT025 BKN070 23/16 Q1021 NOSIG,FAKN,2022-10-23T11:00:00Z,-25.38,31.1,23.0,16.0,40,5,,6.21,30.147638,,,,,,TRUE,,,,,SCT,2500,BKN,7000,,,,,VFR,,,,,,,,,,,,METAR,864.0
FAGG 231100Z 15012KT 9999 FEW027 21/15 Q1017,FAGG,2022-10-23T11:00:00Z,-34.0,22.37,21.0,15.0,150,12,,6.21,30.029528,,,,,,,,,,,FEW,2700,,,,,,,VFR,,,,,,,,,,,,METAR,196.0
FAEL 231100Z 06017G27KT CAVOK 23/16 Q1016,FAEL,2022-10-23T11:00:00Z,-33.03,27.82,23.0,16.0,60,17,27,6.21,30.0,,,,,,,,,,,CAVOK,,,,,,,,VFR,,,,,,,,,,,,METAR,127.0
FACT 231100Z 21014KT CAVOK 26/15 Q1015 NOSIG,FACT,2022-10-23T11:00:00Z,-33.97,18.6,26.0,15.0,210,14,,6.21,29.970472,,,,,,TRUE,,,,,CAVOK,,,,,,,,VFR,,,,,,,,,,,,METAR,48.0
FABL 231100Z 31009KT 270V340 9999 SCT020 26/14 Q1020 NOSIG,FABL,2022-10-23T11:00:00Z,-29.1,26.3,26.0,14.0,310,9,,6.21,30.11811,,,,,,TRUE,,,,,SCT,2000,,,,,,,VFR,,,,,,,,,,,,METAR,1348.0
EPZG 231100Z VRB02KT 9999 FEW010 17/15 Q1018,EPZG,2022-10-23T11:00:00Z,52.13,15.77,17.0,15.0,0,2,,6.21,30.059055,,,,,,,,,,,FEW,1000,,,,,,,VFR,,,,,,,,,,,,METAR,59.0
EPWR 231100Z 22007KT CAVOK 17/11 Q1019,EPWR,2022-10-23T11:00:00Z,51.1,16.88,17.0,11.0,220,7,,6.21,30.088583,,,,,,,,,,,CAVOK,,,,,,,,VFR,,,,,,,,,,,,METAR,118.0
EPWA 231100Z 23010KT 200V260 9999 BKN015 15/12 Q1017 NOSIG,EPWA,2022-10-23T11:00:00Z,52.17,20.97,15.0,12.0,230,10,,6.21,30.029528,,,,,,TRUE,,,,,BKN,1500,,,,,,,MVFR,,,,,,,,,,,,METAR,107.0
EPSY 231100Z 22008KT 6000 BKN006 13/13 Q1016,EPSY,2022-10-23T11:00:00Z,53.47,20.93,13.0,13.0,220,8,,3.73,30.0,,,,,,,,,,,BKN,600,,,,,,,IFR,,,,,,,,,,,,METAR,136.0
EPSC 231100Z 14004KT 100V210 9999 FEW014 15/12 Q1016,EPSC,2022-10-23T11:00:00Z,53.58,14.9,15.0,12.0,140,4,,6.21,30.0,,,,,,,,,,,FEW,1400,,,,,,,VFR,,,,,,,,,,,,METAR,47.0
EPRZ 231100Z 26011KT 9999 SCT020 16/12 Q1020,EPRZ,2022-10-23T11:00:00Z,50.1,22.02,16.0,12.0,260,11,,6.21,30.11811,,,,,,,,,,,SCT,2000,,,,,,,VFR,,,,,,,,,,,,METAR,206.0
EPPO 231100Z 23005KT 3500 BR OVC002 13/13 Q1018,EPPO,2022-10-23T11:00:00Z,52.42,16.83,13.0,13.0,230,5,,2.17,30.059055,,,,,,,,,,BR,OVC,200,,,,,,,LIFR,,,,,,,,,,,,METAR,87.0
EPMO 231100Z 22010KT 7000 BKN006 14/13 Q1017,EPMO,2022-10-23T11:00:00Z,52.45,20.65,14.0,13.0,220,10,,4.35,30.029528,,,,,,,,,,,BKN,600,,,,,,,IFR,,,,,,,,,,,,METAR,102.0
EPLL 231100Z 23008KT 9999 SCT009 BKN011 14/12 Q1018,EPLL,2022-10-23T11:00:00Z,51.72,19.4,14.0,12.0,230,8,,6.21,30.059055,,,,,,,,,,,SCT,900,BKN,1100,,,,,MVFR,,,,,,,,,,,,METAR,176.0
EPLB 231100Z 27012KT 9999 SCT016 BKN033 15/13 Q1019,EPLB,2022-10-23T11:00:00Z,51.23,22.72,15.0,13.0,270,12,,6.21,30.088583,,,,,,,,,,,SCT,1600,BKN,3300,,,,,VFR,,,,,,,,,,,,METAR,206.0
EPKT 231100Z 22011KT 180V240 9999 FEW012 14/11 Q1020,EPKT,2022-10-23T11:00:00Z,50.47,19.08,14.0,11.0,220,11,,6.21,30.11811,,,,,,,,,,,FEW,1200,,,,,,,VFR,,,,,,,,,,,,METAR,296.0
EPKK 231100Z 24008KT CAVOK 16/12 Q1020,EPKK,2022-10-23T11:00:00Z,50.07,19.8,16.0,12.0,240,8,,6.21,30.11811,,,,,,,,,,,CAVOK,,,,,,,,VFR,,,,,,,,,,,,METAR,237.0
EPGD 231100Z 26009KT 9999 -DZ SCT005 BKN007 13/12 Q1015,EPGD,2022-10-23T11:00:00Z,54.37,18.47,13.0,12.0,260,9,,6.21,29.970472,,,,,,,,,,-DZ,SCT,500,BKN,700,,,,,IFR,,,,,,,,,,,,METAR,136.0
EPBY 231100Z 26005KT 9999 BKN007 OVC009 15/13 Q1017,EPBY,2022-10-23T11:00:00Z,53.1,18.0,15.0,13.0,260,5,,6.21,30.029528,,,,,,,,,,,BKN,700,OVC,900,,,,,IFR,,,,,,,,,,,,METAR,66.0
EIWF 231100Z 17006KT 120V220 8000 FEW006 SCT012 15/14 Q0996,EIWF,2022-10-23T11:00:00Z,52.18,-7.08,15.0,14.0,170,6,,4.97,29.409449,,,,,,,,,,,FEW,600,SCT,1200,,,,,MVFR,,,,,,,,,,,,METAR,26.0
EISG 231100Z 03003KT 6000 -RA BKN010 OVC024 13/12 Q0996,EISG,2022-10-23T11:00:00Z,54.28,-8.6,13.0,12.0,30,3,,3.73,29.409449,,,,,,,,,,-RA,BKN,1000,OVC,2400,,,,,MVFR,,,,,,,,,,,,METAR,1.0
EINN 231100Z 12006KT 9999 FEW008 FEW018CB BKN140 14/13 Q0994 NOSIG,EINN,2022-10-23T11:00:00Z,52.7,-8.92,14.0,13.0,120,6,,6.21,29.350393,,,,,,TRUE,,,,,FEW,800,FEW,1800,BKN,14000,,,VFR,,,,,,,,,,,,METAR,20.0
EIME 231100Z 19006KT 150V230 9999 FEW018 SCT130 17/13 Q0996,EIME,2022-10-23T11:00:00Z,53.3,-6.45,17.0,13.0,190,6,,6.21,29.409449,,,,,,,,,,,FEW,1800,SCT,13000,,,,,VFR,,,,,,,,,,,,METAR,90.0
EIKY 231100Z 16008KT 9999 FEW019 SCT031 15/12 Q0994,EIKY,2022-10-23T11:00:00Z,52.18,-9.53,15.0,12.0,160,8,,6.21,29.350393,,,,,,,,,,,FEW,1900,SCT,3100,,,,,VFR,,,,,,,,,,,,METAR,23.0
EIKN 231100Z 11006KT 070V150 4000 RA OVC002 12/12 Q0996 NOSIG,EIKN,2022-10-23T11:00:00Z,53.92,-8.82,12.0,12.0,110,6,,2.49,29.409449,,,,,,TRUE,,,,RA,OVC,200,,,,,,,LIFR,,,,,,,,,,,,METAR,201.0
EIDW 231100Z 14010KT 9999 FEW006 SCT009 BKN110 14/13 Q0996 NOSIG,EIDW,2022-10-23T11:00:00Z,53.42,-6.28,14.0,13.0,140,10,,6.21,29.409449,,,,,,TRUE,,,,,FEW,600,SCT,900,BKN,11000,,,VFR,,,,,,,,,,,,METAR,75.0
EIDL 231100Z 08008KT 9999 SCT018 13/12 Q0997,EIDL,2022-10-23T11:00:00Z,55.05,-8.33,13.0,12.0,80,8,,6.21,29.438976,,,,,,,,,,,SCT,1800,,,,,,,VFR,,,,,,,,,,,,METAR,2.0
EICK 231100Z 17009KT 9999 BKN005 14/13 Q0995 BECMG SCT005,EICK,2022-10-23T11:00:00Z,51.85,-8.47,14.0,13.0,170,9,,6.21,29.379921,,,,,,,,,,,BKN,500,,,,,,,IFR,,,,,,,,,,,,SPECI,158.0
DXXX 231100Z 19008KT 150V220 9999 FEW016 31/25 Q1013 NOSIG,DXXX,2022-10-23T11:00:00Z,6.17,1.25,31.0,25.0,190,8,,6.21,29.911417,,,,,,TRUE,,,,,FEW,1600,,,,,,,VFR,,,,,,,,,,,,METAR,22.0
DXNG 231100Z 08007KT 020V140 CAVOK 33/11 Q1017,DXNG,2022-10-23T11:00:00Z,9.77,1.1,33.0,11.0,80,7,,6.21,30.029528,,,,,,,,,,,CAVOK,,,,,,,,VFR,,,,,,,,,,,,METAR,343.0
DTTZ 231100Z 20003KT 150V250 CAVOK 29/07 Q1024,DTTZ,2022-10-23T11:00:00Z,33.93,8.1,29.0,7.0,200,3,,6.21,30.236221,,,,,,,,,,,CAVOK,,,,,,,,VFR,,,,,,,,,,,,METAR,87.0
DTTX 231100Z 18010KT 160V220 CAVOK 29/11 Q1024,DTTX,2022-10-23T11:00:00Z,34.72,10.68,29.0,11.0,180,10,,6.21,30.236221,,,,,,,,,,,CAVOK,,,,,,,,VFR,,,,,,,,,,,,METAR,17.0
DTTR 231100Z 16009KT CAVOK 28/07 Q1026,DTTR,2022-10-23T11:00:00Z,31.7,9.27,28.0,7.0,160,9,,6.21,30.295275,,,,,,,,,,,CAVOK,,,,,,,,VFR,,,,,,,,,,,,METAR,253.0
DTTN 231100Z VRB02KT CAVOK 28/06 Q1022,DTTN,2022-10-23T11:00:00Z,36.47,8.8,28.0,6.0,0,2,,6.21,30.177166,,,,,,,,,,,CAVOK,,,,,,,,VFR,,,,,,,,,,,,METAR,145.0
DTTL 231100Z 14007KT 9999 FEW020 27/21 Q1024,DTTL,2022-10-23T11:00:00Z,36.85,11.07,27.0,21.0,140,7,,6.21,30.236221,,,,,,,,,,,FEW,2000,,,,,,,VFR,,,,,,,,,,,,METAR,18.0
DTTK 231100Z VRB03KT CAVOK 28/09 Q1023,DTTK,2022-10-23T11:00:00Z,35.67,10.08,28.0,9.0,0,3,,6.21,30.206694,,,,,,,,,,,CAVOK,,,,,,,,VFR,,,,,,,,,,,,METAR,65.0
DTTJ 231100Z 23005KT CAVOK 30/06 Q1024 NOSIG,DTTJ,2022-10-23T11:00:00Z,33.87,10.77,30.0,6.0,230,5,,6.21,30.236221,,,,,,TRUE,,,,,CAVOK,,,,,,,,VFR,,,,,,,,,,,,METAR,3.0
DTTG 231100Z VRB10KT CAVOK 29/05 Q1025 NOSIG,DTTG,2022-10-23T11:00:00Z,33.73,9.92,29.0,5.0,0,10,,6.21,30.265747,,,,,,TRUE,,,,,CAVOK,,,,,,,,VFR,,,,,,,,,,,,METAR,120.0
DTTF 231100Z 24014KT CAVOK 27/09 Q1025 NOSIG,DTTF,2022-10-23T11:00:00Z,34.42,8.82,27.0,9.0,240,14,,6.21,30.265747,,,,,,TRUE,,,,,CAVOK,,,,,,,,VFR,,,,,,,,,,,,METAR,314.0
DTTD 231100Z 20004KT 140V290 CAVOK 28/04 Q1026,DTTD,2022-10-23T11:00:00Z,32.32,10.4,28.0,4.0,200,4,,6.21,30.295275,,,,,,,,,,,CAVOK,,,,,,,,VFR,,,,,,,,,,,,METAR,306.0
DTTB 231100Z 12010KT CAVOK 30/11 Q1021,DTTB,2022-10-23T11:00:00Z,37.25,9.8,30.0,11.0,120,10,,6.21,30.147638,,,,,,,,,,,CAVOK,,,,,,,,VFR,,,,,,,,,,,,METAR,4.0
DTTA 231100Z 11005KT 070V170 CAVOK 29/13 Q1022,DTTA,2022-10-23T11:00:00Z,36.85,10.22,29.0,13.0,110,5,,6.21,30.177166,,,,,,,,,,,CAVOK,,,,,,,,VFR,,,,,,,,,,,,METAR,4.0
DTNH 231100Z 09008KT CAVOK 27/15 Q1023 NOSIG,DTNH,2022-10-23T11:00:00Z,36.07,10.43,27.0,15.0,90,8,,6.21,30.206694,,,,,,TRUE,,,,,CAVOK,,,,,,,,VFR,,,,,,,,,,,,METAR,1.0
DTMB 231100Z 20008KT 160V230 CAVOK 31/10 Q1023,DTMB,2022-10-23T11:00:00Z,35.77,10.75,31.0,10.0,200,8,,6.21,30.206694,,,,,,,,,,,CAVOK,,,,,,,,VFR,,,,,,,,,,,,METAR,1.0
DTKA 231100Z 07003KT 020V150 CAVOK 32/05 Q1021 NOSIG:SIROCCO,DTKA,2022-10-23T11:00:00Z,36.98,8.88,32.0,5.0,70,3,,6.21,30.147638,,,,,,,,,,,CAVOK,,,,,,,,VFR,,,,,,,,,,,,METAR,70.0
DRZR 231100Z 35012KT CAVOK 35/05 Q1017,DRZR,2022-10-23T11:00:00Z,13.77,8.98,35.0,5.0,350,12,,6.21,30.029528,,,,,,,,,,,CAVOK,,,,,,,,VFR,,,,,,,,,,,,METAR,457.0
DRZA 231100Z 08013KT CAVOK 34/09 Q1017,DRZA,2022-10-23T11:00:00Z,16.97,8.0,34.0,9.0,80,13,,6.21,30.029528,,,,,,,,,,,CAVOK,,,,,,,,VFR,,,,,,,,,,,,METAR,506.0
DRRT 231100Z 08008KT CAVOK 35/03 Q1016,DRRT,2022-10-23T11:00:00Z,14.87,5.27,35.0,3.0,80,8,,6.21,30.0,,,,,,,,,,,CAVOK,,,,,,,,VFR,,,,,,,,,,,,METAR,387.0
DRRN 231100Z 10014KT CAVOK 35/03 Q1015 NOSIG,DRRN,2022-10-23T11:00:00Z,13.47,2.17,35.0,3.0,100,14,,6.21,29.970472,,,,,,TRUE,,,,,CAVOK,,,,,,,,VFR,,,,,,,,,,,,METAR,223.0
DRRM 231100Z 07010KT CAVOK 35/08 Q1014,DRRM,2022-10-23T11:00:00Z,13.5,7.12,35.0,8.0,70,10,,6.21,29.940945,,,,,,,,,,,CAVOK,,,,,,,,VFR,,,,,,,,,,,,METAR,374.0
DNSO 231100Z 07009KT CAVOK 35/13 Q1015,DNSO,2022-10-23T11:00:00Z,12.92,5.2,35.0,13.0,70,9,,6.21,29.970472,,,,,,,,,,,CAVOK,,,,,,,,VFR,,,,,,,,,,,,METAR,302.0
DNMN 231100Z 06009KT CAVOK 33/15 Q1014,DNMN,2022-10-23T11:00:00Z,9.65,6.47,33.0,15.0,60,9,,6.21,29.940945,,,,,,,,,,,CAVOK,,,,,,,,VFR,,,,,,,,,,,,METAR,268.0
DNMM 231100Z 22005KT 9999 BKN014 32/25 Q1014 NOSIG,DNMM,2022-10-23T11:00:00Z,6.57,3.32,32.0,25.0,220,5,,6.21,29.940945,,,,,,TRUE,,,,,BKN,1400,,,,,,,MVFR,,,,,,,,,,,,METAR,27.0
DNKT 231100Z 08011KT CAVOK 33/10 Q1017,DNKT,2022-10-23T11:00:00Z,13.0,7.67,33.0,10.0,80,11,,6.21,30.029528,,,,,,,,,,,CAVOK,,,,,,,,VFR,,,,,,,,,,,,METAR,504.0
DNKA 231100Z 05012KT CAVOK 26/15 Q1017,DNKA,2022-10-23T11:00:00Z,10.58,7.45,26.0,15.0,50,12,,6.21,30.029528,,,,,,,,,,,CAVOK,,,,,,,,VFR,,,,,,,,,,,,METAR,631.0
DNJO 231100Z 10016KT CAVOK 27/05 Q1021,DNJO,2022-10-23T11:00:00Z,9.87,8.9,27.0,5.0,100,16,,6.21,30.147638,,,,,,,,,,,CAVOK,,,,,,,,VFR,,,,,,,,,,,,METAR,1284.0
DNIL 231100Z 00000KT CAVOK 32/22 Q1014,DNIL,2022-10-23T11:00:00Z,8.43,4.48,32.0,22.0,0,0,,6.21,29.940945,,,,,,,,,,,CAVOK,,,,,,,,VFR,,,,,,,,,,,,METAR,341.0
DNIB 231100Z 24004KT 9999 SCT014 31/25 Q1014,DNIB,2022-10-23T11:00:00Z,7.37,3.98,31.0,25.0,240,4,,6.21,29.940945,,,,,,,,,,,SCT,1400,,,,,,,VFR,,,,,,,,,,,,METAR,220.0
DNGO 231100Z 12005KT CAVOK 34/15 Q1015,DNGO,2022-10-23T11:00:00Z,10.3,10.9,34.0,15.0,120,5,,6.21,29.970472,,,,,,,,,,,CAVOK,,,,,,,,VFR,,,,,,,,,,,,METAR,510.0
DNAA 231100Z 11004KT 9999 FEW013 33/20 Q1015 NOSIG,DNAA,2022-10-23T11:00:00Z,9.0,7.27,33.0,20.0,110,4,,6.21,29.970472,,,,,,TRUE,,,,,FEW,1300,,,,,,,VFR,,,,,,,,,,,,METAR,338.0
DIYO 231100Z 00000KT 9999 BKN015 30/23 Q1015 NOSIG,DIYO,2022-10-23T11:00:00Z,6.9,-5.35,30.0,23.0,0,0,,6.21,29.970472,,,,,,TRUE,,,,,BKN,1500,,,,,,,MVFR,,,,,,,,,,,,METAR,202.0
DIBK 231100Z 30002KT 9999 BKN013 27/23 Q1016 NOSIG,DIBK,2022-10-23T11:00:00Z,7.73,-5.07,27.0,23.0,300,2,,6.21,30.0,,,,,,TRUE,,,,,BKN,1300,,,,,,,MVFR,,,,,,,,,,,,METAR,363.0
DIAP 231100Z 22008KT 9999 SCT013 BKN024 28/26 Q1014 NOSIG,DIAP,2022-10-23T11:00:00Z,5.25,-3.92,28.0,26.0,220,8,,6.21,29.940945,,,,,,TRUE,,,,,SCT,1300,BKN,2400,,,,,MVFR,,,,,,,,,,,,METAR,4.0
DGAA 231100Z 18008KT 140V200 9999 FEW025 30/25 Q1013 NOSIG,DGAA,2022-10-23T11:00:00Z,5.58,-0.17,30.0,25.0,180,8,,6.21,29.911417,,,,,,TRUE,,,,,FEW,2500,,,,,,,VFR,,,,,,,,,,,,METAR,68.0
DFOO 231100Z VRB02KT 9999 FEW026 33/19 Q1016,DFOO,2022-10-23T11:00:00Z,11.17,-4.32,33.0,19.0,0,2,,6.21,30.0,,,,,,,,,,,FEW,2600,,,,,,,VFR,,,,,,,,,,,,METAR,461.0
DFFD 231100Z 13007KT 090V180 CAVOK 36/14 Q1015 NOSIG,DFFD,2022-10-23T11:00:00Z,12.35,-1.52,36.0,14.0,130,7,,6.21,29.970472,,,,,,TRUE,,,,,CAVOK,,,,,,,,VFR,,,,,,,,,,,,METAR,309.0
DBBB 231100Z 22009KT 9999 SCT013 31/25 Q1013 NOSIG,DBBB,2022-10-23T11:00:00Z,6.35,2.38,31.0,25.0,220,9,,6.21,29.911417,,,,,,TRUE,,,,,SCT,1300,,,,,,,VFR,,,,,,,,,,,,METAR,4.0
DAUH 231100Z 15004KT CAVOK 30/05 Q1024,DAUH,2022-10-23T11:00:00Z,31.67,6.15,30.0,5.0,150,4,,6.21,30.236221,,,,,,,,,,,CAVOK,,,,,,,,VFR,,,,,,,,,,,,METAR,141.0
DAUG 231100Z 17006KT 130V210 CAVOK 27/03 Q1027,DAUG,2022-10-23T11:00:00Z,32.38,3.78,27.0,3.0,170,6,,6.21,30.324802,,,,,,,,,,,CAVOK,,,,,,,,VFR,,,,,,,,,,,,METAR,444.0
DAUB 231100Z 12008KT CAVOK 28/06 Q1025,DAUB,2022-10-23T11:00:00Z,34.78,5.73,28.0,6.0,120,8,,6.21,30.265747,,,,,,,,,,,CAVOK,,,,,,,,VFR,,,,,,,,,,,,METAR,75.0
DAUA 231100Z 10008KT CAVOK 31/02 Q1021,DAUA,2022-10-23T11:00:00Z,27.83,-0.18,31.0,2.0,100,8,,6.21,30.147638,,,,,,,,,,,CAVOK,,,,,,,,VFR,,,,,,,,,,,,METAR,278.0
DAOO 231100Z 23009KT CAVOK 33/03 Q1018,DAOO,2022-10-23T11:00:00Z,35.62,-0.62,33.0,3.0,230,9,,6.21,30.059055,,,,,,,,,,,CAVOK,,,,,,,,VFR,,,,,,,,,,,,METAR,87.0
DAON 231100Z 22018KT 9999 FEW030 SCT233 33/M02 Q1020,DAON,2022-10-23T11:00:00Z,35.02,-1.47,33.0,-2.0,220,18,,6.21,30.11811,,,,,,,,,,,FEW,3000,SCT,23300,,,,,VFR,,,,,,,,,,,,METAR,245.0
DAOB 231100Z 19024KT CAVOK 24/M04 Q1027,DAOB,2022-10-23T11:00:00Z,35.33,1.47,24.0,-4.0,190,24,,6.21,30.324802,,,,,,,,,,,CAVOK,,,,,,,,VFR,,,,,,,,,,,,METAR,976.0
DABC 231100Z VRB02KT CAVOK 28/06 Q1026,DABC,2022-10-23T11:00:00Z,36.27,6.62,28.0,6.0,0,2,,6.21,30.295275,,,,,,,,,,,CAVOK,,,,,,,,VFR,,,,,,,,,,,,METAR,686.0
DABB 231100Z 28003KT CAVOK 35/06 Q1020,DABB,2022-10-23T11:00:00Z,36.82,7.82,35.0,6.0,280,3,,6.21,30.11811,,,,,,,,,,,CAVOK,,,,,,,,VFR,,,,,,,,,,,,METAR,3.0
DAAT 231100Z 09010KT CAVOK 23/M01 Q1027,DAAT,2022-10-23T11:00:00Z,22.82,5.47,23.0,-1.0,90,10,,6.21,30.324802,,,,,,,,,,,CAVOK,,,,,,,,VFR,,,,,,,,,,,,METAR,1376.0
DAAG 231100Z 20013KT 170V240 CAVOK 33/05 Q1020,DAAG,2022-10-23T11:00:00Z,36.68,3.22,33.0,5.0,200,13,,6.21,30.11811,,,,,,,,,,,CAVOK,,,,,,,,VFR,,,,,,,,,,,,METAR,18.0
CZZJ 231100Z AUTO 29003KT M01/M01 RMK AO1 SLP173 T10091011 53011,CZZJ,2022-10-23T11:00:00Z,53.58,-116.47,-0.9,-1.1,290,3,,,,1017.3,,TRUE,TRUE,,,,,,,,,,,,,,,,1.1,,,,,,,,,,,METAR,927.0
CZVL 231100Z AUTO 30003KT 4SM R26/3000VP6000FT/ BR BKN190 M03/ A2994 RMK DP MISG SLP169,CZVL,2022-10-23T11:00:00Z,53.67,-113.85,-3.0,,300,3,,4.0,29.940945,1016.9,,TRUE,,,,,,,BR,BKN,19000,,,,,,,MVFR,,,,,,,,,,,,METAR,685.0
CZUM 231100Z AUTO 28007KT 240V300 9SM CLR 04/00 A3008 RMK SLP205,CZUM,2022-10-23T11:00:00Z,53.55,-64.1,4.0,0.0,280,7,,9.0,30.079725,1020.5,,TRUE,,,,,,,,CLR,,,,,,,,VFR,,,,,,,,,,,,METAR,431.0
CZTB 231100Z AUTO 09006KT 08/07 RMK AO1 SLP097 T00790071 53006,CZTB,2022-10-23T11:00:00Z,48.37,-89.32,7.9,7.1,90,6,,,,1009.7,,TRUE,TRUE,,,,,,,,,,,,,,,,0.6,,,,,,,,,,,METAR,197.0
CZSP 231100Z AUTO 20006KT 09/07 RMK AO1 SLP278 T00880074 53014,CZSP,2022-10-23T11:00:00Z,46.45,-62.58,8.8,7.4,200,6,,,,1027.8,,TRUE,TRUE,,,,,,,,,,,,,,,,1.4,,,,,,,,,,,METAR,31.0
CZSM 231100Z AUTO 28001KT M05/M09 RMK AO1 SLP208 T10491087 52007,CZSM,2022-10-23T11:00:00Z,60.03,-111.93,-4.9,-8.7,280,1,,,,1020.8,,TRUE,TRUE,,,,,,,,,,,,,,,,0.7,,,,,,,,,,,SPECI,203.0
CZSJ 231100Z AUTO 02006KT 9SM OVC110 00/M01 A2997 RMK SLP166,CZSJ,2022-10-23T11:00:00Z,53.07,-93.35,0.0,-1.0,20,6,,9.0,29.970472,1016.6,,TRUE,,,,,,,,OVC,11000,,,,,,,VFR,,,,,,,,,,,,METAR,286.0
CZRP 231100Z AUTO 33021KT M18/M19 RMK AO1 SOG 53 5000 PK WND 33025/1029 SLP068 T11751191,CZRP,2022-10-23T11:00:00Z,75.37,-105.72,-17.5,-19.1,330,21,,,,1006.8,,TRUE,TRUE,,,,,,,,,,,,,,,,,,,,,,,,,,,METAR,6.0
CZPC 231100Z AUTO 34009KT 3SM -SN OVC025 M01/M01 A2981 RMK PCPN 1.0MM PAST HR SLP137,CZPC,2022-10-23T11:00:00Z,49.52,-114.0,-1.0,-1.0,340,9,,3.0,29.811024,1013.7,,TRUE,,,,,,,-SN,OVC,2500,,,,,,,MVFR,,,,,,,,,,,,METAR,1187.0
CZOL 231100Z AUTO 34002KT M03/M03 RMK AO1 T10291030,CZOL,2022-10-23T11:00:00Z,53.65,-113.35,-2.9,-3.0,340,2,,,,,,TRUE,TRUE,,,,,,,,,,,,,,,,,,,,,,,,,,,METAR,645.0
CZMJ 231100Z AUTO 05013G18KT 01/M00 RMK AO1 0PAST HR 8002 PK WND 06021/1017 SLP084 P0008 T00061002 50041,CZMJ,2022-10-23T11:00:00Z,50.33,-105.53,0.6,-0.2,50,13,18,,,1008.4,,TRUE,TRUE,,,,,,,,,,,,,,,,4.1,,,,,0.08,,,,,,METAR,571.0
CZMD 231100Z AUTO 04007KT 9SM OVC140 M00/M01 A3001 RMK SLP182,CZMD,2022-10-23T11:00:00Z,53.43,-91.77,0.0,-1.0,40,7,,9.0,30.008858,1018.2,,TRUE,,,,,,,,OVC,14000,,,,,,,VFR,,,,,,,,,,,,METAR,276.0
CZKD 231100Z AUTO 03004KT M00/M01 RMK AO1 SLP207 T10021012 52020,CZKD,2022-10-23T11:00:00Z,56.03,-96.52,-0.2,-1.2,30,4,,,,1020.7,,TRUE,TRUE,,,,,,,,,,,,,,,,2.0,,,,,,,,,,,METAR,190.0
CZHY 231100Z AUTO 24003KT M05/M07 RMK AO1 3003 SLP206 T10541071 50002,CZHY,2022-10-23T11:00:00Z,60.83,-115.78,-5.4,-7.1,240,3,,,,1020.6,,TRUE,TRUE,,,,,,,,,,,,,,,,0.2,,,,,,,,,,,SPECI,159.0
CZFS 231100Z AUTO 08002KT M05/M06 RMK AO1 SOG 01 8006 SLP196 T10521064,CZFS,2022-10-23T11:00:00Z,61.77,-121.23,-5.2,-6.4,80,2,,,,1019.6,,TRUE,TRUE,,,,,,,,,,,,,,,,,,,,,,,,,,,SPECI,174.0
CZEV 231100Z AUTO 09006KT M12/M13 RMK AO1 SOG 07 6001 SLP198 T11151132,CZEV,2022-10-23T11:00:00Z,68.32,-133.48,-11.5,-13.2,90,6,,,,1019.8,,TRUE,TRUE,,,,,,,,,,,,,,,,,,,,,,,,,,,SPECI,92.0
CZEL 231100Z AUTO 06003KT 08/05 RMK AO1 SLP236 T00790054 51017,CZEL,2022-10-23T11:00:00Z,43.65,-80.42,7.9,5.4,60,3,,,,1023.6,,TRUE,TRUE,,,,,,,,,,,,,,,,1.7,,,,,,,,,,,METAR,370.0
CZDB 231100Z AUTO 07002KT 03/ RMK AO1 SLP295 T0028 51011,CZDB,2022-10-23T11:00:00Z,45.42,-63.47,2.8,,70,2,,,,1029.5,,TRUE,TRUE,,,,,,,,,,,,,,,,1.1,,,,,,,,,,,METAR,38.0
CZCR 231100Z AUTO 28003KT 05/03 RMK AO1 SLP263 T00520028 53014,CZCR,2022-10-23T11:00:00Z,47.98,-66.33,5.2,2.8,280,3,,,,1026.3,,TRUE,TRUE,,,,,,,,,,,,,,,,1.4,,,,,,,,,,,METAR,39.0
CZCP 231100Z AUTO VRB03KT ////SM //// SCT009 BKN015 OVC023 M07/M08 A3012,CZCP,2022-10-23T11:00:00Z,70.17,-124.68,-7.0,-8.0,0,3,,,30.121063,,,TRUE,,,,,,,,SCT,900,BKN,1500,OVC,2300,,,,,,,,,,,,,,,METAR,23.0
CZBF 231100Z AUTO 00000KT 9SM CLR 03/03 A3032 RMK SLP270,CZBF,2022-10-23T11:00:00Z,47.62,-65.75,3.0,3.0,0,0,,9.0,30.318897,1027.0,,TRUE,,,,,,,,CLR,,,,,,,,VFR,,,,,,,,,,,,METAR,60.0
CYZY 231100Z AUTO 12003KT 100V220 9SM CLR M05/M06 A2994 RMK SLP174,CYZY,2022-10-23T11:00:00Z,55.3,-123.13,-5.0,-6.0,120,3,,9.0,29.940945,1017.4,,TRUE,,,,,,,,CLR,,,,,,,,VFR,,,,,,,,,,,,METAR,694.0
CYZX 231100Z 00000KT 15SM SCT180 BKN250 01/00 A3040 RMK AC3CI3 SLP296,CYZX,2022-10-23T11:00:00Z,44.98,-64.92,1.0,0.0,0,0,,15.0,30.398623,1029.6,,,,,,,,,,SCT,18000,BKN,25000,,,,,VFR,,,,,,,,,,,,METAR,28.0
CYZV 231100Z 00000KT 30SM FEW170 FEW240 FEW260 M01/M01 A3024 RMK AC1CI1CI1 CI TR CONTRAILS SLP244,CYZV,2022-10-23T11:00:00Z,50.22,-66.27,-1.0,-1.0,0,0,,30.0,30.239174,1024.4,,,,,,,,,,FEW,17000,FEW,24000,FEW,26000,,,VFR,,,,,,,,,,,,METAR,43.0
CYZT 231100Z 22006KT 15SM FEW020 02/02 A3001 RMK SF1 SLP164,CYZT,2022-10-23T11:00:00Z,50.68,-127.37,2.0,2.0,220,6,,15.0,30.008858,1016.4,,,,,,,,,,FEW,2000,,,,,,,VFR,,,,,,,,,,,,METAR,13.0
CYZS 231100Z 32016KT 12SM -SN SCT035 OVC069 M05/M07 A2967 RMK SC4AC4 SLP054,CYZS,2022-10-23T11:00:00Z,64.2,-83.35,-5.0,-7.0,320,16,,12.0,29.66929,1005.4,,,,,,,,,-SN,SCT,3500,OVC,6900,,,,,VFR,,,,,,,,,,,,METAR,60.0
CYZR 231100Z AUTO 16005KT 9SM CLR 11/08 A3014 RMK SLP209,CYZR,2022-10-23T11:00:00Z,43.0,-82.3,11.0,8.0,160,5,,9.0,30.138779,1020.9,,TRUE,,,,,,,,CLR,,,,,,,,VFR,,,,,,,,,,,,METAR,181.0
CYZP 231100Z AUTO 17006KT 9SM OVC091 07/04 A2986 RMK SLP112,CYZP,2022-10-23T11:00:00Z,53.25,-131.82,7.0,4.0,170,6,,9.0,29.861221,1011.2,,TRUE,,,,,,,,OVC,9100,,,,,,,VFR,,,,,,,,,,,,METAR,7.0
CYZH 231100Z AUTO 13002KT 9SM FEW028 BKN042 01/00 A2996 RMK SLP171,CYZH,2022-10-23T11:00:00Z,55.28,-114.77,1.0,0.0,130,2,,9.0,29.958662,1017.1,,TRUE,,,,,,,,FEW,2800,BKN,4200,,,,,VFR,,,,,,,,,,,,METAR,583.0
CYZF 231100Z 36002KT 15SM SCT086 M06/M08 A3011 RMK AC4 SLP215,CYZF,2022-10-23T11:00:00Z,62.47,-114.45,-6.0,-8.0,360,2,,15.0,30.109253,1021.5,,,,,,,,,,SCT,8600,,,,,,,VFR,,,,,,,,,,,,METAR,202.0
CYZE 231100Z AUTO 18008KT 9SM CLR 12/10 A3006 RMK SLP185,CYZE,2022-10-23T11:00:00Z,45.88,-82.57,12.0,10.0,180,8,,9.0,30.059055,1018.5,,TRUE,,,,,,,,CLR,,,,,,,,VFR,,,,,,,,,,,,METAR,189.0
CYYZ 231100Z 10002KT 15SM SKC 09/08 A3022 RMK SLP237,CYYZ,2022-10-23T11:00:00Z,43.67,-79.62,9.0,8.0,100,2,,15.0,30.221457,1023.7,,,,,,,,,,SKC,,,,,,,,VFR,,,,,,,,,,,,METAR,171.0
CYYY 231100Z 17005KT 15SM FEW210 10/04 A3027 RMK CI1 SLP254,CYYY,2022-10-23T11:00:00Z,48.6,-68.22,10.0,4.0,170,5,,15.0,30.268702,1025.4,,,,,,,,,,FEW,21000,,,,,,,VFR,,,,,,,,,,,,METAR,43.0
CYYW 231100Z AUTO VRB02KT 9SM CLR 05/05 A2984 RMK SLP116,CYYW,2022-10-23T11:00:00Z,50.3,-88.9,5.0,5.0,0,2,,9.0,29.840551,1011.6,,TRUE,,,,,,,,CLR,,,,,,,,VFR,,,,,,,,,,,,METAR,320.0
CYYU 231100Z 12005KT 15SM SKC 02/01 A2998 RMK SLP164,CYYU,2022-10-23T11:00:00Z,49.42,-82.47,2.0,1.0,120,5,,15.0,29.97933,1016.4,,,,,,,,,,SKC,,,,,,,,VFR,,,,,,,,,,,,METAR,228.0
CYYT 231100Z 26016G21KT 15SM FEW006 FEW120 10/09 A3026 RMK SF1AC1 AC TR SLP253,CYYT,2022-10-23T11:00:00Z,47.62,-52.73,10.0,9.0,260,16,21,15.0,30.259842,1025.3,,,,,,,,,,FEW,600,FEW,12000,,,,,VFR,,,,,,,,,,,,METAR,128.0
CYYR 231100Z 24013G18KT 15SM FEW040 FEW100 09/03 A3003 RMK SC1AC1 SLP170,CYYR,2022-10-23T11:00:00Z,53.32,-60.42,9.0,3.0,240,13,18,15.0,30.029528,1017.0,,,,,,,,,,FEW,4000,FEW,10000,,,,,VFR,,,,,,,,,,,,METAR,42.0
CYYQ 231100Z 30010KT 15SM OVC013 M02/M04 A3010 RMK SC8 SLP199,CYYQ,2022-10-23T11:00:00Z,58.75,-94.07,-2.0,-4.0,300,10,,15.0,30.100393,1019.9,,,,,,,,,,OVC,1300,,,,,,,MVFR,,,,,,,,,,,,METAR,20.0
CYYL 231100Z AUTO 04004KT 9SM CLR M05/M06 A3010 RMK SLP219,CYYL,2022-10-23T11:00:00Z,56.87,-101.07,-5.0,-6.0,40,4,,9.0,30.100393,1021.9,,TRUE,,,,,,,,CLR,,,,,,,,VFR,,,,,,,,,,,,METAR,351.0
CYYJ 231100Z 22004KT 210V270 20SM FEW037 04/04 A2997 RMK SC1 SC TR SLP153,CYYJ,2022-10-23T11:00:00Z,48.63,-123.42,4.0,4.0,220,4,,20.0,29.970472,1015.3,,,,,,,,,,FEW,3700,,,,,,,VFR,,,,,,,,,,,,METAR,16.0
CYYH 231100Z 31009KT 12SM -SN BKN018 OVC020 M12/M15 A2968 RMK SC6SC2 CIG RAG SLP057,CYYH,2022-10-23T11:00:00Z,69.53,-93.57,-12.0,-15.0,310,9,,12.0,29.681103,1005.7,,,,,,,,,-SN,BKN,1800,OVC,2000,,,,,MVFR,,,,,,,,,,,,METAR,19.0
CYYG 231100Z 17004KT 15SM BKN240 09/08 A3034 RMK CI7 SLP278,CYYG,2022-10-23T11:00:00Z,46.28,-63.12,9.0,8.0,170,4,,15.0,30.339567,1027.8,,,,,,,,,,BKN,24000,,,,,,,VFR,,,,,,,,,,,,METAR,48.0
CYYF 231100Z 01008KT 15SM SCT070 03/M03 A2990 RMK AC4 SLP136,CYYF,2022-10-23T11:00:00Z,49.47,-119.6,3.0,-3.0,10,8,,15.0,29.899607,1013.6,,,,,,,,,,SCT,7000,,,,,,,VFR,,,,,,,,,,,,METAR,342.0
CYYE 231100Z 10007KT 15SM SCT010 OVC031 M02/M04 A3000 RMK SC3SC5 SLP184,CYYE,2022-10-23T11:00:00Z,58.83,-122.58,-2.0,-4.0,100,7,,15.0,30.0,1018.4,,,,,,,,,,SCT,1000,OVC,3100,,,,,VFR,,,,,,,,,,,,METAR,379.0
CYYD 231100Z AUTO 00000KT 9SM CLR M06/M06 A2993 RMK SLP157,CYYD,2022-10-23T11:00:00Z,54.82,-127.18,-6.0,-6.0,0,0,,9.0,29.929134,1015.7,,TRUE,,,,,,,,CLR,,,,,,,,VFR,,,,,,,,,,,,METAR,527.0
CYYC 231100Z 35007KT 2 1/2SM -SN BR BKN006 OVC014 M00/M01 A2987 RMK SC6ST2 SLP162,CYYC,2022-10-23T11:00:00Z,51.12,-114.02,0.0,-1.0,350,7,,2.5,29.870079,1016.2,,,,,,,,,-SN BR,BKN,600,OVC,1400,,,,,IFR,,,,,,,,,,,,METAR,1085.0
CYYB 231100Z 16006KT 15SM SKC 11/07 A3015 RMK SLP218,CYYB,2022-10-23T11:00:00Z,46.35,-79.42,11.0,7.0,160,6,,15.0,30.15059,1021.8,,,,,,,,,,SKC,,,,,,,,VFR,,,,,,,,,,,,METAR,360.0
CYXZ 231100Z 17005KT 15SM SKC 11/09 A2995 RMK SLP151,CYXZ,2022-10-23T11:00:00Z,47.97,-84.77,11.0,9.0,170,5,,15.0,29.949802,1015.1,,,,,,,,,,SKC,,,,,,,,VFR,,,,,,,,,,,,METAR,287.0
CYXY 231100Z 17007KT 15SM -SN FEW020 OVC063 01/M01 A2970 RMK SF1SC7 SLP094,CYXY,2022-10-23T11:00:00Z,60.72,-135.07,1.0,-1.0,170,7,,15.0,29.698818,1009.4,,,,,,,,,-SN,FEW,2000,OVC,6300,,,,,VFR,,,,,,,,,,,,METAR,677.0
CYXX 231100Z 00000KT 10SM BKN035 02/01 A2997 RMK SC6 SLP154,CYXX,2022-10-23T11:00:00Z,49.03,-122.38,2.0,1.0,0,0,,10.0,29.970472,1015.4,,,,,,,,,,BKN,3500,,,,,,,VFR,,,,,,,,,,,,METAR,54.0
CYXU 231100Z 11005KT 15SM SKC 09/07 A3019 RMK SLP228,CYXU,2022-10-23T11:00:00Z,43.03,-81.15,9.0,7.0,110,5,,15.0,30.188976,1022.8,,,,,,,,,,SKC,,,,,,,,VFR,,,,,,,,,,,,METAR,278.0
CYXT 231100Z 10003KT 1/4SM FG VV001 00/M00 A2995 RMK FG8 SLP151,CYXT,2022-10-23T11:00:00Z,54.47,-128.57,0.0,0.0,100,3,,0.25,29.949802,1015.1,,,,,,,,,FG,OVX,0,,,,,,,LIFR,,,,,,,,,,,100,METAR,213.0
CYXR 231100Z AUTO 17009KT 9SM CLR 10/09 A3008 RMK SLP195,CYXR,2022-10-23T11:00:00Z,47.7,-79.85,10.0,9.0,170,9,,9.0,30.079725,1019.5,,TRUE,,,,,,,,CLR,,,,,,,,VFR,,,,,,,,,,,,METAR,244.0
CYXP 231100Z 10004KT 15SM FEW035 BKN071 BKN160 M01/M04 A2927 RMK SC1AC4AC2 CALL OUT SLP916,CYXP,2022-10-23T11:00:00Z,66.15,-65.72,-1.0,-4.0,100,4,,15.0,29.27067,991.6,,,,,,,,,,FEW,3500,BKN,7100,BKN,16000,,,VFR,,,,,,,,,,,,METAR,29.0
CYXL 231100Z VRB06KT 15SM SKC 06/05 A2976 RMK SLP094,CYXL,2022-10-23T11:00:00Z,50.12,-91.9,6.0,5.0,0,6,,15.0,29.760826,1009.4,,,,,,,,,,SKC,,,,,,,,VFR,,,,,,,,,,,,METAR,381.0
CYXJ 231100Z 05002KT 15SM FEW020 M05/M06 A2999 RMK SC1 SC TR SLP197,CYXJ,2022-10-23T11:00:00Z,56.25,-120.73,-5.0,-6.0,50,2,,15.0,29.991142,1019.7,,,,,,,,,,FEW,2000,,,,,,,VFR,,,,,,,,,,,,METAR,700.0
CYXH 231100Z AUTO 36016G22KT 9SM -RA OVC006 02/02 A2972 RMK PCPN 0.8MM PAST HR SLP086,CYXH,2022-10-23T11:00:00Z,50.02,-110.72,2.0,2.0,360,16,22,9.0,29.719488,1008.6,,TRUE,,,,,,,-RA,OVC,600,,,,,,,IFR,,,,,,,,,,,,METAR,717.0
CYXE 231100Z 05008KT 6SM -SN OVC036 02/M02 A2985 RMK SC8 SLP132,CYXE,2022-10-23T11:00:00Z,52.17,-106.7,2.0,-2.0,50,8,,6.0,29.84941,1013.2,,,,,,,,,-SN,OVC,3600,,,,,,,VFR,,,,,,,,,,,,METAR,504.0
CYXC 231100Z 33004KT 290V350 25SM FEW013 BKN077 OVC100 02/M00 A2982 RMK SF1AC5AC2 SLP124,CYXC,2022-10-23T11:00:00Z,49.6,-115.78,2.0,0.0,330,4,,25.0,29.819881,1012.4,,,,,,,,,,FEW,1300,BKN,7700,OVC,10000,,,VFR,,,,,,,,,,,,METAR,928.0
CYWL 231100Z 00000KT 1 1/2SM BR SKC M03/M03 A2992 RMK FG6 SLP171,CYWL,2022-10-23T11:00:00Z,52.18,-122.07,-3.0,-3.0,0,0,,1.5,29.920275,1017.1,,,,,,,,,BR,SKC,,,,,,,,IFR,,,,,,,,,,,,METAR,942.0
CYWK 231100Z 24008KT 15SM SCT046 05/03 A3011 RMK SC4 SLP219,CYWK,2022-10-23T11:00:00Z,52.92,-66.87,5.0,3.0,240,8,,15.0,30.109253,1021.9,,,,,,,,,,SCT,4600,,,,,,,VFR,,,,,,,,,,,,METAR,547.0
CYWG 231100Z 03014KT 15SM SCT140 BKN210 07/05 A2969 RMK AC4CI2 SLP062,CYWG,2022-10-23T11:00:00Z,49.9,-97.23,7.0,5.0,30,14,,15.0,29.68996,1006.2,,,,,,,,,,SCT,14000,BKN,21000,,,,,VFR,,,,,,,,,,,,METAR,238.0
CYVV 231100Z 15008KT 15SM SKC 13/09 A3013 RMK SLP208,CYVV,2022-10-23T11:00:00Z,44.75,-81.1,13.0,9.0,150,8,,15.0,30.129921,1020.8,,,,,,,,,,SKC,,,,,,,,VFR,,,,,,,,,,,,METAR,221.0
CYVT 231100Z AUTO 11006KT 9SM BKN060 OVC080 00/M01 A3001 RMK SLP186,CYVT,2022-10-23T11:00:00Z,55.83,-108.42,0.0,-1.0,110,6,,9.0,30.008858,1018.6,,TRUE,,,,,,,,BKN,6000,OVC,8000,,,,,VFR,,,,,,,,,,,,METAR,438.0
CYVR 231100Z 04002KT 12SM FEW024 BKN036 07/06 A2998 RMK SC1SC6 SLP153,CYVR,2022-10-23T11:00:00Z,49.17,-123.17,7.0,6.0,40,2,,12.0,29.97933,1015.3,,,,,,,,,,FEW,2400,BKN,3600,,,,,VFR,,,,,,,,,,,,METAR,2.0
CYVQ 231100Z 10002KT 15SM -SN FEW030 OVC074 M05/M07 A3003 RMK SC2AC6 SLP179,CYVQ,2022-10-23T11:00:00Z,65.27,-126.78,-5.0,-7.0,100,2,,15.0,30.029528,1017.9,,,,,,,,,-SN,FEW,3000,OVC,7400,,,,,VFR,,,,,,,,,,,,METAR,63.0
CYVO 231100Z 18008KT 15SM FEW150 08/08 A3012 RMK AC1 AC TR SLP214,CYVO,2022-10-23T11:00:00Z,48.07,-77.77,8.0,8.0,180,8,,15.0,30.121063,1021.4,,,,,,,,,,FEW,15000,,,,,,,VFR,,,,,,,,,,,,METAR,329.0
CYVM 231100Z VRB02KT 4SM -SN OVC032 M00/M01 A2927 RMK SC8 SLP913,CYVM,2022-10-23T11:00:00Z,67.55,-64.02,0.0,-1.0,0,2,,4.0,29.27067,991.3,,,,,,,,,-SN,OVC,3200,,,,,,,MVFR,,,,,,,,,,,,METAR,3.0
CYVC 231100Z 06006KT 15SM FEW030 FEW230 01/M00 A3001 RMK SC1CI1 SLP185,CYVC,2022-10-23T11:00:00Z,55.15,-105.27,1.0,0.0,60,6,,15.0,30.008858,1018.5,,,,,,,,,,FEW,3000,FEW,23000,,,,,VFR,,,,,,,,,,,,METAR,378.0
CYUY 231100Z 17005KT 15SM FEW240 08/07 A3009 RMK CI1 CI TR SLP201,CYUY,2022-10-23T11:00:00Z,48.2,-78.82,8.0,7.0,170,5,,15.0,30.088583,1020.1,,,,,,,,,,FEW,24000,,,,,,,VFR,,,,,,,,,,,,METAR,304.0
CYUX 231100Z AUTO 32015KT 9SM SCT120 BKN140 M07/M07 A2951 RMK SLP994,CYUX,2022-10-23T11:00:00Z,68.77,-81.22,-7.0,-7.0,320,15,,9.0,29.509842,999.4,,TRUE,,,,,,,,SCT,12000,BKN,14000,,,,,VFR,,,,,,,,,,,,METAR,8.0
CYUS 231100Z AUTO 27008G20KT 220V310 ////SM //// OVC012 M12/M14 A2971,CYUS,2022-10-23T11:00:00Z,68.78,-93.42,-12.0,-14.0,270,8,20,,29.71063,,,TRUE,,,,,,,,OVC,1200,,,,,,,,,,,,,,,,,,,METAR,30.0
CYUL 231100Z 13003KT 30SM FEW250 07/04 A3029 RMK CI1 SLP259,CYUL,2022-10-23T11:00:00Z,45.47,-73.73,7.0,4.0,130,3,,30.0,30.28937,1025.9,,,,,,,,,,FEW,25000,,,,,,,VFR,,,,,,,,,,,,METAR,31.0
CYUA 231100Z AUTO 10006KT ////SM OVC005 M08/M09 A3004,CYUA,2022-10-23T11:00:00Z,68.92,-137.23,-8.0,-9.0,100,6,,,30.041338,,,TRUE,,,,,,,,OVC,500,,,,,,,,,,,,,,,,,,,METAR,25.0
CYTZ 231100Z AUTO 06012KT 9SM CLR 10/06 A3022 RMK SLP238,CYTZ,2022-10-23T11:00:00Z,43.63,-79.4,10.0,6.0,60,12,,9.0,30.221457,1023.8,,TRUE,,,,,,,,CLR,,,,,,,,VFR,,,,,,,,,,,,METAR,76.0
CYTS 231100Z 18004KT 15SM SKC 06/06 A3003 RMK SLP181,CYTS,2022-10-23T11:00:00Z,48.57,-81.37,6.0,6.0,180,4,,15.0,30.029528,1018.1,,,,,,,,,,SKC,,,,,,,,VFR,,,,,,,,,,,,METAR,290.0
CYTR 231100Z 02002KT 15SM SKC 04/03 A3026 RMK DENSITY ALT -1338FT SLP250,CYTR,2022-10-23T11:00:00Z,44.12,-77.52,4.0,3.0,20,2,,15.0,30.259842,1025.0,,,,,,,,,,SKC,,,,,,,,VFR,,,,,,,,,,,,METAR,80.0
CYTL 231100Z AUTO 05003KT 9SM BKN200 OVC220 M01/M01 A3005 RMK SLP191,CYTL,2022-10-23T11:00:00Z,53.82,-89.88,-1.0,-1.0,50,3,,9.0,30.050198,1019.1,,TRUE,,,,,,,,BKN,20000,OVC,22000,,,,,VFR,,,,,,,,,,,,METAR,218.0
CYTH 231100Z 04006KT 15SM SCT027 SCT056 M02/M03 A3007 RMK SC3SC1 SLP199,CYTH,2022-10-23T11:00:00Z,55.8,-97.83,-2.0,-3.0,40,6,,15.0,30.070866,1019.9,,,,,,,,,,SCT,2700,SCT,5600,,,,,VFR,,,,,,,,,,,,METAR,212.0
CYTE 231100Z AUTO 27016KT 9SM FEW015 SCT140 BKN210 BKN230 M01/M03 A2952 RMK SLP004,CYTE,2022-10-23T11:00:00Z,64.22,-76.52,-1.0,-3.0,270,16,,9.0,29.518702,1000.4,,TRUE,,,,,,,,FEW,1500,SCT,14000,BKN,21000,BKN,23000,VFR,,,,,,,,,,,,METAR,49.0
CYSN 231100Z 21002KT 15SM SKC 11/04 A3021 RMK SLP234,CYSN,2022-10-23T11:00:00Z,43.2,-79.17,11.0,4.0,210,2,,15.0,30.209646,1023.4,,,,,,,,,,SKC,,,,,,,,VFR,,,,,,,,,,,,METAR,96.0
CYSM 231100Z 00000KT 15SM BKN033 M04/M09 A3010 RMK SC6 SLP210,CYSM,2022-10-23T11:00:00Z,60.03,-111.92,-4.0,-9.0,0,0,,15.0,30.100393,1021.0,,,,,,,,,,BKN,3300,,,,,,,VFR,,,,,,,,,,,,METAR,203.0
CYSJ 231100Z 00000KT 1/8SM R23/0800V1200FT/N FG VV001 05/05 A3036 RMK FG8 SLP287,CYSJ,2022-10-23T11:00:00Z,45.32,-65.88,5.0,5.0,0,0,,0.13,30.360237,1028.7,,,,,,,,,FG,OVX,0,,,,,,,LIFR,,,,,,,,,,,100,METAR,89.0
CYSF 231100Z AUTO 11002KT 9SM FEW150 M10/M11 A3014 RMK SLP227,CYSF,2022-10-23T11:00:00Z,59.25,-105.83,-10.0,-11.0,110,2,,9.0,30.138779,1022.7,,TRUE,,,,,,,,FEW,15000,,,,,,,VFR,,,,,,,,,,,,METAR,238.0
CYSC 231100Z AUTO 10002KT 9SM CLR 03/01 A3033 RMK ICE MISG SLP282,CYSC,2022-10-23T11:00:00Z,45.43,-71.68,3.0,1.0,100,2,,9.0,30.33071,1028.2,,TRUE,,,,,,,,CLR,,,,,,,,VFR,,,,,,,,,,,,METAR,236.0
CYSB 231100Z 15011KT 15SM SKC 09/08 A3011 RMK SLP206,CYSB,2022-10-23T11:00:00Z,46.63,-80.8,9.0,8.0,150,11,,15.0,30.109253,1020.6,,,,,,,,,,SKC,,,,,,,,VFR,,,,,,,,,,,,METAR,349.0
CYRV 231100Z AUTO 04003KT 9SM OVC081 04/01 A2988 RMK SLP131,CYRV,2022-10-23T11:00:00Z,50.97,-118.17,4.0,1.0,40,3,,9.0,29.878937,1013.1,,TRUE,,,,,,,,OVC,8100,,,,,,,VFR,,,,,,,,,,,,METAR,456.0
CYRT 231100Z 33010KT 15SM SCT062 BKN110 M08/M09 A2999 RMK SC3AC2 SLP161,CYRT,2022-10-23T11:00:00Z,62.82,-92.12,-8.0,-9.0,330,10,,15.0,29.991142,1016.1,,,,,,,,,,SCT,6200,BKN,11000,,,,,VFR,,,,,,,,,,,,METAR,29.0
CYRQ 231100Z AUTO 01003KT 9SM CLR 02/02 A3030 RMK SLP266,CYRQ,2022-10-23T11:00:00Z,46.35,-72.68,2.0,2.0,10,3,,9.0,30.301182,1026.6,,TRUE,,,,,,,,CLR,,,,,,,,VFR,,,,,,,,,,,,METAR,58.0
CYRL 231100Z 05007KT 020V090 12SM OVC050 06/05 A2979 RMK SC8 BR SLP102,CYRL,2022-10-23T11:00:00Z,51.07,-93.78,6.0,5.0,50,7,,12.0,29.790354,1010.2,,,,,,,,,,OVC,5000,,,,,,,VFR,,,,,,,,,,,,METAR,370.0
CYRJ 231100Z VRB02KT 25SM FEW080 11/04 A3022 RMK AC1 AC TR SLP240,CYRJ,2022-10-23T11:00:00Z,48.52,-72.27,11.0,4.0,0,2,,25.0,30.221457,1024.0,,,,,,,,,,FEW,8000,,,,,,,VFR,,,,,,,,,,,,METAR,173.0
CYRB 231100Z 02017KT 15SM SCT100 M20/M24 A2958 RMK AS3 SLP028,CYRB,2022-10-23T11:00:00Z,74.72,-94.97,-20.0,-24.0,20,17,,15.0,29.58071,1002.8,,,,,,,,,,SCT,10000,,,,,,,VFR,,,,,,,,,,,,METAR,59.0
CYQY 231100Z 21006KT 15SM FEW010 BKN250 10/10 A3035 RMK ST1CI4 ST TR SLP281,CYQY,2022-10-23T11:00:00Z,46.17,-60.03,10.0,10.0,210,6,,15.0,30.351377,1028.1,,,,,,,,,,FEW,1000,BKN,25000,,,,,VFR,,,,,,,,,,,,METAR,58.0
CYQX 231100Z 22013G20KT 20SM FEW200 09/07 A3020 RMK CC1 CC TR SLP234,CYQX,2022-10-23T11:00:00Z,48.95,-54.58,9.0,7.0,220,13,20,20.0,30.200787,1023.4,,,,,,,,,,FEW,20000,,,,,,,VFR,,,,,,,,,,,,METAR,144.0
CYQW 231100Z AUTO 02006KT 9SM BKN047 BKN055 OVC078 02/M02 A2990 RMK SLP149,CYQW,2022-10-23T11:00:00Z,52.77,-108.25,2.0,-2.0,20,6,,9.0,29.899607,1014.9,,TRUE,,,,,,,,BKN,4700,BKN,5500,OVC,7800,,,VFR,,,,,,,,,,,,METAR,545.0
CYQV 231100Z AUTO 05014KT 9SM OVC066 02/M02 A2980 RMK SLP113,CYQV,2022-10-23T11:00:00Z,51.27,-102.47,2.0,-2.0,50,14,,9.0,29.799213,1011.3,,TRUE,,,,,,,,OVC,6600,,,,,,,VFR,,,,,,,,,,,,METAR,493.0
CYQU 231100Z 29006KT 25SM OVC020 M01/M04 A3001 RMK ST8 SLP196,CYQU,2022-10-23T11:00:00Z,55.18,-118.88,-1.0,-4.0,290,6,,25.0,30.008858,1019.6,,,,,,,,,,OVC,2000,,,,,,,MVFR,,,,,,,,,,,,METAR,668.0
CYQT 231100Z 09007KT 15SM FEW090 07/07 A2979 RMK AC2 SLP094,CYQT,2022-10-23T11:00:00Z,48.37,-89.32,7.0,7.0,90,7,,15.0,29.790354,1009.4,,,,,,,,,,FEW,9000,,,,,,,VFR,,,,,,,,,,,,METAR,197.0
CYQQ 231100Z 28004KT 20SM FEW120 06/M00 A2999 RMK AC1 SLP156,CYQQ,2022-10-23T11:00:00Z,49.72,-124.9,6.0,0.0,280,4,,20.0,29.991142,1015.6,,,,,,,,,,FEW,12000,,,,,,,VFR,,,,,,,,,,,,METAR,24.0
CYQM 231100Z 22008KT 12SM FEW180 BKN260 06/05 A3033 RMK AC1CI4 SLP276,CYQM,2022-10-23T11:00:00Z,46.12,-64.67,6.0,5.0,220,8,,12.0,30.33071,1027.6,,,,,,,,,,FEW,18000,BKN,26000,,,,,VFR,,,,,,,,,,,,METAR,67.0
CYQL 231100Z AUTO 35014G19KT 1 1/4SM -SN OVC003 00/M00 A2978 RMK ICE INTMT PCPN 0.8MM PAST HR SLP117,CYQL,2022-10-23T11:00:00Z,49.63,-112.8,0.0,0.0,350,14,19,1.25,29.778543,1011.7,,TRUE,,,,,,,-SN,OVC,300,,,,,,,LIFR,,,,,,,,,,,,METAR,923.0
CYQK 231100Z 06011G17KT 20SM BKN150 07/05 A2969 RMK AC5 SLP067,CYQK,2022-10-23T11:00:00Z,49.78,-94.37,7.0,5.0,60,11,17,20.0,29.68996,1006.7,,,,,,,,,,BKN,15000,,,,,,,VFR,,,,,,,,,,,,METAR,413.0
CYQH 231100Z 11012KT 10SM -SN OVC070 M01/M05 A2983 RMK AC8 SLP136,CYQH,2022-10-23T11:00:00Z,60.12,-128.82,-1.0,-5.0,110,12,,10.0,29.828741,1013.6,,,,,,,,,-SN,OVC,7000,,,,,,,VFR,,,,,,,,,,,,METAR,692.0
CYQG 231100Z AUTO 16004KT 9SM CLR 10/08 A3014 RMK SLP210,CYQG,2022-10-23T11:00:00Z,42.27,-82.97,10.0,8.0,160,4,,9.0,30.138779,1021.0,,TRUE,,,,,,,,CLR,,,,,,,,VFR,,,,,,,,,,,,METAR,189.0
CYQF 231100Z AUTO 33004KT 9SM FEW049 SCT110 M00/M00 A2991 RMK SLP168,CYQF,2022-10-23T11:00:00Z,52.17,-113.9,0.0,0.0,330,4,,9.0,29.911417,1016.8,,TRUE,,,,,,,,FEW,4900,SCT,11000,,,,,VFR,,,,,,,,,,,,METAR,912.0
CYQD 231100Z AUTO 04003KT 9SM OVC170 02/M02 A2999 RMK SLP170,CYQD,2022-10-23T11:00:00Z,53.97,-101.08,2.0,-2.0,40,3,,9.0,29.991142,1017.0,,TRUE,,,,,,,,OVC,17000,,,,,,,VFR,,,,,,,,,,,,METAR,268.0
CYQB 231100Z VRB02KT 20SM FEW210 03/02 A3032 RMK CI1 SLP271,CYQB,2022-10-23T11:00:00Z,46.78,-71.38,3.0,2.0,0,2,,20.0,30.318897,1027.1,,,,,,,,,,FEW,21000,,,,,,,VFR,,,,,,,,,,,,METAR,73.0
CYQA 231100Z AUTO 14004KT 9SM CLR 07/05 A3019 RMK SLP230,CYQA,2022-10-23T11:00:00Z,44.97,-79.3,7.0,5.0,140,4,,9.0,30.188976,1023.0,,TRUE,,,,,,,,CLR,,,,,,,,VFR,,,,,,,,,,,,METAR,277.0
CYPR 231100Z AUTO 09006KT 9SM OVC140 04/03 A2989 RMK SLP124,CYPR,2022-10-23T11:00:00Z,54.28,-130.45,4.0,3.0,90,6,,9.0,29.890747,1012.4,,TRUE,,,,,,,,OVC,14000,,,,,,,VFR,,,,,,,,,,,,METAR,30.0
CYPQ 231100Z AUTO 00000KT 9SM CLR 00/00 A3023 RMK SLP245,CYPQ,2022-10-23T11:00:00Z,44.22,-78.37,0.0,0.0,0,0,,9.0,30.230314,1024.5,,TRUE,,,,,,,,CLR,,,,,,,,VFR,,,,,,,,,,,,METAR,190.0
CYPO 231100Z AUTO 17002KT 9SM CLR M04/M04 A3010 RMK SLP197,CYPO,2022-10-23T11:00:00Z,54.98,-85.43,-4.0,-4.0,170,2,,9.0,30.100393,1019.7,,TRUE,,,,,,,,CLR,,,,,,,,VFR,,,,,,,,,,,,METAR,49.0
CYPL 231100Z AUTO 08007KT 9SM BKN150 BKN170 OVC200 04/03 A2989 RMK SLP139,CYPL,2022-10-23T11:00:00Z,51.43,-90.22,4.0,3.0,80,7,,9.0,29.890747,1013.9,,TRUE,,,,,,,,BKN,15000,BKN,17000,OVC,20000,,,VFR,,,,,,,,,,,,METAR,390.0
CYPE 231100Z 35004KT 15SM BKN011 OVC050 M02/M03 A3002 RMK SC7SC1 SLP195,CYPE,2022-10-23T11:00:00Z,56.22,-117.45,-2.0,-3.0,350,4,,15.0,30.02067,1019.5,,,,,,,,,,BKN,1100,OVC,5000,,,,,MVFR,,,,,,,,,,,,METAR,572.0
CYPD 231100Z AUTO 22003KT 9SM CLR 06/06 A3037 RMK SLP288,CYPD,2022-10-23T11:00:00Z,45.67,-61.37,6.0,6.0,220,3,,9.0,30.369095,1028.8,,TRUE,,,,,,,,CLR,,,,,,,,VFR,,,,,,,,,,,,METAR,106.0
CYPA 231100Z 06008KT 15SM OVC160 00/M04 A2996 RMK AC8 SLP167,CYPA,2022-10-23T11:00:00Z,53.22,-105.67,0.0,-4.0,60,8,,15.0,29.958662,1016.7,,,,,,,,,,OVC,16000,,,,,,,VFR,,,,,,,,,,,,METAR,428.0
CYOO 231100Z AUTO VRB02KT 9SM CLR 04/03 A3023 RMK SLP241,CYOO,2022-10-23T11:00:00Z,43.92,-78.9,4.0,3.0,0,2,,9.0,30.230314,1024.1,,TRUE,,,,,,,,CLR,,,,,,,,VFR,,,,,,,,,,,,METAR,136.0
CYOJ 231100Z AUTO 01002KT 9SM BKN005 BKN022 OVC028 M04/M04 A3006 RMK SLP206,CYOJ,2022-10-23T11:00:00Z,58.62,-117.17,-4.0,-4.0,10,2,,9.0,30.059055,1020.6,,TRUE,,,,,,,,BKN,500,BKN,2200,OVC,2800,,,IFR,,,,,,,,,,,,METAR,339.0
CYOD 231100Z 00000KT 12SM MIFG SKC M02/M03 A2997 RMK DENSITY ALT -74FT FROIN SLP175,CYOD,2022-10-23T11:00:00Z,54.4,-110.28,-2.0,-3.0,0,0,,12.0,29.970472,1017.5,,,,,,,,,MIFG,SKC,,,,,,,,VFR,,,,,,,,,,,,METAR,540.0
CYNM 231100Z AUTO 15004KT 9SM CLR 01/01 A3008 RMK SLP203,CYNM,2022-10-23T11:00:00Z,49.77,-77.78,1.0,1.0,150,4,,9.0,30.079725,1020.3,,TRUE,,,,,,,,CLR,,,,,,,,VFR,,,,,,,,,,,,METAR,276.0
CYNE 231100Z AUTO 02004KT 360V110 9SM OVC170 M01/M01 A3002 RMK SLP180,CYNE,2022-10-23T11:00:00Z,53.97,-97.83,-1.0,-1.0,20,4,,9.0,30.02067,1018.0,,TRUE,,,,,,,,OVC,17000,,,,,,,VFR,,,,,,,,,,,,METAR,220.0
CYND 231100Z 00000KT 15SM FEW220 02/01 A3027 RMK CI1 SLP255,CYND,2022-10-23T11:00:00Z,45.52,-75.57,2.0,1.0,0,0,,15.0,30.268702,1025.5,,,,,,,,,,FEW,22000,,,,,,,VFR,,,,,,,,,,,,METAR,57.0
CYMX 231100Z 00000KT 25SM MIFG FEW250 04/03 A3029 RMK CI2 SLP261,CYMX,2022-10-23T11:00:00Z,45.67,-74.03,4.0,3.0,0,0,,25.0,30.28937,1026.1,,,,,,,,,MIFG,FEW,25000,,,,,,,VFR,,,,,,,,,,,,METAR,78.0
CYMT 231100Z AUTO 14004KT 9SM CLR 05/04 A3014 RMK SLP223,CYMT,2022-10-23T11:00:00Z,49.77,-74.52,5.0,4.0,140,4,,9.0,30.138779,1022.3,,TRUE,,,,,,,,CLR,,,,,,,,VFR,,,,,,,,,,,,METAR,388.0
CYMO 231100Z AUTO 06004KT 9SM OVC200 07/06 A3006 RMK SLP182,CYMO,2022-10-23T11:00:00Z,51.28,-80.62,7.0,6.0,60,4,,9.0,30.059055,1018.2,,TRUE,,,,,,,,OVC,20000,,,,,,,VFR,,,,,,,,,,,,METAR,8.0
CYMH 231100Z AUTO 25011KT 9SM FEW110 OVC230 09/04 A2999 RMK SLP159,CYMH,2022-10-23T11:00:00Z,52.3,-55.82,9.0,4.0,250,11,,9.0,29.991142,1015.9,,TRUE,,,,,,,,FEW,11000,OVC,23000,,,,,VFR,,,,,,,,,,,,METAR,18.0
CYMA 231100Z 01004KT 10SM -SN OVC034 M02/M04 A2980 RMK SC8 SLP125,CYMA,2022-10-23T11:00:00Z,63.62,-135.87,-2.0,-4.0,10,4,,10.0,29.799213,1012.5,,,,,,,,,-SN,OVC,3400,,,,,,,VFR,,,,,,,,,,,,METAR,519.0
CYLW 231100Z AUTO 01003KT 9SM 00/M00 A2991 RMK CLD MISG SLP142,CYLW,2022-10-23T11:00:00Z,49.95,-119.37,0.0,0.0,10,3,,9.0,29.911417,1014.2,,TRUE,,,,,,,,,,,,,,,,,,,,,,,,,,,,METAR,420.0
CYLL 231100Z AUTO 03007KT 9SM OVC033 M00/M00 A2992 RMK ICE PAST HR SLP163,CYLL,2022-10-23T11:00:00Z,53.32,-110.07,0.0,0.0,30,7,,9.0,29.920275,1016.3,,TRUE,,,,,,,,OVC,3300,,,,,,,VFR,,,,,,,,,,,,METAR,664.0
CYLH 231100Z AUTO 07005KT 9SM OVC066 04/03 A2999 RMK SLP171,CYLH,2022-10-23T11:00:00Z,52.2,-87.93,4.0,3.0,70,5,,9.0,29.991142,1017.1,,TRUE,,,,,,,,OVC,6600,,,,,,,VFR,,,,,,,,,,,,METAR,245.0
CYLD 231100Z 19004KT 15SM SKC 06/06 A3000 RMK SLP177,CYLD,2022-10-23T11:00:00Z,47.82,-83.35,6.0,6.0,190,4,,15.0,30.0,1017.7,,,,,,,,,,SKC,,,,,,,,VFR,,,,,,,,,,,,METAR,449.0
CYKL 231100Z AUTO 28016G29KT 9SM CLR 01/M01 A3002 RMK SLP192,CYKL,2022-10-23T11:00:00Z,54.8,-66.8,1.0,-1.0,280,16,29,9.0,30.02067,1019.2,,TRUE,,,,,,,,CLR,,,,,,,,VFR,,,,,,,,,,,,METAR,507.0
CYKJ 231100Z AUTO 10005KT 9SM OVC027 M02/M05 A3006 RMK SLP211,CYKJ,2022-10-23T11:00:00Z,57.25,-105.62,-2.0,-5.0,100,5,,9.0,30.059055,1021.1,,TRUE,,,,,,,,OVC,2700,,,,,,,MVFR,,,,,,,,,,,,METAR,519.0
CYKF 231100Z AUTO 13002KT 9SM CLR 07/05 A3020 RMK SLP233,CYKF,2022-10-23T11:00:00Z,43.47,-80.38,7.0,5.0,130,2,,9.0,30.200787,1023.3,,TRUE,,,,,,,,CLR,,,,,,,,VFR,,,,,,,,,,,,METAR,312.0
CYKA 231100Z 32005KT 40SM SCT090 06/M02 A2994 RMK AC4 SLP152,CYKA,2022-10-23T11:00:00Z,50.7,-120.45,6.0,-2.0,320,5,,40.0,29.940945,1015.2,,,,,,,,,,SCT,9000,,,,,,,VFR,,,,,,,,,,,,METAR,344.0
CYJT 231100Z 23010G16KT 15SM FEW018 11/09 A3026 RMK SC2 SLP249,CYJT,2022-10-23T11:00:00Z,48.55,-58.57,11.0,9.0,230,10,16,15.0,30.259842,1024.9,,,,,,,,,,FEW,1800,,,,,,,VFR,,,,,,,,,,,,METAR,7.0
CYIV 231100Z AUTO 07008KT 9SM CLR 01/M00 A3002 RMK SLP179,CYIV,2022-10-23T11:00:00Z,53.85,-94.65,1.0,0.0,70,8,,9.0,30.02067,1017.9,,TRUE,,,,,,,,CLR,,,,,,,,VFR,,,,,,,,,,,,METAR,234.0
CYIN 231100Z AUTO 24002KT 9SM CLR M09/M10 A2990 RMK SLP169,CYIN,2022-10-23T11:00:00Z,51.27,-121.68,-9.0,-10.0,240,2,,9.0,29.899607,1016.9,,TRUE,,,,,,,,CLR,,,,,,,,VFR,,,,,,,,,,,,METAR,1127.0
CYHZ 231100Z 19003KT 15SM VCFG FEW180 BKN250 08/06 A3038 RMK AC1CI5 FG BANK W-N AND E CC ASOCTD SLP294,CYHZ,2022-10-23T11:00:00Z,44.87,-63.5,8.0,6.0,190,3,,15.0,30.380905,1029.4,,,,,,,,,VCFG,FEW,18000,BKN,25000,,,,,VFR,,,,,,,,,,,,METAR,136.0
CYHY 231100Z 25002KT 15SM SCT031 BKN047 M06/M08 A3010 RMK SC4SC2 SLP210,CYHY,2022-10-23T11:00:00Z,60.83,-115.77,-6.0,-8.0,250,2,,15.0,30.100393,1021.0,,,,,,,,,,SCT,3100,BKN,4700,,,,,VFR,,,,,,,,,,,,METAR,159.0
CYHU 231100Z AUTO 15002KT 9SM CLR 06/04 A3029 RMK SLP261,CYHU,2022-10-23T11:00:00Z,45.52,-73.42,6.0,4.0,150,2,,9.0,30.28937,1026.1,,TRUE,,,,,,,,CLR,,,,,,,,VFR,,,,,,,,,,,,METAR,26.0
CYHM 231100Z 17005KT 15SM FEW025 09/07 A3021 RMK SC1 SC TR SLP236,CYHM,2022-10-23T11:00:00Z,43.17,-79.93,9.0,7.0,170,5,,15.0,30.209646,1023.6,,,,,,,,,,FEW,2500,,,,,,,VFR,,,,,,,,,,,,METAR,237.0
CYHK 231100Z AUTO 31015KT 9SM OVC016 M16/M18 A2975 RMK SLP084,CYHK,2022-10-23T11:00:00Z,68.62,-95.85,-16.0,-18.0,310,15,,9.0,29.749016,1008.4,,TRUE,,,,,,,,OVC,1600,,,,,,,MVFR,,,,,,,,,,,,METAR,36.0
CYHE 231100Z AUTO 07005KT 9SM CLR 05/04 A3000 RMK SLP162,CYHE,2022-10-23T11:00:00Z,49.37,-121.5,5.0,4.0,70,5,,9.0,30.0,1016.2,,TRUE,,,,,,,,CLR,,,,,,,,VFR,,,,,,,,,,,,METAR,43.0
CYHD 231100Z AUTO 06009KT 9SM CLR 06/05 A2971 RMK SLP076,CYHD,2022-10-23T11:00:00Z,49.82,-92.75,6.0,5.0,60,9,,9.0,29.71063,1007.6,,TRUE,,,,,,,,CLR,,,,,,,,VFR,,,,,,,,,,,,METAR,414.0
CYGX 231100Z 33008KT 15SM OVC018 M00/M04 A3011 RMK SC8 SLP209,CYGX,2022-10-23T11:00:00Z,56.35,-94.7,0.0,-4.0,330,8,,15.0,30.109253,1020.9,,,,,,,,,,OVC,1800,,,,,,,MVFR,,,,,,,,,,,,METAR,145.0
CYGV 231100Z AUTO 00000KT 9SM CLR 00/M00 A3021 RMK SLP233,CYGV,2022-10-23T11:00:00Z,50.28,-63.62,0.0,0.0,0,0,,9.0,30.209646,1023.3,,TRUE,,,,,,,,CLR,,,,,,,,VFR,,,,,,,,,,,,METAR,32.0
CYGR 231100Z 24009KT 20SM FEW270 11/09 A3030 RMK CI2 SLP262,CYGR,2022-10-23T11:00:00Z,47.42,-61.77,11.0,9.0,240,9,,20.0,30.301182,1026.2,,,,,,,,,,FEW,27000,,,,,,,VFR,,,,,,,,,,,,METAR,4.0
CYGP 231100Z VRB02KT 15SM FEW220 04/04 A3027 RMK CI1 CI TR SLP255,CYGP,2022-10-23T11:00:00Z,48.77,-64.47,4.0,4.0,0,2,,15.0,30.268702,1025.5,,,,,,,,,,FEW,22000,,,,,,,VFR,,,,,,,,,,,,METAR,31.0
CYGL 231100Z 04003KT 15SM BKN230 00/00 A3014 RMK CI6 SLP220,CYGL,2022-10-23T11:00:00Z,53.62,-77.7,0.0,0.0,40,3,,15.0,30.138779,1022.0,,,,,,,,,,BKN,23000,,,,,,,VFR,,,,,,,,,,,,METAR,192.0
CYGK 231100Z 17006KT 15SM FEW240 12/09 A3028 RMK CI1 SLP257,CYGK,2022-10-23T11:00:00Z,44.22,-76.58,12.0,9.0,170,6,,15.0,30.280512,1025.7,,,,,,,,,,FEW,24000,,,,,,,VFR,,,,,,,,,,,,METAR,91.0
CYFT 231100Z 27021G32KT 15SM FEW025 SCT090 08/01 A2988 RMK SC1AC2 SLP123,CYFT,2022-10-23T11:00:00Z,55.07,-59.18,8.0,1.0,270,21,32,15.0,29.878937,1012.3,,,,,,,,,,FEW,2500,SCT,9000,,,,,VFR,,,,,,,,,,,,METAR,65.0
CYFS 231100Z 09003KT 070V150 15SM FEW005 OVC017 M05/M06 A3007 RMK SC2SC6 SLP198,CYFS,2022-10-23T11:00:00Z,61.75,-121.22,-5.0,-6.0,90,3,,15.0,30.070866,1019.8,,,,,,,,,,FEW,500,OVC,1700,,,,,MVFR,,,,,,,,,,,,METAR,174.0
CYFO 231100Z 05007KT 15SM SCT210 M00/M02 A3002 RMK CI3 SNW CVR/NIL PRESRR SLP183,CYFO,2022-10-23T11:00:00Z,54.67,-101.67,0.0,-2.0,50,7,,15.0,30.02067,,,,,,,,,,,SCT,21000,,,,,,,VFR,,,,,,,,,,,,METAR,303.0
CYFB 231100Z 31014G22KT 20SM OVC027 00/M02 A2943 RMK SC8 INTMT -SN SLP969,CYFB,2022-10-23T11:00:00Z,63.75,-68.55,0.0,-2.0,310,14,22,20.0,29.430119,996.9,,,,,,,,,,OVC,2700,,,,,,,MVFR,,,,,,,,,,,,METAR,23.0
CYEV 231100Z 08007KT 15SM BKN055 M12/M14 A3008 RMK SC6 SLP196,CYEV,2022-10-23T11:00:00Z,68.32,-133.5,-12.0,-14.0,80,7,,15.0,30.079725,1019.6,,,,,,,,,,BKN,5500,,,,,,,VFR,,,,,,,,,,,,METAR,74.0
CYER 231100Z AUTO 23005KT 9SM FEW240 M02/M03 A3008 RMK SLP188,CYER,2022-10-23T11:00:00Z,56.02,-87.68,-2.0,-3.0,230,5,,9.0,30.079725,1018.8,,TRUE,,,,,,,,FEW,24000,,,,,,,VFR,,,,,,,,,,,,METAR,11.0
CYEN 231100Z AUTO 06027G36KT 9SM -RA SCT012 BKN076 OVC088 04/02 A2954 RMK PRESFR SLP022,CYEN,2022-10-23T11:00:00Z,49.22,-102.97,4.0,2.0,60,27,36,9.0,29.53937,1002.2,,TRUE,,,,,,,-RA,SCT,1200,BKN,7600,OVC,8800,,,VFR,,,,,,,,,,,,METAR,580.0
CYEK 231100Z AUTO /////KT RMK WIND MISG CLD MISG WX MISG VIS MISG PCPN MISG PRES MISG T MISG DP MISG ICE MISG DENSITY ALT MISG,CYEK,2022-10-23T11:00:00Z,61.1,-94.07,,,,,,,,,,TRUE,,,,,,,,,,,,,,,,,,,,,,,,,,,,METAR,7.0
CYEG 231100Z 02003KT 20SM FEW042 OVC054 01/00 A2993 RMK SC1SC8 SC TR SLP165,CYEG,2022-10-23T11:00:00Z,53.3,-113.58,1.0,0.0,20,3,,20.0,29.929134,1016.5,,,,,,,,,,FEW,4200,OVC,5400,,,,,VFR,,,,,,,,,,,,METAR,710.0
CYDQ 231100Z AUTO 21004KT 9SM CLR M08/M10 A3001 RMK SLP203,CYDQ,2022-10-23T11:00:00Z,55.75,-120.18,-8.0,-10.0,210,4,,9.0,30.008858,1020.3,,TRUE,,,,,,,,CLR,,,,,,,,VFR,,,,,,,,,,,,METAR,658.0
CYDP 231100Z 29010KT 15SM SCT040 SCT110 05/01 A2984 RMK SC3AC1 AC TR SLP108,CYDP,2022-10-23T11:00:00Z,56.53,-61.68,5.0,1.0,290,10,,15.0,29.840551,1010.8,,,,,,,,,,SCT,4000,SCT,11000,,,,,VFR,,,,,,,,,,,,METAR,14.0
CYDN 231100Z AUTO 05008KT 9SM OVC071 04/M01 A2986 RMK SLP125,CYDN,2022-10-23T11:00:00Z,51.1,-100.05,4.0,-1.0,50,8,,9.0,29.861221,1012.5,,TRUE,,,,,,,,OVC,7100,,,,,,,VFR,,,,,,,,,,,,METAR,302.0
CYDL 231100Z AUTO 00000KT 9SM OVC050 M01/M02 A2978 RMK SLP108,CYDL,2022-10-23T11:00:00Z,58.42,-130.02,-1.0,-2.0,0,0,,9.0,29.778543,1010.8,,TRUE,,,,,,,,OVC,5000,,,,,,,VFR,,,,,,,,,,,,METAR,804.0
CYDF 231100Z 25008KT 15SM FEW040 09/09 A3021 RMK SC1 SLP231,CYDF,2022-10-23T11:00:00Z,49.22,-57.4,9.0,9.0,250,8,,15.0,30.209646,1023.1,,,,,,,,,,FEW,4000,,,,,,,VFR,,,,,,,,,,,,METAR,15.0
CYDB 231100Z AUTO 27007KT 7SM -SN OVC030 M05/M07 A2972 RMK SLP113,CYDB,2022-10-23T11:00:00Z,61.37,-139.02,-5.0,-7.0,270,7,,7.0,29.719488,1011.3,,TRUE,,,,,,,-SN,OVC,3000,,,,,,,MVFR,,,,,,,,,,,,METAR,807.0
CYCO 231100Z 27012G17KT 12SM -SN OVC039 M08/M12 A3010 RMK SC8 SLP199,CYCO,2022-10-23T11:00:00Z,67.82,-115.15,-8.0,-12.0,270,12,17,12.0,30.100393,1019.9,,,,,,,,,-SN,OVC,3900,,,,,,,VFR,,,,,,,,,,,,METAR,20.0
CYCK 231100Z AUTO 17009KT 9SM CLR 13/10 A3015 RMK SLP214,CYCK,2022-10-23T11:00:00Z,42.3,-82.08,13.0,10.0,170,9,,9.0,30.15059,1021.4,,TRUE,,,,,,,,CLR,,,,,,,,VFR,,,,,,,,,,,,METAR,196.0
CYCB 231100Z 31016KT 3SM -SN DRSN OVC020 M15/M17 A2989 RMK SC8 SLP129,CYCB,2022-10-23T11:00:00Z,69.1,-105.12,-15.0,-17.0,310,16,,3.0,29.890747,1012.9,,,,,,,,,-SN DRSN,OVC,2000,,,,,,,MVFR,,,,,,,,,,,,METAR,19.0
CYCA 231100Z AUTO 23009G17KT 9SM CLR 08/04 A2993 RMK SLP137,CYCA,2022-10-23T11:00:00Z,53.68,-57.03,8.0,4.0,230,9,17,9.0,29.929134,1013.7,,TRUE,,,,,,,,CLR,,,,,,,,VFR,,,,,,,,,,,,METAR,12.0
CYBX 231100Z 29006KT 15SM FEW005 SCT200 SCT240 07/07 A3008 RMK SC1CC2CI1 N-SE VIS 6 SLP190,CYBX,2022-10-23T11:00:00Z,51.45,-57.18,7.0,7.0,290,6,,15.0,30.079725,1019.0,,,,,,,,,,FEW,500,SCT,20000,SCT,24000,,,VFR,,,,,,,,,,,,METAR,32.0
CYBU 231100Z AUTO 36006KT 9SM CLR M01/M02 A2995 RMK ICE SLP163,CYBU,2022-10-23T11:00:00Z,53.32,-104.0,-1.0,-2.0,360,6,,9.0,29.949802,1016.3,,TRUE,,,,,,,,CLR,,,,,,,,VFR,,,,,,,,,,,,METAR,369.0
CYBR 231100Z 06018G25KT 15SM -RA OVC072 04/00 A2971 RMK AC8 SLP077,CYBR,2022-10-23T11:00:00Z,49.92,-99.95,4.0,0.0,60,18,25,15.0,29.71063,1007.7,,,,,,,,,-RA,OVC,7200,,,,,,,VFR,,,,,,,,,,,,METAR,405.0
CYBQ 231100Z AUTO /////KT 9SM OVC014 M07/M07 A3013 RMK WIND MISG SLP228,CYBQ,2022-10-23T11:00:00Z,58.7,-98.5,-7.0,-7.0,,,,9.0,30.129921,1022.8,,TRUE,,,,,,,,OVC,1400,,,,,,,MVFR,,,,,,,,,,,,METAR,272.0
CYBK 231100Z 31019KT 15SM -SN SCT012 OVC044 M10/M12 A3002 RMK ST3SC5 SLP169,CYBK,2022-10-23T11:00:00Z,64.3,-96.07,-10.0,-12.0,310,19,,15.0,30.02067,1016.9,,,,,,,,,-SN,SCT,1200,OVC,4400,,,,,VFR,,,,,,,,,,,,METAR,14.0
CYBG 231100Z 11004KT 25SM FEW250 06/05 A3025 RMK CI1 SLP249,CYBG,2022-10-23T11:00:00Z,48.33,-70.98,6.0,5.0,110,4,,25.0,30.250984,1024.9,,,,,,,,,,FEW,25000,,,,,,,VFR,,,,,,,,,,,,METAR,151.0
CYBC 231100Z AUTO 34004KT 9SM CLR 04/04 A3025 RMK SLP247,CYBC,2022-10-23T11:00:00Z,49.13,-68.2,4.0,4.0,340,4,,9.0,30.250984,1024.7,,TRUE,,,,,,,,CLR,,,,,,,,VFR,,,,,,,,,,,,METAR,20.0
CYAT 231100Z AUTO 03005KT 9SM BKN100 BKN120 00/00 A3010 RMK SLP196,CYAT,2022-10-23T11:00:00Z,52.93,-82.43,0.0,0.0,30,5,,9.0,30.100393,1019.6,,TRUE,,,,,,,,BKN,10000,BKN,12000,,,,,VFR,,,,,,,,,,,,METAR,4.0
CYAM 231100Z 08008KT 20SM SKC 10/09 A3000 RMK SLP164,CYAM,2022-10-23T11:00:00Z,46.48,-84.52,10.0,9.0,80,8,,20.0,30.0,1016.4,,,,,,,,,,SKC,,,,,,,,VFR,,,,,,,,,,,,METAR,186.0
CYAH 231100Z AUTO 21005KT 9SM OVC032 02/00 A3014 RMK SLP224,CYAH,2022-10-23T11:00:00Z,53.75,-73.67,2.0,0.0,210,5,,9.0,30.138779,1022.4,,TRUE,,,,,,,,OVC,3200,,,,,,,VFR,,,,,,,,,,,,METAR,298.0
CXZV 231100Z AUTO 00000KT M00/M01 RMK AO1 SLP240 T10041009 52018,CXZV,2022-10-23T11:00:00Z,50.22,-66.25,-0.4,-0.9,0,0,,,,1024.0,,TRUE,TRUE,,,,,,,,,,,,,,,,1.8,,,,,,,,,,,METAR,43.0
CXZC 231100Z AUTO 06003KT 06/06 RMK AO1 SLP183 T00550057 51007,CXZC,2022-10-23T11:00:00Z,51.3,-80.62,5.5,5.7,60,3,,,,1018.3,,TRUE,TRUE,,,,,,,,,,,,,,,,0.7,,,,,,,,,,,METAR,8.0
CXYH 231100Z AUTO 23002KT M05/M06 RMK AO1 SLP160 T10451064 57006,CXYH,2022-10-23T11:00:00Z,61.25,-123.75,-4.5,-6.4,230,2,,,,1016.0,,TRUE,TRUE,,,,,,,,,,,,,,,,-0.6,,,,,,,,,,,METAR,197.0
CXWN 231100Z AUTO 03006KT 08/05 RMK AO1 SLP062 T00780047 50000,CXWN,2022-10-23T11:00:00Z,49.88,-97.13,7.8,4.7,30,6,,,,1006.2,,TRUE,TRUE,,,,,,,,,,,,,,,,0.0,,,,,,,,,,,METAR,232.0
CXWM 231100Z AUTO 35019KT M00/00 RMK AO1 7PAST HR M PK WND 35024/1021 P0003 T10010000 50023,CXWM,2022-10-23T11:00:00Z,49.5,-112.12,-0.1,0.0,350,19,,,,,,TRUE,TRUE,,,,,,,,,,,,,,,,2.3,,,,,0.03,,,,,,METAR,947.0
CXVW 231100Z AUTO 34006KT M01/M02 RMK AO1 SLP179 T10111021 53013,CXVW,2022-10-23T11:00:00Z,55.1,-117.2,-1.1,-2.1,340,6,,,,1017.9,,TRUE,TRUE,,,,,,,,,,,,,,,,1.3,,,,,,,,,,,METAR,696.0
CXVN 231100Z AUTO 19004KT 13/05 RMK AO1 SLP233 T01280051 53020,CXVN,2022-10-23T11:00:00Z,43.18,-79.4,12.8,5.1,190,4,,,,1023.3,,TRUE,TRUE,,,,,,,,,,,,,,,,2.0,,,,,,,,,,,METAR,86.0
CXVM 231100Z AUTO 05004KT 01/01 RMK AO1 T00130013,CXVM,2022-10-23T11:00:00Z,53.35,-110.88,1.3,1.3,50,4,,,,,,TRUE,TRUE,,,,,,,,,,,,,,,,,,,,,,,,,,,METAR,622.0
CXTP 231100Z AUTO 24010KT 08/08 RMK AO1 PK WND 23017/1011 SLP233 T00820077 55000,CXTP,2022-10-23T11:00:00Z,48.55,-53.97,8.2,7.7,240,10,,,,1023.3,,TRUE,TRUE,,,,,,,,,,,,,,,,0.0,,,,,,,,,,,METAR,104.0
CXTO 231100Z AUTO 10/06 RMK AO1 SLP237 T01020062 53018,CXTO,2022-10-23T11:00:00Z,43.67,-79.4,10.2,6.2,,,,,,1023.7,,TRUE,TRUE,,,,,,,,,,,,,,,,1.8,,,,,,,,,,,METAR,115.0
CXTN 231100Z AUTO 22004KT M13/M15 RMK AO1 SOG 21 7003 SLP214 T11321149,CXTN,2022-10-23T11:00:00Z,69.2,-122.35,-13.2,-14.9,220,4,,,,1021.4,,TRUE,TRUE,,,,,,,,,,,,,,,,,,,,,,,,,,,METAR,564.0
CXTH 231100Z AUTO 04004KT M01/M01 RMK AO1 T10061008,CXTH,2022-10-23T11:00:00Z,53.63,-111.68,-0.6,-0.8,40,4,,,,,,TRUE,TRUE,,,,,,,,,,,,,,,,,,,,,,,,,,,METAR,679.0
CXTD 231100Z AUTO 36001KT 10/06 RMK AO1 SLP299 T00950059 51011,CXTD,2022-10-23T11:00:00Z,45.62,-61.68,9.5,5.9,360,1,,,,1029.9,,TRUE,TRUE,,,,,,,,,,,,,,,,1.1,,,,,,,,,,,METAR,58.0
CXSP 231100Z AUTO 03005KT M01/M01 RMK AO1 T10061008 50004,CXSP,2022-10-23T11:00:00Z,54.02,-111.27,-0.6,-0.8,30,5,,,,,,TRUE,TRUE,,,,,,,,,,,,,,,,0.4,,,,,,,,,,,METAR,652.0
CXSL 231100Z AUTO 03004KT M02/M02 RMK AO1 T10201022,CXSL,2022-10-23T11:00:00Z,54.28,-112.5,-2.0,-2.2,30,4,,,,,,TRUE,TRUE,,,,,,,,,,,,,,,,,,,,,,,,,,,METAR,680.0
CXSH 231100Z AUTO 33003KT 02/02 RMK AO1 SLP266 T00210015 51015,CXSH,2022-10-23T11:00:00Z,46.55,-72.73,2.1,1.5,330,3,,,,1026.6,,TRUE,TRUE,,,,,,,,,,,,,,,,1.5,,,,,,,,,,,METAR,106.0
CXSE 231100Z AUTO 34018KT M16/M19 RMK AO1 SOG 05 3004 PK WND 33025/1033 SLP075 T11641189,CXSE,2022-10-23T11:00:00Z,73.77,-105.28,-16.4,-18.9,340,18,,,,1007.5,,TRUE,TRUE,,,,,,,,,,,,,,,,,,,,,,,,,,,METAR,11.0
CXSC 231100Z AUTO 02015KT 02/01 RMK AO1 6PAST HR M PK WND 03021/1050 P0002 T00190013 50025,CXSC,2022-10-23T11:00:00Z,50.3,-110.08,1.9,1.3,20,15,,,,,,TRUE,TRUE,,,,,,,,,,,,,,,,2.5,,,,,0.02,,,,,,METAR,809.0
CXRL 231100Z AUTO 00000KT M06/M06 RMK AO1 T10631064,CXRL,2022-10-23T11:00:00Z,54.5,-111.7,-6.3,-6.4,0,0,,,,,,TRUE,TRUE,,,,,,,,,,,,,,,,,,,,,,,,,,,METAR,585.0
CXRH 231100Z AUTO 24008G15KT 10/08 RMK AO1 PK WND 24019/1017 SLP225 T01030082 53008,CXRH,2022-10-23T11:00:00Z,49.57,-57.88,10.3,8.2,240,8,15,,,1022.5,,TRUE,TRUE,,,,,,,,,,,,,,,,0.8,,,,,,,,,,,METAR,68.0
CXRB 231100Z AUTO 01010KT M20/M23 RMK AO1 SOG 04 2007 SLP024 T12011232,CXRB,2022-10-23T11:00:00Z,74.72,-94.98,-20.1,-23.2,10,10,,,,1002.4,,TRUE,TRUE,,,,,,,,,,,,,,,,,,,,,,,,,,,METAR,30.0
CXPL 231100Z AUTO 36011KT 02/02 RMK AO1 T00180018,CXPL,2022-10-23T11:00:00Z,51.13,-111.7,1.8,1.8,360,11,,,,,,TRUE,TRUE,,,,,,,,,,,,,,,,,,,,,,,,,,,METAR,735.0
CXPC 231100Z AUTO 11/07 RMK AO1 SLP216 T01120074 52011,CXPC,2022-10-23T11:00:00Z,45.35,-80.05,11.2,7.4,,,,,,1021.6,,TRUE,TRUE,,,,,,,,,,,,,,,,1.1,,,,,,,,,,,METAR,176.0
CXPA 231100Z AUTO 33003KT M01/M02 RMK AO1 T10131024,CXPA,2022-10-23T11:00:00Z,55.62,-118.3,-1.3,-2.4,330,3,,,,,,TRUE,TRUE,,,,,,,,,,,,,,,,,,,,,,,,,,,METAR,628.0
CXOY 231100Z AUTO 02009KT 01/M02 RMK AO1 T00061022,CXOY,2022-10-23T11:00:00Z,51.35,-110.35,0.6,-2.2,20,9,,,,,,TRUE,TRUE,,,,,,,,,,,,,,,,,,,,,,,,,,,METAR,784.0
CXOX 231100Z AUTO 08005KT 01/01 RMK AO1 SLP178 T00080005 53011,CXOX,2022-10-23T11:00:00Z,55.15,-105.27,0.8,0.5,80,5,,,,1017.8,,TRUE,TRUE,,,,,,,,,,,,,,,,1.1,,,,,,,,,,,METAR,381.0
CXOL 231100Z AUTO 33005KT M00/M00 RMK AO1 T10031003 50004,CXOL,2022-10-23T11:00:00Z,51.77,-114.08,-0.3,-0.3,330,5,,,,,,TRUE,TRUE,,,,,,,,,,,,,,,,0.4,,,,,,,,,,,METAR,1026.0
CXNP 231100Z AUTO 19006KT 08/07 RMK AO1 SLP277 T00790071 53009,CXNP,2022-10-23T11:00:00Z,45.75,-64.23,7.9,7.1,190,6,,,,1027.7,,TRUE,TRUE,,,,,,,,,,,,,,,,0.9,,,,,,,,,,,METAR,19.0
CXNM 231100Z AUTO 27014KT 09/05 RMK AO1 PK WND 27020/1047 T00850048,CXNM,2022-10-23T11:00:00Z,46.82,-60.67,8.5,4.8,270,14,,,,,,TRUE,TRUE,,,,,,,,,,,,,,,,,,,,,,,,,,,METAR,452.0
CXMY 231100Z AUTO 06/06 RMK AO1 T00620062,CXMY,2022-10-23T11:00:00Z,44.98,-62.48,6.2,6.2,,,,,,,,TRUE,TRUE,,,,,,,,,,,,,,,,,,,,,,,,,,,METAR,37.0
CXMO 231100Z AUTO 02007KT 01/01 RMK AO1 T00070007,CXMO,2022-10-23T11:00:00Z,51.67,-112.68,0.7,0.7,20,7,,,,,,TRUE,TRUE,,,,,,,,,,,,,,,,,,,,,,,,,,,METAR,837.0
CXMM 231100Z AUTO 11005KT M00/M01 RMK AO1 1006 SLP180 T10021010 50002,CXMM,2022-10-23T11:00:00Z,56.65,-111.22,-0.2,-1.0,110,5,,,,1018.0,,TRUE,TRUE,,,,,,,,,,,,,,,,0.2,,,,,,,,,,,METAR,372.0
CXMI 231100Z AUTO 31002KT 10/10 RMK AO1 SLP289 T01030100 51012,CXMI,2022-10-23T11:00:00Z,44.6,-63.53,10.3,10.0,310,2,,,,1028.9,,TRUE,TRUE,,,,,,,,,,,,,,,,1.2,,,,,,,,,,,METAR,15.0
CXMG 231100Z AUTO 35002KT M03/M04 RMK AO1 T10281037,CXMG,2022-10-23T11:00:00Z,56.97,-117.45,-2.8,-3.7,350,2,,,,,,TRUE,TRUE,,,,,,,,,,,,,,,,,,,,,,,,,,,METAR,467.0
CXMD 231100Z AUTO 02010KT 06/05 RMK AO1 SLP052 T00640051 55006,CXMD,2022-10-23T11:00:00Z,49.18,-98.08,6.4,5.1,20,10,,,,1005.2,,TRUE,TRUE,,,,,,,,,,,,,,,,-0.6,,,,,,,,,,,METAR,297.0
CXLL 231100Z AUTO 00000KT M10/M11 RMK AO1 SOG 03 8007 SLP188 T11001111,CXLL,2022-10-23T11:00:00Z,61.12,-122.85,-10.0,-11.1,0,0,,,,1018.8,,TRUE,TRUE,,,,,,,,,,,,,,,,,,,,,,,,,,,METAR,180.0
CXLB 231100Z AUTO 35004KT 09/08 RMK AO1 SLP291 T00890081 51011,CXLB,2022-10-23T11:00:00Z,44.37,-64.3,8.9,8.1,350,4,,,,1029.1,,TRUE,TRUE,,,,,,,,,,,,,,,,1.1,,,,,,,,,,,METAR,4.0
CXKT 231100Z AUTO 19001KT 04/03 RMK AO1 SLP289 T00400026 51010,CXKT,2022-10-23T11:00:00Z,45.07,-64.48,4.0,2.6,190,1,,,,1028.9,,TRUE,TRUE,,,,,,,,,,,,,,,,1.0,,,,,,,,,,,METAR,48.0
CXKM 231100Z AUTO 04003KT M02/M02 RMK AO1 T10161019,CXKM,2022-10-23T11:00:00Z,52.83,-111.87,-1.6,-1.9,40,3,,,,,,TRUE,TRUE,,,,,,,,,,,,,,,,,,,,,,,,,,,METAR,679.0
CXKI 231100Z AUTO 00015KT 02/02 RMK AO1 SLP191 T00190018 53014,CXKI,2022-10-23T11:00:00Z,48.13,-80.0,1.9,1.8,0,15,,,,1019.1,,TRUE,TRUE,,,,,,,,,,,,,,,,1.4,,,,,,,,,,,METAR,328.0
CXKE 231100Z AUTO 17001KT 04/02 RMK AO1 SLP254 T00440015 53011,CXKE,2022-10-23T11:00:00Z,45.0,-75.63,4.4,1.5,170,1,,,,1025.4,,TRUE,TRUE,,,,,,,,,,,,,,,,1.1,,,,,,,,,,,METAR,99.0
CXKA 231100Z AUTO 13003KT 04/04 RMK AO1 SLP163 T00430042 51007,CXKA,2022-10-23T11:00:00Z,49.4,-82.45,4.3,4.2,130,3,,,,1016.3,,TRUE,TRUE,,,,,,,,,,,,,,,,0.7,,,,,,,,,,,METAR,221.0
CXIB 231100Z AUTO 23005KT 07/05 RMK AO1 SLP264 T00710054 51012,CXIB,2022-10-23T11:00:00Z,46.67,-60.4,7.1,5.4,230,5,,,,1026.4,,TRUE,TRUE,,,,,,,,,,,,,,,,1.2,,,,,,,,,,,METAR,6.0
CXHR 231100Z AUTO 34012KT M00/M00 RMK AO1 T10031003 50004,CXHR,2022-10-23T11:00:00Z,51.18,-112.5,-0.3,-0.3,340,12,,,,,,TRUE,TRUE,,,,,,,,,,,,,,,,0.4,,,,,,,,,,,METAR,975.0
CXHP 231100Z AUTO 27006KT M01/M01 RMK AO1 T10061013,CXHP,2022-10-23T11:00:00Z,55.4,-116.48,-0.6,-1.3,270,6,,,,,,TRUE,TRUE,,,,,,,,,,,,,,,,,,,,,,,,,,,METAR,601.0
CXHM 231100Z AUTO 00000KT 10/06 RMK AO1 SLP236 T00990055 53017,CXHM,2022-10-23T11:00:00Z,43.28,-79.9,9.9,5.5,0,0,,,,1023.6,,TRUE,TRUE,,,,,,,,,,,,,,,,1.7,,,,,,,,,,,METAR,105.0
CXHD 231100Z AUTO 31002KT M01/M01 RMK AO1 T10111012,CXHD,2022-10-23T11:00:00Z,53.18,-112.25,-1.1,-1.2,310,2,,,,,,TRUE,TRUE,,,,,,,,,,,,,,,,,,,,,,,,,,,METAR,688.0
CXHA 231100Z AUTO 17006KT 13/09 RMK AO1 SLP207 T01280087 52012,CXHA,2022-10-23T11:00:00Z,42.03,-82.9,12.8,8.7,170,6,,,,1020.7,,TRUE,TRUE,,,,,,,,,,,,,,,,1.2,,,,,,,,,,,METAR,193.0
CXGH 231100Z AUTO 03020KT 07/05 RMK AO1 PK WND 02024/1002 SLP084 T00720048 56006,CXGH,2022-10-23T11:00:00Z,50.63,-97.0,7.2,4.8,30,20,,,,1008.4,,TRUE,TRUE,,,,,,,,,,,,,,,,-0.6,,,,,,,,,,,METAR,217.0
CXFR 231100Z AUTO 01005KT M03/M04 RMK AO1 T10301041,CXFR,2022-10-23T11:00:00Z,56.08,-118.43,-3.0,-4.1,10,5,,,,,,TRUE,TRUE,,,,,,,,,,,,,,,,,,,,,,,,,,,METAR,657.0
CXFM 231100Z AUTO 34016KT M00/M00 RMK AO1 PK WND 34021/1001 T10021004 50028,CXFM,2022-10-23T11:00:00Z,49.48,-111.48,-0.2,-0.4,340,16,,,,,,TRUE,TRUE,,,,,,,,,,,,,,,,2.8,,,,,,,,,,,METAR,884.0
CXET 231100Z AUTO 12004KT 09/06 RMK AO1 SLP234 T00900062 51016,CXET,2022-10-23T11:00:00Z,44.23,-79.78,9.0,6.2,120,4,,,,1023.4,,TRUE,TRUE,,,,,,,,,,,,,,,,1.6,,,,,,,,,,,METAR,250.0
CXEG 231100Z AUTO 03002KT 01/00 RMK AO1 SLP162 T00140000 53013,CXEG,2022-10-23T11:00:00Z,53.3,-113.6,1.4,0.0,30,2,,,,1016.2,,TRUE,TRUE,,,,,,,,,,,,,,,,1.3,,,,,,,,,,,METAR,706.0
CXEC 231100Z AUTO 32002KT 01/M01 RMK AO1 SLP164 T00101008 53011,CXEC,2022-10-23T11:00:00Z,53.57,-113.52,1.0,-0.8,320,2,,,,1016.4,,TRUE,TRUE,,,,,,,,,,,,,,,,1.1,,,,,,,,,,,METAR,666.0
CXEA 231100Z AUTO 08008KT 07/04 RMK AO1 SLP079 T00690035 55001,CXEA,2022-10-23T11:00:00Z,50.63,-93.22,6.9,3.5,80,8,,,,1007.9,,TRUE,TRUE,,,,,,,,,,,,,,,,-0.1,,,,,,,,,,,METAR,351.0
CXDW 231100Z AUTO 02013KT 06/05 RMK AO1 PK WND 01018/1022 SLP062 T00550046 51002,CXDW,2022-10-23T11:00:00Z,49.4,-98.32,5.5,4.6,20,13,,,,1006.2,,TRUE,TRUE,,,,,,,,,,,,,,,,0.2,,,,,,,,,,,METAR,341.0
CXDK 231100Z AUTO M03/M06 RMK AO1 SLP161 T10331055 58011,CXDK,2022-10-23T11:00:00Z,61.27,-124.47,-3.3,-5.5,,,,,,1016.1,,TRUE,TRUE,,,,,,,,,,,,,,,,-1.1,,,,,,,,,,,METAR,269.0
CXDI 231100Z AUTO 17002KT 06/05 RMK AO1 SLP228 T00640052 51014,CXDI,2022-10-23T11:00:00Z,42.87,-80.55,6.4,5.2,170,2,,,,1022.8,,TRUE,TRUE,,,,,,,,,,,,,,,,1.4,,,,,,,,,,,METAR,234.0
CXDE 231100Z AUTO 09003KT M04/M06 RMK AO1 2PAST HR SOG 03 6003 SLP184 P0001 T10411055 50003,CXDE,2022-10-23T11:00:00Z,65.22,-123.43,-4.1,-5.5,90,3,,,,1018.4,,TRUE,TRUE,,,,,,,,,,,,,,,,0.3,,,,,0.01,,,,,,METAR,208.0
CXDB 231100Z AUTO 34020KT M02/M02 RMK AO1 PK WND 34025/1032 T10191021 50005,CXDB,2022-10-23T11:00:00Z,49.05,-112.82,-1.9,-2.1,340,20,,,,,,TRUE,TRUE,,,,,,,,,,,,,,,,0.5,,,,,,,,,,,METAR,1311.0
CXCS 231100Z AUTO 36010KT M00/M01 RMK AO1 T10021014,CXCS,2022-10-23T11:00:00Z,51.93,-110.72,-0.2,-1.4,360,10,,,,,,TRUE,TRUE,,,,,,,,,,,,,,,,,,,,,,,,,,,METAR,771.0
CXCP 231100Z AUTO 35015KT M00/M00 RMK AO1 PK WND 35019/1046 T10011004 50004,CXCP,2022-10-23T11:00:00Z,50.28,-113.35,-0.1,-0.4,350,15,,,,,,TRUE,TRUE,,,,,,,,,,,,,,,,0.4,,,,,,,,,,,METAR,999.0
CXCK 231100Z AUTO 02001KT M01/M02 RMK AO1 SLP105 T10131018 56008,CXCK,2022-10-23T11:00:00Z,62.12,-136.2,-1.3,-1.8,20,1,,,,1010.5,,TRUE,TRUE,,,,,,,,,,,,,,,,-0.8,,,,,,,,,,,METAR,526.0
CXCD 231100Z AUTO 18003KT M03/M05 RMK AO1 T10321052,CXCD,2022-10-23T11:00:00Z,56.32,-119.75,-3.2,-5.2,180,3,,,,,,TRUE,TRUE,,,,,,,,,,,,,,,,,,,,,,,,,,,METAR,628.0
CXCA 231100Z AUTO 00000KT 05/04 RMK AO1 SLP102 T00470035 53002,CXCA,2022-10-23T11:00:00Z,49.15,-88.35,4.7,3.5,0,0,,,,1010.2,,TRUE,TRUE,,,,,,,,,,,,,,,,0.2,,,,,,,,,,,METAR,228.0
CXBW 231100Z AUTO 34016KT M00/M00 RMK AO1 4PAST HR M20 M P0002 T10021001 50021,CXBW,2022-10-23T11:00:00Z,49.8,-112.3,-0.2,-0.1,340,16,,,,,,TRUE,TRUE,,,,,,,,,,,,,,,,2.1,,,,,0.02,,,,,,METAR,823.0
CXBR 231100Z AUTO 35013KT RMK AO1 PK WND 00020/1003 50005,CXBR,2022-10-23T11:00:00Z,49.62,-113.82,,,350,13,,,,,,TRUE,TRUE,,,,,,,,,,,,,,,,0.5,,,,,,,,,,,METAR,1137.0
CXBO 231100Z AUTO 24003KT 06/04 RMK AO1 T00590040,CXBO,2022-10-23T11:00:00Z,46.83,-71.2,5.9,4.0,240,3,,,,,,TRUE,TRUE,,,,,,,,,,,,,,,,,,,,,,,,,,,METAR,8.0
CXBK 231100Z AUTO 06018G24KT 02/01 RMK AO1 3PAST HR SOG 01 8001 PK WND 06027/1039 SLP065 P0001 T00220011 50018,CXBK,2022-10-23T11:00:00Z,50.2,-104.7,2.2,1.1,60,18,24,,,1006.5,,TRUE,TRUE,,,,,,,,,,,,,,,,1.8,,,,,0.01,,,,,,METAR,585.0
CXBI 231100Z AUTO 32001KT 04/03 RMK AO1 SLP241 T00350033 52011,CXBI,2022-10-23T11:00:00Z,44.48,-79.55,3.5,3.3,320,1,,,,1024.1,,TRUE,TRUE,,,,,,,,,,,,,,,,1.1,,,,,,,,,,,METAR,287.0
CXBA 231100Z AUTO 02003KT 00/M02 RMK AO1 T00001021,CXBA,2022-10-23T11:00:00Z,52.12,-110.1,0.0,-2.1,20,3,,,,,,TRUE,TRUE,,,,,,,,,,,,,,,,,,,,,,,,,,,METAR,696.0
CXAT 231100Z AUTO 06008KT M08/M12 RMK AO1 SOG 04 3005 SLP985 T10781121,CXAT,2022-10-23T11:00:00Z,73.0,-85.03,-7.8,-12.1,60,8,,,,998.5,,TRUE,TRUE,,,,,,,,,,,,,,,,,,,,,,,,,,,METAR,10.0
CXAK 231100Z AUTO 01007KT 01/01 RMK AO1 T00060005,CXAK,2022-10-23T11:00:00Z,52.35,-112.6,0.6,0.5,10,7,,,,,,TRUE,TRUE,,,,,,,,,,,,,,,,,,,,,,,,,,,METAR,799.0
CXAJ 231100Z AUTO 06002KT M03/M03 RMK AO1 T10311032,CXAJ,2022-10-23T11:00:00Z,54.78,-112.82,-3.1,-3.2,60,2,,,,,,TRUE,TRUE,,,,,,,,,,,,,,,,,,,,,,,,,,,METAR,586.0
CXAG 231100Z AUTO 06003KT M05/M05 RMK AO1 4PAST HR M P0002 T10471053 50004,CXAG,2022-10-23T11:00:00Z,53.92,-112.28,-4.7,-5.3,60,3,,,,,,TRUE,TRUE,,,,,,,,,,,,,,,,0.4,,,,,0.02,,,,,,METAR,632.0
CXAF 231100Z AUTO 04002KT M01/M01 RMK AO1 T10061009,CXAF,2022-10-23T11:00:00Z,54.28,-112.97,-0.6,-0.9,40,2,,,,,,TRUE,TRUE,,,,,,,,,,,,,,,,,,,,,,,,,,,METAR,667.0
CWZW 231100Z AUTO 07003KT 01/M02 RMK AO1 SLP109 T00051015 57011,CWZW,2022-10-23T11:00:00Z,60.17,-132.73,0.5,-1.5,70,3,,,,1010.9,,TRUE,TRUE,,,,,,,,,,,,,,,,-1.1,,,,,,,,,,,METAR,683.0
CWZQ 231100Z AUTO 17008KT 11/06 RMK AO1 SLP280 T01130064 53007,CWZQ,2022-10-23T11:00:00Z,46.53,-61.05,11.3,6.4,170,8,,,,1028.0,,TRUE,TRUE,,,,,,,,,,,,,,,,0.7,,,,,,,,,,,METAR,13.0
CWZO 231100Z AUTO 01004KT RMK AO1,CWZO,2022-10-23T11:00:00Z,48.57,-123.25,,,10,4,,,,,,TRUE,TRUE,,,,,,,,,,,,,,,,,,,,,,,,,,,METAR,5.0
CWZN 231100Z AUTO 26017KT 12/11 RMK AO1 PK WND 27022/1017 SLP257 T01160106 56001,CWZN,2022-10-23T11:00:00Z,47.37,-55.8,11.6,10.6,260,17,,,,1025.7,,TRUE,TRUE,,,,,,,,,,,,,,,,-0.1,,,,,,,,,,,METAR,63.0
CWZL 231100Z AUTO 17013KT 10/06 RMK AO1 SLP123 T00980063 58020,CWZL,2022-10-23T11:00:00Z,53.03,-131.6,9.8,6.3,170,13,,,,1012.3,,TRUE,TRUE,,,,,,,,,,,,,,,,-2.0,,,,,,,,,,,METAR,17.0
CWZG 231100Z AUTO 03002KT M02/M02 RMK AO1 2PAST HR SOG 08 3014 SLP149 P0001 T10181015 50018,CWZG,2022-10-23T11:00:00Z,51.2,-115.55,-1.8,-1.5,30,2,,,,1014.9,,TRUE,TRUE,,,,,,,,,,,,,,,,1.8,,,,,0.01,,,,,,METAR,1402.0
CWZA 231100Z AUTO 05011KT 07/04 RMK AO1 SLP154 T00680041 53017,CWZA,2022-10-23T11:00:00Z,49.25,-121.77,6.8,4.1,50,11,,,,1015.4,,TRUE,TRUE,,,,,,,,,,,,,,,,1.7,,,,,,,,,,,METAR,18.0
CWYY 231100Z AUTO 32005KT 09/M00 RMK AO1 SLP121 T00881003 53023,CWYY,2022-10-23T11:00:00Z,49.03,-119.43,8.8,-0.3,320,5,,,,1012.1,,TRUE,TRUE,,,,,,,,,,,,,,,,2.3,,,,,,,,,,,METAR,284.0
CWYL 231100Z AUTO 10001KT M04/M06 RMK AO1 SLP143 T10421064 53013,CWYL,2022-10-23T11:00:00Z,51.45,-116.33,-4.2,-6.4,100,1,,,,1014.3,,TRUE,TRUE,,,,,,,,,,,,,,,,1.3,,,,,,,,,,,METAR,1602.0
CWYJ 231100Z AUTO 01003KT 07/05 RMK AO1 SLP151 T00650046 52016,CWYJ,2022-10-23T11:00:00Z,48.45,-123.3,6.5,4.6,10,3,,,,1015.1,,TRUE,TRUE,,,,,,,,,,,,,,,,1.6,,,,,,,,,,,METAR,59.0
CWXL 231100Z AUTO 01010G18KT M00/00 RMK AO1 3PAST HR 3007 PK WND 01018/1053 SLP096 P0001 T10040000 50033,CWXL,2022-10-23T11:00:00Z,49.73,-111.45,-0.4,0.0,10,10,18,,,1009.6,,TRUE,TRUE,,,,,,,,,,,,,,,,3.3,,,,,0.01,,,,,,METAR,815.0
CWXI 231100Z AUTO 25015KT 10/08 RMK AO1 PK WND 24023/1003 SLP182 T00960082 51015,CWXI,2022-10-23T11:00:00Z,51.02,-57.1,9.6,8.2,250,15,,,,1018.2,,TRUE,TRUE,,,,,,,,,,,,,,,,1.5,,,,,,,,,,,METAR,15.0
CWXC 231100Z AUTO 15001KT 01/01 RMK AO1 SLP251 T00130007 51013,CWXC,2022-10-23T11:00:00Z,48.88,-71.03,1.3,0.7,150,1,,,,1025.1,,TRUE,TRUE,,,,,,,,,,,,,,,,1.3,,,,,,,,,,,METAR,306.0
CWXA 231100Z AUTO 00017KT M02/M02 RMK AO1 SLP178 T10151021 53011,CWXA,2022-10-23T11:00:00Z,51.07,-115.07,-1.5,-2.1,0,17,,,,1017.8,,TRUE,TRUE,,,,,,,,,,,,,,,,1.1,,,,,,,,,,,METAR,1303.0
CWWZ 231100Z AUTO 06002KT 12/08 RMK AO1 SLP235 T01180083 53023,CWWZ,2022-10-23T11:00:00Z,43.25,-79.22,11.8,8.3,60,2,,,,1023.5,,TRUE,TRUE,,,,,,,,,,,,,,,,2.3,,,,,,,,,,,METAR,75.0
CWWS 231100Z AUTO 05021KT 03/01 RMK AO1 PK WND 05025/1014 SLP148 T00340010 54000,CWWS,2022-10-23T11:00:00Z,52.82,-97.62,3.4,1.0,50,21,,,,1014.8,,TRUE,TRUE,,,,,,,,,,,,,,,,,,,,,,,,,,,METAR,220.0
CWWL 231100Z AUTO 14008KT 08/05 RMK AO1 SLP122 T00810048 58014,CWWL,2022-10-23T11:00:00Z,53.5,-130.63,8.1,4.8,140,8,,,,1012.2,,TRUE,TRUE,,,,,,,,,,,,,,,,-1.4,,,,,,,,,,,METAR,8.0
CWWK 231100Z AUTO 05002KT 05/04 RMK AO1 SLP156 T00460040 53018,CWWK,2022-10-23T11:00:00Z,49.02,-122.78,4.6,4.0,50,2,,,,1015.6,,TRUE,TRUE,,,,,,,,,,,,,,,,1.8,,,,,,,,,,,METAR,10.0
CWWF 231100Z AUTO 09021G27KT 03/02 RMK AO1 2PAST HR SOG 01 8013 PK WND 09030/1045 SLP038 P0001 T00330015 50002,CWWF,2022-10-23T11:00:00Z,49.7,-103.8,3.3,1.5,90,21,27,,,1003.8,,TRUE,TRUE,,,,,,,,,,,,,,,,0.2,,,,,0.01,,,,,,METAR,583.0
CWWE 231100Z AUTO 36004KT 09/09 RMK AO1 SLP289 T00930088 52007,CWWE,2022-10-23T11:00:00Z,43.98,-64.67,9.3,8.8,360,4,,,,1028.9,,TRUE,TRUE,,,,,,,,,,,,,,,,0.7,,,,,,,,,,,METAR,4.0
CWWB 231100Z AUTO 04007KT 08/06 RMK AO1 SLP237 T00780061 53019,CWWB,2022-10-23T11:00:00Z,43.3,-79.78,7.8,6.1,40,7,,,,1023.7,,TRUE,TRUE,,,,,,,,,,,,,,,,1.9,,,,,,,,,,,METAR,77.0
CWWA 231100Z AUTO 03001KT 05/03 RMK AO1 SLP152 T00530034 52017,CWWA,2022-10-23T11:00:00Z,49.35,-123.18,5.3,3.4,30,1,,,,1015.2,,TRUE,TRUE,,,,,,,,,,,,,,,,1.7,,,,,,,,,,,METAR,172.0
CWVU 231100Z AUTO 12006KT 10/10 RMK AO1 SLP284 T01040104 51010,CWVU,2022-10-23T11:00:00Z,44.28,-66.33,10.4,10.4,120,6,,,,1028.4,,TRUE,TRUE,,,,,,,,,,,,,,,,1.0,,,,,,,,,,,METAR,4.0
CWVT 231100Z AUTO 09005KT M00/M01 RMK AO1 SLP199 T10021013 53008,CWVT,2022-10-23T11:00:00Z,55.83,-108.42,-0.2,-1.3,90,5,,,,1019.9,,TRUE,TRUE,,,,,,,,,,,,,,,,0.8,,,,,,,,,,,METAR,431.0
CWVQ 231100Z AUTO 00000KT 04/04 RMK AO1 SLP258 T00440039 51009,CWVQ,2022-10-23T11:00:00Z,45.42,-73.92,4.4,3.9,0,0,,,,1025.8,,TRUE,TRUE,,,,,,,,,,,,,,,,0.9,,,,,,,,,,,METAR,38.0
CWVP 231100Z AUTO 02005KT M01/M02 RMK AO1 6PAST HR SOG 11 6001 PK WND 02017/1036 SLP048 P0002 T10111017 50029,CWVP,2022-10-23T11:00:00Z,49.63,-109.52,-1.1,-1.7,20,5,,,,1004.8,,TRUE,TRUE,,,,,,,,,,,,,,,,2.9,,,,,0.02,,,,,,METAR,1269.0
CWVN 231100Z AUTO 04018G23KT M00/M01 RMK AO1 6PAST HR 8007 PK WND 04023/1058 SLP027 P0002 T10031006 50050,CWVN,2022-10-23T11:00:00Z,49.07,-107.58,-0.3,-0.6,40,18,23,,,1002.7,,TRUE,TRUE,,,,,,,,,,,,,,,,5.0,,,,,0.02,,,,,,METAR,792.0
CWVI 231100Z AUTO 34004KT M07/M08 RMK AO1 SLP170 T10681075 53009,CWVI,2022-10-23T11:00:00Z,53.52,-112.1,-6.8,-7.5,340,4,,,,1017.0,,TRUE,TRUE,,,,,,,,,,,,,,,,0.9,,,,,,,,,,,METAR,640.0
CWVH 231100Z AUTO 12008KT ////SM OVC002 ///// A////,CWVH,2022-10-23T11:00:00Z,68.9,-133.93,,,120,8,,,,,,TRUE,,,,,,,,OVC,200,,,,,,,,,,,,,,,,,,,METAR,246.0
CWVF 231100Z AUTO 06007KT 09/06 RMK AO1 T00930063,CWVF,2022-10-23T11:00:00Z,49.1,-123.3,9.3,6.3,60,7,,,,,,TRUE,TRUE,,,,,,,,,,,,,,,,,,,,,,,,,,,METAR,13.0
CWUX 231100Z AUTO 12002KT 02/02 RMK AO1 SLP255 T00240018 51015,CWUX,2022-10-23T11:00:00Z,48.3,-70.93,2.4,1.8,120,2,,,,1025.5,,TRUE,TRUE,,,,,,,,,,,,,,,,1.5,,,,,,,,,,,METAR,150.0
CWUW 231100Z AUTO VRB02KT ////SM NCD M05/M07 A2930,CWUW,2022-10-23T11:00:00Z,68.62,-71.12,-5.0,-7.0,0,2,,,29.300198,,,TRUE,,,,,,,,CLR,,,,,,,,,,,,,,,,,,,,METAR,173.0
CWUS 231100Z AUTO 27007KT 05/M03 RMK AO1 SLP140 T00451032 53022,CWUS,2022-10-23T11:00:00Z,49.57,-119.65,4.5,-3.2,270,7,,,,1014.0,,TRUE,TRUE,,,,,,,,,,,,,,,,2.2,,,,,,,,,,,METAR,455.0
CWTY 231100Z AUTO 31003KT 06/05 RMK AO1 SLP268 T00630053 51015,CWTY,2022-10-23T11:00:00Z,46.35,-72.52,6.3,5.3,310,3,,,,1026.8,,TRUE,TRUE,,,,,,,,,,,,,,,,1.5,,,,,,,,,,,METAR,8.0
CWTT 231100Z AUTO 36001KT 04/03 RMK AO1 T00410034,CWTT,2022-10-23T11:00:00Z,45.27,-72.17,4.1,3.4,360,1,,,,,,TRUE,TRUE,,,,,,,,,,,,,,,,,,,,,,,,,,,METAR,210.0
CWTN 231100Z AUTO 28002KT 05/05 RMK AO1 SLP265 T00510047 51015,CWTN,2022-10-23T11:00:00Z,47.07,-70.78,5.1,4.7,280,2,,,,1026.5,,TRUE,TRUE,,,,,,,,,,,,,,,,1.5,,,,,,,,,,,METAR,5.0
CWTG 231100Z AUTO 26008KT 06/05 RMK AO1 SLP245 T00560048 51019,CWTG,2022-10-23T11:00:00Z,49.32,-67.37,5.6,4.8,260,8,,,,1024.5,,TRUE,TRUE,,,,,,,,,,,,,,,,1.9,,,,,,,,,,,METAR,6.0
CWTA 231100Z AUTO 19003KT 11/05 RMK AO1 SLP259 T01110046 51010,CWTA,2022-10-23T11:00:00Z,45.5,-73.58,11.1,4.6,190,3,,,,1025.9,,TRUE,TRUE,,,,,,,,,,,,,,,,1.0,,,,,,,,,,,METAR,71.0
CWST 231100Z AUTO 03003KT 07/04 RMK AO1 SLP254 T00730038 51014,CWST,2022-10-23T11:00:00Z,47.35,-70.02,7.3,3.8,30,3,,,,1025.4,,TRUE,TRUE,,,,,,,,,,,,,,,,1.4,,,,,,,,,,,METAR,31.0
CWSS 231100Z AUTO 00000KT 06/06 RMK AO1 SLP284 T00560055 53011,CWSS,2022-10-23T11:00:00Z,45.2,-67.25,5.6,5.5,0,0,,,,1028.4,,TRUE,TRUE,,,,,,,,,,,,,,,,1.1,,,,,,,,,,,METAR,27.0
CWSR 231100Z AUTO 06003KT M00/M03 RMK AO1 SLP154 T10031033 53007,CWSR,2022-10-23T11:00:00Z,53.37,-107.55,-0.3,-3.3,60,3,,,,1015.4,,TRUE,TRUE,,,,,,,,,,,,,,,,0.7,,,,,,,,,,,METAR,589.0
CWSP 231100Z AUTO 29001KT 08/03 RMK AO1 SLP152 T00820033 53016,CWSP,2022-10-23T11:00:00Z,48.38,-123.92,8.2,3.3,290,1,,,,1015.2,,TRUE,TRUE,,,,,,,,,,,,,,,,1.6,,,,,,,,,,,METAR,2.0
CWSL 231100Z AUTO 17003KT M01/M03 RMK AO1 SLP146 T10131027 52025,CWSL,2022-10-23T11:00:00Z,50.7,-119.28,-1.3,-2.7,170,3,,,,1014.6,,TRUE,TRUE,,,,,,,,,,,,,,,,2.5,,,,,,,,,,,METAR,353.0
CWSK 231100Z AUTO 00000KT 01/00 RMK AO1 SLP158 T00060000 51018,CWSK,2022-10-23T11:00:00Z,49.78,-123.17,0.6,0.0,0,0,,,,1015.8,,TRUE,TRUE,,,,,,,,,,,,,,,,1.8,,,,,,,,,,,METAR,59.0
CWSG 231100Z AUTO 09/04 RMK AO1 SLP251 T00890038 53019,CWSG,2022-10-23T11:00:00Z,49.12,-66.65,8.9,3.8,,,,,,1025.1,,TRUE,TRUE,,,,,,,,,,,,,,,,1.9,,,,,,,,,,,METAR,5.0
CWSF 231100Z AUTO 18007KT 10/05 RMK AO1 SLP241 T00950048 51020,CWSF,2022-10-23T11:00:00Z,49.25,-65.32,9.5,4.8,180,7,,,,1024.1,,TRUE,TRUE,,,,,,,,,,,,,,,,2.0,,,,,,,,,,,METAR,15.0
CWSD 231100Z AUTO 21006KT 09/08 RMK AO1 SLP276 T00930082 53013,CWSD,2022-10-23T11:00:00Z,46.43,-63.85,9.3,8.2,210,6,,,,1027.6,,TRUE,TRUE,,,,,,,,,,,,,,,,1.3,,,,,,,,,,,METAR,12.0
CWRZ 231100Z AUTO 33007KT 10/05 RMK AO1 SLP248 T01000048 51013,CWRZ,2022-10-23T11:00:00Z,48.42,-64.32,10.0,4.8,330,7,,,,1024.8,,TRUE,TRUE,,,,,,,,,,,,,,,,1.3,,,,,,,,,,,METAR,16.0
CWRY 231100Z AUTO 36020KT 01/M01 RMK AO1 3PAST HR 3006 PK WND 35027/1048 SLP088 P0001 T00051006 50018,CWRY,2022-10-23T11:00:00Z,49.12,-112.05,0.5,-0.6,360,20,,,,1008.8,,TRUE,TRUE,,,,,,,,,,,,,,,,1.8,,,,,0.01,,,,,,METAR,1048.0
CWRX 231100Z AUTO ///// ////SM BKN011 BKN049 OVC055 M03/M04 A2943,CWRX,2022-10-23T11:00:00Z,69.07,-79.07,-3.0,-4.0,,,,,29.430119,,,TRUE,,,,,,,,BKN,1100,BKN,4900,OVC,5500,,,,,,,,,,,,,,,METAR,39.0
CWRU 231100Z AUTO 02010KT 08/ RMK AO1 SLP159 T0079 53013,CWRU,2022-10-23T11:00:00Z,50.12,-127.93,7.9,,20,10,,,,1015.9,,TRUE,TRUE,,,,,,,,,,,,,,,,1.3,,,,,,,,,,,METAR,76.0
CWRT 231100Z AUTO 00000KT M03/M03 RMK AO1 SLP132 T10271030 53013,CWRT,2022-10-23T11:00:00Z,49.62,-114.47,-2.7,-3.0,0,0,,,,1013.2,,TRUE,TRUE,,,,,,,,,,,,,,,,1.3,,,,,,,,,,,METAR,1311.0
CWRO 231100Z AUTO 16019KT 09/ RMK AO1 PK WND 16022/1058 SLP101 T0093 58026,CWRO,2022-10-23T11:00:00Z,54.17,-131.67,9.3,,160,19,,,,1010.1,,TRUE,TRUE,,,,,,,,,,,,,,,,-2.6,,,,,,,,,,,METAR,7.0
CWRN 231100Z AUTO 21003KT 12/12 RMK AO1 SLP289 T01220121 53009,CWRN,2022-10-23T11:00:00Z,45.35,-60.98,12.2,12.1,210,3,,,,1028.9,,TRUE,TRUE,,,,,,,,,,,,,,,,0.9,,,,,,,,,,,METAR,8.0
CWRM 231100Z AUTO 32005KT M00/00 RMK AO1 1PAST HR 2012 SLP144 P0000 T10010000 50001,CWRM,2022-10-23T11:00:00Z,52.42,-114.92,-0.1,0.0,320,5,,,,1014.4,,TRUE,TRUE,,,,,,,,,,,,,,,,0.1,,,,,0.005,,,,,,METAR,986.0
CWRK 231100Z AUTO 00000KT 01/01 RMK AO1 SLP251 T00060006 53015,CWRK,2022-10-23T11:00:00Z,45.07,-77.87,0.6,0.6,0,0,,,,1025.1,,TRUE,TRUE,,,,,,,,,,,,,,,,1.5,,,,,,,,,,,METAR,328.0
CWRJ 231100Z AUTO 04012KT 01/M02 RMK AO1 SLP112 T00121016 51012,CWRJ,2022-10-23T11:00:00Z,51.57,-107.92,1.2,-1.6,40,12,,,,1011.2,,TRUE,TRUE,,,,,,,,,,,,,,,,1.2,,,,,,,,,,,METAR,586.0
CWRH 231100Z AUTO 25038G49KT ////SM ////// ///// A2940,CWRH,2022-10-23T11:00:00Z,61.58,-64.65,,,250,38,49,,29.40059,,,TRUE,,,,,,,,,,,,,,,,,,,,,,,,,,,,METAR,343.0
CWRA 231100Z AUTO 00024KT 12/11 RMK AO1 SLP269 T01220112 55005,CWRA,2022-10-23T11:00:00Z,46.65,-53.07,12.2,11.2,0,24,,,,1026.9,,TRUE,TRUE,,,,,,,,,,,,,,,,-0.5,,,,,,,,,,,METAR,4.0
CWQV 231100Z AUTO 07003KT 06/05 RMK AO1 T00590047,CWQV,2022-10-23T11:00:00Z,48.27,-70.12,5.9,4.7,70,3,,,,,,TRUE,TRUE,,,,,,,,,,,,,,,,,,,,,,,,,,,METAR,4.0
CWQS 231100Z AUTO 16021KT 11/07 RMK AO1 PK WND 16025/1052 SLP090 T01050070 58034,CWQS,2022-10-23T11:00:00Z,53.32,-132.77,10.5,7.0,160,21,,,,1009.0,,TRUE,TRUE,,,,,,,,,,,,,,,,-3.4,,,,,,,,,,,METAR,10.0
CWQR 231100Z AUTO 31006KT 06/04 RMK AO1 T00590036,CWQR,2022-10-23T11:00:00Z,50.22,-64.22,5.9,3.6,310,6,,,,,,TRUE,TRUE,,,,,,,,,,,,,,,,,,,,,,,,,,,METAR,9.0
CWQP 231100Z AUTO 13013KT 13/09 RMK AO1 SLP252 T01310088 53018,CWQP,2022-10-23T11:00:00Z,43.83,-77.15,13.1,8.8,130,13,,,,1025.2,,TRUE,TRUE,,,,,,,,,,,,,,,,1.8,,,,,,,,,,,METAR,77.0
CWQO 231100Z AUTO 24012KT 08/05 RMK AO1 T00750053,CWQO,2022-10-23T11:00:00Z,48.42,-68.9,7.5,5.3,240,12,,,,,,TRUE,TRUE,,,,,,,,,,,,,,,,,,,,,,,,,,,METAR,7.0
CWQK 231100Z AUTO 35001KT 08/ RMK AO1 SLP151 T0076 53016,CWQK,2022-10-23T11:00:00Z,48.3,-123.53,7.6,,350,1,,,,1015.1,,TRUE,TRUE,,,,,,,,,,,,,,,,1.6,,,,,,,,,,,METAR,5.0
CWQH 231100Z AUTO 00000KT 03/02 RMK AO1 SLP283 T00290022 53014,CWQH,2022-10-23T11:00:00Z,45.37,-71.82,2.9,2.2,0,0,,,,1028.3,,TRUE,TRUE,,,,,,,,,,,,,,,,1.4,,,,,,,,,,,METAR,181.0
CWPZ 231100Z AUTO 00000KT M09/M11 RMK AO1 SLP166 T10911106 50000,CWPZ,2022-10-23T11:00:00Z,54.38,-125.97,-9.1,-10.6,0,0,,,,1016.6,,TRUE,TRUE,,,,,,,,,,,,,,,,0.0,,,,,,,,,,,METAR,715.0
CWPX 231100Z AUTO 31023KT ////SM //// FEW003 M18/M20 A2987,CWPX,2022-10-23T11:00:00Z,69.03,-107.82,-18.0,-20.0,310,23,,,29.870079,,,TRUE,,,,,,,,FEW,300,,,,,,,,,,,,,,,,,,,METAR,163.0
CWPR 231100Z AUTO 34001KT M00/M00 RMK AO1 SOG 01 3021 SLP158 T10031004,CWPR,2022-10-23T11:00:00Z,49.47,-120.52,-0.3,-0.4,340,1,,,,1015.8,,TRUE,TRUE,,,,,,,,,,,,,,,,,,,,,,,,,,,METAR,703.0
CWPO 231100Z AUTO 05016G21KT 06/05 RMK AO1 PK WND 05021/1047 SLP053 T00630049 58010,CWPO,2022-10-23T11:00:00Z,49.2,-98.9,6.3,4.9,50,16,21,,,1005.3,,TRUE,TRUE,,,,,,,,,,,,,,,,-1.0,,,,,,,,,,,METAR,471.0
CWPK 231100Z AUTO 06002KT 04/03 RMK AO1 SLP248 T00430034 53014,CWPK,2022-10-23T11:00:00Z,47.92,-74.62,4.3,3.4,60,2,,,,1024.8,,TRUE,TRUE,,,,,,,,,,,,,,,,1.4,,,,,,,,,,,METAR,443.0
CWPE 231100Z AUTO 31002KT 08/07 RMK AO1 SLP284 T00750072 51013,CWPE,2022-10-23T11:00:00Z,45.07,-66.47,7.5,7.2,310,2,,,,1028.4,,TRUE,TRUE,,,,,,,,,,,,,,,,1.3,,,,,,,,,,,METAR,9.0
CWPD 231100Z AUTO 21007KT 01/01 RMK AO1 SLP265 T00050005 51009,CWPD,2022-10-23T11:00:00Z,47.57,-71.22,0.5,0.5,210,7,,,,1026.5,,TRUE,TRUE,,,,,,,,,,,,,,,,0.9,,,,,,,,,,,METAR,795.0
CWPC 231100Z AUTO 16006KT 14/06 RMK AO1 SLP247 T01370060 51015,CWPC,2022-10-23T11:00:00Z,42.87,-79.25,13.7,6.0,160,6,,,,1024.7,,TRUE,TRUE,,,,,,,,,,,,,,,,1.5,,,,,,,,,,,METAR,174.0
CWOY 231100Z AUTO 09008KT 02/M04 RMK AO1 SLP125 T00221042 53004,CWOY,2022-10-23T11:00:00Z,51.77,-104.2,2.2,-4.2,90,8,,,,1012.5,,TRUE,TRUE,,,,,,,,,,,,,,,,0.4,,,,,,,,,,,METAR,557.0
CWOE 231100Z AUTO 01014KT 01/M00 RMK AO1 6PAST HR SOG 01 3002 PK WND 02018/1031 SLP055 P0006 T00081001 50070,CWOE,2022-10-23T11:00:00Z,49.12,-110.47,0.8,-0.1,10,14,,,,1005.5,,TRUE,TRUE,,,,,,,,,,,,,,,,7.0,,,,,0.06,,,,,,METAR,931.0
CWOD 231100Z AUTO 30002KT 03/02 RMK AO1 SLP238 T00270022 51013,CWOD,2022-10-23T11:00:00Z,48.85,-72.55,2.7,2.2,300,2,,,,1023.8,,TRUE,TRUE,,,,,,,,,,,,,,,,1.3,,,,,,,,,,,METAR,150.0
CWOC 231100Z AUTO 28001KT 07/04 RMK AO1 SLP260 T00690044 53017,CWOC,2022-10-23T11:00:00Z,48.02,-65.32,6.9,4.4,280,1,,,,1026.0,,TRUE,TRUE,,,,,,,,,,,,,,,,1.7,,,,,,,,,,,METAR,42.0
CWNZ 231100Z AUTO 11004KT 03/03 RMK AO1 SLP149 T00270026 51004,CWNZ,2022-10-23T11:00:00Z,49.75,-84.17,2.7,2.6,110,4,,,,1014.9,,TRUE,TRUE,,,,,,,,,,,,,,,,0.4,,,,,,,,,,,METAR,261.0
CWNQ 231100Z AUTO 06002KT 05/04 RMK AO1 SLP262 T00480039 51014,CWNQ,2022-10-23T11:00:00Z,46.22,-72.65,4.8,3.9,60,2,,,,1026.2,,TRUE,TRUE,,,,,,,,,,,,,,,,1.4,,,,,,,,,,,METAR,9.0
CWNP 231100Z AUTO 10003KT 03/02 RMK AO1 SLP122 T00310017 53020,CWNP,2022-10-23T11:00:00Z,50.27,-117.82,3.1,1.7,100,3,,,,1012.2,,TRUE,TRUE,,,,,,,,,,,,,,,,2.0,,,,,,,,,,,METAR,517.0
CWNM 231100Z AUTO 19003KT 04/04 RMK AO1 SLP121 T00420042 53021,CWNM,2022-10-23T11:00:00Z,49.5,-117.3,4.2,4.2,190,3,,,,1012.1,,TRUE,TRUE,,,,,,,,,,,,,,,,2.1,,,,,,,,,,,METAR,533.0
CWNK 231100Z AUTO 02011G16KT 07/05 RMK AO1 PK WND 02017/1017 SLP062 T00680047 51001,CWNK,2022-10-23T11:00:00Z,49.5,-98.03,6.8,4.7,20,11,16,,,1006.2,,TRUE,TRUE,,,,,,,,,,,,,,,,0.1,,,,,,,,,,,METAR,271.0
CWNH 231100Z AUTO 17004KT 10/04 RMK AO1 SLP257 T00970035 53013,CWNH,2022-10-23T11:00:00Z,47.8,-69.53,9.7,3.5,170,4,,,,1025.7,,TRUE,TRUE,,,,,,,,,,,,,,,,1.3,,,,,,,,,,,METAR,147.0
CWNE 231100Z AUTO 25014KT 11/09 RMK AO1 SLP263 T01140092 51013,CWNE,2022-10-23T11:00:00Z,47.07,-64.0,11.4,9.2,250,14,,,,1026.3,,TRUE,TRUE,,,,,,,,,,,,,,,,1.3,,,,,,,,,,,METAR,5.0
CWNC 231100Z AUTO 07004KT 10/07 RMK AO1 SLP241 T01040071 53016,CWNC,2022-10-23T11:00:00Z,43.95,-78.17,10.4,7.1,70,4,,,,1024.1,,TRUE,TRUE,,,,,,,,,,,,,,,,1.6,,,,,,,,,,,METAR,71.0
CWMT 231100Z AUTO 16002KT M06/M08 RMK AO1 SLP206 T10631082 51001,CWMT,2022-10-23T11:00:00Z,63.13,-117.25,-6.3,-8.2,160,2,,,,1020.6,,TRUE,TRUE,,,,,,,,,,,,,,,,0.1,,,,,,,,,,,SPECI,274.0
CWMQ 231100Z AUTO 03016G21KT 02/02 RMK AO1 0PAST HR 4000 PK WND 03022/1007 SLP070 P0004 T00150016 50043,CWMQ,2022-10-23T11:00:00Z,49.9,-109.47,1.5,1.6,30,16,21,,,1007.0,,TRUE,TRUE,,,,,,,,,,,,,,,,4.3,,,,,0.04,,,,,,METAR,767.0
CWMM 231100Z AUTO 35001KT 05/05 RMK AO1 SLP158 T00450050 53019,CWMM,2022-10-23T11:00:00Z,49.22,-122.68,4.5,5.0,350,1,,,,1015.8,,TRUE,TRUE,,,,,,,,,,,,,,,,1.9,,,,,,,,,,,METAR,2.0
CWMJ 231100Z AUTO 19001KT 05/04 RMK AO1 SLP248 T00480039 53015,CWMJ,2022-10-23T11:00:00Z,46.27,-76.0,4.8,3.9,190,1,,,,1024.8,,TRUE,TRUE,,,,,,,,,,,,,,,,1.5,,,,,,,,,,,METAR,198.0
CWME 231100Z AUTO 16002KT 07/05 RMK AO1 SLP158 T00650048 53010,CWME,2022-10-23T11:00:00Z,52.18,-127.47,6.5,4.8,160,2,,,,1015.8,,TRUE,TRUE,,,,,,,,,,,,,,,,1.0,,,,,,,,,,,METAR,23.0
CWLY 231100Z AUTO 00000KT 1/4SM FG VV002 02/02 A3000 RMK SLP166,CWLY,2022-10-23T11:00:00Z,50.22,-121.58,2.0,2.0,0,0,,0.25,30.0,1016.6,,TRUE,,,,,,,FG,OVX,0,,,,,,,LIFR,,,,,,,,,,,200,METAR,228.0
CWLX 231100Z AUTO ///// ////SM ////// M05/M09 A2943,CWLX,2022-10-23T11:00:00Z,68.9,-75.15,-5.0,-9.0,,,,,29.430119,,,TRUE,,,,,,,,,,,,,,,,,,,,,,,,,,,,METAR,129.0
CWLS 231100Z AUTO 16007KT 11/07 RMK AO1 SLP226 T01130070 53015,CWLS,2022-10-23T11:00:00Z,43.97,-80.75,11.3,7.0,160,7,,,,1022.6,,TRUE,TRUE,,,,,,,,,,,,,,,,1.5,,,,,,,,,,,METAR,413.0
CWLM 231100Z AUTO 02005KT 06/04 RMK AO1 SLP150 T00640042 51017,CWLM,2022-10-23T11:00:00Z,48.42,-123.32,6.4,4.2,20,5,,,,1015.0,,TRUE,TRUE,,,,,,,,,,,,,,,,1.7,,,,,,,,,,,METAR,62.0
CWLI 231100Z AUTO 11007KT ////SM OVC028 M09/M11 A3016,CWLI,2022-10-23T11:00:00Z,69.6,-130.9,-9.0,-11.0,110,7,,,30.159449,,,TRUE,,,,,,,,OVC,2800,,,,,,,,,,,,,,,,,,,METAR,92.0
CWLE 231100Z AUTO 06013G18KT 02/01 RMK AO1 7PAST HR 1004 PK WND 07020/1001 SLP094 P0003 T00220012 50042,CWLE,2022-10-23T11:00:00Z,50.95,-107.15,2.2,1.2,60,13,18,,,1009.4,,TRUE,TRUE,,,,,,,,,,,,,,,,4.2,,,,,0.03,,,,,,METAR,666.0
CWLC 231100Z AUTO 12018KT 07/03 RMK AO1 PK WND 12020/1059 T00720033,CWLC,2022-10-23T11:00:00Z,54.3,-130.62,7.2,3.3,120,18,,,,,,TRUE,TRUE,,,,,,,,,,,,,,,,,,,,,,,,,,,METAR,27.0
CWLB 231100Z AUTO 00000KT RMK AO1 53009,CWLB,2022-10-23T11:00:00Z,54.77,-112.02,,,0,0,,,,,,TRUE,TRUE,,,,,,,,,,,,,,,,0.9,,,,,,,,,,,METAR,561.0
CWKX 231100Z AUTO 00000KT M01/M01 RMK AO1 SLP124 T10111013 57009,CWKX,2022-10-23T11:00:00Z,58.43,-130.02,-1.1,-1.3,0,0,,,,1012.4,,TRUE,TRUE,,,,,,,,,,,,,,,,-0.9,,,,,,,,,,,METAR,807.0
CWKP 231100Z AUTO 25018KT ////SM BKN013 OVC017 M11/M13 A3002,CWKP,2022-10-23T11:00:00Z,69.67,-121.67,-11.0,-13.0,250,18,,,30.02067,,,TRUE,,,,,,,,BKN,1300,OVC,1700,,,,,,,,,,,,,,,,,METAR,322.0
CWKO 231100Z AUTO 06006KT 02/01 RMK AO1 5PAST HR 5013 PK WND 04017/1006 SLP030 P0002 T00180009 50038,CWKO,2022-10-23T11:00:00Z,49.17,-105.97,1.8,0.9,60,6,,,,1003.0,,TRUE,TRUE,,,,,,,,,,,,,,,,3.8,,,,,0.02,,,,,,METAR,914.0
CWKK 231100Z AUTO 10010KT 08/ RMK AO1 SLP114 T0084 53002,CWKK,2022-10-23T11:00:00Z,49.72,-88.33,8.4,,100,10,,,,1011.4,,TRUE,TRUE,,,,,,,,,,,,,,,,0.2,,,,,,,,,,,METAR,259.0
CWKH 231100Z AUTO 05/02 RMK AO1 SLP140 T00530019 52016,CWKH,2022-10-23T11:00:00Z,48.57,-123.55,5.3,1.9,,,,,,1014.0,,TRUE,TRUE,,,,,,,,,,,,,,,,1.6,,,,,,,,,,,METAR,327.0
CWKG 231100Z AUTO 00000KT 03/03 RMK AO1 SLP294 T00330029 53006,CWKG,2022-10-23T11:00:00Z,44.43,-65.2,3.3,2.9,0,0,,,,1029.4,,TRUE,TRUE,,,,,,,,,,,,,,,,0.6,,,,,,,,,,,METAR,154.0
CWJX 231100Z AUTO 02013KT 02/M00 RMK AO1 5PAST HR 3007 PK WND 03017/1025 SLP096 P0002 T00191001 50021,CWJX,2022-10-23T11:00:00Z,50.88,-109.5,1.9,-0.1,20,13,,,,1009.6,,TRUE,TRUE,,,,,,,,,,,,,,,,2.1,,,,,0.02,,,,,,METAR,671.0
CWJW 231100Z AUTO 35004KT 01/M03 RMK AO1 SLP153 T00101027 53014,CWJW,2022-10-23T11:00:00Z,52.93,-118.03,1.0,-2.7,350,4,,,,1015.3,,TRUE,TRUE,,,,,,,,,,,,,,,,1.4,,,,,,,,,,,METAR,1022.0
CWJV 231100Z AUTO 08002KT M00/M02 RMK AO1 SLP139 T10041019 53022,CWJV,2022-10-23T11:00:00Z,50.22,-119.18,-0.4,-1.9,80,2,,,,1013.9,,TRUE,TRUE,,,,,,,,,,,,,,,,2.2,,,,,,,,,,,METAR,487.0
CWJU 231100Z AUTO 12007KT 08/05 RMK AO1 SLP082 T00800051 58040,CWJU,2022-10-23T11:00:00Z,54.25,-133.07,8.0,5.1,120,7,,,,1008.2,,TRUE,TRUE,,,,,,,,,,,,,,,,-4.0,,,,,,,,,,,METAR,47.0
CWJR 231100Z AUTO 14001KT 04/03 RMK AO1 SLP117 T00360030 53019,CWJR,2022-10-23T11:00:00Z,49.03,-116.5,3.6,3.0,140,1,,,,1011.7,,TRUE,TRUE,,,,,,,,,,,,,,,,1.9,,,,,,,,,,,METAR,642.0
CWJI 231100Z AUTO 05017G22KT 01/01 RMK AO1 9PAST HR 8006 PK WND 06023/1001 SLP043 P0004 T00060005 50080,CWJI,2022-10-23T11:00:00Z,49.72,-105.93,0.6,0.5,50,17,22,,,1004.3,,TRUE,TRUE,,,,,,,,,,,,,,,,8.0,,,,,0.04,,,,,,METAR,724.0
CWJH 231100Z AUTO 07004KT 01/M02 RMK AO1 SLP201 T00091016 52012,CWJH,2022-10-23T11:00:00Z,56.32,-103.27,0.9,-1.6,70,4,,,,1020.1,,TRUE,TRUE,,,,,,,,,,,,,,,,1.2,,,,,,,,,,,METAR,345.0
CWJD 231100Z AUTO 05009G17KT 05/M01 RMK AO1 PK WND 05019/1025 SLP153 T00511007 54000,CWJD,2022-10-23T11:00:00Z,53.18,-99.27,5.1,-0.7,50,9,17,,,1015.3,,TRUE,TRUE,,,,,,,,,,,,,,,,,,,,,,,,,,,METAR,222.0
CWJC 231100Z AUTO 32012KT M08/M10 RMK AO1 SOG 09 1020 SLP226 T10841102,CWJC,2022-10-23T11:00:00Z,61.13,-100.9,-8.4,-10.2,320,12,,,,1022.6,,TRUE,TRUE,,,,,,,,,,,,,,,,,,,,,,,,,,,METAR,340.0
CWJB 231100Z AUTO 32002KT 05/04 RMK AO1 T00530042,CWJB,2022-10-23T11:00:00Z,46.78,-71.28,5.3,4.2,320,2,,,,,,TRUE,TRUE,,,,,,,,,,,,,,,,,,,,,,,,,,,METAR,90.0
CWIZ 231100Z AUTO 16007KT 09/04 RMK AO1 T00890043,CWIZ,2022-10-23T11:00:00Z,45.28,-73.33,8.9,4.3,160,7,,,,,,TRUE,TRUE,,,,,,,,,,,,,,,,,,,,,,,,,,,METAR,45.0
CWIW 231100Z AUTO 07014KT 03/M02 RMK AO1 PK WND 07019/1036 SLP123 T00261015 53009,CWIW,2022-10-23T11:00:00Z,51.67,-105.4,2.6,-1.5,70,14,,,,1012.3,,TRUE,TRUE,,,,,,,,,,,,,,,,0.9,,,,,,,,,,,METAR,524.0
CWIT 231100Z AUTO 00000KT 02/01 RMK AO1 SLP258 T00150014 53013,CWIT,2022-10-23T11:00:00Z,45.17,-73.67,1.5,1.4,0,0,,,,1025.8,,TRUE,TRUE,,,,,,,,,,,,,,,,1.3,,,,,,,,,,,METAR,53.0
CWIS 231100Z AUTO 18003KT 05/03 RMK AO1 SLP274 T00540031 51012,CWIS,2022-10-23T11:00:00Z,47.28,-70.63,5.4,3.1,180,3,,,,1027.4,,TRUE,TRUE,,,,,,,,,,,,,,,,1.2,,,,,,,,,,,METAR,720.0
CWIP 231100Z AUTO 25003KT 07/05 RMK AO1 T00730053,CWIP,2022-10-23T11:00:00Z,50.17,-66.43,7.3,5.3,250,3,,,,,,TRUE,TRUE,,,,,,,,,,,,,,,,,,,,,,,,,,,METAR,27.0
CWIL 231100Z AUTO ///// ////SM FEW004 OVC012 ///// A////,CWIL,2022-10-23T11:00:00Z,68.32,-100.07,,,,,,,,,,TRUE,,,,,,,,FEW,400,OVC,1200,,,,,,,,,,,,,,,,,METAR,28.0
CWIK 231100Z AUTO 06014G19KT M00/01 RMK AO1 2PAST HR 5004 PK WND 05024/1011 SLP086 P0001 T10040005 50036,CWIK,2022-10-23T11:00:00Z,50.37,-102.58,-0.4,0.5,60,14,19,,,1008.6,,TRUE,TRUE,,,,,,,,,,,,,,,,3.6,,,,,0.01,,,,,,SPECI,597.0
CWIJ 231100Z AUTO 33005KT M13/M15 RMK AO1 SOG 07 3007 SLP218 T11261146,CWIJ,2022-10-23T11:00:00Z,65.77,-111.23,-12.6,-14.6,330,5,,,,1021.8,,TRUE,TRUE,,,,,,,,,,,,,,,,,,,,,,,,,,,METAR,490.0
CWIG 231100Z AUTO 19010KT RMK AO1,CWIG,2022-10-23T11:00:00Z,47.07,-70.53,,,190,10,,,,,,TRUE,TRUE,,,,,,,,,,,,,,,,,,,,,,,,,,,METAR,12.0
CWID 231100Z AUTO 27001KT M09/M10 RMK AO1 SLP210 T10891101 56001,CWID,2022-10-23T11:00:00Z,61.32,-117.6,-8.9,-10.1,270,1,,,,1021.0,,TRUE,TRUE,,,,,,,,,,,,,,,,-0.1,,,,,,,,,,,METAR,160.0
CWHV 231100Z AUTO 18002KT 02/M00 RMK AO1 SLP274 T00161003 50011,CWHV,2022-10-23T11:00:00Z,46.2,-70.78,1.6,-0.3,180,2,,,,1027.4,,TRUE,TRUE,,,,,,,,,,,,,,,,1.1,,,,,,,,,,,METAR,227.0
CWHT 231100Z AUTO 30003KT M01/M07 RMK AO1 SLP098 T10071072 58009,CWHT,2022-10-23T11:00:00Z,60.77,-137.58,-0.7,-7.2,300,3,,,,1009.8,,TRUE,TRUE,,,,,,,,,,,,,,,,-0.9,,,,,,,,,,,METAR,601.0
CWHQ 231100Z AUTO 34001KT M00/M00 RMK AO1 T10041001,CWHQ,2022-10-23T11:00:00Z,46.68,-71.97,-0.4,-0.1,340,1,,,,,,TRUE,TRUE,,,,,,,,,,,,,,,,,,,,,,,,,,,METAR,56.0
CWHO 231100Z AUTO 00026KT 07/02 RMK AO1 SLP125 T00730017 51030,CWHO,2022-10-23T11:00:00Z,55.45,-60.22,7.3,1.7,0,26,,,,1012.5,,TRUE,TRUE,,,,,,,,,,,,,,,,3.0,,,,,,,,,,,METAR,16.0
CWHL 231100Z AUTO 12009KT 07/03 RMK AO1 SLP119 T00720026 58011,CWHL,2022-10-23T11:00:00Z,54.17,-130.35,7.2,2.6,120,9,,,,1011.9,,TRUE,TRUE,,,,,,,,,,,,,,,,-1.1,,,,,,,,,,,METAR,5.0
CWHI 231100Z AUTO 33010KT 01/M00 RMK AO1 4PAST HR M P0002 T00071001 50017,CWHI,2022-10-23T11:00:00Z,51.7,-113.22,0.7,-0.1,330,10,,,,,,TRUE,TRUE,,,,,,,,,,,,,,,,1.7,,,,,0.02,,,,,,METAR,906.0
CWGY 231100Z AUTO 32004KT 01/M02 RMK AO1 SLP127 T00101023 52011,CWGY,2022-10-23T11:00:00Z,51.67,-110.2,1.0,-2.3,320,4,,,,1012.7,,TRUE,TRUE,,,,,,,,,,,,,,,,1.1,,,,,,,,,,,METAR,709.0
CWGW 231100Z AUTO 05001KT M00/M02 RMK AO1 SLP126 T10011019 53013,CWGW,2022-10-23T11:00:00Z,49.75,-114.9,-0.1,-1.9,50,1,,,,1012.6,,TRUE,TRUE,,,,,,,,,,,,,,,,1.3,,,,,,,,,,,METAR,1137.0
CWGT 231100Z AUTO 31014KT 09/04 RMK AO1 PK WND 31017/1012 SLP155 T00940044 52018,CWGT,2022-10-23T11:00:00Z,49.48,-124.43,9.4,4.4,310,14,,,,1015.5,,TRUE,TRUE,,,,,,,,,,,,,,,,1.8,,,,,,,,,,,METAR,5.0
CWGR 231100Z AUTO 24010KT 11/09 RMK AO1 SLP262 T01090087 52013,CWGR,2022-10-23T11:00:00Z,47.42,-61.77,10.9,8.7,240,10,,,,1026.2,,TRUE,TRUE,,,,,,,,,,,,,,,,1.3,,,,,,,,,,,METAR,4.0
CWGM 231100Z AUTO 01007KT M02/M02 RMK AO1 1PAST HR SOG 32 3013 SLP124 P0004 T10161024 50042,CWGM,2022-10-23T11:00:00Z,49.13,-113.8,-1.6,-2.4,10,7,,,,1012.4,,TRUE,TRUE,,,,,,,,,,,,,,,,4.2,,,,,0.04,,,,,,METAR,1292.0
CWGL 231100Z AUTO 15005KT 12/06 RMK AO1 SLP216 T01190059 53010,CWGL,2022-10-23T11:00:00Z,44.53,-79.22,11.9,5.9,150,5,,,,1021.6,,TRUE,TRUE,,,,,,,,,,,,,,,,1.0,,,,,,,,,,,METAR,220.0
CWGH 231100Z AUTO 20002KT 08/04 RMK AO1 SLP254 T00820041 53012,CWGH,2022-10-23T11:00:00Z,44.42,-75.85,8.2,4.1,200,2,,,,1025.4,,TRUE,TRUE,,,,,,,,,,,,,,,,1.2,,,,,,,,,,,METAR,76.0
CWGD 231100Z AUTO 14007KT 13/09 RMK AO1 SLP208 T01280086 52014,CWGD,2022-10-23T11:00:00Z,43.77,-81.72,12.8,8.6,140,7,,,,1020.8,,TRUE,TRUE,,,,,,,,,,,,,,,,1.4,,,,,,,,,,,METAR,214.0
CWGB 231100Z AUTO 23012KT 09/ RMK AO1 SLP148 T0089 51016,CWGB,2022-10-23T11:00:00Z,49.35,-124.13,8.9,,230,12,,,,1014.8,,TRUE,TRUE,,,,,,,,,,,,,,,,1.6,,,,,,,,,,,METAR,6.0
CWFQ 231100Z AUTO 17004KT 12/02 RMK AO1 SLP266 T01180020 53011,CWFQ,2022-10-23T11:00:00Z,45.03,-72.85,11.8,2.0,170,4,,,,1026.6,,TRUE,TRUE,,,,,,,,,,,,,,,,1.1,,,,,,,,,,,METAR,190.0
CWFJ 231100Z AUTO 34012G18KT M01/M01 RMK AO1 2PAST HR M PK WND 33019/1046 P0001 T10091011 50019,CWFJ,2022-10-23T11:00:00Z,49.2,-113.27,-0.9,-1.1,340,12,18,,,,,TRUE,TRUE,,,,,,,,,,,,,,,,1.9,,,,,0.01,,,,,,METAR,1142.0
CWFF 231100Z AUTO 06006KT M00/M05 RMK AO1 SLP149 T10041053 53007,CWFF,2022-10-23T11:00:00Z,52.82,-104.6,-0.4,-5.3,60,6,,,,1014.9,,TRUE,TRUE,,,,,,,,,,,,,,,,0.7,,,,,,,,,,,METAR,482.0
CWFD 231100Z AUTO ///// ////SM OVC002 M05/M05 A2913,CWFD,2022-10-23T11:00:00Z,66.58,-61.58,-5.0,-5.0,,,,,29.128937,,,TRUE,,,,,,,,OVC,200,,,,,,,,,,,,,,,,,,,METAR,375.0
CWEZ 231100Z AUTO 31002KT 09/07 RMK AO1 SLP145 T00900066 51016,CWEZ,2022-10-23T11:00:00Z,48.78,-123.05,9.0,6.6,310,2,,,,1014.5,,TRUE,TRUE,,,,,,,,,,,,,,,,1.6,,,,,,,,,,,METAR,23.0
CWEW 231100Z AUTO 34001KT 03/03 RMK AO1 SLP264 T00320027 51010,CWEW,2022-10-23T11:00:00Z,45.82,-73.43,3.2,2.7,340,1,,,,1026.4,,TRUE,TRUE,,,,,,,,,,,,,,,,1.0,,,,,,,,,,,METAR,17.0
CWEU 231100Z 03005KT 15SM IC FEW100 M22/M27 A2967 RMK AC1 AC TR SLP064,CWEU,2022-10-23T11:00:00Z,80.0,-85.93,-22.0,-27.0,30,5,,15.0,29.66929,1006.4,,,,,,,,,IC,FEW,10000,,,,,,,VFR,,,,,,,,,,,,METAR,2.0
CWER 231100Z AUTO 22007KT RMK AO1,CWER,2022-10-23T11:00:00Z,47.0,-70.82,,,220,7,,,,,,TRUE,TRUE,,,,,,,,,,,,,,,,,,,,,,,,,,,METAR,4.0
CWEQ 231100Z AUTO 04013KT 02/M01 RMK AO1 PK WND 04017/1035 SLP139 T00211012 55000,CWEQ,2022-10-23T11:00:00Z,52.12,-101.22,2.1,-1.2,40,13,,,,1013.9,,TRUE,TRUE,,,,,,,,,,,,,,,,0.0,,,,,,,,,,,METAR,331.0
CWEP 231100Z AUTO 21008KT 11/08 RMK AO1 SLP281 T01090078 53011,CWEP,2022-10-23T11:00:00Z,46.45,-61.98,10.9,7.8,210,8,,,,1028.1,,TRUE,TRUE,,,,,,,,,,,,,,,,1.1,,,,,,,,,,,METAR,9.0
CWEL 231100Z AUTO 27009KT 10/04 RMK AO1 SLP149 T00980035 51014,CWEL,2022-10-23T11:00:00Z,49.22,-123.8,9.8,3.5,270,9,,,,1014.9,,TRUE,TRUE,,,,,,,,,,,,,,,,1.4,,,,,,,,,,,METAR,0.0
CWEK 231100Z AUTO 08011KT 07/ RMK AO1 SLP097 T0066 58016,CWEK,2022-10-23T11:00:00Z,54.58,-130.7,6.6,,80,11,,,,1009.7,,TRUE,TRUE,,,,,,,,,,,,,,,,-1.6,,,,,,,,,,,METAR,8.0
CWEH 231100Z AUTO 05021KT M00/M01 RMK AO1 1PAST HR SOG 04 5003 PK WND 05028/1016 SLP039 P0000 T10011008 50054,CWEH,2022-10-23T11:00:00Z,49.43,-108.98,-0.1,-0.8,50,21,,,,1003.9,,TRUE,TRUE,,,,,,,,,,,,,,,,5.4,,,,,0.005,,,,,,METAR,1077.0
CWEF 231100Z AUTO 26021KT 13/09 RMK AO1 PK WND 26024/1045 SLP252 T01250093 53010,CWEF,2022-10-23T11:00:00Z,47.22,-60.13,12.5,9.3,260,21,,,,1025.2,,TRUE,TRUE,,,,,,,,,,,,,,,,1.0,,,,,,,,,,,METAR,27.0
CWEB 231100Z AUTO 00036KT 05/03 RMK AO1 SLP153 T00540029 53019,CWEB,2022-10-23T11:00:00Z,49.38,-126.55,5.4,2.9,0,36,,,,1015.3,,TRUE,TRUE,,,,,,,,,,,,,,,,1.9,,,,,,,,,,,METAR,1.0
CWDZ 231100Z AUTO 34005KT 02/M00 RMK AO1 3012 SLP140 T00221003 50003,CWDZ,2022-10-23T11:00:00Z,51.43,-112.67,2.2,-0.3,340,5,,,,1014.0,,TRUE,TRUE,,,,,,,,,,,,,,,,0.3,,,,,,,,,,,METAR,689.0
CWDV 231100Z AUTO 11003KT 06/05 RMK AO1 SLP080 T00580052 50000,CWDV,2022-10-23T11:00:00Z,49.02,-90.47,5.8,5.2,110,3,,,,1008.0,,TRUE,TRUE,,,,,,,,,,,,,,,,0.0,,,,,,,,,,,METAR,487.0
CWDQ 231100Z AUTO 00000KT 01/01 RMK AO1 SLP262 T00140008 51013,CWDQ,2022-10-23T11:00:00Z,47.42,-72.78,1.4,0.8,0,0,,,,1026.2,,TRUE,TRUE,,,,,,,,,,,,,,,,1.3,,,,,,,,,,,METAR,174.0
CWDO 231100Z AUTO 23016G23KT 09/06 RMK AO1 PK WND 23023/1053 SLP200 T00880058 53002,CWDO,2022-10-23T11:00:00Z,49.68,-54.78,8.8,5.8,230,16,23,,,1020.0,,TRUE,TRUE,,,,,,,,,,,,,,,,0.2,,,,,,,,,,,METAR,89.0
CWDM 231100Z AUTO 33007KT 07/05 RMK AO1 SLP212 T00670050 53017,CWDM,2022-10-23T11:00:00Z,50.47,-59.63,6.7,5.0,330,7,,,,1021.2,,TRUE,TRUE,,,,,,,,,,,,,,,,1.7,,,,,,,,,,,METAR,2.0
CWDK 231100Z AUTO 35015KT M00/M01 RMK AO1 SOG 19 3010 PK WND 35019/1056 SLP137 T10011007 50006,CWDK,2022-10-23T11:00:00Z,50.02,-113.62,-0.1,-0.7,350,15,,,,1013.7,,TRUE,TRUE,,,,,,,,,,,,,,,,0.6,,,,,,,,,,,METAR,1014.0
CWDJ 231100Z AUTO 07018G24KT 02/01 RMK AO1 9PAST HR 6001 PK WND 09026/1020 SLP077 P0004 T00180005 50031,CWDJ,2022-10-23T11:00:00Z,50.4,-104.58,1.8,0.5,70,18,24,,,1007.7,,TRUE,TRUE,,,,,,,,,,,,,,,,3.1,,,,,0.04,,,,,,METAR,576.0
CWDC 231100Z AUTO 08004KT M02/M06 RMK AO1 SOG 01 1012 SLP208 T10201056,CWDC,2022-10-23T11:00:00Z,59.57,-108.48,-2.0,-5.6,80,4,,,,1020.8,,TRUE,TRUE,,,,,,,,,,,,,,,,,,,,,,,,,,,METAR,311.0
CWDA 231100Z AUTO 22007KT 10/ RMK AO1 T0098,CWDA,2022-10-23T11:00:00Z,50.72,-56.12,9.8,,220,7,,,,,,TRUE,TRUE,,,,,,,,,,,,,,,,,,,,,,,,,,,METAR,30.0
CWCT 231100Z AUTO 02009KT 01/M00 RMK AO1 SLP148 T00091004 53012,CWCT,2022-10-23T11:00:00Z,52.07,-111.43,0.9,-0.4,20,9,,,,1014.8,,TRUE,TRUE,,,,,,,,,,,,,,,,1.2,,,,,,,,,,,METAR,793.0
CWCO 231100Z AUTO 19004KT 12/08 RMK AO1 SLP216 T01240082 51009,CWCO,2022-10-23T11:00:00Z,44.5,-80.22,12.4,8.2,190,4,,,,1021.6,,TRUE,TRUE,,,,,,,,,,,,,,,,0.9,,,,,,,,,,,METAR,182.0
CWCJ 231100Z AUTO 05006KT 05/04 RMK AO1 SLP126 T00490040 53010,CWCJ,2022-10-23T11:00:00Z,48.6,-86.28,4.9,4.0,50,6,,,,1012.6,,TRUE,TRUE,,,,,,,,,,,,,,,,1.0,,,,,,,,,,,METAR,207.0
CWCF 231100Z AUTO 04005KT 01/M01 RMK AO1 SLP138 T00131013 57003,CWCF,2022-10-23T11:00:00Z,52.35,-97.03,1.3,-1.3,40,5,,,,1013.8,,TRUE,TRUE,,,,,,,,,,,,,,,,-0.3,,,,,,,,,,,METAR,219.0
CWBZ 231100Z AUTO 11001KT 02/01 RMK AO1 SLP257 T00170011 53015,CWBZ,2022-10-23T11:00:00Z,45.12,-74.28,1.7,1.1,110,1,,,,1025.7,,TRUE,TRUE,,,,,,,,,,,,,,,,1.5,,,,,,,,,,,METAR,49.0
CWBY 231100Z AUTO 25003KT 03/03 RMK AO1 SLP242 T00320028 53020,CWBY,2022-10-23T11:00:00Z,49.83,-64.28,3.2,2.8,250,3,,,,1024.2,,TRUE,TRUE,,,,,,,,,,,,,,,,2.0,,,,,,,,,,,METAR,56.0
CWBV 231100Z AUTO 34009KT 11/11 RMK AO1 SLP281 T01130108 51010,CWBV,2022-10-23T11:00:00Z,44.82,-62.33,11.3,10.8,340,9,,,,1028.1,,TRUE,TRUE,,,,,,,,,,,,,,,,1.0,,,,,,,,,,,METAR,16.0
CWBU 231100Z AUTO 02005KT M01/M04 RMK AO1 SLP156 T10071036 53006,CWBU,2022-10-23T11:00:00Z,53.33,-104.02,-0.7,-3.6,20,5,,,,1015.6,,TRUE,TRUE,,,,,,,,,,,,,,,,0.6,,,,,,,,,,,SPECI,369.0
CWBT 231100Z AUTO 30002KT M00/M00 RMK AO1 SLP236 T10011001 53018,CWBT,2022-10-23T11:00:00Z,50.27,-64.23,-0.1,-0.1,300,2,,,,1023.6,,TRUE,TRUE,,,,,,,,,,,,,,,,1.8,,,,,,,,,,,METAR,12.0
CWBS 231100Z AUTO 36004KT 09/07 RMK AO1 T00850073,CWBS,2022-10-23T11:00:00Z,46.18,-72.92,8.5,7.3,360,4,,,,,,TRUE,TRUE,,,,,,,,,,,,,,,,,,,,,,,,,,,METAR,3.0
CWBO 231100Z AUTO 01010KT 01/01 RMK AO1 2PAST HR 2010 SLP117 P0001 T00120005 50013,CWBO,2022-10-23T11:00:00Z,50.53,-111.83,1.2,0.5,10,10,,,,1011.7,,TRUE,TRUE,,,,,,,,,,,,,,,,1.3,,,,,0.01,,,,,,METAR,752.0
CWBK 231100Z AUTO 22008KT 10/07 RMK AO1 SLP284 T00960067 52007,CWBK,2022-10-23T11:00:00Z,45.77,-62.67,9.6,6.7,220,8,,,,1028.4,,TRUE,TRUE,,,,,,,,,,,,,,,,0.7,,,,,,,,,,,METAR,2.0
CWBA 231100Z AUTO 18004KT 08/07 RMK AO1 T00790073,CWBA,2022-10-23T11:00:00Z,46.72,-79.1,7.9,7.3,180,4,,,,,,TRUE,TRUE,,,,,,,,,,,,,,,,,,,,,,,,,,,METAR,181.0
CWAV 231100Z AUTO 02001KT 01/M01 RMK AO1 SLP160 T00051008 53012,CWAV,2022-10-23T11:00:00Z,51.77,-114.67,0.5,-0.8,20,1,,,,1016.0,,TRUE,TRUE,,,,,,,,,,,,,,,,1.2,,,,,,,,,,,METAR,1115.0
CWAR 231100Z AUTO 20018KT 13/10 RMK AO1 PK WND 20022/1057 SLP261 T01270102 55002,CWAR,2022-10-23T11:00:00Z,47.28,-54.0,12.7,10.2,200,18,,,,1026.1,,TRUE,TRUE,,,,,,,,,,,,,,,,-0.2,,,,,,,,,,,METAR,6.0
CWAQ 231100Z AUTO 07015G25KT 03/02 RMK AO1 5007 PK WND 07027/1035 SLP026 T00340023 50002,CWAQ,2022-10-23T11:00:00Z,49.05,-105.48,3.4,2.3,70,15,25,,,1002.6,,TRUE,TRUE,,,,,,,,,,,,,,,,0.2,,,,,,,,,,,METAR,761.0
CWAJ 231100Z AUTO 15008KT RMK AO1 51015,CWAJ,2022-10-23T11:00:00Z,42.25,-81.9,,,150,8,,,,,,TRUE,TRUE,,,,,,,,,,,,,,,,1.5,,,,,,,,,,,METAR,177.0
CWAF 231100Z AUTO 22009KT 08/06 RMK AO1 T00780057,CWAF,2022-10-23T11:00:00Z,48.07,-69.55,7.8,5.7,220,9,,,,,,TRUE,TRUE,,,,,,,,,,,,,,,,,,,,,,,,,,,METAR,6.0
CTNK 231100Z AUTO 00000KT 01/01 RMK AO1 SLP245 T00100007 53011,CTNK,2022-10-23T11:00:00Z,45.53,-78.27,1.0,0.7,0,0,,,,1024.5,,TRUE,TRUE,,,,,,,,,,,,,,,,1.1,,,,,,,,,,,METAR,405.0
CTCK 231100Z AUTO 10002KT 03/02 RMK AO1 SLP257 T00320022 53014,CTCK,2022-10-23T11:00:00Z,45.25,-74.97,3.2,2.2,100,2,,,,1025.7,,TRUE,TRUE,,,,,,,,,,,,,,,,1.4,,,,,,,,,,,METAR,84.0
CPSV 231100Z AUTO 01019KT 02/01 RMK AO1 3PAST HR M PK WND 01025/1026 P0005 T00160011 50066,CPSV,2022-10-23T11:00:00Z,49.92,-110.92,1.6,1.1,10,19,,,,,,TRUE,TRUE,,,,,,,,,,,,,,,,6.6,,,,,0.05,,,,,,METAR,766.0
CPST 231100Z AUTO 36009KT M00/M00 RMK AO1 T10011001 50005,CPST,2022-10-23T11:00:00Z,51.03,-113.28,-0.1,-0.1,360,9,,,,,,TRUE,TRUE,,,,,,,,,,,,,,,,0.5,,,,,,,,,,,METAR,1005.0
CPRY 231100Z AUTO 35015KT M00/M00 RMK AO1 PK WND 34019/1026 T10011001 50009,CPRY,2022-10-23T11:00:00Z,49.48,-112.68,-0.1,-0.1,350,15,,,,,,TRUE,TRUE,,,,,,,,,,,,,,,,0.9,,,,,,,,,,,METAR,947.0
CPRO 231100Z AUTO 35010KT 02/02 RMK AO1 T00180015,CPRO,2022-10-23T11:00:00Z,50.83,-112.05,1.8,1.5,350,10,,,,,,TRUE,TRUE,,,,,,,,,,,,,,,,,,,,,,,,,,,METAR,733.0
CPIR 231100Z AUTO 36011KT M00/M00 RMK AO1 5PAST HR M PK WND 00018/1003 P0002 T10031003 50017,CPIR,2022-10-23T11:00:00Z,49.9,-112.73,-0.3,-0.3,360,11,,,,,,TRUE,TRUE,,,,,,,,,,,,,,,,1.7,,,,,0.02,,,,,,METAR,895.0
CPIN 231100Z AUTO 24008KT ////SM FEW004 SCT026 BKN034 ///// A////,CPIN,2022-10-23T11:00:00Z,,,,,240,8,,,,,,TRUE,,,,,,,,FEW,400,SCT,2600,BKN,3400,,,,,,,,,,,,,,,METAR,
CPFI 231100Z AUTO 36013KT 00/M00 RMK AO1 5PAST HR M PK WND 01017/1015 P0002 T00001002 50033,CPFI,2022-10-23T11:00:00Z,49.8,-112.03,0.0,-0.2,360,13,,,,,,TRUE,TRUE,,,,,,,,,,,,,,,,3.3,,,,,0.02,,,,,,METAR,804.0
CPEH 231100Z AUTO 00000KT M00/M00 RMK AO1 4PAST HR M P0002 T10021002 50020,CPEH,2022-10-23T11:00:00Z,50.18,-112.43,-0.2,-0.2,0,0,,,,,,TRUE,TRUE,,,,,,,,,,,,,,,,2.0,,,,,0.02,,,,,,METAR,814.0
CPBT 231100Z AUTO 01017KT M00/M00 RMK AO1 4PAST HR M21 M P0002 T10011001 50004,CPBT,2022-10-23T11:00:00Z,49.53,-113.05,-0.1,-0.1,10,17,,,,,,TRUE,TRUE,,,,,,,,,,,,,,,,0.4,,,,,0.02,,,,,,METAR,998.0
CMGB 231100Z AUTO 12001KT 05/03 RMK AO1 SLP267 T00480030 51011,CMGB,2022-10-23T11:00:00Z,45.37,-72.77,4.8,3.0,120,1,,,,1026.7,,TRUE,TRUE,,,,,,,,,,,,,,,,1.1,,,,,,,,,,,SPECI,87.0
CMFM 231100Z AUTO 04001KT M01/M01 RMK AO1 SLP286 T10051010 52013,CMFM,2022-10-23T11:00:00Z,47.32,-71.15,-0.5,-1.0,40,1,,,,1028.6,,TRUE,TRUE,,,,,,,,,,,,,,,,1.3,,,,,,,,,,,SPECI,663.0
CFOX 231100Z AUTO ///// ////SM FEW007 BKN046 BKN065 M04/M04 A2942,CFOX,2022-10-23T11:00:00Z,,,-4.0,-4.0,,,,,29.421259,,,TRUE,,,,,,,,FEW,700,BKN,4600,BKN,6500,,,,,,,,,,,,,,,METAR,
CERM 231100Z AUTO 26001KT M00/M01 RMK AO1 SLP277 T10031006 51014,CERM,2022-10-23T11:00:00Z,47.42,-68.32,-0.3,-0.6,260,1,,,,1027.7,,TRUE,TRUE,,,,,,,,,,,,,,,,1.4,,,,,,,,,,,METAR,151.0
CBBC 231100Z AUTO 00000KT 9SM OVC002 03/02 A2998 RMK SLP154,CBBC,2022-10-23T11:00:00Z,52.18,-128.15,3.0,2.0,0,0,,9.0,29.97933,1015.4,,TRUE,,,,,,,,OVC,200,,,,,,,LIFR,,,,,,,,,,,,METAR,36.0
CBAR 231100Z AUTO 28003KT ////SM OVC033 M08/M10 A3016,CBAR,2022-10-23T11:00:00Z,,,-8.0,-10.0,280,3,,,30.159449,,,TRUE,,,,,,,,OVC,3300,,,,,,,,,,,,,,,,,,,METAR,
CAHR 231100Z AUTO 16004KT 08/07 RMK AO1 SLP278 T00790068 53014,CAHR,2022-10-23T11:00:00Z,46.35,-63.17,7.9,6.8,160,4,,,,1027.8,,TRUE,TRUE,,,,,,,,,,,,,,,,1.4,,,,,,,,,,,METAR,52.0
BKPR 231100Z VRB01KT CAVOK 20/08 Q1025 NOSIG,BKPR,2022-10-23T11:00:00Z,42.58,21.03,20.0,8.0,0,1,,6.21,30.265747,,,,,,TRUE,,,,,CAVOK,,,,,,,,VFR,,,,,,,,,,,,METAR,545.0
BIVM 231100Z 12018KT 9999 SCT034 05/03 Q1009,BIVM,2022-10-23T11:00:00Z,63.42,-20.28,5.0,3.0,120,18,,6.21,29.793306,,,,,,,,,,,SCT,3400,,,,,,,VFR,,,,,,,,,,,,METAR,93.0
BIRK 231100Z 09009KT 9999 FEW024 SCT040 BKN180 05/01 Q1009,BIRK,2022-10-23T11:00:00Z,64.13,-21.93,5.0,1.0,90,9,,6.21,29.793306,,,,,,,,,,,FEW,2400,SCT,4000,BKN,18000,,,VFR,,,,,,,,,,,,METAR,12.0
BIKF 231100Z 13016KT 9999 VCSH SCT008 BKN053 04/04 Q1008,BIKF,2022-10-23T11:00:00Z,63.98,-22.6,4.0,4.0,130,16,,6.21,29.763779,,,,,,,,,,VCSH,SCT,800,BKN,5300,,,,,VFR,,,,,,,,,,,,METAR,49.0
BIIS 231100Z 24000KT 9999 BKN025 OVC030 02/M01 Q1007,BIIS,2022-10-23T11:00:00Z,66.05,-23.13,2.0,-1.0,240,0,,6.21,29.734253,,,,,,,,,,,BKN,2500,OVC,3000,,,,,MVFR,,,,,,,,,,,,METAR,3.0
BIEG 231100Z 20010KT CAVOK 02/M01 Q1011,BIEG,2022-10-23T11:00:00Z,65.27,-14.4,2.0,-1.0,200,10,,6.21,29.852362,,,,,,,,,,,CAVOK,,,,,,,,VFR,,,,,,,,,,,,METAR,20.0
BIAR 231100Z 20003KT 170V230 CAVOK M00/M03 Q1010,BIAR,2022-10-23T11:00:00Z,65.67,-18.07,0.0,-3.0,200,3,,6.21,29.822834,,,,,,,,,,,CAVOK,,,,,,,,VFR,,,,,,,,,,,,METAR,1.0
AYPY 231100Z VRB03KT 9999 SCT050 27/25 Q1009,AYPY,2022-10-23T11:00:00Z,-9.43,147.22,27.0,25.0,0,3,,6.21,29.793306,,,,,,,,,,,SCT,5000,,,,,,,VFR,,,,,,,,,,,,METAR,44.0
KW99 231059Z AUTO 00000KT 5SM BR CLR 00/00 A3031 RMK AO2,KW99,2022-10-23T10:59:00Z,39.0,-79.15,0.0,0.0,0,0,,5.0,30.31004,,,TRUE,TRUE,,,,,,BR,CLR,,,,,,,,MVFR,,,,,,,,,,,,METAR,288.0
KNOZ 231059Z AUTO 33007KT 10SM CLR 19/09 A2973 RMK AO2 SLP017 T01890094,KNOZ,2022-10-23T10:59:00Z,32.53,-114.5,18.9,9.4,330,7,,10.0,29.731298,1001.7,,TRUE,TRUE,,,,,,,CLR,,,,,,,,VFR,,,,,,,,,,,,SPECI,78.0
KFME 231059Z AUTO 00000KT 7SM SCT030 05/05 A3027 RMK AO1,KFME,2022-10-23T10:59:00Z,39.08,-76.77,5.0,5.0,0,0,,7.0,30.268702,,,TRUE,TRUE,,,,,,,SCT,3000,,,,,,,VFR,,,,,,,,,,,,METAR,43.0
K2W6 231059Z AUTO 00000KT 10SM OVC022 12/11 A3020 RMK AO1,K2W6,2022-10-23T10:59:00Z,38.32,-76.55,12.0,11.0,0,0,,10.0,30.200787,,,TRUE,TRUE,,,,,,,OVC,2200,,,,,,,MVFR,,,,,,,,,,,,METAR,40.0
PHSF 231058Z AUTO 08004KT 10SM CLR 12/M00 A3030 RMK AO2 SLP138 T01151001 $,PHSF,2022-10-23T10:58:00Z,19.77,-155.55,11.5,-0.1,80,4,,10.0,30.301182,1013.8,,TRUE,TRUE,TRUE,,,,,,CLR,,,,,,,,VFR,,,,,,,,,,,,METAR,1863.0
PASY 231058Z AUTO M 7SM BKN015 OVC029 M M,PASY,2022-10-23T10:58:00Z,52.72,174.12,,,,,,7.0,,,,TRUE,,,,,,,,BKN,1500,OVC,2900,,,,,MVFR,,,,,,,,,,,,SPECI,6.0
KROG 231058Z 10SM CLR 20/14 A2979 RMK AO2 SLP074 T02000139 $,KROG,2022-10-23T10:58:00Z,36.37,-94.1,20.0,13.9,,,,10.0,29.790354,1007.4,,,TRUE,TRUE,,,,,,CLR,,,,,,,,VFR,,,,,,,,,,,,METAR,407.0
KPRN 231058Z AUTO 00000KT 10SM CLR 04/04 A3016 RMK AO2 SLP161 T00440039,KPRN,2022-10-23T10:58:00Z,31.85,-86.62,4.4,3.9,0,0,,10.0,30.159449,1016.1,,TRUE,TRUE,,,,,,,CLR,,,,,,,,VFR,,,,,,,,,,,,SPECI,137.0
KOQT 231058Z AUTO 00000KT 3/4SM BR VV002 06/05 A3024 RMK AO2 T00560050,KOQT,2022-10-23T10:58:00Z,36.02,-84.23,5.6,5.0,0,0,,0.75,30.239174,,,TRUE,TRUE,,,,,,BR,OVX,0,,,,,,,LIFR,,,,,,,,,,,200,METAR,276.0
KMEI 231058Z 00000KT 9SM R01/6000VP6000FT CLR 09/08 A3012 RMK AO2 SLP198 T00940083,KMEI,2022-10-23T10:58:00Z,32.33,-88.75,9.4,8.3,0,0,,9.0,30.121063,1019.8,,,TRUE,,,,,,,CLR,,,,,,,,VFR,,,,,,,,,,,,METAR,90.0
KLUK 231058Z 00000KT 1/4SM R21L/P6000FT FG CLR 08/08 A3017 RMK AO2 T00830083,KLUK,2022-10-23T10:58:00Z,39.1,-84.42,8.3,8.3,0,0,,0.25,30.171259,,,,TRUE,,,,,,FG,CLR,,,,,,,,LIFR,,,,,,,,,,,,SPECI,144.0
KGOV 231058Z AUTO 05003KT 9SM CLR 05/05 A3003 RMK AO2 SLP178 T00540048 $,KGOV,2022-10-23T10:58:00Z,44.68,-84.73,5.4,4.8,50,3,,9.0,30.029528,1017.8,,TRUE,TRUE,TRUE,,,,,,CLR,,,,,,,,VFR,,,,,,,,,,,,METAR,350.0
KEUF 231058Z AUTO 00000KT 5SM BR CLR 05/04 A3020 RMK AO2 SLP224 T00500039,KEUF,2022-10-23T10:58:00Z,31.95,-85.13,5.0,3.9,0,0,,5.0,30.200787,1022.4,,TRUE,TRUE,,,,,,BR,CLR,,,,,,,,MVFR,,,,,,,,,,,,SPECI,87.0
KCMY 231058Z AUTO 00000KT 7SM R29/5500FT CLR 16/12 A2977 RMK AO2 SLP081 T01610117 $,KCMY,2022-10-23T10:58:00Z,43.97,-90.73,16.1,11.7,0,0,,7.0,29.769686,1008.1,,TRUE,TRUE,TRUE,,,,,,CLR,,,,,,,,VFR,,,,,,,,,,,,METAR,253.0
KBKF 231058Z 20010KT 10SM SCT120 BKN220 15/M03 A2934 RMK AO2A SLP866 T01451033,KBKF,2022-10-23T10:58:00Z,39.72,-104.75,14.5,-3.3,200,10,,10.0,29.338583,986.6,,,TRUE,,,,,,,SCT,12000,BKN,22000,,,,,VFR,,,,,,,,,,,,SPECI,1703.0
KBCR 231058Z AUTO 00000KT 9SM CLR 06/05 A3017 RMK AO2 SLP200 T00610050 $,KBCR,2022-10-23T10:58:00Z,30.85,-85.6,6.1,5.0,0,0,,9.0,30.171259,1020.0,,TRUE,TRUE,TRUE,,,,,,CLR,,,,,,,,VFR,,,,,,,,,,,,SPECI,26.0
YCBA 231057Z AUTO 23004KT 9999 // SCT057 BKN079 OVC090 17/16 Q1010,YCBA,2022-10-23T10:57:00Z,-31.53,145.8,17.0,16.0,230,4,,6.21,29.822834,,,TRUE,,,,,,,,SCT,5700,BKN,7900,OVC,9000,,,VFR,,,,,,,,,,,,SPECI,219.0
PHNG 231057Z AUTO 08006KT 10SM FEW027 A3000 RMK AO2 SLP155,PHNG,2022-10-23T10:57:00Z,21.43,-157.77,,,80,6,,10.0,30.0,1015.5,,TRUE,TRUE,,,,,,,FEW,2700,,,,,,,VFR,,,,,,,,,,,,METAR,1.0
KRGA 231057Z AUTO 00000KT 10SM SCT055 14/08 A3020 RMK AO2,KRGA,2022-10-23T10:57:00Z,37.63,-84.33,14.0,8.0,0,0,,10.0,30.200787,,,TRUE,TRUE,,,,,,,SCT,5500,,,,,,,VFR,,,,,,,,,,,,METAR,301.0
KOLM 231057Z AUTO 00000KT 3/4SM BR OVC001 01/01 A2998 RMK AO2 T00060006 $,KOLM,2022-10-23T10:57:00Z,46.97,-122.9,0.6,0.6,0,0,,0.75,29.97933,,,TRUE,TRUE,TRUE,,,,,BR,OVC,100,,,,,,,LIFR,,,,,,,,,,,,SPECI,58.0
KNYL 231057Z AUTO 27012KT 10SM CLR 20/10 A2971 RMK AO2 SLP057 T02000100,KNYL,2022-10-23T10:57:00Z,32.65,-114.62,20.0,10.0,270,12,,10.0,29.71063,1005.7,,TRUE,TRUE,,,,,,,CLR,,,,,,,,VFR,,,,,,,,,,,,METAR,58.0
KNJW 231057Z AUTO 00000KT 10SM CLR 13/11 A3015 RMK AO2 SLP123 T01280106,KNJW,2022-10-23T10:57:00Z,32.78,-88.82,12.8,10.6,0,0,,10.0,30.15059,1012.3,,TRUE,TRUE,,,,,,,CLR,,,,,,,,VFR,,,,,,,,,,,,METAR,165.0
KNJM 231057Z AUTO 33005KT 9SM FEW042 OVC075 16/13 A3009 RMK AO2 RAB31E52 SLP194 P0000 T01610128,KNJM,2022-10-23T10:57:00Z,34.68,-77.02,16.1,12.8,330,5,,9.0,30.088583,1019.4,,TRUE,TRUE,,,,,,,FEW,4200,OVC,7500,,,,,VFR,,,,,,0.005,,,,,,METAR,5.0
KELY 231057Z AUTO 31009KT 1 1/4SM -SN BR FEW006 BKN027 OVC037 M02/M02 A2969 RMK AO2 P0000 T10221022,KELY,2022-10-23T10:57:00Z,39.3,-114.85,-2.2,-2.2,310,9,,1.25,29.68996,,,TRUE,TRUE,,,,,,-SN BR,FEW,600,BKN,2700,OVC,3700,,,IFR,,,,,,0.005,,,,,,METAR,1906.0
KBRO 231057Z 15006KT 10SM CLR 22/19 A2985 RMK AO2 T02220194,KBRO,2022-10-23T10:57:00Z,25.92,-97.42,22.2,19.4,150,6,,10.0,29.84941,,,,TRUE,,,,,,,CLR,,,,,,,,VFR,,,,,,,,,,,,SPECI,6.0
KAQV 231057Z AUTO 00000KT 4SM BR FEW002 BKN049 16/14 A2998 RMK AO2 SLP150 T01610144,KAQV,2022-10-23T10:57:00Z,31.4,-93.3,16.1,14.4,0,0,,4.0,29.97933,1015.0,,TRUE,TRUE,,,,,,BR,FEW,200,BKN,4900,,,,,MVFR,,,,,,,,,,,,METAR,123.0
KADS 231057Z 17013G24KT 10SM BKN021 22/17 A2981,KADS,2022-10-23T10:57:00Z,32.97,-96.83,22.0,17.0,170,13,24,10.0,29.811024,,,,,,,,,,,BKN,2100,,,,,,,MVFR,,,,,,,,,,,,METAR,198.0
TJSJ 231056Z 00000KT 10SM FEW020 SCT060 SCT085 25/24 A2994 RMK AO2 RAB00E06B35E46 SLP137 VCSH NW-NE P0000 T02500239 $,TJSJ,2022-10-23T10:56:00Z,18.43,-66.02,25.0,23.9,0,0,,10.0,29.940945,1013.7,,,TRUE,TRUE,,,,,,FEW,2000,SCT,6000,SCT,8500,,,VFR,,,,,,0.005,,,,,,SPECI,3.0
RJTY 231056Z 35003KT 7SM SCT080 18/12 A2982 RMK AO2A SLP100 T01790117 $,RJTY,2022-10-23T10:56:00Z,35.75,139.33,17.9,11.7,350,3,,7.0,29.819881,1010.0,,,TRUE,TRUE,,,,,,SCT,8000,,,,,,,VFR,,,,,,,,,,,,SPECI,136.0
RJOI 231056Z 32004KT 9999 FEW020 19/08 A2992 RMK AO2 SLP132 T01940078,RJOI,2022-10-23T10:56:00Z,34.13,132.23,19.4,7.8,320,4,,6.21,29.920275,1013.2,,,TRUE,,,,,,,FEW,2000,,,,,,,VFR,,,,,,,,,,,,SPECI,2.0
PPIZ 231056Z AUTO 09005KT 10SM BKN045 OVC070 M06/M08 A2983 RMK AO2 SNE29 SLP103 P0000 T10611078 FZRANO,PPIZ,2022-10-23T10:56:00Z,69.73,-163.0,-6.1,-7.8,90,5,,10.0,29.828741,1010.3,,TRUE,TRUE,,,,TRUE,,,BKN,4500,OVC,7000,,,,,VFR,,,,,,0.005,,,,,,METAR,5.0
PMDY 231056Z AUTO 00000KT 10SM 22/18 A3012 RMK AO2 SLP200 T02220183 402670222 TSNO,PMDY,2022-10-23T10:56:00Z,28.22,-177.37,22.2,18.3,0,0,,10.0,30.121063,1020.0,,TRUE,TRUE,,,TRUE,,,,,,,,,,,,,,,,26.7,22.2,,,,,,,SPECI,6.0
PHNY 231056Z AUTO 06003KT 10SM CLR 20/18 A3007 RMK AO2 SLP161 T02000178 $,PHNY,2022-10-23T10:56:00Z,20.77,-156.95,20.0,17.8,60,3,,10.0,30.070866,1016.1,,TRUE,TRUE,TRUE,,,,,,CLR,,,,,,,,VFR,,,,,,,,,,,,METAR,395.0
PFYU 231056Z AUTO 00000KT 10SM OVC055 M07/M08 A3000 RMK AO2 SLP176 T10721078 FZRANO,PFYU,2022-10-23T10:56:00Z,66.57,-145.23,-7.2,-7.8,0,0,,10.0,30.0,1017.6,,TRUE,TRUE,,,,TRUE,,,OVC,5500,,,,,,,VFR,,,,,,,,,,,,METAR,130.0
PFWS 231056Z AUTO 32007KT 10SM CLR M01/M02 A3002 RMK AO2 SLP210 T10061017 FZRANO,PFWS,2022-10-23T10:56:00Z,58.7,-157.0,-0.6,-1.7,320,7,,10.0,30.02067,1021.0,,TRUE,TRUE,,,,TRUE,,,CLR,,,,,,,,VFR,,,,,,,,,,,,METAR,40.0
PFSH 231056Z AUTO 18018KT 10SM OVC018 03/01 A2994 RMK AO2 SLP137 T00280006,PFSH,2022-10-23T10:56:00Z,64.37,-161.22,2.8,0.6,180,18,,10.0,29.940945,1013.7,,TRUE,TRUE,,,,,,,OVC,1800,,,,,,,MVFR,,,,,,,,,,,,METAR,6.0
PFKT 231056Z AUTO 25013KT 10SM OVC020 02/M01 A2981 RMK AO2 SLP094 T00171011 FZRANO,PFKT,2022-10-23T10:56:00Z,65.33,-166.47,1.7,-1.1,250,13,,10.0,29.811024,1009.4,,TRUE,TRUE,,,,TRUE,,,OVC,2000,,,,,,,MVFR,,,,,,,,,,,,METAR,8.0
PFEL 231056Z AUTO 21011G16KT 10SM -RA BKN007 OVC011 02/02 A2988 RMK AO2 CIG 005V010 SLP120 P0003 T00220017 FZRANO,PFEL,2022-10-23T10:56:00Z,64.62,-162.27,2.2,1.7,210,11,16,10.0,29.878937,1012.0,,TRUE,TRUE,,,,TRUE,,-RA,BKN,700,OVC,1100,,,,,IFR,,,,,,0.03,,,,,,METAR,50.0
PFCL 231056Z AUTO 00000KT 10SM CLR A3003 RMK AO2 SLPNO FZRANO TSNO $,PFCL,2022-10-23T10:56:00Z,58.83,-158.53,,,0,0,,10.0,30.029528,,,TRUE,TRUE,TRUE,,TRUE,TRUE,,,CLR,,,,,,,,VFR,,,,,,,,,,,,METAR,23.0
PAZK 231056Z AUTO 00000KT 10SM OVC020 M08/M10 A2972 RMK AO2 SLP121 T10831100 FZRANO,PAZK,2022-10-23T10:56:00Z,61.93,-147.17,-8.3,-10.0,0,0,,10.0,29.719488,1012.1,,TRUE,TRUE,,,,TRUE,,,OVC,2000,,,,,,,MVFR,,,,,,,,,,,,METAR,1002.0
PAWS 231056Z AUTO 03010G16KT 10SM CLR 02/M07 A2980 RMK AO2 SLP097 T00171072 FZRANO,PAWS,2022-10-23T10:56:00Z,61.57,-149.53,1.7,-7.2,30,10,16,10.0,29.799213,1009.7,,TRUE,TRUE,,,,TRUE,,,CLR,,,,,,,,VFR,,,,,,,,,,,,METAR,102.0
PAWN 231056Z AUTO 12015G21KT 2SM -SN BR OVC006 00/M01 A2977 RMK AO2 SLP092 P0000 T00001006 FZRANO,PAWN,2022-10-23T10:56:00Z,67.57,-162.98,0.0,-0.6,120,15,21,2.0,29.769686,1009.2,,TRUE,TRUE,,,,TRUE,,-SN BR,OVC,600,,,,,,,IFR,,,,,,0.005,,,,,,METAR,26.0
PAWM 231056Z AUTO 26004KT 9SM BKN019 OVC024 01/01 A2987 RMK AO2 SLP118 T00110011 FZRANO PNO $,PAWM,2022-10-23T10:56:00Z,64.68,-163.42,1.1,1.1,260,4,,9.0,29.870079,1011.8,,TRUE,TRUE,TRUE,,,TRUE,,,BKN,1900,OVC,2400,,,,,MVFR,,,,,,,,,,,,METAR,80.0
PAVD 231056Z AUTO 35003KT CLR A2981 RMK AO2 SLPNO FZRANO TSNO PNO $,PAVD,2022-10-23T10:56:00Z,61.13,-146.25,,,350,3,,,29.811024,,,TRUE,TRUE,TRUE,,TRUE,TRUE,,,CLR,,,,,,,,,,,,,,,,,,,,METAR,21.0
PAVC 231056Z AUTO 26010KT 10SM OVC023 06/02 A3021 RMK AO2 SLP231 T00560022 PNO $,PAVC,2022-10-23T10:56:00Z,55.12,-162.27,5.6,2.2,260,10,,10.0,30.209646,1023.1,,TRUE,TRUE,TRUE,,,,,,OVC,2300,,,,,,,MVFR,,,,,,,,,,,,METAR,48.0
PAVA 231056Z AUTO 17010KT 10SM OVC090 01/01 A2994 RMK AO2 SLP143 T00110006 FZRANO,PAVA,2022-10-23T10:56:00Z,61.53,-165.6,1.1,0.6,170,10,,10.0,29.940945,1014.3,,TRUE,TRUE,,,,TRUE,,,OVC,9000,,,,,,,VFR,,,,,,,,,,,,METAR,14.0
PAUN 231056Z AUTO 09005KT 10SM OVC070 00/M03 A2998 RMK AO2 UPE0957 SLP155 T00001028 FZRANO,PAUN,2022-10-23T10:56:00Z,63.88,-160.8,0.0,-2.8,90,5,,10.0,29.97933,1015.5,,TRUE,TRUE,,,,TRUE,,,OVC,7000,,,,,,,VFR,,,,,,,,,,,,METAR,4.0
PATQ 231056Z AUTO 12009KT 10SM CLR M11/M13 A2992 RMK AO2 SLP137 T11111128 FZRANO TSNO,PATQ,2022-10-23T10:56:00Z,70.47,-157.43,-11.1,-12.8,120,9,,10.0,29.920275,1013.7,,TRUE,TRUE,,,TRUE,TRUE,,,CLR,,,,,,,,VFR,,,,,,,,,,,,METAR,28.0
PATG 231056Z AUTO 36004KT 10SM CLR M01/M02 A3006 RMK AO2 SLP181 T10111017 FZRANO,PATG,2022-10-23T10:56:00Z,59.05,-160.38,-1.1,-1.7,360,4,,10.0,30.059055,1018.1,,TRUE,TRUE,,,,TRUE,,,CLR,,,,,,,,VFR,,,,,,,,,,,,METAR,1.0
PATE 231056Z AUTO 23012KT 10SM SCT014 OVC021 01/M01 A2979 RMK AO2 PK WND 23026/0957 SLP093 T00061011 FZRANO,PATE,2022-10-23T10:56:00Z,65.23,-166.33,0.6,-1.1,230,12,,10.0,29.790354,1009.3,,TRUE,TRUE,,,,TRUE,,,SCT,1400,OVC,2100,,,,,MVFR,,,,,,,,,,,,METAR,93.0
PASX 231056Z AUTO 00000KT 10SM CLR M04/M04 A2985 RMK AO2 SLP114 T10391039 FZRANO,PASX,2022-10-23T10:56:00Z,60.48,-151.05,-3.9,-3.9,0,0,,10.0,29.84941,1011.4,,TRUE,TRUE,,,,TRUE,,,CLR,,,,,,,,VFR,,,,,,,,,,,,METAR,28.0
PASK 231056Z AUTO 13011KT 1 1/4SM -SN BR BKN008 BKN025 OVC033 M01/M02 A2991 RMK AO2 UPB15E17SNB17 SLP125 P0000 T10061017 FZRANO,PASK,2022-10-23T10:56:00Z,66.6,-160.0,-0.6,-1.7,130,11,,1.25,29.911417,1012.5,,TRUE,TRUE,,,,TRUE,,-SN BR,BKN,800,BKN,2500,OVC,3300,,,IFR,,,,,,0.005,,,,,,METAR,3.0
PASH 231056Z AUTO 25023G28KT 10SM OVC017 02/01 A2971 RMK AO2 PK WND 25028/1054 SLP061 T00170006 FZRANO PNO $,PASH,2022-10-23T10:56:00Z,66.27,-166.08,1.7,0.6,250,23,28,10.0,29.71063,1006.1,,TRUE,TRUE,TRUE,,,TRUE,,,OVC,1700,,,,,,,MVFR,,,,,,,,,,,,METAR,3.0
PASD 231056Z AUTO 27006G14KT 10SM CLR 06/02 A3017 RMK AO2 SLP218 T00560022 PNO $,PASD,2022-10-23T10:56:00Z,55.33,-160.52,5.6,2.2,270,6,14,10.0,30.171259,1021.8,,TRUE,TRUE,TRUE,,,,,,CLR,,,,,,,,VFR,,,,,,,,,,,,METAR,6.0
PASA 231056Z AUTO 13007KT 10SM FEW043 BKN080 01/M01 A2977 RMK AO2 SLP082 T00111011 FZRANO,PASA,2022-10-23T10:56:00Z,63.68,-170.5,1.1,-1.1,130,7,,10.0,29.769686,1008.2,,TRUE,TRUE,,,,TRUE,,,FEW,4300,BKN,8000,,,,,VFR,,,,,,,,,,,,METAR,9.0
PARC 231056Z AUTO 00000KT 9SM -SN OVC027 M12/M13 A2988 RMK AO2 SLP183 P0000 T11171133 FZRANO,PARC,2022-10-23T10:56:00Z,68.12,-145.58,-11.7,-13.3,0,0,,9.0,29.878937,1018.3,,TRUE,TRUE,,,,TRUE,,-SN,OVC,2700,,,,,,,MVFR,,,,,,0.005,,,,,,METAR,626.0
PAPN 231056Z AUTO 36005KT 10SM FEW033 01/M01 A3003 RMK AO2 SLP170 T00111006 FZRANO PNO $,PAPN,2022-10-23T10:56:00Z,57.58,-157.57,1.1,-0.6,360,5,,10.0,30.029528,1017.0,,TRUE,TRUE,TRUE,,,TRUE,,,FEW,3300,,,,,,,VFR,,,,,,,,,,,,METAR,19.0
PAPM 231056Z AUTO 17003KT 10SM CLR M01/M01 A3008 RMK AO2 SLP188 T10061011 FZRANO,PAPM,2022-10-23T10:56:00Z,59.02,-161.82,-0.6,-1.1,170,3,,10.0,30.079725,1018.8,,TRUE,TRUE,,,,TRUE,,,CLR,,,,,,,,VFR,,,,,,,,,,,,METAR,4.0
PAPH 231056Z AUTO 31013KT 10SM FEW027 SCT055 BKN070 06/02 A3007 RMK AO2 SLP184 T00560017,PAPH,2022-10-23T10:56:00Z,56.95,-158.62,5.6,1.7,310,13,,10.0,30.070866,1018.4,,TRUE,TRUE,,,,,,,FEW,2700,SCT,5500,BKN,7000,,,VFR,,,,,,,,,,,,METAR,29.0
PAPG 231056Z AUTO 00000KT 10SM BKN050 03/03 A2981 RMK AO2 SLP099 T00280028,PAPG,2022-10-23T10:56:00Z,56.82,-132.93,2.8,2.8,0,0,,10.0,29.811024,1009.9,,TRUE,TRUE,,,,,,,BKN,5000,,,,,,,VFR,,,,,,,,,,,,METAR,24.0
PAOO 231056Z AUTO 07005KT BKN110 01/01 A3001 RMK AO2 SLP169 T00060006 PWINO FZRANO TSNO $,PAOO,2022-10-23T10:56:00Z,60.53,-165.08,0.6,0.6,70,5,,,30.008858,1016.9,,TRUE,TRUE,TRUE,,TRUE,TRUE,TRUE,,BKN,11000,,,,,,,,,,,,,,,,,,,METAR,15.0
PAOH 231056Z AUTO 10006KT 10SM OVC035 A2973 RMK AO2 SLPNO FZRANO $,PAOH,2022-10-23T10:56:00Z,58.1,-135.45,,,100,6,,10.0,29.731298,,,TRUE,TRUE,TRUE,,,TRUE,,,OVC,3500,,,,,,,VFR,,,,,,,,,,,,METAR,0.0
PANW 231056Z AUTO 32007KT 10SM CLR M02/M03 A3001 RMK AO2 SLP170 T10221028 FZRANO,PANW,2022-10-23T10:56:00Z,59.45,-157.32,-2.2,-2.8,320,7,,10.0,30.008858,1017.0,,TRUE,TRUE,,,,TRUE,,,CLR,,,,,,,,VFR,,,,,,,,,,,,METAR,100.0
PANV 231056Z AUTO 23003KT 10SM CLR M02/M03 A2999 RMK AO2 SLP259 T10221033 FZRANO TSNO,PANV,2022-10-23T10:56:00Z,62.65,-160.18,-2.2,-3.3,230,3,,10.0,29.991142,1025.9,,TRUE,TRUE,,,TRUE,TRUE,,,CLR,,,,,,,,VFR,,,,,,,,,,,,METAR,91.0
PANA 231056Z AUTO 17003KT 1/4SM FZFG OVC003 M02/M03 A3006 RMK AO2 SLP178 T10221028 FZRANO TSNO $,PANA,2022-10-23T10:56:00Z,60.68,-161.98,-2.2,-2.8,170,3,,0.25,30.059055,1017.8,,TRUE,TRUE,TRUE,,TRUE,TRUE,,FZFG,OVC,300,,,,,,,LIFR,,,,,,,,,,,,METAR,7.0
PAMK 231056Z AUTO 20011KT 10SM OVC075 01/M02 A2995 RMK AO2 SLP142 T00061017 FZRANO,PAMK,2022-10-23T10:56:00Z,63.48,-162.12,0.6,-1.7,200,11,,10.0,29.949802,1014.2,,TRUE,TRUE,,,,TRUE,,,OVC,7500,,,,,,,VFR,,,,,,,,,,,,METAR,31.0
PAMB 231056Z AUTO 27003KT 10SM CLR M01/M02 A3003 RMK AO2 SLP173 T10111022 FZRANO $,PAMB,2022-10-23T10:56:00Z,58.98,-159.05,-1.1,-2.2,270,3,,10.0,30.029528,1017.3,,TRUE,TRUE,TRUE,,,TRUE,,,CLR,,,,,,,,VFR,,,,,,,,,,,,METAR,28.0
PALG 231056Z AUTO 00000KT 1/2SM FZFG OVC003 M03/M03 A3005 RMK AO2 SLP179 T10281033 FZRANO,PALG,2022-10-23T10:56:00Z,61.53,-160.33,-2.8,-3.3,0,0,,0.5,30.050198,1017.9,,TRUE,TRUE,,,,TRUE,,FZFG,OVC,300,,,,,,,LIFR,,,,,,,,,,,,METAR,13.0
PAKP 231056Z AUTO 19009KT 9SM -SN FEW011 OVC036 M08/M09 A2987 RMK AO2 SNE07B29 SLP171 P0000 T10781089 FZRANO,PAKP,2022-10-23T10:56:00Z,68.13,-151.73,-7.8,-8.9,190,9,,9.0,29.870079,1017.1,,TRUE,TRUE,,,,TRUE,,-SN,FEW,1100,OVC,3600,,,,,VFR,,,,,,0.005,,,,,,METAR,649.0
PAKI 231056Z AUTO 16009KT 10SM CLR 02/ A3003 RMK AO2 SLP172 T0017 FZRANO PNO $,PAKI,2022-10-23T10:56:00Z,59.93,-164.03,1.7,,160,9,,10.0,30.029528,1017.2,,TRUE,TRUE,TRUE,,,TRUE,,,CLR,,,,,,,,VFR,,,,,,,,,,,,METAR,4.0
PAKH 231056Z AUTO 10SM FEW120 A2988 RMK AO2 SLPNO FZRANO TSNO $,PAKH,2022-10-23T10:56:00Z,56.93,-154.18,,,,,,10.0,29.878937,,,TRUE,TRUE,TRUE,,TRUE,TRUE,,,FEW,12000,,,,,,,VFR,,,,,,,,,,,,METAR,15.0
PAKF 231056Z AUTO 28006KT 10SM FEW024 OVC030 A3022 RMK AO2 RAE23 SLPNO P0000 FZRANO $,PAKF,2022-10-23T10:56:00Z,54.85,-163.42,,,280,6,,10.0,30.221457,,,TRUE,TRUE,TRUE,,,TRUE,,,FEW,2400,OVC,3000,,,,,MVFR,,,,,,0.005,,,,,,METAR,2.0
PAJZ 231056Z AUTO 27005KT 7SM CLR M02/M03 A3004 RMK AO2 SLP182 T10221028 FZRANO $,PAJZ,2022-10-23T10:56:00Z,59.73,-157.27,-2.2,-2.8,270,5,,7.0,30.041338,1018.2,,TRUE,TRUE,TRUE,,,TRUE,,,CLR,,,,,,,,VFR,,,,,,,,,,,,METAR,80.0
PAIN 231056Z AUTO 00000KT 10SM OVC021 M07/M09 A2989 RMK AO2 SLP159 T10721089 FZRANO $,PAIN,2022-10-23T10:56:00Z,63.73,-148.92,-7.2,-8.9,0,0,,10.0,29.890747,1015.9,,TRUE,TRUE,TRUE,,,TRUE,,,OVC,2100,,,,,,,MVFR,,,,,,,,,,,,METAR,525.0
PAIG 231056Z AUTO 21005KT 10SM CLR M02/M02 A2997 RMK AO2 SLP157 T10171022 FZRANO $,PAIG,2022-10-23T10:56:00Z,59.32,-155.9,-1.7,-2.2,210,5,,10.0,29.970472,1015.7,,TRUE,TRUE,TRUE,,,TRUE,,,CLR,,,,,,,,VFR,,,,,,,,,,,,METAR,24.0
PAHY 231056Z AUTO 12014G22KT 080V140 10SM BKN022 OVC026 09/05 A2977 RMK AO2 RAB05E15 SLP079 P0000 T00890050 $,PAHY,2022-10-23T10:56:00Z,55.2,-132.83,8.9,5.0,120,14,22,10.0,29.769686,1007.9,,TRUE,TRUE,TRUE,,,,,,BKN,2200,OVC,2600,,,,,MVFR,,,,,,0.005,,,,,,METAR,0.0
PAGS 231056Z AUTO 00000KT 10SM OVC044 04/01 A2974 RMK AO2 SLP070 T00390011,PAGS,2022-10-23T10:56:00Z,58.42,-135.7,3.9,1.1,0,0,,10.0,29.740158,1007.0,,TRUE,TRUE,,,,,,,OVC,4400,,,,,,,VFR,,,,,,,,,,,,METAR,9.0
PAGN 231056Z AUTO 06007KT 10SM SCT032 BKN039 OVC055 05/04 A2975 RMK AO2 PRESFR SLP065 T00500039,PAGN,2022-10-23T10:56:00Z,57.5,-134.58,5.0,3.9,60,7,,10.0,29.749016,1006.5,,TRUE,TRUE,,,,,,,SCT,3200,BKN,3900,OVC,5500,,,VFR,,,,,,,,,,,,METAR,2.0
PAGA 231056Z AUTO 10SM OVC034 M02/M02 A3001 RMK AO2 SLP165 T10171022 FZRANO $,PAGA,2022-10-23T10:56:00Z,64.73,-156.93,-1.7,-2.2,,,,10.0,30.008858,1016.5,,TRUE,TRUE,TRUE,,,TRUE,,,OVC,3400,,,,,,,VFR,,,,,,,,,,,,METAR,39.0
PAFM 231056Z AUTO 13004KT 10SM SCT013 BKN043 BKN110 M02/M03 A2999 RMK AO2 SLP165 T10221033 FZRANO,PAFM,2022-10-23T10:56:00Z,67.1,-157.85,-2.2,-3.3,130,4,,10.0,29.991142,1016.5,,TRUE,TRUE,,,,TRUE,,,SCT,1300,BKN,4300,BKN,11000,,,VFR,,,,,,,,,,,,METAR,79.0
PAFE 231056Z AUTO 09007G15KT 10SM -RA BKN065 OVC090 06/02 A2977 RMK AO2 RAB47 SLP094 P0000 T00560022,PAFE,2022-10-23T10:56:00Z,56.97,-133.92,5.6,2.2,90,7,15,10.0,29.769686,1009.4,,TRUE,TRUE,,,,,,-RA,BKN,6500,OVC,9000,,,,,VFR,,,,,,0.005,,,,,,METAR,1.0
PAEI 231056Z 00000KT 1/2SM R32/2800V3500FT FZFG OVC002 M02/M02 A2992 RMK AO2A SLP142 T10171023 $,PAEI,2022-10-23T10:56:00Z,64.67,-147.1,-1.7,-2.3,0,0,,0.5,29.920275,1014.2,,,TRUE,TRUE,,,,,FZFG,OVC,200,,,,,,,LIFR,,,,,,,,,,,,METAR,166.0
PADU 231056Z AUTO VRB04KT 10SM CLR 06/02 A3027 RMK AO2 SLP255 T00610017,PADU,2022-10-23T10:56:00Z,53.9,-166.53,6.1,1.7,0,4,,10.0,30.268702,1025.5,,TRUE,TRUE,,,,,,,CLR,,,,,,,,VFR,,,,,,,,,,,,METAR,4.0
PADL 231056Z AUTO 00000KT 10SM CLR M02/M03 A3003 RMK AO2 SLP172 T10221028 FZRANO,PADL,2022-10-23T10:56:00Z,59.05,-158.5,-2.2,-2.8,0,0,,10.0,30.029528,1017.2,,TRUE,TRUE,,,,TRUE,,,CLR,,,,,,,,VFR,,,,,,,,,,,,METAR,20.0
PABV 231056Z AUTO 20007KT 10SM CLR M03/M04 A2981 RMK AO2 SLP102 T10281039 FZRANO,PABV,2022-10-23T10:56:00Z,61.42,-149.52,-2.8,-3.9,200,7,,10.0,29.811024,1010.2,,TRUE,TRUE,,,,TRUE,,,CLR,,,,,,,,VFR,,,,,,,,,,,,METAR,21.0
PAAK 231056Z AUTO 18013G25KT 10SM -RA SCT019 BKN023 OVC031 A3027 RMK AO2 SLPNO P0001 FZRANO $,PAAK,2022-10-23T10:56:00Z,52.22,-174.2,,,180,13,25,10.0,30.268702,,,TRUE,TRUE,TRUE,,,TRUE,,-RA,SCT,1900,BKN,2300,OVC,3100,,,MVFR,,,,,,0.01,,,,,,METAR,11.0
OEPS 231056Z VRB06KT 9999 CLR 34/01 A3016 RMK A02A SLPNO WND DATA ESTMD T03400010 53010,OEPS,2022-10-23T10:56:00Z,24.07,47.58,34.0,1.0,0,6,,6.21,30.159449,,,,TRUE,,,,,,,CLR,,,,,,,,VFR,1.0,,,,,,,,,,,SPECI,503.0
KYKN 231056Z AUTO 08007KT 10SM CLR 12/09 A2939 RMK AO2 SLP958 T01170094,KYKN,2022-10-23T10:56:00Z,42.92,-97.37,11.7,9.4,80,7,,10.0,29.388779,995.8,,TRUE,TRUE,,,,,,,CLR,,,,,,,,VFR,,,,,,,,,,,,METAR,388.0
KY50 231056Z AUTO 14005KT 10SM CLR 13/12 A2985 RMK AO2 SLP103 T01330117 $,KY50,2022-10-23T10:56:00Z,44.03,-89.3,13.3,11.7,140,5,,10.0,29.84941,1010.3,,TRUE,TRUE,TRUE,,,,,,CLR,,,,,,,,VFR,,,,,,,,,,,,METAR,261.0
KWWD 231056Z AUTO 03011KT 10SM 15/13 A3019 RMK AO2 SLP224 T01500128 $,KWWD,2022-10-23T10:56:00Z,39.02,-74.92,15.0,12.8,30,11,,10.0,30.188976,1022.4,,TRUE,TRUE,TRUE,,,,,,,,,,,,,,,,,,,,,,,,,,METAR,4.0
KWMC 231056Z AUTO A2984 RMK AO2 SLPNO PWINO FZRANO $,KWMC,2022-10-23T10:56:00Z,40.9,-117.8,,,,,,,29.840551,,,TRUE,TRUE,TRUE,,,TRUE,TRUE,,,,,,,,,,,,,,,,,,,,,,METAR,1311.0
KWJF 231056Z AUTO 25014KT 10SM CLR 12/03 A2979 RMK AO2 SLP083 T01170033,KWJF,2022-10-23T10:56:00Z,34.73,-118.22,11.7,3.3,250,14,,10.0,29.790354,1008.3,,TRUE,TRUE,,,,,,,CLR,,,,,,,,VFR,,,,,,,,,,,,METAR,712.0
KVPZ 231056Z AUTO 16008KT 10SM SCT050 BKN060 17/11 A2998 RMK AO2 SLP149 T01670106 $,KVPZ,2022-10-23T10:56:00Z,41.45,-87.0,16.7,10.6,160,8,,10.0,29.97933,1014.9,,TRUE,TRUE,TRUE,,,,,,SCT,5000,BKN,6000,,,,,VFR,,,,,,,,,,,,METAR,235.0
KVIS 231056Z AUTO 31010KT 10SM CLR 11/05 A2984 RMK AO2 SLP112 T01110050,KVIS,2022-10-23T10:56:00Z,36.32,-119.4,11.1,5.0,310,10,,10.0,29.840551,1011.2,,TRUE,TRUE,,,,,,,CLR,,,,,,,,VFR,,,,,,,,,,,,METAR,92.0
KVBT 231056Z AUTO 19012G19KT 10SM CLR 20/14 A2980 RMK AO2 SLP082 T02000144,KVBT,2022-10-23T10:56:00Z,36.35,-94.22,20.0,14.4,190,12,19,10.0,29.799213,1008.2,,TRUE,TRUE,,,,,,,CLR,,,,,,,,VFR,,,,,,,,,,,,METAR,390.0
KUKI 231056Z AUTO 00000KT 10SM CLR 07/02 A2995 RMK AO2 SLP140 T00720017,KUKI,2022-10-23T10:56:00Z,39.12,-123.2,7.2,1.7,0,0,,10.0,29.949802,1014.0,,TRUE,TRUE,,,,,,,CLR,,,,,,,,VFR,,,,,,,,,,,,METAR,183.0
KUDG 231056Z AUTO 35005KT 10SM CLR 09/09 A3019 RMK AO2 SLP226 T00890089,KUDG,2022-10-23T10:56:00Z,34.45,-79.88,8.9,8.9,350,5,,10.0,30.188976,1022.6,,TRUE,TRUE,,,,,,,CLR,,,,,,,,VFR,,,,,,,,,,,,METAR,57.0
KUCP 231056Z AUTO 00000KT 10SM CLR 04/03 A3024 RMK AO2 SLP259 T00390033,KUCP,2022-10-23T10:56:00Z,41.03,-80.42,3.9,3.3,0,0,,10.0,30.239174,1025.9,,TRUE,TRUE,,,,,,,CLR,,,,,,,,VFR,,,,,,,,,,,,METAR,313.0
KTVF 231056Z AUTO 06011KT 10SM CLR 06/04 A2957 RMK AO2 SLP021 T00560044,KTVF,2022-10-23T10:56:00Z,48.07,-96.17,5.6,4.4,60,11,,10.0,29.568897,1002.1,,TRUE,TRUE,,,,,,,CLR,,,,,,,,VFR,,,,,,,,,,,,METAR,339.0
KTPH 231056Z AUTO 31005KT 10SM CLR 00/M04 A2982 RMK AO2 SLP090 T00001044,KTPH,2022-10-23T10:56:00Z,38.05,-117.08,0.0,-4.4,310,5,,10.0,29.819881,1009.0,,TRUE,TRUE,,,,,,,CLR,,,,,,,,VFR,,,,,,,,,,,,METAR,1647.0
KSXT 231056Z AUTO 00000KT 1/2SM FG BKN006 BKN016 OVC027 02/01 A2997 RMK AO2 RAE05 SLP163 P0000 T00170011,KSXT,2022-10-23T10:56:00Z,42.6,-123.37,1.7,1.1,0,0,,0.5,29.970472,1016.3,,TRUE,TRUE,,,,,,FG,BKN,600,BKN,1600,OVC,2700,,,LIFR,,,,,,0.005,,,,,,METAR,1151.0
KSUE 231056Z AUTO 18012G18KT 10SM CLR 12/11 A2991 RMK AO2 SLP128 T01220111,KSUE,2022-10-23T10:56:00Z,44.85,-87.42,12.2,11.1,180,12,18,10.0,29.911417,1012.8,,TRUE,TRUE,,,,,,,CLR,,,,,,,,VFR,,,,,,,,,,,,METAR,215.0
KSRC 231056Z AUTO 18012KT 10SM CLR 19/15 A2995 RMK AO2 SLP139 T01940150,KSRC,2022-10-23T10:56:00Z,35.22,-91.73,19.4,15.0,180,12,,10.0,29.949802,1013.9,,TRUE,TRUE,,,,,,,CLR,,,,,,,,VFR,,,,,,,,,,,,METAR,80.0
KSQI 231056Z AUTO 12007KT 10SM CLR 14/12 A2984 RMK AO2 SLP969 T01440117,KSQI,2022-10-23T10:56:00Z,41.75,-89.67,14.4,11.7,120,7,,10.0,29.840551,996.9,,TRUE,TRUE,,,,,,,CLR,,,,,,,,VFR,,,,,,,,,,,,METAR,196.0
KSPD 231056Z AUTO 21025G38KT 19/08 A2949 RMK AO1 PK WND 21038/1056 SLP917 T01890078,KSPD,2022-10-23T10:56:00Z,37.28,-102.62,18.9,7.8,210,25,38,,29.489174,991.7,,TRUE,TRUE,,,,,,,,,,,,,,,,,,,,,,,,,,,METAR,1340.0
KSOP 231056Z AUTO 32004KT 10SM CLR 08/08 A3020 RMK AO2 SLP233 T00780078 TSNO,KSOP,2022-10-23T10:56:00Z,35.23,-79.4,7.8,7.8,320,4,,10.0,30.200787,1023.3,,TRUE,TRUE,,,TRUE,,,,CLR,,,,,,,,VFR,,,,,,,,,,,,METAR,135.0
KSMP 231056Z AUTO VRB04KT 1/4SM FG VV002 00/M01 A2988 RMK AO2 SLP139 T00001011 $,KSMP,2022-10-23T10:56:00Z,47.28,-121.33,0.0,-1.1,0,4,,0.25,29.878937,1013.9,,TRUE,TRUE,TRUE,,,,,FG,OVX,0,,,,,,,LIFR,,,,,,,,,,,200,METAR,1206.0
KSMN 231056Z AUTO 12004KT 10SM OVC060 03/M06 A2971 RMK AO2 SLP765 T00331061,KSMN,2022-10-23T10:56:00Z,45.12,-113.87,3.3,-6.1,120,4,,10.0,29.71063,976.5,,TRUE,TRUE,,,,,,,OVC,6000,,,,,,,VFR,,,,,,,,,,,,METAR,1228.0
KSLG 231056Z AUTO 17016G26KT 10SM CLR 20/14 A2979 RMK AO2 PK WND 18029/0957 SLP074 T02000144,KSLG,2022-10-23T10:56:00Z,36.2,-94.48,20.0,14.4,170,16,26,10.0,29.790354,1007.4,,TRUE,TRUE,,,,,,,CLR,,,,,,,,VFR,,,,,,,,,,,,METAR,361.0
KSLE 231056Z AUTO 00000KT 10SM FEW049 OVC060 07/06 A3000 RMK AO2 SLP159 T00720061,KSLE,2022-10-23T10:56:00Z,44.9,-123.0,7.2,6.1,0,0,,10.0,30.0,1015.9,,TRUE,TRUE,,,,,,,FEW,4900,OVC,6000,,,,,VFR,,,,,,,,,,,,METAR,63.0
KSKX 231056Z AUTO 22014G22KT 10SM BKN080 11/06 A2973 RMK AO2 PK WND 21026/1022 SLP006 T01110056,KSKX,2022-10-23T10:56:00Z,36.45,-105.67,11.1,5.6,220,14,22,10.0,29.731298,1000.6,,TRUE,TRUE,,,,,,,BKN,8000,,,,,,,VFR,,,,,,,,,,,,METAR,2163.0
KSHV 231056Z 15008KT 10SM FEW032 SCT045 18/16 A2994 RMK SLPNO,KSHV,2022-10-23T10:56:00Z,32.45,-93.83,18.0,16.0,150,8,,10.0,29.940945,,,,,,,,,,,FEW,3200,SCT,4500,,,,,VFR,,,,,,,,,,,,METAR,70.0
KSGU 231056Z AUTO 24005KT 10SM FEW033 BKN090 OVC110 09/06 A2968 RMK AO2 RAE23 SLP027 P0000 T00940061,KSGU,2022-10-23T10:56:00Z,37.03,-113.52,9.4,6.1,240,5,,10.0,29.681103,1002.7,,TRUE,TRUE,,,,,,,FEW,3300,BKN,9000,OVC,11000,,,VFR,,,,,,0.005,,,,,,METAR,877.0
KSGT 231056Z AUTO 18014G21KT 10SM CLR 19/14 A2999 RMK AO2 SLP155 T01890139,KSGT,2022-10-23T10:56:00Z,34.6,-91.57,18.9,13.9,180,14,21,10.0,29.991142,1015.5,,TRUE,TRUE,,,,,,,CLR,,,,,,,,VFR,,,,,,,,,,,,METAR,67.0
KSGJ 231056Z 32007KT 10SM CLR 14/14 A3012 RMK AO2 SLP197 T01440139,KSGJ,2022-10-23T10:56:00Z,29.97,-81.33,14.4,13.9,320,7,,10.0,30.121063,1019.7,,,TRUE,,,,,,,CLR,,,,,,,,VFR,,,,,,,,,,,,METAR,2.0
KSGH 231056Z AUTO 17006KT 10SM CLR 13/08 A3016 RMK AO2 SLP214 T01280083,KSGH,2022-10-23T10:56:00Z,39.83,-83.83,12.8,8.3,170,6,,10.0,30.159449,1021.4,,TRUE,TRUE,,,,,,,CLR,,,,,,,,VFR,,,,,,,,,,,,METAR,318.0
KSFZ 231056Z AUTO 00000KT 10SM CLR 09/08 A3033 RMK AO2 SLP272 T00890078,KSFZ,2022-10-23T10:56:00Z,41.92,-71.5,8.9,7.8,0,0,,10.0,30.33071,1027.2,,TRUE,TRUE,,,,,,,CLR,,,,,,,,VFR,,,,,,,,,,,,METAR,129.0
KSFO 231056Z 28011KT 10SM CLR 12/07 A2990 RMK AO2 SLP125 T01220067 $,KSFO,2022-10-23T10:56:00Z,37.62,-122.37,12.2,6.7,280,11,,10.0,29.899607,1012.5,,,TRUE,TRUE,,,,,,CLR,,,,,,,,VFR,,,,,,,,,,,,METAR,2.0
KSFM 231056Z AUTO 00000KT 10SM CLR 03/03 A3035 RMK AO2 SLP282 T00330028,KSFM,2022-10-23T10:56:00Z,43.38,-70.72,3.3,2.8,0,0,,10.0,30.351377,1028.2,,TRUE,TRUE,,,,,,,CLR,,,,,,,,VFR,,,,,,,,,,,,METAR,70.0
KSDY 231056Z AUTO 06014KT 10SM OVC009 07/05 A2944 RMK AO2 RAB01E41 SLP983 T00670050 PNO $,KSDY,2022-10-23T10:56:00Z,47.7,-104.2,6.7,5.0,60,14,,10.0,29.438976,998.3,,TRUE,TRUE,TRUE,,,,,,OVC,900,,,,,,,IFR,,,,,,,,,,,,METAR,600.0
KSDF 231056Z 14006KT 10SM FEW070 SCT200 BKN250 15/11 A3012 RMK AO2 SLP198 T01500106,KSDF,2022-10-23T10:56:00Z,38.18,-85.73,15.0,10.6,140,6,,10.0,30.121063,1019.8,,,TRUE,,,,,,,FEW,7000,SCT,20000,BKN,25000,,,VFR,,,,,,,,,,,,METAR,146.0
KSBP 231056Z AUTO 00000KT 9SM CLR 07/06 A2984 RMK AO2 SLP105 T00720056,KSBP,2022-10-23T10:56:00Z,35.23,-120.63,7.2,5.6,0,0,,9.0,29.840551,1010.5,,TRUE,TRUE,,,,,,,CLR,,,,,,,,VFR,,,,,,,,,,,,METAR,52.0
KRUT 231056Z AUTO 11006KT 10SM CLR 05/03 A3035 RMK AO2 SLP274 T00500028 $,KRUT,2022-10-23T10:56:00Z,43.53,-72.95,5.0,2.8,110,6,,10.0,30.351377,1027.4,,TRUE,TRUE,TRUE,,,,,,CLR,,,,,,,,VFR,,,,,,,,,,,,METAR,238.0
KRDM 231056Z AUTO 16004KT 10SM SCT075 01/M01 A2991 RMK AO2 SLP134 T00061011,KRDM,2022-10-23T10:56:00Z,44.25,-121.15,0.6,-1.1,160,4,,10.0,29.911417,1013.4,,TRUE,TRUE,,,,,,,SCT,7500,,,,,,,VFR,,,,,,,,,,,,METAR,930.0
KPVG 231056Z AUTO VRB04KT 10SM OVC008 14/13 A3010 RMK AO2 SLP193 T01390128 PNO $,KPVG,2022-10-23T10:56:00Z,36.78,-76.45,13.9,12.8,0,4,,10.0,30.100393,1019.3,,TRUE,TRUE,TRUE,,,,,,OVC,800,,,,,,,IFR,,,,,,,,,,,,METAR,7.0
KPVC 231056Z AUTO 10003KT 10SM SCT004 13/13 A3034 RMK AO2 SLP271 T01280128,KPVC,2022-10-23T10:56:00Z,42.07,-70.22,12.8,12.8,100,3,,10.0,30.339567,1027.1,,TRUE,TRUE,,,,,,,SCT,400,,,,,,,VFR,,,,,,,,,,,,METAR,1.0
KPTV 231056Z AUTO 00000KT 10SM CLR 08/05 A2984 RMK AO2 SLP104 T00830050,KPTV,2022-10-23T10:56:00Z,36.02,-119.07,8.3,5.0,0,0,,10.0,29.840551,1010.4,,TRUE,TRUE,,,,,,,CLR,,,,,,,,VFR,,,,,,,,,,,,METAR,132.0
KPTN 231056Z AUTO 10005KT 10SM SCT060 18/16 A3004 RMK AO2 SLP174 T01780156 $,KPTN,2022-10-23T10:56:00Z,29.72,-91.33,17.8,15.6,100,5,,10.0,30.041338,1017.4,,TRUE,TRUE,TRUE,,,,,,SCT,6000,,,,,,,VFR,,,,,,,,,,,,METAR,2.0
KPRX 231056Z AUTO 15012KT 10SM OVC031 19/17 A2985 RMK AO2 SLP105 T01890172,KPRX,2022-10-23T10:56:00Z,33.63,-95.45,18.9,17.2,150,12,,10.0,29.84941,1010.5,,TRUE,TRUE,,,,,,,OVC,3100,,,,,,,VFR,,,,,,,,,,,,METAR,165.0
KPQI 231056Z AUTO 00000KT 10SM CLR 03/02 A3034 RMK AO2 SLP302 T00280022,KPQI,2022-10-23T10:56:00Z,46.68,-68.05,2.8,2.2,0,0,,10.0,30.339567,1030.2,,TRUE,TRUE,,,,,,,CLR,,,,,,,,VFR,,,,,,,,,,,,METAR,154.0
KPIB 231056Z AUTO 00000KT 9SM CLR 11/11 A3012 RMK AO2 SLP198 T01110111 PNO $,KPIB,2022-10-23T10:56:00Z,31.47,-89.33,11.1,11.1,0,0,,9.0,30.121063,1019.8,,TRUE,TRUE,TRUE,,,,,,CLR,,,,,,,,VFR,,,,,,,,,,,,METAR,91.0
KP60 231056Z AUTO 00000KT M04/M05 A2953 RMK AO1 SLP998 T10391050 $,KP60,2022-10-23T10:56:00Z,44.55,-110.42,-3.9,-5.0,0,0,,,29.530512,999.8,,TRUE,TRUE,TRUE,,,,,,,,,,,,,,,,,,,,,,,,,,METAR,2377.0
KP53 231056Z AUTO 20008KT 13/10 A2989 RMK AO1 SLP123 T01280100,KP53,2022-10-23T10:56:00Z,46.42,-86.65,12.8,10.0,200,8,,,29.890747,1012.3,,TRUE,TRUE,,,,,,,,,,,,,,,,,,,,,,,,,,,METAR,185.0
KP28 231056Z AUTO 16008KT 19/11 A2951 RMK AO1 SLP975 T01940111 $,KP28,2022-10-23T10:56:00Z,37.28,-98.55,19.4,11.1,160,8,,,29.509842,997.5,,TRUE,TRUE,TRUE,,,,,,,,,,,,,,,,,,,,,,,,,,METAR,469.0
KOWB 231056Z 16008KT 10SM BKN075 17/11 A3008 RMK AO2 SLP184 T01720111,KOWB,2022-10-23T10:56:00Z,37.72,-87.17,17.2,11.1,160,8,,10.0,30.079725,1018.4,,,TRUE,,,,,,,BKN,7500,,,,,,,VFR,,,,,,,,,,,,METAR,121.0
KOTH 231056Z AUTO 15006KT 10SM CLR 07/07 A3007 RMK AO2 SLP180 T00670067,KOTH,2022-10-23T10:56:00Z,43.42,-124.25,6.7,6.7,150,6,,10.0,30.070866,1018.0,,TRUE,TRUE,,,,,,,CLR,,,,,,,,VFR,,,,,,,,,,,,METAR,3.0
KOTG 231056Z AUTO 14011KT 10SM CLR 13/09 A2952 RMK AO2 SLP992 T01280094,KOTG,2022-10-23T10:56:00Z,43.65,-95.57,12.8,9.4,140,11,,10.0,29.518702,999.2,,TRUE,TRUE,,,,,,,CLR,,,,,,,,VFR,,,,,,,,,,,,METAR,478.0
KOLU 231056Z AUTO 12007KT 10SM CLR 16/13 A2939 RMK AO2 SLP946 T01610133,KOLU,2022-10-23T10:56:00Z,41.45,-97.33,16.1,13.3,120,7,,10.0,29.388779,994.6,,TRUE,TRUE,,,,,,,CLR,,,,,,,,VFR,,,,,,,,,,,,METAR,438.0
KOKK 231056Z AUTO 17014KT 10SM CLR 15/12 A3006 RMK AO2 SLP177 T01500117 PNO $,KOKK,2022-10-23T10:56:00Z,40.53,-86.07,15.0,11.7,170,14,,10.0,30.059055,1017.7,,TRUE,TRUE,TRUE,,,,,,CLR,,,,,,,,VFR,,,,,,,,,,,,METAR,251.0
KOFK 231056Z AUTO 13012KT 10SM CLR 14/11 A2938 RMK AO2 SLP937 T01440111,KOFK,2022-10-23T10:56:00Z,41.98,-97.43,14.4,11.1,130,12,,10.0,29.379921,993.7,,TRUE,TRUE,,,,,,,CLR,,,,,,,,VFR,,,,,,,,,,,,METAR,476.0
KOCH 231056Z AUTO 14005KT 10SM SCT039 18/17 A2995 RMK AO2 SLP142 T01830172,KOCH,2022-10-23T10:56:00Z,31.57,-94.72,18.3,17.2,140,5,,10.0,29.949802,1014.2,,TRUE,TRUE,,,,,,,SCT,3900,,,,,,,VFR,,,,,,,,,,,,METAR,105.0
KOAJ 231056Z VRB03KT 10SM CLR 14/09 A3013 RMK AO2 SLP205 T01390089,KOAJ,2022-10-23T10:56:00Z,34.82,-77.62,13.9,8.9,0,3,,10.0,30.129921,1020.5,,,TRUE,,,,,,,CLR,,,,,,,,VFR,,,,,,,,,,,,METAR,26.0
KNYG 231056Z AUTO 31006KT 9SM CLR 09/ A3025 RMK AO2 SLP245 T0089 $,KNYG,2022-10-23T10:56:00Z,38.5,-77.3,8.9,,310,6,,9.0,30.250984,1024.5,,TRUE,TRUE,TRUE,,,,,,CLR,,,,,,,,VFR,,,,,,,,,,,,METAR,2.0
KNXP 231056Z AUTO 23010KT 10SM CLR 14/07 A2979 RMK AO2 SLP059 T01390067 $,KNXP,2022-10-23T10:56:00Z,34.28,-116.13,13.9,6.7,230,10,,10.0,29.790354,1005.9,,TRUE,TRUE,TRUE,,,,,,CLR,,,,,,,,VFR,,,,,,,,,,,,SPECI,610.0
KNXF 231056Z AUTO 10SM 17/12 A2980 RMK AO2 SLP175 T01670117 PWINO $,KNXF,2022-10-23T10:56:00Z,33.28,-117.45,16.7,11.7,,,,10.0,29.799213,1017.5,,TRUE,TRUE,TRUE,,,,TRUE,,,,,,,,,,,,,,,,,,,,,,METAR,28.0
KNUC 231056Z AUTO 30012KT 10SM OVC026 15/ A2983 RMK AO2 SLP097 T0150 $,KNUC,2022-10-23T10:56:00Z,33.02,-118.57,15.0,,300,12,,10.0,29.828741,1009.7,,TRUE,TRUE,TRUE,,,,,,OVC,2600,,,,,,,MVFR,,,,,,,,,,,,METAR,52.0
KNTU 231056Z 03016G23KT 10SM OVC008 16/14 A3008 RMK AO2 SLP187 T01610144,KNTU,2022-10-23T10:56:00Z,36.82,-76.02,16.1,14.4,30,16,23,10.0,30.079725,1018.7,,,TRUE,,,,,,,OVC,800,,,,,,,IFR,,,,,,,,,,,,SPECI,6.0
KNSE 231056Z AUTO 03003KT 10SM CLR 07/06 A3015 RMK AO2 SLP196 T00670056 PNO $,KNSE,2022-10-23T10:56:00Z,30.73,-87.02,6.7,5.6,30,3,,10.0,30.15059,1019.6,,TRUE,TRUE,TRUE,,,,,,CLR,,,,,,,,VFR,,,,,,,,,,,,METAR,56.0
KNQI 231056Z AUTO 13006KT 10SM CLR 20/19 A2984 RMK AO2 SLP100 T02000194 $,KNQI,2022-10-23T10:56:00Z,27.5,-97.82,20.0,19.4,130,6,,10.0,29.840551,1010.0,,TRUE,TRUE,TRUE,,,,,,CLR,,,,,,,,VFR,,,,,,,,,,,,METAR,15.0
KNPA 231056Z AUTO 02003KT 10SM CLR 12/ A3013 RMK AO2 SLP204 T0122 $,KNPA,2022-10-23T10:56:00Z,30.35,-87.32,12.2,,20,3,,10.0,30.129921,1020.4,,TRUE,TRUE,TRUE,,,,,,CLR,,,,,,,,VFR,,,,,,,,,,,,METAR,6.0
KNOG 231056Z AUTO 14009KT 10SM CLR 19/18 A2985 RMK AO2 SLP087 T01940183 PNO $,KNOG,2022-10-23T10:56:00Z,27.9,-98.05,19.4,18.3,140,9,,10.0,29.84941,1008.7,,TRUE,TRUE,TRUE,,,,,,CLR,,,,,,,,VFR,,,,,,,,,,,,METAR,72.0
KNLC 231056Z AUTO 31009KT 10SM CLR 11/02 A2984 RMK AO2 SLP104 T01060017,KNLC,2022-10-23T10:56:00Z,36.32,-119.95,10.6,1.7,310,9,,10.0,29.840551,1010.4,,TRUE,TRUE,,,,,,,CLR,,,,,,,,VFR,,,,,,,,,,,,METAR,69.0
KNKT 231056Z 36008KT 10SM OVC011 15/13 A3010 RMK AO2 SLP190 T01500128,KNKT,2022-10-23T10:56:00Z,34.9,-76.88,15.0,12.8,360,8,,10.0,30.100393,1019.0,,,TRUE,,,,,,,OVC,1100,,,,,,,MVFR,,,,,,,,,,,,METAR,8.0
KNJK 231056Z AUTO 26013KT 10SM CLR 22/11 A2972 RMK AO2 SLP078 T02170111 $,KNJK,2022-10-23T10:56:00Z,32.82,-115.67,21.7,11.1,260,13,,10.0,29.719488,1007.8,,TRUE,TRUE,TRUE,,,,,,CLR,,,,,,,,VFR,,,,,,,,,,,,METAR,-15.0
KNID 231056Z AUTO 32007KT 10SM CLR 12/M07 A2973 RMK AO2 SLP059 T01221072 $,KNID,2022-10-23T10:56:00Z,35.68,-117.68,12.2,-7.2,320,7,,10.0,29.731298,1005.9,,TRUE,TRUE,TRUE,,,,,,CLR,,,,,,,,VFR,,,,,,,,,,,,SPECI,682.0
KNGP 231056Z AUTO 18008KT 10SM FEW026 BKN045 OVC050 27/21 A2985 RMK AO2 CIG 029 SLP106 T02670206,KNGP,2022-10-23T10:56:00Z,27.68,-97.28,26.7,20.6,180,8,,10.0,29.84941,1010.6,,TRUE,TRUE,,,,,,,FEW,2600,BKN,4500,OVC,5000,,,VFR,,,,,,,,,,,,METAR,5.0
KNFL 231056Z AUTO 35007KT 10SM CLR 00/M06 A2987 RMK AO2 SLP090 T00001061,KNFL,2022-10-23T10:56:00Z,39.42,-118.7,0.0,-6.1,350,7,,10.0,29.870079,1009.0,,TRUE,TRUE,,,,,,,CLR,,,,,,,,VFR,,,,,,,,,,,,METAR,1199.0
KNFE 231056Z AUTO 01009KT 10SM -RA OVC008 17/14 A3009 RMK AO2 RAB14 SLP190 P0000 T01670139,KNFE,2022-10-23T10:56:00Z,36.7,-76.13,16.7,13.9,10,9,,10.0,30.088583,1019.0,,TRUE,TRUE,,,,,,-RA,OVC,800,,,,,,,IFR,,,,,,0.005,,,,,,METAR,4.0
KNDZ 231056Z AUTO 03003KT CLR 08/06 A3015 RMK AO2 SLP195 T00780061 $,KNDZ,2022-10-23T10:56:00Z,30.7,-87.02,7.8,6.1,30,3,,,30.15059,1019.5,,TRUE,TRUE,TRUE,,,,,,CLR,,,,,,,,,,,,,,,,,,,,SPECI,51.0
KNCA 231056Z AUTO 33008KT 10SM CLR 14/11 A3011 RMK AO2 SLP197 T01390111 $,KNCA,2022-10-23T10:56:00Z,34.72,-77.45,13.9,11.1,330,8,,10.0,30.109253,1019.7,,TRUE,TRUE,TRUE,,,,,,CLR,,,,,,,,VFR,,,,,,,,,,,,SPECI,9.0
KNBC 231056Z AUTO 36005KT 10SM CLR 12/11 A3016 RMK AO2 SLP212 T01220111,KNBC,2022-10-23T10:56:00Z,32.47,-80.72,12.2,11.1,360,5,,10.0,30.159449,1021.2,,TRUE,TRUE,,,,,,,CLR,,,,,,,,VFR,,,,,,,,,,,,METAR,9.0
KMYR 231056Z 33008KT 10SM CLR 13/11 A3014 RMK AO2 SLP207 T01280106,KMYR,2022-10-23T10:56:00Z,33.68,-78.92,12.8,10.6,330,8,,10.0,30.138779,1020.7,,,TRUE,,,,,,,CLR,,,,,,,,VFR,,,,,,,,,,,,METAR,7.0
KMVN 231056Z AUTO 17008KT 10SM CLR 17/12 A2996 RMK AO2 SLP147 T01720117,KMVN,2022-10-23T10:56:00Z,38.32,-88.87,17.2,11.7,170,8,,10.0,29.958662,1014.7,,TRUE,TRUE,,,,,,,CLR,,,,,,,,VFR,,,,,,,,,,,,METAR,145.0
KMUO 231056Z AUTO 29013KT 10SM CLR 02/M01 A2974 RMK AO2 SLP076 T00161010 $,KMUO,2022-10-23T10:56:00Z,43.03,-115.87,1.6,-1.0,290,13,,10.0,29.740158,1007.6,,TRUE,TRUE,TRUE,,,,,,CLR,,,,,,,,VFR,,,,,,,,,,,,SPECI,915.0
KMTW 231056Z AUTO 14006KT 10SM CLR 12/11 A2991 RMK AO2 SLP131 T01170111,KMTW,2022-10-23T10:56:00Z,44.12,-87.67,11.7,11.1,140,6,,10.0,29.911417,1013.1,,TRUE,TRUE,,,,,,,CLR,,,,,,,,VFR,,,,,,,,,,,,METAR,197.0
KMSV 231056Z AUTO 02004KT 10SM CLR 03/02 A3032 RMK AO2 SLP274 T00280022,KMSV,2022-10-23T10:56:00Z,41.7,-74.78,2.8,2.2,20,4,,10.0,30.318897,1027.4,,TRUE,TRUE,,,,,,,CLR,,,,,,,,VFR,,,,,,,,,,,,METAR,427.0
KMRF 231056Z AUTO 00000KT 10SM CLR 11/06 A2993 RMK AO2 SLP074 T01110061,KMRF,2022-10-23T10:56:00Z,30.37,-104.02,11.1,6.1,0,0,,10.0,29.929134,1007.4,,TRUE,TRUE,,,,,,,CLR,,,,,,,,VFR,,,,,,,,,,,,METAR,1476.0
KMQY 231056Z 15003KT 10SM CLR 09/09 A3017 RMK AO2 SLP224 T00940089,KMQY,2022-10-23T10:56:00Z,36.02,-86.52,9.4,8.9,150,3,,10.0,30.171259,1022.4,,,TRUE,,,,,,,CLR,,,,,,,,VFR,,,,,,,,,,,,METAR,156.0
KMOB 231056Z 05004KT 7SM FEW240 13/09 A3013 RMK AO2 SLP200 T01280089,KMOB,2022-10-23T10:56:00Z,30.68,-88.25,12.8,8.9,50,4,,7.0,30.129921,1020.0,,,TRUE,,,,,,,FEW,24000,,,,,,,VFR,,,,,,,,,,,,METAR,67.0
KMNM 231056Z AUTO 00000KT 10SM CLR 12/11 A2990 RMK AO2 SLP126 T01170106 PNO $,KMNM,2022-10-23T10:56:00Z,45.12,-87.63,11.7,10.6,0,0,,10.0,29.899607,1012.6,,TRUE,TRUE,TRUE,,,,,,CLR,,,,,,,,VFR,,,,,,,,,,,,METAR,188.0
KMML 231056Z AUTO 13008KT 10SM CLR 11/07 A2950 RMK AO2 SLP989 T01060072,KMML,2022-10-23T10:56:00Z,44.45,-95.82,10.6,7.2,130,8,,10.0,29.500984,998.9,,TRUE,TRUE,,,,,,,CLR,,,,,,,,VFR,,,,,,,,,,,,METAR,358.0
KMKY 231056Z AUTO 01005KT 10SM CLR 19/17 A3005 RMK AO2 SLP177 T01890172 TSNO $,KMKY,2022-10-23T10:56:00Z,26.0,-81.67,18.9,17.2,10,5,,10.0,30.050198,1017.7,,TRUE,TRUE,TRUE,,TRUE,,,,CLR,,,,,,,,VFR,,,,,,,,,,,,METAR,2.0
KMKT 231056Z AUTO 14014KT 10SM CLR 16/09 A2959 RMK AO2 SLP018 T01560094,KMKT,2022-10-23T10:56:00Z,44.22,-93.92,15.6,9.4,140,14,,10.0,29.589567,1001.8,,TRUE,TRUE,,,,,,,CLR,,,,,,,,VFR,,,,,,,,,,,,METAR,309.0
KMHS 231056Z AUTO VRB06KT 10SM SCT026 BKN033 03/00 A2994 RMK AO2 SLP157 T00330000,KMHS,2022-10-23T10:56:00Z,41.32,-122.32,3.3,0.0,0,6,,10.0,29.940945,1015.7,,TRUE,TRUE,,,,,,,SCT,2600,BKN,3300,,,,,VFR,,,,,,,,,,,,METAR,1080.0
KMDT 231056Z 34003KT 7SM OVC250 07/06 A3028 RMK AO2 SLP256 T00670056 $,KMDT,2022-10-23T10:56:00Z,40.2,-76.77,6.7,5.6,340,3,,7.0,30.280512,1025.6,,,TRUE,TRUE,,,,,,OVC,25000,,,,,,,VFR,,,,,,,,,,,,METAR,91.0
KM19 231056Z AUTO 18020KT 10SM CLR 18/13 A2994 RMK AO2 PK WND 18026/1014 SLP136 T01780133 PNO $,KM19,2022-10-23T10:56:00Z,35.65,-91.17,17.8,13.3,180,20,,10.0,29.940945,1013.6,,TRUE,TRUE,TRUE,,,,,,CLR,,,,,,,,VFR,,,,,,,,,,,,METAR,72.0
KLZU 231056Z 00000KT 10SM CLR 04/04 A3021 RMK AO2 SLP241 T00440039,KLZU,2022-10-23T10:56:00Z,33.98,-83.97,4.4,3.9,0,0,,10.0,30.209646,1024.1,,,TRUE,,,,,,,CLR,,,,,,,,VFR,,,,,,,,,,,,METAR,316.0
KLWS 231056Z AUTO 00000KT 10SM CLR 05/02 A2983 RMK AO2 SLP106 T00500017,KLWS,2022-10-23T10:56:00Z,46.37,-117.02,5.0,1.7,0,0,,10.0,29.828741,1010.6,,TRUE,TRUE,,,,,,,CLR,,,,,,,,VFR,,,,,,,,,,,,METAR,435.0
KLRF 231056Z AUTO 17006KT 10SM OVC040 20/15 A2992 RMK AO2 SLP132 T01980150,KLRF,2022-10-23T10:56:00Z,34.92,-92.12,19.8,15.0,170,6,,10.0,29.920275,1013.2,,TRUE,TRUE,,,,,,,OVC,4000,,,,,,,VFR,,,,,,,,,,,,METAR,85.0
KLRD 231056Z 14011KT 10SM CLR 21/19 A2980 RMK AO2 SLP088 T02110189,KLRD,2022-10-23T10:56:00Z,27.55,-99.47,21.1,18.9,140,11,,10.0,29.799213,1008.8,,,TRUE,,,,,,,CLR,,,,,,,,VFR,,,,,,,,,,,,METAR,150.0
KLPC 231056Z AUTO 00000KT 10SM CLR 08/07 A2984 RMK AO2 SLP107 T00780067,KLPC,2022-10-23T10:56:00Z,34.67,-120.47,7.8,6.7,0,0,,10.0,29.840551,1010.7,,TRUE,TRUE,,,,,,,CLR,,,,,,,,VFR,,,,,,,,,,,,METAR,26.0
KLNR 231056Z AUTO 11006KT 10SM CLR 17/12 A2980 RMK AO2 SLP083 T01720117,KLNR,2022-10-23T10:56:00Z,43.22,-90.18,17.2,11.7,110,6,,10.0,29.799213,1008.3,,TRUE,TRUE,,,,,,,CLR,,,,,,,,VFR,,,,,,,,,,,,METAR,218.0
KLGD 231056Z AUTO 35006KT 10SM -RA SCT032 BKN040 03/02 A2985 RMK AO2 RAB01 SLP123 P0000 T00280017,KLGD,2022-10-23T10:56:00Z,45.28,-118.0,2.8,1.7,350,6,,10.0,29.84941,1012.3,,TRUE,TRUE,,,,,,-RA,SCT,3200,BKN,4000,,,,,VFR,,,,,,0.005,,,,,,METAR,827.0
KLEW 231056Z AUTO 34003KT 10SM FEW002 02/02 A3036 RMK AO2 SLP289 T00220022 FZRANO,KLEW,2022-10-23T10:56:00Z,44.03,-70.28,2.2,2.2,340,3,,10.0,30.360237,1028.9,,TRUE,TRUE,,,,TRUE,,,FEW,200,,,,,,,VFR,,,,,,,,,,,,METAR,81.0
KLCI 231056Z AUTO 00000KT 10SM CLR 04/04 A3036 RMK AO2 SLP283 T00440044,KLCI,2022-10-23T10:56:00Z,43.57,-71.42,4.4,4.4,0,0,,10.0,30.360237,1028.3,,TRUE,TRUE,,,,,,,CLR,,,,,,,,VFR,,,,,,,,,,,,METAR,166.0
KLBT 231056Z AUTO 34004KT 10SM CLR 12/10 A3016 RMK AO2 SLP213 T01170100 TSNO,KLBT,2022-10-23T10:56:00Z,34.6,-79.07,11.7,10.0,340,4,,10.0,30.159449,1021.3,,TRUE,TRUE,,,TRUE,,,,CLR,,,,,,,,VFR,,,,,,,,,,,,METAR,37.0
KLBL 231056Z AUTO 22022G29KT 10SM CLR 21/11 A2949 RMK AO2 PK WND 22030/1046 SLP950 T02060106,KLBL,2022-10-23T10:56:00Z,37.03,-100.97,20.6,10.6,220,22,29,10.0,29.489174,995.0,,TRUE,TRUE,,,,,,,CLR,,,,,,,,VFR,,,,,,,,,,,,METAR,877.0
KLAS 231056Z 00000KT 10SM FEW075 OVC090 13/06 A2970 RMK AO2 SLP039 T01280056,KLAS,2022-10-23T10:56:00Z,36.07,-115.17,12.8,5.6,0,0,,10.0,29.698818,1003.9,,,TRUE,,,,,,,FEW,7500,OVC,9000,,,,,VFR,,,,,,,,,,,,METAR,662.0
KKLS 231056Z AUTO 13003KT 10SM BKN016 OVC047 08/07 A3000 RMK AO2 SLP161 T00780067,KKLS,2022-10-23T10:56:00Z,46.12,-122.9,7.8,6.7,130,3,,10.0,30.0,1016.1,,TRUE,TRUE,,,,,,,BKN,1600,OVC,4700,,,,,MVFR,,,,,,,,,,,,METAR,4.0
KJXN 231056Z 13006KT 10SM CLR 11/09 A3009 RMK AO2 SLP191 T01060089,KJXN,2022-10-23T10:56:00Z,42.27,-84.47,10.6,8.9,130,6,,10.0,30.088583,1019.1,,,TRUE,,,,,,,CLR,,,,,,,,VFR,,,,,,,,,,,,METAR,303.0
KJRB 231056Z AUTO 04010KT 10SM OVC045 A3028 RMK AO2 SLPNO FZRANO $,KJRB,2022-10-23T10:56:00Z,40.7,-74.02,,,40,10,,10.0,30.280512,,,TRUE,TRUE,TRUE,,,TRUE,,,OVC,4500,,,,,,,VFR,,,,,,,,,,,,METAR,2.0
KJMS 231056Z AUTO 05007KT 10SM CLR 04/02 A2949 RMK AO2 SLP992 T00440022,KJMS,2022-10-23T10:56:00Z,46.93,-98.67,4.4,2.2,50,7,,10.0,29.489174,999.2,,TRUE,TRUE,,,,,,,CLR,,,,,,,,VFR,,,,,,,,,,,,METAR,455.0
KJHW 231056Z AUTO 18006KT 10SM CLR 08/02 A3027 RMK AO2 SLP257 T00780022,KJHW,2022-10-23T10:56:00Z,42.15,-79.27,7.8,2.2,180,6,,10.0,30.268702,1025.7,,TRUE,TRUE,,,,,,,CLR,,,,,,,,VFR,,,,,,,,,,,,METAR,520.0
KJAX 231056Z 00000KT 10SM CLR 11/09 A3012 RMK AO2 SLP199 T01110089,KJAX,2022-10-23T10:56:00Z,30.5,-81.68,11.1,8.9,0,0,,10.0,30.121063,1019.9,,,TRUE,,,,,,,CLR,,,,,,,,VFR,,,,,,,,,,,,METAR,8.0
KJAC 231056Z AUTO 20005KT 9SM -SN OVC050 M01/M03 A2953 RMK AO2 UPB22E24B50E52SNE06B24E50B52 SLP014 T10111033 FZRANO PNO $,KJAC,2022-10-23T10:56:00Z,43.62,-110.73,-1.1,-3.3,200,5,,9.0,29.530512,1001.4,,TRUE,TRUE,TRUE,,,TRUE,,-SN,OVC,5000,,,,,,,VFR,,,,,,,,,,,,METAR,1967.0
KIWD 231056Z AUTO 17009G18KT 140V210 10SM CLR 16/09 A2976 RMK AO2 SLP077 T01560094,KIWD,2022-10-23T10:56:00Z,46.52,-90.12,15.6,9.4,170,9,18,10.0,29.760826,1007.7,,TRUE,TRUE,,,,,,,CLR,,,,,,,,VFR,,,,,,,,,,,,METAR,373.0
KITH 231056Z 09006KT 10SM CLR 03/02 A3030 RMK AO2 SLP265 T00330022,KITH,2022-10-23T10:56:00Z,42.48,-76.45,3.3,2.2,90,6,,10.0,30.301182,1026.5,,,TRUE,,,,,,,CLR,,,,,,,,VFR,,,,,,,,,,,,METAR,338.0
KISP 231056Z 01007KT 10SM FEW045 BKN100 OVC200 14/12 A3028 RMK AO2 SLP252 T01390122,KISP,2022-10-23T10:56:00Z,40.8,-73.1,13.9,12.2,10,7,,10.0,30.280512,1025.2,,,TRUE,,,,,,,FEW,4500,BKN,10000,OVC,20000,,,VFR,,,,,,,,,,,,METAR,25.0
KISO 231056Z 35006KT 10SM CLR 13/10 A3014,KISO,2022-10-23T10:56:00Z,35.32,-77.62,13.0,10.0,350,6,,10.0,30.138779,,,,,,,,,,,CLR,,,,,,,,VFR,,,,,,,,,,,,METAR,27.0
KISM 231056Z 35006KT 10SM CLR 18/15 A3010 RMK AO2 SLP193 T01780150 PNO $,KISM,2022-10-23T10:56:00Z,28.28,-81.43,17.8,15.0,350,6,,10.0,30.100393,1019.3,,,TRUE,TRUE,,,,,,CLR,,,,,,,,VFR,,,,,,,,,,,,METAR,25.0
KINW 231056Z AUTO 24012KT 10SM FEW044 13/05 A2967 RMK AO2 PK WND 23029/1030 SLP989 T01280050,KINW,2022-10-23T10:56:00Z,35.03,-110.72,12.8,5.0,240,12,,10.0,29.66929,998.9,,TRUE,TRUE,,,,,,,FEW,4400,,,,,,,VFR,,,,,,,,,,,,METAR,1492.0
KILE 231056Z AUTO 19014G19KT 10SM OVC020 22/17 A2984 RMK AO2 SLP094 T02170172,KILE,2022-10-23T10:56:00Z,31.08,-97.68,21.7,17.2,190,14,19,10.0,29.840551,1009.4,,TRUE,TRUE,,,,,,,OVC,2000,,,,,,,MVFR,,,,,,,,,,,,METAR,256.0
KHYS 231056Z AUTO 20009KT 10SM CLR 14/07 A2940 RMK AO2 SLP940 T01390072 $,KHYS,2022-10-23T10:56:00Z,38.85,-99.27,13.9,7.2,200,9,,10.0,29.40059,994.0,,TRUE,TRUE,TRUE,,,,,,CLR,,,,,,,,VFR,,,,,,,,,,,,METAR,607.0
KHYA 231056Z 04003KT 10SM FEW120 12/12 A3030 RMK AO2 SLP263 T01220122 $,KHYA,2022-10-23T10:56:00Z,41.67,-70.27,12.2,12.2,40,3,,10.0,30.301182,1026.3,,,TRUE,TRUE,,,,,,FEW,12000,,,,,,,VFR,,,,,,,,,,,,METAR,11.0
KHWV 231056Z AUTO VRB04KT 10SM FEW110 14/11 A3028 RMK AO2 SLP253 T01390111,KHWV,2022-10-23T10:56:00Z,40.82,-72.87,13.9,11.1,0,4,,10.0,30.280512,1025.3,,TRUE,TRUE,,,,,,,FEW,11000,,,,,,,VFR,,,,,,,,,,,,METAR,20.0
KHPN 231056Z 02006KT 10SM BKN042 13/07 A3028 RMK AO2 SLP255 T01330072 $,KHPN,2022-10-23T10:56:00Z,41.07,-73.7,13.3,7.2,20,6,,10.0,30.280512,1025.5,,,TRUE,TRUE,,,,,,BKN,4200,,,,,,,VFR,,,,,,,,,,,,METAR,113.0
KHND 231056Z AUTO 00000KT 10SM OVC100 13/04 A2971 RMK AO2 SLP060 T01330039,KHND,2022-10-23T10:56:00Z,35.98,-115.13,13.3,3.9,0,0,,10.0,29.71063,1006.0,,TRUE,TRUE,,,,,,,OVC,10000,,,,,,,VFR,,,,,,,,,,,,METAR,740.0
KHNB 231056Z AUTO 17006KT 10SM SCT060 BKN080 17/12 A3008 RMK AO2 SLP183 T01720117,KHNB,2022-10-23T10:56:00Z,38.25,-86.95,17.2,11.7,170,6,,10.0,30.079725,1018.3,,TRUE,TRUE,,,,,,,SCT,6000,BKN,8000,,,,,VFR,,,,,,,,,,,,METAR,159.0
KHEZ 231056Z AUTO 12009KT 10SM CLR 16/14 A3006 RMK AO2 SLP177 T01610139,KHEZ,2022-10-23T10:56:00Z,31.62,-91.3,16.1,13.9,120,9,,10.0,30.059055,1017.7,,TRUE,TRUE,,,,,,,CLR,,,,,,,,VFR,,,,,,,,,,,,METAR,82.0
KHEF 231056Z 00000KT 10SM CLR 05/04 A3026 RMK AO2 SLP254 T00500039,KHEF,2022-10-23T10:56:00Z,38.72,-77.52,5.0,3.9,0,0,,10.0,30.259842,1025.4,,,TRUE,,,,,,,CLR,,,,,,,,VFR,,,,,,,,,,,,METAR,53.0
KGXY 231056Z 00000KT 10SM CLR 05/M04 A2930 RMK AO2 SLP895 T00501044 $,KGXY,2022-10-23T10:56:00Z,40.43,-104.62,5.0,-4.4,0,0,,10.0,29.300198,989.5,,,TRUE,TRUE,,,,,,CLR,,,,,,,,VFR,,,,,,,,,,,,METAR,1420.0
KGVQ 231056Z AUTO 20008KT 10SM CLR 11/03 A3024 RMK AO2 SLP240 T01060028,KGVQ,2022-10-23T10:56:00Z,43.03,-78.17,10.6,2.8,200,8,,10.0,30.239174,1024.0,,TRUE,TRUE,,,,,,,CLR,,,,,,,,VFR,,,,,,,,,,,,METAR,279.0
KGUC 231056Z AUTO 28011G17KT 10SM OVC065 09/M02 A2954 RMK AO2 SLP925 T00941022,KGUC,2022-10-23T10:56:00Z,38.52,-106.93,9.4,-2.2,280,11,17,10.0,29.53937,992.5,,TRUE,TRUE,,,,,,,OVC,6500,,,,,,,VFR,,,,,,,,,,,,METAR,2337.0
KGTU 231056Z AUTO 19014G24KT 10SM OVC018 22/18 A2986 RMK AO2 SLP103 T02170178,KGTU,2022-10-23T10:56:00Z,30.68,-97.68,21.7,17.8,190,14,24,10.0,29.861221,1010.3,,TRUE,TRUE,,,,,,,OVC,1800,,,,,,,MVFR,,,,,,,,,,,,METAR,232.0
KGTR 231056Z 13006KT 10SM CLR 13/11 A3013 RMK AO2 SLP209 T01280111,KGTR,2022-10-23T10:56:00Z,33.45,-88.58,12.8,11.1,130,6,,10.0,30.129921,1020.9,,,TRUE,,,,,,,CLR,,,,,,,,VFR,,,,,,,,,,,,METAR,80.0
KGRD 231056Z AUTO 00000KT 10SM CLR 04/03 A3022 RMK AO2 SLP233 T00440028,KGRD,2022-10-23T10:56:00Z,34.25,-82.15,4.4,2.8,0,0,,10.0,30.221457,1023.3,,TRUE,TRUE,,,,,,,CLR,,,,,,,,VFR,,,,,,,,,,,,SPECI,188.0
KGPZ 231056Z AUTO 15005KT 10SM CLR 08/07 A2965 RMK AO2 SLP046 T00780067,KGPZ,2022-10-23T10:56:00Z,47.22,-93.52,7.8,6.7,150,5,,10.0,29.648623,1004.6,,TRUE,TRUE,,,,,,,CLR,,,,,,,,VFR,,,,,,,,,,,,METAR,410.0
KGON 231056Z 01006KT 10SM CLR 11/08 A3030 RMK AO2 SLP260 T01110083,KGON,2022-10-23T10:56:00Z,41.33,-72.05,11.1,8.3,10,6,,10.0,30.301182,1026.0,,,TRUE,,,,,,,CLR,,,,,,,,VFR,,,,,,,,,,,,METAR,2.0
KGNR 231056Z AUTO 02006KT 09/04 A3032 RMK AO1 SLP276 T00890044,KGNR,2022-10-23T10:56:00Z,45.47,-69.55,8.9,4.4,20,6,,,30.318897,1027.6,,TRUE,TRUE,,,,,,,,,,,,,,,,,,,,,,,,,,,METAR,426.0
KGNA 231056Z AUTO 07005KT 08/07 A2975 RMK AO1 SLP079 T00830067,KGNA,2022-10-23T10:56:00Z,47.75,-90.35,8.3,6.7,70,5,,,29.749016,1007.9,,TRUE,TRUE,,,,,,,,,,,,,,,,,,,,,,,,,,,METAR,186.0
KGDV 231056Z AUTO 04004KT 10SM -RA OVC012 07/06 A2944 RMK AO2 RAB11 PRESRR SLP976 P0000 T00670056,KGDV,2022-10-23T10:56:00Z,47.13,-104.8,6.7,5.6,40,4,,10.0,29.438976,997.6,,TRUE,TRUE,,,,,,-RA,OVC,1200,,,,,,,MVFR,,,,,,0.005,,,,,,METAR,749.0
KGBD 231056Z AUTO 20014KT 10SM CLR 21/11 A2944 RMK AO2 SLP949 T02060106,KGBD,2022-10-23T10:56:00Z,38.35,-98.87,20.6,10.6,200,14,,10.0,29.438976,994.9,,TRUE,TRUE,,,,,,,CLR,,,,,,,,VFR,,,,,,,,,,,,METAR,573.0
KGAI 231056Z AUTO 00000KT 10SM CLR 06/04 A3026 RMK AO2 SLP263 T00560044,KGAI,2022-10-23T10:56:00Z,39.17,-77.17,5.6,4.4,0,0,,10.0,30.259842,1026.3,,TRUE,TRUE,,,,,,,CLR,,,,,,,,VFR,,,,,,,,,,,,METAR,151.0
KGAD 231056Z AUTO 00000KT 9SM CLR 05/04 A3021 RMK AO2 SLP233 T00500044 $,KGAD,2022-10-23T10:56:00Z,33.97,-86.08,5.0,4.4,0,0,,9.0,30.209646,1023.3,,TRUE,TRUE,TRUE,,,,,,CLR,,,,,,,,VFR,,,,,,,,,,,,METAR,169.0
KFSD 231056Z 12007KT 10SM CLR 13/09 A2944 RMK AO2 SLP963 T01280089,KFSD,2022-10-23T10:56:00Z,43.58,-96.75,12.8,8.9,120,7,,10.0,29.438976,996.3,,,TRUE,,,,,,,CLR,,,,,,,,VFR,,,,,,,,,,,,METAR,433.0
KFRM 231056Z AUTO 15017KT 10SM CLR 15/10 A2957 RMK AO2 SLP011 T01500100,KFRM,2022-10-23T10:56:00Z,43.63,-94.42,15.0,10.0,150,17,,10.0,29.568897,1001.1,,TRUE,TRUE,,,,,,,CLR,,,,,,,,VFR,,,,,,,,,,,,METAR,353.0
KFOD 231056Z AUTO 14011KT 10SM CLR 16/11 A2958 RMK AO2 SLP024 T01560106,KFOD,2022-10-23T10:56:00Z,42.53,-94.17,15.6,10.6,140,11,,10.0,29.58071,1002.4,,TRUE,TRUE,,,,,,,CLR,,,,,,,,VFR,,,,,,,,,,,,METAR,347.0
KFNL 231056Z 33003KT 10SM FEW120 09/M02 A2930 RMK AO2 SLP870 T00941017,KFNL,2022-10-23T10:56:00Z,40.45,-105.02,9.4,-1.7,330,3,,10.0,29.300198,987.0,,,TRUE,,,,,,,FEW,12000,,,,,,,VFR,,,,,,,,,,,,METAR,1529.0
KFLP 231056Z AUTO VRB05KT 10SM CLR 20/14 A2984 RMK AO2 SLP100 T02000144,KFLP,2022-10-23T10:56:00Z,36.28,-92.58,20.0,14.4,0,5,,10.0,29.840551,1010.0,,TRUE,TRUE,,,,,,,CLR,,,,,,,,VFR,,,,,,,,,,,,METAR,215.0
KFKL 231056Z AUTO 10004KT 10SM CLR 06/03 A3027 RMK AO2 SLP252 T00610028,KFKL,2022-10-23T10:56:00Z,41.37,-79.87,6.1,2.8,100,4,,10.0,30.268702,1025.2,,TRUE,TRUE,,,,,,,CLR,,,,,,,,VFR,,,,,,,,,,,,METAR,468.0
KFCI 231056Z AUTO 35004KT 10SM CLR 08/08 A3020 RMK AO2 SLP239 T00830083,KFCI,2022-10-23T10:56:00Z,37.4,-77.52,8.3,8.3,350,4,,10.0,30.200787,1023.9,,TRUE,TRUE,,,,,,,CLR,,,,,,,,VFR,,,,,,,,,,,,METAR,63.0
KFAM 231056Z AUTO 17014KT 10SM FEW110 17/12 A2990 RMK AO2 SLP129 T01670117,KFAM,2022-10-23T10:56:00Z,37.77,-90.42,16.7,11.7,170,14,,10.0,29.899607,1012.9,,TRUE,TRUE,,,,,,,FEW,11000,,,,,,,VFR,,,,,,,,,,,,METAR,276.0
KEWK 231056Z AUTO 18020KT 10SM CLR 22/12 A2952 RMK AO2 PK WND 19027/1014 SLP979 T02170117,KEWK,2022-10-23T10:56:00Z,38.05,-97.27,21.7,11.7,180,20,,10.0,29.518702,997.9,,TRUE,TRUE,,,,,,,CLR,,,,,,,,VFR,,,,,,,,,,,,METAR,468.0
KESC 231056Z AUTO 15004KT 10SM CLR 11/11 A2991 RMK AO2 SLP133 T01110111 PNO $,KESC,2022-10-23T10:56:00Z,45.72,-87.08,11.1,11.1,150,4,,10.0,29.911417,1013.3,,TRUE,TRUE,TRUE,,,,,,CLR,,,,,,,,VFR,,,,,,,,,,,,METAR,180.0
KENV 231056Z AUTO 32015G24KT 10SM FEW120 05/M04 A2965 RMK AO2 PK WND 32029/1035 SLP042 T00501044,KENV,2022-10-23T10:56:00Z,40.72,-114.02,5.0,-4.4,320,15,24,10.0,29.648623,1004.2,,TRUE,TRUE,,,,,,,FEW,12000,,,,,,,VFR,,,,,,,,,,,,METAR,1291.0
KELZ 231056Z AUTO 00000KT 10SM CLR 06/01 A3030 RMK AO2 SLP263 T00610011,KELZ,2022-10-23T10:56:00Z,42.1,-77.98,6.1,1.1,0,0,,10.0,30.301182,1026.3,,TRUE,TRUE,,,,,,,CLR,,,,,,,,VFR,,,,,,,,,,,,METAR,639.0
KEKY 231056Z AUTO 11004KT 10SM CLR 12/07 A3018 RMK AO2 SLP067 T01170072,KEKY,2022-10-23T10:56:00Z,33.32,-86.93,11.7,7.2,110,4,,10.0,30.180119,1006.7,,TRUE,TRUE,,,,,,,CLR,,,,,,,,VFR,,,,,,,,,,,,METAR,213.0
KEKQ 231056Z AUTO 00000KT 10SM CLR 07/06 A3022 RMK AO2 SLP227 T00720056,KEKQ,2022-10-23T10:56:00Z,36.85,-84.85,7.2,5.6,0,0,,10.0,30.221457,1022.7,,TRUE,TRUE,,,,,,,CLR,,,,,,,,VFR,,,,,,,,,,,,METAR,291.0
KEKO 231056Z AUTO 27009KT 10SM SCT110 01/M03 A2975 RMK AO2 SLP079 T00111033,KEKO,2022-10-23T10:56:00Z,40.82,-115.78,1.1,-3.3,270,9,,10.0,29.749016,1007.9,,TRUE,TRUE,,,,,,,SCT,11000,,,,,,,VFR,,,,,,,,,,,,METAR,1541.0
KEHR 231056Z AUTO 17012KT 10SM BKN070 18/11 A3005 RMK AO2 SLP173 T01780106,KEHR,2022-10-23T10:56:00Z,37.82,-87.67,17.8,10.6,170,12,,10.0,30.050198,1017.3,,TRUE,TRUE,,,,,,,BKN,7000,,,,,,,VFR,,,,,,,,,,,,METAR,117.0
KEGE 231056Z AUTO 04003KT 3SM -RA BR SCT018 BKN023 OVC031 06/04 A2952 RMK AO2 SLP937 P0040 T00560044,KEGE,2022-10-23T10:56:00Z,39.63,-106.92,5.6,4.4,40,3,,3.0,29.518702,993.7,,TRUE,TRUE,,,,,,-RA BR,SCT,1800,BKN,2300,OVC,3100,,,MVFR,,,,,,0.4,,,,,,METAR,1993.0
KEEN 231056Z AUTO 00000KT CLR 02/02 A3036 RMK AO2 SLP289 T00170017 PWINO FZRANO $,KEEN,2022-10-23T10:56:00Z,42.88,-72.27,1.7,1.7,0,0,,,30.360237,1028.9,,TRUE,TRUE,TRUE,,,TRUE,TRUE,,CLR,,,,,,,,,,,,,,,,,,,,METAR,143.0
KEED 231056Z AUTO 25014KT 10SM CLR 21/07 A2966 RMK AO2 SLP016 T02060067,KEED,2022-10-23T10:56:00Z,34.77,-114.62,20.6,6.7,250,14,,10.0,29.660433,1001.6,,TRUE,TRUE,,,,,,,CLR,,,,,,,,VFR,,,,,,,,,,,,METAR,271.0
KEAU 231056Z 05004KT 10SM CLR 14/08 A2972 RMK AO2 SLP062 T01390083,KEAU,2022-10-23T10:56:00Z,44.87,-91.48,13.9,8.3,50,4,,10.0,29.719488,1006.2,,,TRUE,,,,,,,CLR,,,,,,,,VFR,,,,,,,,,,,,METAR,271.0
KDYR 231056Z AUTO VRB06KT 10SM FEW055 18/13 A3004 RMK AO2 SLP175 T01780128,KDYR,2022-10-23T10:56:00Z,36.0,-89.4,17.8,12.8,0,6,,10.0,30.041338,1017.5,,TRUE,TRUE,,,,,,,FEW,5500,,,,,,,VFR,,,,,,,,,,,,METAR,98.0
KDWU 231056Z AUTO 12004KT 7SM CLR 07/ A3021 RMK AO2 SLP231 T0072,KDWU,2022-10-23T10:56:00Z,38.55,-82.73,7.2,,120,4,,7.0,30.209646,1023.1,,TRUE,TRUE,,,,,,,CLR,,,,,,,,VFR,,,,,,,,,,,,METAR,165.0
KDVL 231056Z AUTO 05016G21KT 10SM CLR 06/04 A2955 RMK AO2 SLP029 T00610044,KDVL,2022-10-23T10:56:00Z,48.12,-98.92,6.1,4.4,50,16,21,10.0,29.551182,1002.9,,TRUE,TRUE,,,,,,,CLR,,,,,,,,VFR,,,,,,,,,,,,METAR,439.0
KDUB 231056Z AUTO 32006KT 10SM SCT050 SCT085 OVC110 M02/M07 A2949 RMK AO2,KDUB,2022-10-23T10:56:00Z,43.55,-109.68,-2.0,-7.0,320,6,,10.0,29.489174,,,TRUE,TRUE,,,,,,,SCT,5000,SCT,8500,OVC,11000,,,VFR,,,,,,,,,,,,SPECI,2205.0
KDIK 231056Z AUTO 07013G22KT 8SM OVC005 06/04 A2942 RMK AO2 PK WND 06028/1009 SLP972 T00560044,KDIK,2022-10-23T10:56:00Z,46.8,-102.8,5.6,4.4,70,13,22,8.0,29.421259,997.2,,TRUE,TRUE,,,,,,,OVC,500,,,,,,,IFR,,,,,,,,,,,,METAR,788.0
KDIJ 231056Z AUTO 03004KT 10SM OVC024 M02/M03 A2960 RMK AO2 SNE32 SLP035 P0000 T10171028,KDIJ,2022-10-23T10:56:00Z,43.75,-111.1,-1.7,-2.8,30,4,,10.0,29.601377,1003.5,,TRUE,TRUE,,,,,,,OVC,2400,,,,,,,MVFR,,,,,,0.005,,,,,,METAR,1896.0
KDAY 231056Z 16008KT 10SM SCT250 13/08 A3015 RMK AO2 SLP208 T01280083,KDAY,2022-10-23T10:56:00Z,39.9,-84.22,12.8,8.3,160,8,,10.0,30.15059,1020.8,,,TRUE,,,,,,,SCT,25000,,,,,,,VFR,,,,,,,,,,,,METAR,303.0
KD07 231056Z AUTO 03010KT 03/00 A2932 RMK AO1 SLP938 T00280000,KD07,2022-10-23T10:56:00Z,45.03,-102.02,2.8,0.0,30,10,,,29.320866,993.8,,TRUE,TRUE,,,,,,,,,,,,,,,,,,,,,,,,,,,METAR,786.0
KCXY 231056Z 25004KT 8SM CLR 05/03 A3029 RMK AO2 SLP259 T00500028,KCXY,2022-10-23T10:56:00Z,40.22,-76.85,5.0,2.8,250,4,,8.0,30.28937,1025.9,,,TRUE,,,,,,,CLR,,,,,,,,VFR,,,,,,,,,,,,METAR,102.0
KCWI 231056Z AUTO 14011KT 10SM FEW070 15/12 A2981 RMK AO2 SLP092 T01500122,KCWI,2022-10-23T10:56:00Z,41.82,-90.32,15.0,12.2,140,11,,10.0,29.811024,1009.2,,TRUE,TRUE,,,,,,,FEW,7000,,,,,,,VFR,,,,,,,,,,,,METAR,212.0
KCVO 231056Z AUTO 29006KT 10SM CLR 06/04 A3002 RMK AO2 SLP165 T00560044,KCVO,2022-10-23T10:56:00Z,44.5,-123.28,5.6,4.4,290,6,,10.0,30.02067,1016.5,,TRUE,TRUE,,,,,,,CLR,,,,,,,,VFR,,,,,,,,,,,,METAR,75.0
KCVN 231056Z AUTO 21010KT 10SM CLR 16/09 A2970 RMK AO2 SLP022 T01560094,KCVN,2022-10-23T10:56:00Z,34.42,-103.07,15.6,9.4,210,10,,10.0,29.698818,1002.2,,TRUE,TRUE,,,,,,,CLR,,,,,,,,VFR,,,,,,,,,,,,METAR,1278.0
KCPR 231056Z 27010KT 10SM -RA BKN060 OVC075 06/01 A2937 RMK AO2 RAB56 P0000 T00560011,KCPR,2022-10-23T10:56:00Z,42.9,-106.47,5.6,1.1,270,10,,10.0,29.371063,,,,TRUE,,,,,,-RA,BKN,6000,OVC,7500,,,,,VFR,,,,,,0.005,,,,,,METAR,1623.0
KCOE 231056Z AUTO 00000KT 10SM BKN018 OVC080 03/02 A2981 RMK AO2 SLP122 T00330022 PNO $,KCOE,2022-10-23T10:56:00Z,47.77,-116.82,3.3,2.2,0,0,,10.0,29.811024,1012.2,,TRUE,TRUE,TRUE,,,,,,BKN,1800,OVC,8000,,,,,MVFR,,,,,,,,,,,,METAR,693.0
KCOD 231056Z AUTO 02009KT 10SM FEW016 OVC075 02/M01 A2948 RMK AO2 RAB17E46 SLP975 P0000 T00171006 FZRANO,KCOD,2022-10-23T10:56:00Z,44.52,-109.02,1.7,-0.6,20,9,,10.0,29.480314,997.5,,TRUE,TRUE,,,,TRUE,,,FEW,1600,OVC,7500,,,,,VFR,,,,,,0.005,,,,,,METAR,1550.0
KCIU 231056Z AUTO 12008KT 10SM CLR 09/08 A3001 RMK AO2 SLP163 T00940083,KCIU,2022-10-23T10:56:00Z,46.25,-84.47,9.4,8.3,120,8,,10.0,30.008858,1016.3,,TRUE,TRUE,,,,,,,CLR,,,,,,,,VFR,,,,,,,,,,,,METAR,242.0
KCHS 231056Z 01005KT 10SM FEW100 12/11 A3015 RMK AO2 SLP209 T01220106,KCHS,2022-10-23T10:56:00Z,32.9,-80.03,12.2,10.6,10,5,,10.0,30.15059,1020.9,,,TRUE,,,,,,,FEW,10000,,,,,,,VFR,,,,,,,,,,,,METAR,12.0
KCGZ 231056Z AUTO 22008KT 10SM SCT060 19/13 A2973 RMK AO2 SLP055 T01940133 $,KCGZ,2022-10-23T10:56:00Z,32.95,-111.77,19.4,13.3,220,8,,10.0,29.731298,1005.5,,TRUE,TRUE,TRUE,,,,,,SCT,6000,,,,,,,VFR,,,,,,,,,,,,METAR,444.0
KCEC 231056Z AUTO 00000KT 9SM CLR 07/06 A3005 RMK AO2 SLP178 T00670056,KCEC,2022-10-23T10:56:00Z,41.78,-124.23,6.7,5.6,0,0,,9.0,30.050198,1017.8,,TRUE,TRUE,,,,,,,CLR,,,,,,,,VFR,,,,,,,,,,,,METAR,17.0
KCAE 231056Z 00000KT 10SM FEW150 06/05 A3019 RMK AO2 SLP222 T00610050,KCAE,2022-10-23T10:56:00Z,33.93,-81.12,6.1,5.0,0,0,,10.0,30.188976,1022.2,,,TRUE,,,,,,,FEW,15000,,,,,,,VFR,,,,,,,,,,,,METAR,69.0
KBZN 231056Z AUTO 28008KT 2 1/2SM -SN BR OVC028 00/M01 A2963 RMK AO2 SLP045 P0001 T00001006,KBZN,2022-10-23T10:56:00Z,45.78,-111.17,0.0,-0.6,280,8,,2.5,29.630905,1004.5,,TRUE,TRUE,,,,,,-SN BR,OVC,2800,,,,,,,IFR,,,,,,0.01,,,,,,METAR,1349.0
KBVX 231056Z AUTO 18007KT 140V200 10SM OVC028 20/15 A2994 RMK AO2 SLP134 T02000150,KBVX,2022-10-23T10:56:00Z,35.73,-91.65,20.0,15.0,180,7,,10.0,29.940945,1013.4,,TRUE,TRUE,,,,,,,OVC,2800,,,,,,,MVFR,,,,,,,,,,,,METAR,137.0
KBTP 231056Z AUTO 03005KT 10SM CLR 03/02 A3026 RMK AO2 SLP254 T00330022 TSNO,KBTP,2022-10-23T10:56:00Z,40.77,-79.95,3.3,2.2,30,5,,10.0,30.259842,1025.4,,TRUE,TRUE,,,TRUE,,,,CLR,,,,,,,,VFR,,,,,,,,,,,,METAR,375.0
KBOK 231056Z AUTO 00000KT 10SM CLR 06/06 A3006 RMK AO2 SLP179 T00560056 $,KBOK,2022-10-23T10:56:00Z,42.07,-124.28,5.6,5.6,0,0,,10.0,30.059055,1017.9,,TRUE,TRUE,TRUE,,,,,,CLR,,,,,,,,VFR,,,,,,,,,,,,METAR,140.0
KBMI 231056Z 16016KT 10SM OVC070 17/11 A2991 RMK AO2 SLP120 T01670111,KBMI,2022-10-23T10:56:00Z,40.47,-88.92,16.7,11.1,160,16,,10.0,29.911417,1012.0,,,TRUE,,,,,,,OVC,7000,,,,,,,VFR,,,,,,,,,,,,METAR,262.0
KBLM 231056Z AUTO 04009KT 10SM SCT041 OVC075 15/11 A3026 RMK AO2 SLP248 T01500106,KBLM,2022-10-23T10:56:00Z,40.17,-74.12,15.0,10.6,40,9,,10.0,30.259842,1024.8,,TRUE,TRUE,,,,,,,SCT,4100,OVC,7500,,,,,VFR,,,,,,,,,,,,METAR,45.0
KBKX 231056Z AUTO 13013KT 10SM CLR A2945 RMK AO2 SLPNO FZRANO $,KBKX,2022-10-23T10:56:00Z,44.3,-96.82,,,130,13,,10.0,29.450787,,,TRUE,TRUE,TRUE,,,TRUE,,,CLR,,,,,,,,VFR,,,,,,,,,,,,METAR,494.0
KBJJ 231056Z AUTO 00000KT 9SM CLR 07/06 A3021 RMK AO2 SLP232 T00670056,KBJJ,2022-10-23T10:56:00Z,40.87,-81.88,6.7,5.6,0,0,,9.0,30.209646,1023.2,,TRUE,TRUE,,,,,,,CLR,,,,,,,,VFR,,,,,,,,,,,,METAR,338.0
KBIH 231056Z AUTO 31012KT 10SM CLR 05/M07 A2981 RMK AO2 SLP064 T00501067,KBIH,2022-10-23T10:56:00Z,37.37,-118.35,5.0,-6.7,310,12,,10.0,29.811024,1006.4,,TRUE,TRUE,,,,,,,CLR,,,,,,,,VFR,,,,,,,,,,,,METAR,1252.0
KBID 231056Z AUTO 04007KT 10SM CLR 13/12 A3030 RMK AO2 SLP262 T01330122,KBID,2022-10-23T10:56:00Z,41.17,-71.58,13.3,12.2,40,7,,10.0,30.301182,1026.2,,TRUE,TRUE,,,,,,,CLR,,,,,,,,VFR,,,,,,,,,,,,METAR,32.0
KBHB 231056Z AUTO 35003KT 10SM CLR 05/05 A3037 RMK AO2 SLP285 T00500050 PNO $,KBHB,2022-10-23T10:56:00Z,44.45,-68.37,5.0,5.0,350,3,,10.0,30.369095,1028.5,,TRUE,TRUE,TRUE,,,,,,CLR,,,,,,,,VFR,,,,,,,,,,,,METAR,21.0
KAWO 231056Z AUTO 00000KT 9SM FEW002 OVC012 06/05 A2999 RMK AO2 SLP160 T00560050,KAWO,2022-10-23T10:56:00Z,48.17,-122.17,5.6,5.0,0,0,,9.0,29.991142,1016.0,,TRUE,TRUE,,,,,,,FEW,200,OVC,1200,,,,,MVFR,,,,,,,,,,,,METAR,38.0
KAUO 231056Z AUTO 08003KT 10SM CLR 08/05 A3020 RMK AO2 SLP249 T00830050,KAUO,2022-10-23T10:56:00Z,32.62,-85.43,8.3,5.0,80,3,,10.0,30.200787,1024.9,,TRUE,TRUE,,,,,,,CLR,,,,,,,,VFR,,,,,,,,,,,,METAR,231.0
KASH 231056Z 31004KT 10SM CLR 03/ A3036 RMK AO2 SLP286 T0033 $,KASH,2022-10-23T10:56:00Z,42.78,-71.52,3.3,,310,4,,10.0,30.360237,1028.6,,,TRUE,TRUE,,,,,,CLR,,,,,,,,VFR,,,,,,,,,,,,METAR,56.0
KART 231056Z AUTO 10003KT 10SM CLR 04/01 A3028 RMK AO2 SLP255 T00390011,KART,2022-10-23T10:56:00Z,43.98,-76.03,3.9,1.1,100,3,,10.0,30.280512,1025.5,,TRUE,TRUE,,,,,,,CLR,,,,,,,,VFR,,,,,,,,,,,,METAR,100.0
KARG 231056Z AUTO 18015G20KT 10SM CLR 19/13 A2993 RMK AO2 SLP135 T01890133,KARG,2022-10-23T10:56:00Z,36.12,-90.92,18.9,13.3,180,15,20,10.0,29.929134,1013.5,,TRUE,TRUE,,,,,,,CLR,,,,,,,,VFR,,,,,,,,,,,,METAR,82.0
KAPS 231056Z AUTO 09003KT 10SM CLR 16/14 A3006 RMK AO2,KAPS,2022-10-23T10:56:00Z,30.08,-90.58,16.0,14.0,90,3,,10.0,30.059055,,,TRUE,TRUE,,,,,,,CLR,,,,,,,,VFR,,,,,,,,,,,,METAR,1.0
KAND 231056Z AUTO 00000KT 10SM CLR 04/03 A3020 RMK AO2 SLP226 T00440033,KAND,2022-10-23T10:56:00Z,34.5,-82.72,4.4,3.3,0,0,,10.0,30.200787,1022.6,,TRUE,TRUE,,,,,,,CLR,,,,,,,,VFR,,,,,,,,,,,,METAR,233.0
KALK 231056Z AUTO 27011G20KT 10SM FEW033 SCT045 15/09 A2988 RMK AO2 PK WND 25034/1013 SLP035 T01500089,KALK,2022-10-23T10:56:00Z,31.6,-110.43,15.0,8.9,270,11,20,10.0,29.878937,1003.5,,TRUE,TRUE,,,,,,,FEW,3300,SCT,4500,,,,,VFR,,,,,,,,,,,,METAR,1451.0
KAJO 231056Z AUTO 00000KT 10SM CLR 12/12 A2980 RMK AO2 SLP086 T01220117,KAJO,2022-10-23T10:56:00Z,33.9,-117.6,12.2,11.7,0,0,,10.0,29.799213,1008.6,,TRUE,TRUE,,,,,,,CLR,,,,,,,,VFR,,,,,,,,,,,,METAR,161.0
KAIZ 231056Z AUTO 17009KT 10SM CLR 19/13 RMK AO2 SLPNO T01940133 $,KAIZ,2022-10-23T10:56:00Z,38.1,-92.53,19.4,13.3,170,9,,10.0,,,,TRUE,TRUE,TRUE,,,,,,CLR,,,,,,,,VFR,,,,,,,,,,,,METAR,263.0
KAFJ 231056Z AUTO 00000KT 10SM CLR 02/02 A3027 RMK AO2 SLP254 T00170017 FZRANO,KAFJ,2022-10-23T10:56:00Z,40.13,-80.28,1.7,1.7,0,0,,10.0,30.268702,1025.4,,TRUE,TRUE,,,,TRUE,,,CLR,,,,,,,,VFR,,,,,,,,,,,,METAR,360.0
KADF 231056Z AUTO 18005KT 10SM FEW033 18/16 A2996 RMK AO2 SLP142 T01830156,KADF,2022-10-23T10:56:00Z,34.1,-93.07,18.3,15.6,180,5,,10.0,29.958662,1014.2,,TRUE,TRUE,,,,,,,FEW,3300,,,,,,,VFR,,,,,,,,,,,,METAR,54.0
KADC 231056Z AUTO 11007KT 10SM CLR 10/06 A2954 RMK AO2 TSNO,KADC,2022-10-23T10:56:00Z,46.45,-95.22,10.0,6.0,110,7,,10.0,29.53937,,,TRUE,TRUE,,,TRUE,,,,CLR,,,,,,,,VFR,,,,,,,,,,,,METAR,416.0
K8D3 231056Z AUTO 14003KT 03/M01 A2947 RMK AO1 SLP980 T00331011,K8D3,2022-10-23T10:56:00Z,45.67,-96.98,3.3,-1.1,140,3,,,29.471457,998.0,,TRUE,TRUE,,,,,,,,,,,,,,,,,,,,,,,,,,,METAR,535.0
K7N0 231056Z AUTO VRB06KT 10SM CLR 21/15 A3008 RMK AO2 SLP184 T02060150 PNO $,K7N0,2022-10-23T10:56:00Z,29.95,-90.07,20.6,15.0,0,6,,10.0,30.079725,1018.4,,TRUE,TRUE,TRUE,,,,,,CLR,,,,,,,,VFR,,,,,,,,,,,,METAR,0.0
K79J 231056Z AUTO 00000KT 10SM CLR 08/05 A3016 RMK AO2 SLP210 T00830050,K79J,2022-10-23T10:56:00Z,31.32,-86.4,8.3,5.0,0,0,,10.0,30.159449,1021.0,,TRUE,TRUE,,,,,,,CLR,,,,,,,,VFR,,,,,,,,,,,,METAR,93.0
K2WX 231056Z AUTO 04012KT 06/02 A2932 RMK AO1 SLP929 T00610017,K2WX,2022-10-23T10:56:00Z,45.6,-103.55,6.1,1.7,40,12,,,29.320866,992.9,,TRUE,TRUE,,,,,,,,,,,,,,,,,,,,,,,,,,,METAR,925.0
K1M4 231056Z AUTO 16003KT 10SM CLR 11/08 A3017 RMK AO2 SLP207 T01110083,K1M4,2022-10-23T10:56:00Z,34.28,-87.6,11.1,8.3,160,3,,10.0,30.171259,1020.7,,TRUE,TRUE,,,,,,,CLR,,,,,,,,VFR,,,,,,,,,,,,METAR,283.0
K1KW 231056Z AUTO 27013KT 10SM FEW240 07/M07 A2927 RMK AO2 SLP875 T00651072 $,K1KW,2022-10-23T10:56:00Z,41.13,-103.48,6.5,-7.2,270,13,,10.0,29.27067,987.5,,TRUE,TRUE,TRUE,,,,,,FEW,24000,,,,,,,VFR,,,,,,,,,,,,METAR,1443.0
K1JW 231056Z AUTO 27009KT 10SM CLR 08/M09 A2915 RMK AO2 SLP830 T00831087 $,K1JW,2022-10-23T10:56:00Z,40.97,-103.2,8.3,-8.7,270,9,,10.0,29.149607,983.0,,TRUE,TRUE,TRUE,,,,,,CLR,,,,,,,,VFR,,,,,,,,,,,,METAR,1382.0
K1IW 231056Z AUTO 25010KT 10SM CLR 06/M07 A2925 RMK AO2 SLP873 T00561066 $,K1IW,2022-10-23T10:56:00Z,41.05,-102.87,5.6,-6.6,250,10,,10.0,29.25,987.3,,TRUE,TRUE,TRUE,,,,,,CLR,,,,,,,,VFR,,,,,,,,,,,,METAR,1294.0
K1HW 231056Z AUTO 27009KT 10SM CLR 05/M07 A2924 RMK AO2 SLP873 T00541071 $,K1HW,2022-10-23T10:56:00Z,41.32,-102.83,5.4,-7.1,270,9,,10.0,29.241142,987.3,,TRUE,TRUE,TRUE,,,,,,CLR,,,,,,,,VFR,,,,,,,,,,,,METAR,1265.0
K1FW 231056Z AUTO 28014KT 10SM CLR 06/M07 A2930 RMK AO2 SLP880 T00581068 $,K1FW,2022-10-23T10:56:00Z,41.37,-103.48,5.8,-6.8,280,14,,10.0,29.300198,988.0,,TRUE,TRUE,TRUE,,,,,,CLR,,,,,,,,VFR,,,,,,,,,,,,METAR,1451.0
K1EW 231056Z AUTO 12009KT 10SM BKN240 10/M08 A2931 RMK AO2 SLP877 T01001082 $,K1EW,2022-10-23T10:56:00Z,41.12,-103.98,10.0,-8.2,120,9,,10.0,29.309055,987.7,,TRUE,TRUE,TRUE,,,,,,BKN,24000,,,,,,,VFR,,,,,,,,,,,,METAR,1609.0
K1DW 231056Z AUTO 26007KT 10SM CLR 07/M07 A2931 RMK AO2 SLP874 T00711070 $,K1DW,2022-10-23T10:56:00Z,41.37,-103.8,7.1,-7.0,260,7,,10.0,29.309055,987.4,,TRUE,TRUE,TRUE,,,,,,CLR,,,,,,,,VFR,,,,,,,,,,,,METAR,1539.0
K1CW 231056Z AUTO 35005KT 10SM FEW250 06/M08 A2926 RMK AO2 SLP865 T00611082 $,K1CW,2022-10-23T10:56:00Z,41.58,-103.57,6.1,-8.2,350,5,,10.0,29.258858,986.5,,TRUE,TRUE,TRUE,,,,,,FEW,25000,,,,,,,VFR,,,,,,,,,,,,METAR,1370.0
K1BW 231056Z AUTO 28009KT 10SM SCT240 07/M07 A2931 RMK AO2 SLP876 T00741071 $,K1BW,2022-10-23T10:56:00Z,41.52,-104.0,7.4,-7.1,280,9,,10.0,29.309055,987.6,,TRUE,TRUE,TRUE,,,,,,SCT,24000,,,,,,,VFR,,,,,,,,,,,,METAR,1606.0
K1AW 231056Z AUTO 29010KT 10SM BKN140 OVC240 10/M04 A2932 RMK AO2 SLP876 T01001044 $,K1AW,2022-10-23T10:56:00Z,41.33,-104.27,10.0,-4.4,290,10,,10.0,29.320866,987.6,,TRUE,TRUE,TRUE,,,,,,BKN,14000,OVC,24000,,,,,VFR,,,,,,,,,,,,METAR,1670.0
TXKF 231055Z 11013KT 9999 FEW013 25/22 Q1020 ,TXKF,2022-10-23T10:55:00Z,32.37,-64.68,25.0,22.0,110,13,,6.21,30.11811,,,,,,,,,,,FEW,1300,,,,,,,VFR,,,,,,,,,,,,METAR,4.0
TNCE 231055Z AUTO 03006KT 350V070 //// // ///////// 27/24 Q1013 RE//,TNCE,2022-10-23T10:55:00Z,17.48,-62.97,27.0,24.0,30,6,,,29.911417,,,TRUE,,,,,,,,,,,,,,,,,,,,,,,,,,,,METAR,38.0
TNCB 231055Z 09006KT 9999 SCT018 27/25 Q1011,TNCB,2022-10-23T10:55:00Z,12.13,-68.28,27.0,25.0,90,6,,6.21,29.852362,,,,,,,,,,,SCT,1800,,,,,,,VFR,,,,,,,,,,,,METAR,6.0
RKSO 231055Z AUTO 34005KT 10SM CLR 12/01 A3012 RMK AO2 SLP203 T01230007 TSNO CHINO RWY09 $,RKSO,2022-10-23T10:55:00Z,37.08,127.02,12.3,0.7,340,5,,10.0,30.121063,1020.3,,TRUE,TRUE,TRUE,,TRUE,,,,CLR,,,,,,,,VFR,,,,,,,,,,,,SPECI,10.0
RKSG 231055Z 33010KT 10SM CLR 12/02 A3010 RMK AO2A SLP196 T01150017 TSNO $,RKSG,2022-10-23T10:55:00Z,36.97,127.02,11.5,1.7,330,10,,10.0,30.100393,1019.6,,,TRUE,TRUE,,TRUE,,,,CLR,,,,,,,,VFR,,,,,,,,,,,,SPECI,12.0
RKJK 231055Z AUTO 35009KT 10SM CLR 13/01 A3011 RMK AO2 SLP201 T01280008 $,RKJK,2022-10-23T10:55:00Z,35.9,126.62,12.8,0.8,350,9,,10.0,30.109253,1020.1,,TRUE,TRUE,TRUE,,,,,,CLR,,,,,,,,VFR,,,,,,,,,,,,SPECI,8.0
PWAK 231055Z AUTO 06016G20KT 9999 FEW021 SCT055 28/24 A2995 RMK AO2 SLP148 T02770235 $,PWAK,2022-10-23T10:55:00Z,19.28,166.62,27.7,23.5,60,16,20,6.21,29.949802,1014.8,,TRUE,TRUE,TRUE,,,,,,FEW,2100,SCT,5500,,,,,VFR,,,,,,,,,,,,SPECI,7.0
PTTP 231055Z 12009KT 10SM -SHRA SCT017TCU OVC120 26/24 A2985 RMK SHRAB33 TCU NE-S AND SW SLP108 T02570241,PTTP,2022-10-23T10:55:00Z,6.97,158.22,25.7,24.1,120,9,,10.0,29.84941,1010.8,,,,,,,,,-SHRA,SCT,1700,OVC,12000,,,,,VFR,,,,,,,,,,,,SPECI,36.0
PHHI 231055Z AUTO 09004KT 10SM FEW042 FEW050 24/17 A3005 RMK AO2 SLP163 T02360169 $,PHHI,2022-10-23T10:55:00Z,21.48,-158.05,23.6,16.9,90,4,,10.0,30.050198,1016.3,,TRUE,TRUE,TRUE,,,,,,FEW,4200,FEW,5000,,,,,VFR,,,,,,,,,,,,SPECI,246.0
PGUA 231055Z AUTO 12006KT 10SM BKN015 BKN021 26/23 A2986 RMK AO2 CIG 014 RWY24L SLP102 T02590231 $,PGUA,2022-10-23T10:55:00Z,13.57,144.92,25.9,23.1,120,6,,10.0,29.861221,1010.2,,TRUE,TRUE,TRUE,,,,,,BKN,1500,BKN,2100,,,,,MVFR,,,,,,,,,,,,SPECI,159.0
PATL 231055Z AUTO 00000KT 10SM OVC022 M02/M02 A3000 RMK AO2 SLP174 T10161016 TSNO $,PATL,2022-10-23T10:55:00Z,62.9,-155.97,-1.6,-1.6,0,0,,10.0,30.0,1017.4,,TRUE,TRUE,TRUE,,TRUE,,,,OVC,2200,,,,,,,MVFR,,,,,,,,,,,,METAR,261.0
PATC 231055Z AUTO 26016KT BKN011 01/M01 A2975 RMK AO2 SLP078 T00051012 PWINO FZRANO $,PATC,2022-10-23T10:55:00Z,65.57,-167.92,0.5,-1.2,260,16,,,29.749016,1007.8,,TRUE,TRUE,TRUE,,,TRUE,TRUE,,BKN,1100,,,,,,,,,,,,,,,,,,,METAR,77.0
PASV 231055Z AUTO 00000KT 10SM FEW004 BKN200 M05/M06 A2989 RMK AO2 SLP149 T10511059,PASV,2022-10-23T10:55:00Z,61.1,-155.57,-5.1,-5.9,0,0,,10.0,29.890747,1014.9,,TRUE,TRUE,,,,,,,FEW,400,BKN,20000,,,,,VFR,,,,,,,,,,,,METAR,462.0
PALU 231055Z AUTO 17020KT 120V180 10SM OVC070 02/M01 A2973 RMK AO2 PK WND 18026/1003 SLP068 T00211015,PALU,2022-10-23T10:55:00Z,68.88,-166.1,2.1,-1.5,170,20,,10.0,29.731298,1006.8,,TRUE,TRUE,,,,,,,OVC,7000,,,,,,,VFR,,,,,,,,,,,,METAR,8.0
PAIM 231055Z AUTO 00000KT 10SM FEW002 OVC041 M04/M04 A2995 RMK AO2 SLP164 T10411041,PAIM,2022-10-23T10:55:00Z,66.0,-153.7,-4.1,-4.1,0,0,,10.0,29.949802,1016.4,,TRUE,TRUE,,,,,,,FEW,200,OVC,4100,,,,,VFR,,,,,,,,,,,,METAR,309.0
PAFR 231055Z AUTO 00000KT 10SM CLR M06/M06 A2975 RMK AO2 SLP085 T10581063 VISNO RWY35 CHINO RWY35 $,PAFR,2022-10-23T10:55:00Z,61.27,-149.65,-5.8,-6.3,0,0,,10.0,29.749016,1008.5,,TRUE,TRUE,TRUE,,,,,,CLR,,,,,,,,VFR,,,,,,,,,,,,METAR,106.0
PAEH 231055Z AUTO VRB03KT 10SM FEW020 03/01 A3007 RMK AO2 SLP191 T00280009,PAEH,2022-10-23T10:55:00Z,58.65,-162.07,2.8,0.9,0,3,,10.0,30.070866,1019.1,,TRUE,TRUE,,,,,,,FEW,2000,,,,,,,VFR,,,,,,,,,,,,METAR,101.0
PAED 231055Z 03003KT 10SM BKN180 M01/M04 A2978 RMK AO2A SLP082 T10151039 $,PAED,2022-10-23T10:55:00Z,61.25,-149.83,-1.5,-3.9,30,3,,10.0,29.778543,1008.2,,,TRUE,TRUE,,,,,,BKN,18000,,,,,,,VFR,,,,,,,,,,,,METAR,54.0
PACZ 231055Z AUTO 19020G26KT 10SM OVC010 03/02 A2987 RMK AO2 PK WND 16027/1000 SLP122 T00300015,PACZ,2022-10-23T10:55:00Z,61.78,-166.03,3.0,1.5,190,20,26,10.0,29.870079,1012.2,,TRUE,TRUE,,,,,,,OVC,1000,,,,,,,MVFR,,,,,,,,,,,,METAR,129.0
OTBH 231055Z 34008KT 9999 CLR 36/11 A2996 RMK AO2A SLPNO ALSTG ESTMD T03630111 PWINO FZRANO TSNO $,OTBH,2022-10-23T10:55:00Z,25.12,51.32,36.3,11.1,340,8,,6.21,29.958662,,,,TRUE,TRUE,,TRUE,TRUE,TRUE,,CLR,,,,,,,,VFR,,,,,,,,,,,,SPECI,40.0
OPLA 231055Z 33005KT 6000 NSC 31/09 Q1014 NOSIG RMK QFE989 A29.97,OPLA,2022-10-23T10:55:00Z,31.52,74.4,31.0,9.0,330,5,,3.73,29.940945,,,,,,TRUE,,,,,CLR,,,,,,,,MVFR,,,,,,,,,,,,METAR,217.0
OPFA 231055Z 27002KT 5000 HZ NSC 31/11 Q1015 NOSIG,OPFA,2022-10-23T10:55:00Z,31.37,73.0,31.0,11.0,270,2,,3.11,29.970472,,,,,,TRUE,,,,HZ,CLR,,,,,,,,MVFR,,,,,,,,,,,,METAR,180.0
OKAS 231055Z 00000KT 9999 CLR 39/00 A2994 RMK AO2A SLP133 $,OKAS,2022-10-23T10:55:00Z,29.35,47.52,39.0,0.0,0,0,,6.21,29.940945,1013.3,,,TRUE,TRUE,,,,,,CLR,,,,,,,,VFR,,,,,,,,,,,,METAR,144.0
NZCM 231055Z AUTO 07018G26KT 9999 CLR M25/M30 A2928 RMK AO2 PK WND 06026/1049 SLP922 T12481299 $,NZCM,2022-10-23T10:55:00Z,-77.85,166.67,-24.8,-29.9,70,18,26,6.21,29.279528,992.2,,TRUE,TRUE,TRUE,,,,,,CLR,,,,,,,,VFR,,,,,,,,,,,,SPECI,24.0
LIVT 231055Z AUTO VRB02KT //// 21/18 Q1022,LIVT,2022-10-23T10:55:00Z,45.68,13.75,21.0,18.0,0,2,,,30.177166,,,TRUE,,,,,,,,,,,,,,,,,,,,,,,,,,,,METAR,20.0
LIVR 231055Z 14009KT 9999 FEW020 09/06 Q1026 RMK SCT MON LIB VIS MIN 9999,LIVR,2022-10-23T10:55:00Z,46.28,11.78,9.0,6.0,140,9,,6.21,30.295275,,,,,,,,,,,FEW,2000,,,,,,,VFR,,,,,,,,,,,,METAR,1997.0
LIVP 231055Z 18005KT 0000 -RA FG VV/// 08/08 Q1025 RMK MON INVIS VAL INVIS VIS MIN 0000,LIVP,2022-10-23T10:55:00Z,46.15,11.03,8.0,8.0,180,5,,0.0,30.265747,,,,,,,,,,-RA FG,OVX,0,,,,,,,LIFR,,,,,,,,,,,,METAR,2099.0
LIVM 231055Z AUTO /////KT //// ///// Q////,LIVM,2022-10-23T10:55:00Z,44.45,12.3,,,,,,,,,,TRUE,,,,,,,,,,,,,,,,,,,,,,,,,,,,METAR,6.0
LIVF 231055Z 13006KT 9999 FEW030 21/13 Q1022 RMK SCT MON S W CIME INC ELEV SLW VAL NIL VIS MIN 9999,LIVF,2022-10-23T10:55:00Z,43.52,12.72,21.0,13.0,130,6,,6.21,30.177166,,,,,,,,,,,FEW,3000,,,,,,,VFR,,,,,,,,,,,,METAR,549.0
LIVE 231055Z 17006KT 9999 SCT020 11/04 Q1025 RMK BKN SCT180 VIS MIN 9999,LIVE,2022-10-23T10:55:00Z,46.82,10.5,11.0,4.0,170,6,,6.21,30.265747,,,,,,,,,,,SCT,2000,,,,,,,VFR,,,,,,,,,,,,METAR,1684.0
LIVD 231055Z AUTO 30005KT 260V330 //// 13/09 Q1026,LIVD,2022-10-23T10:55:00Z,46.72,12.22,13.0,9.0,300,5,,,30.295275,,,TRUE,,,,,,,,,,,,,,,,,,,,,,,,,,,,METAR,1221.0
LIRX 231055Z 17020KT 0000 FG VV/// 19/17 Q1022 RMK VIS MIN 0000 VIS MAR 30 M,LIRX,2022-10-23T10:55:00Z,42.73,10.38,19.0,17.0,170,20,,0.0,30.177166,,,,,,,,,,FG,OVX,0,,,,,,,LIFR,,,,,,,,,,,,METAR,397.0
LIRV 231055Z 19009KT 9999 BKN020 21/15 Q1025 RMK BKN MON E SE CLD CIME NC VIS MIN 9999 WIND THR04/////KT WHT,LIRV,2022-10-23T10:55:00Z,42.42,12.07,21.0,15.0,190,9,,6.21,30.265747,,,,,,,,,,,BKN,2000,,,,,,,MVFR,,,,,,,,,,,,SPECI,294.0
LIRT 231055Z 27012KT CAVOK 19/01 Q1028 RMK FEW FEW100 MON LIB VAL W CLD SCT VIS MIN 9999,LIRT,2022-10-23T10:55:00Z,41.03,15.22,19.0,1.0,270,12,,6.21,30.35433,,,,,,,,,,,CAVOK,,,,,,,,VFR,,,,,,,,,,,,SPECI,1058.0
LIRS 231055Z 15013KT 9999 SCT015 SCT018 23/21 Q1023 RMK OVC VIS MIN 9999 WIND THR03 16012KT WIND THR21 15012KT BLU,LIRS,2022-10-23T10:55:00Z,42.75,11.07,23.0,21.0,150,13,,6.21,30.206694,,,,,,,,,,,SCT,1500,SCT,1800,,,,,VFR,,,,,,,,,,,,SPECI,3.0
LIRM 231055Z 24003KT 8000 SCT020 SCT040 23/18 Q1025 RMK BKN VIS MIN 8000 WIND THR06 26005KT BLU,LIRM,2022-10-23T10:55:00Z,41.05,14.07,23.0,18.0,240,3,,4.97,30.265747,,,,,,,,,,,SCT,2000,SCT,4000,,,,,MVFR,,,,,,,,,,,,SPECI,6.0
LIRK 231055Z AUTO 29010KT 230V320 //// 14/00 Q1031,LIRK,2022-10-23T10:55:00Z,42.47,12.97,14.0,0.0,290,10,,,30.442913,,,TRUE,,,,,,,,,,,,,,,,,,,,,,,,,,,,METAR,1721.0
LIRE 231055Z 13012KT 9999 SCT020 SCT030 24/20 Q1023 RMK BKN VIS MIN 9999 WIND THR13 17013KT WIND THR31 /////KT BLU,LIRE,2022-10-23T10:55:00Z,41.65,12.43,24.0,20.0,130,12,,6.21,30.206694,,,,,,,,,,,SCT,2000,SCT,3000,,,,,VFR,,,,,,,,,,,,METAR,16.0
LIQO 231055Z AUTO /////KT //// ///// Q////,LIQO,2022-10-23T10:55:00Z,42.38,11.17,,,,,,,,,,TRUE,,,,,,,,,,,,,,,,,,,,,,,,,,,,METAR,627.0
LIQC 231055Z 00000KT CAVOK 20/17 Q1025 RMK SCT SCT070 QUK 2 QUL 1 SE VIS MAR 15 KM VIS MIN 9999,LIQC,2022-10-23T10:55:00Z,40.55,14.2,20.0,17.0,0,0,,6.21,30.265747,,,,,,,,,,,CAVOK,,,,,,,,VFR,,,,,,,,,,,,SPECI,154.0
LIPS 231055Z /////KT CAVOK 22/15 Q1023 RMK BKN BKN200 VIS MIN 9999 WIND THR26 01002KT WIND THR08 06003KT BLU,LIPS,2022-10-23T10:55:00Z,45.68,12.1,22.0,15.0,,,,6.21,30.206694,,,,,,,,,,,CAVOK,,,,,,,,VFR,,,,,,,,,,,,SPECI,42.0
LIPL 231055Z 08006KT CAVOK 21/15 Q1021 RMK SCT SCT090 VIS MIN 9999 WIND THR31 09007KT WIND THR13 09008KT BLU,LIPL,2022-10-23T10:55:00Z,45.42,10.27,21.0,15.0,80,6,,6.21,30.147638,,,,,,,,,,,CAVOK,,,,,,,,VFR,,,,,,,,,,,,METAR,96.0
LIPI 231055Z 03003KT 9999 BKN060 18/14 Q1022 RMK BKN VIS MIN 9999 WIND THR06 04004KT WIND THR24 04003KT BLU,LIPI,2022-10-23T10:55:00Z,45.97,13.05,18.0,14.0,30,3,,6.21,30.177166,,,,,,,,,,,BKN,6000,,,,,,,VFR,,,,,,,,,,,,METAR,49.0
LIPF 231055Z 00000KT 8000 NSC 23/18 Q1022 RMK BKN BKN200 VIS MIN 8000,LIPF,2022-10-23T10:55:00Z,44.82,11.62,23.0,18.0,0,0,,4.97,30.177166,,,,,,,,,,,CLR,,,,,,,,MVFR,,,,,,,,,,,,METAR,5.0
LIPC 231055Z 25002KT CAVOK 26/15 Q1021 RMK FEW FEW200 VIS MIN 9999 WIND THR11 16002KT WIND THR29 21004KT BLU,LIPC,2022-10-23T10:55:00Z,44.22,12.3,26.0,15.0,250,2,,6.21,30.147638,,,,,,,,,,,CAVOK,,,,,,,,VFR,,,-0.4,,,,,,,,,METAR,10.0
LIMU 231055Z ///05KT 8000 FEW015 SCT020 20/16 Q1021 RMK OVC QUK 2 QUL 1 SE VIS MAR 8 KM VIS MIN 8000,LIMU,2022-10-23T10:55:00Z,43.95,8.17,20.0,16.0,,,,4.97,30.147638,,,,,,,,,,,FEW,1500,SCT,2000,,,,,MVFR,,,,,,,,,,,,METAR,215.0
LIMS 231055Z 00000KT 0800 R30/1500 R12/1500 FG BKN009 SCT011 15/15 Q1022,LIMS,2022-10-23T10:55:00Z,44.92,9.72,15.0,15.0,0,0,,0.5,30.177166,,,,,,,,,,FG,BKN,900,SCT,1100,,,,,LIFR,,,,,,,,,,,,METAR,132.0
LIMK 231055Z 33004KT 0100 FG VV/// 14/14 Q1023 RMK VAL INVIS VIS MIN 0100,LIMK,2022-10-23T10:55:00Z,45.02,7.72,14.0,14.0,330,4,,0.06,30.206694,,,,,,,,,,FG,OVX,0,,,,,,,LIFR,,,,,,,,,,,,METAR,693.0
LIED 231055Z 14010KT CAVOK 28/22 Q1021 RMK SKC VIS MIN 9999 WIND THR35 /////KT WIND THR17 15010KT BLU,LIED,2022-10-23T10:55:00Z,39.35,8.97,28.0,22.0,140,10,,6.21,30.147638,,,,,,,,,,,CAVOK,,,,,,,,VFR,,,,,,,,,,,,METAR,26.0
LIEB 231055Z 19020KT CAVOK 22/18 Q1021 RMK SKC QUK 4 QUL 3 SE VIS MAR 20 KM MON LIB VIS MIN 9999S,LIEB,2022-10-23T10:55:00Z,39.93,9.72,22.0,18.0,190,20,,6.21,30.147638,,,,,,,,,,,CAVOK,,,,,,,,VFR,,,,,,,,,,,,METAR,126.0
LICZ 231055Z /////KT CAVOK 26/00 Q1024 RMK SKC VIS MIN 9999 WIND THR28 29005KT WIND THR10 25004KT A3026 BLU,LICZ,2022-10-23T10:55:00Z,37.4,14.92,26.0,0.0,,,,6.21,30.236221,,,,,,,,,,,CAVOK,,,,,,,,VFR,,,,,,,,,,,,METAR,22.0
LICT 231055Z 17010KT CAVOK 26/20 Q1024 RMK SKC VIS MIN 9999 WIND THR13 20013KT BLU,LICT,2022-10-23T10:55:00Z,37.92,12.5,26.0,20.0,170,10,,6.21,30.236221,,,,,,,,,,,CAVOK,,,,,,,,VFR,,,1.3,,,,,,,,,METAR,4.0
LICF 231055Z 06006KT CAVOK 24/16 Q1024 RMK FEW FEW200 QUK 2 QUL 0 VIS MAR 20 KM MON LIB NC VIS MIN 9999,LICF,2022-10-23T10:55:00Z,38.2,15.55,24.0,16.0,60,6,,6.21,30.236221,,,,,,,,,,,CAVOK,,,,,,,,VFR,,,,,,,,,,,,SPECI,66.0
LIBY 231055Z 00000KT CAVOK 23/20 Q1023 RMK FEW FEW200 QUK 0 QUL 0 VIS MAR 12 KM VIS MIN 9999,LIBY,2022-10-23T10:55:00Z,39.82,18.35,23.0,20.0,0,0,,6.21,30.206694,,,,,,,,,,,CAVOK,,,,,,,,VFR,,,,,,,,,,,,SPECI,105.0
LIBV 231055Z 18006KT 130V230 CAVOK 25/16 Q1023 RMK SCT SCT200 VIS MIN 9999 WIND THR32 18006KT WIND THR14 17007KT BLU,LIBV,2022-10-23T10:55:00Z,40.77,16.93,25.0,16.0,180,6,,6.21,30.206694,,,,,,,,,,,CAVOK,,,,,,,,VFR,,,,,,,,,,,,METAR,344.0
LIBQ 231055Z AUTO VRB03KT //// 21/03 Q1033,LIBQ,2022-10-23T10:55:00Z,39.32,16.38,21.0,3.0,0,3,,,30.501968,,,TRUE,,,,,,,,,,,,,,,,,,,,,,,,,,,,METAR,1660.0
LIBN 231055Z VRB02KT 8000 FEW030 23/16 Q1024 RMK FEW VIS MIN 8000 WIND THR14 VRB03KT WIND THR32 VRB02KT BLU,LIBN,2022-10-23T10:55:00Z,40.23,18.13,23.0,16.0,0,2,,4.97,30.236221,,,,,,,,,,,FEW,3000,,,,,,,MVFR,,,,,,,,,,,,METAR,46.0
LIBA 231055Z 07003KT CAVOK 26/14 Q1023 RMK BKN BKN200 VIS MIN 9999 WIND THR11 08004KT WIND THR29 /////KT BLU,LIBA,2022-10-23T10:55:00Z,41.53,15.72,26.0,14.0,70,3,,6.21,30.206694,,,,,,,,,,,CAVOK,,,,,,,,VFR,,,,,,,,,,,,METAR,55.0
KZER 231055Z AUTO 08005KT 10SM CLR 07/05 A3029 RMK AO2,KZER,2022-10-23T10:55:00Z,,,7.0,5.0,80,5,,10.0,30.28937,,,TRUE,TRUE,,,,,,,CLR,,,,,,,,VFR,,,,,,,,,,,,METAR,
KXNO 231055Z AUTO 00000KT 10SM CLR 06/06 A3019 RMK AO2 SLP226 T00630062 $,KXNO,2022-10-23T10:55:00Z,33.62,-81.07,6.3,6.2,0,0,,10.0,30.188976,1022.6,,TRUE,TRUE,TRUE,,,,,,CLR,,,,,,,,VFR,,,,,,,,,,,,METAR,94.0
KXMR 231055Z AUTO 32006KT 10SM CLR 19/18 A3005 RMK AO2 SLP179 T01910176 $,KXMR,2022-10-23T10:55:00Z,28.47,-80.57,19.1,17.6,320,6,,10.0,30.050198,1017.9,,TRUE,TRUE,TRUE,,,,,,CLR,,,,,,,,VFR,,,,,,,,,,,,SPECI,5.0
KXIF 231055Z AUTO 23003KT 9SM CLR 04/03 A3026 RMK AO2 SLP254 T00380032 $,KXIF,2022-10-23T10:55:00Z,,,3.8,3.2,230,3,,9.0,30.259842,1025.4,,TRUE,TRUE,TRUE,,,,,,CLR,,,,,,,,VFR,,,,,,,,,,,,SPECI,
KXBP 231055Z AUTO 17011G16KT 10SM CLR 20/16 A2977 RMK AO2 T02040160,KXBP,2022-10-23T10:55:00Z,33.18,-97.83,20.4,16.0,170,11,16,10.0,29.769686,,,TRUE,TRUE,,,,,,,CLR,,,,,,,,VFR,,,,,,,,,,,,METAR,256.0
KX26 231055Z AUTO 31003KT 10SM SCT038 18/17 A3007 RMK AO2 T01800173,KX26,2022-10-23T10:55:00Z,27.82,-80.5,18.0,17.3,310,3,,10.0,30.070866,,,TRUE,TRUE,,,,,,,SCT,3800,,,,,,,VFR,,,,,,,,,,,,SPECI,5.0
KWWR 231055Z AUTO 20015G20KT 10SM CLR 21/10 A2957 RMK AO2,KWWR,2022-10-23T10:55:00Z,36.45,-99.52,21.0,10.0,200,15,20,10.0,29.568897,,,TRUE,TRUE,,,,,,,CLR,,,,,,,,VFR,,,,,,,,,,,,METAR,664.0
KWRI 231055Z 03007KT 10SM BKN040 13/09 A3024 RMK AO2A SLP240 T01280089 $,KWRI,2022-10-23T10:55:00Z,40.02,-74.58,12.8,8.9,30,7,,10.0,30.239174,1024.0,,,TRUE,TRUE,,,,,,BKN,4000,,,,,,,VFR,,,,,,,,,,,,METAR,35.0
KWRB 231055Z 00000KT 10SM FEW250 05/05 A3020 RMK AO2A SLP229 T00450045,KWRB,2022-10-23T10:55:00Z,32.63,-83.58,4.5,4.5,0,0,,10.0,30.200787,1022.9,,,TRUE,,,,,,,FEW,25000,,,,,,,VFR,,,,,,,,,,,,METAR,82.0
KWDR 231055Z AUTO 00000KT 10SM CLR 06/03 A3023 RMK AO2,KWDR,2022-10-23T10:55:00Z,33.98,-83.67,6.0,3.0,0,0,,10.0,30.230314,,,TRUE,TRUE,,,,,,,CLR,,,,,,,,VFR,,,,,,,,,,,,METAR,280.0
KWDG 231055Z AUTO 19015G23KT 10SM CLR 22/12 A2958 RMK AO2,KWDG,2022-10-23T10:55:00Z,36.37,-97.78,22.0,12.0,190,15,23,10.0,29.58071,,,TRUE,TRUE,,,,,,,CLR,,,,,,,,VFR,,,,,,,,,,,,METAR,352.0
KW22 231055Z AUTO 10003KT 3/4SM HZ VV005 05/02 A3023 RMK AO2,KW22,2022-10-23T10:55:00Z,39.0,-80.27,5.0,2.0,100,3,,0.75,30.230314,,,TRUE,TRUE,,,,,,HZ,OVX,0,,,,,,,LIFR,,,,,,,,,,,500,METAR,497.0
KVUJ 231055Z AUTO 00000KT 10SM CLR 06/05 A3025 RMK AO2 T00550052,KVUJ,2022-10-23T10:55:00Z,35.42,-80.15,5.5,5.2,0,0,,10.0,30.250984,,,TRUE,TRUE,,,,,,,CLR,,,,,,,,VFR,,,,,,,,,,,,METAR,174.0
KVPS 231055Z AUTO 05004KT 10SM CLR 09/05 A3012 RMK AO2 SLP206 T00870053 $,KVPS,2022-10-23T10:55:00Z,30.47,-86.52,8.7,5.3,50,4,,10.0,30.121063,1020.6,,TRUE,TRUE,TRUE,,,,,,CLR,,,,,,,,VFR,,,,,,,,,,,,METAR,21.0
KVPC 231055Z AUTO 00000KT 10SM OVC039 06/06 A3022 RMK AO2,KVPC,2022-10-23T10:55:00Z,34.1,-84.85,6.0,6.0,0,0,,10.0,30.221457,,,TRUE,TRUE,,,,,,,OVC,3900,,,,,,,VFR,,,,,,,,,,,,METAR,234.0
KVOK 231055Z AUTO 14007KT 10SM BKN120 14/11 A2977 RMK AO2 SLP082 T01400112,KVOK,2022-10-23T10:55:00Z,43.93,-90.27,14.0,11.2,140,7,,10.0,29.769686,1008.2,,TRUE,TRUE,,,,,,,BKN,12000,,,,,,,VFR,,,,,,,,,,,,METAR,278.0
KVKS 231055Z AUTO 15006KT 10SM FEW043 16/16 A3004 RMK A01,KVKS,2022-10-23T10:55:00Z,32.23,-90.93,16.0,16.0,150,6,,10.0,30.041338,,,TRUE,TRUE,,,,,,,FEW,4300,,,,,,,VFR,,,,,,,,,,,,METAR,31.0
KVES 231055Z AUTO 16005KT 10SM CLR 11/08 A3014 RMK AO2,KVES,2022-10-23T10:55:00Z,40.2,-84.53,11.0,8.0,160,5,,10.0,30.138779,,,TRUE,TRUE,,,,,,,CLR,,,,,,,,VFR,,,,,,,,,,,,METAR,308.0
KVDI 231055Z AUTO 00000KT 10SM CLR 10/06 A3017 RMK AO2,KVDI,2022-10-23T10:55:00Z,32.2,-82.37,10.0,6.0,0,0,,10.0,30.171259,,,TRUE,TRUE,,,,,,,CLR,,,,,,,,VFR,,,,,,,,,,,,METAR,81.0
KVBG 231055Z AUTO 02008KT 8SM CLR 10/09 A2985 RMK AO2 SLP111 T00970088 TSNO $,KVBG,2022-10-23T10:55:00Z,34.73,-120.58,9.7,8.8,20,8,,8.0,29.84941,1011.1,,TRUE,TRUE,TRUE,,TRUE,,,,CLR,,,,,,,,VFR,,,,,,,,,,,,METAR,96.0
KVAD 231055Z AUTO 00000KT 10SM CLR 06/04 A3015 RMK AO2 SLP212 T00620039 $,KVAD,2022-10-23T10:55:00Z,30.97,-83.2,6.2,3.9,0,0,,10.0,30.15059,1021.2,,TRUE,TRUE,TRUE,,,,,,CLR,,,,,,,,VFR,,,,,,,,,,,,METAR,70.0
KUYF 231055Z AUTO 00000KT 10SM CLR 06/05 A3017 RMK AO2,KUYF,2022-10-23T10:55:00Z,39.93,-83.47,6.0,5.0,0,0,,10.0,30.171259,,,TRUE,TRUE,,,,,,,CLR,,,,,,,,VFR,,,,,,,,,,,,METAR,326.0
KUNI 231055Z AUTO 00000KT 7SM -SN CLR 05/05 A3021 RMK AO2 T00490049,KUNI,2022-10-23T10:55:00Z,39.22,-82.23,4.9,4.9,0,0,,7.0,30.209646,,,TRUE,TRUE,,,,,,-SN,CLR,,,,,,,,VFR,,,,,,,,,,,,METAR,232.0
KUMP 231055Z AUTO 16007KT 10SM CLR 16/12 A3007 RMK AO2 T01550122,KUMP,2022-10-23T10:55:00Z,39.93,-86.05,15.5,12.2,160,7,,10.0,30.070866,,,TRUE,TRUE,,,,,,,CLR,,,,,,,,VFR,,,,,,,,,,,,METAR,247.0
KULS 231055Z AUTO 21017G22KT 10SM CLR 20/09 A2945 RMK AO2,KULS,2022-10-23T10:55:00Z,37.6,-101.37,20.0,9.0,210,17,22,10.0,29.450787,,,TRUE,TRUE,,,,,,,CLR,,,,,,,,VFR,,,,,,,,,,,,SPECI,934.0
KUKL 231055Z AUTO 18020G26KT 10SM CLR A2958 RMK AO2,KUKL,2022-10-23T10:55:00Z,38.3,-95.73,,,180,20,26,10.0,29.58071,,,TRUE,TRUE,,,,,,,CLR,,,,,,,,VFR,,,,,,,,,,,,METAR,357.0
KUKF 231055Z AUTO 00000KT 10SM CLR 02/02 A3028 RMK AO2,KUKF,2022-10-23T10:55:00Z,36.22,-81.1,2.0,2.0,0,0,,10.0,30.280512,,,TRUE,TRUE,,,,,,,CLR,,,,,,,,VFR,,,,,,,,,,,,METAR,383.0
KUGN 231055Z 14006KT 10SM CLR 13/11 A2991 RMK AO2 SLP124 T01330106,KUGN,2022-10-23T10:55:00Z,42.42,-87.87,13.3,10.6,140,6,,10.0,29.911417,1012.4,,,TRUE,,,,,,,CLR,,,,,,,,VFR,,,,,,,,,,,,METAR,217.0
KTZR 231055Z AUTO 00000KT 10SM CLR 09/07 A3018 RMK AO2 T00850074,KTZR,2022-10-23T10:55:00Z,39.9,-83.13,8.5,7.4,0,0,,10.0,30.180119,,,TRUE,TRUE,,,,,,,CLR,,,,,,,,VFR,,,,,,,,,,,,METAR,275.0
KTVI 231055Z AUTO 00000KT 10SM CLR 05/05 A3018 RMK AO2,KTVI,2022-10-23T10:55:00Z,30.9,-83.88,5.0,5.0,0,0,,10.0,30.180119,,,TRUE,TRUE,,,,,,,CLR,,,,,,,,VFR,,,,,,,,,,,,METAR,74.0
KTTS 231055Z AUTO 35005KT 10SM CLR 17/15 A3006 RMK AO2 VIS 3/4 RWY15/33 SLP184 T01730149 $,KTTS,2022-10-23T10:55:00Z,28.58,-80.67,17.3,14.9,350,5,,10.0,30.059055,1018.4,,TRUE,TRUE,TRUE,,,,,,CLR,,,,,,,,VFR,,,,,,,,,,,,METAR,1.0
KTSP 231055Z AUTO 28015KT 9SM CLR 06/02 A2983 RMK AO2,KTSP,2022-10-23T10:55:00Z,35.13,-118.43,6.0,2.0,280,15,,9.0,29.828741,,,TRUE,TRUE,,,,,,,CLR,,,,,,,,VFR,,,,,,,,,,,,METAR,1209.0
KTRK 231055Z AUTO 00000KT 10SM CLR M07/M07 A2990 RMK AO2,KTRK,2022-10-23T10:55:00Z,39.32,-120.13,-7.0,-7.0,0,0,,10.0,29.899607,,,TRUE,TRUE,,,,,,,CLR,,,,,,,,VFR,,,,,,,,,,,,SPECI,1800.0
KTQK 231055Z AUTO 20010KT 10SM CLR 15/07 A2944 RMK AO2 T01460073,KTQK,2022-10-23T10:55:00Z,38.47,-100.88,14.6,7.3,200,10,,10.0,29.438976,,,TRUE,TRUE,,,,,,,CLR,,,,,,,,VFR,,,,,,,,,,,,METAR,906.0
KTOC 231055Z AUTO 34006KT 10SM CLR 06/04 A3022 RMK AO2 T00650038,KTOC,2022-10-23T10:55:00Z,34.6,-83.3,6.5,3.8,340,6,,10.0,30.221457,,,TRUE,TRUE,,,,,,,CLR,,,,,,,,VFR,,,,,,,,,,,,SPECI,292.0
KTMK 231055Z AUTO 00000KT 2SM BR OVC032 04/04 A3003 RMK AO2 VIS 1V5,KTMK,2022-10-23T10:55:00Z,45.42,-123.82,4.0,4.0,0,0,,2.0,30.029528,,,TRUE,TRUE,,,,,,BR,OVC,3200,,,,,,,IFR,,,,,,,,,,,,SPECI,8.0
KTIP 231055Z AUTO 15011KT 10SM OVC060 16/11 A2994 RMK AO2 T01580108,KTIP,2022-10-23T10:55:00Z,40.28,-88.15,15.8,10.8,150,11,,10.0,29.940945,,,TRUE,TRUE,,,,,,,OVC,6000,,,,,,,VFR,,,,,,,,,,,,METAR,224.0
KTIK 231055Z AUTO 18018KT 10SM CLR 21/13 A2965 RMK AO2 SLP033 T02070131,KTIK,2022-10-23T10:55:00Z,35.4,-97.38,20.7,13.1,180,18,,10.0,29.648623,1003.3,,TRUE,TRUE,,,,,,,CLR,,,,,,,,VFR,,,,,,,,,,,,METAR,387.0
KTIF 231055Z AUTO 00000KT 10SM CLR 03/00 A2928 RMK AO2 T00270001,KTIF,2022-10-23T10:55:00Z,41.97,-100.57,2.7,0.1,0,0,,10.0,29.279528,,,TRUE,TRUE,,,,,,,CLR,,,,,,,,VFR,,,,,,,,,,,,METAR,888.0
KTDR 231055Z AUTO 08007KT 10SM CLR 11/08 A3010 RMK AO2 SLP197 T01050079 $,KTDR,2022-10-23T10:55:00Z,30.05,-85.52,10.5,7.9,80,7,,10.0,30.100393,1019.7,,TRUE,TRUE,TRUE,,,,,,CLR,,,,,,,,VFR,,,,,,,,,,,,METAR,4.0
KTCM 231055Z AUTO 00000KT 7SM OVC060 04/04 A2998 RMK AO2 SLP157 T00390039 $,KTCM,2022-10-23T10:55:00Z,47.13,-122.47,3.9,3.9,0,0,,7.0,29.97933,1015.7,,TRUE,TRUE,TRUE,,,,,,OVC,6000,,,,,,,VFR,,,,,,,,,,,,METAR,87.0
KTBR 231055Z AUTO 00000KT 10SM CLR 07/05 A3018 RMK AO2 T00660049,KTBR,2022-10-23T10:55:00Z,32.48,-81.73,6.6,4.9,0,0,,10.0,30.180119,,,TRUE,TRUE,,,,,,,CLR,,,,,,,,VFR,,,,,,,,,,,,METAR,54.0
KTBN 231055Z AUTO 16012G17KT 10SM CLR 18/13 A2979 RMK AO2 SLP083 T01810125,KTBN,2022-10-23T10:55:00Z,37.73,-92.13,18.1,12.5,160,12,17,10.0,29.790354,1008.3,,TRUE,TRUE,,,,,,,CLR,,,,,,,,VFR,,,,,,,,,,,,METAR,349.0
KTAZ 231055Z AUTO 16011G16KT 10SM SCT085 16/11 A2989 RMK AO2 T01620105,KTAZ,2022-10-23T10:55:00Z,39.53,-89.33,16.2,10.5,160,11,16,10.0,29.890747,,,TRUE,TRUE,,,,,,,SCT,8500,,,,,,,VFR,,,,,,,,,,,,METAR,188.0
KT70 231055Z AUTO 35009KT 10SM OVC013 19/18 A2978 RMK AO2 SLP073 T01900182 $,KT70,2022-10-23T10:55:00Z,29.12,-100.48,19.0,18.2,350,9,,10.0,29.778543,1007.3,,TRUE,TRUE,TRUE,,,,,,OVC,1300,,,,,,,MVFR,,,,,,,,,,,,SPECI,296.0
KT41 231055Z AUTO 10SM SCT045 BKN050 23/18 A2993 RMK AO2 T02300180,KT41,2022-10-23T10:55:00Z,29.67,-95.07,23.0,18.0,,,,10.0,29.929134,,,TRUE,TRUE,,,,,,,SCT,4500,BKN,5000,,,,,VFR,,,,,,,,,,,,METAR,8.0
KT35 231055Z AUTO 17005KT 10SM CLR 20/18 A2986 RMK AO2 T02010177,KT35,2022-10-23T10:55:00Z,30.88,-96.97,20.1,17.7,170,5,,10.0,29.861221,,,TRUE,TRUE,,,,,,,CLR,,,,,,,,VFR,,,,,,,,,,,,METAR,122.0
KT20 231055Z AUTO 14005KT 10SM CLR 19/18 A2987 RMK AO2 T01860181,KT20,2022-10-23T10:55:00Z,29.52,-97.47,18.6,18.1,140,5,,10.0,29.870079,,,TRUE,TRUE,,,,,,,CLR,,,,,,,,VFR,,,,,,,,,,,,METAR,107.0
KSZL 231055Z 18017G24KT 10SM CLR 20/12 A2960 RMK AO2A SLP019 T02040124,KSZL,2022-10-23T10:55:00Z,38.73,-93.53,20.4,12.4,180,17,24,10.0,29.601377,1001.9,,,TRUE,,,,,,,CLR,,,,,,,,VFR,,,,,,,,,,,,METAR,259.0
KSXS 231055Z AUTO 00000KT 10SM CLR 09/05 A3015 RMK AO2 SLP211 T00940054 $,KSXS,2022-10-23T10:55:00Z,31.37,-85.85,9.4,5.4,0,0,,10.0,30.15059,1021.1,,TRUE,TRUE,TRUE,,,,,,CLR,,,,,,,,VFR,,,,,,,,,,,,SPECI,120.0
KSVN 231055Z AUTO 36005KT 10SM CLR 12/10 A3012 RMK AO2 SLP203 T01190098 $,KSVN,2022-10-23T10:55:00Z,32.02,-81.12,11.9,9.8,360,5,,10.0,30.121063,1020.3,,TRUE,TRUE,TRUE,,,,,,CLR,,,,,,,,VFR,,,,,,,,,,,,SPECI,13.0
KSUU 231055Z AUTO 22009KT 4SM HZ CLR 07/01 A2986 RMK AO2 SLP118 T00700011 $,KSUU,2022-10-23T10:55:00Z,38.27,-121.93,7.0,1.1,220,9,,4.0,29.861221,1011.8,,TRUE,TRUE,TRUE,,,,,HZ,CLR,,,,,,,,MVFR,,,,,,,,,,,,SPECI,9.0
KSUT 231055Z AUTO 36008KT 10SM CLR 14/08 A3013 RMK AO2 T01400083,KSUT,2022-10-23T10:55:00Z,33.93,-78.08,14.0,8.3,360,8,,10.0,30.129921,,,TRUE,TRUE,,,,,,,CLR,,,,,,,,VFR,,,,,,,,,,,,METAR,6.0
KSSC 231055Z AUTO 00000KT 10SM CLR 10/07 A3017 RMK AO2 SLP218 T00960070 $,KSSC,2022-10-23T10:55:00Z,33.97,-80.47,9.6,7.0,0,0,,10.0,30.171259,1021.8,,TRUE,TRUE,TRUE,,,,,,CLR,,,,,,,,VFR,,,,,,,,,,,,METAR,71.0
KSOA 231055Z AUTO 17010KT 10SM 19/17 A2987 RMK AO2,KSOA,2022-10-23T10:55:00Z,30.58,-100.65,19.0,17.0,170,10,,10.0,29.870079,,,TRUE,TRUE,,,,,,,,,,,,,,,,,,,,,,,,,,,METAR,654.0
KSNL 231055Z AUTO 18013G21KT 10SM CLR 21/12 A2970 RMK AO2 T02050120,KSNL,2022-10-23T10:55:00Z,35.35,-96.95,20.5,12.0,180,13,21,10.0,29.698818,,,TRUE,TRUE,,,,,,,CLR,,,,,,,,VFR,,,,,,,,,,,,METAR,327.0
KSLI 231055Z AUTO 00000KT 10SM OVC031 15/13 A2976 RMK AO2 SLP081 T01490126 $,KSLI,2022-10-23T10:55:00Z,33.78,-118.03,14.9,12.6,0,0,,10.0,29.760826,1008.1,,TRUE,TRUE,TRUE,,,,,,OVC,3100,,,,,,,VFR,,,,,,,,,,,,METAR,8.0
KSKF 231055Z 13004KT 10SM BKN018 18/18 A2983 RMK A02A SLP095 T01830183 $,KSKF,2022-10-23T10:55:00Z,29.38,-98.57,18.3,18.3,130,4,,10.0,29.828741,1009.5,,,TRUE,TRUE,,,,,,BKN,1800,,,,,,,MVFR,,,,,,,,,,,,METAR,214.0
KSKA 231055Z 00000KT 10SM BKN100 OVC130 00/M03 A2978 RMK AO2A SLP343 T00031034 $,KSKA,2022-10-23T10:55:00Z,47.62,-117.67,0.3,-3.4,0,0,,10.0,29.778543,1034.3,,,TRUE,TRUE,,,,,,BKN,10000,OVC,13000,,,,,VFR,,,,,,,,,,,,METAR,754.0
KSJS 231055Z AUTO 00000KT 10SM CLR 08/06 A3021 RMK AO2 T00830059,KSJS,2022-10-23T10:55:00Z,37.75,-82.63,8.3,5.9,0,0,,10.0,30.209646,,,TRUE,TRUE,,,,,,,CLR,,,,,,,,VFR,,,,,,,,,,,,METAR,359.0
KSHL 231055Z AUTO 13015KT 10SM CLR 13/11 A2946 RMK AO2,KSHL,2022-10-23T10:55:00Z,43.22,-95.83,13.0,11.0,130,15,,10.0,29.459646,,,TRUE,TRUE,,,,,,,CLR,,,,,,,,VFR,,,,,,,,,,,,METAR,430.0
KSEQ 231055Z AUTO 18009KT 10SM CLR 19/18 A2984 RMK AO2 SLP101 T01850180 $,KSEQ,2022-10-23T10:55:00Z,29.57,-97.9,18.5,18.0,180,9,,10.0,29.840551,1010.1,,TRUE,TRUE,TRUE,,,,,,CLR,,,,,,,,VFR,,,,,,,,,,,,SPECI,160.0
KSEF 231055Z AUTO 36004KT 10SM CLR 17/ A3008 RMK AO2 T0170////,KSEF,2022-10-23T10:55:00Z,27.45,-81.35,17.0,,360,4,,10.0,30.079725,,,TRUE,TRUE,,,,,,,CLR,,,,,,,,VFR,,,,,,,,,,,,METAR,17.0
KSDA 231055Z AUTO 13010KT 10SM CLR 16/13 A2948 RMK AO2,KSDA,2022-10-23T10:55:00Z,40.75,-95.42,16.0,13.0,130,10,,10.0,29.480314,,,TRUE,TRUE,,,,,,,CLR,,,,,,,,VFR,,,,,,,,,,,,METAR,293.0
KSCK 231055Z 31007KT 10SM CLR 11/04 A2986 RMK AO2 SLP111 T01110039,KSCK,2022-10-23T10:55:00Z,37.88,-121.22,11.1,3.9,310,7,,10.0,29.861221,1011.1,,,TRUE,,,,,,,CLR,,,,,,,,VFR,,,,,,,,,,,,METAR,8.0
KSBS 231055Z AUTO 26003KT 10SM BKN024 BKN047 OVC065 02/02 A2942 RMK AO1 T00160016,KSBS,2022-10-23T10:55:00Z,40.52,-106.87,1.6,1.6,260,3,,10.0,29.421259,,,TRUE,TRUE,,,,,,,BKN,2400,BKN,4700,OVC,6500,,,MVFR,,,,,,,,,,,,METAR,2097.0
KSBO 231055Z AUTO 00000KT 10SM CLR 07/07 A3019 RMK AO2,KSBO,2022-10-23T10:55:00Z,32.62,-82.37,7.0,7.0,0,0,,10.0,30.188976,,,TRUE,TRUE,,,,,,,CLR,,,,,,,,VFR,,,,,,,,,,,,METAR,98.0
KRYM 231055Z AUTO 15009KT 10SM CLR 13/08 A2957 RMK AO2 SLP015 T01290078 $,KRYM,2022-10-23T10:55:00Z,46.08,-94.37,12.9,7.8,150,9,,10.0,29.568897,1001.5,,TRUE,TRUE,TRUE,,,,,,CLR,,,,,,,,VFR,,,,,,,,,,,,SPECI,344.0
KRQO 231055Z AUTO 18016G20KT CLR 20/12 A2967 RMK AO2 PWINO T01980122,KRQO,2022-10-23T10:55:00Z,35.47,-98.0,19.8,12.2,180,16,20,,29.66929,,,TRUE,TRUE,,,,,TRUE,,CLR,,,,,,,,,,,,,,,,,,,,METAR,431.0
KRNO 231055Z 30005KT 10SM FEW080 02/M07 A2989 RMK AO2 SLP113 T00221067,KRNO,2022-10-23T10:55:00Z,39.5,-119.77,2.2,-6.7,300,5,,10.0,29.890747,1011.3,,,TRUE,,,,,,,FEW,8000,,,,,,,VFR,,,,,,,,,,,,METAR,1344.0
KRND 231055Z AUTO 00000KT 10SM BKN020 19/19 A2983 RMK AO2 CIG 019 RWY15L CIG 019 RWY15R SLP094 T01900188,KRND,2022-10-23T10:55:00Z,29.53,-98.27,19.0,18.8,0,0,,10.0,29.828741,1009.4,,TRUE,TRUE,,,,,,,BKN,2000,,,,,,,MVFR,,,,,,,,,,,,METAR,224.0
KRIV 231055Z AUTO 13003KT 10SM FEW029 12/10 A2979 RMK AO2 SLP081 T01200101,KRIV,2022-10-23T10:55:00Z,33.87,-117.23,12.0,10.1,130,3,,10.0,29.790354,1008.1,,TRUE,TRUE,,,,,,,FEW,2900,,,,,,,VFR,,,,,,,,,,,,METAR,454.0
KREG 231055Z AUTO 00000KT 10SM SCT048 18/16 A3005 RMK AO2 T01800157,KREG,2022-10-23T10:55:00Z,30.17,-90.93,18.0,15.7,0,0,,10.0,30.050198,,,TRUE,TRUE,,,,,,,SCT,4800,,,,,,,VFR,,,,,,,,,,,,METAR,3.0
KRDR 231055Z AUTO 02008KT 10SM CLR 05/03 A2954 RMK AO2 SLP012 T00460029 CHINO RWY17 $,KRDR,2022-10-23T10:55:00Z,47.93,-97.4,4.6,2.9,20,8,,10.0,29.53937,1001.2,,TRUE,TRUE,TRUE,,,,,,CLR,,,,,,,,VFR,,,,,,,,,,,,METAR,276.0
KRDK 231055Z AUTO 15014G20KT CLR 18/13 A2950 RMK AO2,KRDK,2022-10-23T10:55:00Z,41.02,-95.27,18.0,13.0,150,14,20,,29.500984,,,TRUE,TRUE,,,,,,,CLR,,,,,,,,,,,,,,,,,,,,METAR,317.0
KRCV 231055Z AUTO 24023G41KT 10SM CLR 09/M04 A2961 RMK AO2 T00941036,KRCV,2022-10-23T10:55:00Z,37.72,-106.35,9.4,-3.6,240,23,41,10.0,29.610237,,,TRUE,TRUE,,,,,,,CLR,,,,,,,,VFR,,,,,,,,,,,,METAR,2418.0
KRCR 231055Z AUTO 17007KT 10SM CLR 15/11 A3003 RMK AO2,KRCR,2022-10-23T10:55:00Z,41.07,-86.18,15.0,11.0,170,7,,10.0,30.029528,,,TRUE,TRUE,,,,,,,CLR,,,,,,,,VFR,,,,,,,,,,,,METAR,240.0
KRCA 231055Z AUTO 00000KT 10SM BKN150 BKN190 06/01 A2928 RMK AO2 SLP912 T00620011 $,KRCA,2022-10-23T10:55:00Z,44.15,-103.12,6.2,1.1,0,0,,10.0,29.279528,991.2,,TRUE,TRUE,TRUE,,,,,,BKN,15000,BKN,19000,,,,,VFR,,,,,,,,,,,,METAR,993.0
KRBW 231055Z AUTO 00000KT 10SM CLR 08/08 A3017 RMK AO2,KRBW,2022-10-23T10:55:00Z,32.92,-80.63,8.0,8.0,0,0,,10.0,30.171259,,,TRUE,TRUE,,,,,,,CLR,,,,,,,,VFR,,,,,,,,,,,,SPECI,30.0
KRBO 231055Z AUTO 10SM CLR 22/20 A2985 RMK AO2 T02220202,KRBO,2022-10-23T10:55:00Z,27.78,-97.68,22.2,20.2,,,,10.0,29.84941,,,TRUE,TRUE,,,,,,,CLR,,,,,,,,VFR,,,,,,,,,,,,METAR,24.0
KQVF 231055Z AUTO 11011G18KT 070V160 9999 CLR 30/23 A2996 RMK AO2 SLP148 WND DATA ESTMD T02980227,KQVF,2022-10-23T10:55:00Z,,,29.8,22.7,110,11,18,6.21,29.958662,1014.8,,TRUE,TRUE,,,,,,,CLR,,,,,,,,VFR,,,,,,,,,,,,METAR,
KQRH 231055Z AUTO 07010G14KT 020V130 9999 FEW230 31/23 A2987 RMK AO2 SLP117 WND DATA ESTMD T03120232,KQRH,2022-10-23T10:55:00Z,,,31.2,23.2,70,10,14,6.21,29.870079,1011.7,,TRUE,TRUE,,,,,,,FEW,23000,,,,,,,VFR,,,,,,,,,,,,METAR,
KQN3 231055Z AUTO VRB04G12KT 9999 CLR 35/04 A3000 RMK AO2 SLP148 WND DATA ESTMD T03510041,KQN3,2022-10-23T10:55:00Z,,,35.1,4.1,0,4,12,6.21,30.0,1014.8,,TRUE,TRUE,,,,,,,CLR,,,,,,,,VFR,,,,,,,,,,,,METAR,
KQD3 231055Z AUTO 07011G18KT 030V110 9999 CLR 33/22 A2991 RMK AO2 SLP113 WND DATA ESTMD T03340221,KQD3,2022-10-23T10:55:00Z,,,33.4,22.1,70,11,18,6.21,29.911417,1011.3,,TRUE,TRUE,,,,,,,CLR,,,,,,,,VFR,,,,,,,,,,,,METAR,
KQBL 231055Z AUTO 00000KT 10SM CLR 12/06 A3015 RMK AO2 SLP216 WND DATA ESTMD T01190057,KQBL,2022-10-23T10:55:00Z,,,11.9,5.7,0,0,,10.0,30.15059,1021.6,,TRUE,TRUE,,,,,,,CLR,,,,,,,,VFR,,,,,,,,,,,,METAR,
KPXE 231055Z AUTO 34003KT 10SM CLR 04/03 A3020 RMK AO2 T00370033,KPXE,2022-10-23T10:55:00Z,32.52,-83.77,3.7,3.3,340,3,,10.0,30.200787,,,TRUE,TRUE,,,,,,,CLR,,,,,,,,VFR,,,,,,,,,,,,METAR,126.0
KPVW 231055Z AUTO 21015G21KT 10SM CLR 16/12 A2969 RMK AO2 T01580122,KPVW,2022-10-23T10:55:00Z,34.17,-101.72,15.8,12.2,210,15,21,10.0,29.68996,,,TRUE,TRUE,,,,,,,CLR,,,,,,,,VFR,,,,,,,,,,,,SPECI,1029.0
KPTT 231055Z AUTO 18012KT 10SM CLR 19/09 A2949 RMK AO2 T01860087,KPTT,2022-10-23T10:55:00Z,37.7,-98.75,18.6,8.7,180,12,,10.0,29.489174,,,TRUE,TRUE,,,,,,,CLR,,,,,,,,VFR,,,,,,,,,,,,METAR,594.0
KPSN 231055Z AUTO 17007G13KT 130V190 10SM OVC046 20/18 A2989 RMK AO2,KPSN,2022-10-23T10:55:00Z,31.78,-95.7,20.0,18.0,170,7,13,10.0,29.890747,,,TRUE,TRUE,,,,,,,OVC,4600,,,,,,,VFR,,,,,,,,,,,,METAR,124.0
KPSM 231055Z 00000KT 10SM BKN220 OVC250 06/06 A3034 RMK AO2A SLP277 T00620055,KPSM,2022-10-23T10:55:00Z,43.08,-70.82,6.2,5.5,0,0,,10.0,30.339567,1027.7,,,TRUE,,,,,,,BKN,22000,OVC,25000,,,,,VFR,,,,,,,,,,,,METAR,34.0
KPPQ 231055Z AUTO 14009KT 10SM SCT090 17/13 A2981 RMK AO2 T01680125,KPPQ,2022-10-23T10:55:00Z,39.63,-90.78,16.8,12.5,140,9,,10.0,29.811024,,,TRUE,TRUE,,,,,,,SCT,9000,,,,,,,VFR,,,,,,,,,,,,METAR,215.0
KPPA 231055Z AUTO 19015KT 10SM CLR 19/12 A2962 RMK AO2 T01860115,KPPA,2022-10-23T10:55:00Z,35.62,-101.0,18.6,11.5,190,15,,10.0,29.619095,,,TRUE,TRUE,,,,,,,CLR,,,,,,,,VFR,,,,,,,,,,,,METAR,989.0
KPOY 231055Z AUTO 33020G26KT 10SM OVC075 01/M01 A2944 RMK AO2,KPOY,2022-10-23T10:55:00Z,44.87,-108.8,1.0,-1.0,330,20,26,10.0,29.438976,,,TRUE,TRUE,,,,,,,OVC,7500,,,,,,,VFR,,,,,,,,,,,,METAR,1547.0
KPOE 231055Z AUTO 14006KT 10SM BKN050 17/17 A2998 RMK AO2 SLP152 T01690167,KPOE,2022-10-23T10:55:00Z,31.05,-93.2,16.9,16.7,140,6,,10.0,29.97933,1015.2,,TRUE,TRUE,,,,,,,BKN,5000,,,,,,,VFR,,,,,,,,,,,,METAR,98.0
KPOB 231055Z AUTO 25003KT 10SM CLR 09/08 A3017 RMK AO2 SLP219 T00900078 $,KPOB,2022-10-23T10:55:00Z,35.17,-79.02,9.0,7.8,250,3,,10.0,30.171259,1021.9,,TRUE,TRUE,TRUE,,,,,,CLR,,,,,,,,VFR,,,,,,,,,,,,METAR,57.0
KPNT 231055Z AUTO 16014KT 10SM CLR 15/13 A2991 RMK AO2 T01540126,KPNT,2022-10-23T10:55:00Z,40.92,-88.62,15.4,12.6,160,14,,10.0,29.911417,,,TRUE,TRUE,,,,,,,CLR,,,,,,,,VFR,,,,,,,,,,,,METAR,199.0
KPNA 231055Z AUTO 30009KT 10SM BKN120 M01/M05 A2953 RMK AO2,KPNA,2022-10-23T10:55:00Z,42.8,-109.8,-1.0,-5.0,300,9,,10.0,29.530512,,,TRUE,TRUE,,,,,,,BKN,12000,,,,,,,VFR,,,,,,,,,,,,SPECI,2158.0
KPMU 231055Z AUTO 17007KT 10SM CLR 16/12 A3006 RMK AO2,KPMU,2022-10-23T10:55:00Z,34.37,-89.9,16.0,12.0,170,7,,10.0,30.059055,,,TRUE,TRUE,,,,,,,CLR,,,,,,,,VFR,,,,,,,,,,,,METAR,67.0
KPLU 231055Z AUTO 00000KT 2SM -DZ OVC060 05/05 A2998 RMK AO2 VIS 1V5,KPLU,2022-10-23T10:55:00Z,47.1,-122.28,5.0,5.0,0,0,,2.0,29.97933,,,TRUE,TRUE,,,,,,-DZ,OVC,6000,,,,,,,IFR,,,,,,,,,,,,METAR,164.0
KPIM 231055Z AUTO 00000KT 10SM CLR 05/04 A3020 RMK AO2 T00540036,KPIM,2022-10-23T10:55:00Z,32.83,-84.88,5.4,3.6,0,0,,10.0,30.200787,,,TRUE,TRUE,,,,,,,CLR,,,,,,,,VFR,,,,,,,,,,,,METAR,274.0
KPHP 231055Z AUTO 00000KT 10SM CLR 00/M01 A2929 RMK AO2 SLP918 T00001011,KPHP,2022-10-23T10:55:00Z,44.05,-101.6,0.0,-1.1,0,0,,10.0,29.291338,991.8,,TRUE,TRUE,,,,,,,CLR,,,,,,,,VFR,,,,,,,,,,,,METAR,673.0
KPEQ 231055Z AUTO 32004KT 10SM CLR 14/12 A2974 RMK AO2 T01410119,KPEQ,2022-10-23T10:55:00Z,31.38,-103.52,14.1,11.9,320,4,,10.0,29.740158,,,TRUE,TRUE,,,,,,,CLR,,,,,,,,VFR,,,,,,,,,,,,SPECI,794.0
KPEA 231055Z AUTO 14011KT 10SM CLR 17/11 A2965 RMK AO2 T01670115,KPEA,2022-10-23T10:55:00Z,41.4,-92.95,16.7,11.5,140,11,,10.0,29.648623,,,TRUE,TRUE,,,,,,,CLR,,,,,,,,VFR,,,,,,,,,,,,METAR,264.0
KPBX 231055Z AUTO 18003KT 10SM CLR 09/05 A3021 RMK AO2 T00910051,KPBX,2022-10-23T10:55:00Z,37.57,-82.57,9.1,5.1,180,3,,10.0,30.209646,,,TRUE,TRUE,,,,,,,CLR,,,,,,,,VFR,,,,,,,,,,,,METAR,447.0
KPAM 231055Z AUTO 07004KT 10SM CLR 12/07 A3012 RMK AO2 SLP203 T01180073 $,KPAM,2022-10-23T10:55:00Z,30.07,-85.57,11.8,7.3,70,4,,10.0,30.121063,1020.3,,TRUE,TRUE,TRUE,,,,,,CLR,,,,,,,,VFR,,,,,,,,,,,,METAR,4.0
KP58 231055Z AUTO VRB04KT 14/10 A3009 RMK AO1 SLP185 T01440100,KP58,2022-10-23T10:55:00Z,44.02,-82.8,14.4,10.0,0,4,,,30.088583,1018.5,,TRUE,TRUE,,,,,,,,,,,,,,,,,,,,,,,,,,,SPECI,180.0
KOZR 231055Z AUTO 02004KT 10SM CLR 08/04 A3015 RMK AO2 SLP212 T00830043 $,KOZR,2022-10-23T10:55:00Z,31.28,-85.72,8.3,4.3,20,4,,10.0,30.15059,1021.2,,TRUE,TRUE,TRUE,,,,,,CLR,,,,,,,,VFR,,,,,,,,,,,,METAR,90.0
KOZA 231055Z AUTO 17006KT 10SM CLR 17/13 A2983 RMK AO2,KOZA,2022-10-23T10:55:00Z,30.73,-101.2,17.0,13.0,170,6,,10.0,29.828741,,,TRUE,TRUE,,,,,,,CLR,,,,,,,,VFR,,,,,,,,,,,,SPECI,721.0
KOWX 231055Z AUTO 00000KT 10SM CLR 12/07 A3014 RMK AO1,KOWX,2022-10-23T10:55:00Z,41.03,-83.98,12.0,7.0,0,0,,10.0,30.138779,,,TRUE,TRUE,,,,,,,CLR,,,,,,,,VFR,,,,,,,,,,,,METAR,232.0
KOWP 231055Z AUTO 19010G17KT 10SM CLR 23/15 A2971 RMK AO2 T02300152,KOWP,2022-10-23T10:55:00Z,36.18,-96.15,23.0,15.2,190,10,17,10.0,29.71063,,,TRUE,TRUE,,,,,,,CLR,,,,,,,,VFR,,,,,,,,,,,,METAR,267.0
KOUN 231055Z AUTO 17016G21KT 10SM CLR 21/14 A2968 RMK AO2 T02060137,KOUN,2022-10-23T10:55:00Z,35.25,-97.47,20.6,13.7,170,16,21,10.0,29.681103,,,TRUE,TRUE,,,,,,,CLR,,,,,,,,VFR,,,,,,,,,,,,METAR,359.0
KOSA 231055Z AUTO 15009KT 10SM BKN038 19/17 A2990 RMK AO2 T01900169,KOSA,2022-10-23T10:55:00Z,33.1,-94.97,19.0,16.9,150,9,,10.0,29.899607,,,TRUE,TRUE,,,,,,,BKN,3800,,,,,,,VFR,,,,,,,,,,,,SPECI,108.0
KORG 231055Z AUTO 17003KT 10SM SCT045 SCT050 22/18 A2999 RMK AO2 T02220180,KORG,2022-10-23T10:55:00Z,30.07,-93.8,22.2,18.0,170,3,,10.0,29.991142,,,TRUE,TRUE,,,,,,,SCT,4500,SCT,5000,,,,,VFR,,,,,,,,,,,,SPECI,2.0
KOPN 231055Z AUTO 03003KT 10SM CLR 08/04 A3021 RMK AO2,KOPN,2022-10-23T10:55:00Z,32.95,-84.27,8.0,4.0,30,3,,10.0,30.209646,,,TRUE,TRUE,,,,,,,CLR,,,,,,,,VFR,,,,,,,,,,,,METAR,241.0
KOPL 231055Z AUTO 12004KT 10SM SCT044 BKN050 17/15 A3003 RMK AO2 T01660154,KOPL,2022-10-23T10:55:00Z,30.55,-92.1,16.6,15.4,120,4,,10.0,30.029528,,,TRUE,TRUE,,,,,,,SCT,4400,BKN,5000,,,,,VFR,,,,,,,,,,,,METAR,22.0
KOOA 231055Z AUTO 15015KT 10SM CLR 18/15 A2968 RMK AO2 T01800150,KOOA,2022-10-23T10:55:00Z,41.23,-92.5,18.0,15.0,150,15,,10.0,29.681103,,,TRUE,TRUE,,,,,,,CLR,,,,,,,,VFR,,,,,,,,,,,,METAR,256.0
KONL 231055Z AUTO 13010KT 10SM CLR 11/07 A2933 RMK AO2 T01090072,KONL,2022-10-23T10:55:00Z,42.47,-98.68,10.9,7.2,130,10,,10.0,29.329725,,,TRUE,TRUE,,,,,,,CLR,,,,,,,,VFR,,,,,,,,,,,,METAR,619.0
KOLZ 231055Z AUTO 14013KT 10SM CLR 14/11 A2972 RMK A01,KOLZ,2022-10-23T10:55:00Z,42.67,-91.97,14.0,11.0,140,13,,10.0,29.719488,,,TRUE,TRUE,,,,,,,CLR,,,,,,,,VFR,,,,,,,,,,,,METAR,328.0
KOKZ 231055Z AUTO 00000KT 10SM SCT034 06/04 A3020 RMK AO2 T00570041,KOKZ,2022-10-23T10:55:00Z,32.97,-82.83,5.7,4.1,0,0,,10.0,30.200787,,,TRUE,TRUE,,,,,,,SCT,3400,,,,,,,VFR,,,,,,,,,,,,METAR,128.0
KOKM 231055Z AUTO 18018G25KT 10SM CLR 21/15 A2973 RMK AO2 T02110150,KOKM,2022-10-23T10:55:00Z,35.67,-95.95,21.1,15.0,180,18,25,10.0,29.731298,,,TRUE,TRUE,,,,,,,CLR,,,,,,,,VFR,,,,,,,,,,,,METAR,215.0
KOGS 231055Z AUTO 00000KT 10SM CLR 04/03 A3026 RMK AO2,KOGS,2022-10-23T10:55:00Z,44.67,-75.47,4.0,3.0,0,0,,10.0,30.259842,,,TRUE,TRUE,,,,,,,CLR,,,,,,,,VFR,,,,,,,,,,,,METAR,88.0
KOGA 231055Z AUTO 00000KT 10SM CLR 02/M04 A2927 RMK AO2 T00211037,KOGA,2022-10-23T10:55:00Z,41.12,-101.77,2.1,-3.7,0,0,,10.0,29.27067,,,TRUE,TRUE,,,,,,,CLR,,,,,,,,VFR,,,,,,,,,,,,METAR,991.0
KOFF 231055Z 13010KT 10SM CLR 17/12 A2947 RMK AO2A SLP977 T01650116 PWINO PNO FZRANO TSNO VISNO RWY13 $,KOFF,2022-10-23T10:55:00Z,41.12,-95.92,16.5,11.6,130,10,,10.0,29.471457,997.7,,,TRUE,TRUE,,TRUE,TRUE,TRUE,,CLR,,,,,,,,VFR,,,,,,,,,,,,METAR,308.0
KOCW 231055Z AUTO 36004KT 10SM SCT011 OVC120 13/11 A3013 RMK AO2 T01300110,KOCW,2022-10-23T10:55:00Z,35.57,-77.05,13.0,11.0,360,4,,10.0,30.129921,,,TRUE,TRUE,,,,,,,SCT,1100,OVC,12000,,,,,VFR,,,,,,,,,,,,SPECI,10.0
KOBE 231055Z AUTO 36006KT 10SM CLR 17/17 A3006 RMK AO2,KOBE,2022-10-23T10:55:00Z,27.27,-80.85,17.0,17.0,360,6,,10.0,30.059055,,,TRUE,TRUE,,,,,,,CLR,,,,,,,,VFR,,,,,,,,,,,,METAR,11.0
KNY0 231055Z AUTO 05003KT 10SM CLR 03/03 A3032 RMK AO2,KNY0,2022-10-23T10:55:00Z,42.98,-74.33,3.0,3.0,50,3,,10.0,30.318897,,,TRUE,TRUE,,,,,,,CLR,,,,,,,,VFR,,,,,,,,,,,,METAR,266.0
KNTD 231055Z AUTO 05003KT 9SM CLR 13/11 A2978 RMK AO2 SLP084 T01330111,KNTD,2022-10-23T10:55:00Z,34.12,-119.12,13.3,11.1,50,3,,9.0,29.778543,1008.4,,TRUE,TRUE,,,,,,,CLR,,,,,,,,VFR,,,,,,,,,,,,METAR,1.0
KNRN 231055Z AUTO 22008KT 10SM CLR 15/01 A2936 RMK AO2,KNRN,2022-10-23T10:55:00Z,39.85,-99.9,15.0,1.0,220,8,,10.0,29.359253,,,TRUE,TRUE,,,,,,,CLR,,,,,,,,VFR,,,,,,,,,,,,METAR,726.0
KNOW 231055Z AUTO 22004KT 10SM CLR 08/06 A2998 RMK AO2 T00750063,KNOW,2022-10-23T10:55:00Z,48.13,-123.4,7.5,6.3,220,4,,10.0,29.97933,,,TRUE,TRUE,,,,,,,CLR,,,,,,,,VFR,,,,,,,,,,,,SPECI,3.0
KNBG 231055Z AUTO 10006KT 10SM CLR 18/17 A3006 RMK AO2 SLP180 T01780167 $,KNBG,2022-10-23T10:55:00Z,29.83,-90.02,17.8,16.7,100,6,,10.0,30.059055,1018.0,,TRUE,TRUE,TRUE,,,,,,CLR,,,,,,,,VFR,,,,,,,,,,,,SPECI,0.0
KMYZ 231055Z AUTO 17011G16KT 10SM CLR 19/13 A2944 RMK AO2,KMYZ,2022-10-23T10:55:00Z,39.85,-96.63,19.0,13.0,170,11,16,10.0,29.438976,,,TRUE,TRUE,,,,,,,CLR,,,,,,,,VFR,,,,,,,,,,,,SPECI,388.0
KMXF 231055Z AUTO 00000KT 10SM CLR 09/07 A3016 RMK AO2 SLP216 T00860067,KMXF,2022-10-23T10:55:00Z,32.38,-86.37,8.6,6.7,0,0,,10.0,30.159449,1021.6,,TRUE,TRUE,,,,,,,CLR,,,,,,,,VFR,,,,,,,,,,,,METAR,47.0
KMUI 231055Z AUTO 00000KT 9SM CLR 04/02 A3027 RMK AO2 SLP256 T00370017,KMUI,2022-10-23T10:55:00Z,40.43,-76.57,3.7,1.7,0,0,,9.0,30.268702,1025.6,,TRUE,TRUE,,,,,,,CLR,,,,,,,,VFR,,,,,,,,,,,,METAR,146.0
KMTC 231055Z AUTO 08003KT 10SM CLR 08/08 A3011 RMK AO2 SLP202 T00790075,KMTC,2022-10-23T10:55:00Z,42.62,-82.83,7.9,7.5,80,3,,10.0,30.109253,1020.2,,TRUE,TRUE,,,,,,,CLR,,,,,,,,VFR,,,,,,,,,,,,METAR,177.0
KMQW 231055Z AUTO 00000KT 10SM CLR 04/04 A3018 RMK AO2 T00450037,KMQW,2022-10-23T10:55:00Z,32.1,-82.88,4.5,3.7,0,0,,10.0,30.180119,,,TRUE,TRUE,,,,,,,CLR,,,,,,,,VFR,,,,,,,,,,,,METAR,62.0
KMQS 231055Z AUTO 03004KT 4SM HZ BKN025 OVC029 11/06 A3027 RMK AO2,KMQS,2022-10-23T10:55:00Z,39.98,-75.87,11.0,6.0,30,4,,4.0,30.268702,,,TRUE,TRUE,,,,,,HZ,BKN,2500,OVC,2900,,,,,MVFR,,,,,,,,,,,,METAR,200.0
KMQB 231055Z AUTO 15008KT 10SM CLR 15/11 A2982 RMK AO2 T01460106,KMQB,2022-10-23T10:55:00Z,40.52,-90.65,14.6,10.6,150,8,,10.0,29.819881,,,TRUE,TRUE,,,,,,,CLR,,,,,,,,VFR,,,,,,,,,,,,METAR,205.0
KMNH 231055Z AUTO 21019G23KT 10SM CLR 13/M05 A2945 RMK AO2,KMNH,2022-10-23T10:55:00Z,39.22,-104.65,13.0,-5.0,210,19,23,10.0,29.450787,,,TRUE,TRUE,,,,,,,CLR,,,,,,,,VFR,,,,,,,,,,,,METAR,2152.0
KMMT 231055Z AUTO 00000KT 10SM CLR 07/07 A3018 RMK AO2 SLP223 T00680067 $,KMMT,2022-10-23T10:55:00Z,33.92,-80.8,6.8,6.7,0,0,,10.0,30.180119,1022.3,,TRUE,TRUE,TRUE,,,,,,CLR,,,,,,,,VFR,,,,,,,,,,,,SPECI,76.0
KMLJ 231055Z AUTO 00000KT 10SM CLR 07/06 A3020 RMK AO2,KMLJ,2022-10-23T10:55:00Z,33.15,-83.25,7.0,6.0,0,0,,10.0,30.200787,,,TRUE,TRUE,,,,,,,CLR,,,,,,,,VFR,,,,,,,,,,,,METAR,115.0
KMLE 231055Z AUTO 13010G14KT 10SM CLR 17/13 A2945 RMK AO2 T01710127,KMLE,2022-10-23T10:55:00Z,41.2,-96.12,17.1,12.7,130,10,14,10.0,29.450787,,,TRUE,TRUE,,,,,,,CLR,,,,,,,,VFR,,,,,,,,,,,,METAR,318.0
KMKG 231055Z 13008KT 10SM CLR 13/11 A2999 RMK AO2 SLP155 T01330106,KMKG,2022-10-23T10:55:00Z,43.17,-86.23,13.3,10.6,130,8,,10.0,29.991142,1015.5,,,TRUE,,,,,,,CLR,,,,,,,,VFR,,,,,,,,,,,,METAR,190.0
KMJD 231055Z AUTO 00000KT 10SM CLR 13/13 A3009 RMK AO2,KMJD,2022-10-23T10:55:00Z,30.48,-89.65,13.0,13.0,0,0,,10.0,30.088583,,,TRUE,TRUE,,,,,,,CLR,,,,,,,,VFR,,,,,,,,,,,,METAR,17.0
KMIB 231055Z AUTO 08014KT 10SM OVC013 06/04 A2953 RMK AO2 SLP013 T00640037 $,KMIB,2022-10-23T10:55:00Z,48.42,-101.35,6.4,3.7,80,14,,10.0,29.530512,1001.3,,TRUE,TRUE,TRUE,,,,,,OVC,1300,,,,,,,MVFR,,,,,,,,,,,,SPECI,505.0
KMHP 231055Z AUTO 35004KT 10SM CLR 07/06 A3017 RMK AO2 T00670063,KMHP,2022-10-23T10:55:00Z,32.37,-82.08,6.7,6.3,350,4,,10.0,30.171259,,,TRUE,TRUE,,,,,,,CLR,,,,,,,,VFR,,,,,,,,,,,,SPECI,60.0
KMGE 231055Z AUTO 00000KT 10SM CLR 06/04 A3019 RMK AO2 SLP225 T00560036 $,KMGE,2022-10-23T10:55:00Z,33.92,-84.52,5.6,3.6,0,0,,10.0,30.188976,1022.5,,TRUE,TRUE,TRUE,,,,,,CLR,,,,,,,,VFR,,,,,,,,,,,,SPECI,309.0
KMGC 231055Z AUTO 16008KT 130V200 10SM SCT060 15/10 A2999 RMK AO2,KMGC,2022-10-23T10:55:00Z,41.7,-86.82,15.0,10.0,160,8,,10.0,29.991142,,,TRUE,TRUE,,,,,,,SCT,6000,,,,,,,VFR,,,,,,,,,,,,METAR,199.0
KMDQ 231055Z AUTO 00000KT 10SM 08/07 A3017 RMK A02 T00790072,KMDQ,2022-10-23T10:55:00Z,34.87,-86.55,7.9,7.2,0,0,,10.0,30.171259,,,TRUE,TRUE,,,,,,,,,,,,,,,,,,,,,,,,,,,METAR,221.0
KMCF 231055Z AUTO 05007KT 10SM CLR 15/14 A3005 RMK AO2 SLP179 T01520137 FZRANO $,KMCF,2022-10-23T10:55:00Z,27.85,-82.52,15.2,13.7,50,7,,10.0,30.050198,1017.9,,TRUE,TRUE,TRUE,,,TRUE,,,CLR,,,,,,,,VFR,,,,,,,,,,,,METAR,3.0
KLZZ 231055Z AUTO 18008G14KT 10SM OVC020 20/17 A2980 RMK AO2 T02030170,KLZZ,2022-10-23T10:55:00Z,31.1,-98.2,20.3,17.0,180,8,14,10.0,29.799213,,,TRUE,TRUE,,,,,,,OVC,2000,,,,,,,MVFR,,,,,,,,,,,,METAR,356.0
KLXN 231055Z AUTO 15004KT 10SM CLR 09/01 A2931 RMK AO2 T00910005,KLXN,2022-10-23T10:55:00Z,40.78,-99.77,9.1,0.5,150,4,,10.0,29.309055,,,TRUE,TRUE,,,,,,,CLR,,,,,,,,VFR,,,,,,,,,,,,METAR,734.0
KLWB 231055Z AUTO 01003KT 10SM CLR 00/00 A3027 RMK AO2 T00031003,KLWB,2022-10-23T10:55:00Z,37.87,-80.4,0.3,-0.3,10,3,,10.0,30.268702,,,TRUE,TRUE,,,,,,,CLR,,,,,,,,VFR,,,,,,,,,,,,METAR,702.0
KLUV 231055Z AUTO 18011KT 10SM SCT075 BKN100 BKN120 16/12 A2975 RMK AO2,KLUV,2022-10-23T10:55:00Z,32.75,-101.92,16.0,12.0,180,11,,10.0,29.749016,,,TRUE,TRUE,,,,,,,SCT,7500,BKN,10000,BKN,12000,,,VFR,,,,,,,,,,,,METAR,910.0
KLTS 231055Z AUTO 15005KT 10SM CLR 18/12 A2962 RMK AO2 SLP015 T01820122 $,KLTS,2022-10-23T10:55:00Z,34.67,-99.27,18.2,12.2,150,5,,10.0,29.619095,1001.5,,TRUE,TRUE,TRUE,,,,,,CLR,,,,,,,,VFR,,,,,,,,,,,,SPECI,416.0
KLSV 231055Z AUTO 07007KT 10SM BKN100 12/11 A2967 RMK AO2 RAE0955DZB0955E00 SLP032 P0000 T01150113,KLSV,2022-10-23T10:55:00Z,36.23,-115.05,11.5,11.3,70,7,,10.0,29.66929,1003.2,,TRUE,TRUE,,,,,,,BKN,10000,,,,,,,VFR,,,,,,0.005,,,,,,METAR,563.0
KLSF 231055Z AUTO 00000KT 7SM CLR 03/03 M RMK AO2 SLPNO T00310027 CHINO RWY15 $,KLSF,2022-10-23T10:55:00Z,32.32,-84.97,3.1,2.7,0,0,,7.0,,,,TRUE,TRUE,TRUE,,,,,,CLR,,,,,,,,VFR,,,,,,,,,,,,METAR,68.0
KLRJ 231055Z AUTO 12011G16KT 10SM CLR 15/12 A2944 RMK AO2,KLRJ,2022-10-23T10:55:00Z,42.77,-96.2,15.0,12.0,120,11,16,10.0,29.438976,,,TRUE,TRUE,,,,,,,CLR,,,,,,,,VFR,,,,,,,,,,,,METAR,363.0
KLOT 231055Z AUTO 15013KT 10SM CLR 15/11 A2993 RMK AO2,KLOT,2022-10-23T10:55:00Z,41.6,-88.1,15.0,11.0,150,13,,10.0,29.929134,,,TRUE,TRUE,,,,,,,CLR,,,,,,,,VFR,,,,,,,,,,,,METAR,205.0
KLOR 231055Z AUTO 00000KT 10SM CLR 04/04 A3016 RMK AO2 SLP197 T00430040 $,KLOR,2022-10-23T10:55:00Z,31.35,-85.75,4.3,4.0,0,0,,10.0,30.159449,1019.7,,TRUE,TRUE,TRUE,,,,,,CLR,,,,,,,,VFR,,,,,,,,,,,,METAR,92.0
KLOM 231055Z AUTO 05003KT 10SM BKN027 OVC034 11/07 A3027 RMK AO2 T01080071,KLOM,2022-10-23T10:55:00Z,40.13,-75.27,10.8,7.1,50,3,,10.0,30.268702,,,TRUE,TRUE,,,,,,,BKN,2700,OVC,3400,,,,,MVFR,,,,,,,,,,,,METAR,87.0
KLMO 231055Z AUTO 07003KT 7SM CLR 06/M02 A2932 RMK AO2 T00631023,KLMO,2022-10-23T10:55:00Z,40.17,-105.17,6.3,-2.3,70,3,,7.0,29.320866,,,TRUE,TRUE,,,,,,,CLR,,,,,,,,VFR,,,,,,,,,,,,METAR,1535.0
KLLN 231055Z AUTO 20010KT 10SM FEW049 FEW070 14/13 A2973 RMK AO2,KLLN,2022-10-23T10:55:00Z,33.55,-102.37,14.0,13.0,200,10,,10.0,29.731298,,,TRUE,TRUE,,,,,,,FEW,4900,FEW,7000,,,,,VFR,,,,,,,,,,,,METAR,1071.0
KLLJ 231055Z AUTO 29004KT 10SM CLR M03/M09 A2970 RMK AO2 SLP067 T10281089 $,KLLJ,2022-10-23T10:55:00Z,44.52,-114.22,-2.8,-8.9,290,4,,10.0,29.698818,1006.7,,TRUE,TRUE,TRUE,,,,,,CLR,,,,,,,,VFR,,,,,,,,,,,,METAR,1535.0
KLIC 231055Z AUTO 20014KT 10SM CLR 16/M03 A2939 RMK AO2 SLP872 T01561033 $,KLIC,2022-10-23T10:55:00Z,39.27,-103.67,15.6,-3.3,200,14,,10.0,29.388779,987.2,,TRUE,TRUE,TRUE,,,,,,CLR,,,,,,,,VFR,,,,,,,,,,,,METAR,1635.0
KLHW 231055Z AUTO 32004KT 10SM CLR 11/07 A3013 RMK AO2 SLP206 T01050068 $,KLHW,2022-10-23T10:55:00Z,31.88,-81.57,10.5,6.8,320,4,,10.0,30.129921,1020.6,,TRUE,TRUE,TRUE,,,,,,CLR,,,,,,,,VFR,,,,,,,,,,,,METAR,14.0
KLGF 231055Z AUTO 27012KT 10SM CLR 20/10 A2970 RMK AO2 SLP055 T02040099 TSNO $,KLGF,2022-10-23T10:55:00Z,32.87,-114.4,20.4,9.9,270,12,,10.0,29.698818,1005.5,,TRUE,TRUE,TRUE,,TRUE,,,,CLR,,,,,,,,VFR,,,,,,,,,,,,METAR,118.0
KLGC 231055Z AUTO 00000KT 10SM CLR 04/03 A3020 RMK AO2 T00350025,KLGC,2022-10-23T10:55:00Z,33.0,-85.07,3.5,2.5,0,0,,10.0,30.200787,,,TRUE,TRUE,,,,,,,CLR,,,,,,,,VFR,,,,,,,,,,,,METAR,209.0
KLFI 231055Z AUTO 01012KT 10SM OVC011 14/14 A3011 RMK AO2 CIG 010 RWY08 SLP203 T01430141 $,KLFI,2022-10-23T10:55:00Z,37.08,-76.33,14.3,14.1,10,12,,10.0,30.109253,1020.3,,TRUE,TRUE,TRUE,,,,,,OVC,1100,,,,,,,MVFR,,,,,,,,,,,,SPECI,2.0
KLCQ 231055Z AUTO 01004KT 10SM CLR 08/07 A3014 RMK AO2,KLCQ,2022-10-23T10:55:00Z,30.18,-82.58,8.0,7.0,10,4,,10.0,30.138779,,,TRUE,TRUE,,,,,,,CLR,,,,,,,,VFR,,,,,,,,,,,,METAR,59.0
KLCK 231055Z AUTO 00000KT 10SM CLR 08/06 A3018 RMK AO2 T00830062,KLCK,2022-10-23T10:55:00Z,39.82,-82.92,8.3,6.2,0,0,,10.0,30.180119,,,TRUE,TRUE,,,,,,,CLR,,,,,,,,VFR,,,,,,,,,,,,METAR,225.0
KLAM 231055Z AUTO 20016G26KT 10SM CLR 11/03 A2971 RMK AO2 T01120029,KLAM,2022-10-23T10:55:00Z,35.87,-106.27,11.2,2.9,200,16,26,10.0,29.71063,,,TRUE,TRUE,,,,,,,CLR,,,,,,,,VFR,,,,,,,,,,,,METAR,2166.0
KK88 231055Z AUTO 17020G24KT 10SM CLR 21/13 A2964 RMK AO1 T02070127,KK88,2022-10-23T10:55:00Z,37.87,-95.38,20.7,12.7,170,20,24,10.0,29.639763,,,TRUE,TRUE,,,,,,,CLR,,,,,,,,VFR,,,,,,,,,,,,METAR,308.0
KK62 231055Z AUTO 17007KT 10SM CLR 12/07 A3016 RMK AO2,KK62,2022-10-23T10:55:00Z,38.7,-84.4,12.0,7.0,170,7,,10.0,30.159449,,,TRUE,TRUE,,,,,,,CLR,,,,,,,,VFR,,,,,,,,,,,,METAR,274.0
KJYR 231055Z AUTO 15009KT 10SM CLR 14/12 A2937 RMK AO2,KJYR,2022-10-23T10:55:00Z,40.9,-97.62,14.0,12.0,150,9,,10.0,29.371063,,,TRUE,TRUE,,,,,,,CLR,,,,,,,,VFR,,,,,,,,,,,,METAR,508.0
KJVY 231055Z AUTO 00000KT 10SM SCT065 13/11 A3013 RMK AO2 PWINO,KJVY,2022-10-23T10:55:00Z,38.37,-85.73,13.0,11.0,0,0,,10.0,30.129921,,,TRUE,TRUE,,,,,TRUE,,SCT,6500,,,,,,,VFR,,,,,,,,,,,,METAR,141.0
KJOT 231055Z AUTO 16007G15KT 10SM CLR 17/11 A2992 RMK AO2 T01700112,KJOT,2022-10-23T10:55:00Z,41.52,-88.18,17.0,11.2,160,7,15,10.0,29.920275,,,TRUE,TRUE,,,,,,,CLR,,,,,,,,VFR,,,,,,,,,,,,METAR,175.0
KJKA 231055Z AUTO 00000KT 10SM CLR 12/09 A3012 RMK AO2,KJKA,2022-10-23T10:55:00Z,30.28,-87.67,12.0,9.0,0,0,,10.0,30.121063,,,TRUE,TRUE,,,,,,,CLR,,,,,,,,VFR,,,,,,,,,,,,METAR,5.0
KJES 231055Z AUTO 00000KT 10SM CLR 06/03 A3017 RMK AO2,KJES,2022-10-23T10:55:00Z,31.55,-81.88,6.0,3.0,0,0,,10.0,30.171259,,,TRUE,TRUE,,,,,,,CLR,,,,,,,,VFR,,,,,,,,,,,,METAR,26.0
KJAS 231055Z AUTO 00000KT 10SM FEW035 BKN044 OVC050 17/17 A2996 RMK AO2,KJAS,2022-10-23T10:55:00Z,30.88,-94.03,17.0,17.0,0,0,,10.0,29.958662,,,TRUE,TRUE,,,,,,,FEW,3500,BKN,4400,OVC,5000,,,VFR,,,,,,,,,,,,METAR,60.0
KIZA 231055Z AUTO 00000KT 9SM OVC018 10/09 A2982 RMK AO2,KIZA,2022-10-23T10:55:00Z,34.6,-120.07,10.0,9.0,0,0,,9.0,29.819881,,,TRUE,TRUE,,,,,,,OVC,1800,,,,,,,MVFR,,,,,,,,,,,,METAR,200.0
KIRK 231055Z AUTO 15013KT 10SM CLR 16/12 A2970 RMK AO2 SLP055 T01610117,KIRK,2022-10-23T10:55:00Z,40.1,-92.55,16.1,11.7,150,13,,10.0,29.698818,1005.5,,TRUE,TRUE,,,,,,,CLR,,,,,,,,VFR,,,,,,,,,,,,METAR,292.0
KINS 231055Z AUTO 31009KT 10SM OVC095 10/M04 A2974 RMK AO2 SLP039 T00991045 $,KINS,2022-10-23T10:55:00Z,36.58,-115.68,9.9,-4.5,310,9,,10.0,29.740158,1003.9,,TRUE,TRUE,TRUE,,,,,,OVC,9500,,,,,,,VFR,,,,,,,,,,,,SPECI,954.0
KIKV 231055Z AUTO 15010KT 10SM CLR 16/11 A2962 RMK AO2,KIKV,2022-10-23T10:55:00Z,41.68,-93.57,16.0,11.0,150,10,,10.0,29.619095,,,TRUE,TRUE,,,,,,,CLR,,,,,,,,VFR,,,,,,,,,,,,METAR,270.0
KIKK 231055Z AUTO 15006KT 10SM BKN050 16/11 A2995 RMK AO2 T01580105,KIKK,2022-10-23T10:55:00Z,41.07,-87.85,15.8,10.5,150,6,,10.0,29.949802,,,TRUE,TRUE,,,,,,,BKN,5000,,,,,,,VFR,,,,,,,,,,,,METAR,188.0
KIJX 231055Z AUTO 15013G21KT 10SM SCT080 17/11 A2983 RMK AO2 T01700110,KIJX,2022-10-23T10:55:00Z,39.77,-90.25,17.0,11.0,150,13,21,10.0,29.828741,,,TRUE,TRUE,,,,,,,SCT,8000,,,,,,,VFR,,,,,,,,,,,,METAR,187.0
KIIB 231055Z AUTO 13014KT 10SM CLR 14/12 A2973 RMK AO2 T01390118,KIIB,2022-10-23T10:55:00Z,42.45,-91.95,13.9,11.8,130,14,,10.0,29.731298,,,TRUE,TRUE,,,,,,,CLR,,,,,,,,VFR,,,,,,,,,,,,METAR,294.0
KIDP 231055Z AUTO 18018G26KT 10SM CLR 21/14 A2963 RMK AO2 T02150138,KIDP,2022-10-23T10:55:00Z,37.17,-95.78,21.5,13.8,180,18,26,10.0,29.630905,,,TRUE,TRUE,,,,,,,CLR,,,,,,,,VFR,,,,,,,,,,,,METAR,252.0
KICL 231055Z AUTO 16009KT 10SM CLR 17/13 A2954 RMK AO2,KICL,2022-10-23T10:55:00Z,40.72,-95.02,17.0,13.0,160,9,,10.0,29.53937,,,TRUE,TRUE,,,,,,,CLR,,,,,,,,VFR,,,,,,,,,,,,METAR,299.0
KIBM 231055Z AUTO 26009KT 10SM CLR 08/M07 A2932 RMK AO2 T00771074,KIBM,2022-10-23T10:55:00Z,41.18,-103.68,7.7,-7.4,260,9,,10.0,29.320866,,,TRUE,TRUE,,,,,,,CLR,,,,,,,,VFR,,,,,,,,,,,,METAR,1494.0
KIAB 231055Z AUTO 20010G19KT 10SM CLR 22/12 A2951 RMK AO2 PK WND 19026/48 SLP981 T02170117,KIAB,2022-10-23T10:55:00Z,37.62,-97.27,21.7,11.7,200,10,19,10.0,29.509842,998.1,,TRUE,TRUE,,,,,,,CLR,,,,,,,,VFR,,,,,,,,,,,,SPECI,413.0
KI75 231055Z AUTO 13014KT 10SM CLR 17/12 A2961 RMK AO2 T01690124,KI75,2022-10-23T10:55:00Z,41.05,-93.68,16.9,12.4,130,14,,10.0,29.610237,,,TRUE,TRUE,,,,,,,CLR,,,,,,,,VFR,,,,,,,,,,,,METAR,336.0
KI74 231055Z AUTO 00000KT 10SM CLR 09/08 A3016 RMK AO2,KI74,2022-10-23T10:55:00Z,40.12,-83.75,9.0,8.0,0,0,,10.0,30.159449,,,TRUE,TRUE,,,,,,,CLR,,,,,,,,VFR,,,,,,,,,,,,METAR,322.0
KI63 231055Z AUTO 15009KT 10SM SCT075 SCT080 16/11 A2979 RMK AO2 T01590113,KI63,2022-10-23T10:55:00Z,39.98,-90.8,15.9,11.3,150,9,,10.0,29.790354,,,TRUE,TRUE,,,,,,,SCT,7500,SCT,8000,,,,,VFR,,,,,,,,,,,,METAR,221.0
KHZR 231055Z AUTO 10004KT 10SM CLR 15/14 A3005 RMK AO2 T01450135,KHZR,2022-10-23T10:55:00Z,30.72,-91.48,14.5,13.5,100,4,,10.0,30.050198,,,TRUE,TRUE,,,,,,,CLR,,,,,,,,VFR,,,,,,,,,,,,METAR,11.0
KHVE 231055Z AUTO 14006KT 10SM SCT032 BKN070 OVC075 05/03 A2955 RMK AO2,KHVE,2022-10-23T10:55:00Z,38.42,-110.7,5.0,3.0,140,6,,10.0,29.551182,,,TRUE,TRUE,,,,,,,SCT,3200,BKN,7000,OVC,7500,,,VFR,,,,,,,,,,,,SPECI,1351.0
KHST 231055Z AUTO 33007KT 10SM CLR 20/19 A3000 RMK AO2 SLP162 T01990192 $,KHST,2022-10-23T10:55:00Z,25.48,-80.37,19.9,19.2,330,7,,10.0,30.0,1016.2,,TRUE,TRUE,TRUE,,,,,,CLR,,,,,,,,VFR,,,,,,,,,,,,METAR,1.0
KHRT 231055Z AUTO 00000KT 10SM CLR 08/05 A3013 RMK AO2 SLP205 T00830051 $,KHRT,2022-10-23T10:55:00Z,30.42,-86.68,8.3,5.1,0,0,,10.0,30.129921,1020.5,,TRUE,TRUE,TRUE,,,,,,CLR,,,,,,,,VFR,,,,,,,,,,,,METAR,10.0
KHPT 231055Z AUTO 14009G15KT 10SM CLR 16/10 A2964 RMK AO2,KHPT,2022-10-23T10:55:00Z,42.72,-93.23,16.0,10.0,140,9,15,10.0,29.639763,,,TRUE,TRUE,,,,,,,CLR,,,,,,,,VFR,,,,,,,,,,,,METAR,354.0
KHOP 231055Z AUTO 16007KT 10SM SCT070 17/11 A3008 RMK AO2 SLP185 T01660111,KHOP,2022-10-23T10:55:00Z,36.67,-87.5,16.6,11.1,160,7,,10.0,30.079725,1018.5,,TRUE,TRUE,,,,,,,SCT,7000,,,,,,,VFR,,,,,,,,,,,,METAR,170.0
KHON 231055Z AUTO 13006KT 10SM CLR 11/08 A2937 RMK AO2 SLP943 T01110078,KHON,2022-10-23T10:55:00Z,44.38,-98.23,11.1,7.8,130,6,,10.0,29.371063,994.3,,TRUE,TRUE,,,,,,,CLR,,,,,,,,VFR,,,,,,,,,,,,METAR,391.0
KHNR 231055Z AUTO 16010G16KT 10SM CLR 17/13 A2950 RMK A01,KHNR,2022-10-23T10:55:00Z,41.58,-95.33,17.0,13.0,160,10,16,10.0,29.500984,,,TRUE,TRUE,,,,,,,CLR,,,,,,,,VFR,,,,,,,,,,,,METAR,364.0
KHMZ 231055Z AUTO 00000KT 10SM CLR M02/M02 A3030 RMK AO2 T10231025,KHMZ,2022-10-23T10:55:00Z,40.08,-78.52,-2.3,-2.5,0,0,,10.0,30.301182,,,TRUE,TRUE,,,,,,,CLR,,,,,,,,VFR,,,,,,,,,,,,METAR,351.0
KHMN 231055Z AUTO 18010KT 10SM CLR 20/08 A2977 RMK AO2 SLP014 T01980082 $,KHMN,2022-10-23T10:55:00Z,32.85,-106.1,19.8,8.2,180,10,,10.0,29.769686,1001.4,,TRUE,TRUE,TRUE,,,,,,CLR,,,,,,,,VFR,,,,,,,,,,,,METAR,1240.0
KHLR 231055Z AUTO 19014G20KT 10SM OVC019 22/17 A2984 RMK AO2 SLP095 T02150171,KHLR,2022-10-23T10:55:00Z,31.13,-97.72,21.5,17.1,190,14,20,10.0,29.840551,1009.5,,TRUE,TRUE,,,,,,,OVC,1900,,,,,,,MVFR,,,,,,,,,,,,SPECI,271.0
KHII 231055Z AUTO 00000KT 10SM CLR 19/07 A2966 RMK AO2,KHII,2022-10-23T10:55:00Z,34.57,-114.37,19.0,7.0,0,0,,10.0,29.660433,,,TRUE,TRUE,,,,,,,CLR,,,,,,,,VFR,,,,,,,,,,,,METAR,241.0
KHHW 231055Z AUTO 16010G17KT 10SM SCT027 19/14 A2984 RMK AO2,KHHW,2022-10-23T10:55:00Z,34.03,-95.55,19.0,14.0,160,10,17,10.0,29.840551,,,TRUE,TRUE,,,,,,,SCT,2700,,,,,,,VFR,,,,,,,,,,,,METAR,178.0
KHHG 231055Z AUTO 15005KT 10SM SCT060 A3007 RMK AO2,KHHG,2022-10-23T10:55:00Z,40.85,-85.45,,,150,5,,10.0,30.070866,,,TRUE,TRUE,,,,,,,SCT,6000,,,,,,,VFR,,,,,,,,,,,,METAR,247.0
KHFF 231055Z AUTO 35004KT 10SM CLR 08/08 A3017 RMK AO2 SLP219 T00790078 $,KHFF,2022-10-23T10:55:00Z,35.03,-79.5,7.9,7.8,350,4,,10.0,30.171259,1021.9,,TRUE,TRUE,TRUE,,,,,,CLR,,,,,,,,VFR,,,,,,,,,,,,SPECI,100.0
KHEY 231055Z AUTO 00000KT 10SM CLR 06/05 A3014 RMK AO2 SLP208 T00560053 $,KHEY,2022-10-23T10:55:00Z,31.35,-85.65,5.6,5.3,0,0,,10.0,30.138779,1020.8,,TRUE,TRUE,TRUE,,,,,,CLR,,,,,,,,VFR,,,,,,,,,,,,SPECI,95.0
KHEQ 231055Z AUTO 23004KT 10SM CLR 07/M03 A2929 RMK AO2,KHEQ,2022-10-23T10:55:00Z,40.57,-102.28,7.0,-3.0,230,4,,10.0,29.291338,,,TRUE,TRUE,,,,,,,CLR,,,,,,,,VFR,,,,,,,,,,,,SPECI,1136.0
KHDL 231055Z AUTO 01003KT 10SM FEW029 FEW036 06/05 A3016 RMK AO2,KHDL,2022-10-23T10:55:00Z,31.37,-85.32,6.0,5.0,10,3,,10.0,30.159449,,,TRUE,TRUE,,,,,,,FEW,2900,FEW,3600,,,,,VFR,,,,,,,,,,,,METAR,109.0
KHDE 231055Z AUTO 18004KT 10SM CLR 09/01 A2932 RMK AO2 T00920008,KHDE,2022-10-23T10:55:00Z,40.45,-99.33,9.2,0.8,180,4,,10.0,29.320866,,,TRUE,TRUE,,,,,,,CLR,,,,,,,,VFR,,,,,,,,,,,,METAR,703.0
KHCR 231055Z AUTO 32008KT 3SM -SN SCT008 BKN030 OVC038 01/M01 A2956 RMK AO2,KHCR,2022-10-23T10:55:00Z,40.48,-111.43,1.0,-1.0,320,8,,3.0,29.56004,,,TRUE,TRUE,,,,,,-SN,SCT,800,BKN,3000,OVC,3800,,,MVFR,,,,,,,,,,,,SPECI,1708.0
KGVT 231055Z AUTO 16013KT 10SM BKN027 20/16 A2984 RMK AO2 TSNO T01980159,KGVT,2022-10-23T10:55:00Z,33.07,-96.07,19.8,15.9,160,13,,10.0,29.840551,,,TRUE,TRUE,,,TRUE,,,,BKN,2700,,,,,,,MVFR,,,,,,,,,,,,METAR,165.0
KGUS 231055Z AUTO 17010KT 10SM FEW190 14/10 A3002 RMK AO2 SLP167 T01420098 $,KGUS,2022-10-23T10:55:00Z,40.63,-86.15,14.2,9.8,170,10,,10.0,30.02067,1016.7,,TRUE,TRUE,TRUE,,,,,,FEW,19000,,,,,,,VFR,,,,,,,,,,,,METAR,245.0
KGTB 231055Z AUTO 15012KT 10SM CLR 09/02 A3026 RMK AO2 SLP249 T00880024,KGTB,2022-10-23T10:55:00Z,44.07,-75.72,8.8,2.4,150,12,,10.0,30.259842,1024.9,,TRUE,TRUE,,,,,,,CLR,,,,,,,,VFR,,,,,,,,,,,,METAR,206.0
KGSB 231055Z 29004KT 10SM SCT250 12/06 A3012 RMK AO2A SLP203 T01190062 $,KGSB,2022-10-23T10:55:00Z,35.33,-77.93,11.9,6.2,290,4,,10.0,30.121063,1020.3,,,TRUE,TRUE,,,,,,SCT,25000,,,,,,,VFR,,,,,,,,,,,,SPECI,33.0
KGRK 231055Z AUTO 17014G19KT 10SM OVC019 21/17 A2980 RMK AO2 SLP081 T02120170,KGRK,2022-10-23T10:55:00Z,31.07,-97.83,21.2,17.0,170,14,19,10.0,29.799213,1008.1,,TRUE,TRUE,,,,,,,OVC,1900,,,,,,,MVFR,,,,,,,,,,,,SPECI,311.0
KGPI 231055Z AUTO 00000KT 10SM OVC080 01/01 A2974 RMK AO2 SLP088 T00110006,KGPI,2022-10-23T10:55:00Z,48.32,-114.25,1.1,0.6,0,0,,10.0,29.740158,1008.8,,TRUE,TRUE,,,,,,,OVC,8000,,,,,,,VFR,,,,,,,,,,,,METAR,903.0
KGOP 231055Z AUTO 10SM OVC020 21/17 A2984 RMK AO2,KGOP,2022-10-23T10:55:00Z,31.42,-97.8,21.0,17.0,,,,10.0,29.840551,,,TRUE,TRUE,,,,,,,OVC,2000,,,,,,,MVFR,,,,,,,,,,,,METAR,272.0
KGNC 231055Z AUTO 20008KT 10SM CLR 16/13 A2978 RMK AO2 T01610128,KGNC,2022-10-23T10:55:00Z,32.68,-102.65,16.1,12.8,200,8,,10.0,29.778543,,,TRUE,TRUE,,,,,,,CLR,,,,,,,,VFR,,,,,,,,,,,,SPECI,1002.0
KGNB 231055Z AUTO 00000KT 10SM SCT080 02/M05 A2951 RMK AO2 T00171050,KGNB,2022-10-23T10:55:00Z,40.08,-105.92,1.7,-5.0,0,0,,10.0,29.509842,,,TRUE,TRUE,,,,,,,SCT,8000,,,,,,,VFR,,,,,,,,,,,,SPECI,2500.0
KGMJ 231055Z AUTO 19018G24KT 10SM CLR 15/05 A2972 RMK AO2,KGMJ,2022-10-23T10:55:00Z,36.6,-94.73,15.0,5.0,190,18,24,10.0,29.719488,,,TRUE,TRUE,,,,,,,CLR,,,,,,,,VFR,,,,,,,,,,,,METAR,251.0
KGLW 231055Z AUTO 16003KT 10SM CLR 14/09 A3015 RMK AO2 T01360093,KGLW,2022-10-23T10:55:00Z,37.03,-85.95,13.6,9.3,160,3,,10.0,30.15059,,,TRUE,TRUE,,,,,,,CLR,,,,,,,,VFR,,,,,,,,,,,,METAR,216.0
KGLE 231055Z AUTO 17012KT 10SM CLR 19/16 A2978 RMK AO2 T01910164,KGLE,2022-10-23T10:55:00Z,33.65,-97.2,19.1,16.4,170,12,,10.0,29.778543,,,TRUE,TRUE,,,,,,,CLR,,,,,,,,VFR,,,,,,,,,,,,SPECI,250.0
KGIC 231055Z AUTO 24011KT 10SM BKN035 OVC041 00/00 A2980 RMK AO1,KGIC,2022-10-23T10:55:00Z,45.95,-116.12,0.0,0.0,240,11,,10.0,29.799213,,,TRUE,TRUE,,,,,,,BKN,3500,OVC,4100,,,,,VFR,,,,,,,,,,,,METAR,1002.0
KGHG 231055Z AUTO 00000KT 10SM FEW040 09/08 A3033 RMK AO2,KGHG,2022-10-23T10:55:00Z,42.1,-70.67,9.0,8.0,0,0,,10.0,30.33071,,,TRUE,TRUE,,,,,,,FEW,4000,,,,,,,VFR,,,,,,,,,,,,METAR,3.0
KGGP 231055Z AUTO 15009G14KT 10SM CLR 15/10 A3003 RMK AO2,KGGP,2022-10-23T10:55:00Z,40.72,-86.37,15.0,10.0,150,9,14,10.0,30.029528,,,TRUE,TRUE,,,,,,,CLR,,,,,,,,VFR,,,,,,,,,,,,METAR,224.0
KGGF 231055Z AUTO 18011KT 10SM CLR 07/M05 A2928 RMK AO2,KGGF,2022-10-23T10:55:00Z,,,7.0,-5.0,180,11,,10.0,29.279528,,,TRUE,TRUE,,,,,,,CLR,,,,,,,,VFR,,,,,,,,,,,,METAR,
KGEV 231055Z AUTO 00000KT 10SM CLR 01/00 A3026 RMK AO2 T00090001,KGEV,2022-10-23T10:55:00Z,36.43,-81.42,0.9,0.1,0,0,,10.0,30.259842,,,TRUE,TRUE,,,,,,,CLR,,,,,,,,VFR,,,,,,,,,,,,METAR,961.0
KGCM 231055Z AUTO 18015G20KT 10SM CLR 21/12 A2973 RMK AO2,KGCM,2022-10-23T10:55:00Z,36.3,-95.48,21.0,12.0,180,15,20,10.0,29.731298,,,TRUE,TRUE,,,,,,,CLR,,,,,,,,VFR,,,,,,,,,,,,METAR,215.0
KGCD 231055Z AUTO 26004KT 10SM OVC026 01/00 A2987 RMK AO2 P0003 T00100000,KGCD,2022-10-23T10:55:00Z,44.4,-118.97,1.0,0.0,260,4,,10.0,29.870079,,,TRUE,TRUE,,,,,,,OVC,2600,,,,,,,MVFR,,,,,,0.03,,,,,,METAR,1122.0
KGBG 231055Z AUTO 14007KT 10SM BKN070 16/13 A2981 RMK AO2 T01640127,KGBG,2022-10-23T10:55:00Z,40.93,-90.43,16.4,12.7,140,7,,10.0,29.811024,,,TRUE,TRUE,,,,,,,BKN,7000,,,,,,,VFR,,,,,,,,,,,,METAR,230.0
KFZG 231055Z AUTO 00000KT 10SM CLR 07/06 A3018 RMK AO2 T00680060,KFZG,2022-10-23T10:55:00Z,31.68,-83.27,6.8,6.0,0,0,,10.0,30.180119,,,TRUE,TRUE,,,,,,,CLR,,,,,,,,VFR,,,,,,,,,,,,METAR,105.0
KFYJ 231055Z AUTO 00000KT 10SM BKN021 10/10 A3017 RMK AO1 T01010095,KFYJ,2022-10-23T10:55:00Z,37.52,-76.77,10.1,9.5,0,0,,10.0,30.171259,,,TRUE,TRUE,,,,,,,BKN,2100,,,,,,,MVFR,,,,,,,,,,,,METAR,3.0
KFXY 231055Z AUTO 12008G14KT 10SM CLR 14/10 A2962 RMK AO2,KFXY,2022-10-23T10:55:00Z,43.23,-93.62,14.0,10.0,120,8,14,10.0,29.619095,,,TRUE,TRUE,,,,,,,CLR,,,,,,,,VFR,,,,,,,,,,,,METAR,366.0
KFWZ 231055Z AUTO 25006KT 4SM -SN SCT019 OVC028 M01/M02 A2945 RMK AO2,KFWZ,2022-10-23T10:55:00Z,42.52,-108.78,-1.0,-2.0,250,6,,4.0,29.450787,,,TRUE,TRUE,,,,,,-SN,SCT,1900,OVC,2800,,,,,MVFR,,,,,,,,,,,,SPECI,2605.0
KFTK 231055Z AUTO 14006KT 10SM FEW200 14/09 A3011 RMK AO2 SLP195 T01380092,KFTK,2022-10-23T10:55:00Z,37.9,-85.97,13.8,9.2,140,6,,10.0,30.109253,1019.5,,TRUE,TRUE,,,,,,,FEW,20000,,,,,,,VFR,,,,,,,,,,,,METAR,225.0
KFSK 231055Z AUTO 19023G29KT 10SM SCT120 21/13 A2965 RMK AO2 T02140131,KFSK,2022-10-23T10:55:00Z,37.8,-94.77,21.4,13.1,190,23,29,10.0,29.648623,,,TRUE,TRUE,,,,,,,SCT,12000,,,,,,,VFR,,,,,,,,,,,,METAR,276.0
KFSI 231055Z AUTO 17011KT 10SM CLR 20/13 A2965 RMK AO2 SLP030 T01990126,KFSI,2022-10-23T10:55:00Z,34.65,-98.4,19.9,12.6,170,11,,10.0,29.648623,1003.0,,TRUE,TRUE,,,,,,,CLR,,,,,,,,VFR,,,,,,,,,,,,METAR,360.0
KFRI 231055Z AUTO 16019G23KT 10SM CLR 22/13 A2945 RMK AO2 PK WND 15027/19 SLP961 T02180126 FZRANO $,KFRI,2022-10-23T10:55:00Z,39.05,-96.77,21.8,12.6,160,19,23,10.0,29.450787,996.1,,TRUE,TRUE,TRUE,,,TRUE,,,CLR,,,,,,,,VFR,,,,,,,,,,,,METAR,232.0
KFQD 231055Z AUTO 00000KT 10SM CLR 03/03 A3023 RMK AO2,KFQD,2022-10-23T10:55:00Z,35.42,-81.93,3.0,3.0,0,0,,10.0,30.230314,,,TRUE,TRUE,,,,,,,CLR,,,,,,,,VFR,,,,,,,,,,,,METAR,325.0
KFPY 231055Z AUTO 00000KT 7SM CLR 06/06 A3015 RMK AO2 T00600055 TSNO,KFPY,2022-10-23T10:55:00Z,30.07,-83.57,6.0,5.5,0,0,,7.0,30.15059,,,TRUE,TRUE,,,TRUE,,,,CLR,,,,,,,,VFR,,,,,,,,,,,,METAR,12.0
KFMM 231055Z AUTO 24007KT 10SM CLR 12/M03 A2929 RMK AO2,KFMM,2022-10-23T10:55:00Z,40.33,-103.8,12.0,-3.0,240,7,,10.0,29.291338,,,TRUE,TRUE,,,,,,,CLR,,,,,,,,VFR,,,,,,,,,,,,METAR,1376.0
KFKR 231055Z AUTO 16011KT 10SM FEW060 OVC070 15/11 A3002 RMK AO2,KFKR,2022-10-23T10:55:00Z,40.27,-86.57,15.0,11.0,160,11,,10.0,30.02067,,,TRUE,TRUE,,,,,,,FEW,6000,OVC,7000,,,,,VFR,,,,,,,,,,,,METAR,260.0
KFHU 231055Z AUTO 24008G18KT 10SM BKN040 BKN180 16/08 A2987 RMK AO2 SLP059 T01640079,KFHU,2022-10-23T10:55:00Z,31.58,-110.35,16.4,7.9,240,8,18,10.0,29.870079,1005.9,,TRUE,TRUE,,,,,,,BKN,4000,BKN,18000,,,,,VFR,,,,,,,,,,,,METAR,1424.0
KFFO 231055Z AUTO 14004KT 10SM CLR 11/07 A3012 RMK AO2 SLP201 T01060073,KFFO,2022-10-23T10:55:00Z,39.83,-84.03,10.6,7.3,140,4,,10.0,30.121063,1020.1,,TRUE,TRUE,,,,,,,CLR,,,,,,,,VFR,,,,,,,,,,,,METAR,250.0
KFFL 231055Z AUTO 15012KT 10SM FEW075 17/11 A2971 RMK A01,KFFL,2022-10-23T10:55:00Z,41.05,-91.97,17.0,11.0,150,12,,10.0,29.71063,,,TRUE,TRUE,,,,,,,FEW,7500,,,,,,,VFR,,,,,,,,,,,,METAR,240.0
KFEP 231055Z AUTO 14009KT 10SM CLR 14/14 A2985 RMK AO2 T01430135,KFEP,2022-10-23T10:55:00Z,42.25,-89.58,14.3,13.5,140,9,,10.0,29.84941,,,TRUE,TRUE,,,,,,,CLR,,,,,,,,VFR,,,,,,,,,,,,METAR,255.0
KFCS 231055Z 24035G43KT 10SM CLR 17/M04 A2936 RMK AO2A PK WND 23053/18 SLP873 T01651042 $,KFCS,2022-10-23T10:55:00Z,38.67,-104.77,16.5,-4.2,240,35,43,10.0,29.359253,987.3,,,TRUE,TRUE,,,,,,CLR,,,,,,,,VFR,,,,,,,,,,,,METAR,1789.0
KFBG 231055Z AUTO 34005KT 10SM CLR 11/09 A3015 RMK AO2 SLP212 T01100089 $,KFBG,2022-10-23T10:55:00Z,35.12,-78.92,11.0,8.9,340,5,,10.0,30.15059,1021.2,,TRUE,TRUE,TRUE,,,,,,CLR,,,,,,,,VFR,,,,,,,,,,,,SPECI,69.0
KFAF 231055Z AUTO 01010KT 10SM FEW230 13/11 A3012 RMK AO2 SLP203 T01270106 $,KFAF,2022-10-23T10:55:00Z,37.13,-76.62,12.7,10.6,10,10,,10.0,30.121063,1020.3,,TRUE,TRUE,TRUE,,,,,,FEW,23000,,,,,,,VFR,,,,,,,,,,,,SPECI,3.0
KETN 231055Z AUTO 17009KT 10SM CLR 19/15 A2977 RMK AO2 T01870147,KETN,2022-10-23T10:55:00Z,32.42,-98.82,18.7,14.7,170,9,,10.0,29.769686,,,TRUE,TRUE,,,,,,,CLR,,,,,,,,VFR,,,,,,,,,,,,METAR,445.0
KEND 231055Z AUTO 15018KT 10SM CLR 21/12 A2956 RMK AO2 PK WND 15029/02 SLP996 T02120118,KEND,2022-10-23T10:55:00Z,36.33,-97.92,21.2,11.8,150,18,,10.0,29.56004,999.6,,TRUE,TRUE,,,,,,,CLR,,,,,,,,VFR,,,,,,,,,,,,SPECI,392.0
KEHA 231055Z AUTO 22027G34KT 10SM CLR 20/09 A2952 RMK AO2 T01960094,KEHA,2022-10-23T10:55:00Z,37.0,-101.87,19.6,9.4,220,27,34,10.0,29.518702,,,TRUE,TRUE,,,,,,,CLR,,,,,,,,VFR,,,,,,,,,,,,METAR,1103.0
KEGT 231055Z AUTO 18019G25KT 10SM CLR 23/12 A2955 RMK AO2 T02260118,KEGT,2022-10-23T10:55:00Z,37.32,-97.38,22.6,11.8,180,19,25,10.0,29.551182,,,TRUE,TRUE,,,,,,,CLR,,,,,,,,VFR,,,,,,,,,,,,METAR,387.0
KEDW 231055Z AUTO 28025KT 10SM CLR 13/02 A2974 RMK AO2 PK WND 28028/47 SLP059 T01270017,KEDW,2022-10-23T10:55:00Z,34.9,-117.87,12.7,1.7,280,25,,10.0,29.740158,1005.9,,TRUE,TRUE,,,,,,,CLR,,,,,,,,VFR,,,,,,,,,,,,METAR,698.0
KECU 231055Z AUTO 15011G19KT 10SM OVC006 18/17 A2989 RMK AO2,KECU,2022-10-23T10:55:00Z,29.95,-100.17,18.0,17.0,150,11,19,10.0,29.890747,,,TRUE,TRUE,,,,,,,OVC,600,,,,,,,IFR,,,,,,,,,,,,METAR,725.0
KEBS 231055Z AUTO 13014KT 10SM CLR 14/12 A2958 RMK AO2,KEBS,2022-10-23T10:55:00Z,42.43,-93.87,14.0,12.0,130,14,,10.0,29.58071,,,TRUE,TRUE,,,,,,,CLR,,,,,,,,VFR,,,,,,,,,,,,METAR,340.0
KEAT 231055Z AUTO 28004KT 10SM CLR 04/M02 A2987 RMK AO2 SLP118 T00391022,KEAT,2022-10-23T10:55:00Z,47.4,-120.2,3.9,-2.2,280,4,,10.0,29.870079,1011.8,,TRUE,TRUE,,,,,,,CLR,,,,,,,,VFR,,,,,,,,,,,,METAR,375.0
KE41 231055Z AUTO 18008KT 10SM CLR 17/13 A2980 RMK AO2 T01730128,KE41,2022-10-23T10:55:00Z,31.2,-101.47,17.3,12.8,180,8,,10.0,29.799213,,,TRUE,TRUE,,,,,,,CLR,,,,,,,,VFR,,,,,,,,,,,,METAR,825.0
KE38 231055Z AUTO 21009KT 10SM CLR 19/03 A2993 RMK AO2 T01890026,KE38,2022-10-23T10:55:00Z,30.38,-103.68,18.9,2.6,210,9,,10.0,29.929134,,,TRUE,TRUE,,,,,,,CLR,,,,,,,,VFR,,,,,,,,,,,,SPECI,1372.0
KE16 231055Z AUTO 32004KT 10SM CLR 10/06 A2991 RMK AO2,KE16,2022-10-23T10:55:00Z,37.08,-121.6,10.0,6.0,320,4,,10.0,29.911417,,,TRUE,TRUE,,,,,,,CLR,,,,,,,,VFR,,,,,,,,,,,,METAR,84.0
KE11 231055Z AUTO 19013G18KT 10SM CLR 18/11 A2976 RMK AO2 T01750111,KE11,2022-10-23T10:55:00Z,32.33,-102.53,17.5,11.1,190,13,18,10.0,29.760826,,,TRUE,TRUE,,,,,,,CLR,,,,,,,,VFR,,,,,,,,,,,,METAR,966.0
KDYS 231055Z AUTO 16015G24KT 10SM CLR 20/11 A2970 RMK AO2 SLP015 T02010108,KDYS,2022-10-23T10:55:00Z,32.42,-99.83,20.1,10.8,160,15,24,10.0,29.698818,1001.5,,TRUE,TRUE,,,,,,,CLR,,,,,,,,VFR,,,,,,,,,,,,SPECI,544.0
KDVO 231055Z AUTO 32014G19KT 10SM CLR 13/02 A2990 RMK AO2,KDVO,2022-10-23T10:55:00Z,38.15,-122.55,13.0,2.0,320,14,19,10.0,29.899607,,,TRUE,TRUE,,,,,,,CLR,,,,,,,,VFR,,,,,,,,,,,,METAR,1.0
KDUX 231055Z AUTO 21015KT 10SM CLR 18/09 A2960 RMK AO2 T01800089,KDUX,2022-10-23T10:55:00Z,35.85,-102.02,18.0,8.9,210,15,,10.0,29.601377,,,TRUE,TRUE,,,,,,,CLR,,,,,,,,VFR,,,,,,,,,,,,METAR,1129.0
KDQH 231055Z AUTO 00000KT 10SM BKN027 07/06 A3018 RMK AO2 T00720058,KDQH,2022-10-23T10:55:00Z,31.48,-82.87,7.2,5.8,0,0,,10.0,30.180119,,,TRUE,TRUE,,,,,,,BKN,2700,,,,,,,MVFR,,,,,,,,,,,,METAR,76.0
KDPL 231055Z AUTO 35005KT 10SM CLR 11/08 A3015 RMK AO2,KDPL,2022-10-23T10:55:00Z,35.0,-77.97,11.0,8.0,350,5,,10.0,30.15059,,,TRUE,TRUE,,,,,,,CLR,,,,,,,,VFR,,,,,,,,,,,,METAR,39.0
KDNV 231055Z AUTO 17012G16KT 10SM BKN060 OVC070 19/11 A2998 RMK AO2 T01850106,KDNV,2022-10-23T10:55:00Z,40.2,-87.6,18.5,10.6,170,12,16,10.0,29.97933,,,TRUE,TRUE,,,,,,,BKN,6000,OVC,7000,,,,,VFR,,,,,,,,,,,,METAR,208.0
KDNS 231055Z AUTO 14009G17KT 17/14 A2951 RMK AO2 PWINO,KDNS,2022-10-23T10:55:00Z,41.98,-95.37,17.0,14.0,140,9,17,,29.509842,,,TRUE,TRUE,,,,,TRUE,,,,,,,,,,,,,,,,,,,,,,METAR,382.0
KDMW 231055Z AUTO 00000KT 10SM CLR 07/07 A3026 RMK AO2,KDMW,2022-10-23T10:55:00Z,39.6,-77.0,7.0,7.0,0,0,,10.0,30.259842,,,TRUE,TRUE,,,,,,,CLR,,,,,,,,VFR,,,,,,,,,,,,METAR,239.0
KDMA 231055Z AUTO 21012G20KT 10SM CLR 18/11 A2977 RMK AO2 SLP085 T01810105 $,KDMA,2022-10-23T10:55:00Z,32.17,-110.88,18.1,10.5,210,12,20,10.0,29.769686,1008.5,,TRUE,TRUE,TRUE,,,,,,CLR,,,,,,,,VFR,,,,,,,,,,,,SPECI,804.0
KDLH 231055Z 12010KT 6SM BR FEW002 08/07 A2970 RMK AO2 SLP063 T00780067,KDLH,2022-10-23T10:55:00Z,46.85,-92.2,7.8,6.7,120,10,,6.0,29.698818,1006.3,,,TRUE,,,,,,BR,FEW,200,,,,,,,VFR,,,,,,,,,,,,METAR,434.0
KDLF 231055Z AUTO 10009KT 10SM OVC012 19/17 A2977 RMK AO2 SLP070 T01870172 $,KDLF,2022-10-23T10:55:00Z,29.37,-100.78,18.7,17.2,100,9,,10.0,29.769686,1007.0,,TRUE,TRUE,TRUE,,,,,,OVC,1200,,,,,,,MVFR,,,,,,,,,,,,METAR,328.0
KDKR 231055Z AUTO 12006KT 10SM FEW032 SCT039 BKN046 19/19 A2992 RMK AO2,KDKR,2022-10-23T10:55:00Z,31.3,-95.4,19.0,19.0,120,6,,10.0,29.920275,,,TRUE,TRUE,,,,,,,FEW,3200,SCT,3900,BKN,4600,,,VFR,,,,,,,,,,,,METAR,105.0
KDKB 231055Z AUTO 15010KT 10SM CLR 13/11 A2989 RMK AO2 T01300111,KDKB,2022-10-23T10:55:00Z,41.93,-88.7,13.0,11.1,150,10,,10.0,29.890747,,,TRUE,TRUE,,,,,,,CLR,,,,,,,,VFR,,,,,,,,,,,,METAR,277.0
KDED 231055Z AUTO 30006KT 10SM CLR 15/14 A3011 RMK AO2 T01480138,KDED,2022-10-23T10:55:00Z,29.07,-81.28,14.8,13.8,300,6,,10.0,30.109253,,,TRUE,TRUE,,,,,,,CLR,,,,,,,,VFR,,,,,,,,,,,,METAR,21.0
KDCY 231055Z AUTO 17012KT 10SM SCT055 BKN080 18/11 A3005 RMK AO2 T01780106,KDCY,2022-10-23T10:55:00Z,38.7,-87.13,17.8,10.6,170,12,,10.0,30.050198,,,TRUE,TRUE,,,,,,,SCT,5500,BKN,8000,,,,,VFR,,,,,,,,,,,,METAR,143.0
KDBN 231055Z AUTO 00000KT 10SM CLR 06/05 A3021 RMK AO2,KDBN,2022-10-23T10:55:00Z,32.57,-82.98,6.0,5.0,0,0,,10.0,30.209646,,,TRUE,TRUE,,,,,,,CLR,,,,,,,,VFR,,,,,,,,,,,,METAR,90.0
KDAA 231055Z AUTO 28004KT 10SM CLR 07/06 A3022 RMK AO2 SLP237 T00740060,KDAA,2022-10-23T10:55:00Z,38.72,-77.17,7.4,6.0,280,4,,10.0,30.221457,1023.7,,TRUE,TRUE,,,,,,,CLR,,,,,,,,VFR,,,,,,,,,,,,METAR,17.0
KD73 231055Z AUTO 00000KT 7SM CLR 04/ A3022 RMK AO2 T0036////,KD73,2022-10-23T10:55:00Z,33.78,-83.7,3.6,,0,0,,7.0,30.221457,,,TRUE,TRUE,,,,,,,CLR,,,,,,,,VFR,,,,,,,,,,,,METAR,254.0
KCZT 231055Z AUTO 10003KT 10SM CLR 17/17 A2980 RMK AO2,KCZT,2022-10-23T10:55:00Z,28.52,-99.82,17.0,17.0,100,3,,10.0,29.799213,,,TRUE,TRUE,,,,,,,CLR,,,,,,,,VFR,,,,,,,,,,,,METAR,176.0
KCWV 231055Z AUTO 00000KT 7SM CLR 07/06 A3017 RMK AO2 T00670061,KCWV,2022-10-23T10:55:00Z,32.2,-81.87,6.7,6.1,0,0,,7.0,30.171259,,,TRUE,TRUE,,,,,,,CLR,,,,,,,,VFR,,,,,,,,,,,,METAR,32.0
KCWN 231055Z AUTO 16028G46KT 10SM FEW220 14/M04 A2920 RMK AO2 PK WND 15050/30 SLP712 T01371040 $,KCWN,2022-10-23T10:55:00Z,38.75,-104.85,13.7,-4.0,160,28,46,10.0,29.199802,971.2,,TRUE,TRUE,TRUE,,,,,,FEW,22000,,,,,,,VFR,,,,,,,,,,,,METAR,2040.0
KCWA 231055Z 13006KT 10SM CLR 12/10 A2984,KCWA,2022-10-23T10:55:00Z,44.78,-89.67,12.0,10.0,130,6,,10.0,29.840551,,,,,,,,,,,CLR,,,,,,,,VFR,,,,,,,,,,,,METAR,387.0
KCVS 231055Z AUTO 20014KT 10SM FEW110 SCT130 SCT150 17/09 A2968 RMK AO2 SLP995 T01710093 $,KCVS,2022-10-23T10:55:00Z,34.37,-103.32,17.1,9.3,200,14,,10.0,29.681103,999.5,,TRUE,TRUE,TRUE,,,,,,FEW,11000,SCT,13000,SCT,15000,,,VFR,,,,,,,,,,,,METAR,1305.0
KCUH 231055Z AUTO 17013G21KT 10SM CLR 22/13 A2966 RMK AO2 T02150133,KCUH,2022-10-23T10:55:00Z,35.95,-96.77,21.5,13.3,170,13,21,10.0,29.660433,,,TRUE,TRUE,,,,,,,CLR,,,,,,,,VFR,,,,,,,,,,,,METAR,274.0
KCTJ 231055Z AUTO 00000KT 10SM CLR 05/04 A3024 RMK AO2 T00450038,KCTJ,2022-10-23T10:55:00Z,33.63,-85.15,4.5,3.8,0,0,,10.0,30.239174,,,TRUE,TRUE,,,,,,,CLR,,,,,,,,VFR,,,,,,,,,,,,METAR,351.0
KCPW 231055Z AUTO 22041G58KT 4SM BR BKN001 OVC007 M02/M02 A2971 RMK AO2,KCPW,2022-10-23T10:55:00Z,37.45,-106.8,-2.0,-2.0,220,41,58,4.0,29.71063,,,TRUE,TRUE,,,,,,BR,BKN,100,OVC,700,,,,,LIFR,,,,,,,,,,,,METAR,3570.0
KCPC 231055Z AUTO 36003KT 10SM CLR 13/09 A3016 RMK AO2 T01250087,KCPC,2022-10-23T10:55:00Z,34.28,-78.72,12.5,8.7,360,3,,10.0,30.159449,,,TRUE,TRUE,,,,,,,CLR,,,,,,,,VFR,,,,,,,,,,,,SPECI,27.0
KCOM 231055Z AUTO 19009KT 10SM CLR 19/15 A2979 RMK AO2 T01910145,KCOM,2022-10-23T10:55:00Z,31.83,-99.4,19.1,14.5,190,9,,10.0,29.790354,,,TRUE,TRUE,,,,,,,CLR,,,,,,,,VFR,,,,,,,,,,,,METAR,516.0
KCOF 231055Z AUTO 32006KT 10SM CLR 20/19 A3004 RMK AO2 SLP177 T01960194,KCOF,2022-10-23T10:55:00Z,28.23,-80.6,19.6,19.4,320,6,,10.0,30.041338,1017.7,,TRUE,TRUE,,,,,,,CLR,,,,,,,,VFR,,,,,,,,,,,,METAR,1.0
KCNK 231055Z AUTO 17018KT 10SM CLR 21/09 A2940 RMK AO2 PK WND 19028/1014 SLP939 T02060089,KCNK,2022-10-23T10:55:00Z,39.55,-97.65,20.6,8.9,170,18,,10.0,29.40059,993.9,,TRUE,TRUE,,,,,,,CLR,,,,,,,,VFR,,,,,,,,,,,,METAR,445.0
KCNI 231055Z AUTO 00000KT 10SM CLR 05/03 A3022 RMK AO2 T00510034,KCNI,2022-10-23T10:55:00Z,34.32,-84.42,5.1,3.4,0,0,,10.0,30.221457,,,TRUE,TRUE,,,,,,,CLR,,,,,,,,VFR,,,,,,,,,,,,METAR,371.0
KCNC 231055Z AUTO 14013KT 10SM CLR 16/12 A2962 RMK AO2,KCNC,2022-10-23T10:55:00Z,41.02,-93.37,16.0,12.0,140,13,,10.0,29.619095,,,TRUE,TRUE,,,,,,,CLR,,,,,,,,VFR,,,,,,,,,,,,METAR,319.0
KCMD 231055Z AUTO VRB04KT 10SM CLR 13/09 A3018 RMK AO2,KCMD,2022-10-23T10:55:00Z,34.27,-86.85,13.0,9.0,0,4,,10.0,30.180119,,,TRUE,TRUE,,,,,,,CLR,,,,,,,,VFR,,,,,,,,,,,,METAR,294.0
KCMA 231055Z AUTO 05005KT 10SM CLR 12/11 A2977 RMK AO2 SLP088 T01220111,KCMA,2022-10-23T10:55:00Z,34.22,-119.1,12.2,11.1,50,5,,10.0,29.769686,1008.8,,TRUE,TRUE,,,,,,,CLR,,,,,,,,VFR,,,,,,,,,,,,METAR,20.0
KCKP 231055Z AUTO 12012KT 10SM CLR 13/11 A2950 RMK AO2 T01260105,KCKP,2022-10-23T10:55:00Z,42.73,-95.55,12.6,10.5,120,12,,10.0,29.500984,,,TRUE,TRUE,,,,,,,CLR,,,,,,,,VFR,,,,,,,,,,,,METAR,369.0
KCKF 231055Z AUTO 00000KT 10SM CLR 04/02 A3020 RMK AO2 T00360022,KCKF,2022-10-23T10:55:00Z,31.98,-83.77,3.6,2.2,0,0,,10.0,30.200787,,,TRUE,TRUE,,,,,,,CLR,,,,,,,,VFR,,,,,,,,,,,,METAR,92.0
KCIN 231055Z AUTO 13009KT 10SM CLR 12/12 A2953 RMK AO2,KCIN,2022-10-23T10:55:00Z,42.03,-94.78,12.0,12.0,130,9,,10.0,29.530512,,,TRUE,TRUE,,,,,,,CLR,,,,,,,,VFR,,,,,,,,,,,,METAR,365.0
KCHK 231055Z AUTO 17014G20KT 10SM CLR 21/13 A2964 RMK AO2 T02090125,KCHK,2022-10-23T10:55:00Z,35.1,-97.97,20.9,12.5,170,14,20,10.0,29.639763,,,TRUE,TRUE,,,,,,,CLR,,,,,,,,VFR,,,,,,,,,,,,SPECI,346.0
KCGE 231055Z AUTO 02008KT 9SM FEW006 SCT009 BKN017 13/13 A3019 RMK A01,KCGE,2022-10-23T10:55:00Z,38.53,-76.03,13.0,13.0,20,8,,9.0,30.188976,,,TRUE,TRUE,,,,,,,FEW,600,SCT,900,BKN,1700,,,MVFR,,,,,,,,,,,,METAR,5.0
KCEF 231055Z 00000KT 10SM FEW200 BKN250 04/04 A3031 RMK AO2A SLP271 T00400039,KCEF,2022-10-23T10:55:00Z,42.2,-72.52,4.0,3.9,0,0,,10.0,30.31004,1027.1,,,TRUE,,,,,,,FEW,20000,BKN,25000,,,,,VFR,,,,,,,,,,,,SPECI,72.0
KCCU 231055Z AUTO 17027G33KT 10SM SCT030 SCT037 01/M02 A2966 RMK AO2,KCCU,2022-10-23T10:55:00Z,39.48,-106.15,1.0,-2.0,170,27,33,10.0,29.660433,,,TRUE,TRUE,,,,,,,SCT,3000,SCT,3700,,,,,VFR,,,,,,,,,,,,METAR,3672.0
KCCO 231055Z AUTO 00000KT 10SM CLR 06/05 A3021 RMK AO2 T00640048,KCCO,2022-10-23T10:55:00Z,33.32,-84.77,6.4,4.8,0,0,,10.0,30.209646,,,TRUE,TRUE,,,,,,,CLR,,,,,,,,VFR,,,,,,,,,,,,METAR,290.0
KCBM 231055Z AUTO 15006KT 6SM BR CLR 09/09 A3009 RMK AO2 SLP191 T00910085 $,KCBM,2022-10-23T10:55:00Z,33.65,-88.45,9.1,8.5,150,6,,6.0,30.088583,1019.1,,TRUE,TRUE,TRUE,,,,,BR,CLR,,,,,,,,VFR,,,,,,,,,,,,METAR,59.0
KCBF 231055Z AUTO 14011KT 10SM CLR 15/11 A2946 RMK AO2,KCBF,2022-10-23T10:55:00Z,41.27,-95.77,15.0,11.0,140,11,,10.0,29.459646,,,TRUE,TRUE,,,,,,,CLR,,,,,,,,VFR,,,,,,,,,,,,METAR,379.0
KCBE 231055Z AUTO 03003KT 10SM CLR 02/01 A3034 RMK AO2 T00180013,KCBE,2022-10-23T10:55:00Z,39.62,-78.77,1.8,1.3,30,3,,10.0,30.339567,,,TRUE,TRUE,,,,,,,CLR,,,,,,,,VFR,,,,,,,,,,,,METAR,226.0
KCAV 231055Z AUTO 14017KT 10SM FEW047 15/12 A2960 RMK A01,KCAV,2022-10-23T10:55:00Z,42.75,-93.77,15.0,12.0,140,17,,10.0,29.601377,,,TRUE,TRUE,,,,,,,FEW,4700,,,,,,,VFR,,,,,,,,,,,,METAR,352.0
KCAO 231055Z AUTO 22014KT 10SM CLR 16/09 A2962 RMK AO2 SLP965 T01560089,KCAO,2022-10-23T10:55:00Z,36.45,-103.15,15.6,8.9,220,14,,10.0,29.619095,996.5,,TRUE,TRUE,,,,,,,CLR,,,,,,,,VFR,,,,,,,,,,,,METAR,1517.0
KC75 231055Z AUTO 17011G16KT 10SM SCT070 17/12 A2985 RMK AO2 T01660122,KC75,2022-10-23T10:55:00Z,41.02,-89.38,16.6,12.2,170,11,16,10.0,29.84941,,,TRUE,TRUE,,,,,,,SCT,7000,,,,,,,VFR,,,,,,,,,,,,METAR,166.0
KC65 231055Z AUTO 17008KT 10SM SCT060 16/10 A3001 RMK A01,KC65,2022-10-23T10:55:00Z,41.37,-86.3,16.0,10.0,170,8,,10.0,30.008858,,,TRUE,TRUE,,,,,,,SCT,6000,,,,,,,VFR,,,,,,,,,,,,METAR,241.0
KBYY 231055Z AUTO 17004KT 10SM SCT034 SCT044 SCT055 21/20 A2990 RMK AO2 T02190200,KBYY,2022-10-23T10:55:00Z,28.97,-95.87,21.9,20.0,170,4,,10.0,29.899607,,,TRUE,TRUE,,,,,,,SCT,3400,SCT,4400,SCT,5500,,,VFR,,,,,,,,,,,,METAR,12.0
KBYS 231055Z AUTO 28008KT 10SM CLR 13/06 A2971 RMK AO2 SLP043 T01310055,KBYS,2022-10-23T10:55:00Z,35.28,-116.63,13.1,5.5,280,8,,10.0,29.71063,1004.3,,TRUE,TRUE,,,,,,,CLR,,,,,,,,VFR,,,,,,,,,,,,METAR,717.0
KBYL 231055Z AUTO 15003KT 10SM CLR 08/07 A3022 RMK AO1,KBYL,2022-10-23T10:55:00Z,36.8,-84.2,8.0,7.0,150,3,,10.0,30.221457,,,TRUE,TRUE,,,,,,,CLR,,,,,,,,VFR,,,,,,,,,,,,METAR,355.0
KBVS 231055Z AUTO 00000KT 10SM OVC009 05/05 A2999 RMK A01,KBVS,2022-10-23T10:55:00Z,48.47,-122.42,5.0,5.0,0,0,,10.0,29.991142,,,TRUE,TRUE,,,,,,,OVC,900,,,,,,,IFR,,,,,,,,,,,,METAR,31.0
KBUU 231055Z AUTO 14003KT 10SM CLR 13/11 A2990 RMK AO2 T01270107 PWINO,KBUU,2022-10-23T10:55:00Z,42.68,-88.3,12.7,10.7,140,3,,10.0,29.899607,,,TRUE,TRUE,,,,,TRUE,,CLR,,,,,,,,VFR,,,,,,,,,,,,METAR,238.0
KBQP 231055Z AUTO 00000KT 10SM CLR 16/15 A3003 RMK AO2 T01560145,KBQP,2022-10-23T10:55:00Z,32.75,-91.88,15.6,14.5,0,0,,10.0,30.029528,,,TRUE,TRUE,,,,,,,CLR,,,,,,,,VFR,,,,,,,,,,,,METAR,50.0
KBQK 231055Z AUTO 31003KT 10SM CLR 09/09 A3013 RMK AO2 T00890086,KBQK,2022-10-23T10:55:00Z,31.25,-81.47,8.9,8.6,310,3,,10.0,30.129921,,,TRUE,TRUE,,,,,,,CLR,,,,,,,,VFR,,,,,,,,,,,,METAR,7.0
KBMT 231055Z AUTO 12004KT 10SM CLR 19/17 A2996 RMK AO2 T01890173,KBMT,2022-10-23T10:55:00Z,30.07,-94.22,18.9,17.3,120,4,,10.0,29.958662,,,TRUE,TRUE,,,,,,,CLR,,,,,,,,VFR,,,,,,,,,,,,METAR,8.0
KBLV 231055Z 17011KT 10SM FEW100 SCT130 18/11 A2988 RMK AO2A SLP119 T01820110 $,KBLV,2022-10-23T10:55:00Z,38.53,-89.83,18.2,11.0,170,11,,10.0,29.878937,1011.9,,,TRUE,TRUE,,,,,,FEW,10000,SCT,13000,,,,,VFR,,,,,,,,,,,,METAR,134.0
KBJI 231055Z AUTO 00000KT 10SM CLR 03/03 A2959 RMK AO2 T00300030,KBJI,2022-10-23T10:55:00Z,47.5,-94.92,3.0,3.0,0,0,,10.0,29.589567,,,TRUE,TRUE,,,,,,,CLR,,,,,,,,VFR,,,,,,,,,,,,METAR,422.0
KBIX 231055Z AUTO 04003KT 10SM CLR 14/13 A3008 RMK AO2 SLP189 T01410125,KBIX,2022-10-23T10:55:00Z,30.42,-88.92,14.1,12.5,40,3,,10.0,30.079725,1018.9,,TRUE,TRUE,,,,,,,CLR,,,,,,,,VFR,,,,,,,,,,,,METAR,4.0
KBIJ 231055Z AUTO 00000KT 10SM CLR 03/02 A3018 RMK AO2,KBIJ,2022-10-23T10:55:00Z,31.4,-84.9,3.0,2.0,0,0,,10.0,30.180119,,,TRUE,TRUE,,,,,,,CLR,,,,,,,,VFR,,,,,,,,,,,,METAR,63.0
KBIF 231055Z AUTO 12013KT 10SM CLR 21/09 A2975 RMK AO2 SLP009 T02110090 $,KBIF,2022-10-23T10:55:00Z,31.85,-106.38,21.1,9.0,120,13,,10.0,29.749016,1000.9,,TRUE,TRUE,TRUE,,,,,,CLR,,,,,,,,VFR,,,,,,,,,,,,METAR,1201.0
KBHC 231055Z AUTO 00000KT 10SM SCT029 SCT033 A3016 RMK AO2,KBHC,2022-10-23T10:55:00Z,31.72,-82.4,,,0,0,,10.0,30.159449,,,TRUE,TRUE,,,,,,,SCT,2900,SCT,3300,,,,,VFR,,,,,,,,,,,,METAR,61.0
KBEC 231055Z AUTO 18016G21KT 10SM CLR 21/11 A2954 RMK AO2 T02130113,KBEC,2022-10-23T10:55:00Z,37.7,-97.22,21.3,11.3,180,16,21,10.0,29.53937,,,TRUE,TRUE,,,,,,,CLR,,,,,,,,VFR,,,,,,,,,,,,METAR,421.0
KBDG 231055Z AUTO 21019G32KT 10SM 10/05 A2960 RMK AO1 T00950045,KBDG,2022-10-23T10:55:00Z,37.58,-109.47,9.5,4.5,210,19,32,10.0,29.601377,,,TRUE,TRUE,,,,,,,,,,,,,,,,,,,,,,,,,,,METAR,1778.0
KBBG 231055Z AUTO 17007KT 10SM CLR 19/15 A2982 RMK AO2,KBBG,2022-10-23T10:55:00Z,36.53,-93.2,19.0,15.0,170,7,,10.0,29.819881,,,TRUE,TRUE,,,,,,,CLR,,,,,,,,VFR,,,,,,,,,,,,METAR,403.0
KBBD 231055Z AUTO 18010G17KT 10SM CLR 18/16 A2980 RMK AO2,KBBD,2022-10-23T10:55:00Z,31.18,-99.32,18.0,16.0,180,10,17,10.0,29.799213,,,TRUE,TRUE,,,,,,,CLR,,,,,,,,VFR,,,,,,,,,,,,METAR,554.0
KBAD 231055Z AUTO 16007KT 10SM CLR 17/15 A2995 RMK AO2 SLP145 T01710149,KBAD,2022-10-23T10:55:00Z,32.5,-93.67,17.1,14.9,160,7,,10.0,29.949802,1014.5,,TRUE,TRUE,,,,,,,CLR,,,,,,,,VFR,,,,,,,,,,,,METAR,49.0
KBAB 231055Z AUTO 35006KT 10SM CLR 10/01 A2985 RMK AO2 SLP111 T00980014 VISNO RWY33 $,KBAB,2022-10-23T10:55:00Z,39.13,-121.43,9.8,1.4,350,6,,10.0,29.84941,1011.1,,TRUE,TRUE,TRUE,,,,,,CLR,,,,,,,,VFR,,,,,,,,,,,,METAR,31.0
KAZE 231055Z AUTO 00000KT 10SM SCT034 07/06 A3017 RMK AO2 T00740055,KAZE,2022-10-23T10:55:00Z,31.88,-82.65,7.4,5.5,0,0,,10.0,30.171259,,,TRUE,TRUE,,,,,,,SCT,3400,,,,,,,VFR,,,,,,,,,,,,METAR,78.0
KAYS 231055Z AUTO 35003KT 10SM SCT029 SCT036 09/08 A3016 RMK AO2 T00860080,KAYS,2022-10-23T10:55:00Z,31.25,-82.4,8.6,8.0,350,3,,10.0,30.159449,,,TRUE,TRUE,,,,,,,SCT,2900,SCT,3600,,,,,VFR,,,,,,,,,,,,METAR,42.0
KAXX 231055Z AUTO 23018G30KT 10SM SCT040 SCT047 BKN085 09/02 A2976 RMK AO2 T00900017,KAXX,2022-10-23T10:55:00Z,36.42,-105.28,9.0,1.7,230,18,30,10.0,29.760826,,,TRUE,TRUE,,,,,,,SCT,4000,SCT,4700,BKN,8500,,,VFR,,,,,,,,,,,,SPECI,2543.0
KAXA 231055Z AUTO 14016G24KT 10SM CLR 16/12 A2956 RMK A01,KAXA,2022-10-23T10:55:00Z,43.07,-94.27,16.0,12.0,140,16,24,10.0,29.56004,,,TRUE,TRUE,,,,,,,CLR,,,,,,,,VFR,,,,,,,,,,,,METAR,371.0
KAWG 231055Z AUTO 15012KT 10SM CLR 15/14 A2971 RMK AO2,KAWG,2022-10-23T10:55:00Z,41.27,-91.67,15.0,14.0,150,12,,10.0,29.71063,,,TRUE,TRUE,,,,,,,CLR,,,,,,,,VFR,,,,,,,,,,,,METAR,229.0
KAUN 231055Z AUTO 04003KT 10SM CLR 07/M02 A2985 RMK A01,KAUN,2022-10-23T10:55:00Z,38.95,-121.08,7.0,-2.0,40,3,,10.0,29.84941,,,TRUE,TRUE,,,,,,,CLR,,,,,,,,VFR,,,,,,,,,,,,METAR,453.0
KAUH 231055Z AUTO 14012KT 10SM CLR 14/11 A2935 RMK AO2 T01370105,KAUH,2022-10-23T10:55:00Z,40.88,-98.0,13.7,10.5,140,12,,10.0,29.350393,,,TRUE,TRUE,,,,,,,CLR,,,,,,,,VFR,,,,,,,,,,,,METAR,549.0
KASW 231055Z AUTO 14004KT 10SM SCT060 14/10 A3004 RMK AO2 T01430099,KASW,2022-10-23T10:55:00Z,41.27,-85.83,14.3,9.9,140,4,,10.0,30.041338,,,TRUE,TRUE,,,,,,,SCT,6000,,,,,,,VFR,,,,,,,,,,,,METAR,253.0
KAST 231055Z AUTO 00000KT 10SM FEW048 06/05 A2998 RMK AO2 VIS 2 RWY 08 SLP151 T00560050,KAST,2022-10-23T10:55:00Z,46.15,-123.88,5.6,5.0,0,0,,10.0,29.97933,1015.1,,TRUE,TRUE,,,,,,,FEW,4800,,,,,,,VFR,,,,,,,,,,,,METAR,3.0
KASL 231055Z AUTO 00000KT 10SM CLR 18/16 A2991 RMK AO2 T01820158 TSNO $,KASL,2022-10-23T10:55:00Z,32.52,-94.3,18.2,15.8,0,0,,10.0,29.911417,,,TRUE,TRUE,TRUE,,TRUE,,,,CLR,,,,,,,,VFR,,,,,,,,,,,,METAR,104.0
KAQO 231055Z AUTO 19014KT 10SM OVC024 22/17 A2983 RMK AO2,KAQO,2022-10-23T10:55:00Z,30.78,-98.67,22.0,17.0,190,14,,10.0,29.828741,,,TRUE,TRUE,,,,,,,OVC,2400,,,,,,,MVFR,,,,,,,,,,,,METAR,334.0
KANK 231055Z AUTO 21013G25KT 10SM SCT080 SCT090 12/M02 A2962 RMK AO1 T01161025,KANK,2022-10-23T10:55:00Z,38.53,-106.05,11.6,-2.5,210,13,25,10.0,29.619095,,,TRUE,TRUE,,,,,,,SCT,8000,SCT,9000,,,,,VFR,,,,,,,,,,,,SPECI,2293.0
KANJ 231055Z AUTO 10004KT 10SM CLR 10/09 A3000 RMK AO2 SLP160 T01000089,KANJ,2022-10-23T10:55:00Z,46.47,-84.37,10.0,8.9,100,4,,10.0,30.0,1016.0,,TRUE,TRUE,,,,,,,CLR,,,,,,,,VFR,,,,,,,,,,,,METAR,220.0
KALN 231055Z AUTO 14009KT 10SM SCT090 17/11 A2988 RMK AO2 T01700105,KALN,2022-10-23T10:55:00Z,38.88,-90.03,17.0,10.5,140,9,,10.0,29.878937,,,TRUE,TRUE,,,,,,,SCT,9000,,,,,,,VFR,,,,,,,,,,,,METAR,159.0
KAJZ 231055Z AUTO 27010G22KT 3SM BKN027 BKN035 OVC043 08/05 A2950 RMK AO2 P0002 T00840051 PWINO,KAJZ,2022-10-23T10:55:00Z,38.78,-108.07,8.4,5.1,270,10,22,3.0,29.500984,,,TRUE,TRUE,,,,,TRUE,,BKN,2700,BKN,3500,OVC,4300,,,MVFR,,,,,,0.02,,,,,,METAR,1583.0
KAJR 231055Z AUTO 01003KT 7SM CLR 05/05 A3022 RMK AO2 T00540050,KAJR,2022-10-23T10:55:00Z,34.5,-83.55,5.4,5.0,10,3,,7.0,30.221457,,,TRUE,TRUE,,,,,,,CLR,,,,,,,,VFR,,,,,,,,,,,,METAR,441.0
KAJG 231055Z AUTO 15011KT 10SM OVC070 19/11 A3002 RMK AO2 T01850113,KAJG,2022-10-23T10:55:00Z,38.62,-87.73,18.5,11.3,150,11,,10.0,30.02067,,,TRUE,TRUE,,,,,,,OVC,7000,,,,,,,VFR,,,,,,,,,,,,METAR,130.0
KAIO 231055Z AUTO 14014KT 10SM CLR 17/14 A2951 RMK AO2,KAIO,2022-10-23T10:55:00Z,41.4,-95.03,17.0,14.0,140,14,,10.0,29.509842,,,TRUE,TRUE,,,,,,,CLR,,,,,,,,VFR,,,,,,,,,,,,METAR,349.0
KAFO 231055Z AUTO 00000KT 10SM SCT020 BKN027 OVC060 M01/M04 A2958 RMK AO2,KAFO,2022-10-23T10:55:00Z,42.72,-110.95,-1.0,-4.0,0,0,,10.0,29.58071,,,TRUE,TRUE,,,,,,,SCT,2000,BKN,2700,OVC,6000,,,MVFR,,,,,,,,,,,,METAR,1881.0
KAFK 231055Z AUTO 16011G17KT 10SM CLR 17/13 A2947 RMK AO2 T01730130,KAFK,2022-10-23T10:55:00Z,40.6,-95.85,17.3,13.0,160,11,17,10.0,29.471457,,,TRUE,TRUE,,,,,,,CLR,,,,,,,,VFR,,,,,,,,,,,,METAR,353.0
KAFF 231055Z AUTO 20024G36KT 10SM CLR 15/M06 A2935 RMK AO2 PK WND 23040/42 SLP843 T01531063,KAFF,2022-10-23T10:55:00Z,38.97,-104.82,15.3,-6.3,200,24,36,10.0,29.350393,984.3,,TRUE,TRUE,,,,,,,CLR,,,,,,,,VFR,,,,,,,,,,,,METAR,2003.0
KADU 231055Z AUTO 14010KT 10SM SCT048 SCT055 BKN065 16/12 A2954 RMK AO2,KADU,2022-10-23T10:55:00Z,41.7,-94.92,16.0,12.0,140,10,,10.0,29.53937,,,TRUE,TRUE,,,,,,,SCT,4800,SCT,5500,BKN,6500,,,VFR,,,,,,,,,,,,METAR,391.0
KADT 231055Z AUTO 20013G18KT 10SM CLR 16/00 A2936 RMK AO2 T01601001,KADT,2022-10-23T10:55:00Z,39.83,-101.05,16.0,-0.1,200,13,18,10.0,29.359253,,,TRUE,TRUE,,,,,,,CLR,,,,,,,,VFR,,,,,,,,,,,,SPECI,899.0
KADM 231055Z AUTO 15009KT 10SM FEW029 FEW035 20/16 A2976 RMK AO2,KADM,2022-10-23T10:55:00Z,34.3,-97.02,20.0,16.0,150,9,,10.0,29.760826,,,TRUE,TRUE,,,,,,,FEW,2900,FEW,3500,,,,,VFR,,,,,,,,,,,,METAR,223.0
KADH 231055Z AUTO 17013KT 10SM CLR 20/16 A2977 RMK AO2,KADH,2022-10-23T10:55:00Z,34.8,-96.67,20.0,16.0,170,13,,10.0,29.769686,,,TRUE,TRUE,,,,,,,CLR,,,,,,,,VFR,,,,,,,,,,,,SPECI,301.0
KABH 231055Z AUTO 19015G23KT 10SM OVC230 15/M03 A2945 RMK AO2 PK WND 21026/29 SLP893 T01451033,KABH,2022-10-23T10:55:00Z,38.75,-104.3,14.5,-3.3,190,15,23,10.0,29.450787,989.3,,TRUE,TRUE,,,,,,,OVC,23000,,,,,,,VFR,,,,,,,,,,,,METAR,1838.0
KAAT 231055Z AUTO 14004KT 10SM OVC015 01/M02 A2991 RMK AO2 SLP129 T00111017,KAAT,2022-10-23T10:55:00Z,41.48,-120.57,1.1,-1.7,140,4,,10.0,29.911417,1012.9,,TRUE,TRUE,,,,,,,OVC,1500,,,,,,,MVFR,,,,,,,,,,,,METAR,1336.0
K9V9 231055Z AUTO 11009KT 10SM CLR 11/06 A2932 RMK AO2 T01050058,K9V9,2022-10-23T10:55:00Z,43.77,-99.32,10.5,5.8,110,9,,10.0,29.320866,,,TRUE,TRUE,,,,,,,CLR,,,,,,,,VFR,,,,,,,,,,,,METAR,511.0
K9L2 231055Z AUTO 26010KT 10SM CLR 12/02 A2977 RMK AO2 SLP070 T01190024 $,K9L2,2022-10-23T10:55:00Z,34.98,-117.87,11.9,2.4,260,10,,10.0,29.769686,1007.0,,TRUE,TRUE,TRUE,,,,,,CLR,,,,,,,,VFR,,,,,,,,,,,,METAR,697.0
K8T6 231055Z AUTO 00000KT 10SM FEW044 18/18 A2985 RMK AO2,K8T6,2022-10-23T10:55:00Z,28.37,-98.12,18.0,18.0,0,0,,10.0,29.84941,,,TRUE,TRUE,,,,,,,FEW,4400,,,,,,,VFR,,,,,,,,,,,,METAR,39.0
K8A0 231055Z AUTO 14004KT 10SM CLR 11/05 A3018 RMK AO2,K8A0,2022-10-23T10:55:00Z,34.23,-86.25,11.0,5.0,140,4,,10.0,30.180119,,,TRUE,TRUE,,,,,,,CLR,,,,,,,,VFR,,,,,,,,,,,,METAR,313.0
K74V 231055Z AUTO 11008KT 10SM 02/00 A2954 RMK AO2,K74V,2022-10-23T10:55:00Z,40.28,-110.05,2.0,0.0,110,8,,10.0,29.53937,,,TRUE,TRUE,,,,,,,,,,,,,,,,,,,,,,,,,,,METAR,1567.0
K6P9 231055Z AUTO 19010G14KT 10SM CLR 19/16 A2977 RMK AO2 T01880155,K6P9,2022-10-23T10:55:00Z,32.43,-98.6,18.8,15.5,190,10,14,10.0,29.769686,,,TRUE,TRUE,,,,,,,CLR,,,,,,,,VFR,,,,,,,,,,,,SPECI,451.0
K6I2 231055Z AUTO 15011KT 10SM CLR 14/07 A3016 RMK AO2,K6I2,2022-10-23T10:55:00Z,37.63,-85.25,14.0,7.0,150,11,,10.0,30.159449,,,TRUE,TRUE,,,,,,,CLR,,,,,,,,VFR,,,,,,,,,,,,METAR,258.0
K66R 231055Z AUTO 00000KT 10SM CLR 17/16 A2990 RMK AO2 T01700164,K66R,2022-10-23T10:55:00Z,29.65,-96.52,17.0,16.4,0,0,,10.0,29.899607,,,TRUE,TRUE,,,,,,,CLR,,,,,,,,VFR,,,,,,,,,,,,METAR,70.0
K5R8 231055Z AUTO 00000KT 10SM SCT050 17/16 A2999 RMK AO2 T01660157,K5R8,2022-10-23T10:55:00Z,30.43,-93.47,16.6,15.7,0,0,,10.0,29.991142,,,TRUE,TRUE,,,,,,,SCT,5000,,,,,,,VFR,,,,,,,,,,,,METAR,26.0
K5C1 231055Z AUTO 19008KT 10SM OVC007 18/18 A2987 RMK AO1,K5C1,2022-10-23T10:55:00Z,29.72,-98.7,18.0,18.0,190,8,,10.0,29.870079,,,TRUE,TRUE,,,,,,,OVC,700,,,,,,,IFR,,,,,,,,,,,,METAR,422.0
K4S2 231055Z AUTO 00000KT 10SM CLR 05/03 A2994 RMK AO2,K4S2,2022-10-23T10:55:00Z,45.68,-121.55,5.0,3.0,0,0,,10.0,29.940945,,,TRUE,TRUE,,,,,,,CLR,,,,,,,,VFR,,,,,,,,,,,,METAR,183.0
K4O4 231055Z AUTO 14010KT 9SM BKN021 OVC038 20/17 A2989 RMK AO2,K4O4,2022-10-23T10:55:00Z,33.92,-94.87,20.0,17.0,140,10,,9.0,29.890747,,,TRUE,TRUE,,,,,,,BKN,2100,OVC,3800,,,,,MVFR,,,,,,,,,,,,METAR,148.0
K4MR 231055Z AUTO 20014KT 10SM FEW130 18/10 A2965 RMK AO2 SLP962 T01760100 $,K4MR,2022-10-23T10:55:00Z,34.3,-103.8,17.6,10.0,200,14,,10.0,29.648623,996.2,,TRUE,TRUE,TRUE,,,,,,FEW,13000,,,,,,,VFR,,,,,,,,,,,,METAR,1339.0
K4BM 231055Z AUTO 14012G25KT 080V170 10SM BKN090 01/M06 A2966 RMK AO2,K4BM,2022-10-23T10:55:00Z,39.05,-105.52,1.0,-6.0,140,12,25,10.0,29.660433,,,TRUE,TRUE,,,,,,,BKN,9000,,,,,,,VFR,,,,,,,,,,,,METAR,3432.0
K49A 231055Z AUTO 00000KT 10SM CLR 05/04 A3024 RMK AO2 T00480036,K49A,2022-10-23T10:55:00Z,34.63,-84.53,4.8,3.6,0,0,,10.0,30.239174,,,TRUE,TRUE,,,,,,,CLR,,,,,,,,VFR,,,,,,,,,,,,METAR,449.0
K48A 231055Z AUTO 00000KT 10SM CLR 04/03 A3019 RMK AO2 T00400032,K48A,2022-10-23T10:55:00Z,32.4,-83.27,4.0,3.2,0,0,,10.0,30.188976,,,TRUE,TRUE,,,,,,,CLR,,,,,,,,VFR,,,,,,,,,,,,METAR,115.0
K3K3 231055Z AUTO 00000KT 10SM CLR 10/05 A2946 RMK AO2,K3K3,2022-10-23T10:55:00Z,38.0,-101.75,10.0,5.0,0,0,,10.0,29.459646,,,TRUE,TRUE,,,,,,,CLR,,,,,,,,VFR,,,,,,,,,,,,METAR,1010.0
K33V 231055Z AUTO 18021G31KT 4SM SCT016 BKN020 OVC050 04/01 A2950 RMK AO1,K33V,2022-10-23T10:55:00Z,40.75,-106.28,4.0,1.0,180,21,31,4.0,29.500984,,,TRUE,TRUE,,,,,,,SCT,1600,BKN,2000,OVC,5000,,,MVFR,,,,,,,,,,,,METAR,2486.0
K2J5 231055Z AUTO 35003KT 10SM CLR 07/05 A3019 RMK AO2 T00680045,K2J5,2022-10-23T10:55:00Z,32.9,-81.97,6.8,4.5,350,3,,10.0,30.188976,,,TRUE,TRUE,,,,,,,CLR,,,,,,,,VFR,,,,,,,,,,,,SPECI,72.0
K2G9 231055Z AUTO 00000KT 10SM CLR 01/00 A3027 RMK AO2,K2G9,2022-10-23T10:55:00Z,40.03,-79.02,1.0,0.0,0,0,,10.0,30.268702,,,TRUE,TRUE,,,,,,,CLR,,,,,,,,VFR,,,,,,,,,,,,METAR,677.0
K2DP 231055Z AUTO 36011KT 10SM OVC013 17/17 A3004 RMK AO2 OVC V BKN SLPNO T01720172 $,K2DP,2022-10-23T10:55:00Z,35.68,-75.9,17.2,17.2,360,11,,10.0,30.041338,,,TRUE,TRUE,TRUE,,,,,,OVC,1300,,,,,,,MVFR,,,,,,,,,,,,SPECI,1.0
K20V 231055Z AUTO 26015G23KT 7SM RA BKN022 BKN028 OVC043 04/02 A2954 RMK AO2,K20V,2022-10-23T10:55:00Z,40.05,-106.37,4.0,2.0,260,15,23,7.0,29.53937,,,TRUE,TRUE,,,,,,RA,BKN,2200,BKN,2800,OVC,4300,,,MVFR,,,,,,,,,,,,SPECI,2259.0
K1YT 231055Z AUTO 08007KT 10SM CLR 03/M03 A2984 RMK AO2 SLP113 T00331031 $,K1YT,2022-10-23T10:55:00Z,46.67,-120.45,3.3,-3.1,80,7,,10.0,29.840551,1011.3,,TRUE,TRUE,TRUE,,,,,,CLR,,,,,,,,VFR,,,,,,,,,,,,METAR,423.0
K1R8 231055Z AUTO VRB03KT 10SM FEW028 BKN034 BKN044 11/09 A3013 RMK AO2,K1R8,2022-10-23T10:55:00Z,30.87,-87.82,11.0,9.0,0,3,,10.0,30.129921,,,TRUE,TRUE,,,,,,,FEW,2800,BKN,3400,BKN,4400,,,VFR,,,,,,,,,,,,METAR,76.0
K1OM 231055Z AUTO 29016KT 5SM -SN SCT009 OVC026 01/00 A2948 RMK AO2 SLP003 P0001 T00060000 $,K1OM,2022-10-23T10:55:00Z,47.33,-108.93,0.6,0.0,290,16,,5.0,29.480314,1000.3,,TRUE,TRUE,TRUE,,,,,-SN,SCT,900,OVC,2600,,,,,MVFR,,,,,,0.01,,,,,,METAR,1088.0
K1NM 231055Z AUTO 27015KT 9SM -SN OVC033 01/01 A2946 RMK AO2 SNE0956RAB0956E0958UPB02E04PLB04E07SNB07E26PLB26E32RAB32E35PLB35E43SNB43 SLP995 P0000 T00120008 $,K1NM,2022-10-23T10:55:00Z,47.07,-109.03,1.2,0.8,270,15,,9.0,29.459646,999.5,,TRUE,TRUE,TRUE,,,,,-SN,OVC,3300,,,,,,,VFR,,,,,,0.005,,,,,,METAR,1169.0
K1MW 231055Z AUTO 27006KT 10SM M 06/M08 A2497 RMK AO2 SLP382 T00551077 FZRANO $,K1MW,2022-10-23T10:55:00Z,40.7,-103.48,5.5,-7.7,270,6,,10.0,24.971457,1038.2,,TRUE,TRUE,TRUE,,,TRUE,,,,,,,,,,,,,,,,,,,,,,,METAR,1338.0
K1MM 231055Z AUTO 00000KT 10SM FEW012 OVC022 00/M02 A2953 RMK AO2 SNE27 SLP021 P0001 T00001018 $,K1MM,2022-10-23T10:55:00Z,47.02,-109.63,0.0,-1.8,0,0,,10.0,29.530512,1002.1,,TRUE,TRUE,TRUE,,,,,,FEW,1200,OVC,2200,,,,,MVFR,,,,,,0.01,,,,,,METAR,1256.0
K1LM 231055Z AUTO 01016KT 8SM -SN OVC028 M00/M01 A2950 RMK AO2 SNB00E11SNB32 SLP005 P0000 T10041010 $,K1LM,2022-10-23T10:55:00Z,46.7,-109.73,-0.4,-1.0,10,16,,8.0,29.500984,1000.5,,TRUE,TRUE,TRUE,,,,,-SN,OVC,2800,,,,,,,MVFR,,,,,,0.005,,,,,,METAR,1417.0
K1KM 231055Z AUTO 35006KT 10SM BKN023 OVC029 01/M00 A2950 RMK AO2 SLP005 T00121001 $,K1KM,2022-10-23T10:55:00Z,46.45,-109.8,1.2,-0.1,350,6,,10.0,29.500984,1000.5,,TRUE,TRUE,TRUE,,,,,,BKN,2300,OVC,2900,,,,,MVFR,,,,,,,,,,,,METAR,1332.0
K1JM 231055Z AUTO 33018KT 2SM -SN OVC004 M01/M01 A2959 RMK AO2 VIS 2V2 1/2 SLP046 P0001 T10071010 $,K1JM,2022-10-23T10:55:00Z,47.75,-111.55,-0.7,-1.0,330,18,,2.0,29.589567,1004.6,,TRUE,TRUE,TRUE,,,,,-SN,OVC,400,,,,,,,LIFR,,,,,,0.01,,,,,,METAR,1154.0
K1IM 231055Z AUTO 31009KT 2 1/4SM -SN OVC004 00/00 A2960 RMK AO2 SLP050 P0005 T00010001 $,K1IM,2022-10-23T10:55:00Z,47.32,-111.47,0.1,0.1,310,9,,2.25,29.601377,1005.0,,TRUE,TRUE,TRUE,,,,,-SN,OVC,400,,,,,,,LIFR,,,,,,0.05,,,,,,METAR,1110.0
K1HM 231055Z AUTO 25016G24KT 1 7/8SM -SN BKN007 OVC012 00/M01 A2960 RMK AO2 SLP049 P0002 T00001013 $,K1HM,2022-10-23T10:55:00Z,47.7,-111.95,0.0,-1.3,250,16,24,1.88,29.601377,1004.9,,TRUE,TRUE,TRUE,,,,,-SN,BKN,700,OVC,1200,,,,,IFR,,,,,,0.02,,,,,,METAR,1181.0
K1FM 231055Z AUTO 34022G28KT 2 1/4SM -SN BKN008 BKN013 OVC018 M01/M01 A2962 RMK AO2 PK WND 35030/24 SLP054 P0000 T10081009 $,K1FM,2022-10-23T10:55:00Z,47.6,-112.32,-0.8,-0.9,340,22,28,2.25,29.619095,1005.4,,TRUE,TRUE,TRUE,,,,,-SN,BKN,800,BKN,1300,OVC,1800,,,IFR,,,,,,0.005,,,,,,METAR,1344.0
K1DM 231055Z AUTO 30013KT 9SM -SN OVC038 00/M00 A2954 RMK AO2 SLP027 P0000 T00031004 $,K1DM,2022-10-23T10:55:00Z,47.37,-109.8,0.3,-0.4,300,13,,9.0,29.53937,1002.7,,TRUE,TRUE,TRUE,,,,,-SN,OVC,3800,,,,,,,VFR,,,,,,0.005,,,,,,METAR,1093.0
K1CM 231055Z AUTO 30023KT 10SM OVC039 00/M02 A2952 RMK AO2 PK WND 30033/38 SNE36RAB36E41 SLP020 P0000 T00001021 $,K1CM,2022-10-23T10:55:00Z,47.1,-110.17,0.0,-2.1,300,23,,10.0,29.518702,1002.0,,TRUE,TRUE,TRUE,,,,,,OVC,3900,,,,,,,VFR,,,,,,0.005,,,,,,METAR,1338.0
K1BM 231055Z AUTO 26021G27KT 4SM -SN OVC043 M00/M01 A2954 RMK AO2 PK WND 26027/51 SLP026 P0000 T10011007 $,K1BM,2022-10-23T10:55:00Z,47.28,-110.37,-0.1,-0.7,260,21,27,4.0,29.53937,1002.6,,TRUE,TRUE,TRUE,,,,,-SN,OVC,4300,,,,,,,MVFR,,,,,,0.005,,,,,,METAR,1234.0
K1AM 231055Z AUTO 27013KT 2SM -SN BKN007 OVC017 M00/M00 A2959 RMK AO2 VIS 2V2 1/2 SLP044 P0001 T10011002 $,K1AM,2022-10-23T10:55:00Z,47.28,-110.8,-0.1,-0.2,270,13,,2.0,29.589567,1004.4,,TRUE,TRUE,TRUE,,,,,-SN,BKN,700,OVC,1700,,,,,IFR,,,,,,0.01,,,,,,METAR,1228.0
K1A6 231055Z AUTO 00000KT M1/4SM FG OVC002 04/04 A3025 RMK AO2 T00400040,K1A6,2022-10-23T10:55:00Z,36.62,-83.73,4.0,4.0,0,0,,0.25,30.250984,,,TRUE,TRUE,,,,,,FG,OVC,200,,,,,,,LIFR,,,,,,,,,,,,METAR,348.0
K19S 231055Z AUTO 21007KT 10SM CLR 16/09 A2949 RMK AO2 T01640095,K19S,2022-10-23T10:55:00Z,37.48,-100.83,16.4,9.5,210,7,,10.0,29.489174,,,TRUE,TRUE,,,,,,,CLR,,,,,,,,VFR,,,,,,,,,,,,SPECI,886.0
K17J 231055Z AUTO 02004KT 10SM CLR 06/04 A3016 RMK AO2 T00560039,K17J,2022-10-23T10:55:00Z,31.0,-84.87,5.6,3.9,20,4,,10.0,30.159449,,,TRUE,TRUE,,,,,,,CLR,,,,,,,,VFR,,,,,,,,,,,,METAR,42.0
K11R 231055Z AUTO 11003KT 10SM CLR 18/17 A2990 RMK AO2 T01820172,K11R,2022-10-23T10:55:00Z,30.22,-96.37,18.2,17.2,110,3,,10.0,29.899607,,,TRUE,TRUE,,,,,,,CLR,,,,,,,,VFR,,,,,,,,,,,,SPECI,87.0
K0R4 231055Z AUTO 13008KT 10SM CLR 18/14 A3004 RMK AO2 T01750142,K0R4,2022-10-23T10:55:00Z,31.57,-91.5,17.5,14.2,130,8,,10.0,30.041338,,,TRUE,TRUE,,,,,,,CLR,,,,,,,,VFR,,,,,,,,,,,,METAR,16.0
K06C 231055Z AUTO 17008G17KT 10SM CLR 17/13 A2991 RMK AO2 T01650127,K06C,2022-10-23T10:55:00Z,41.98,-88.1,16.5,12.7,170,8,17,10.0,29.911417,,,TRUE,TRUE,,,,,,,CLR,,,,,,,,VFR,,,,,,,,,,,,METAR,243.0
K04V 231055Z AUTO 33012G15KT 10SM 08/M03 A2959 RMK AO2,K04V,2022-10-23T10:55:00Z,38.1,-106.17,8.0,-3.0,330,12,15,10.0,29.589567,,,TRUE,TRUE,,,,,,,,,,,,,,,,,,,,,,,,,,,METAR,2389.0
FJDG 231055Z 14013G18KT 9000 BR FEW020 SCT042 BKN090 30/24 A2987 RMK SLP112 T02980244,FJDG,2022-10-23T10:55:00Z,-7.32,72.42,29.8,24.4,140,13,18,5.59,29.870079,1011.2,,,,,,,,,BR,FEW,2000,SCT,4200,BKN,9000,,,VFR,,,,,,,,,,,,SPECI,3.0
ETOU 231055Z 13005KT 9999 BKN110 OVC130 15/12 A2993 RMK AO2A SLP138 T01451272 $,ETOU,2022-10-23T10:55:00Z,50.03,8.32,14.5,12.0,130,5,,6.21,29.929134,1013.8,,,TRUE,TRUE,,,,,,BKN,11000,OVC,13000,,,,,VFR,,,,,,,,,,,,METAR,141.0
ETIK 231055Z AUTO 15004KT 9999 CLR 18/07 A2997 RMK AO2 SLP149 T01770071 $,ETIK,2022-10-23T10:55:00Z,49.47,10.38,17.7,7.1,150,4,,6.21,29.970472,1014.9,,TRUE,TRUE,TRUE,,,,,,CLR,,,,,,,,VFR,,,,,,,,,,,,METAR,326.0
ETIC 231055Z AUTO 00000KT 9999 CLR 15/12 A3002 RMK AO2 SLP169 T01530122 $,ETIC,2022-10-23T10:55:00Z,49.7,11.93,15.3,12.2,0,0,,6.21,30.02067,1016.9,,TRUE,TRUE,TRUE,,,,,,CLR,,,,,,,,VFR,,,,,,,,,,,,METAR,414.0
ETEB 231055Z AUTO 14008KT 9999 CLR 17/11 A2998 RMK AO2 SLP161 T01650106 $,ETEB,2022-10-23T10:55:00Z,49.32,10.63,16.5,10.6,140,8,,6.21,29.97933,1016.1,,TRUE,TRUE,TRUE,,,,,,CLR,,,,,,,,VFR,,,,,,,,,,,,METAR,466.0
ETAR 231055Z AUTO 00000KT 9999 CLR 18/16 A2990 RMK AO2 SLP127 T01750160 $,ETAR,2022-10-23T10:55:00Z,49.43,7.58,17.5,16.0,0,0,,6.21,29.899607,1012.7,,TRUE,TRUE,TRUE,,,,,,CLR,,,,,,,,VFR,,,,,,,,,,,,METAR,231.0
ETAD 231055Z AUTO 09004KT 9999 CLR 17/12 A2985 RMK AO2 SLP095 T01690124 $,ETAD,2022-10-23T10:55:00Z,49.98,6.7,16.9,12.4,90,4,,6.21,29.84941,1009.5,,TRUE,TRUE,TRUE,,,,,,CLR,,,,,,,,VFR,,,,,,,,,,,,METAR,365.0
EHWO 231055Z AUTO 13005KT 080V170 9999 FEW094 BKN100 OVC160 17/13 Q1006 BLU,EHWO,2022-10-23T10:55:00Z,51.45,4.33,17.0,13.0,130,5,,6.21,29.704725,,,TRUE,,,,,,,,FEW,9400,BKN,10000,OVC,16000,,,VFR,,,,,,,,,,,,METAR,15.0
EHVL 231055Z AUTO 12014KT 9999 SCT074 BKN081 OVC140 14/13 Q1008 BLU,EHVL,2022-10-23T10:55:00Z,53.28,5.08,14.0,13.0,120,14,,6.21,29.763779,,,TRUE,,,,,,,,SCT,7400,BKN,8100,OVC,14000,,,VFR,,,,,,,,,,,,METAR,2.0
EHVK 231055Z AUTO 11008KT 070V150 9999 OVC110 16/13 Q1008 BLU,EHVK,2022-10-23T10:55:00Z,51.65,5.7,16.0,13.0,110,8,,6.21,29.763779,,,TRUE,,,,,,,,OVC,11000,,,,,,,VFR,,,,,,,,,,,,METAR,20.0
EHSC 231055Z AUTO 12020KT 9999 ///////// 16/14 Q1006 W16/H6,EHSC,2022-10-23T10:55:00Z,51.93,3.67,16.0,14.0,120,20,,6.21,29.704725,,,TRUE,,,,,,,,,,,,,,,,,,,,,,,,,,,,METAR,19.0
EHSA 231055Z AUTO 11020KT 9999 ///////// 16/14 Q1004 W17/H8,EHSA,2022-10-23T10:55:00Z,52.0,3.28,16.0,14.0,110,20,,6.21,29.64567,,,TRUE,,,,,,,,,,,,,,,,,,,,,,,,,,,,METAR,18.0
EHRD 231055Z AUTO 11008KT 070V140 9999 NSC 15/14 Q1006 NOSIG,EHRD,2022-10-23T10:55:00Z,51.95,4.45,15.0,14.0,110,8,,6.21,29.704725,,,TRUE,,,TRUE,,,,,CLR,,,,,,,,VFR,,,,,,,,,,,,METAR,-4.0
EHQE 231055Z AUTO /////KT 9999 NSC 15/13 Q1007,EHQE,2022-10-23T10:55:00Z,52.92,4.15,15.0,13.0,,,,6.21,29.734253,,,TRUE,,,,,,,,CLR,,,,,,,,VFR,,,,,,,,,,,,METAR,41.0
EHPG 231055Z AUTO 09016KT 9999 NSC 16/14 Q1005,EHPG,2022-10-23T10:55:00Z,52.37,3.35,16.0,14.0,90,16,,6.21,29.675198,,,TRUE,,,,,,,,CLR,,,,,,,,VFR,,,,,,,,,,,,METAR,24.0
EHMG 231055Z AUTO 14020KT 9999 NSC 15/12 Q1009,EHMG,2022-10-23T10:55:00Z,53.62,4.97,15.0,12.0,140,20,,6.21,29.793306,,,TRUE,,,,,,,,CLR,,,,,,,,VFR,,,,,,,,,,,,METAR,30.0
EHMA 231055Z AUTO 11016KT 9999 FEW047 13/12 Q1009,EHMA,2022-10-23T10:55:00Z,53.5,5.95,13.0,12.0,110,16,,6.21,29.793306,,,TRUE,,,,,,,,FEW,4700,,,,,,,VFR,,,,,,,,,,,,METAR,27.0
EHLW 231055Z AUTO 13010KT 090V170 9999 BKN078 OVC140 15/12 Q1009 BLU,EHLW,2022-10-23T10:55:00Z,53.22,5.75,15.0,12.0,130,10,,6.21,29.793306,,,TRUE,,,,,,,,BKN,7800,OVC,14000,,,,,VFR,,,,,,,,,,,,METAR,1.0
EHLE 231055Z AUTO 12008KT 9999 NSC 15/14 Q1008 NOSIG,EHLE,2022-10-23T10:55:00Z,52.45,5.52,15.0,14.0,120,8,,6.21,29.763779,,,TRUE,,,TRUE,,,,,CLR,,,,,,,,VFR,,,,,,,,,,,,METAR,-3.0
EHKV 231055Z AUTO 14022KT 9999 NSC 16/13 Q1006,EHKV,2022-10-23T10:55:00Z,53.27,3.63,16.0,13.0,140,22,,6.21,29.704725,,,TRUE,,,,,,,,CLR,,,,,,,,VFR,,,,,,,,,,,,METAR,28.0
EHKD 231055Z AUTO 11009KT 080V140 9999 FEW078 OVC120 15/13 Q1007 BLU,EHKD,2022-10-23T10:55:00Z,52.92,4.77,15.0,13.0,110,9,,6.21,29.734253,,,TRUE,,,,,,,,FEW,7800,OVC,12000,,,,,VFR,,,,,,,,,,,,METAR,1.0
EHJR 231055Z AUTO ///24KT //// // ///////// 16/14 Q1006 RE// W16/H11,EHJR,2022-10-23T10:55:00Z,53.22,3.22,16.0,14.0,,,,,29.704725,,,TRUE,,,,,,,,,,,,,,,,,,,,,,,,,,,,METAR,31.0
EHJA 231055Z AUTO 13021KT 9999 NSC 15/14 Q1006,EHJA,2022-10-23T10:55:00Z,53.82,2.95,15.0,14.0,130,21,,6.21,29.704725,,,TRUE,,,,,,,,CLR,,,,,,,,VFR,,,,,,,,,,,,METAR,34.0
EHHW 231055Z AUTO 12012KT 070V180 9999 NSC 15/12 Q1009,EHHW,2022-10-23T10:55:00Z,54.03,6.03,15.0,12.0,120,12,,6.21,29.793306,,,TRUE,,,,,,,,CLR,,,,,,,,VFR,,,,,,,,,,,,METAR,10.0
EHGR 231055Z AUTO 13008KT 9999 OVC100 17/13 Q1007 BLU,EHGR,2022-10-23T10:55:00Z,51.55,4.93,17.0,13.0,130,8,,6.21,29.734253,,,TRUE,,,,,,,,OVC,10000,,,,,,,VFR,,,,,,,,,,,,METAR,12.0
EHGG 231055Z AUTO 11006KT 070V140 9999 NSC 15/13 Q1010 NOSIG,EHGG,2022-10-23T10:55:00Z,53.12,6.57,15.0,13.0,110,6,,6.21,29.822834,,,TRUE,,,TRUE,,,,,CLR,,,,,,,,VFR,,,,,,,,,,,,METAR,2.0
EHFS 231055Z AUTO 13016KT 9999 NSC 16/14 Q1005,EHFS,2022-10-23T10:55:00Z,51.45,3.6,16.0,14.0,130,16,,6.21,29.675198,,,TRUE,,,,,,,,CLR,,,,,,,,VFR,,,,,,,,,,,,METAR,1.0
EHFD 231055Z AUTO 12020KT 9999 NSC 15/14 Q1008,EHFD,2022-10-23T10:55:00Z,54.85,4.7,15.0,14.0,120,20,,6.21,29.763779,,,TRUE,,,,,,,,CLR,,,,,,,,VFR,,,,,,,,,,,,METAR,24.0
EHEH 231055Z AUTO 11006KT 090V190 9999 SCT110 OVC180 17/13 Q1008 BLU NOSIG,EHEH,2022-10-23T10:55:00Z,51.45,5.38,17.0,13.0,110,6,,6.21,29.763779,,,TRUE,,,TRUE,,,,,SCT,11000,OVC,18000,,,,,VFR,,,,,,,,,,,,METAR,20.0
EHDV 231055Z AUTO 15021KT 9999 NSC 15/14 Q1006,EHDV,2022-10-23T10:55:00Z,54.32,2.93,15.0,14.0,150,21,,6.21,29.704725,,,TRUE,,,,,,,,CLR,,,,,,,,VFR,,,,,,,,,,,,METAR,36.0
EHDL 231055Z AUTO 12009KT 050V210 9999 OVC120 16/13 Q1008 BLU,EHDL,2022-10-23T10:55:00Z,52.07,5.88,16.0,13.0,120,9,,6.21,29.763779,,,TRUE,,,,,,,,OVC,12000,,,,,,,VFR,,,,,,,,,,,,METAR,49.0
EHBK 231055Z AUTO 16007KT 140V200 9999 NSC 18/13 Q1008 NOSIG,EHBK,2022-10-23T10:55:00Z,50.92,5.77,18.0,13.0,160,7,,6.21,29.763779,,,TRUE,,,TRUE,,,,,CLR,,,,,,,,VFR,,,,,,,,,,,,METAR,112.0
EHAM 231055Z 12011KT CAVOK 15/13 Q1007 NOSIG,EHAM,2022-10-23T10:55:00Z,52.32,4.78,15.0,13.0,120,11,,6.21,29.734253,,,,,,TRUE,,,,,CAVOK,,,,,,,,VFR,,,,,,,,,,,,METAR,-2.0
EHAK 231055Z AUTO 15020KT 110V170 9999 NSC 14/14 Q1008,EHAK,2022-10-23T10:55:00Z,55.38,3.82,14.0,14.0,150,20,,6.21,29.763779,,,TRUE,,,,,,,,CLR,,,,,,,,VFR,,,,,,,,,,,,METAR,33.0
EGVA 231055Z AUTO 15009KT 9999 SCT012 17/17 A2951 RMK AO2 SLPNO T01710169 $,EGVA,2022-10-23T10:55:00Z,51.67,-1.78,17.1,16.9,150,9,,6.21,29.509842,,,TRUE,TRUE,TRUE,,,,,,SCT,1200,,,,,,,VFR,,,,,,,,,,,,METAR,84.0
EGUN 231055Z 12012KT 6000 -RA BR BKN025 OVC031 15/15 A2960 RMK AO2A RAB46 SLP027 P0000 T01530153 $,EGUN,2022-10-23T10:55:00Z,52.37,0.48,15.3,15.3,120,12,,3.73,29.601377,1002.7,,,TRUE,TRUE,,,,,-RA BR,BKN,2500,OVC,3100,,,,,MVFR,,,,,,0.005,,,,,,METAR,10.0
EBLB 231055Z AUTO 18006KT 9999 FEW090/// BKN160/// 15/11 Q1011 BLU,EBLB,2022-10-23T10:55:00Z,50.47,6.17,15.0,11.0,180,6,,6.21,29.852362,,,TRUE,,,,,,,,FEW,9000,BKN,16000,,,,,VFR,,,,,,,,,,,,METAR,563.0
EBFS 231055Z AUTO 16011KT 9999 FEW150/// BKN210/// 18/13 Q1008 BLU,EBFS,2022-10-23T10:55:00Z,50.23,4.65,18.0,13.0,160,11,,6.21,29.763779,,,TRUE,,,,,,,,FEW,15000,BKN,21000,,,,,VFR,,,,,,,,,,,,METAR,276.0
EBFN 231055Z AUTO 16015KT 9999 FEW099/// SCT140/// 17/15 Q1004 BLU,EBFN,2022-10-23T10:55:00Z,51.08,2.65,17.0,15.0,160,15,,6.21,29.64567,,,TRUE,,,,,,,,FEW,9900,SCT,14000,,,,,VFR,,,,,,,,,,,,METAR,9.0
EBDT 231055Z AUTO 16008KT 9999 FEW097/// BKN100/// BKN210/// 18/13 Q1007 BLU,EBDT,2022-10-23T10:55:00Z,51.02,5.07,18.0,13.0,160,8,,6.21,29.734253,,,TRUE,,,,,,,,FEW,9700,BKN,10000,BKN,21000,,,VFR,,,,,,,,,,,,METAR,25.0
EBCV 231055Z AUTO 16008KT 9999 BKN200/// 18/14 Q1006 BLU,EBCV,2022-10-23T10:55:00Z,50.57,3.82,18.0,14.0,160,8,,6.21,29.704725,,,TRUE,,,,,,,,BKN,20000,,,,,,,VFR,,,,,,,,,,,,METAR,56.0
EBBL 231055Z AUTO 11004KT 9999 BKN070/// 16/14 Q1008 BLU,EBBL,2022-10-23T10:55:00Z,51.17,5.47,16.0,14.0,110,4,,6.21,29.763779,,,TRUE,,,,,,,,BKN,7000,,,,,,,VFR,,,,,,,,,,,,METAR,50.0
EBBE 231055Z AUTO 17010KT 9999 BKN200/// 18/13 Q1007 BLU,EBBE,2022-10-23T10:55:00Z,50.75,4.77,18.0,13.0,170,10,,6.21,29.734253,,,TRUE,,,,,,,,BKN,20000,,,,,,,VFR,,,,,,,,,,,,METAR,127.0
PHOG 231054Z AUTO 08007G16KT 10SM CLR 26/18 A3000 RMK AO2 SLP162 T02560178 TSNO,PHOG,2022-10-23T10:54:00Z,20.9,-156.43,25.6,17.8,80,7,16,10.0,30.0,1016.2,,TRUE,TRUE,,,TRUE,,,,CLR,,,,,,,,VFR,,,,,,,,,,,,METAR,14.0
PHMK 231054Z AUTO 04008G16KT 10SM CLR 25/21 A3003 RMK AO2 SLP167 T02500206 TSNO,PHMK,2022-10-23T10:54:00Z,21.15,-157.1,25.0,20.6,40,8,16,10.0,30.029528,1016.7,,TRUE,TRUE,,,TRUE,,,,CLR,,,,,,,,VFR,,,,,,,,,,,,SPECI,135.0
PGUM 231054Z 00000KT 10SM FEW043 FEW050 26/25 A2985 RMK AO2 SLP100 T02610250,PGUM,2022-10-23T10:54:00Z,13.48,144.8,26.1,25.0,0,0,,10.0,29.84941,1010.0,,,TRUE,,,,,,,FEW,4300,FEW,5000,,,,,VFR,,,,,,,,,,,,SPECI,74.0
PGSN 231054Z 10008KT 10SM FEW024 FEW043 28/24 A2985 RMK AO2 RAB26E37 SLP130 P0000 T02780244,PGSN,2022-10-23T10:54:00Z,15.12,145.72,27.8,24.4,100,8,,10.0,29.84941,1013.0,,,TRUE,,,,,,,FEW,2400,FEW,4300,,,,,VFR,,,,,,0.005,,,,,,SPECI,65.0
PAKN 231054Z 33012KT 10SM CLR M01/M02 A2995 RMK AO2 SLP144 T10061017,PAKN,2022-10-23T10:54:00Z,58.68,-156.65,-0.6,-1.7,330,12,,10.0,29.949802,1014.4,,,TRUE,,,,,,,CLR,,,,,,,,VFR,,,,,,,,,,,,METAR,20.0
PAHN 231054Z AUTO 09004KT 10SM OVC026 05/03 A2978 RMK AO2 SLP086 T00500028 TSNO $,PAHN,2022-10-23T10:54:00Z,59.25,-135.52,5.0,2.8,90,4,,10.0,29.778543,1008.6,,TRUE,TRUE,TRUE,,TRUE,,,,OVC,2600,,,,,,,MVFR,,,,,,,,,,,,METAR,15.0
KWLD 231054Z AUTO 18016G28KT 10SM CLR 23/12 A2958 RMK AO2 PK WND 18028/1051 SLP004 T02280122,KWLD,2022-10-23T10:54:00Z,37.17,-97.03,22.8,12.2,180,16,28,10.0,29.58071,1000.4,,TRUE,TRUE,,,,,,,CLR,,,,,,,,VFR,,,,,,,,,,,,METAR,351.0
KWAL 231054Z AUTO 36007KT 5SM BR OVC004 14/13 A3015 RMK AO2 SLP205 T01440133,KWAL,2022-10-23T10:54:00Z,37.93,-75.47,14.4,13.3,360,7,,5.0,30.15059,1020.5,,TRUE,TRUE,,,,,,BR,OVC,400,,,,,,,LIFR,,,,,,,,,,,,METAR,10.0
KVTA 231054Z AUTO 00000KT 8SM CLR 07/06 A3019 RMK AO2 SLPNO T00720056 $,KVTA,2022-10-23T10:54:00Z,40.02,-82.47,7.2,5.6,0,0,,8.0,30.188976,,,TRUE,TRUE,TRUE,,,,,,CLR,,,,,,,,VFR,,,,,,,,,,,,METAR,268.0
KVSF 231054Z AUTO 32003KT 6SM BR FEW003 02/01 A3035 RMK AO2 SLP284 T00170006,KVSF,2022-10-23T10:54:00Z,43.35,-72.52,1.7,0.6,320,3,,6.0,30.351377,1028.4,,TRUE,TRUE,,,,,,BR,FEW,300,,,,,,,VFR,,,,,,,,,,,,METAR,176.0
KVAY 231054Z AUTO 03005KT 10SM OVC037 13/08 A3025 RMK AO2 SLP242 T01280083 $,KVAY,2022-10-23T10:54:00Z,39.93,-74.83,12.8,8.3,30,5,,10.0,30.250984,1024.2,,TRUE,TRUE,TRUE,,,,,,OVC,3700,,,,,,,VFR,,,,,,,,,,,,METAR,15.0
KUZA 231054Z AUTO 00000KT 10SM CLR 06/04 A3022 RMK AO2 SLP233 T00560044,KUZA,2022-10-23T10:54:00Z,34.98,-81.05,5.6,4.4,0,0,,10.0,30.221457,1023.3,,TRUE,TRUE,,,,,,,CLR,,,,,,,,VFR,,,,,,,,,,,,METAR,198.0
KUIN 231054Z AUTO 15010KT 10SM CLR 18/12 A2977 RMK AO2 SLP075 T01780117,KUIN,2022-10-23T10:54:00Z,39.95,-91.2,17.8,11.7,150,10,,10.0,29.769686,1007.5,,TRUE,TRUE,,,,,,,CLR,,,,,,,,VFR,,,,,,,,,,,,METAR,233.0
KTQE 231054Z AUTO 13011KT 10SM CLR 15/11 A2944 RMK AO2 SLP959 T01500111,KTQE,2022-10-23T10:54:00Z,41.77,-96.18,15.0,11.1,130,11,,10.0,29.438976,995.9,,TRUE,TRUE,,,,,,,CLR,,,,,,,,VFR,,,,,,,,,,,,METAR,312.0
KTAD 231054Z AUTO 23019G29KT 10SM FEW110 16/01 A2957 RMK AO2 PK WND 22029/1048 SLP933 T01560006,KTAD,2022-10-23T10:54:00Z,37.27,-104.33,15.6,0.6,230,19,29,10.0,29.568897,993.3,,TRUE,TRUE,,,,,,,FEW,11000,,,,,,,VFR,,,,,,,,,,,,METAR,1751.0
KSYR 231054Z 07003KT 10SM FEW250 04/01 A3030 RMK AO2 SLP258 T00390006 $,KSYR,2022-10-23T10:54:00Z,43.12,-76.1,3.9,0.6,70,3,,10.0,30.301182,1025.8,,,TRUE,TRUE,,,,,,FEW,25000,,,,,,,VFR,,,,,,,,,,,,METAR,125.0
KSUS 231054Z 10SM SCT100 19/12 A2982 RMK AO2 SLP091 T01890117,KSUS,2022-10-23T10:54:00Z,38.65,-90.65,18.9,11.7,,,,10.0,29.819881,1009.1,,,TRUE,,,,,,,SCT,10000,,,,,,,VFR,,,,,,,,,,,,METAR,140.0
KSET 231054Z AUTO 11007KT 10SM SCT095 BKN120 16/11 A2984 RMK AO2 SLP099 T01560111,KSET,2022-10-23T10:54:00Z,38.93,-90.43,15.6,11.1,110,7,,10.0,29.840551,1009.9,,TRUE,TRUE,,,,,,,SCT,9500,BKN,12000,,,,,VFR,,,,,,,,,,,,METAR,133.0
KSBY 231054Z 01007KT 9SM OVC005 14/13 A3016 RMK AO2 SLP215 T01390128,KSBY,2022-10-23T10:54:00Z,38.33,-75.5,13.9,12.8,10,7,,9.0,30.159449,1021.5,,,TRUE,,,,,,,OVC,500,,,,,,,IFR,,,,,,,,,,,,METAR,14.0
KSBN 231054Z 16010KT 10SM SCT060 15/10 A3002 RMK AO2 SLP164 T01500100,KSBN,2022-10-23T10:54:00Z,41.7,-86.32,15.0,10.0,160,10,,10.0,30.02067,1016.4,,,TRUE,,,,,,,SCT,6000,,,,,,,VFR,,,,,,,,,,,,METAR,236.0
KRST 231054Z 14013KT 10SM CLR 14/09 A2969 RMK AO2 SLP051 T01440094,KRST,2022-10-23T10:54:00Z,43.9,-92.5,14.4,9.4,140,13,,10.0,29.68996,1005.1,,,TRUE,,,,,,,CLR,,,,,,,,VFR,,,,,,,,,,,,METAR,398.0
KROC 231054Z 23004KT 10SM FEW250 06/03 A3026 RMK AO2 SLP252 T00610033,KROC,2022-10-23T10:54:00Z,43.12,-77.68,6.1,3.3,230,4,,10.0,30.259842,1025.2,,,TRUE,,,,,,,FEW,25000,,,,,,,VFR,,,,,,,,,,,,METAR,166.0
KROA 231054Z 30003KT 10SM CLR 03/01 A3027 RMK AO2 SLP252 T00280011 $,KROA,2022-10-23T10:54:00Z,37.32,-79.97,2.8,1.1,300,3,,10.0,30.268702,1025.2,,,TRUE,TRUE,,,,,,CLR,,,,,,,,VFR,,,,,,,,,,,,METAR,349.0
KRKS 231054Z AUTO 27013KT 1SM -SN BR FEW005 OVC011 M02/M02 A2951 RMK AO2 SLP967 P0002 T10171017,KRKS,2022-10-23T10:54:00Z,41.6,-109.07,-1.7,-1.7,270,13,,1.0,29.509842,996.7,,TRUE,TRUE,,,,,,-SN BR,FEW,500,OVC,1100,,,,,IFR,,,,,,0.02,,,,,,METAR,2062.0
KRIC 231054Z 36008KT 10SM BKN250 OVC300 10/08 A3020 RMK AO2 SLP230 T01000078 $,KRIC,2022-10-23T10:54:00Z,37.52,-77.32,10.0,7.8,360,8,,10.0,30.200787,1023.0,,,TRUE,TRUE,,,,,,BKN,25000,OVC,30000,,,,,VFR,,,,,,,,,,,,METAR,51.0
KRFD 231054Z 16007KT 10SM SCT250 15/11 A2988 RMK AO2 SLP114 T01500106,KRFD,2022-10-23T10:54:00Z,42.2,-89.1,15.0,10.6,160,7,,10.0,29.878937,1011.4,,,TRUE,,,,,,,SCT,25000,,,,,,,VFR,,,,,,,,,,,,METAR,222.0
KRDG 231054Z 00000KT 8SM SCT029 OVC035 07/06 A3028 RMK AO2 SLP257 T00670056 $,KRDG,2022-10-23T10:54:00Z,40.37,-75.97,6.7,5.6,0,0,,8.0,30.280512,1025.7,,,TRUE,TRUE,,,,,,SCT,2900,OVC,3500,,,,,VFR,,,,,,,,,,,,METAR,101.0
KRBL 231054Z AUTO 34007KT 10SM CLR 12/01 A2992 RMK AO2 SLP130 T01220006,KRBL,2022-10-23T10:54:00Z,40.15,-122.25,12.2,0.6,340,7,,10.0,29.920275,1013.0,,TRUE,TRUE,,,,,,,CLR,,,,,,,,VFR,,,,,,,,,,,,METAR,107.0
KPSF 231054Z AUTO 00000KT 10SM CLR 02/01 A3033 RMK AO2 SLP269 T00220011,KPSF,2022-10-23T10:54:00Z,42.43,-73.28,2.2,1.1,0,0,,10.0,30.33071,1026.9,,TRUE,TRUE,,,,,,,CLR,,,,,,,,VFR,,,,,,,,,,,,METAR,352.0
KPNE 231054Z 03009KT 10SM BKN031 OVC038 13/06 A3026 RMK AO2 SLP248 T01330061,KPNE,2022-10-23T10:54:00Z,40.08,-75.02,13.3,6.1,30,9,,10.0,30.259842,1024.8,,,TRUE,,,,,,,BKN,3100,OVC,3800,,,,,VFR,,,,,,,,,,,,METAR,32.0
KPLN 231054Z AUTO 16003KT 10SM CLR 13/10 A3000 RMK AO2 SLP158 T01330100 $,KPLN,2022-10-23T10:54:00Z,45.57,-84.8,13.3,10.0,160,3,,10.0,30.0,1015.8,,TRUE,TRUE,TRUE,,,,,,CLR,,,,,,,,VFR,,,,,,,,,,,,METAR,215.0
KPIA 231054Z 16009KT 10SM BKN065 17/11 A2985 RMK AO2 SLP105 T01720106,KPIA,2022-10-23T10:54:00Z,40.67,-89.68,17.2,10.6,160,9,,10.0,29.84941,1010.5,,,TRUE,,,,,,,BKN,6500,,,,,,,VFR,,,,,,,,,,,,METAR,200.0
KPHL 231054Z 02007KT 10SM SCT024 OVC034 13/08 A3025 RMK AO2 SLP242 T01330083 $,KPHL,2022-10-23T10:54:00Z,39.87,-75.23,13.3,8.3,20,7,,10.0,30.250984,1024.2,,,TRUE,TRUE,,,,,,SCT,2400,OVC,3400,,,,,VFR,,,,,,,,,,,,METAR,2.0
KPHF 231054Z 36005KT 10SM OVC017 12/12 A3014 RMK AO2 SLP205 T01220117,KPHF,2022-10-23T10:54:00Z,37.13,-76.5,12.2,11.7,360,5,,10.0,30.138779,1020.5,,,TRUE,,,,,,,OVC,1700,,,,,,,MVFR,,,,,,,,,,,,METAR,12.0
KORH 231054Z 00000KT 10SM CLR 12/01 A3032 RMK AO2 SLP270 T01170011,KORH,2022-10-23T10:54:00Z,42.27,-71.87,11.7,1.1,0,0,,10.0,30.318897,1027.0,,,TRUE,,,,,,,CLR,,,,,,,,VFR,,,,,,,,,,,,METAR,306.0
KOLS 231054Z AUTO 21007KT 10SM SCT031 BKN046 16/12 A2986 RMK AO2 SLP055 T01610117,KOLS,2022-10-23T10:54:00Z,31.42,-110.85,16.1,11.7,210,7,,10.0,29.861221,1005.5,,TRUE,TRUE,,,,,,,SCT,3100,BKN,4600,,,,,VFR,,,,,,,,,,,,METAR,1194.0
KOFP 231054Z AUTO 34003KT 10SM CLR 09/07 A3021 RMK AO2 SLP230 T00890072,KOFP,2022-10-23T10:54:00Z,37.7,-77.43,8.9,7.2,340,3,,10.0,30.209646,1023.0,,TRUE,TRUE,,,,,,,CLR,,,,,,,,VFR,,,,,,,,,,,,METAR,63.0
KNAK 231054Z AUTO 34006KT 10SM CLR 12/09 A3023 RMK AO2 SLP238 T01220094,KNAK,2022-10-23T10:54:00Z,38.98,-76.48,12.2,9.4,340,6,,10.0,30.230314,1023.8,,TRUE,TRUE,,,,,,,CLR,,,,,,,,VFR,,,,,,,,,,,,METAR,2.0
KMVL 231054Z AUTO 23003KT 10SM CLR 01/M01 A3036 RMK AO2 SLP289 T00061011,KMVL,2022-10-23T10:54:00Z,44.53,-72.62,0.6,-1.1,230,3,,10.0,30.360237,1028.9,,TRUE,TRUE,,,,,,,CLR,,,,,,,,VFR,,,,,,,,,,,,METAR,226.0
KMTP 231054Z AUTO 06005KT 15/13 A3030 RMK AO1 SLP260 T01500128,KMTP,2022-10-23T10:54:00Z,41.07,-71.92,15.0,12.8,60,5,,,30.301182,1026.0,,TRUE,TRUE,,,,,,,,,,,,,,,,,,,,,,,,,,,METAR,2.0
KMTN 231054Z 00000KT 10SM OVC025 11/08 A3025,KMTN,2022-10-23T10:54:00Z,39.32,-76.42,11.0,8.0,0,0,,10.0,30.250984,,,,,,,,,,,OVC,2500,,,,,,,MVFR,,,,,,,,,,,,METAR,2.0
KMRY 231054Z AUTO 17006KT 10SM CLR 11/07 A2990 RMK AO2 SLP136 T01060067,KMRY,2022-10-23T10:54:00Z,36.58,-121.85,10.6,6.7,170,6,,10.0,29.899607,1013.6,,TRUE,TRUE,,,,,,,CLR,,,,,,,,VFR,,,,,,,,,,,,METAR,51.0
KMOT 231054Z AUTO 05009G19KT 10SM OVC012 07/04 A2956 RMK AO2 PRESRR SLP019 T00720044 $,KMOT,2022-10-23T10:54:00Z,48.25,-101.27,7.2,4.4,50,9,19,10.0,29.56004,1001.9,,TRUE,TRUE,TRUE,,,,,,OVC,1200,,,,,,,MVFR,,,,,,,,,,,,METAR,507.0
KMMH 231054Z AUTO 31003KT 10SM CLR M04/M09 A2984 RMK AO2,KMMH,2022-10-23T10:54:00Z,37.62,-118.83,-4.0,-9.0,310,3,,10.0,29.840551,,,TRUE,TRUE,,,,,,,CLR,,,,,,,,VFR,,,,,,,,,,,,SPECI,2167.0
KMKC 231054Z 18009G18KT 10SM CLR 21/13 A2958 RMK AO2 SLP010 T02060128,KMKC,2022-10-23T10:54:00Z,39.12,-94.6,20.6,12.8,180,9,18,10.0,29.58071,1001.0,,,TRUE,,,,,,,CLR,,,,,,,,VFR,,,,,,,,,,,,METAR,228.0
KMIV 231054Z AUTO 02008KT 10SM OVC023 14/12 A3021 RMK AO2 SLP228 T01390117 $,KMIV,2022-10-23T10:54:00Z,39.37,-75.08,13.9,11.7,20,8,,10.0,30.209646,1022.8,,TRUE,TRUE,TRUE,,,,,,OVC,2300,,,,,,,MVFR,,,,,,,,,,,,METAR,18.0
KMFI 231054Z AUTO 15006KT 10SM FEW110 14/11 A2980 RMK AO2 SLP089 T01390106,KMFI,2022-10-23T10:54:00Z,44.63,-90.18,13.9,10.6,150,6,,10.0,29.799213,1008.9,,TRUE,TRUE,,,,,,,FEW,11000,,,,,,,VFR,,,,,,,,,,,,METAR,383.0
KMEM 231054Z 18012KT 10SM SCT250 17/13 A3003 RMK AO2 SLP166 T01670128,KMEM,2022-10-23T10:54:00Z,35.07,-89.98,16.7,12.8,180,12,,10.0,30.029528,1016.6,,,TRUE,,,,,,,SCT,25000,,,,,,,VFR,,,,,,,,,,,,METAR,78.0
KLYH 231054Z 02003KT 10SM CLR 06/03 A3023 RMK AO2 SLP238 T00610028,KLYH,2022-10-23T10:54:00Z,37.32,-79.2,6.1,2.8,20,3,,10.0,30.230314,1023.8,,,TRUE,,,,,,,CLR,,,,,,,,VFR,,,,,,,,,,,,METAR,282.0
KLWM 231054Z 00000KT 7SM CLR 06/05 A3036 RMK AO2 SLP282 T00610050,KLWM,2022-10-23T10:54:00Z,42.72,-71.13,6.1,5.0,0,0,,7.0,30.360237,1028.2,,,TRUE,,,,,,,CLR,,,,,,,,VFR,,,,,,,,,,,,METAR,42.0
KLNK 231054Z 15009KT 10SM CLR 18/13 A2942 RMK AO2 SLP951 T01780128,KLNK,2022-10-23T10:54:00Z,40.85,-96.77,17.8,12.8,150,9,,10.0,29.421259,995.1,,,TRUE,,,,,,,CLR,,,,,,,,VFR,,,,,,,,,,,,METAR,357.0
KLEX 231054Z 16005KT 10SM CLR 13/07 A3017 RMK AO2 SLP212 T01330072,KLEX,2022-10-23T10:54:00Z,38.03,-84.6,13.3,7.2,160,5,,10.0,30.171259,1021.2,,,TRUE,,,,,,,CLR,,,,,,,,VFR,,,,,,,,,,,,METAR,294.0
KLAF 231054Z 17007KT 10SM BKN055 OVC075 17/11 A3000 RMK AO2 SLP154 T01720106,KLAF,2022-10-23T10:54:00Z,40.42,-86.93,17.2,10.6,170,7,,10.0,30.0,1015.4,,,TRUE,,,,,,,BKN,5500,OVC,7500,,,,,VFR,,,,,,,,,,,,METAR,182.0
KJST 231054Z AUTO 16004KT CLR 08/01 A3026 RMK AO2 SLP252 T00830011 $,KJST,2022-10-23T10:54:00Z,40.32,-78.83,8.3,1.1,160,4,,,30.259842,1025.2,,TRUE,TRUE,TRUE,,,,,,CLR,,,,,,,,,,,,,,,,,,,,METAR,695.0
KJAN 231054Z 16006KT 10SM CLR 14/13 A3009 RMK AO2 SLP186 T01440128,KJAN,2022-10-23T10:54:00Z,32.32,-90.08,14.4,12.8,160,6,,10.0,30.088583,1018.6,,,TRUE,,,,,,,CLR,,,,,,,,VFR,,,,,,,,,,,,METAR,92.0
KIZG 231054Z AUTO 00000KT 10SM CLR 01/00 A3036 RMK AO2 SLP286 I1000 T00060000,KIZG,2022-10-23T10:54:00Z,43.98,-70.95,0.6,0.0,0,0,,10.0,30.360237,1028.6,,TRUE,TRUE,,,,,,,CLR,,,,,,,,VFR,,,,,,,,,,,,METAR,138.0
KISW 231054Z AUTO 12005KT 10SM CLR 13/11 A2982 RMK AO2 SLP097 T01330106,KISW,2022-10-23T10:54:00Z,44.37,-89.83,13.3,10.6,120,5,,10.0,29.819881,1009.7,,TRUE,TRUE,,,,,,,CLR,,,,,,,,VFR,,,,,,,,,,,,SPECI,311.0
KIPT 231054Z 30004KT 8SM CLR 01/01 A3032 RMK AO2 SLP268 T00110006,KIPT,2022-10-23T10:54:00Z,41.25,-76.92,1.1,0.6,300,4,,8.0,30.318897,1026.8,,,TRUE,,,,,,,CLR,,,,,,,,VFR,,,,,,,,,,,,METAR,160.0
KINT 231054Z 02005KT 10SM CLR 08/03 A3024 RMK AO2 SLP236 T00830033,KINT,2022-10-23T10:54:00Z,36.13,-80.22,8.3,3.3,20,5,,10.0,30.239174,1023.6,,,TRUE,,,,,,,CLR,,,,,,,,VFR,,,,,,,,,,,,METAR,292.0
KINL 231054Z AUTO 04004KT 10SM CLR 06/04 A2964 RMK AO2 SLP044 T00610044,KINL,2022-10-23T10:54:00Z,48.57,-93.4,6.1,4.4,40,4,,10.0,29.639763,1004.4,,TRUE,TRUE,,,,,,,CLR,,,,,,,,VFR,,,,,,,,,,,,METAR,353.0
KIND 231054Z 14008KT 10SM FEW100 BKN150 BKN250 14/10 A3006 RMK AO2 SLP175 T01390100 $,KIND,2022-10-23T10:54:00Z,39.72,-86.27,13.9,10.0,140,8,,10.0,30.059055,1017.5,,,TRUE,TRUE,,,,,,FEW,10000,BKN,15000,BKN,25000,,,VFR,,,,,,,,,,,,METAR,242.0
KILN 231054Z AUTO 17004KT 10SM CLR 13/08 A3017 RMK AO2 SLP214 T01330078,KILN,2022-10-23T10:54:00Z,39.43,-83.8,13.3,7.8,170,4,,10.0,30.171259,1021.4,,TRUE,TRUE,,,,,,,CLR,,,,,,,,VFR,,,,,,,,,,,,METAR,325.0
KHWD 231054Z 14003KT 10SM CLR 09/04 A2990 RMK AO2 SLP134 T00940044,KHWD,2022-10-23T10:54:00Z,37.67,-122.12,9.4,4.4,140,3,,10.0,29.899607,1013.4,,,TRUE,,,,,,,CLR,,,,,,,,VFR,,,,,,,,,,,,METAR,9.0
KGSO 231054Z 00000KT 10SM SCT250 06/03 A3022 RMK AO2 SLP230 T00560033,KGSO,2022-10-23T10:54:00Z,36.1,-79.95,5.6,3.3,0,0,,10.0,30.221457,1023.0,,,TRUE,,,,,,,SCT,25000,,,,,,,VFR,,,,,,,,,,,,METAR,275.0
KGCN 231054Z AUTO 22018G28KT 10SM -RA BKN019 OVC025 07/03 A2965 RMK AO2 PK WND 22032/1007 RAB31 SLP972 P0000 T00670033,KGCN,2022-10-23T10:54:00Z,35.95,-112.15,6.7,3.3,220,18,28,10.0,29.648623,997.2,,TRUE,TRUE,,,,,,-RA,BKN,1900,OVC,2500,,,,,MVFR,,,,,,0.005,,,,,,METAR,1993.0
KGCK 231054Z AUTO 20012KT 10SM CLR 16/09 A2945 RMK AO2 SLP940 T01560089,KGCK,2022-10-23T10:54:00Z,37.92,-100.72,15.6,8.9,200,12,,10.0,29.450787,994.0,,TRUE,TRUE,,,,,,,CLR,,,,,,,,VFR,,,,,,,,,,,,METAR,877.0
KFZY 231054Z AUTO VRB03KT 10SM CLR 08/04 A3029 RMK AO2 SLP258 T00830044,KFZY,2022-10-23T10:54:00Z,43.35,-76.38,8.3,4.4,0,3,,10.0,30.28937,1025.8,,TRUE,TRUE,,,,,,,CLR,,,,,,,,VFR,,,,,,,,,,,,METAR,143.0
KFWA 231054Z 14008KT 10SM SCT240 12/09 A3008 RMK AO2 SLP186 T01220089 $,KFWA,2022-10-23T10:54:00Z,40.98,-85.2,12.2,8.9,140,8,,10.0,30.079725,1018.6,,,TRUE,TRUE,,,,,,SCT,24000,,,,,,,VFR,,,,,,,,,,,,METAR,243.0
KFIG 231054Z AUTO 36006KT 10SM CLR 01/00 A3030 RMK AO2 SLP268 T00060000,KFIG,2022-10-23T10:54:00Z,41.05,-78.42,0.6,0.0,360,6,,10.0,30.301182,1026.8,,TRUE,TRUE,,,,,,,CLR,,,,,,,,VFR,,,,,,,,,,,,SPECI,461.0
KFFZ 231054Z AUTO 20007KT 10SM BKN048 21/13 A2970 RMK AO2 SLP035 T02060133,KFFZ,2022-10-23T10:54:00Z,33.47,-111.72,20.6,13.3,200,7,,10.0,29.698818,1003.5,,TRUE,TRUE,,,,,,,BKN,4800,,,,,,,VFR,,,,,,,,,,,,METAR,420.0
KEWN 231054Z 36008KT 10SM FEW012 OVC110 14/12 A3011 RMK AO2 RAB23E38 SLP196 P0000 T01440122,KEWN,2022-10-23T10:54:00Z,35.07,-77.05,14.4,12.2,360,8,,10.0,30.109253,1019.6,,,TRUE,,,,,,,FEW,1200,OVC,11000,,,,,VFR,,,,,,0.005,,,,,,METAR,3.0
KEVV 231054Z 16006KT 10SM FEW070 17/11 A3005 RMK AO2 SLP174 T01720111,KEVV,2022-10-23T10:54:00Z,38.05,-87.52,17.2,11.1,160,6,,10.0,30.050198,1017.4,,,TRUE,,,,,,,FEW,7000,,,,,,,VFR,,,,,,,,,,,,METAR,123.0
KEUG 231054Z AUTO 21007KT 10SM -RA FEW022 BKN045 OVC075 08/07 A3001 RMK AO2 RAB29 CIG 037 RNW 34 SLP161 P0001 T00830072 $,KEUG,2022-10-23T10:54:00Z,44.13,-123.22,8.3,7.2,210,7,,10.0,30.008858,1016.1,,TRUE,TRUE,TRUE,,,,,-RA,FEW,2200,BKN,4500,OVC,7500,,,VFR,,,,,,0.01,,,,,,METAR,109.0
KEFD 231054Z 13006KT 10SM SCT035 21/18 A2992,KEFD,2022-10-23T10:54:00Z,29.6,-95.17,21.0,18.0,130,6,,10.0,29.920275,,,,,,,,,,,SCT,3500,,,,,,,VFR,,,,,,,,,,,,METAR,9.0
KECG 231054Z 36012KT 10SM OVC007 16/14 A3010 RMK AO2 RAE16 SLP193 P0000 T01610144,KECG,2022-10-23T10:54:00Z,36.27,-76.18,16.1,14.4,360,12,,10.0,30.100393,1019.3,,,TRUE,,,,,,,OVC,700,,,,,,,IFR,,,,,,0.005,,,,,,METAR,2.0
KDYL 231054Z AUTO 04004KT 10SM OVC033 12/06 A3026 RMK AO2 SLP249 T01170056,KDYL,2022-10-23T10:54:00Z,40.33,-75.12,11.7,5.6,40,4,,10.0,30.259842,1024.9,,TRUE,TRUE,,,,,,,OVC,3300,,,,,,,VFR,,,,,,,,,,,,METAR,121.0
KDSV 231054Z AUTO 14007KT 10SM CLR 06/02 A3030 RMK AO2 SLP270 T00560022,KDSV,2022-10-23T10:54:00Z,42.57,-77.72,5.6,2.2,140,7,,10.0,30.301182,1027.0,,TRUE,TRUE,,,,,,,CLR,,,,,,,,VFR,,,,,,,,,,,,SPECI,195.0
KDSM 231054Z 13013KT 10SM CLR 17/12 A2961 RMK AO2 SLP019 T01670117,KDSM,2022-10-23T10:54:00Z,41.53,-93.67,16.7,11.7,130,13,,10.0,29.610237,1001.9,,,TRUE,,,,,,,CLR,,,,,,,,VFR,,,,,,,,,,,,METAR,286.0
KDMH 231054Z AUTO 12/06 A3024 RMK AO1 SLP240 T01170056,KDMH,2022-10-23T10:54:00Z,39.28,-76.62,11.7,5.6,,,,,30.239174,1024.0,,TRUE,TRUE,,,,,,,,,,,,,,,,,,,,,,,,,,,METAR,4.0
KDEC 231054Z 17015G24KT 10SM SCT080 18/12 A2991 RMK AO2 PK WND 17026/1004 SLP124 T01780117,KDEC,2022-10-23T10:54:00Z,39.83,-88.87,17.8,11.7,170,15,24,10.0,29.911417,1012.4,,,TRUE,,,,,,,SCT,8000,,,,,,,VFR,,,,,,,,,,,,METAR,205.0
KDDH 231054Z AUTO 16004KT 10SM CLR 02/M02 A3033 RMK AO2 SLP273 T00221017,KDDH,2022-10-23T10:54:00Z,42.9,-73.25,2.2,-1.7,160,4,,10.0,30.33071,1027.3,,TRUE,TRUE,,,,,,,CLR,,,,,,,,VFR,,,,,,,,,,,,METAR,241.0
KCYD 231054Z AUTO 11005KT 10SM OVC042 23/14 A3009 RMK A02 T02320142,KCYD,2022-10-23T10:54:00Z,28.17,-89.22,23.2,14.2,110,5,,10.0,30.088583,,,TRUE,TRUE,,,,,,,OVC,4200,,,,,,,VFR,,,,,,,,,,,,METAR,30.0
KCRW 231054Z 00000KT 10SM SCT220 06/05 A3021 RMK AO2 SLP229 VLY FG T00560050,KCRW,2022-10-23T10:54:00Z,38.38,-81.58,5.6,5.0,0,0,,10.0,30.209646,1022.9,,,TRUE,,,,,,,SCT,22000,,,,,,,VFR,,,,,,,,,,,,METAR,278.0
KCOU 231054Z 15011KT 10SM CLR 19/13 A2974 RMK AO2 SLP063 T01890128,KCOU,2022-10-23T10:54:00Z,38.82,-92.22,18.9,12.8,150,11,,10.0,29.740158,1006.3,,,TRUE,,,,,,,CLR,,,,,,,,VFR,,,,,,,,,,,,METAR,272.0
KCOS 231054Z 26015G34KT 8SM SCT080 BKN250 16/M03 A2943 RMK AO2 PK WND 25039/1032 SLP877 T01611033 $,KCOS,2022-10-23T10:54:00Z,38.82,-104.68,16.1,-3.3,260,15,34,8.0,29.430119,987.7,,,TRUE,TRUE,,,,,,SCT,8000,BKN,25000,,,,,VFR,,,,,,,,,,,,METAR,1886.0
KCEU 231054Z AUTO 00000KT 9SM CLR 07/07 A3021 RMK AO2 SLP228 T00720072,KCEU,2022-10-23T10:54:00Z,34.67,-82.88,7.2,7.2,0,0,,9.0,30.209646,1022.8,,TRUE,TRUE,,,,,,,CLR,,,,,,,,VFR,,,,,,,,,,,,METAR,270.0
KCDD 231054Z AUTO 00000KT 10SM CLR 02/01 A2969 RMK AO2,KCDD,2022-10-23T10:54:00Z,48.27,-92.48,2.0,1.0,0,0,,10.0,29.68996,,,TRUE,TRUE,,,,,,,CLR,,,,,,,,VFR,,,,,,,,,,,,METAR,344.0
KCAR 231054Z AUTO 04003KT 10SM CLR 04/03 A3032 RMK AO2 SLP275 T00440033,KCAR,2022-10-23T10:54:00Z,46.87,-68.02,4.4,3.3,40,3,,10.0,30.318897,1027.5,,TRUE,TRUE,,,,,,,CLR,,,,,,,,VFR,,,,,,,,,,,,METAR,189.0
KBUY 231054Z AUTO 00000KT 10SM CLR 07/06 A3021 RMK AO2 SLP230 T00720056,KBUY,2022-10-23T10:54:00Z,36.05,-79.47,7.2,5.6,0,0,,10.0,30.209646,1023.0,,TRUE,TRUE,,,,,,,CLR,,,,,,,,VFR,,,,,,,,,,,,METAR,185.0
KBUF 231054Z 14007KT 10SM CLR 11/03 A3024 RMK AO2 SLP240 T01060028 $,KBUF,2022-10-23T10:54:00Z,42.93,-78.73,10.6,2.8,140,7,,10.0,30.239174,1024.0,,,TRUE,TRUE,,,,,,CLR,,,,,,,,VFR,,,,,,,,,,,,METAR,217.0
KBTV 231054Z 00000KT 10SM SCT120 06/03 A3033 RMK AO2 SLP273 T00560033,KBTV,2022-10-23T10:54:00Z,44.47,-73.15,5.6,3.3,0,0,,10.0,30.33071,1027.3,,,TRUE,,,,,,,SCT,12000,,,,,,,VFR,,,,,,,,,,,,METAR,101.0
KBOS 231054Z 34004KT 10SM BKN140 OVC220 11/08 A3034 RMK AO2 SLP273 T01110083,KBOS,2022-10-23T10:54:00Z,42.37,-71.02,11.1,8.3,340,4,,10.0,30.339567,1027.3,,,TRUE,,,,,,,BKN,14000,OVC,22000,,,,,VFR,,,,,,,,,,,,METAR,4.0
KBFL 231054Z AUTO 29003KT 9SM CLR 12/06 A2983 RMK AO2 SLP096 T01170061,KBFL,2022-10-23T10:54:00Z,35.43,-119.05,11.7,6.1,290,3,,9.0,29.828741,1009.6,,TRUE,TRUE,,,,,,,CLR,,,,,,,,VFR,,,,,,,,,,,,METAR,146.0
KAVP 231054Z 5SM A3031 RMK AO2 SLPNO $,KAVP,2022-10-23T10:54:00Z,41.33,-75.72,,,,,,5.0,30.31004,,,,TRUE,TRUE,,,,,,,,,,,,,,,,,,,,,,,,,,METAR,290.0
KAVL 231054Z 00000KT 10SM CLR 01/00 A3026 RMK AO2 SLP243 T00110000,KAVL,2022-10-23T10:54:00Z,35.43,-82.53,1.1,0.0,0,0,,10.0,30.259842,1024.3,,,TRUE,,,,,,,CLR,,,,,,,,VFR,,,,,,,,,,,,METAR,646.0
KAUW 231054Z AUTO 07005KT 10SM CLR 11/09 A2982 RMK AO2 SLPNO T01110089 $,KAUW,2022-10-23T10:54:00Z,44.93,-89.62,11.1,8.9,70,5,,10.0,29.819881,,,TRUE,TRUE,TRUE,,,,,,CLR,,,,,,,,VFR,,,,,,,,,,,,METAR,367.0
KAPN 231054Z AUTO 00000KT 10SM CLR 07/06 A3006 RMK AO2 SLP182 T00720061,KAPN,2022-10-23T10:54:00Z,45.07,-83.57,7.2,6.1,0,0,,10.0,30.059055,1018.2,,TRUE,TRUE,,,,,,,CLR,,,,,,,,VFR,,,,,,,,,,,,METAR,208.0
KAPC 231054Z AUTO 28003KT 10SM CLR 09/03 A2990 RMK AO2 SLP115 T00890028,KAPC,2022-10-23T10:54:00Z,38.2,-122.28,8.9,2.8,280,3,,10.0,29.899607,1011.5,,TRUE,TRUE,,,,,,,CLR,,,,,,,,VFR,,,,,,,,,,,,METAR,5.0
KALO 231054Z 14011KT 10SM CLR 17/11 A2968 RMK AO2 SLP044 T01670106,KALO,2022-10-23T10:54:00Z,42.55,-92.4,16.7,10.6,140,11,,10.0,29.681103,1004.4,,,TRUE,,,,,,,CLR,,,,,,,,VFR,,,,,,,,,,,,METAR,264.0
KAKR 231054Z AUTO 00000KT 10SM CLR 11/03 A3021 RMK AO2 SLP226 T01060028,KAKR,2022-10-23T10:54:00Z,41.03,-81.47,10.6,2.8,0,0,,10.0,30.209646,1022.6,,TRUE,TRUE,,,,,,,CLR,,,,,,,,VFR,,,,,,,,,,,,METAR,319.0
KAKQ 231054Z AUTO 34006KT 10SM SCT021 11/09 A3014 RMK AO2 SLP208 T01060094,KAKQ,2022-10-23T10:54:00Z,36.98,-77.0,10.6,9.4,340,6,,10.0,30.138779,1020.8,,TRUE,TRUE,,,,,,,SCT,2100,,,,,,,VFR,,,,,,,,,,,,METAR,34.0
KAKH 231054Z AUTO 35006KT 10SM CLR 08/04 A3022 RMK AO2 SLP233 T00830039,KAKH,2022-10-23T10:54:00Z,35.2,-81.15,8.3,3.9,350,6,,10.0,30.221457,1023.3,,TRUE,TRUE,,,,,,,CLR,,,,,,,,VFR,,,,,,,,,,,,METAR,242.0
KACY 231054Z 02008KT 10SM SCT070 BKN100 14/12 A3021 RMK AO2 SLP229 T01390117,KACY,2022-10-23T10:54:00Z,39.45,-74.57,13.9,11.7,20,8,,10.0,30.209646,1022.9,,,TRUE,,,,,,,SCT,7000,BKN,10000,,,,,VFR,,,,,,,,,,,,METAR,18.0
KAAO 231054Z AUTO 18016G25KT 10SM CLR 22/12 A2953 RMK AO2 PK WND 18028/1014 SLP985 T02170117,KAAO,2022-10-23T10:54:00Z,37.75,-97.22,21.7,11.7,180,16,25,10.0,29.530512,998.5,,TRUE,TRUE,,,,,,,CLR,,,,,,,,VFR,,,,,,,,,,,,METAR,429.0
K1V4 231054Z AUTO 01/M01 A3036 RMK AO1 SLP286 T00111006 PNO,K1V4,2022-10-23T10:54:00Z,44.42,-72.02,1.1,-0.6,,,,,30.360237,1028.6,,TRUE,TRUE,,,,,,,,,,,,,,,,,,,,,,,,,,,METAR,213.0
K12N 231054Z AUTO 00000KT 09/06 A3030 RMK AO1 SLP262 T00890056,K12N,2022-10-23T10:54:00Z,41.02,-74.73,8.9,5.6,0,0,,,30.301182,1026.2,,TRUE,TRUE,,,,,,,,,,,,,,,,,,,,,,,,,,,METAR,178.0
TJNR 231053Z AUTO 00000KT 10SM FEW023 SCT034 BKN041 24/23 A2994 RMK AO2 SLP139 T02440233,TJNR,2022-10-23T10:53:00Z,18.25,-65.63,24.4,23.3,0,0,,10.0,29.940945,1013.9,,TRUE,TRUE,,,,,,,FEW,2300,SCT,3400,BKN,4100,,,VFR,,,,,,,,,,,,SPECI,7.0
TISX 231053Z 02005KT 10SM SCT026 27/24 A2993 RMK AO2 SLP133 T02670239 $,TISX,2022-10-23T10:53:00Z,17.7,-64.8,26.7,23.9,20,5,,10.0,29.929134,1013.3,,,TRUE,TRUE,,,,,,SCT,2600,,,,,,,VFR,,,,,,,,,,,,SPECI,16.0
TIST 231053Z 05003KT 10SM SCT030 27/23 A2993 RMK AO2 RAB39E49 SLP135 P0000 T02670233,TIST,2022-10-23T10:53:00Z,18.33,-64.98,26.7,23.3,50,3,,10.0,29.929134,1013.5,,,TRUE,,,,,,,SCT,3000,,,,,,,VFR,,,,,,0.005,,,,,,SPECI,5.0
PHTO 231053Z AUTO 24007KT 10SM OVC060 22/15 A3002 RMK AO2 SLP164 T02220150 TSNO,PHTO,2022-10-23T10:53:00Z,19.72,-155.05,22.2,15.0,240,7,,10.0,30.02067,1016.4,,TRUE,TRUE,,,TRUE,,,,OVC,6000,,,,,,,VFR,,,,,,,,,,,,METAR,9.0
PHNL 231053Z 07007KT 10SM FEW024 26/20 A3002 RMK AO2 SLP164 T02610200,PHNL,2022-10-23T10:53:00Z,21.33,-157.93,26.1,20.0,70,7,,10.0,30.02067,1016.4,,,TRUE,,,,,,,FEW,2400,,,,,,,VFR,,,,,,,,,,,,METAR,2.0
PHLI 231053Z AUTO 08010KT 10SM SCT022 SCT039 SCT049 26/22 A3005 RMK AO2 SLP173 T02560222 TSNO $,PHLI,2022-10-23T10:53:00Z,21.97,-159.33,25.6,22.2,80,10,,10.0,30.050198,1017.3,,TRUE,TRUE,TRUE,,TRUE,,,,SCT,2200,SCT,3900,SCT,4900,,,VFR,,,,,,,,,,,,METAR,32.0
PHKO 231053Z AUTO 00000KT 10SM CLR 27/19 A2997 RMK AO2 SLP147 T02670189 TSNO,PHKO,2022-10-23T10:53:00Z,19.73,-156.05,26.7,18.9,0,0,,10.0,29.970472,1014.7,,TRUE,TRUE,,,TRUE,,,,CLR,,,,,,,,VFR,,,,,,,,,,,,METAR,11.0
PHJR 231053Z AUTO 06003KT 10SM CLR 24/18 A3003 RMK AO2 SLP176 T02440183 TSNO,PHJR,2022-10-23T10:53:00Z,21.32,-158.07,24.4,18.3,60,3,,10.0,30.029528,1017.6,,TRUE,TRUE,,,TRUE,,,,CLR,,,,,,,,VFR,,,,,,,,,,,,SPECI,9.0
PAYA 231053Z AUTO 07003KT 10SM SCT045 BKN065 OVC080 04/02 A2963 RMK AO2 RAE00 SLP035 P0000 T00390017 TSNO $,PAYA,2022-10-23T10:53:00Z,59.52,-139.67,3.9,1.7,70,3,,10.0,29.630905,1003.5,,TRUE,TRUE,TRUE,,TRUE,,,,SCT,4500,BKN,6500,OVC,8000,,,VFR,,,,,,0.005,,,,,,METAR,9.0
PAWI 231053Z AUTO 09010KT 10SM CLR M12/M13 A2987 RMK AO2 SLP115 T11171133 TSNO $,PAWI,2022-10-23T10:53:00Z,70.63,-160.02,-11.7,-13.3,90,10,,10.0,29.870079,1011.5,,TRUE,TRUE,TRUE,,TRUE,,,,CLR,,,,,,,,VFR,,,,,,,,,,,,METAR,12.0
PAWD 231053Z AUTO 01017G23KT 10SM CLR 02/M03 A2973 RMK AO2 SLP068 T00171033 TSNO,PAWD,2022-10-23T10:53:00Z,60.12,-149.42,1.7,-3.3,10,17,23,10.0,29.731298,1006.8,,TRUE,TRUE,,,TRUE,,,,CLR,,,,,,,,VFR,,,,,,,,,,,,METAR,3.0
PATO 231053Z AUTO 28005KT 10SM BKN012 OVC065 00/M01 A2978 RMK AO2 SLP086 T00001006 TSNO,PATO,2022-10-23T10:53:00Z,60.78,-148.85,0.0,-0.6,280,5,,10.0,29.778543,1008.6,,TRUE,TRUE,,,TRUE,,,,BKN,1200,OVC,6500,,,,,MVFR,,,,,,,,,,,,METAR,47.0
PATK 231053Z AUTO 00000KT 10SM CLR M04/M08 A2982 RMK AO2 SLP106 T10441078 TSNO,PATK,2022-10-23T10:53:00Z,62.32,-150.1,-4.4,-7.8,0,0,,10.0,29.819881,1010.6,,TRUE,TRUE,,,TRUE,,,,CLR,,,,,,,,VFR,,,,,,,,,,,,METAR,107.0
PASO 231053Z AUTO 00000KT 10SM CLR 01/00 A2981 RMK AO2 SLP094 I1000 T00060000 TSNO,PASO,2022-10-23T10:53:00Z,59.45,-151.7,0.6,0.0,0,0,,10.0,29.811024,1009.4,,TRUE,TRUE,,,TRUE,,,,CLR,,,,,,,,VFR,,,,,,,,,,,,METAR,20.0
PASI 231053Z 12013G19KT 10SM FEW049 BKN075 OVC110 09/02 A2963 RMK SLP033 T00940022,PASI,2022-10-23T10:53:00Z,57.03,-135.35,9.4,2.2,120,13,19,10.0,29.630905,1003.3,,,,,,,,,,FEW,4900,BKN,7500,OVC,11000,,,VFR,,,,,,,,,,,,METAR,2.0
PAQT 231053Z AUTO 09010KT 10SM FEW009 OVC044 M06/M07 A3004 RMK AO2 SLP172 T10611072 TSNO,PAQT,2022-10-23T10:53:00Z,70.22,-151.0,-6.1,-7.2,90,10,,10.0,30.041338,1017.2,,TRUE,TRUE,,,TRUE,,,,FEW,900,OVC,4400,,,,,VFR,,,,,,,,,,,,METAR,11.0
PAPB 231053Z AUTO 24013KT 10SM OVC024 06/ A3009 RMK AO2 SLP177 T0056 TSNO $,PAPB,2022-10-23T10:53:00Z,56.58,-169.67,5.6,,240,13,,10.0,30.088583,1017.7,,TRUE,TRUE,TRUE,,TRUE,,,,OVC,2400,,,,,,,MVFR,,,,,,,,,,,,METAR,33.0
PAOT 231053Z AUTO 16018G22KT 10SM OVC016 01/00 A2977 RMK AO2 PK WND 15027/1007 UPB15E18SNE15 SLP079 P0001 T00060000 TSNO,PAOT,2022-10-23T10:53:00Z,66.88,-162.6,0.6,0.0,160,18,22,10.0,29.769686,1007.9,,TRUE,TRUE,,,TRUE,,,,OVC,1600,,,,,,,MVFR,,,,,,0.01,,,,,,METAR,3.0
PAOR 231053Z 00000KT 10SM OVC025 M04/M06 A2982 RMK AO2 SLP131 T10441061 $,PAOR,2022-10-23T10:53:00Z,62.97,-141.93,-4.4,-6.1,0,0,,10.0,29.819881,1013.1,,,TRUE,TRUE,,,,,,OVC,2500,,,,,,,MVFR,,,,,,,,,,,,METAR,524.0
PAOM 231053Z AUTO 21009KT 10SM -RA BKN017 BKN023 OVC036 03/M01 A2983 RMK AO2 RAB35 SLP103 P0001 T00281006 TSNO,PAOM,2022-10-23T10:53:00Z,64.5,-165.43,2.8,-0.6,210,9,,10.0,29.828741,1010.3,,TRUE,TRUE,,,TRUE,,,-RA,BKN,1700,BKN,2300,OVC,3600,,,MVFR,,,,,,0.01,,,,,,METAR,6.0
PANN 231053Z AUTO 00000KT 1/4SM FZFG VV002 M02/M02 A2994 RMK AO2 SLP148 I1000 T10171022 TSNO,PANN,2022-10-23T10:53:00Z,64.55,-149.08,-1.7,-2.2,0,0,,0.25,29.940945,1014.8,,TRUE,TRUE,,,TRUE,,,FZFG,OVX,0,,,,,,,LIFR,,,,,,,,,,,200,METAR,110.0
PANC 231053Z 35010KT 10SM OVC180 M01/M04 A2980 RMK AO2 SLP093 T10061044,PANC,2022-10-23T10:53:00Z,61.17,-150.02,-0.6,-4.4,350,10,,10.0,29.799213,1009.3,,,TRUE,,,,,,,OVC,18000,,,,,,,VFR,,,,,,,,,,,,METAR,39.0
PAMR 231053Z 05003KT 10SM CLR M02/M04 A2980 RMK AO2 SLP093 T10221044,PAMR,2022-10-23T10:53:00Z,61.22,-149.85,-2.2,-4.4,50,3,,10.0,29.799213,1009.3,,,TRUE,,,,,,,CLR,,,,,,,,VFR,,,,,,,,,,,,METAR,43.0
PALH 231053Z 01007KT 10SM CLR M01/M04 A2981 RMK AO2 SLP096 T10061044,PALH,2022-10-23T10:53:00Z,61.18,-149.97,-0.6,-4.4,10,7,,10.0,29.811024,1009.6,,,TRUE,,,,,,,CLR,,,,,,,,VFR,,,,,,,,,,,,METAR,26.0
PAKW 231053Z AUTO 00000KT 10SM FEW034 SCT055 BKN110 06/04 A2975 RMK AO2 SLP074 T00610039 TSNO $,PAKW,2022-10-23T10:53:00Z,55.58,-133.07,6.1,3.9,0,0,,10.0,29.749016,1007.4,,TRUE,TRUE,TRUE,,TRUE,,,,FEW,3400,SCT,5500,BKN,11000,,,VFR,,,,,,,,,,,,METAR,7.0
PAKT 231053Z AUTO 15009KT 10SM OVC042 07/03 A2985 RMK AO2 SLP108 T00670028 TSNO,PAKT,2022-10-23T10:53:00Z,55.35,-131.72,6.7,2.8,150,9,,10.0,29.84941,1010.8,,TRUE,TRUE,,,TRUE,,,,OVC,4200,,,,,,,VFR,,,,,,,,,,,,METAR,27.0
PAJN 231053Z 07006KT 10SM FEW006 BKN044 OVC150 04/02 A2977 RMK AO2 SLP081 T00390022 $,PAJN,2022-10-23T10:53:00Z,58.35,-134.55,3.9,2.2,70,6,,10.0,29.769686,1008.1,,,TRUE,TRUE,,,,,,FEW,600,BKN,4400,OVC,15000,,,VFR,,,,,,,,,,,,METAR,6.0
PAIL 231053Z AUTO 00000KT 10SM CLR M01/M03 A2990 RMK AO2 SLP128 T10061028 TSNO,PAIL,2022-10-23T10:53:00Z,59.75,-154.92,-0.6,-2.8,0,0,,10.0,29.899607,1012.8,,TRUE,TRUE,,,TRUE,,,,CLR,,,,,,,,VFR,,,,,,,,,,,,METAR,44.0
PAHO 231053Z AUTO 32003KT 10SM CLR M01/M03 A2981 RMK AO2 SLP097 T10061028 TSNO,PAHO,2022-10-23T10:53:00Z,59.63,-151.48,-0.6,-2.8,320,3,,10.0,29.811024,1009.7,,TRUE,TRUE,,,TRUE,,,,CLR,,,,,,,,VFR,,,,,,,,,,,,METAR,6.0
PAGY 231053Z AUTO 00000KT 10SM CLR 03/02 A2980 RMK AO2 SLP092 T00280022 TSNO $,PAGY,2022-10-23T10:53:00Z,59.47,-135.32,2.8,2.2,0,0,,10.0,29.799213,1009.2,,TRUE,TRUE,TRUE,,TRUE,,,,CLR,,,,,,,,VFR,,,,,,,,,,,,METAR,7.0
PAGK 231053Z AUTO 31004KT 10SM OVC039 M03/M04 A2981 RMK AO2 SLP123 T10281044 TSNO,PAGK,2022-10-23T10:53:00Z,62.15,-145.45,-2.8,-4.4,310,4,,10.0,29.811024,1012.3,,TRUE,TRUE,,,TRUE,,,,OVC,3900,,,,,,,VFR,,,,,,,,,,,,METAR,481.0
PAFA 231053Z 00000KT 5SM -SN BR FEW008 OVC055 M01/M02 A2994 RMK AO2 SLP148 P0000 T10061022,PAFA,2022-10-23T10:53:00Z,64.8,-147.87,-0.6,-2.2,0,0,,5.0,29.940945,1014.8,,,TRUE,,,,,,-SN BR,FEW,800,OVC,5500,,,,,MVFR,,,,,,0.005,,,,,,METAR,130.0
PAEN 231053Z AUTO 00000KT 10SM CLR M02/M03 A2982 RMK AO2 SLP101 T10221028 TSNO,PAEN,2022-10-23T10:53:00Z,60.57,-151.25,-2.2,-2.8,0,0,,10.0,29.819881,1010.1,,TRUE,TRUE,,,TRUE,,,,CLR,,,,,,,,VFR,,,,,,,,,,,,METAR,30.0
PADQ 231053Z AUTO 30011KT 10SM OVC100 06/00 A2980 RMK AO2 SLP091 T00610000 TSNO,PADQ,2022-10-23T10:53:00Z,57.75,-152.5,6.1,0.0,300,11,,10.0,29.799213,1009.1,,TRUE,TRUE,,,TRUE,,,,OVC,10000,,,,,,,VFR,,,,,,,,,,,,METAR,5.0
PACV 231053Z 00000KT 10SM BKN090 00/M01 A2966 RMK AO2 SLP044 T00001011,PACV,2022-10-23T10:53:00Z,60.5,-145.47,0.0,-1.1,0,0,,10.0,29.660433,1004.4,,,TRUE,,,,,,,BKN,9000,,,,,,,VFR,,,,,,,,,,,,METAR,15.0
PABT 231053Z 33003KT 10SM OVC014 M05/M07 A2999 RMK AO2 SLP172 T10501067 $,PABT,2022-10-23T10:53:00Z,66.92,-151.52,-5.0,-6.7,330,3,,10.0,29.991142,1017.2,,,TRUE,TRUE,,,,,,OVC,1400,,,,,,,MVFR,,,,,,,,,,,,METAR,195.0
PABR 231053Z AUTO 11020KT 10SM OVC007 M04/M05 A2995 RMK AO2 PK WND 10031/0957 SLP142 T10391050 TSNO,PABR,2022-10-23T10:53:00Z,71.28,-156.78,-3.9,-5.0,110,20,,10.0,29.949802,1014.2,,TRUE,TRUE,,,TRUE,,,,OVC,700,,,,,,,IFR,,,,,,,,,,,,METAR,6.0
PAAQ 231053Z AUTO 07003KT 10SM CLR M03/M05 A2978 RMK AO2 SLP088 I1000 T10331050 TSNO,PAAQ,2022-10-23T10:53:00Z,61.6,-149.08,-3.3,-5.0,70,3,,10.0,29.778543,1008.8,,TRUE,TRUE,,,TRUE,,,,CLR,,,,,,,,VFR,,,,,,,,,,,,METAR,68.0
MMSD 231053Z 31003KT 8SM SKC 21/17 A2979 RMK RTS,MMSD,2022-10-23T10:53:00Z,23.15,-109.72,21.0,17.0,310,3,,8.0,29.790354,,,,,,,,,,,SKC,,,,,,,,VFR,,,,,,,,,,,,METAR,107.0
KZZV 231053Z AUTO 00000KT 10SM CLR 08/06 A3020 RMK AO2 SLP225 T00780056,KZZV,2022-10-23T10:53:00Z,39.95,-81.9,7.8,5.6,0,0,,10.0,30.200787,1022.5,,TRUE,TRUE,,,,,,,CLR,,,,,,,,VFR,,,,,,,,,,,,METAR,268.0
KYKM 231053Z AUTO 27003KT 10SM CLR 02/M02 A2988 RMK AO2 SLP125 T00171022,KYKM,2022-10-23T10:53:00Z,46.57,-120.53,1.7,-2.2,270,3,,10.0,29.878937,1012.5,,TRUE,TRUE,,,,,,,CLR,,,,,,,,VFR,,,,,,,,,,,,METAR,319.0
KYIP 231053Z 00000KT 8SM CLR 08/04 A3013 RMK AO2 SLP199 T00780044,KYIP,2022-10-23T10:53:00Z,42.23,-83.53,7.8,4.4,0,0,,8.0,30.129921,1019.9,,,TRUE,,,,,,,CLR,,,,,,,,VFR,,,,,,,,,,,,METAR,215.0
KXNA 231053Z 18019G29KT 10SM FEW110 20/14 A2979 RMK AO2 PK WND 19030/1036 RAE0955B20E24 SLP073 P0000 T02000139,KXNA,2022-10-23T10:53:00Z,36.28,-94.3,20.0,13.9,180,19,29,10.0,29.790354,1007.3,,,TRUE,,,,,,,FEW,11000,,,,,,,VFR,,,,,,0.005,,,,,,METAR,390.0
KWVI 231053Z AUTO 34004KT 10SM CLR 07/06 A2990 RMK AO2 SLP123 T00670056,KWVI,2022-10-23T10:53:00Z,36.93,-121.78,6.7,5.6,340,4,,10.0,29.899607,1012.3,,TRUE,TRUE,,,,,,,CLR,,,,,,,,VFR,,,,,,,,,,,,METAR,47.0
KWST 231053Z AUTO 02004KT 10SM CLR 10/09 A3031 RMK AO2 SLP261 T01000089,KWST,2022-10-23T10:53:00Z,41.35,-71.8,10.0,8.9,20,4,,10.0,30.31004,1026.1,,TRUE,TRUE,,,,,,,CLR,,,,,,,,VFR,,,,,,,,,,,,METAR,20.0
KVUO 231053Z AUTO 00000KT 10SM OVC050 09/07 A3000 RMK AO2 SLP159 T00940067 $,KVUO,2022-10-23T10:53:00Z,45.62,-122.65,9.4,6.7,0,0,,10.0,30.0,1015.9,,TRUE,TRUE,TRUE,,,,,,OVC,5000,,,,,,,VFR,,,,,,,,,,,,METAR,7.0
KVRB 231053Z AUTO 32004KT 10SM CLR 18/18 A3006 RMK AO2 SLP179 T01830183,KVRB,2022-10-23T10:53:00Z,27.65,-80.42,18.3,18.3,320,4,,10.0,30.059055,1017.9,,TRUE,TRUE,,,,,,,CLR,,,,,,,,VFR,,,,,,,,,,,,METAR,7.0
KVLD 231053Z AUTO 7SM CLR 05/03 A3016 RMK AO2 SLP222 T00500033 $,KVLD,2022-10-23T10:53:00Z,30.78,-83.27,5.0,3.3,,,,7.0,30.159449,1022.2,,TRUE,TRUE,TRUE,,,,,,CLR,,,,,,,,VFR,,,,,,,,,,,,METAR,59.0
KVIH 231053Z AUTO 17012G20KT 10SM CLR 18/12 A2980 RMK AO2 SLP082 T01830122 $,KVIH,2022-10-23T10:53:00Z,38.13,-91.77,18.3,12.2,170,12,20,10.0,29.799213,1008.2,,TRUE,TRUE,TRUE,,,,,,CLR,,,,,,,,VFR,,,,,,,,,,,,METAR,342.0
KVGT 231053Z AUTO 33017G26KT 10SM OVC100 16/01 A2968 RMK AO2 PK WND 34026/1049 SLP049 T01560006 $,KVGT,2022-10-23T10:53:00Z,36.22,-115.2,15.6,0.6,330,17,26,10.0,29.681103,1004.9,,TRUE,TRUE,TRUE,,,,,,OVC,10000,,,,,,,VFR,,,,,,,,,,,,METAR,664.0
KVCB 231053Z AUTO 32006KT 10SM CLR 13/01 A2988 RMK AO2 SLP117 T01330006,KVCB,2022-10-23T10:53:00Z,38.38,-121.95,13.3,0.6,320,6,,10.0,29.878937,1011.7,,TRUE,TRUE,,,,,,,CLR,,,,,,,,VFR,,,,,,,,,,,,METAR,30.0
KUUU 231053Z AUTO 36004KT 10SM CLR 12/11 A3031 RMK AO2 SLP263 T01170106 $,KUUU,2022-10-23T10:53:00Z,41.53,-71.28,11.7,10.6,360,4,,10.0,30.31004,1026.3,,TRUE,TRUE,TRUE,,,,,,CLR,,,,,,,,VFR,,,,,,,,,,,,METAR,45.0
KUTS 231053Z AUTO 13003KT 10SM CLR 21/18 A2991 RMK AO2 SLP125 T02060183,KUTS,2022-10-23T10:53:00Z,30.75,-95.58,20.6,18.3,130,3,,10.0,29.911417,1012.5,,TRUE,TRUE,,,,,,,CLR,,,,,,,,VFR,,,,,,,,,,,,METAR,103.0
KUNV 231053Z 00000KT 10SM CLR 02/02 A3031,KUNV,2022-10-23T10:53:00Z,40.85,-77.83,2.0,2.0,0,0,,10.0,30.31004,,,,,,,,,,,CLR,,,,,,,,VFR,,,,,,,,,,,,METAR,365.0
KUNO 231053Z AUTO 16008KT 10SM CLR 17/13 A2988 RMK AO2 SLP107 T01670128,KUNO,2022-10-23T10:53:00Z,36.88,-91.9,16.7,12.8,160,8,,10.0,29.878937,1010.7,,TRUE,TRUE,,,,,,,CLR,,,,,,,,VFR,,,,,,,,,,,,METAR,376.0
KUIL 231053Z AUTO 00000KT 10SM CLR 02/02 A2997 RMK AO2 SLP149 T00170017,KUIL,2022-10-23T10:53:00Z,47.93,-124.55,1.7,1.7,0,0,,10.0,29.970472,1014.9,,TRUE,TRUE,,,,,,,CLR,,,,,,,,VFR,,,,,,,,,,,,METAR,58.0
KUAO 231053Z AUTO 18003KT 10SM SCT055 07/07 A3000 RMK AO2 SLP160 T00720067,KUAO,2022-10-23T10:53:00Z,45.25,-122.77,7.2,6.7,180,3,,10.0,30.0,1016.0,,TRUE,TRUE,,,,,,,SCT,5500,,,,,,,VFR,,,,,,,,,,,,METAR,60.0
KTYS 231053Z 00000KT 8SM FEW003 06/06 A3022 RMK AO2 SLP231 T00610056,KTYS,2022-10-23T10:53:00Z,35.82,-83.98,6.1,5.6,0,0,,8.0,30.221457,1023.1,,,TRUE,,,,,,,FEW,300,,,,,,,VFR,,,,,,,,,,,,METAR,300.0
KTYR 231053Z AUTO 16010KT 10SM BKN042 20/17 A2989 RMK AO2 SLP115 T02000172 $,KTYR,2022-10-23T10:53:00Z,32.37,-95.4,20.0,17.2,160,10,,10.0,29.890747,1011.5,,TRUE,TRUE,TRUE,,,,,,BKN,4200,,,,,,,VFR,,,,,,,,,,,,METAR,161.0
KTXK 231053Z 15009KT 10SM CLR 20/16 A2992 RMK AO2 SLP128 T02000161,KTXK,2022-10-23T10:53:00Z,33.45,-93.98,20.0,16.1,150,9,,10.0,29.920275,1012.8,,,TRUE,,,,,,,CLR,,,,,,,,VFR,,,,,,,,,,,,METAR,118.0
KTWF 231053Z AUTO 26017G28KT 10SM CLR 01/M03 A2969 RMK AO2 PK WND 26031/1026 SLP045 T00061028,KTWF,2022-10-23T10:53:00Z,42.48,-114.48,0.6,-2.8,260,17,28,10.0,29.68996,1004.5,,TRUE,TRUE,,,,,,,CLR,,,,,,,,VFR,,,,,,,,,,,,METAR,1269.0
KTVR 231053Z AUTO 16009KT 10SM CLR 17/13 A3005 RMK AO2 SLP181 T01670133,KTVR,2022-10-23T10:53:00Z,32.35,-91.03,16.7,13.3,160,9,,10.0,30.050198,1018.1,,TRUE,TRUE,,,,,,,CLR,,,,,,,,VFR,,,,,,,,,,,,METAR,25.0
KTVL 231053Z AUTO 21003KT 10SM CLR M03/M05 A2986 RMK AO2 SLP099 T10331050,KTVL,2022-10-23T10:53:00Z,38.9,-120.0,-3.3,-5.0,210,3,,10.0,29.861221,1009.9,,TRUE,TRUE,,,,,,,CLR,,,,,,,,VFR,,,,,,,,,,,,METAR,1907.0
KTVC 231053Z 17004KT 10SM CLR 15/11 A2997 RMK AO2 SLP146 T01500106,KTVC,2022-10-23T10:53:00Z,44.73,-85.58,15.0,10.6,170,4,,10.0,29.970472,1014.6,,,TRUE,,,,,,,CLR,,,,,,,,VFR,,,,,,,,,,,,METAR,188.0
KTUS 231053Z 19011KT 10SM CLR 19/11 A2979 RMK AO2 SLP045 T01890111,KTUS,2022-10-23T10:53:00Z,32.13,-110.95,18.9,11.1,190,11,,10.0,29.790354,1004.5,,,TRUE,,,,,,,CLR,,,,,,,,VFR,,,,,,,,,,,,METAR,776.0
KTUP 231053Z 15003KT 10SM CLR 13/10 A3011 RMK AO2 SLP193 T01280100 $,KTUP,2022-10-23T10:53:00Z,34.27,-88.77,12.8,10.0,150,3,,10.0,30.109253,1019.3,,,TRUE,TRUE,,,,,,CLR,,,,,,,,VFR,,,,,,,,,,,,METAR,107.0
KTUL 231053Z 17019G26KT 10SM SCT100 SCT250 22/14 A2969 RMK AO2 PK WND 17029/1033 SLP046 T02220144,KTUL,2022-10-23T10:53:00Z,36.2,-95.88,22.2,14.4,170,19,26,10.0,29.68996,1004.6,,,TRUE,,,,,,,SCT,10000,SCT,25000,,,,,VFR,,,,,,,,,,,,METAR,196.0
KTTN 231053Z 36007KT 10SM OVC039 12/07 A3025 RMK AO2 SLP238 T01170067,KTTN,2022-10-23T10:53:00Z,40.28,-74.82,11.7,6.7,360,7,,10.0,30.250984,1023.8,,,TRUE,,,,,,,OVC,3900,,,,,,,VFR,,,,,,,,,,,,METAR,58.0
KTTD 231053Z AUTO 00000KT 10SM BKN031 BKN038 OVC055 09/07 A2999 RMK AO2 SLP156 T00890067,KTTD,2022-10-23T10:53:00Z,45.55,-122.42,8.9,6.7,0,0,,10.0,29.991142,1015.6,,TRUE,TRUE,,,,,,,BKN,3100,BKN,3800,OVC,5500,,,VFR,,,,,,,,,,,,METAR,8.0
KTRI 231053Z 00000KT 10SM FEW250 03/02 A3024 RMK AO2 SLP230 T00330022 $,KTRI,2022-10-23T10:53:00Z,36.48,-82.4,3.3,2.2,0,0,,10.0,30.239174,1023.0,,,TRUE,TRUE,,,,,,FEW,25000,,,,,,,VFR,,,,,,,,,,,,METAR,456.0
KTPA 231053Z 03005KT 10SM CLR 17/14 A3010 RMK AO2 SLP191 T01720139,KTPA,2022-10-23T10:53:00Z,27.97,-82.53,17.2,13.9,30,5,,10.0,30.100393,1019.1,,,TRUE,,,,,,,CLR,,,,,,,,VFR,,,,,,,,,,,,METAR,2.0
KTOP 231053Z AUTO 18016G28KT 10SM CLR 23/13 A2951 RMK AO2 PK WND 17030/1043 SLP983 T02280133,KTOP,2022-10-23T10:53:00Z,39.07,-95.63,22.8,13.3,180,16,28,10.0,29.509842,998.3,,TRUE,TRUE,,,,,,,CLR,,,,,,,,VFR,,,,,,,,,,,,METAR,268.0
KTOI 231053Z AUTO 00000KT 10SM CLR 04/03 A3018 RMK AO2 SLP218 T00440028,KTOI,2022-10-23T10:53:00Z,31.85,-86.02,4.4,2.8,0,0,,10.0,30.180119,1021.8,,TRUE,TRUE,,,,,,,CLR,,,,,,,,VFR,,,,,,,,,,,,METAR,120.0
KTMB 231053Z 01005KT 10SM -RA CLR 21/19 A3003 RMK AO2 RAB37 SLP167 P0000 T02060194,KTMB,2022-10-23T10:53:00Z,25.65,-80.43,20.6,19.4,10,5,,10.0,30.029528,1016.7,,,TRUE,,,,,,-RA,CLR,,,,,,,,VFR,,,,,,0.005,,,,,,METAR,2.0
KTLH 231053Z COR 00000KT 10SM CLR 04/02 A3015 RMK AO2 SLP208 T00390017,KTLH,2022-10-23T10:53:00Z,30.4,-84.35,3.9,1.7,0,0,,10.0,30.15059,1020.8,TRUE,,TRUE,,,,,,,CLR,,,,,,,,VFR,,,,,,,,,,,,METAR,17.0
KTKI 231053Z 18021G27KT 10SM OVC021 21/17 A2981 RMK AO2 PK WND 17027/1052 SLP090 T02110167,KTKI,2022-10-23T10:53:00Z,33.18,-96.58,21.1,16.7,180,21,27,10.0,29.811024,1009.0,,,TRUE,,,,,,,OVC,2100,,,,,,,MVFR,,,,,,,,,,,,METAR,173.0
KTIW 231053Z AUTO 17003KT 10SM FEW004 FEW011 SCT060 07/06 A2998 RMK AO2 SLP151 T00670056,KTIW,2022-10-23T10:53:00Z,47.27,-122.58,6.7,5.6,170,3,,10.0,29.97933,1015.1,,TRUE,TRUE,,,,,,,FEW,400,FEW,1100,SCT,6000,,,VFR,,,,,,,,,,,,METAR,89.0
KTHV 231053Z AUTO 00000KT 9SM CLR 02/01 A3028 RMK AO2 SLP257 T00220011,KTHV,2022-10-23T10:53:00Z,39.92,-76.88,2.2,1.1,0,0,,9.0,30.280512,1025.7,,TRUE,TRUE,,,,,,,CLR,,,,,,,,VFR,,,,,,,,,,,,METAR,141.0
KTDZ 231053Z AUTO 13006KT 10SM CLR 12/08 A3014 RMK AO2 SLP206 T01220083,KTDZ,2022-10-23T10:53:00Z,41.57,-83.48,12.2,8.3,130,6,,10.0,30.138779,1020.6,,TRUE,TRUE,,,,,,,CLR,,,,,,,,VFR,,,,,,,,,,,,METAR,189.0
KTCS 231053Z AUTO 22016G33KT 10SM SCT110 17/11 A2971 RMK AO2 PK WND 21036/1037 SLP986 T01720106,KTCS,2022-10-23T10:53:00Z,33.23,-107.27,17.2,10.6,220,16,33,10.0,29.71063,998.6,,TRUE,TRUE,,,,,,,SCT,11000,,,,,,,VFR,,,,,,,,,,,,METAR,1471.0
KTCL 231053Z AUTO 00000KT 7SM CLR 10/08 A3015 RMK AO2 SLP208 T01000083,KTCL,2022-10-23T10:53:00Z,33.22,-87.62,10.0,8.3,0,0,,7.0,30.15059,1020.8,,TRUE,TRUE,,,,,,,CLR,,,,,,,,VFR,,,,,,,,,,,,METAR,48.0
KTCC 231053Z AUTO 22019KT 10SM -RA SCT090 BKN110 17/11 A2964 RMK AO2 PK WND 21034/1030 RAB52 SLP982 P0000 T01670106,KTCC,2022-10-23T10:53:00Z,35.18,-103.6,16.7,10.6,220,19,,10.0,29.639763,998.2,,TRUE,TRUE,,,,,,-RA,SCT,9000,BKN,11000,,,,,VFR,,,,,,0.005,,,,,,METAR,1233.0
KSWO 231053Z AUTO 18014G25KT 10SM CLR 23/13 A2964 RMK AO2 SLP023 T02330128,KSWO,2022-10-23T10:53:00Z,36.17,-97.08,23.3,12.8,180,14,25,10.0,29.639763,1002.3,,TRUE,TRUE,,,,,,,CLR,,,,,,,,VFR,,,,,,,,,,,,METAR,293.0
KSTS 231053Z AUTO 34005G15KT 10SM CLR 12/02 A2990 RMK AO2 SLP120 T01170017,KSTS,2022-10-23T10:53:00Z,38.5,-122.82,11.7,1.7,340,5,15,10.0,29.899607,1012.0,,TRUE,TRUE,,,,,,,CLR,,,,,,,,VFR,,,,,,,,,,,,METAR,35.0
KSTP 231053Z AUTO 14009KT 10SM CLR 16/09 A2964 RMK AO2 SLP034 T01610089,KSTP,2022-10-23T10:53:00Z,44.93,-93.05,16.1,8.9,140,9,,10.0,29.639763,1003.4,,TRUE,TRUE,,,,,,,CLR,,,,,,,,VFR,,,,,,,,,,,,METAR,213.0
KSTJ 231053Z AUTO 15010KT 10SM CLR 18/13 A2955 RMK AO2 SLP998 T01780128,KSTJ,2022-10-23T10:53:00Z,39.77,-94.92,17.8,12.8,150,10,,10.0,29.551182,999.8,,TRUE,TRUE,,,,,,,CLR,,,,,,,,VFR,,,,,,,,,,,,METAR,247.0
KSTC 231053Z AUTO 12007KT 10SM CLR 14/07 A2960 RMK AO2 SLP028 T01390072,KSTC,2022-10-23T10:53:00Z,45.55,-94.05,13.9,7.2,120,7,,10.0,29.601377,1002.8,,TRUE,TRUE,,,,,,,CLR,,,,,,,,VFR,,,,,,,,,,,,METAR,302.0
KSSI 231053Z AUTO 34005KT 10SM CLR 14/10 A3012 RMK AO2 SLP200 T01390100,KSSI,2022-10-23T10:53:00Z,31.15,-81.38,13.9,10.0,340,5,,10.0,30.121063,1020.0,,TRUE,TRUE,,,,,,,CLR,,,,,,,,VFR,,,,,,,,,,,,METAR,6.0
KSSF 231053Z AUTO 12004KT 10SM FEW019 19/18 A2983 RMK AO2 SLP093 T01890183,KSSF,2022-10-23T10:53:00Z,29.33,-98.47,18.9,18.3,120,4,,10.0,29.828741,1009.3,,TRUE,TRUE,,,,,,,FEW,1900,,,,,,,VFR,,,,,,,,,,,,METAR,175.0
KSRQ 231053Z 06005KT 10SM CLR 17/15 A3006 RMK AO2 SLP180 T01720150,KSRQ,2022-10-23T10:53:00Z,27.4,-82.57,17.2,15.0,60,5,,10.0,30.059055,1018.0,,,TRUE,,,,,,,CLR,,,,,,,,VFR,,,,,,,,,,,,METAR,5.0
KSPW 231053Z AUTO 13014KT 10SM CLR 15/09 A2953 RMK AO2 SLP992 T01500089,KSPW,2022-10-23T10:53:00Z,43.17,-95.22,15.0,8.9,130,14,,10.0,29.530512,999.2,,TRUE,TRUE,,,,,,,CLR,,,,,,,,VFR,,,,,,,,,,,,METAR,407.0
KSPG 231053Z 05009KT 10SM CLR 19/18 A3008 RMK AO2 SLP185 T01940178,KSPG,2022-10-23T10:53:00Z,27.77,-82.63,19.4,17.8,50,9,,10.0,30.079725,1018.5,,,TRUE,,,,,,,CLR,,,,,,,,VFR,,,,,,,,,,,,METAR,1.0
KSPB 231053Z AUTO 00000KT 10SM OVC047 07/06 A2998 RMK AO2 SLP152 T00670061,KSPB,2022-10-23T10:53:00Z,45.77,-122.87,6.7,6.1,0,0,,10.0,29.97933,1015.2,,TRUE,TRUE,,,,,,,OVC,4700,,,,,,,VFR,,,,,,,,,,,,METAR,15.0
KSNY 231053Z AUTO 26010KT 10SM CLR 04/M07 A2927 RMK AO2 SLP877 T00391067,KSNY,2022-10-23T10:53:00Z,41.1,-102.98,3.9,-6.7,260,10,,10.0,29.27067,987.7,,TRUE,TRUE,,,,,,,CLR,,,,,,,,VFR,,,,,,,,,,,,SPECI,1307.0
KSNS 231053Z AUTO 33005KT 10SM CLR 11/07 A2989 RMK AO2 SLP130 T01060067,KSNS,2022-10-23T10:53:00Z,36.67,-121.6,10.6,6.7,330,5,,10.0,29.890747,1013.0,,TRUE,TRUE,,,,,,,CLR,,,,,,,,VFR,,,,,,,,,,,,METAR,20.0
KSNA 231053Z AUTO 11005KT 10SM SCT035 18/11 A2978 RMK AO2 SLP084 T01780111,KSNA,2022-10-23T10:53:00Z,33.67,-117.87,17.8,11.1,110,5,,10.0,29.778543,1008.4,,TRUE,TRUE,,,,,,,SCT,3500,,,,,,,VFR,,,,,,,,,,,,METAR,14.0
KSMQ 231053Z AUTO 34003KT 10SM OVC044 11/07 A3027 RMK AO2 SLP250 T01060067,KSMQ,2022-10-23T10:53:00Z,40.62,-74.67,10.6,6.7,340,3,,10.0,30.268702,1025.0,,TRUE,TRUE,,,,,,,OVC,4400,,,,,,,VFR,,,,,,,,,,,,METAR,30.0
KSMF 231053Z 35010KT 10SM CLR 13/01 A2985 RMK AO2 SLP108 T01280006,KSMF,2022-10-23T10:53:00Z,38.7,-121.6,12.8,0.6,350,10,,10.0,29.84941,1010.8,,,TRUE,,,,,,,CLR,,,,,,,,VFR,,,,,,,,,,,,METAR,7.0
KSLN 231053Z AUTO 17014G24KT 10SM CLR 21/11 A2944 RMK AO2 SLP954 T02060111,KSLN,2022-10-23T10:53:00Z,38.8,-97.65,20.6,11.1,170,14,24,10.0,29.438976,995.4,,TRUE,TRUE,,,,,,,CLR,,,,,,,,VFR,,,,,,,,,,,,METAR,377.0
KSJC 231053Z AUTO 08003KT 10SM CLR 12/06 A2990 RMK AO2 SLP125 T01170061,KSJC,2022-10-23T10:53:00Z,37.37,-121.92,11.7,6.1,80,3,,10.0,29.899607,1012.5,,TRUE,TRUE,,,,,,,CLR,,,,,,,,VFR,,,,,,,,,,,,METAR,13.0
KSIY 231053Z AUTO 00000KT 10SM FEW043 01/00 A2999 RMK AO2 SLP170 T00110000,KSIY,2022-10-23T10:53:00Z,41.77,-122.47,1.1,0.0,0,0,,10.0,29.991142,1017.0,,TRUE,TRUE,,,,,,,FEW,4300,,,,,,,VFR,,,,,,,,,,,,METAR,807.0
KSHR 231053Z AUTO 31016KT 10SM -RA SCT014 BKN019 OVC035 06/04 A2943 RMK AO2 SLP960 P0003 T00560039,KSHR,2022-10-23T10:53:00Z,44.77,-106.97,5.6,3.9,310,16,,10.0,29.430119,996.0,,TRUE,TRUE,,,,,,-RA,SCT,1400,BKN,1900,OVC,3500,,,MVFR,,,,,,0.03,,,,,,METAR,1212.0
KSGR 231053Z 14004KT 10SM SCT038 BKN055 21/18 A2991 RMK AO2 SLP128 T02110183,KSGR,2022-10-23T10:53:00Z,29.62,-95.65,21.1,18.3,140,4,,10.0,29.911417,1012.8,,,TRUE,,,,,,,SCT,3800,BKN,5500,,,,,VFR,,,,,,,,,,,,METAR,22.0
KSFF 231053Z AUTO 06003KT 10SM OVC085 02/00 A2981 RMK AO2 SLP101 T00220000,KSFF,2022-10-23T10:53:00Z,47.68,-117.32,2.2,0.0,60,3,,10.0,29.811024,1010.1,,TRUE,TRUE,,,,,,,OVC,8500,,,,,,,VFR,,,,,,,,,,,,METAR,593.0
KSFB 231053Z 33004KT 10SM CLR 17/15 A3009 RMK AO2 SLP188 T01670150,KSFB,2022-10-23T10:53:00Z,28.77,-81.23,16.7,15.0,330,4,,10.0,30.088583,1018.8,,,TRUE,,,,,,,CLR,,,,,,,,VFR,,,,,,,,,,,,METAR,16.0
KSEG 231053Z AUTO 00000KT 5SM HZ CLR 00/ A3031 RMK AO2 SLP268 T0000,KSEG,2022-10-23T10:53:00Z,40.82,-76.87,0.0,,0,0,,5.0,30.31004,1026.8,,TRUE,TRUE,,,,,,HZ,CLR,,,,,,,,MVFR,,,,,,,,,,,,METAR,136.0
KSEA 231053Z 13003KT 10SM FEW027 FEW037 OVC060 07/05 A2997 RMK AO2 SLP158 T00670050 $,KSEA,2022-10-23T10:53:00Z,47.45,-122.32,6.7,5.0,130,3,,10.0,29.970472,1015.8,,,TRUE,TRUE,,,,,,FEW,2700,FEW,3700,OVC,6000,,,VFR,,,,,,,,,,,,METAR,115.0
KSDM 231053Z AUTO 28007KT 10SM FEW020 SCT037 16/13 A2981 RMK AO2 SLP092 T01560133,KSDM,2022-10-23T10:53:00Z,32.58,-117.0,15.6,13.3,280,7,,10.0,29.811024,1009.2,,TRUE,TRUE,,,,,,,FEW,2000,SCT,3700,,,,,VFR,,,,,,,,,,,,METAR,161.0
KSDL 231053Z AUTO 23006G16KT 10SM SCT042 BKN050 21/13 A2970 RMK AO2 SLP035 T02110128,KSDL,2022-10-23T10:53:00Z,33.62,-111.92,21.1,12.8,230,6,16,10.0,29.698818,1003.5,,TRUE,TRUE,,,,,,,SCT,4200,BKN,5000,,,,,VFR,,,,,,,,,,,,METAR,438.0
KSBM 231053Z AUTO 16005KT 10SM CLR 13/12 A2990 RMK AO2 SLP125 T01280117,KSBM,2022-10-23T10:53:00Z,43.78,-87.85,12.8,11.7,160,5,,10.0,29.899607,1012.5,,TRUE,TRUE,,,,,,,CLR,,,,,,,,VFR,,,,,,,,,,,,SPECI,225.0
KSAV 231053Z 01004KT 10SM CLR 11/08 A3016 RMK AO2 SLP211 T01060083,KSAV,2022-10-23T10:53:00Z,32.12,-81.2,10.6,8.3,10,4,,10.0,30.159449,1021.1,,,TRUE,,,,,,,CLR,,,,,,,,VFR,,,,,,,,,,,,METAR,10.0
KSAF 231053Z AUTO 26005KT 10SM SCT065 10/08 A2973 RMK AO2 SLP982 T01000078,KSAF,2022-10-23T10:53:00Z,35.62,-106.1,10.0,7.8,260,5,,10.0,29.731298,998.2,,TRUE,TRUE,,,,,,,SCT,6500,,,,,,,VFR,,,,,,,,,,,,METAR,1918.0
KSAC 231053Z AUTO 33007KT 10SM CLR 13/01 A2985 RMK AO2 SLP109 T01280006,KSAC,2022-10-23T10:53:00Z,38.5,-121.5,12.8,0.6,330,7,,10.0,29.84941,1010.9,,TRUE,TRUE,,,,,,,CLR,,,,,,,,VFR,,,,,,,,,,,,METAR,5.0
KRXE 231053Z AUTO 20005KT 10SM BKN004 OVC060 01/M01 A2960 RMK AO2 SLP027 T00111006,KRXE,2022-10-23T10:53:00Z,43.83,-111.8,1.1,-0.6,200,5,,10.0,29.601377,1002.7,,TRUE,TRUE,,,,,,,BKN,400,OVC,6000,,,,,LIFR,,,,,,,,,,,,METAR,1483.0
KRWI 231053Z AUTO 35007KT 10SM CLR 12/07 A3016 RMK AO2 SLP213 T01170067,KRWI,2022-10-23T10:53:00Z,35.85,-77.9,11.7,6.7,350,7,,10.0,30.159449,1021.3,,TRUE,TRUE,,,,,,,CLR,,,,,,,,VFR,,,,,,,,,,,,METAR,46.0
KRWF 231053Z AUTO 12011KT 10SM CLR 12/07 A2953 RMK AO2 SLP997 T01220072,KRWF,2022-10-23T10:53:00Z,44.55,-95.08,12.2,7.2,120,11,,10.0,29.530512,999.7,,TRUE,TRUE,,,,,,,CLR,,,,,,,,VFR,,,,,,,,,,,,METAR,312.0
KRVS 231053Z AUTO 18010G19KT 10SM CLR 22/14 A2969 RMK AO2 SLP058 T02170144,KRVS,2022-10-23T10:53:00Z,36.05,-95.98,21.7,14.4,180,10,19,10.0,29.68996,1005.8,,TRUE,TRUE,,,,,,,CLR,,,,,,,,VFR,,,,,,,,,,,,METAR,191.0
KRUE 231053Z AUTO VRB03KT 10SM OVC032 21/15 A2989 RMK AO2 SLP114 T02110150,KRUE,2022-10-23T10:53:00Z,35.25,-93.1,21.1,15.0,0,3,,10.0,29.890747,1011.4,,TRUE,TRUE,,,,,,,OVC,3200,,,,,,,VFR,,,,,,,,,,,,METAR,119.0
KRTN 231053Z AUTO 18013KT 10SM FEW090 09/07 A2963 RMK AO2 RAB23E37 SLP957 P0000 T00940067,KRTN,2022-10-23T10:53:00Z,36.73,-104.5,9.4,6.7,180,13,,10.0,29.630905,995.7,,TRUE,TRUE,,,,,,,FEW,9000,,,,,,,VFR,,,,,,0.005,,,,,,METAR,1939.0
KRSW 231053Z 02004KT 10SM CLR 18/17 A3006 RMK AO2 SLP176 T01830172,KRSW,2022-10-23T10:53:00Z,26.53,-81.75,18.3,17.2,20,4,,10.0,30.059055,1017.6,,,TRUE,,,,,,,CLR,,,,,,,,VFR,,,,,,,,,,,,METAR,8.0
KRSL 231053Z AUTO 18011KT 10SM CLR 17/08 A2939 RMK AO2 SLP934 T01720078,KRSL,2022-10-23T10:53:00Z,38.87,-98.82,17.2,7.8,180,11,,10.0,29.388779,993.4,,TRUE,TRUE,,,,,,,CLR,,,,,,,,VFR,,,,,,,,,,,,METAR,569.0
KRQE 231053Z AUTO 23020G33KT 10SM BKN065 10/02 A2971 RMK AO2 PK WND 23034/1043 SLP965 T01000017 $,KRQE,2022-10-23T10:53:00Z,35.65,-109.07,10.0,1.7,230,20,33,10.0,29.71063,996.5,,TRUE,TRUE,TRUE,,,,,,BKN,6500,,,,,,,VFR,,,,,,,,,,,,METAR,2056.0
KRNM 231053Z AUTO 27010KT 10SM FEW006 BKN015 OVC019 14/13 A2981 RMK AO2 RAE39 SLP084 P0005 T01390128,KRNM,2022-10-23T10:53:00Z,33.03,-116.92,13.9,12.8,270,10,,10.0,29.811024,1008.4,,TRUE,TRUE,,,,,,,FEW,600,BKN,1500,OVC,1900,,,MVFR,,,,,,0.05,,,,,,METAR,423.0
KRMG 231053Z AUTO 02004KT 9SM CLR 06/04 A3021 RMK AO2 SLP225 T00610044,KRMG,2022-10-23T10:53:00Z,34.35,-85.17,6.1,4.4,20,4,,9.0,30.209646,1022.5,,TRUE,TRUE,,,,,,,CLR,,,,,,,,VFR,,,,,,,,,,,,METAR,196.0
KRME 231053Z 12003KT 10SM CLR 03/01 A3033 RMK AO2 SLP271 T00280011,KRME,2022-10-23T10:53:00Z,43.22,-75.4,2.8,1.1,120,3,,10.0,30.33071,1027.1,,,TRUE,,,,,,,CLR,,,,,,,,VFR,,,,,,,,,,,,SPECI,146.0
KRKP 231053Z AUTO 17009G18KT 10SM FEW055 25/21 A2986 RMK AO2 SLP111 T02500206,KRKP,2022-10-23T10:53:00Z,28.08,-97.05,25.0,20.6,170,9,18,10.0,29.861221,1011.1,,TRUE,TRUE,,,,,,,FEW,5500,,,,,,,VFR,,,,,,,,,,,,METAR,8.0
KRIW 231053Z AUTO 30012KT 10SM -RA OVC065 05/M07 A2942 RMK AO2 SLP929 P0000 T00501067 $,KRIW,2022-10-23T10:53:00Z,43.07,-108.43,5.0,-6.7,300,12,,10.0,29.421259,992.9,,TRUE,TRUE,TRUE,,,,,-RA,OVC,6500,,,,,,,VFR,,,,,,0.005,,,,,,METAR,1662.0
KRHI 231053Z AUTO 15004KT 10SM CLR 12/08 A2985 RMK AO2 SLP106 T01220083,KRHI,2022-10-23T10:53:00Z,45.63,-89.48,12.2,8.3,150,4,,10.0,29.84941,1010.6,,TRUE,TRUE,,,,,,,CLR,,,,,,,,VFR,,,,,,,,,,,,METAR,493.0
KRBG 231053Z AUTO 16003KT 10SM SCT003 OVC080 07/06 A3003 RMK AO2 SLP172 T00720061,KRBG,2022-10-23T10:53:00Z,43.23,-123.35,7.2,6.1,160,3,,10.0,30.029528,1017.2,,TRUE,TRUE,,,,,,,SCT,300,OVC,8000,,,,,VFR,,,,,,,,,,,,METAR,152.0
KRBD 231053Z AUTO 18017G28KT 10SM OVC020 21/17 A2980 RMK AO2 PK WND 19029/1020 SLP083 T02110172,KRBD,2022-10-23T10:53:00Z,32.68,-96.87,21.1,17.2,180,17,28,10.0,29.799213,1008.3,,TRUE,TRUE,,,,,,,OVC,2000,,,,,,,MVFR,,,,,,,,,,,,METAR,200.0
KRAL 231053Z AUTO 00000KT 10SM CLR 14/12 A2979 RMK AO2 SLP075 T01440122 $,KRAL,2022-10-23T10:53:00Z,33.95,-117.45,14.4,12.2,0,0,,10.0,29.790354,1007.5,,TRUE,TRUE,TRUE,,,,,,CLR,,,,,,,,VFR,,,,,,,,,,,,METAR,254.0
KRAC 231053Z AUTO 17008KT 10SM CLR 14/11 A2993 RMK AO2 SLP133 T01390111,KRAC,2022-10-23T10:53:00Z,42.77,-87.82,13.9,11.1,170,8,,10.0,29.929134,1013.3,,TRUE,TRUE,,,,,,,CLR,,,,,,,,VFR,,,,,,,,,,,,SPECI,203.0
KPWA 231053Z AUTO 18018G28KT 10SM CLR 22/12 A2965 RMK AO2 PK WND 17028/1046 SLP023 T02170122,KPWA,2022-10-23T10:53:00Z,35.53,-97.65,21.7,12.2,180,18,28,10.0,29.648623,1002.3,,TRUE,TRUE,,,,,,,CLR,,,,,,,,VFR,,,,,,,,,,,,METAR,390.0
KPUW 231053Z AUTO 00000KT 10SM CLR 01/01 A2982 RMK AO2 SLP110 T00060006 $,KPUW,2022-10-23T10:53:00Z,46.75,-117.12,0.6,0.6,0,0,,10.0,29.819881,1011.0,,TRUE,TRUE,TRUE,,,,,,CLR,,,,,,,,VFR,,,,,,,,,,,,METAR,774.0
KPUC 231053Z AUTO 23003KT 10SM FEW043 02/00 A2952 RMK AO2 SLP985 T00220000,KPUC,2022-10-23T10:53:00Z,39.62,-110.75,2.2,0.0,230,3,,10.0,29.518702,998.5,,TRUE,TRUE,,,,,,,FEW,4300,,,,,,,VFR,,,,,,,,,,,,METAR,1777.0
KPUB 231053Z AUTO 25017G37KT 10SM CLR 20/M02 A2942 RMK AO2 PK WND 24038/1030 SLP891 T02001022,KPUB,2022-10-23T10:53:00Z,38.28,-104.5,20.0,-2.2,250,17,37,10.0,29.421259,989.1,,TRUE,TRUE,,,,,,,CLR,,,,,,,,VFR,,,,,,,,,,,,METAR,1441.0
KPTK 231053Z 00000KT 8SM BCFG CLR 08/07 A3013 RMK AO2 SLP202 T00780067 $,KPTK,2022-10-23T10:53:00Z,42.67,-83.42,7.8,6.7,0,0,,8.0,30.129921,1020.2,,,TRUE,TRUE,,,,,BCFG,CLR,,,,,,,,VFR,,,,,,,,,,,,METAR,295.0
KPSX 231053Z AUTO 10SM BKN055 22/20 A2988 RMK AO2 SLP117 T02220200,KPSX,2022-10-23T10:53:00Z,28.72,-96.25,22.2,20.0,,,,10.0,29.878937,1011.7,,TRUE,TRUE,,,,,,,BKN,5500,,,,,,,VFR,,,,,,,,,,,,METAR,4.0
KPSP 231053Z AUTO 00000KT 10SM CLR 18/11 A2972 RMK AO2 SLP061 T01780106 $,KPSP,2022-10-23T10:53:00Z,33.82,-116.5,17.8,10.6,0,0,,10.0,29.719488,1006.1,,TRUE,TRUE,TRUE,,,,,,CLR,,,,,,,,VFR,,,,,,,,,,,,METAR,123.0
KPSC 231053Z AUTO 00000KT 10SM BKN095 OVC110 05/03 A2988 RMK AO2 SLP120 T00500028 $,KPSC,2022-10-23T10:53:00Z,46.27,-119.12,5.0,2.8,0,0,,10.0,29.878937,1012.0,,TRUE,TRUE,TRUE,,,,,,BKN,9500,OVC,11000,,,,,VFR,,,,,,,,,,,,METAR,121.0
KPRC 231053Z AUTO 24014G20KT 7SM -RA FEW039 BKN050 OVC070 09/06 A2975 RMK AO2 PK WND 24026/1023 SLP017 P0001 T00940056,KPRC,2022-10-23T10:53:00Z,34.65,-112.42,9.4,5.6,240,14,20,7.0,29.749016,1001.7,,TRUE,TRUE,,,,,,-RA,FEW,3900,BKN,5000,OVC,7000,,,VFR,,,,,,0.01,,,,,,METAR,1528.0
KPRB 231053Z AUTO 31005KT 10SM CLR 08/04 A2990 RMK AO2 SLP122 T00780044,KPRB,2022-10-23T10:53:00Z,35.67,-120.63,7.8,4.4,310,5,,10.0,29.899607,1012.2,,TRUE,TRUE,,,,,,,CLR,,,,,,,,VFR,,,,,,,,,,,,METAR,249.0
KPOU 231053Z 00000KT 10SM FEW030 SCT045 05/04 A3032 RMK AO2 SLP264 T00500039,KPOU,2022-10-23T10:53:00Z,41.63,-73.88,5.0,3.9,0,0,,10.0,30.318897,1026.4,,,TRUE,,,,,,,FEW,3000,SCT,4500,,,,,VFR,,,,,,,,,,,,METAR,45.0
KPOF 231053Z AUTO 16012G19KT 10SM CLR 17/12 A2994 RMK AO2 SLP137 T01720117 $,KPOF,2022-10-23T10:53:00Z,36.77,-90.32,17.2,11.7,160,12,19,10.0,29.940945,1013.7,,TRUE,TRUE,TRUE,,,,,,CLR,,,,,,,,VFR,,,,,,,,,,,,METAR,99.0
KPNS 231053Z 04005KT 10SM CLR 13/09 A3013 RMK AO2 SLP206 T01280094,KPNS,2022-10-23T10:53:00Z,30.48,-87.18,12.8,9.4,40,5,,10.0,30.129921,1020.6,,,TRUE,,,,,,,CLR,,,,,,,,VFR,,,,,,,,,,,,METAR,34.0
KPNC 231053Z AUTO 17013G23KT 10SM CLR 23/12 A2959 RMK AO2 SLP005 T02330122,KPNC,2022-10-23T10:53:00Z,36.73,-97.1,23.3,12.2,170,13,23,10.0,29.589567,1000.5,,TRUE,TRUE,,,,,,,CLR,,,,,,,,VFR,,,,,,,,,,,,METAR,304.0
KPMP 231053Z AUTO 32004KT 10SM CLR 19/18 A3003 RMK AO2 SLP169 T01940183,KPMP,2022-10-23T10:53:00Z,26.25,-80.12,19.4,18.3,320,4,,10.0,30.029528,1016.9,,TRUE,TRUE,,,,,,,CLR,,,,,,,,VFR,,,,,,,,,,,,METAR,4.0
KPMD 231053Z AUTO 28019KT 10SM CLR 12/03 A2979 RMK AO2 PK WND 26029/0957 SLP072 T01170028,KPMD,2022-10-23T10:53:00Z,34.63,-118.08,11.7,2.8,280,19,,10.0,29.790354,1007.2,,TRUE,TRUE,,,,,,,CLR,,,,,,,,VFR,,,,,,,,,,,,METAR,764.0
KPKD 231053Z AUTO 10004KT 10SM CLR 07/05 A2956 RMK AO2 SLP014 T00720050,KPKD,2022-10-23T10:53:00Z,46.9,-95.07,7.2,5.0,100,4,,10.0,29.56004,1001.4,,TRUE,TRUE,,,,,,,CLR,,,,,,,,VFR,,,,,,,,,,,,METAR,439.0
KPKB 231053Z 00000KT 10SM CLR 06/05 A3022 RMK AO2 SLP231 T00610050,KPKB,2022-10-23T10:53:00Z,39.35,-81.43,6.1,5.0,0,0,,10.0,30.221457,1023.1,,,TRUE,,,,,,,CLR,,,,,,,,VFR,,,,,,,,,,,,SPECI,245.0
KPIR 231053Z AUTO 05007KT 10SM CLR 04/01 A2930 RMK AO2 SLP922 T00390011,KPIR,2022-10-23T10:53:00Z,44.38,-100.28,3.9,1.1,50,7,,10.0,29.300198,992.2,,TRUE,TRUE,,,,,,,CLR,,,,,,,,VFR,,,,,,,,,,,,METAR,524.0
KPIL 231053Z AUTO 16005KT 10SM FEW030 22/21 A2985 RMK AO2 SLP107 T02220206,KPIL,2022-10-23T10:53:00Z,26.17,-97.33,22.2,20.6,160,5,,10.0,29.84941,1010.7,,TRUE,TRUE,,,,,,,FEW,3000,,,,,,,VFR,,,,,,,,,,,,METAR,5.0
KPIH 231053Z AUTO 23011KT 10SM OVC014 02/M01 A2965 RMK AO2 SLP044 T00171011 $,KPIH,2022-10-23T10:53:00Z,42.92,-112.57,1.7,-1.1,230,11,,10.0,29.648623,1004.4,,TRUE,TRUE,TRUE,,,,,,OVC,1400,,,,,,,MVFR,,,,,,,,,,,,METAR,1357.0
KPIE 231053Z 06005KT 10SM CLR 18/16 A3010 RMK AO2 SLP191 T01830161,KPIE,2022-10-23T10:53:00Z,27.92,-82.68,18.3,16.1,60,5,,10.0,30.100393,1019.1,,,TRUE,,,,,,,CLR,,,,,,,,VFR,,,,,,,,,,,,METAR,1.0
KPHD 231053Z AUTO 00000KT 10SM CLR 06/04 A3022 RMK AO2 SLP235 T00560044,KPHD,2022-10-23T10:53:00Z,40.47,-81.42,5.6,4.4,0,0,,10.0,30.221457,1023.5,,TRUE,TRUE,,,,,,,CLR,,,,,,,,VFR,,,,,,,,,,,,METAR,272.0
KPGD 231053Z 04005KT 10SM CLR 17/16 A3008 RMK AO2 SLP185 T01670161,KPGD,2022-10-23T10:53:00Z,26.92,-82.0,16.7,16.1,40,5,,10.0,30.079725,1018.5,,,TRUE,,,,,,,CLR,,,,,,,,VFR,,,,,,,,,,,,METAR,7.0
KPGA 231053Z AUTO 28007KT 8SM -RA OVC036 07/04 A2961 RMK AO2 SLP981 P0005 T00720044 $,KPGA,2022-10-23T10:53:00Z,36.92,-111.45,7.2,4.4,280,7,,8.0,29.610237,998.1,,TRUE,TRUE,TRUE,,,,,-RA,OVC,3600,,,,,,,VFR,,,,,,0.05,,,,,,METAR,1310.0
KPEO 231053Z AUTO 21007KT 10SM CLR 07/04 A3028 RMK AO2 SLP256 T00720044,KPEO,2022-10-23T10:53:00Z,42.65,-77.05,7.2,4.4,210,7,,10.0,30.280512,1025.6,,TRUE,TRUE,,,,,,,CLR,,,,,,,,VFR,,,,,,,,,,,,METAR,268.0
KPDX 231053Z 21007KT 10SM FEW028 SCT035 BKN050 09/07 A2999 RMK AO2 SLP156 T00940067,KPDX,2022-10-23T10:53:00Z,45.6,-122.62,9.4,6.7,210,7,,10.0,29.991142,1015.6,,,TRUE,,,,,,,FEW,2800,SCT,3500,BKN,5000,,,VFR,,,,,,,,,,,,METAR,7.0
KPDT 231053Z AUTO 27013KT 10SM BKN060 OVC085 07/02 A2987 RMK AO2 SLP112 T00670022,KPDT,2022-10-23T10:53:00Z,45.7,-118.83,6.7,2.2,270,13,,10.0,29.870079,1011.2,,TRUE,TRUE,,,,,,,BKN,6000,OVC,8500,,,,,VFR,,,,,,,,,,,,METAR,453.0
KPDK 231053Z 00000KT 7SM CLR 04/03 A3021 RMK AO2 SLP234 T00390033,KPDK,2022-10-23T10:53:00Z,33.88,-84.3,3.9,3.3,0,0,,7.0,30.209646,1023.4,,,TRUE,,,,,,,CLR,,,,,,,,VFR,,,,,,,,,,,,METAR,299.0
KPBI 231053Z 00000KT 10SM FEW025 SCT045 SCT250 19/18 A3004 RMK AO2 SLP172 T01940178 $,KPBI,2022-10-23T10:53:00Z,26.68,-80.1,19.4,17.8,0,0,,10.0,30.041338,1017.2,,,TRUE,TRUE,,,,,,FEW,2500,SCT,4500,SCT,25000,,,VFR,,,,,,,,,,,,METAR,4.0
KPBG 231053Z AUTO 00000KT 10SM CLR 02/02 A3032 RMK AO2 SLP269 T00220017,KPBG,2022-10-23T10:53:00Z,44.65,-73.47,2.2,1.7,0,0,,10.0,30.318897,1026.9,,TRUE,TRUE,,,,,,,CLR,,,,,,,,VFR,,,,,,,,,,,,METAR,61.0
KPBF 231053Z AUTO 17011KT 10SM SCT043 19/14 A2998 RMK AO2 SLP150 T01890139,KPBF,2022-10-23T10:53:00Z,34.18,-91.93,18.9,13.9,170,11,,10.0,29.97933,1015.0,,TRUE,TRUE,,,,,,,SCT,4300,,,,,,,VFR,,,,,,,,,,,,METAR,63.0
KPAH 231053Z 17010G16KT 10SM CLR 19/11 A3001 RMK AO2 SLP159 T01890111,KPAH,2022-10-23T10:53:00Z,37.07,-88.77,18.9,11.1,170,10,16,10.0,30.008858,1015.9,,,TRUE,,,,,,,CLR,,,,,,,,VFR,,,,,,,,,,,,METAR,125.0
KPAE 231053Z AUTO 00000KT 10SM BKN006 OVC055 07/05 A2997 RMK AO2 SLP152 T00720050,KPAE,2022-10-23T10:53:00Z,47.92,-122.28,7.2,5.0,0,0,,10.0,29.970472,1015.2,,TRUE,TRUE,,,,,,,BKN,600,OVC,5500,,,,,IFR,,,,,,,,,,,,METAR,166.0
KP68 231053Z AUTO 00000KT M02/M03 A2977 RMK AO1 SLP077 P0001 T10221028,KP68,2022-10-23T10:53:00Z,39.6,-116.0,-2.2,-2.8,0,0,,,29.769686,1007.7,,TRUE,TRUE,,,,,,,,,,,,,,,,,,,,,0.01,,,,,,METAR,1813.0
KOWD 231053Z 00000KT 9SM CLR 06/06 A3034 RMK AO2 SLP272 T00610061,KOWD,2022-10-23T10:53:00Z,42.18,-71.17,6.1,6.1,0,0,,9.0,30.339567,1027.2,,,TRUE,,,,,,,CLR,,,,,,,,VFR,,,,,,,,,,,,SPECI,14.0
KOVS 231053Z AUTO 10SM CLR 16/12 A2978 RMK AO2 SLP083 T01610117 $,KOVS,2022-10-23T10:53:00Z,43.15,-90.68,16.1,11.7,,,,10.0,29.778543,1008.3,,TRUE,TRUE,TRUE,,,,,,CLR,,,,,,,,VFR,,,,,,,,,,,,METAR,205.0
KOVE 231053Z AUTO 32008KT 10SM CLR 12/M01 A2988 RMK AO2 SLP119 T01171006,KOVE,2022-10-23T10:53:00Z,39.5,-121.62,11.7,-0.6,320,8,,10.0,29.878937,1011.9,,TRUE,TRUE,,,,,,,CLR,,,,,,,,VFR,,,,,,,,,,,,METAR,56.0
KOTM 231053Z AUTO 16016G25KT 10SM CLR 18/12 A2968 RMK AO2 RAB41E49 SLP043 P0000 T01780117,KOTM,2022-10-23T10:53:00Z,41.1,-92.45,17.8,11.7,160,16,25,10.0,29.681103,1004.3,,TRUE,TRUE,,,,,,,CLR,,,,,,,,VFR,,,,,,0.005,,,,,,METAR,254.0
KOSU 231053Z 12003KT 10SM CLR 12/07 A3017 RMK AO2 SLP213 T01170072,KOSU,2022-10-23T10:53:00Z,40.08,-83.08,11.7,7.2,120,3,,10.0,30.171259,1021.3,,,TRUE,,,,,,,CLR,,,,,,,,VFR,,,,,,,,,,,,SPECI,276.0
KOSH 231053Z 15006KT 10SM CLR 11/09 A2987 RMK AO2 SLP109 T01110094,KOSH,2022-10-23T10:53:00Z,43.98,-88.55,11.1,9.4,150,6,,10.0,29.870079,1010.9,,,TRUE,,,,,,,CLR,,,,,,,,VFR,,,,,,,,,,,,SPECI,239.0
KORL 231053Z 33004KT 10SM CLR 17/14 A3009 RMK AO2 SLP191 T01720144,KORL,2022-10-23T10:53:00Z,28.55,-81.33,17.2,14.4,330,4,,10.0,30.088583,1019.1,,,TRUE,,,,,,,CLR,,,,,,,,VFR,,,,,,,,,,,,METAR,32.0
KOPF 231053Z 34006KT 10SM CLR 20/18 A3003 RMK AO2 SLP171 T02000183,KOPF,2022-10-23T10:53:00Z,25.92,-80.28,20.0,18.3,340,6,,10.0,30.029528,1017.1,,,TRUE,,,,,,,CLR,,,,,,,,VFR,,,,,,,,,,,,METAR,1.0
KONT 231053Z 20004KT 10SM FEW015 FEW022 SCT055 SCT140 14/13 A2979 RMK AO2 SLP080 T01440128 $,KONT,2022-10-23T10:53:00Z,34.05,-117.58,14.4,12.8,200,4,,10.0,29.790354,1008.0,,,TRUE,TRUE,,,,,,FEW,1500,FEW,2200,SCT,5500,SCT,14000,VFR,,,,,,,,,,,,METAR,279.0
KONO 231053Z AUTO 23007KT 10SM CLR 03/M01 A2984 RMK AO2 SLP111 T00331011,KONO,2022-10-23T10:53:00Z,44.02,-117.02,3.3,-1.1,230,7,,10.0,29.840551,1011.1,,TRUE,TRUE,,,,,,,CLR,,,,,,,,VFR,,,,,,,,,,,,METAR,668.0
KOMK 231053Z AUTO 30006KT 10SM CLR 02/M03 A2987 RMK AO2 SLP119 T00221028,KOMK,2022-10-23T10:53:00Z,48.47,-119.52,2.2,-2.8,300,6,,10.0,29.870079,1011.9,,TRUE,TRUE,,,,,,,CLR,,,,,,,,VFR,,,,,,,,,,,,METAR,395.0
KOJC 231053Z AUTO 17013G20KT 10SM CLR 20/13 A2959 RMK AO2 SLP008 T02000128,KOJC,2022-10-23T10:53:00Z,38.85,-94.73,20.0,12.8,170,13,20,10.0,29.589567,1000.8,,TRUE,TRUE,,,,,,,CLR,,,,,,,,VFR,,,,,,,,,,,,METAR,328.0
KOGD 231053Z AUTO 32008KT 10SM OVC100 04/02 A2959 RMK AO2 SLP009 T00440022,KOGD,2022-10-23T10:53:00Z,41.2,-112.02,4.4,2.2,320,8,,10.0,29.589567,1000.9,,TRUE,TRUE,,,,,,,OVC,10000,,,,,,,VFR,,,,,,,,,,,,METAR,1356.0
KOGB 231053Z AUTO 00000KT 10SM CLR 09/08 A3019 RMK AO2 SLP222 T00890078,KOGB,2022-10-23T10:53:00Z,33.47,-80.85,8.9,7.8,0,0,,10.0,30.188976,1022.2,,TRUE,TRUE,,,,,,,CLR,,,,,,,,VFR,,,,,,,,,,,,METAR,59.0
KODX 231053Z AUTO 12003KT 10SM CLR 09/06 A2931 RMK AO2 SLP916 T00940061,KODX,2022-10-23T10:53:00Z,41.62,-98.95,9.4,6.1,120,3,,10.0,29.309055,991.6,,TRUE,TRUE,,,,,,,CLR,,,,,,,,VFR,,,,,,,,,,,,METAR,628.0
KODO 231053Z AUTO 18008KT 10SM CLR 18/12 A2977 RMK AO2 SLP037 T01780122,KODO,2022-10-23T10:53:00Z,31.92,-102.4,17.8,12.2,180,8,,10.0,29.769686,1003.7,,TRUE,TRUE,,,,,,,CLR,,,,,,,,VFR,,,,,,,,,,,,METAR,912.0
KOAK 231053Z 02003KT 10SM CLR 12/03 A2990 RMK AO2 SLP126 T01170033,KOAK,2022-10-23T10:53:00Z,37.72,-122.23,11.7,3.3,20,3,,10.0,29.899607,1012.6,,,TRUE,,,,,,,CLR,,,,,,,,VFR,,,,,,,,,,,,METAR,3.0
KNUW 231053Z 10003KT 5SM BR BCFG SCT001 SCT035 05/04 A3001 RMK AO2 SLP163 T00500039 VISNO $,KNUW,2022-10-23T10:53:00Z,48.35,-122.65,5.0,3.9,100,3,,5.0,30.008858,1016.3,,,TRUE,TRUE,,,,,BR BCFG,SCT,100,SCT,3500,,,,,MVFR,,,,,,,,,,,,METAR,14.0
KNUI 231053Z AUTO 04007KT OVC024 16/11 A3017 RMK AO2 SLP216 T01610111,KNUI,2022-10-23T10:53:00Z,38.15,-76.43,16.1,11.1,40,7,,,30.171259,1021.6,,TRUE,TRUE,,,,,,,OVC,2400,,,,,,,,,,,,,,,,,,,METAR,4.0
KNQX 231053Z 05008KT 10SM FEW040 26/20 A3001 RMK AO2 SLP162 T02560200 $,KNQX,2022-10-23T10:53:00Z,24.57,-81.67,25.6,20.0,50,8,,10.0,30.008858,1016.2,,,TRUE,TRUE,,,,,,FEW,4000,,,,,,,VFR,,,,,,,,,,,,METAR,2.0
KNIP 231053Z 32005KT 10SM CLR 15/11 A3013 RMK AO2 SLP197 T01500111 $,KNIP,2022-10-23T10:53:00Z,30.23,-81.67,15.0,11.1,320,5,,10.0,30.129921,1019.7,,,TRUE,TRUE,,,,,,CLR,,,,,,,,VFR,,,,,,,,,,,,SPECI,3.0
KNEW 231053Z AUTO 12008KT 7SM CLR 19/15 A3007 RMK AO2 SLP177 T01890150,KNEW,2022-10-23T10:53:00Z,30.05,-90.03,18.9,15.0,120,8,,7.0,30.070866,1017.7,,TRUE,TRUE,,,,,,,CLR,,,,,,,,VFR,,,,,,,,,,,,METAR,1.0
KMYV 231053Z AUTO 34012KT 10SM CLR 12/01 A2987 RMK AO2 SLP117 T01220006 $,KMYV,2022-10-23T10:53:00Z,39.1,-121.57,12.2,0.6,340,12,,10.0,29.870079,1011.7,,TRUE,TRUE,TRUE,,,,,,CLR,,,,,,,,VFR,,,,,,,,,,,,METAR,18.0
KMWL 231053Z AUTO 15009KT 10SM CLR 20/17 A2975 RMK AO2 SLP061 T02000167,KMWL,2022-10-23T10:53:00Z,32.78,-98.07,20.0,16.7,150,9,,10.0,29.749016,1006.1,,TRUE,TRUE,,,,,,,CLR,,,,,,,,VFR,,,,,,,,,,,,METAR,288.0
KMVY 231053Z 06007KT 10SM FEW004 BKN100 15/14 A3030 RMK AO2 SLP261 T01500144,KMVY,2022-10-23T10:53:00Z,41.4,-70.62,15.0,14.4,60,7,,10.0,30.301182,1026.1,,,TRUE,,,,,,,FEW,400,BKN,10000,,,,,VFR,,,,,,,,,,,,SPECI,18.0
KMTO 231053Z AUTO 16012G21KT 10SM SCT075 18/11 A2995 RMK AO2 SLP137 T01830106,KMTO,2022-10-23T10:53:00Z,39.47,-88.27,18.3,10.6,160,12,21,10.0,29.949802,1013.7,,TRUE,TRUE,,,,,,,SCT,7500,,,,,,,VFR,,,,,,,,,,,,METAR,216.0
KMTJ 231053Z AUTO 18012G20KT 7SM RA BKN042 08/06 A2951 RMK AO2 PK WND 22034/1040 WSHFT 1026 SLP931 P0005 T00830056 $,KMTJ,2022-10-23T10:53:00Z,38.5,-107.9,8.3,5.6,180,12,20,7.0,29.509842,993.1,,TRUE,TRUE,TRUE,,,,,RA,BKN,4200,,,,,,,VFR,,,,,,0.05,,,,,,METAR,1755.0
KMTH 231053Z AUTO 04008KT 10SM CLR 23/19 A3001 RMK AO2 SLP161 T02330194 $,KMTH,2022-10-23T10:53:00Z,24.73,-81.05,23.3,19.4,40,8,,10.0,30.008858,1016.1,,TRUE,TRUE,TRUE,,,,,,CLR,,,,,,,,VFR,,,,,,,,,,,,METAR,1.0
KMSY 231053Z 11007KT 10SM CLR 18/15 A3006 RMK AO2 SLP183 T01780150 $,KMSY,2022-10-23T10:53:00Z,30.0,-90.25,17.8,15.0,110,7,,10.0,30.059055,1018.3,,,TRUE,TRUE,,,,,,CLR,,,,,,,,VFR,,,,,,,,,,,,METAR,0.0
KMSS 231053Z AUTO 00000KT 10SM CLR 02/00 A3030 RMK AO2 SLP265 T00170000,KMSS,2022-10-23T10:53:00Z,44.93,-74.85,1.7,0.0,0,0,,10.0,30.301182,1026.5,,TRUE,TRUE,,,,,,,CLR,,,,,,,,VFR,,,,,,,,,,,,METAR,60.0
KMSP 231053Z 13010KT 10SM FEW065 16/08 A2963 RMK AO2 SLP029 T01560078,KMSP,2022-10-23T10:53:00Z,44.88,-93.23,15.6,7.8,130,10,,10.0,29.630905,1002.9,,,TRUE,,,,,,,FEW,6500,,,,,,,VFR,,,,,,,,,,,,METAR,255.0
KMSO 231053Z AUTO 34006KT 10SM BKN036 OVC060 03/01 A2973 RMK AO2 SLP079 T00330006 $,KMSO,2022-10-23T10:53:00Z,46.92,-114.1,3.3,0.6,340,6,,10.0,29.731298,1007.9,,TRUE,TRUE,TRUE,,,,,,BKN,3600,OVC,6000,,,,,VFR,,,,,,,,,,,,METAR,974.0
KMSN 231053Z 16008KT 10SM BKN130 15/11 A2984 RMK AO2 SLP101 T01500111,KMSN,2022-10-23T10:53:00Z,43.13,-89.35,15.0,11.1,160,8,,10.0,29.840551,1010.1,,,TRUE,,,,,,,BKN,13000,,,,,,,VFR,,,,,,,,,,,,METAR,262.0
KMSL 231053Z AUTO 11003KT 10SM CLR 13/09 A3014 RMK AO2 SLP201 T01280089,KMSL,2022-10-23T10:53:00Z,34.75,-87.6,12.8,8.9,110,3,,10.0,30.138779,1020.1,,TRUE,TRUE,,,,,,,CLR,,,,,,,,VFR,,,,,,,,,,,,METAR,170.0
KMRB 231053Z AUTO 00000KT 8SM CLR 02/02 A3026 RMK AO2 SLP251 T00220017 $,KMRB,2022-10-23T10:53:00Z,39.4,-77.98,2.2,1.7,0,0,,8.0,30.259842,1025.1,,TRUE,TRUE,TRUE,,,,,,CLR,,,,,,,,VFR,,,,,,,,,,,,SPECI,165.0
KMPO 231053Z AUTO 03003KT 10SM OVC020 03/03 A3029 RMK AO2 SLP267 T00330028,KMPO,2022-10-23T10:53:00Z,41.13,-75.38,3.3,2.8,30,3,,10.0,30.28937,1026.7,,TRUE,TRUE,,,,,,,OVC,2000,,,,,,,MVFR,,,,,,,,,,,,METAR,576.0
KMOD 231053Z AUTO 30010KT 10SM CLR 13/02 A2984 RMK AO2 SLP105 T01280022 $,KMOD,2022-10-23T10:53:00Z,37.62,-120.95,12.8,2.2,300,10,,10.0,29.840551,1010.5,,TRUE,TRUE,TRUE,,,,,,CLR,,,,,,,,VFR,,,,,,,,,,,,METAR,25.0
KMNN 231053Z AUTO 15007KT 8SM CLR 11/07 A3017 RMK AO2 SLP217 T01060067,KMNN,2022-10-23T10:53:00Z,40.62,-83.07,10.6,6.7,150,7,,8.0,30.171259,1021.7,,TRUE,TRUE,,,,,,,CLR,,,,,,,,VFR,,,,,,,,,,,,SPECI,301.0
KMMK 231053Z AUTO 00000KT 10SM CLR 08/06 A3032 RMK AO2 SLP268 T00830061,KMMK,2022-10-23T10:53:00Z,41.52,-72.83,8.3,6.1,0,0,,10.0,30.318897,1026.8,,TRUE,TRUE,,,,,,,CLR,,,,,,,,VFR,,,,,,,,,,,,SPECI,30.0
KMLU 231053Z 15003KT 10SM CLR 17/14 A3003 RMK AO2 SLP167 T01670144,KMLU,2022-10-23T10:53:00Z,32.52,-92.03,16.7,14.4,150,3,,10.0,30.029528,1016.7,,,TRUE,,,,,,,CLR,,,,,,,,VFR,,,,,,,,,,,,METAR,22.0
KMLT 231053Z AUTO 00000KT 10SM FEW001 03/03 A3036 RMK AO2 SLP289 T00330028,KMLT,2022-10-23T10:53:00Z,45.65,-68.7,3.3,2.8,0,0,,10.0,30.360237,1028.9,,TRUE,TRUE,,,,,,,FEW,100,,,,,,,VFR,,,,,,,,,,,,SPECI,121.0
KMLP 231053Z AUTO VRB03KT 3/4SM -SN BR VV001 M02/M04 A2969 RMK AO2 SNB27 SLP077 P0001 T10221044,KMLP,2022-10-23T10:53:00Z,47.45,-115.67,-2.2,-4.4,0,3,,0.75,29.68996,1007.7,,TRUE,TRUE,,,,,,-SN BR,OVX,0,,,,,,,LIFR,,,,,,0.01,,,,,100,METAR,1837.0
KMLC 231053Z AUTO 18013G25KT 10SM CLR 21/15 A2977 RMK AO2 PK WND 16027/1038 SLP071 T02060150,KMLC,2022-10-23T10:53:00Z,34.88,-95.78,20.6,15.0,180,13,25,10.0,29.769686,1007.1,,TRUE,TRUE,,,,,,,CLR,,,,,,,,VFR,,,,,,,,,,,,METAR,231.0
KMLB 231053Z 31005KT 10SM SCT042 18/17 A3006 RMK AO2 SLP179 T01780172,KMLB,2022-10-23T10:53:00Z,28.1,-80.65,17.8,17.2,310,5,,10.0,30.059055,1017.9,,,TRUE,,,,,,,SCT,4200,,,,,,,VFR,,,,,,,,,,,,METAR,7.0
KMKO 231053Z AUTO 17011G26KT 10SM CLR 21/14 A2978 RMK AO2 PK WND 18026/1048 SLP075 T02110144,KMKO,2022-10-23T10:53:00Z,35.65,-95.37,21.1,14.4,170,11,26,10.0,29.778543,1007.5,,TRUE,TRUE,,,,,,,CLR,,,,,,,,VFR,,,,,,,,,,,,METAR,184.0
KMKL 231053Z AUTO 17006KT CLR 16/11 A3008 RMK AO2 SLP181 T01610111 $,KMKL,2022-10-23T10:53:00Z,35.6,-88.92,16.1,11.1,170,6,,,30.079725,1018.1,,TRUE,TRUE,TRUE,,,,,,CLR,,,,,,,,,,,,,,,,,,,,METAR,130.0
KMIW 231053Z AUTO 14014G21KT 10SM CLR 16/11 A2965 RMK AO2 SLP034 T01560111,KMIW,2022-10-23T10:53:00Z,42.12,-92.92,15.6,11.1,140,14,21,10.0,29.648623,1003.4,,TRUE,TRUE,,,,,,,CLR,,,,,,,,VFR,,,,,,,,,,,,SPECI,296.0
KMIE 231053Z AUTO 17007KT 10SM CLR 16/09 A3009 RMK AO2 SLP181 T01610094,KMIE,2022-10-23T10:53:00Z,40.23,-85.4,16.1,9.4,170,7,,10.0,30.088583,1018.1,,TRUE,TRUE,,,,,,,CLR,,,,,,,,VFR,,,,,,,,,,,,SPECI,286.0
KMIC 231053Z AUTO 13008KT 10SM CLR 17/08 A2961 RMK AO2 SLP025 T01670083,KMIC,2022-10-23T10:53:00Z,45.07,-93.35,16.7,8.3,130,8,,10.0,29.610237,1002.5,,TRUE,TRUE,,,,,,,CLR,,,,,,,,VFR,,,,,,,,,,,,METAR,263.0
KMIA 231053Z 33005KT 10SM FEW040 22/19 A3003 RMK AO2 SLP169 T02170189 $,KMIA,2022-10-23T10:53:00Z,25.8,-80.32,21.7,18.9,330,5,,10.0,30.029528,1016.9,,,TRUE,TRUE,,,,,,FEW,4000,,,,,,,VFR,,,,,,,,,,,,METAR,1.0
KMHT 231053Z 33003KT 10SM FEW150 BKN250 06/04 A3034 RMK AO2 SLP288 T00610039,KMHT,2022-10-23T10:53:00Z,42.93,-71.43,6.1,3.9,330,3,,10.0,30.339567,1028.8,,,TRUE,,,,,,,FEW,15000,BKN,25000,,,,,VFR,,,,,,,,,,,,SPECI,68.0
KMHE 231053Z AUTO 13013KT 10SM CLR 13/08 A2937 RMK AO2 SLP940 T01330083,KMHE,2022-10-23T10:53:00Z,43.77,-98.03,13.3,8.3,130,13,,10.0,29.371063,994.0,,TRUE,TRUE,,,,,,,CLR,,,,,,,,VFR,,,,,,,,,,,,METAR,397.0
KMGY 231053Z AUTO 16006KT 10SM FEW065 13/08 A3015 RMK AO2 SLP206 T01280083,KMGY,2022-10-23T10:53:00Z,39.6,-84.23,12.8,8.3,160,6,,10.0,30.15059,1020.6,,TRUE,TRUE,,,,,,,FEW,6500,,,,,,,VFR,,,,,,,,,,,,SPECI,290.0
KMGW 231053Z AUTO 00000KT 10SM CLR 06/03 A3024 RMK AO2 SLP241 T00610028,KMGW,2022-10-23T10:53:00Z,39.65,-79.92,6.1,2.8,0,0,,10.0,30.239174,1024.1,,TRUE,TRUE,,,,,,,CLR,,,,,,,,VFR,,,,,,,,,,,,METAR,375.0
KMGM 231053Z AUTO 00000KT 10SM CLR 06/05 A3018 RMK AO2 SLP219 T00610050,KMGM,2022-10-23T10:53:00Z,32.3,-86.4,6.1,5.0,0,0,,10.0,30.180119,1021.9,,TRUE,TRUE,,,,,,,CLR,,,,,,,,VFR,,,,,,,,,,,,METAR,64.0
KMFR 231053Z AUTO 22003KT 10SM OVC046 06/06 A3001 RMK AO2 SLP167 T00610061,KMFR,2022-10-23T10:53:00Z,42.38,-122.87,6.1,6.1,220,3,,10.0,30.008858,1016.7,,TRUE,TRUE,,,,,,,OVC,4600,,,,,,,VFR,,,,,,,,,,,,METAR,397.0
KMFE 231053Z 15008KT 10SM CLR 22/19 A2983 RMK AO2 SLP101 T02220194 $,KMFE,2022-10-23T10:53:00Z,26.18,-98.25,22.2,19.4,150,8,,10.0,29.828741,1010.1,,,TRUE,TRUE,,,,,,CLR,,,,,,,,VFR,,,,,,,,,,,,METAR,29.0
KMDW 231053Z 17012G19KT 10SM FEW200 18/10 A2992 RMK AO2 SLP125 T01830100,KMDW,2022-10-23T10:53:00Z,41.78,-87.75,18.3,10.0,170,12,19,10.0,29.920275,1012.5,,,TRUE,,,,,,,FEW,20000,,,,,,,VFR,,,,,,,,,,,,SPECI,186.0
KMCW 231053Z AUTO 14012KT 10SM CLR 14/10 A2965 RMK AO2 SLP029 T01440100,KMCW,2022-10-23T10:53:00Z,43.15,-93.33,14.4,10.0,140,12,,10.0,29.648623,1002.9,,TRUE,TRUE,,,,,,,CLR,,,,,,,,VFR,,,,,,,,,,,,METAR,363.0
KMCO 231053Z 36003KT 10SM CLR 17/15 A3009 RMK AO2 SLP187 T01670150 $,KMCO,2022-10-23T10:53:00Z,28.42,-81.33,16.7,15.0,360,3,,10.0,30.088583,1018.7,,,TRUE,TRUE,,,,,,CLR,,,,,,,,VFR,,,,,,,,,,,,METAR,27.0
KMCN 231053Z AUTO 00000KT 10SM CLR 03/02 A3020 RMK AO2 SLP226 T00280022,KMCN,2022-10-23T10:53:00Z,32.68,-83.65,2.8,2.2,0,0,,10.0,30.200787,1022.6,,TRUE,TRUE,,,,,,,CLR,,,,,,,,VFR,,,,,,,,,,,,METAR,104.0
KMCK 231053Z AUTO 23008KT 10SM CLR 14/M02 A2930 RMK AO2 SLP898 T01441017,KMCK,2022-10-23T10:53:00Z,40.2,-100.58,14.4,-1.7,230,8,,10.0,29.300198,989.8,,TRUE,TRUE,,,,,,,CLR,,,,,,,,VFR,,,,,,,,,,,,METAR,780.0
KMCI 231053Z 17013G20KT 10SM CLR 20/13 A2957 RMK AO2 SLP003 T02000128,KMCI,2022-10-23T10:53:00Z,39.3,-94.73,20.0,12.8,170,13,20,10.0,29.568897,1000.3,,,TRUE,,,,,,,CLR,,,,,,,,VFR,,,,,,,,,,,,METAR,308.0
KMCE 231053Z AUTO 01004KT 10SM CLR 11/03 A2984 RMK AO2 SLP103 T01060033,KMCE,2022-10-23T10:53:00Z,37.28,-120.5,10.6,3.3,10,4,,10.0,29.840551,1010.3,,TRUE,TRUE,,,,,,,CLR,,,,,,,,VFR,,,,,,,,,,,,METAR,49.0
KMCB 231053Z AUTO 14004KT 5SM BR CLR 14/13 A3007 RMK AO2 SLP180 T01390128,KMCB,2022-10-23T10:53:00Z,31.18,-90.47,13.9,12.8,140,4,,5.0,30.070866,1018.0,,TRUE,TRUE,,,,,,BR,CLR,,,,,,,,MVFR,,,,,,,,,,,,METAR,124.0
KMBS 231053Z 17007KT 10SM CLR 13/09 A3008 RMK AO2 SLP184 T01280094,KMBS,2022-10-23T10:53:00Z,43.53,-84.08,12.8,9.4,170,7,,10.0,30.079725,1018.4,,,TRUE,,,,,,,CLR,,,,,,,,VFR,,,,,,,,,,,,METAR,201.0
KMAI 231053Z AUTO 00000KT 10SM CLR 06/04 A3015 RMK AO1 SLP208 T00560039 $,KMAI,2022-10-23T10:53:00Z,30.83,-85.18,5.6,3.9,0,0,,10.0,30.15059,1020.8,,TRUE,TRUE,TRUE,,,,,,CLR,,,,,,,,VFR,,,,,,,,,,,,METAR,33.0
KMAF 231053Z 19011KT 10SM CLR 18/13 A2976 RMK AO2 SLP034 T01780128,KMAF,2022-10-23T10:53:00Z,31.95,-102.2,17.8,12.8,190,11,,10.0,29.760826,1003.4,,,TRUE,,,,,,,CLR,,,,,,,,VFR,,,,,,,,,,,,METAR,874.0
KMAE 231053Z AUTO 31003KT 10SM CLR 08/04 A2985 RMK AO2 SLP105 T00830044,KMAE,2022-10-23T10:53:00Z,36.98,-120.12,8.3,4.4,310,3,,10.0,29.84941,1010.5,,TRUE,TRUE,,,,,,,CLR,,,,,,,,VFR,,,,,,,,,,,,METAR,77.0
KLXT 231053Z AUTO 16012G19KT 10SM CLR 19/12 A2961 RMK AO2 SLP019 T01890122,KLXT,2022-10-23T10:53:00Z,38.97,-94.37,18.9,12.2,160,12,19,10.0,29.610237,1001.9,,TRUE,TRUE,,,,,,,CLR,,,,,,,,VFR,,,,,,,,,,,,METAR,306.0
KLWV 231053Z AUTO 17015KT 10SM OVC070 18/11 A3002 RMK AO2 SLP163 T01780111 $,KLWV,2022-10-23T10:53:00Z,38.77,-87.6,17.8,11.1,170,15,,10.0,30.02067,1016.3,,TRUE,TRUE,TRUE,,,,,,OVC,7000,,,,,,,VFR,,,,,,,,,,,,METAR,128.0
KLWD 231053Z AUTO 14011G18KT 10SM CLR 17/12 A2960 RMK AO2 SLP017 T01720117,KLWD,2022-10-23T10:53:00Z,40.63,-93.9,17.2,11.7,140,11,18,10.0,29.601377,1001.7,,TRUE,TRUE,,,,,,,CLR,,,,,,,,VFR,,,,,,,,,,,,METAR,345.0
KLVS 231053Z AUTO 22023G31KT 10SM CLR 12/07 A2972 RMK AO2 PK WND 22031/1052 SLP968 T01170072,KLVS,2022-10-23T10:53:00Z,35.65,-105.13,11.7,7.2,220,23,31,10.0,29.719488,996.8,,TRUE,TRUE,,,,,,,CLR,,,,,,,,VFR,,,,,,,,,,,,METAR,2095.0
KLVM 231053Z AUTO 31010G17KT 4SM -SN BR FEW008 OVC021 01/M01 A2957 RMK AO2 SLP024 P0000 T00061011 $,KLVM,2022-10-23T10:53:00Z,45.7,-110.43,0.6,-1.1,310,10,17,4.0,29.568897,1002.4,,TRUE,TRUE,TRUE,,,,,-SN BR,FEW,800,OVC,2100,,,,,MVFR,,,,,,0.005,,,,,,METAR,1418.0
KLVK 231053Z AUTO 07004KT 10SM CLR 08/04 A2989 RMK AO2 SLP120 T00780044,KLVK,2022-10-23T10:53:00Z,37.7,-121.82,7.8,4.4,70,4,,10.0,29.890747,1012.0,,TRUE,TRUE,,,,,,,CLR,,,,,,,,VFR,,,,,,,,,,,,METAR,120.0
KLVJ 231053Z AUTO 14003KT 10SM FEW040 OVC060 22/19 A2993 RMK AO2 SLP134 T02170189,KLVJ,2022-10-23T10:53:00Z,29.52,-95.25,21.7,18.9,140,3,,10.0,29.929134,1013.4,,TRUE,TRUE,,,,,,,FEW,4000,OVC,6000,,,,,VFR,,,,,,,,,,,,SPECI,11.0
KLSE 231053Z 14008KT 10SM CLR 17/11 A2973 RMK AO2 SLP060 T01720111 $,KLSE,2022-10-23T10:53:00Z,43.88,-91.25,17.2,11.1,140,8,,10.0,29.731298,1006.0,,,TRUE,TRUE,,,,,,CLR,,,,,,,,VFR,,,,,,,,,,,,METAR,198.0
KLPR 231053Z AUTO 18005KT 10SM CLR 12/07 A3019 RMK AO2 SLP221 T01220067,KLPR,2022-10-23T10:53:00Z,41.35,-82.18,12.2,6.7,180,5,,10.0,30.188976,1022.1,,TRUE,TRUE,,,,,,,CLR,,,,,,,,VFR,,,,,,,,,,,,METAR,241.0
KLOZ 231053Z AUTO 00000KT 10SM CLR 07/06 A3021 RMK AO2 SLP226 T00670056,KLOZ,2022-10-23T10:53:00Z,37.08,-84.07,6.7,5.6,0,0,,10.0,30.209646,1022.6,,TRUE,TRUE,,,,,,,CLR,,,,,,,,VFR,,,,,,,,,,,,METAR,361.0
KLOU 231053Z 14005KT 10SM FEW070 14/09 A3013 RMK AO2 SLP199 T01440094,KLOU,2022-10-23T10:53:00Z,38.22,-85.67,14.4,9.4,140,5,,10.0,30.129921,1019.9,,,TRUE,,,,,,,FEW,7000,,,,,,,VFR,,,,,,,,,,,,METAR,165.0
KLOL 231053Z AUTO 32007KT 10SM SCT120 A2986 RMK AO2 SLPNO $,KLOL,2022-10-23T10:53:00Z,40.07,-118.57,,,320,7,,10.0,29.861221,,,TRUE,TRUE,TRUE,,,,,,SCT,12000,,,,,,,VFR,,,,,,,,,,,,METAR,1191.0
KLNS 231053Z 31004KT 9SM OVC033 07/06 A3026 RMK AO2 SLP248 T00720056,KLNS,2022-10-23T10:53:00Z,40.12,-76.3,7.2,5.6,310,4,,9.0,30.259842,1024.8,,,TRUE,,,,,,,OVC,3300,,,,,,,VFR,,,,,,,,,,,,METAR,122.0
KLND 231053Z AUTO 34007KT 10SM OVC060 04/M03 A2942 RMK AO2 SLP936 T00391028 $,KLND,2022-10-23T10:53:00Z,42.82,-108.73,3.9,-2.8,340,7,,10.0,29.421259,993.6,,TRUE,TRUE,TRUE,,,,,,OVC,6000,,,,,,,VFR,,,,,,,,,,,,METAR,1700.0
KLLQ 231053Z AUTO 17009KT 10SM CLR 17/14 A3001 RMK AO2 SLP159 T01720139,KLLQ,2022-10-23T10:53:00Z,33.63,-91.75,17.2,13.9,170,9,,10.0,30.008858,1015.9,,TRUE,TRUE,,,,,,,CLR,,,,,,,,VFR,,,,,,,,,,,,METAR,86.0
KLKV 231053Z AUTO 14007KT 9SM BKN033 BKN040 M03/M04 A2990 RMK AO2 UPB17E27SNB36E48 SLP144 P0000 T10281044 FZRANO,KLKV,2022-10-23T10:53:00Z,42.17,-120.4,-2.8,-4.4,140,7,,9.0,29.899607,1014.4,,TRUE,TRUE,,,,TRUE,,,BKN,3300,BKN,4000,,,,,VFR,,,,,,0.005,,,,,,METAR,1440.0
KLIT 231053Z 17012KT 10SM BKN042 BKN250 21/14 A2995 RMK AO2 SLP140 T02060144,KLIT,2022-10-23T10:53:00Z,34.73,-92.23,20.6,14.4,170,12,,10.0,29.949802,1014.0,,,TRUE,,,,,,,BKN,4200,BKN,25000,,,,,VFR,,,,,,,,,,,,METAR,77.0
KLHX 231053Z AUTO VRB03KT 10SM CLR 17/M01 A2945 RMK AO2 SLP911 T01671011 $,KLHX,2022-10-23T10:53:00Z,38.05,-103.52,16.7,-1.1,0,3,,10.0,29.450787,991.1,,TRUE,TRUE,TRUE,,,,,,CLR,,,,,,,,VFR,,,,,,,,,,,,METAR,1289.0
KLHQ 231053Z AUTO 00000KT 10SM CLR 07/07 A3019 RMK AO2 SLP223 T00720067,KLHQ,2022-10-23T10:53:00Z,39.75,-82.67,7.2,6.7,0,0,,10.0,30.188976,1022.3,,TRUE,TRUE,,,,,,,CLR,,,,,,,,VFR,,,,,,,,,,,,SPECI,259.0
KLGB 231053Z AUTO 00000KT 10SM FEW028 FEW034 16/12 A2978 RMK AO2 SLP084 T01610122,KLGB,2022-10-23T10:53:00Z,33.82,-118.15,16.1,12.2,0,0,,10.0,29.778543,1008.4,,TRUE,TRUE,,,,,,,FEW,2800,FEW,3400,,,,,VFR,,,,,,,,,,,,METAR,10.0
KLFT 231053Z 11003KT 10SM FEW045 BKN060 17/16 A3002 RMK AO2 SLP165 T01720156,KLFT,2022-10-23T10:53:00Z,30.2,-91.97,17.2,15.6,110,3,,10.0,30.02067,1016.5,,,TRUE,,,,,,,FEW,4500,BKN,6000,,,,,VFR,,,,,,,,,,,,METAR,9.0
KLFK 231053Z AUTO 12005KT 10SM CLR 18/17 A2995 RMK AO2 SLP136 T01780167,KLFK,2022-10-23T10:53:00Z,31.23,-94.75,17.8,16.7,120,5,,10.0,29.949802,1013.6,,TRUE,TRUE,,,,,,,CLR,,,,,,,,VFR,,,,,,,,,,,,METAR,87.0
KLEE 231053Z 35004KT 10SM CLR 15/13 A3011 RMK AO2 SLP195 T01500133,KLEE,2022-10-23T10:53:00Z,28.82,-81.82,15.0,13.3,350,4,,10.0,30.109253,1019.5,,,TRUE,,,,,,,CLR,,,,,,,,VFR,,,,,,,,,,,,METAR,21.0
KLCH 231053Z 12004KT 10SM CLR 16/15 A2998 RMK AO2 SLP160 T01610150,KLCH,2022-10-23T10:53:00Z,30.13,-93.22,16.1,15.0,120,4,,10.0,29.97933,1016.0,,,TRUE,,,,,,,CLR,,,,,,,,VFR,,,,,,,,,,,,METAR,2.0
KLBX 231053Z AUTO 17008KT 10SM SCT037 BKN060 23/19 A2990 RMK AO2 SLP125 T02280189,KLBX,2022-10-23T10:53:00Z,29.12,-95.47,22.8,18.9,170,8,,10.0,29.899607,1012.5,,TRUE,TRUE,,,,,,,SCT,3700,BKN,6000,,,,,VFR,,,,,,,,,,,,METAR,4.0
KLBB 231053Z 20015G24KT 10SM FEW120 17/13 A2972 RMK AO2 PK WND 20027/1026 SLP016 T01720128,KLBB,2022-10-23T10:53:00Z,33.67,-101.82,17.2,12.8,200,15,24,10.0,29.719488,1001.6,,,TRUE,,,,,,,FEW,12000,,,,,,,VFR,,,,,,,,,,,,METAR,996.0
KLAX 231053Z 25005KT 10SM FEW035 16/12 A2978 RMK AO2 SLP083 T01610122,KLAX,2022-10-23T10:53:00Z,33.93,-118.38,16.1,12.2,250,5,,10.0,29.778543,1008.3,,,TRUE,,,,,,,FEW,3500,,,,,,,VFR,,,,,,,,,,,,METAR,30.0
KLAW 231053Z AUTO 16009KT 10SM CLR 20/12 A2968 RMK AO2 SLP036 T02000122,KLAW,2022-10-23T10:53:00Z,34.55,-98.42,20.0,12.2,160,9,,10.0,29.681103,1003.6,,TRUE,TRUE,,,,,,,CLR,,,,,,,,VFR,,,,,,,,,,,,METAR,328.0
KLAR 231053Z AUTO 33009KT 10SM BKN080 02/M02 A2940 RMK AO2 SLP882 T00171017 $,KLAR,2022-10-23T10:53:00Z,41.32,-105.67,1.7,-1.7,330,9,,10.0,29.40059,988.2,,TRUE,TRUE,TRUE,,,,,,BKN,8000,,,,,,,VFR,,,,,,,,,,,,METAR,2217.0
KLAN 231053Z 14006KT 10SM CLR 12/08 A3008 RMK AO2 SLP185 T01170083 $,KLAN,2022-10-23T10:53:00Z,42.78,-84.58,11.7,8.3,140,6,,10.0,30.079725,1018.5,,,TRUE,TRUE,,,,,,CLR,,,,,,,,VFR,,,,,,,,,,,,METAR,261.0
KLAA 231053Z AUTO 27004KT 10SM CLR 10/02 A2940 RMK AO2 SLP912 T01000022,KLAA,2022-10-23T10:53:00Z,38.07,-102.68,10.0,2.2,270,4,,10.0,29.40059,991.2,,TRUE,TRUE,,,,,,,CLR,,,,,,,,VFR,,,,,,,,,,,,METAR,1129.0
KJLN 231053Z 19027G41KT 10SM CLR 22/13 A2969 RMK AO2 PK WND 20045/1015 SLP044 T02170128 $,KJLN,2022-10-23T10:53:00Z,37.15,-94.5,21.7,12.8,190,27,41,10.0,29.68996,1004.4,,,TRUE,TRUE,,,,,,CLR,,,,,,,,VFR,,,,,,,,,,,,METAR,297.0
KJKL 231053Z AUTO 19003KT 10SM CLR 14/06 A3020 RMK AO2 SLP219 T01390061,KJKL,2022-10-23T10:53:00Z,37.6,-83.32,13.9,6.1,190,3,,10.0,30.200787,1021.9,,TRUE,TRUE,,,,,,,CLR,,,,,,,,VFR,,,,,,,,,,,,METAR,414.0
KJER 231053Z AUTO 26015G23KT 10SM FEW009 00/M02 A2968 RMK AO2 SLP058 T00001017,KJER,2022-10-23T10:53:00Z,42.72,-114.45,0.0,-1.7,260,15,23,10.0,29.681103,1005.8,,TRUE,TRUE,,,,,,,FEW,900,,,,,,,VFR,,,,,,,,,,,,METAR,1226.0
KJEF 231053Z AUTO 13007KT 10SM CLR 20/13 A2975 RMK AO2 SLP059 T02000128 $,KJEF,2022-10-23T10:53:00Z,38.6,-92.15,20.0,12.8,130,7,,10.0,29.749016,1005.9,,TRUE,TRUE,TRUE,,,,,,CLR,,,,,,,,VFR,,,,,,,,,,,,METAR,167.0
KJBR 231053Z AUTO 18013KT 10SM CLR 17/12 A2997 RMK AO2 SLP146 T01720122 $,KJBR,2022-10-23T10:53:00Z,35.83,-90.65,17.2,12.2,180,13,,10.0,29.970472,1014.6,,TRUE,TRUE,TRUE,,,,,,CLR,,,,,,,,VFR,,,,,,,,,,,,METAR,79.0
KIXD 231053Z 17015G25KT 10SM CLR 21/13 A2959 RMK AO2 SLP009 T02110128 $,KIXD,2022-10-23T10:53:00Z,38.82,-94.88,21.1,12.8,170,15,25,10.0,29.589567,1000.9,,,TRUE,TRUE,,,,,,CLR,,,,,,,,VFR,,,,,,,,,,,,METAR,322.0
KITR 231053Z AUTO 21016G28KT 10SM CLR 17/M01 A2938 RMK AO2 PK WND 22030/1002 SLP893 T01671011 $,KITR,2022-10-23T10:53:00Z,39.23,-102.28,16.7,-1.1,210,16,28,10.0,29.379921,989.3,,TRUE,TRUE,TRUE,,,,,,CLR,,,,,,,,VFR,,,,,,,,,,,,METAR,1285.0
KINK 231053Z AUTO 00000KT 10SM CLR 15/13 A2974 RMK AO2 SLP030 T01500133,KINK,2022-10-23T10:53:00Z,31.78,-103.2,15.0,13.3,0,0,,10.0,29.740158,1003.0,,TRUE,TRUE,,,,,,,CLR,,,,,,,,VFR,,,,,,,,,,,,METAR,857.0
KIML 231053Z AUTO 13004KT 10SM CLR 08/M04 A2929 RMK AO2 SLP897 T00781044 $,KIML,2022-10-23T10:53:00Z,40.52,-101.62,7.8,-4.4,130,4,,10.0,29.291338,989.7,,TRUE,TRUE,TRUE,,,,,,CLR,,,,,,,,VFR,,,,,,,,,,,,SPECI,997.0
KILM 231053Z 33008KT 10SM BKN060 14/08 A3012 RMK AO2 SLP197 T01440083 PWINO,KILM,2022-10-23T10:53:00Z,34.27,-77.9,14.4,8.3,330,8,,10.0,30.121063,1019.7,,,TRUE,,,,,TRUE,,BKN,6000,,,,,,,VFR,,,,,,,,,,,,METAR,9.0
KICT 231053Z 18021G29KT 10SM FEW250 22/12 A2952 RMK AO2 PK WND 19030/1035 SLP979 T02220117,KICT,2022-10-23T10:53:00Z,37.65,-97.43,22.2,11.7,180,21,29,10.0,29.518702,997.9,,,TRUE,,,,,,,FEW,25000,,,,,,,VFR,,,,,,,,,,,,METAR,428.0
KICR 231053Z AUTO 10008KT CLR 08/04 A2929 RMK AO2 SLP912 T00780039,KICR,2022-10-23T10:53:00Z,43.38,-99.85,7.8,3.9,100,8,,,29.291338,991.2,,TRUE,TRUE,,,,,,,CLR,,,,,,,,,,,,,,,,,,,,METAR,618.0
KIAH 231053Z 15006KT 10SM SCT040 BKN055 BKN250 21/19 A2992 RMK AO2 SLP130 T02110189,KIAH,2022-10-23T10:53:00Z,30.0,-95.37,21.1,18.9,150,6,,10.0,29.920275,1013.0,,,TRUE,,,,,,,SCT,4000,BKN,5500,BKN,25000,,,VFR,,,,,,,,,,,,METAR,27.0
KIAG 231053Z 10003KT 10SM CLR 07/04 A3023 RMK AO2 SLP241 T00670039,KIAG,2022-10-23T10:53:00Z,43.12,-78.93,6.7,3.9,100,3,,10.0,30.230314,1024.1,,,TRUE,,,,,,,CLR,,,,,,,,VFR,,,,,,,,,,,,METAR,179.0
KHZY 231053Z AUTO 14005KT 10SM CLR 10/03 A3023 RMK AO2 SLP235 T01000033,KHZY,2022-10-23T10:53:00Z,41.78,-80.7,10.0,3.3,140,5,,10.0,30.230314,1023.5,,TRUE,TRUE,,,,,,,CLR,,,,,,,,VFR,,,,,,,,,,,,METAR,279.0
KHYR 231053Z AUTO 16006KT 10SM CLR 15/09 A2973 RMK AO2 SLP066 T01500089,KHYR,2022-10-23T10:53:00Z,46.02,-91.45,15.0,8.9,160,6,,10.0,29.731298,1006.6,,TRUE,TRUE,,,,,,,CLR,,,,,,,,VFR,,,,,,,,,,,,METAR,369.0
KHWO 231053Z AUTO 33004KT 10SM CLR 19/18 A3004 RMK AO2 SLP173 T01890178,KHWO,2022-10-23T10:53:00Z,26.0,-80.23,18.9,17.8,330,4,,10.0,30.041338,1017.3,,TRUE,TRUE,,,,,,,CLR,,,,,,,,VFR,,,,,,,,,,,,METAR,2.0
KHVR 231053Z AUTO 04005KT -SN OVC008 01/00 A2958 RMK AO2 SLP034 P0002 T00060000 $,KHVR,2022-10-23T10:53:00Z,48.55,-109.77,0.6,0.0,40,5,,,29.58071,1003.4,,TRUE,TRUE,TRUE,,,,,-SN,OVC,800,,,,,,,,,,,,,0.02,,,,,,METAR,789.0
KHVN 231053Z 01007KT 9SM FEW047 11/08 A3030 RMK AO2 SLP261 T01110083,KHVN,2022-10-23T10:53:00Z,41.27,-72.88,11.1,8.3,10,7,,9.0,30.301182,1026.1,,,TRUE,,,,,,,FEW,4700,,,,,,,VFR,,,,,,,,,,,,METAR,4.0
KHUL 231053Z AUTO 00000KT 9SM CLR 03/03 A3034 RMK AO2 SLP278 T00330028,KHUL,2022-10-23T10:53:00Z,46.12,-67.8,3.3,2.8,0,0,,9.0,30.339567,1027.8,,TRUE,TRUE,,,,,,,CLR,,,,,,,,VFR,,,,,,,,,,,,SPECI,148.0
KHUF 231053Z 16010KT 10SM BKN060 18/11 A3001 RMK AO2 SLP160 T01780111,KHUF,2022-10-23T10:53:00Z,39.45,-87.32,17.8,11.1,160,10,,10.0,30.008858,1016.0,,,TRUE,,,,,,,BKN,6000,,,,,,,VFR,,,,,,,,,,,,SPECI,174.0
KHTL 231053Z AUTO 16005KT 10SM CLR 11/09 A3005 RMK AO2 SLP176 T01110089,KHTL,2022-10-23T10:53:00Z,44.35,-84.67,11.1,8.9,160,5,,10.0,30.050198,1017.6,,TRUE,TRUE,,,,,,,CLR,,,,,,,,VFR,,,,,,,,,,,,METAR,350.0
KHSV 231053Z 09007KT 10SM FEW250 11/09 A3017 RMK AO2 SLP212 T01060089,KHSV,2022-10-23T10:53:00Z,34.65,-86.78,10.6,8.9,90,7,,10.0,30.171259,1021.2,,,TRUE,,,,,,,FEW,25000,,,,,,,VFR,,,,,,,,,,,,METAR,190.0
KHSI 231053Z AUTO 15010KT 10SM CLR 13/09 A2935 RMK AO2 SLP925 T01330089 $,KHSI,2022-10-23T10:53:00Z,40.6,-98.43,13.3,8.9,150,10,,10.0,29.350393,992.5,,TRUE,TRUE,TRUE,,,,,,CLR,,,,,,,,VFR,,,,,,,,,,,,METAR,592.0
KHRO 231053Z AUTO 17011KT 10SM CLR 19/14 A2983 RMK AO2 SLP088 T01890139,KHRO,2022-10-23T10:53:00Z,36.27,-93.15,18.9,13.9,170,11,,10.0,29.828741,1008.8,,TRUE,TRUE,,,,,,,CLR,,,,,,,,VFR,,,,,,,,,,,,METAR,417.0
KHRI 231053Z AUTO 22008KT 10SM BKN075 OVC100 08/04 A2989 RMK AO2 SLP121 T00780039,KHRI,2022-10-23T10:53:00Z,45.83,-119.27,7.8,3.9,220,8,,10.0,29.890747,1012.1,,TRUE,TRUE,,,,,,,BKN,7500,OVC,10000,,,,,VFR,,,,,,,,,,,,METAR,194.0
KHQM 231053Z AUTO 08005KT 10SM SCT018 BKN028 04/03 A2998 RMK AO2 SLP155 T00440033,KHQM,2022-10-23T10:53:00Z,46.97,-123.93,4.4,3.3,80,5,,10.0,29.97933,1015.5,,TRUE,TRUE,,,,,,,SCT,1800,BKN,2800,,,,,MVFR,,,,,,,,,,,,METAR,4.0
KHOU 231053Z 14006KT 10SM SCT036 BKN055 BKN250 22/18 A2991 RMK AO2 SLP134 T02170183,KHOU,2022-10-23T10:53:00Z,29.63,-95.28,21.7,18.3,140,6,,10.0,29.911417,1013.4,,,TRUE,,,,,,,SCT,3600,BKN,5500,BKN,25000,,,VFR,,,,,,,,,,,,METAR,13.0
KHOT 231053Z AUTO 17005KT 10SM FEW022 BKN027 OVC035 19/16 A2994 RMK AO2 SLP133 T01940156,KHOT,2022-10-23T10:53:00Z,34.48,-93.1,19.4,15.6,170,5,,10.0,29.940945,1013.3,,TRUE,TRUE,,,,,,,FEW,2200,BKN,2700,OVC,3500,,,MVFR,,,,,,,,,,,,METAR,153.0
KHLN 231053Z AUTO 27007KT 10SM FEW020 FEW030 OVC044 01/M01 A2965 RMK AO2 SNE06 SLP073 P0000 T00111011,KHLN,2022-10-23T10:53:00Z,46.6,-111.98,1.1,-1.1,270,7,,10.0,29.648623,1007.3,,TRUE,TRUE,,,,,,,FEW,2000,FEW,3000,OVC,4400,,,VFR,,,,,,0.005,,,,,,METAR,1178.0
KHLG 231053Z AUTO 00000KT 10SM CLR 07/04 A3023 RMK AO2 SLP239 T00670039,KHLG,2022-10-23T10:53:00Z,40.17,-80.65,6.7,3.9,0,0,,10.0,30.230314,1023.9,,TRUE,TRUE,,,,,,,CLR,,,,,,,,VFR,,,,,,,,,,,,SPECI,365.0
KHLC 231053Z AUTO 22005KT 10SM CLR 15/03 A2936 RMK AO2 SLP920 T01500033,KHLC,2022-10-23T10:53:00Z,39.37,-99.83,15.0,3.3,220,5,,10.0,29.359253,992.0,,TRUE,TRUE,,,,,,,CLR,,,,,,,,VFR,,,,,,,,,,,,METAR,667.0
KHKY 231053Z 30006KT 10SM CLR 06/05 A3022 RMK AO2 SLP224 T00610050,KHKY,2022-10-23T10:53:00Z,35.75,-81.38,6.1,5.0,300,6,,10.0,30.221457,1022.4,,,TRUE,,,,,,,CLR,,,,,,,,VFR,,,,,,,,,,,,METAR,357.0
KHKS 231053Z AUTO 13003KT 10SM CLR 14/13 A3008 RMK AO2 SLP180 T01390128,KHKS,2022-10-23T10:53:00Z,32.33,-90.22,13.9,12.8,130,3,,10.0,30.079725,1018.0,,TRUE,TRUE,,,,,,,CLR,,,,,,,,VFR,,,,,,,,,,,,METAR,103.0
KHKA 231053Z AUTO 17012KT 10SM CLR 18/12 A2999 RMK AO2 SLP155 T01780122 $,KHKA,2022-10-23T10:53:00Z,35.93,-89.83,17.8,12.2,170,12,,10.0,29.991142,1015.5,,TRUE,TRUE,TRUE,,,,,,CLR,,,,,,,,VFR,,,,,,,,,,,,METAR,78.0
KHJO 231053Z AUTO 33009KT 10SM CLR 12/04 A2984 RMK AO2 SLP105 T01170039,KHJO,2022-10-23T10:53:00Z,36.32,-119.62,11.7,3.9,330,9,,10.0,29.840551,1010.5,,TRUE,TRUE,,,,,,,CLR,,,,,,,,VFR,,,,,,,,,,,,METAR,73.0
KHIO 231053Z AUTO 00000KT 10SM OVC047 05/04 A2999 RMK AO2 SLP156 T00500044,KHIO,2022-10-23T10:53:00Z,45.55,-122.95,5.0,4.4,0,0,,10.0,29.991142,1015.6,,TRUE,TRUE,,,,,,,OVC,4700,,,,,,,VFR,,,,,,,,,,,,METAR,62.0
KHIB 231053Z AUTO 00000KT 8SM CLR 01/01 A2966 RMK AO2 SLP054 T00060006,KHIB,2022-10-23T10:53:00Z,47.38,-92.83,0.6,0.6,0,0,,8.0,29.660433,1005.4,,TRUE,TRUE,,,,,,,CLR,,,,,,,,VFR,,,,,,,,,,,,METAR,409.0
KHHR 231053Z AUTO 00000KT 10SM CLR 17/12 A2978 RMK AO2 SLP084 T01670122,KHHR,2022-10-23T10:53:00Z,33.92,-118.33,16.7,12.2,0,0,,10.0,29.778543,1008.4,,TRUE,TRUE,,,,,,,CLR,,,,,,,,VFR,,,,,,,,,,,,METAR,21.0
KHGR 231053Z 02005KT 10SM CLR 04/02 A3027 RMK AO2 SLP263 T00440022 $,KHGR,2022-10-23T10:53:00Z,39.7,-77.73,4.4,2.2,20,5,,10.0,30.268702,1026.3,,,TRUE,TRUE,,,,,,CLR,,,,,,,,VFR,,,,,,,,,,,,SPECI,206.0
KHFD 231053Z 35004KT 10SM OVC200 08/06 A3033 RMK AO2 SLP270 T00830056,KHFD,2022-10-23T10:53:00Z,41.73,-72.65,8.3,5.6,350,4,,10.0,30.33071,1027.0,,,TRUE,,,,,,,OVC,20000,,,,,,,VFR,,,,,,,,,,,,SPECI,3.0
KHEI 231053Z AUTO 04014KT 10SM CLR 07/02 A2939 RMK AO2 SLP956 T00670022 $,KHEI,2022-10-23T10:53:00Z,46.02,-102.65,6.7,2.2,40,14,,10.0,29.388779,995.6,,TRUE,TRUE,TRUE,,,,,,CLR,,,,,,,,VFR,,,,,,,,,,,,METAR,824.0
KHBR 231053Z AUTO 19015KT 10SM CLR 19/12 A2964 RMK AO2 SLP018 T01940122,KHBR,2022-10-23T10:53:00Z,34.98,-99.05,19.4,12.2,190,15,,10.0,29.639763,1001.8,,TRUE,TRUE,,,,,,,CLR,,,,,,,,VFR,,,,,,,,,,,,METAR,475.0
KHBG 231053Z AUTO 00000KT 10SM CLR 11/09 A3011 RMK AO2 SLP195 T01060094,KHBG,2022-10-23T10:53:00Z,31.27,-89.25,10.6,9.4,0,0,,10.0,30.109253,1019.5,,TRUE,TRUE,,,,,,,CLR,,,,,,,,VFR,,,,,,,,,,,,METAR,45.0
KHAO 231053Z AUTO 09005KT 10SM CLR 11/08 A3016 RMK AO2 SLP211 T01110083,KHAO,2022-10-23T10:53:00Z,39.37,-84.52,11.1,8.3,90,5,,10.0,30.159449,1021.1,,TRUE,TRUE,,,,,,,CLR,,,,,,,,VFR,,,,,,,,,,,,SPECI,185.0
KGZH 231053Z AUTO 00000KT 6SM BR CLR 06/04 A3016 RMK AO2 SLP212 T00560039,KGZH,2022-10-23T10:53:00Z,31.42,-87.05,5.6,3.9,0,0,,6.0,30.159449,1021.2,,TRUE,TRUE,,,,,,BR,CLR,,,,,,,,VFR,,,,,,,,,,,,METAR,77.0
KGWO 231053Z AUTO 17007KT 10SM CLR 16/13 A3006 RMK AO2 SLP178 T01560128,KGWO,2022-10-23T10:53:00Z,33.5,-90.08,15.6,12.8,170,7,,10.0,30.059055,1017.8,,TRUE,TRUE,,,,,,,CLR,,,,,,,,VFR,,,,,,,,,,,,METAR,42.0
KGVL 231053Z AUTO 00000KT 10SM CLR 09/04 A3023 RMK AO2 SLP230 T00890039,KGVL,2022-10-23T10:53:00Z,34.27,-83.83,8.9,3.9,0,0,,10.0,30.230314,1023.0,,TRUE,TRUE,,,,,,,CLR,,,,,,,,VFR,,,,,,,,,,,,METAR,387.0
KGUY 231053Z AUTO 23021G33KT 10SM 21/11 A2951 RMK AO2 PK WND 23033/1044 SLP941 T02060106 $,KGUY,2022-10-23T10:53:00Z,36.68,-101.5,20.6,10.6,230,21,33,10.0,29.509842,994.1,,TRUE,TRUE,TRUE,,,,,,,,,,,,,,,,,,,,,,,,,,METAR,950.0
KGUP 231053Z AUTO 22019G39KT 10SM -RA FEW037 11/03 A2972 RMK AO2 PK WND 21039/1047 SLP944 P0000 T01060033,KGUP,2022-10-23T10:53:00Z,35.52,-108.8,10.6,3.3,220,19,39,10.0,29.719488,994.4,,TRUE,TRUE,,,,,,-RA,FEW,3700,,,,,,,VFR,,,,,,0.005,,,,,,METAR,1972.0
KGSP 231053Z 03003KT 10SM CLR 04/02 A3021 RMK AO2 SLP230 T00440022,KGSP,2022-10-23T10:53:00Z,34.9,-82.22,4.4,2.2,30,3,,10.0,30.209646,1023.0,,,TRUE,,,,,,,CLR,,,,,,,,VFR,,,,,,,,,,,,METAR,285.0
KGSH 231053Z AUTO 15008KT 10SM SCT060 14/10 A3004 RMK AO2 SLP170 T01390100,KGSH,2022-10-23T10:53:00Z,41.53,-85.78,13.9,10.0,150,8,,10.0,30.041338,1017.0,,TRUE,TRUE,,,,,,,SCT,6000,,,,,,,VFR,,,,,,,,,,,,SPECI,252.0
KGRR 231053Z 14007KT 10SM FEW250 12/10 A3003 RMK AO2 SLP169 T01220100 $,KGRR,2022-10-23T10:53:00Z,42.88,-85.52,12.2,10.0,140,7,,10.0,30.029528,1016.9,,,TRUE,TRUE,,,,,,FEW,25000,,,,,,,VFR,,,,,,,,,,,,METAR,239.0
KGRI 231053Z AUTO 17013KT 10SM CLR 14/09 A2936 RMK AO2 SLP931 T01440094 $,KGRI,2022-10-23T10:53:00Z,40.97,-98.32,14.4,9.4,170,13,,10.0,29.359253,993.1,,TRUE,TRUE,TRUE,,,,,,CLR,,,,,,,,VFR,,,,,,,,,,,,METAR,562.0
KGRB 231053Z 15006KT 10SM CLR 13/09 A2988 RMK AO2 SLP118 T01280094 $,KGRB,2022-10-23T10:53:00Z,44.48,-88.13,12.8,9.4,150,6,,10.0,29.878937,1011.8,,,TRUE,TRUE,,,,,,CLR,,,,,,,,VFR,,,,,,,,,,,,METAR,209.0
KGPT 231053Z 00000KT 9SM CLR 13/12 A3010 RMK AO2 SLP191 T01330122,KGPT,2022-10-23T10:53:00Z,30.42,-89.08,13.3,12.2,0,0,,9.0,30.100393,1019.1,,,TRUE,,,,,,,CLR,,,,,,,,VFR,,,,,,,,,,,,METAR,5.0
KGOK 231053Z AUTO 18013G23KT 10SM CLR 22/12 A2963 RMK AO2 SLP023 T02170122,KGOK,2022-10-23T10:53:00Z,35.85,-97.4,21.7,12.2,180,13,23,10.0,29.630905,1002.3,,TRUE,TRUE,,,,,,,CLR,,,,,,,,VFR,,,,,,,,,,,,METAR,326.0
KGNV 231053Z 00000KT 10SM CLR 11/09 A3015 RMK AO2 SLP209 T01060089,KGNV,2022-10-23T10:53:00Z,29.7,-82.28,10.6,8.9,0,0,,10.0,30.15059,1020.9,,,TRUE,,,,,,,CLR,,,,,,,,VFR,,,,,,,,,,,,METAR,41.0
KGMU 231053Z 29003KT 10SM CLR 06/03 A3021 RMK AO2 SLP229 T00610033,KGMU,2022-10-23T10:53:00Z,34.85,-82.35,6.1,3.3,290,3,,10.0,30.209646,1022.9,,,TRUE,,,,,,,CLR,,,,,,,,VFR,,,,,,,,,,,,METAR,309.0
KGLR 231053Z AUTO 18006KT 10SM CLR 12/08 A3003 RMK AO2 SLP167 T01170083,KGLR,2022-10-23T10:53:00Z,45.02,-84.68,11.7,8.3,180,6,,10.0,30.029528,1016.7,,TRUE,TRUE,,,,,,,CLR,,,,,,,,VFR,,,,,,,,,,,,METAR,403.0
KGLH 231053Z AUTO 15009KT 10SM CLR 18/13 A3003 RMK AO2 SLP174 T01780128,KGLH,2022-10-23T10:53:00Z,33.47,-90.98,17.8,12.8,150,9,,10.0,30.029528,1017.4,,TRUE,TRUE,,,,,,,CLR,,,,,,,,VFR,,,,,,,,,,,,METAR,40.0
KGLD 231053Z AUTO 21017G29KT 10SM CLR 16/M01 A2934 RMK AO2 PK WND 22029/1050 SLP892 T01611006,KGLD,2022-10-23T10:53:00Z,39.37,-101.7,16.1,-0.6,210,17,29,10.0,29.338583,989.2,,TRUE,TRUE,,,,,,,CLR,,,,,,,,VFR,,,,,,,,,,,,METAR,1111.0
KGKY 231053Z AUTO 16014G23KT 10SM BKN022 22/17 A2980 RMK AO2 SLP080 T02170172,KGKY,2022-10-23T10:53:00Z,32.67,-97.1,21.7,17.2,160,14,23,10.0,29.799213,1008.0,,TRUE,TRUE,,,,,,,BKN,2200,,,,,,,MVFR,,,,,,,,,,,,METAR,189.0
KGKJ 231053Z AUTO 12003KT 10SM CLR 09/02 A3024 RMK AO2 SLP241 T00890022,KGKJ,2022-10-23T10:53:00Z,41.63,-80.22,8.9,2.2,120,3,,10.0,30.239174,1024.1,,TRUE,TRUE,,,,,,,CLR,,,,,,,,VFR,,,,,,,,,,,,METAR,428.0
KGJT 231053Z AUTO 26013KT 10SM -RA BKN044 BKN080 OVC110 06/04 A2950 RMK AO2 PK WND 26030/1005 WSHFT 0945 SLP944 P0003 T00560039,KGJT,2022-10-23T10:53:00Z,39.13,-108.53,5.6,3.9,260,13,,10.0,29.500984,994.4,,TRUE,TRUE,,,,,,-RA,BKN,4400,BKN,8000,OVC,11000,,,VFR,,,,,,0.03,,,,,,METAR,1475.0
KGIF 231053Z AUTO A3010 RMK AO2 SLPNO PWINO $,KGIF,2022-10-23T10:53:00Z,28.07,-81.75,,,,,,,30.100393,,,TRUE,TRUE,TRUE,,,,TRUE,,,,,,,,,,,,,,,,,,,,,,METAR,44.0
KGGG 231053Z AUTO 15007KT 10SM CLR 19/16 A2991 RMK AO2 SLP122 T01890161,KGGG,2022-10-23T10:53:00Z,32.38,-94.72,18.9,16.1,150,7,,10.0,29.911417,1012.2,,TRUE,TRUE,,,,,,,CLR,,,,,,,,VFR,,,,,,,,,,,,METAR,107.0
KGFL 231053Z AUTO 00000KT 10SM CLR 01/M01 A3033 RMK AO2 SLP278 T00061006,KGFL,2022-10-23T10:53:00Z,43.33,-73.62,0.6,-0.6,0,0,,10.0,30.33071,1027.8,,TRUE,TRUE,,,,,,,CLR,,,,,,,,VFR,,,,,,,,,,,,SPECI,99.0
KGFK 231053Z 02007KT 10SM CLR 04/03 A2955 RMK AO2 SLP012 T00440028 $,KGFK,2022-10-23T10:53:00Z,47.95,-97.18,4.4,2.8,20,7,,10.0,29.551182,1001.2,,,TRUE,TRUE,,,,,,CLR,,,,,,,,VFR,,,,,,,,,,,,METAR,256.0
KGEZ 231053Z AUTO 16009KT 10SM CLR 17/11 A3008 RMK AO2 SLP181 T01670106,KGEZ,2022-10-23T10:53:00Z,39.58,-85.8,16.7,10.6,160,9,,10.0,30.079725,1018.1,,TRUE,TRUE,,,,,,,CLR,,,,,,,,VFR,,,,,,,,,,,,SPECI,245.0
KGEY 231053Z AUTO 30014KT 10SM -RA BKN070 OVC080 05/02 A2941 RMK AO2 RAB21 SLP950 P0000 T00500022,KGEY,2022-10-23T10:53:00Z,44.52,-108.08,5.0,2.2,300,14,,10.0,29.409449,995.0,,TRUE,TRUE,,,,,,-RA,BKN,7000,OVC,8000,,,,,VFR,,,,,,0.005,,,,,,METAR,1191.0
KGEG 231053Z 17003KT 10SM SCT085 SCT110 BKN140 01/M02 A2979 RMK AO2 SLP099 T00061017 $,KGEG,2022-10-23T10:53:00Z,47.62,-117.53,0.6,-1.7,170,3,,10.0,29.790354,1009.9,,,TRUE,TRUE,,,,,,SCT,8500,SCT,11000,BKN,14000,,,VFR,,,,,,,,,,,,METAR,718.0
KGCC 231053Z AUTO 31006KT 10SM CLR 06/03 A2937 RMK AO2 SLP919 T00560028,KGCC,2022-10-23T10:53:00Z,44.33,-105.55,5.6,2.8,310,6,,10.0,29.371063,991.9,,TRUE,TRUE,,,,,,,CLR,,,,,,,,VFR,,,,,,,,,,,,METAR,1328.0
KGAG 231053Z AUTO 19019KT 10SM CLR 21/11 A2955 RMK AO2 PK WND 20026/1001 SLP977 T02060106,KGAG,2022-10-23T10:53:00Z,36.3,-99.77,20.6,10.6,190,19,,10.0,29.551182,997.7,,TRUE,TRUE,,,,,,,CLR,,,,,,,,VFR,,,,,,,,,,,,METAR,670.0
KFYV 231053Z 18011G20KT 10SM CLR 20/14 A2981 RMK AO2 SLP080 T02000144,KFYV,2022-10-23T10:53:00Z,36.02,-94.17,20.0,14.4,180,11,20,10.0,29.811024,1008.0,,,TRUE,,,,,,,CLR,,,,,,,,VFR,,,,,,,,,,,,METAR,377.0
KFXE 231053Z 00000KT 10SM CLR 19/19 A3003 RMK AO2 SLP170 T01890189 $,KFXE,2022-10-23T10:53:00Z,26.2,-80.18,18.9,18.9,0,0,,10.0,30.029528,1017.0,,,TRUE,TRUE,,,,,,CLR,,,,,,,,VFR,,,,,,,,,,,,METAR,3.0
KFWN 231053Z AUTO 00000KT 10SM OVC031 07/05 A3031 RMK AO2 SLP265 T00670050 $,KFWN,2022-10-23T10:53:00Z,41.2,-74.63,6.7,5.0,0,0,,10.0,30.31004,1026.5,,TRUE,TRUE,TRUE,,,,,,OVC,3100,,,,,,,VFR,,,,,,,,,,,,METAR,129.0
KFVE 231053Z AUTO 15006KT 10SM CLR 07/04 A3031 RMK AO2 SLP265 T00670039,KFVE,2022-10-23T10:53:00Z,47.28,-68.3,6.7,3.9,150,6,,10.0,30.31004,1026.5,,TRUE,TRUE,,,,,,,CLR,,,,,,,,VFR,,,,,,,,,,,,METAR,299.0
KFTY 231053Z 00000KT 10SM CLR 04/04 A3021 RMK AO2 SLP228 T00440039,KFTY,2022-10-23T10:53:00Z,33.78,-84.52,4.4,3.9,0,0,,10.0,30.209646,1022.8,,,TRUE,,,,,,,CLR,,,,,,,,VFR,,,,,,,,,,,,METAR,245.0
KFTW 231053Z AUTO 17014G21KT 10SM CLR 20/18 A2978 RMK AO2 SLP075 T02000178 $,KFTW,2022-10-23T10:53:00Z,32.83,-97.37,20.0,17.8,170,14,21,10.0,29.778543,1007.5,,TRUE,TRUE,TRUE,,,,,,CLR,,,,,,,,VFR,,,,,,,,,,,,METAR,213.0
KFST 231053Z AUTO 21010KT 10SM CLR 19/07 A2975 RMK AO2 SLP027 T01940067 $,KFST,2022-10-23T10:53:00Z,30.92,-102.92,19.4,6.7,210,10,,10.0,29.749016,1002.7,,TRUE,TRUE,TRUE,,,,,,CLR,,,,,,,,VFR,,,,,,,,,,,,METAR,917.0
KFSM 231053Z 05004KT 10SM FEW040 18/16 A2983 RMK AO2 SLP096 T01780161,KFSM,2022-10-23T10:53:00Z,35.33,-94.37,17.8,16.1,50,4,,10.0,29.828741,1009.6,,,TRUE,,,,,,,FEW,4000,,,,,,,VFR,,,,,,,,,,,,METAR,136.0
KFRG 231053Z 04006KT 10SM OVC043 14/11 A3028 RMK AO2 SLP253 T01440111 $,KFRG,2022-10-23T10:53:00Z,40.73,-73.42,14.4,11.1,40,6,,10.0,30.280512,1025.3,,,TRUE,TRUE,,,,,,OVC,4300,,,,,,,VFR,,,,,,,,,,,,METAR,23.0
KFPR 231053Z 29004KT 8SM CLR 18/17 A3005 RMK AO2 SLP176 T01780172,KFPR,2022-10-23T10:53:00Z,27.5,-80.38,17.8,17.2,290,4,,8.0,30.050198,1017.6,,,TRUE,,,,,,,CLR,,,,,,,,VFR,,,,,,,,,,,,METAR,7.0
KFOK 231053Z 04006KT 10SM OVC044 14/13 A3029 RMK AO2 SLP256 T01440128 $,KFOK,2022-10-23T10:53:00Z,40.85,-72.62,14.4,12.8,40,6,,10.0,30.28937,1025.6,,,TRUE,TRUE,,,,,,OVC,4400,,,,,,,VFR,,,,,,,,,,,,METAR,13.0
KFOE 231053Z 18021G27KT 10SM CLR 22/14 A2952 RMK AO2 SLP986 T02170144 $,KFOE,2022-10-23T10:53:00Z,38.93,-95.65,21.7,14.4,180,21,27,10.0,29.518702,998.6,,,TRUE,TRUE,,,,,,CLR,,,,,,,,VFR,,,,,,,,,,,,METAR,315.0
KFNT 231053Z AUTO 17007KT 10SM CLR 11/08 A3010 RMK AO2 SLP194 T01060083,KFNT,2022-10-23T10:53:00Z,42.97,-83.75,10.6,8.3,170,7,,10.0,30.100393,1019.4,,TRUE,TRUE,,,,,,,CLR,,,,,,,,VFR,,,,,,,,,,,,METAR,235.0
KFNB 231053Z AUTO 14010KT 10SM CLR 18/13 A2948 RMK AO2 SLP976 T01830133,KFNB,2022-10-23T10:53:00Z,40.07,-95.58,18.3,13.3,140,10,,10.0,29.480314,997.6,,TRUE,TRUE,,,,,,,CLR,,,,,,,,VFR,,,,,,,,,,,,METAR,301.0
KFMY 231053Z 04005KT 10SM CLR 18/18 A3005 RMK AO2 SLP178 T01830178,KFMY,2022-10-23T10:53:00Z,26.58,-81.87,18.3,17.8,40,5,,10.0,30.050198,1017.8,,,TRUE,,,,,,,CLR,,,,,,,,VFR,,,,,,,,,,,,METAR,4.0
KFMN 231053Z AUTO 21014G21KT 10SM CLR 14/01 A2961 RMK AO2 PK WND 21026/1000 SLP973 T01390006,KFMN,2022-10-23T10:53:00Z,36.75,-108.23,13.9,0.6,210,14,21,10.0,29.610237,997.3,,TRUE,TRUE,,,,,,,CLR,,,,,,,,VFR,,,,,,,,,,,,METAR,1677.0
KFLO 231053Z 34007KT 10SM 11/09 A3018 RMK AO2 SLP217 T01110094 $,KFLO,2022-10-23T10:53:00Z,34.18,-79.73,11.1,9.4,340,7,,10.0,30.180119,1021.7,,,TRUE,TRUE,,,,,,,,,,,,,,,,,,,,,,,,,,METAR,43.0
KFLL 231053Z 34006KT 10SM FEW038 20/19 A3002 RMK AO2 SLP166 T02000189 $,KFLL,2022-10-23T10:53:00Z,26.07,-80.15,20.0,18.9,340,6,,10.0,30.02067,1016.6,,,TRUE,TRUE,,,,,,FEW,3800,,,,,,,VFR,,,,,,,,,,,,METAR,1.0
KFLD 231053Z AUTO 17009KT 10SM CLR 14/10 A2987 RMK AO2 SLP114 T01440100,KFLD,2022-10-23T10:53:00Z,43.77,-88.48,14.4,10.0,170,9,,10.0,29.870079,1011.4,,TRUE,TRUE,,,,,,,CLR,,,,,,,,VFR,,,,,,,,,,,,SPECI,242.0
KFHR 231053Z AUTO 00000KT 10SM SCT048 04/04 A2998 RMK AO2 SLP153 T00440039,KFHR,2022-10-23T10:53:00Z,48.52,-123.03,4.4,3.9,0,0,,10.0,29.97933,1015.3,,TRUE,TRUE,,,,,,,SCT,4800,,,,,,,VFR,,,,,,,,,,,,METAR,34.0
KFFT 231053Z AUTO 15003KT 10SM CLR 12/08 A3016 RMK AO2 SLP209 T01220078,KFFT,2022-10-23T10:53:00Z,38.18,-84.9,12.2,7.8,150,3,,10.0,30.159449,1020.9,,TRUE,TRUE,,,,,,,CLR,,,,,,,,VFR,,,,,,,,,,,,METAR,235.0
KFFC 231053Z AUTO 00000KT 9SM CLR 04/02 A3021 RMK AO2 SLP232 T00390022,KFFC,2022-10-23T10:53:00Z,33.35,-84.57,3.9,2.2,0,0,,9.0,30.209646,1023.2,,TRUE,TRUE,,,,,,,CLR,,,,,,,,VFR,,,,,,,,,,,,METAR,242.0
KFDY 231053Z AUTO 14009KT 10SM CLR 12/08 A3013 RMK AO2 SLP199 T01220083,KFDY,2022-10-23T10:53:00Z,41.02,-83.67,12.2,8.3,140,9,,10.0,30.129921,1019.9,,TRUE,TRUE,,,,,,,CLR,,,,,,,,VFR,,,,,,,,,,,,METAR,247.0
KFDR 231053Z AUTO 18013KT 10SM CLR 20/12 A2963 RMK AO2 SLP014 T02000117,KFDR,2022-10-23T10:53:00Z,34.35,-98.98,20.0,11.7,180,13,,10.0,29.630905,1001.4,,TRUE,TRUE,,,,,,,CLR,,,,,,,,VFR,,,,,,,,,,,,SPECI,378.0
KFCM 231053Z 13011KT 10SM CLR 16/08 A2961 RMK AO2 SLP023 T01560078 $,KFCM,2022-10-23T10:53:00Z,44.83,-93.47,15.6,7.8,130,11,,10.0,29.610237,1002.3,,,TRUE,TRUE,,,,,,CLR,,,,,,,,VFR,,,,,,,,,,,,METAR,276.0
KFAY 231053Z 34005KT 10SM CLR 12/09 A3016 RMK AO2 SLP207 T01220089 $,KFAY,2022-10-23T10:53:00Z,34.98,-78.88,12.2,8.9,340,5,,10.0,30.159449,1020.7,,,TRUE,TRUE,,,,,,CLR,,,,,,,,VFR,,,,,,,,,,,,METAR,57.0
KFAT 231053Z 30008KT 10SM CLR 12/04 A2984 RMK AO2 SLP101 T01220039,KFAT,2022-10-23T10:53:00Z,36.78,-119.72,12.2,3.9,300,8,,10.0,29.840551,1010.1,,,TRUE,,,,,,,CLR,,,,,,,,VFR,,,,,,,,,,,,METAR,102.0
KFAR 231053Z AUTO 35004KT 10SM CLR 02/M01 A2950 RMK AO2 SLP995 T00171011 TSNO $,KFAR,2022-10-23T10:53:00Z,46.9,-96.82,1.7,-1.1,350,4,,10.0,29.500984,999.5,,TRUE,TRUE,TRUE,,TRUE,,,,CLR,,,,,,,,VFR,,,,,,,,,,,,METAR,276.0
KEYW 231053Z 04006KT 10SM CLR 23/21 A3002 RMK AO2 SLP164 T02330206,KEYW,2022-10-23T10:53:00Z,24.55,-81.75,23.3,20.6,40,6,,10.0,30.02067,1016.4,,,TRUE,,,,,,,CLR,,,,,,,,VFR,,,,,,,,,,,,METAR,1.0
KEYE 231053Z AUTO 13005KT 10SM CLR 14/11 A3006 RMK AO2 SLP174 T01440106,KEYE,2022-10-23T10:53:00Z,39.83,-86.3,14.4,10.6,130,5,,10.0,30.059055,1017.4,,TRUE,TRUE,,,,,,,CLR,,,,,,,,VFR,,,,,,,,,,,,SPECI,248.0
KEWB 231053Z 00000KT 10SM OVC110 11/11 A3031 RMK AO2 SLP264 T01060106 $,KEWB,2022-10-23T10:53:00Z,41.68,-70.95,10.6,10.6,0,0,,10.0,30.31004,1026.4,,,TRUE,TRUE,,,,,,OVC,11000,,,,,,,VFR,,,,,,,,,,,,SPECI,22.0
KEVW 231053Z AUTO 26005KT 10SM SCT036 OVC060 M02/M05 A2956 RMK AO2 SLP990 T10221050 $,KEVW,2022-10-23T10:53:00Z,41.27,-111.03,-2.2,-5.0,260,5,,10.0,29.56004,999.0,,TRUE,TRUE,TRUE,,,,,,SCT,3600,OVC,6000,,,,,VFR,,,,,,,,,,,,METAR,2178.0
KESF 231053Z AUTO 14005KT 10SM CLR 17/15 A3001 RMK AO2 SLP162 T01670150,KESF,2022-10-23T10:53:00Z,31.4,-92.28,16.7,15.0,140,5,,10.0,30.008858,1016.2,,TRUE,TRUE,,,,,,,CLR,,,,,,,,VFR,,,,,,,,,,,,METAR,27.0
KEQY 231053Z AUTO 03006KT 10SM CLR 08/04 A3020 RMK AO2 SLP239 T00780044,KEQY,2022-10-23T10:53:00Z,35.02,-80.62,7.8,4.4,30,6,,10.0,30.200787,1023.9,,TRUE,TRUE,,,,,,,CLR,,,,,,,,VFR,,,,,,,,,,,,METAR,205.0
KEPH 231053Z AUTO 35007KT 10SM CLR 06/M03 A2984 RMK AO2 SLP108 T00561033,KEPH,2022-10-23T10:53:00Z,47.3,-119.52,5.6,-3.3,350,7,,10.0,29.840551,1010.8,,TRUE,TRUE,,,,,,,CLR,,,,,,,,VFR,,,,,,,,,,,,METAR,382.0
KENW 231053Z AUTO 15007KT 10SM CLR 15/11 A2991 RMK AO2 SLP127 T01500111,KENW,2022-10-23T10:53:00Z,42.6,-87.93,15.0,11.1,150,7,,10.0,29.911417,1012.7,,TRUE,TRUE,,,,,,,CLR,,,,,,,,VFR,,,,,,,,,,,,METAR,222.0
KEMP 231053Z AUTO 16019G26KT 10SM CLR 20/13 A2954 RMK AO2 PK WND 16030/1036 SLP992 T02000128,KEMP,2022-10-23T10:53:00Z,38.33,-96.2,20.0,12.8,160,19,26,10.0,29.53937,999.2,,TRUE,TRUE,,,,,,,CLR,,,,,,,,VFR,,,,,,,,,,,,METAR,366.0
KELN 231053Z AUTO 32012KT 10SM CLR 05/M01 A2987 RMK AO2 SLP118 T00501011 $,KELN,2022-10-23T10:53:00Z,47.03,-120.53,5.0,-1.1,320,12,,10.0,29.870079,1011.8,,TRUE,TRUE,TRUE,,,,,,CLR,,,,,,,,VFR,,,,,,,,,,,,METAR,532.0
KELM 231053Z 00000KT 10SM CLR M01/M02 A3031 RMK AO2 SLP271 T10111022,KELM,2022-10-23T10:53:00Z,42.15,-76.9,-1.1,-2.2,0,0,,10.0,30.31004,1027.1,,,TRUE,,,,,,,CLR,,,,,,,,VFR,,,,,,,,,,,,METAR,287.0
KELD 231053Z AUTO 14008KT 10SM BKN041 17/16 A2998 RMK AO2 SLP148 T01720156,KELD,2022-10-23T10:53:00Z,33.22,-92.82,17.2,15.6,140,8,,10.0,29.97933,1014.8,,TRUE,TRUE,,,,,,,BKN,4100,,,,,,,VFR,,,,,,,,,,,,METAR,76.0
KEET 231053Z AUTO 00000KT 7SM CLR 09/07 A3017 RMK AO2 SLP215 T00890072,KEET,2022-10-23T10:53:00Z,33.18,-86.78,8.9,7.2,0,0,,7.0,30.171259,1021.5,,TRUE,TRUE,,,,,,,CLR,,,,,,,,VFR,,,,,,,,,,,,METAR,172.0
KECP 231053Z 32003KT 10SM CLR 07/05 A3014 RMK AO1 SLP218 T00670050,KECP,2022-10-23T10:53:00Z,30.35,-85.8,6.7,5.0,320,3,,10.0,30.138779,1021.8,,,TRUE,,,,,,,CLR,,,,,,,,VFR,,,,,,,,,,,,METAR,17.0
KDXR 231053Z 00000KT 10SM OVC043 10/07 A3032 RMK AO2 SLP267 T01000067,KDXR,2022-10-23T10:53:00Z,41.37,-73.48,10.0,6.7,0,0,,10.0,30.318897,1026.7,,,TRUE,,,,,,,OVC,4300,,,,,,,VFR,,,,,,,,,,,,METAR,138.0
KDWH 231053Z AUTO 15003KT 10SM FEW030 SCT050 21/18 A2991 RMK AO2 SLP127 T02060178,KDWH,2022-10-23T10:53:00Z,30.07,-95.55,20.6,17.8,150,3,,10.0,29.911417,1012.7,,TRUE,TRUE,,,,,,,FEW,3000,SCT,5000,,,,,VFR,,,,,,,,,,,,METAR,46.0
KDVT 231053Z AUTO 23013KT 10SM FEW080 19/14 A2969 RMK AO2 SLP033 T01940144,KDVT,2022-10-23T10:53:00Z,33.68,-112.07,19.4,14.4,230,13,,10.0,29.68996,1003.3,,TRUE,TRUE,,,,,,,FEW,8000,,,,,,,VFR,,,,,,,,,,,,METAR,454.0
KDUJ 231053Z AUTO 09006KT 10SM CLR 07/01 A3026 RMK AO2 SLP249 T00670011,KDUJ,2022-10-23T10:53:00Z,41.17,-78.9,6.7,1.1,90,6,,10.0,30.259842,1024.9,,TRUE,TRUE,,,,,,,CLR,,,,,,,,VFR,,,,,,,,,,,,METAR,552.0
KDTW 231053Z 12003KT 10SM SCT230 12/08 A3013 RMK AO2 SLP203 T01170083 $,KDTW,2022-10-23T10:53:00Z,42.23,-83.33,11.7,8.3,120,3,,10.0,30.129921,1020.3,,,TRUE,TRUE,,,,,,SCT,23000,,,,,,,VFR,,,,,,,,,,,,METAR,192.0
KDTS 231053Z 00000KT 10SM CLR 16/10 A3014 RMK AO2 SLP205 T01560100,KDTS,2022-10-23T10:53:00Z,30.4,-86.47,15.6,10.0,0,0,,10.0,30.138779,1020.5,,,TRUE,,,,,,,CLR,,,,,,,,VFR,,,,,,,,,,,,METAR,5.0
KDTO 231053Z 16014KT 10SM CLR 20/17 A2979 RMK AO2 SLP077 T02000172,KDTO,2022-10-23T10:53:00Z,33.2,-97.2,20.0,17.2,160,14,,10.0,29.790354,1007.7,,,TRUE,,,,,,,CLR,,,,,,,,VFR,,,,,,,,,,,,METAR,199.0
KDTN 231053Z AUTO 15008KT 10SM FEW035 18/16 A2995 RMK AO2 SLP141 T01830161,KDTN,2022-10-23T10:53:00Z,32.55,-93.75,18.3,16.1,150,8,,10.0,29.949802,1014.1,,TRUE,TRUE,,,,,,,FEW,3500,,,,,,,VFR,,,,,,,,,,,,METAR,53.0
KDRT 231053Z AUTO 10010KT 10SM OVC014 19/17 A2978 RMK AO2 SLP074 T01890172,KDRT,2022-10-23T10:53:00Z,29.37,-100.92,18.9,17.2,100,10,,10.0,29.778543,1007.4,,TRUE,TRUE,,,,,,,OVC,1400,,,,,,,MVFR,,,,,,,,,,,,METAR,303.0
KDRO 231053Z AUTO 23014G28KT 10SM BKN065 BKN080 BKN110 11/M01 A2966 RMK AO2 PK WND 22032/1038 SLP974 T01111006,KDRO,2022-10-23T10:53:00Z,37.15,-107.77,11.1,-0.6,230,14,28,10.0,29.660433,997.4,,TRUE,TRUE,,,,,,,BKN,6500,BKN,8000,BKN,11000,,,VFR,,,,,,,,,,,,METAR,2021.0
KDRA 231053Z AUTO 01008KT 10SM OVC100 10/M02 A2974 RMK AO2 SLP040 T01001022,KDRA,2022-10-23T10:53:00Z,36.62,-116.03,10.0,-2.2,10,8,,10.0,29.740158,1004.0,,TRUE,TRUE,,,,,,,OVC,10000,,,,,,,VFR,,,,,,,,,,,,METAR,988.0
KDNL 231053Z AUTO 34009KT 10SM CLR 10/03 A3020 RMK AO2 SLP223 T01000033,KDNL,2022-10-23T10:53:00Z,33.47,-82.03,10.0,3.3,340,9,,10.0,30.200787,1022.3,,TRUE,TRUE,,,,,,,CLR,,,,,,,,VFR,,,,,,,,,,,,METAR,126.0
KDMO 231053Z AUTO 18019G28KT 10SM FEW120 21/13 A2968 RMK AO2 PK WND 17028/1052 SLP043 T02110128,KDMO,2022-10-23T10:53:00Z,38.72,-93.17,21.1,12.8,180,19,28,10.0,29.681103,1004.3,,TRUE,TRUE,,,,,,,FEW,12000,,,,,,,VFR,,,,,,,,,,,,METAR,271.0
KDMN 231053Z AUTO 28005KT 10SM SCT042 SCT049 SCT085 18/13 A2979 RMK AO2 SLP017 T01780128,KDMN,2022-10-23T10:53:00Z,32.27,-107.72,17.8,12.8,280,5,,10.0,29.790354,1001.7,,TRUE,TRUE,,,,,,,SCT,4200,SCT,4900,SCT,8500,,,VFR,,,,,,,,,,,,METAR,1310.0
KDLS 231053Z AUTO 30012KT 10SM CLR 10/01 A2992 RMK AO2 SLP133 T01000011,KDLS,2022-10-23T10:53:00Z,45.62,-121.17,10.0,1.1,300,12,,10.0,29.920275,1013.3,,TRUE,TRUE,,,,,,,CLR,,,,,,,,VFR,,,,,,,,,,,,METAR,71.0
KDKK 231053Z AUTO 17009KT 10SM CLR 16/02 A3022 RMK AO2 SLP234 T01610017,KDKK,2022-10-23T10:53:00Z,42.5,-79.28,16.1,1.7,170,9,,10.0,30.221457,1023.4,,TRUE,TRUE,,,,,,,CLR,,,,,,,,VFR,,,,,,,,,,,,METAR,205.0
KDHT 231053Z AUTO 22011KT 10SM CLR 16/10 A2961 RMK AO2 SLP971 T01560100,KDHT,2022-10-23T10:53:00Z,36.02,-102.55,15.6,10.0,220,11,,10.0,29.610237,997.1,,TRUE,TRUE,,,,,,,CLR,,,,,,,,VFR,,,,,,,,,,,,METAR,1217.0
KDHN 231053Z AUTO 04004KT 10SM CLR 07/05 A3019 RMK AO2 SLP223 T00670050,KDHN,2022-10-23T10:53:00Z,31.32,-85.45,6.7,5.0,40,4,,10.0,30.188976,1022.3,,TRUE,TRUE,,,,,,,CLR,,,,,,,,VFR,,,,,,,,,,,,METAR,113.0
KDGW 231053Z AUTO 34008KT 10SM SCT095 BKN120 10/01 A2933 RMK AO2 SLP885 T01000011,KDGW,2022-10-23T10:53:00Z,42.8,-105.38,10.0,1.1,340,8,,10.0,29.329725,988.5,,TRUE,TRUE,,,,,,,SCT,9500,BKN,12000,,,,,VFR,,,,,,,,,,,,METAR,1503.0
KDFW 231053Z 17016G25KT 10SM SCT020 BKN250 22/17 A2978 RMK AO2 PK WND 17029/1040 SLP074 T02170172,KDFW,2022-10-23T10:53:00Z,32.9,-97.02,21.7,17.2,170,16,25,10.0,29.778543,1007.4,,,TRUE,,,,,,,SCT,2000,BKN,25000,,,,,VFR,,,,,,,,,,,,METAR,168.0
KDFI 231053Z AUTO 16005KT 10SM CLR 14/09 A3011 RMK AO2 SLP193 T01440094,KDFI,2022-10-23T10:53:00Z,41.33,-84.43,14.4,9.4,160,5,,10.0,30.109253,1019.3,,TRUE,TRUE,,,,,,,CLR,,,,,,,,VFR,,,,,,,,,,,,METAR,215.0
KDET 231053Z 15003KT 8SM CLR 12/08 A3014 RMK AO2 SLP204 T01220078,KDET,2022-10-23T10:53:00Z,42.4,-83.02,12.2,7.8,150,3,,8.0,30.138779,1020.4,,,TRUE,,,,,,,CLR,,,,,,,,VFR,,,,,,,,,,,,METAR,190.0
KDEQ 231053Z AUTO 14007KT 10SM 21/16 A2990 RMK AO2 SLP118 T02110156 $,KDEQ,2022-10-23T10:53:00Z,34.05,-94.4,21.1,15.6,140,7,,10.0,29.899607,1011.8,,TRUE,TRUE,TRUE,,,,,,,,,,,,,,,,,,,,,,,,,,METAR,107.0
KDEN 231053Z 17011KT 10SM BKN220 11/M03 A2933 RMK AO2 SLP860 T01111033,KDEN,2022-10-23T10:53:00Z,39.85,-104.65,11.1,-3.3,170,11,,10.0,29.329725,986.0,,,TRUE,,,,,,,BKN,22000,,,,,,,VFR,,,,,,,,,,,,METAR,1656.0
KDCU 231053Z AUTO 00000KT 8SM CLR 09/08 A3017 RMK AO2 SLP213 T00890078,KDCU,2022-10-23T10:53:00Z,34.65,-86.95,8.9,7.8,0,0,,8.0,30.171259,1021.3,,TRUE,TRUE,,,,,,,CLR,,,,,,,,VFR,,,,,,,,,,,,METAR,180.0
KDBQ 231053Z 15013KT 10SM FEW070 15/12 A2978 RMK AO2 SLP081 T01500122,KDBQ,2022-10-23T10:53:00Z,42.4,-90.7,15.0,12.2,150,13,,10.0,29.778543,1008.1,,,TRUE,,,,,,,FEW,7000,,,,,,,VFR,,,,,,,,,,,,METAR,317.0
KDAN 231053Z AUTO 00000KT 10SM CLR 03/02 A3023 RMK AO2 SLP232 T00330022,KDAN,2022-10-23T10:53:00Z,36.57,-79.33,3.3,2.2,0,0,,10.0,30.230314,1023.2,,TRUE,TRUE,,,,,,,CLR,,,,,,,,VFR,,,,,,,,,,,,METAR,170.0
KDAL 231053Z 18015G26KT 10SM BKN022 22/17 A2980 RMK AO2 PK WND 18033/1031 SLP086 T02170172,KDAL,2022-10-23T10:53:00Z,32.85,-96.85,21.7,17.2,180,15,26,10.0,29.799213,1008.6,,,TRUE,,,,,,,BKN,2200,,,,,,,MVFR,,,,,,,,,,,,METAR,148.0
KDAB 231053Z 00000KT 10SM CLR 16/14 A3009 RMK AO2 SLP189 T01610139,KDAB,2022-10-23T10:53:00Z,29.18,-81.07,16.1,13.9,0,0,,10.0,30.088583,1018.9,,,TRUE,,,,,,,CLR,,,,,,,,VFR,,,,,,,,,,,,METAR,8.0
KCYS 231053Z AUTO 01009KT 10SM BKN120 11/M04 A2935 RMK AO2 SLP861 T01111039,KCYS,2022-10-23T10:53:00Z,41.15,-104.8,11.1,-3.9,10,9,,10.0,29.350393,986.1,,TRUE,TRUE,,,,,,,BKN,12000,,,,,,,VFR,,,,,,,,,,,,METAR,1868.0
KCXO 231053Z 00000KT 10SM FEW050 16/16 A2993 RMK AO2 SLP131 T01610161,KCXO,2022-10-23T10:53:00Z,30.35,-95.42,16.1,16.1,0,0,,10.0,29.929134,1013.1,,,TRUE,,,,,,,FEW,5000,,,,,,,VFR,,,,,,,,,,,,METAR,69.0
KCUT 231053Z AUTO 02003KT 10SM CLR 08/M02 A2935 RMK AO2 SLP891 T00831017,KCUT,2022-10-23T10:53:00Z,43.73,-103.62,8.3,-1.7,20,3,,10.0,29.350393,989.1,,TRUE,TRUE,,,,,,,CLR,,,,,,,,VFR,,,,,,,,,,,,METAR,1700.0
KCUL 231053Z AUTO 15011KT 10SM SCT065 17/11 A3000 RMK AO2,KCUL,2022-10-23T10:53:00Z,38.08,-88.12,17.0,11.0,150,11,,10.0,30.0,,,TRUE,TRUE,,,,,,,SCT,6500,,,,,,,VFR,,,,,,,,,,,,METAR,116.0
KCUB 231053Z AUTO 00000KT 10SM CLR 08/06 A3020 RMK AO2 SLP227 T00830061,KCUB,2022-10-23T10:53:00Z,33.97,-81.0,8.3,6.1,0,0,,10.0,30.200787,1022.7,,TRUE,TRUE,,,,,,,CLR,,,,,,,,VFR,,,,,,,,,,,,METAR,55.0
KCSV 231053Z AUTO 00000KT 10SM CLR 06/06 A3023 RMK AO2 SLP233 T00610056,KCSV,2022-10-23T10:53:00Z,35.95,-85.08,6.1,5.6,0,0,,10.0,30.230314,1023.3,,TRUE,TRUE,,,,,,,CLR,,,,,,,,VFR,,,,,,,,,,,,METAR,569.0
KCSM 231053Z AUTO 19017KT 10SM CLR 19/12 A2963 RMK AO2 SLP008 T01890122,KCSM,2022-10-23T10:53:00Z,35.35,-99.2,18.9,12.2,190,17,,10.0,29.630905,1000.8,,TRUE,TRUE,,,,,,,CLR,,,,,,,,VFR,,,,,,,,,,,,METAR,586.0
KCRS 231053Z AUTO 16011KT 10SM OVC026 21/16 A2987 RMK AO2 SLP109 T02060161 $,KCRS,2022-10-23T10:53:00Z,32.03,-96.4,20.6,16.1,160,11,,10.0,29.870079,1010.9,,TRUE,TRUE,TRUE,,,,,,OVC,2600,,,,,,,MVFR,,,,,,,,,,,,METAR,136.0
KCRQ 231053Z AUTO 26008KT 10SM BKN026 BKN031 16/12 A2980 RMK AO2 SLP088 T01610117,KCRQ,2022-10-23T10:53:00Z,33.13,-117.28,16.1,11.7,260,8,,10.0,29.799213,1008.8,,TRUE,TRUE,,,,,,,BKN,2600,BKN,3100,,,,,MVFR,,,,,,,,,,,,METAR,96.0
KCRG 231053Z 00000KT 10SM CLR 13/11 A3012 RMK AO2 SLP197 T01330106,KCRG,2022-10-23T10:53:00Z,30.33,-81.52,13.3,10.6,0,0,,10.0,30.121063,1019.7,,,TRUE,,,,,,,CLR,,,,,,,,VFR,,,,,,,,,,,,METAR,12.0
KCRE 231053Z 01007KT 10SM CLR 13/09 A3013 RMK AO1 SLP204 T01280094,KCRE,2022-10-23T10:53:00Z,33.82,-78.72,12.8,9.4,10,7,,10.0,30.129921,1020.4,,,TRUE,,,,,,,CLR,,,,,,,,VFR,,,,,,,,,,,,METAR,9.0
KCQC 231053Z AUTO 22020G27KT 10SM CLR 09/08 A2980 RMK AO2 PK WND 23029/1031 SLP014 T00940083,KCQC,2022-10-23T10:53:00Z,35.0,-105.67,9.4,8.3,220,20,27,10.0,29.799213,1001.4,,TRUE,TRUE,,,,,,,CLR,,,,,,,,VFR,,,,,,,,,,,,METAR,2163.0
KCPS 231053Z AUTO 15008KT 10SM SCT095 17/11 A2986 RMK AO2 SLP109 T01720111 $,KCPS,2022-10-23T10:53:00Z,38.53,-90.15,17.2,11.1,150,8,,10.0,29.861221,1010.9,,TRUE,TRUE,TRUE,,,,,,SCT,9500,,,,,,,VFR,,,,,,,,,,,,METAR,125.0
KCOT 231053Z AUTO 13008KT 7SM CLR 21/18 A2981 RMK AO2 SLP086 T02060183,KCOT,2022-10-23T10:53:00Z,28.45,-99.22,20.6,18.3,130,8,,7.0,29.811024,1008.6,,TRUE,TRUE,,,,,,,CLR,,,,,,,,VFR,,,,,,,,,,,,METAR,144.0
KCNO 231053Z AUTO 26004KT 10SM CLR 14/12 A2980 RMK AO2 SLP086 T01390117,KCNO,2022-10-23T10:53:00Z,33.98,-117.62,13.9,11.7,260,4,,10.0,29.799213,1008.6,,TRUE,TRUE,,,,,,,CLR,,,,,,,,VFR,,,,,,,,,,,,METAR,191.0
KCNM 231053Z AUTO 15006KT 10SM CLR 14/12 A2970 RMK AO2 SLP008 T01440117,KCNM,2022-10-23T10:53:00Z,32.33,-104.25,14.4,11.7,150,6,,10.0,29.698818,1000.8,,TRUE,TRUE,,,,,,,CLR,,,,,,,,VFR,,,,,,,,,,,,METAR,993.0
KCMX 231053Z AUTO 15003KT 10SM CLR 12/08 A2980 RMK AO2 SLP095 T01170083,KCMX,2022-10-23T10:53:00Z,47.17,-88.48,11.7,8.3,150,3,,10.0,29.799213,1009.5,,TRUE,TRUE,,,,,,,CLR,,,,,,,,VFR,,,,,,,,,,,,METAR,326.0
KCMI 231053Z 16015KT 10SM OVC070 18/11 A2994 RMK AO2 SLP133 T01780111,KCMI,2022-10-23T10:53:00Z,40.03,-88.27,17.8,11.1,160,15,,10.0,29.940945,1013.3,,,TRUE,,,,,,,OVC,7000,,,,,,,VFR,,,,,,,,,,,,METAR,227.0
KCLM 231053Z AUTO 22006KT 10SM BKN040 06/03 A2999 RMK AO2 SLP155 T00610028,KCLM,2022-10-23T10:53:00Z,48.12,-123.5,6.1,2.8,220,6,,10.0,29.991142,1015.5,,TRUE,TRUE,,,,,,,BKN,4000,,,,,,,VFR,,,,,,,,,,,,METAR,81.0
KCLL 231053Z AUTO 14005KT 10SM CLR 19/17 A2989 RMK AO2 SLP115 T01890172,KCLL,2022-10-23T10:53:00Z,30.58,-96.37,18.9,17.2,140,5,,10.0,29.890747,1011.5,,TRUE,TRUE,,,,,,,CLR,,,,,,,,VFR,,,,,,,,,,,,METAR,96.0
KCKB 231053Z AUTO 00000KT 10SM CLR 04/01 A3023 RMK AO2 SLP235 T00390011,KCKB,2022-10-23T10:53:00Z,39.3,-80.22,3.9,1.1,0,0,,10.0,30.230314,1023.5,,TRUE,TRUE,,,,,,,CLR,,,,,,,,VFR,,,,,,,,,,,,METAR,368.0
KCHO 231053Z 00000KT 10SM CLR 04/02 A3024 RMK AO2 SLP238 T00390022 $,KCHO,2022-10-23T10:53:00Z,38.13,-78.45,3.9,2.2,0,0,,10.0,30.239174,1023.8,,,TRUE,TRUE,,,,,,CLR,,,,,,,,VFR,,,,,,,,,,,,METAR,193.0
KCHA 231053Z 00000KT 4SM BCFG BR SCT060 SCT250 07/06 A3022 RMK AO2 SLP230 T00720056,KCHA,2022-10-23T10:53:00Z,35.03,-85.2,7.2,5.6,0,0,,4.0,30.221457,1023.0,,,TRUE,,,,,,BCFG BR,SCT,6000,SCT,25000,,,,,MVFR,,,,,,,,,,,,METAR,203.0
KCGI 231053Z AUTO 17010G18KT 10SM BLDU CLR 18/12 A2996 RMK AO2 SLP144 T01830122,KCGI,2022-10-23T10:53:00Z,37.23,-89.58,18.3,12.2,170,10,18,10.0,29.958662,1014.4,,TRUE,TRUE,,,,,,BLDU,CLR,,,,,,,,VFR,,,,,,,,,,,,METAR,103.0
KCEZ 231053Z AUTO 21021G30KT 10SM -RA SCT055 BKN070 OVC085 12/03 A2960 RMK AO2 PK WND 21048/1003 SLP957 P0000 T01220033,KCEZ,2022-10-23T10:53:00Z,37.3,-108.63,12.2,3.3,210,21,30,10.0,29.601377,995.7,,TRUE,TRUE,,,,,,-RA,SCT,5500,BKN,7000,OVC,8500,,,VFR,,,,,,0.005,,,,,,METAR,1801.0
KCEW 231053Z AUTO 00000KT 8SM CLR 04/04 A3016 RMK AO2 SLP213 T00440039,KCEW,2022-10-23T10:53:00Z,30.78,-86.52,4.4,3.9,0,0,,8.0,30.159449,1021.3,,TRUE,TRUE,,,,,,,CLR,,,,,,,,VFR,,,,,,,,,,,,METAR,47.0
KCDW 231053Z 00000KT 10SM OVC045 10/06 A3030 RMK AO2 SLP266 T01000061,KCDW,2022-10-23T10:53:00Z,40.88,-74.28,10.0,6.1,0,0,,10.0,30.301182,1026.6,,,TRUE,,,,,,,OVC,4500,,,,,,,VFR,,,,,,,,,,,,METAR,52.0
KCDS 231053Z AUTO 21015KT 10SM CLR 20/12 A2965 RMK AO2 SLP012 T02000122,KCDS,2022-10-23T10:53:00Z,34.43,-100.28,20.0,12.2,210,15,,10.0,29.648623,1001.2,,TRUE,TRUE,,,,,,,CLR,,,,,,,,VFR,,,,,,,,,,,,METAR,595.0
KCDR 231053Z AUTO 00000KT 10SM CLR 03/M02 A2928 RMK AO2 SLP904 T00281017,KCDR,2022-10-23T10:53:00Z,42.83,-103.1,2.8,-1.7,0,0,,10.0,29.279528,990.4,,TRUE,TRUE,,,,,,,CLR,,,,,,,,VFR,,,,,,,,,,,,METAR,1002.0
KCDC 231053Z AUTO 23005KT 10SM OVC015 01/00 A2965 RMK AO2 SNE0958 SLP005 T00060000 PNO $,KCDC,2022-10-23T10:53:00Z,37.7,-113.1,0.6,0.0,230,5,,10.0,29.648623,1000.5,,TRUE,TRUE,TRUE,,,,,,OVC,1500,,,,,,,MVFR,,,,,,,,,,,,METAR,1703.0
KCCR 231053Z AUTO 16003KT 10SM CLR 11/04 A2990 RMK AO2 SLP109 T01060039,KCCR,2022-10-23T10:53:00Z,38.0,-122.05,10.6,3.9,160,3,,10.0,29.899607,1010.9,,TRUE,TRUE,,,,,,,CLR,,,,,,,,VFR,,,,,,,,,,,,METAR,6.0
KCAG 231053Z AUTO 25014KT 1 1/4SM -SN BR OVC013 01/M01 A2951 RMK AO2 UPB13E19SNE13B19 SLP956 P0001 T00061006,KCAG,2022-10-23T10:53:00Z,40.5,-107.52,0.6,-0.6,250,14,,1.25,29.509842,995.6,,TRUE,TRUE,,,,,,-SN BR,OVC,1300,,,,,,,IFR,,,,,,0.01,,,,,,METAR,1888.0
KBYI 231053Z AUTO 27016G25KT 10SM BKN085 01/M02 A2965 RMK AO2 PK WND 28027/1028 SLP040 T00111017,KBYI,2022-10-23T10:53:00Z,42.55,-113.77,1.1,-1.7,270,16,25,10.0,29.648623,1004.0,,TRUE,TRUE,,,,,,,BKN,8500,,,,,,,VFR,,,,,,,,,,,,METAR,1263.0
KBYG 231053Z AUTO 33015G22KT 10SM OVC035 06/03 A2940 RMK AO2 SLP932 T00610028,KBYG,2022-10-23T10:53:00Z,44.38,-106.72,6.1,2.8,330,15,22,10.0,29.40059,993.2,,TRUE,TRUE,,,,,,,OVC,3500,,,,,,,VFR,,,,,,,,,,,,METAR,1503.0
KBWG 231053Z AUTO 00000KT 8SM CLR 10/09 A3014 RMK AO2 SLP202 T01000089,KBWG,2022-10-23T10:53:00Z,36.97,-86.42,10.0,8.9,0,0,,8.0,30.138779,1020.2,,TRUE,TRUE,,,,,,,CLR,,,,,,,,VFR,,,,,,,,,,,,METAR,159.0
KBVY 231053Z 00000KT 5SM BR CLR 06/05 A3033 RMK AO2 SLP267 T00560050,KBVY,2022-10-23T10:53:00Z,42.58,-70.92,5.6,5.0,0,0,,5.0,30.33071,1026.7,,,TRUE,,,,,,BR,CLR,,,,,,,,MVFR,,,,,,,,,,,,SPECI,28.0
KBVO 231053Z AUTO 17014G22KT 10SM CLR 23/14 A2966 RMK AO2 PK WND 19026/1013 SLP030 T02280144,KBVO,2022-10-23T10:53:00Z,36.77,-96.02,22.8,14.4,170,14,22,10.0,29.660433,1003.0,,TRUE,TRUE,,,,,,,CLR,,,,,,,,VFR,,,,,,,,,,,,METAR,210.0
KBTR 231053Z 08004KT 10SM CLR 15/14 A3005 RMK AO2 SLP174 T01500139 $,KBTR,2022-10-23T10:53:00Z,30.53,-91.15,15.0,13.9,80,4,,10.0,30.050198,1017.4,,,TRUE,TRUE,,,,,,CLR,,,,,,,,VFR,,,,,,,,,,,,METAR,20.0
KBTM 231053Z AUTO 32008KT 7SM -SN OVC035 M02/M03 A2964 RMK AO2 SNB43 SLP053 P0000 T10171033,KBTM,2022-10-23T10:53:00Z,45.97,-112.5,-1.7,-3.3,320,8,,7.0,29.639763,1005.3,,TRUE,TRUE,,,,,,-SN,OVC,3500,,,,,,,VFR,,,,,,0.005,,,,,,METAR,1680.0
KBTL 231053Z 15009KT 10SM CLR 14/10 A3006 RMK AO2 SLP175 T01390100,KBTL,2022-10-23T10:53:00Z,42.32,-85.25,13.9,10.0,150,9,,10.0,30.059055,1017.5,,,TRUE,,,,,,,CLR,,,,,,,,VFR,,,,,,,,,,,,METAR,282.0
KBRL 231053Z AUTO 14008KT 10SM CLR 16/12 A2976 RMK AO2 SLP075 T01560117,KBRL,2022-10-23T10:53:00Z,40.77,-91.13,15.6,11.7,140,8,,10.0,29.760826,1007.5,,TRUE,TRUE,,,,,,,CLR,,,,,,,,VFR,,,,,,,,,,,,METAR,208.0
KBRD 231053Z AUTO 13006KT 9SM CLR 12/07 A2960 RMK AO2 SLP025 T01170067,KBRD,2022-10-23T10:53:00Z,46.4,-94.13,11.7,6.7,130,6,,9.0,29.601377,1002.5,,TRUE,TRUE,,,,,,,CLR,,,,,,,,VFR,,,,,,,,,,,,METAR,372.0
KBPT 231053Z 15006KT 10SM CLR 19/17 A2996 RMK AO2 SLP143 T01940172,KBPT,2022-10-23T10:53:00Z,29.95,-94.03,19.4,17.2,150,6,,10.0,29.958662,1014.3,,,TRUE,,,,,,,CLR,,,,,,,,VFR,,,,,,,,,,,,METAR,6.0
KBPK 231053Z AUTO 20017G21KT 10SM CLR 19/14 A2984 RMK AO2 SLP096 T01940139,KBPK,2022-10-23T10:53:00Z,36.37,-92.47,19.4,13.9,200,17,21,10.0,29.840551,1009.6,,TRUE,TRUE,,,,,,,CLR,,,,,,,,VFR,,,,,,,,,,,,METAR,279.0
KBPI 231053Z AUTO 01007KT 10SM BKN047 M01/M05 A2953 RMK AO2 SLP963 T10111050,KBPI,2022-10-23T10:53:00Z,42.58,-110.1,-1.1,-5.0,10,7,,10.0,29.530512,996.3,,TRUE,TRUE,,,,,,,BKN,4700,,,,,,,VFR,,,,,,,,,,,,METAR,2120.0
KBOI 231053Z 31010KT 10SM CLR 02/M01 A2978 RMK AO2 SLP088 T00221011,KBOI,2022-10-23T10:53:00Z,43.57,-116.23,2.2,-1.1,310,10,,10.0,29.778543,1008.8,,,TRUE,,,,,,,CLR,,,,,,,,VFR,,,,,,,,,,,,METAR,860.0
KBNO 231053Z AUTO 26003KT 10SM CLR M06/M08 A2986 RMK AO2 SLP129 T10561083 $,KBNO,2022-10-23T10:53:00Z,43.6,-118.95,-5.6,-8.3,260,3,,10.0,29.861221,1012.9,,TRUE,TRUE,TRUE,,,,,,CLR,,,,,,,,VFR,,,,,,,,,,,,METAR,1263.0
KBNA 231053Z 16004KT 10SM SCT065 13/08 A3015 RMK AO2 SLP206 T01330083 $,KBNA,2022-10-23T10:53:00Z,36.12,-86.68,13.3,8.3,160,4,,10.0,30.15059,1020.6,,,TRUE,TRUE,,,,,,SCT,6500,,,,,,,VFR,,,,,,,,,,,,METAR,168.0
KBMQ 231053Z AUTO 19010G17KT 10SM OVC019 21/18 A2987 RMK AO2 SLP096 T02110178,KBMQ,2022-10-23T10:53:00Z,30.73,-98.23,21.1,17.8,190,10,17,10.0,29.870079,1009.6,,TRUE,TRUE,,,,,,,OVC,1900,,,,,,,MVFR,,,,,,,,,,,,METAR,387.0
KBMG 231053Z 15006KT 10SM SCT065 15/11 A3006 RMK AO2 SLP175 T01500106,KBMG,2022-10-23T10:53:00Z,39.15,-86.62,15.0,10.6,150,6,,10.0,30.059055,1017.5,,,TRUE,,,,,,,SCT,6500,,,,,,,VFR,,,,,,,,,,,,METAR,254.0
KBLI 231053Z AUTO 00000KT 10SM OVC036 03/03 A2998 RMK AO2 SLP159 T00280028,KBLI,2022-10-23T10:53:00Z,48.8,-122.53,2.8,2.8,0,0,,10.0,29.97933,1015.9,,TRUE,TRUE,,,,,,,OVC,3600,,,,,,,VFR,,,,,,,,,,,,METAR,46.0
KBKV 231053Z 04003KT 10SM CLR 15/13 A3011 RMK AO2 SLP194 T01500133,KBKV,2022-10-23T10:53:00Z,28.47,-82.45,15.0,13.3,40,3,,10.0,30.109253,1019.4,,,TRUE,,,,,,,CLR,,,,,,,,VFR,,,,,,,,,,,,METAR,21.0
KBKL 231053Z AUTO 16012KT 10SM CLR 14/06 A3018 RMK AO2 SLP216 T01440056,KBKL,2022-10-23T10:53:00Z,41.53,-81.67,14.4,5.6,160,12,,10.0,30.180119,1021.6,,TRUE,TRUE,,,,,,,CLR,,,,,,,,VFR,,,,,,,,,,,,METAR,177.0
KBKE 231053Z AUTO 17003KT 10SM FEW002 SCT037 BKN065 M01/M01 A2984 RMK AO2 SLP119 T10061011,KBKE,2022-10-23T10:53:00Z,44.85,-117.82,-0.6,-1.1,170,3,,10.0,29.840551,1011.9,,TRUE,TRUE,,,,,,,FEW,200,SCT,3700,BKN,6500,,,VFR,,,,,,,,,,,,METAR,1025.0
KBIV 231053Z AUTO 16007KT 10SM CLR 13/11 A3000 RMK AO2 SLP159 T01330106,KBIV,2022-10-23T10:53:00Z,42.75,-86.1,13.3,10.6,160,7,,10.0,30.0,1015.9,,TRUE,TRUE,,,,,,,CLR,,,,,,,,VFR,,,,,,,,,,,,METAR,207.0
KBIL 231053Z 32013KT 10SM OVC030 04/02 A2948 RMK AO2 SLP989 T00390017,KBIL,2022-10-23T10:53:00Z,45.8,-108.55,3.9,1.7,320,13,,10.0,29.480314,998.9,,,TRUE,,,,,,,OVC,3000,,,,,,,MVFR,,,,,,,,,,,,METAR,1089.0
KBHM 231053Z 06003KT 10SM SCT250 12/07 A3020 RMK AO2 SLP222 T01170072,KBHM,2022-10-23T10:53:00Z,33.57,-86.75,11.7,7.2,60,3,,10.0,30.200787,1022.2,,,TRUE,,,,,,,SCT,25000,,,,,,,VFR,,,,,,,,,,,,METAR,191.0
KBGR 231053Z 00000KT 1/8SM R15/1000V1400FT FG VV002 07/07 A3036 RMK AO2 SLP281 T00720072,KBGR,2022-10-23T10:53:00Z,44.8,-68.82,7.2,7.2,0,0,,0.13,30.360237,1028.1,,,TRUE,,,,,,FG,OVX,0,,,,,,,LIFR,,,,,,,,,,,200,METAR,45.0
KBGM 231053Z 14003KT 10SM CLR 05/02 A3030 RMK AO2 SLP264 T00500017,KBGM,2022-10-23T10:53:00Z,42.22,-75.98,5.0,1.7,140,3,,10.0,30.301182,1026.4,,,TRUE,,,,,,,CLR,,,,,,,,VFR,,,,,,,,,,,,METAR,485.0
KBFM 231053Z AUTO 32003KT 10SM CLR 11/10 A3014 RMK AO2 SLP205 T01110100,KBFM,2022-10-23T10:53:00Z,30.62,-88.07,11.1,10.0,320,3,,10.0,30.138779,1020.5,,TRUE,TRUE,,,,,,,CLR,,,,,,,,VFR,,,,,,,,,,,,METAR,7.0
KBFI 231053Z 15004KT 10SM SCT030 BKN040 OVC065 07/06 A2998 RMK AO2 SLP152 T00670056,KBFI,2022-10-23T10:53:00Z,47.55,-122.32,6.7,5.6,150,4,,10.0,29.97933,1015.2,,,TRUE,,,,,,,SCT,3000,BKN,4000,OVC,6500,,,VFR,,,,,,,,,,,,METAR,7.0
KBFF 231053Z AUTO 33007KT 10SM CLR 07/M04 A2929 RMK AO2 SLP882 T00671044,KBFF,2022-10-23T10:53:00Z,41.87,-103.6,6.7,-4.4,330,7,,10.0,29.291338,988.2,,TRUE,TRUE,,,,,,,CLR,,,,,,,,VFR,,,,,,,,,,,,METAR,1204.0
KBFD 231053Z AUTO 00000KT 10SM CLR 03/00 A3029 RMK AO2 SLP259 T00330000,KBFD,2022-10-23T10:53:00Z,41.8,-78.63,3.3,0.0,0,0,,10.0,30.28937,1025.9,,TRUE,TRUE,,,,,,,CLR,,,,,,,,VFR,,,,,,,,,,,,SPECI,642.0
KBEH 231053Z AUTO 14008KT 10SM CLR 16/11 A2999 RMK AO2 SLP152 T01560111,KBEH,2022-10-23T10:53:00Z,42.13,-86.42,15.6,11.1,140,8,,10.0,29.991142,1015.2,,TRUE,TRUE,,,,,,,CLR,,,,,,,,VFR,,,,,,,,,,,,METAR,196.0
KBDE 231053Z AUTO 07006KT 10SM CLR 07/04 A2963 RMK AO2 SLP040 T00670039,KBDE,2022-10-23T10:53:00Z,48.73,-94.62,6.7,3.9,70,6,,10.0,29.630905,1004.0,,TRUE,TRUE,,,,,,,CLR,,,,,,,,VFR,,,,,,,,,,,,METAR,330.0
KBCT 231053Z 00000KT 10SM CLR 19/18 A3003,KBCT,2022-10-23T10:53:00Z,26.38,-80.1,19.0,18.0,0,0,,10.0,30.029528,,,,,,,,,,,CLR,,,,,,,,VFR,,,,,,,,,,,,METAR,3.0
KBBW 231053Z AUTO 10006KT 10SM CLR 06/02 A2929 RMK AO2 SLP904 T00610022,KBBW,2022-10-23T10:53:00Z,41.43,-99.63,6.1,2.2,100,6,,10.0,29.291338,990.4,,TRUE,TRUE,,,,,,,CLR,,,,,,,,VFR,,,,,,,,,,,,METAR,771.0
KBAF 231053Z 36005KT 10SM CLR 06/04 A3033 RMK AO2 SLP274 T00560039,KBAF,2022-10-23T10:53:00Z,42.17,-72.72,5.6,3.9,360,5,,10.0,30.33071,1027.4,,,TRUE,,,,,,,CLR,,,,,,,,VFR,,,,,,,,,,,,METAR,80.0
KAZO 231053Z 14004KT 10SM CLR 14/10 A3005 RMK AO2 SLP174 T01440100 $,KAZO,2022-10-23T10:53:00Z,42.23,-85.55,14.4,10.0,140,4,,10.0,30.050198,1017.4,,,TRUE,TRUE,,,,,,CLR,,,,,,,,VFR,,,,,,,,,,,,METAR,264.0
KAXN 231053Z AUTO 12011KT 10SM CLR 11/07 A2955 RMK AO2 SLP006 T01110067,KAXN,2022-10-23T10:53:00Z,45.87,-95.4,11.1,6.7,120,11,,10.0,29.551182,1000.6,,TRUE,TRUE,,,,,,,CLR,,,,,,,,VFR,,,,,,,,,,,,METAR,433.0
KAWM 231053Z AUTO 18012KT 10SM CLR 18/12 A3001 RMK AO2 SLP159 T01830122,KAWM,2022-10-23T10:53:00Z,35.13,-90.23,18.3,12.2,180,12,,10.0,30.008858,1015.9,,TRUE,TRUE,,,,,,,CLR,,,,,,,,VFR,,,,,,,,,,,,METAR,64.0
KAUS 231053Z 18006KT 10SM SCT022 SCT250 18/17 A2985 RMK AO2 SLP100 T01780172,KAUS,2022-10-23T10:53:00Z,30.18,-97.68,17.8,17.2,180,6,,10.0,29.84941,1010.0,,,TRUE,,,,,,,SCT,2200,SCT,25000,,,,,VFR,,,,,,,,,,,,METAR,148.0
KATY 231053Z AUTO 13009KT 10SM CLR 13/09 A2944 RMK AO2 SLP967 T01330089,KATY,2022-10-23T10:53:00Z,44.9,-97.15,13.3,8.9,130,9,,10.0,29.438976,996.7,,TRUE,TRUE,,,,,,,CLR,,,,,,,,VFR,,,,,,,,,,,,METAR,531.0
KASX 231053Z AUTO 00000KT 3SM BR CLR 04/04 A2973 RMK AO2 SLP074 T00440039,KASX,2022-10-23T10:53:00Z,46.55,-90.92,4.4,3.9,0,0,,3.0,29.731298,1007.4,,TRUE,TRUE,,,,,,BR,CLR,,,,,,,,MVFR,,,,,,,,,,,,METAR,249.0
KASE 231053Z AUTO 00000KT 4SM RA BR FEW015 OVC022 04/03 A2953 RMK AO2 SLP904 P0017 T00440033,KASE,2022-10-23T10:53:00Z,39.23,-106.87,4.4,3.3,0,0,,4.0,29.530512,990.4,,TRUE,TRUE,,,,,,RA BR,FEW,1500,OVC,2200,,,,,MVFR,,,,,,0.17,,,,,,METAR,2384.0
KASD 231053Z AUTO 00000KT 10SM CLR 12/11 A3008 RMK AO2 SLP185 T01170106,KASD,2022-10-23T10:53:00Z,30.35,-89.82,11.7,10.6,0,0,,10.0,30.079725,1018.5,,TRUE,TRUE,,,,,,,CLR,,,,,,,,VFR,,,,,,,,,,,,METAR,8.0
KARA 231053Z 12006KT 10SM FEW042 FEW060 18/15 A3002 RMK AO2 SLP165 T01780150,KARA,2022-10-23T10:53:00Z,30.03,-91.88,17.8,15.0,120,6,,10.0,30.02067,1016.5,,,TRUE,,,,,,,FEW,4200,FEW,6000,,,,,VFR,,,,,,,,,,,,METAR,5.0
KAPF 231053Z 03005KT 9SM CLR 18/18 A3004 RMK AO2 SLP170 T01830183 $,KAPF,2022-10-23T10:53:00Z,26.15,-81.77,18.3,18.3,30,5,,9.0,30.041338,1017.0,,,TRUE,TRUE,,,,,,CLR,,,,,,,,VFR,,,,,,,,,,,,METAR,2.0
KAPA 231053Z 22013G28KT 10SM SCT120 BKN200 15/M03 A2935 RMK AO2 PK WND 22028/1025 SLP870 T01501028,KAPA,2022-10-23T10:53:00Z,39.57,-104.85,15.0,-2.8,220,13,28,10.0,29.350393,987.0,,,TRUE,,,,,,,SCT,12000,BKN,20000,,,,,VFR,,,,,,,,,,,,METAR,1791.0
KAOO 231053Z AUTO 00000KT 10SM CLR 01/00 A3029 RMK AO2 SLP265 T00110000,KAOO,2022-10-23T10:53:00Z,40.3,-78.32,1.1,0.0,0,0,,10.0,30.28937,1026.5,,TRUE,TRUE,,,,,,,CLR,,,,,,,,VFR,,,,,,,,,,,,SPECI,450.0
KAOH 231053Z AUTO 16007KT 10SM CLR 12/08 A3013 RMK AO2 SLP202 T01220083,KAOH,2022-10-23T10:53:00Z,40.7,-84.02,12.2,8.3,160,7,,10.0,30.129921,1020.2,,TRUE,TRUE,,,,,,,CLR,,,,,,,,VFR,,,,,,,,,,,,METAR,294.0
KANB 231053Z AUTO 08003KT 10SM CLR 08/07 A3020 RMK AO2 SLP226 T00830067,KANB,2022-10-23T10:53:00Z,33.58,-85.85,8.3,6.7,80,3,,10.0,30.200787,1022.6,,TRUE,TRUE,,,,,,,CLR,,,,,,,,VFR,,,,,,,,,,,,METAR,187.0
KAMW 231053Z AUTO 14010KT 10SM CLR 15/11 A2961 RMK AO2 SLP018 T01500111,KAMW,2022-10-23T10:53:00Z,41.98,-93.62,15.0,11.1,140,10,,10.0,29.610237,1001.8,,TRUE,TRUE,,,,,,,CLR,,,,,,,,VFR,,,,,,,,,,,,METAR,282.0
KAMG 231053Z AUTO 35003KT 10SM FEW029 08/06 A3016 RMK AO2 SLP212 T00830061,KAMG,2022-10-23T10:53:00Z,31.53,-82.5,8.3,6.1,350,3,,10.0,30.159449,1021.2,,TRUE,TRUE,,,,,,,FEW,2900,,,,,,,VFR,,,,,,,,,,,,METAR,61.0
KAMA 231053Z 22019G26KT 10SM CLR 19/10 A2963 RMK AO2 PK WND 22029/1030 SLP982 T01890100,KAMA,2022-10-23T10:53:00Z,35.22,-101.72,18.9,10.0,220,19,26,10.0,29.630905,998.2,,,TRUE,,,,,,,CLR,,,,,,,,VFR,,,,,,,,,,,,METAR,1102.0
KALW 231053Z AUTO 18007KT 10SM BKN090 BKN110 06/02 A2987 RMK AO2 SLP117 T00560022 $,KALW,2022-10-23T10:53:00Z,46.1,-118.28,5.6,2.2,180,7,,10.0,29.870079,1011.7,,TRUE,TRUE,TRUE,,,,,,BKN,9000,BKN,11000,,,,,VFR,,,,,,,,,,,,METAR,355.0
KALI 231053Z AUTO 14006KT 10SM CLR 19/18 A2983 RMK AO2 SLP098 T01890183,KALI,2022-10-23T10:53:00Z,27.73,-98.02,18.9,18.3,140,6,,10.0,29.828741,1009.8,,TRUE,TRUE,,,,,,,CLR,,,,,,,,VFR,,,,,,,,,,,,METAR,52.0
KAKO 231053Z AUTO 21024G36KT 10SM CLR 17/M02 A2929 RMK AO2 PK WND 21043/1022 SLP860 T01721022 $,KAKO,2022-10-23T10:53:00Z,40.17,-103.22,17.2,-2.2,210,24,36,10.0,29.291338,986.0,,TRUE,TRUE,TRUE,,,,,,CLR,,,,,,,,VFR,,,,,,,,,,,,METAR,1431.0
KAIA 231053Z AUTO 11003KT 10SM CLR M02/M05 A2925 RMK AO2 SLP885 T10171050,KAIA,2022-10-23T10:53:00Z,42.05,-102.8,-1.7,-5.0,110,3,,10.0,29.25,988.5,,TRUE,TRUE,,,,,,,CLR,,,,,,,,VFR,,,,,,,,,,,,METAR,1198.0
KAGS 231053Z 00000KT 10SM CLR 04/04 A3019 RMK AO2 SLP224 T00440039,KAGS,2022-10-23T10:53:00Z,33.37,-81.97,4.4,3.9,0,0,,10.0,30.188976,1022.4,,,TRUE,,,,,,,CLR,,,,,,,,VFR,,,,,,,,,,,,METAR,40.0
KAGC 231053Z 07004KT 10SM CLR 09/03 A3023 RMK AO2 SLP241 T00940028,KAGC,2022-10-23T10:53:00Z,40.35,-79.92,9.4,2.8,70,4,,10.0,30.230314,1024.1,,,TRUE,,,,,,,CLR,,,,,,,,VFR,,,,,,,,,,,,METAR,380.0
KAFW 231053Z 17013KT 10SM BKN250 21/17 A2977 RMK AO2 SLP066 T02060172,KAFW,2022-10-23T10:53:00Z,32.97,-97.32,20.6,17.2,170,13,,10.0,29.769686,1006.6,,,TRUE,,,,,,,BKN,25000,,,,,,,VFR,,,,,,,,,,,,METAR,208.0
KAEX 231053Z 15009KT 10SM CLR 17/15 A3000 RMK AO2 SLP160 T01670150,KAEX,2022-10-23T10:53:00Z,31.33,-92.57,16.7,15.0,150,9,,10.0,30.0,1016.0,,,TRUE,,,,,,,CLR,,,,,,,,VFR,,,,,,,,,,,,METAR,25.0
KADG 231053Z AUTO 00000KT 10SM CLR 11/08 A3012 RMK AO2 SLP202 T01110083,KADG,2022-10-23T10:53:00Z,41.87,-84.08,11.1,8.3,0,0,,10.0,30.121063,1020.2,,TRUE,TRUE,,,,,,,CLR,,,,,,,,VFR,,,,,,,,,,,,METAR,244.0
KACV 231053Z AUTO 00000KT 10SM CLR 05/04 A3003 RMK AO2 SLP175 T00500044,KACV,2022-10-23T10:53:00Z,40.98,-124.1,5.0,4.4,0,0,,10.0,30.029528,1017.5,,TRUE,TRUE,,,,,,,CLR,,,,,,,,VFR,,,,,,,,,,,,METAR,63.0
KACK 231053Z 05008KT 10SM -RA OVC110 16/14 A3030 RMK AO2 SLP260 P0000 T01560144,KACK,2022-10-23T10:53:00Z,41.25,-70.07,15.6,14.4,50,8,,10.0,30.301182,1026.0,,,TRUE,,,,,,-RA,OVC,11000,,,,,,,VFR,,,,,,0.005,,,,,,METAR,12.0
KABY 231053Z AUTO 00000KT 10SM CLR 06/04 A3019 RMK AO2 SLP223 T00610039,KABY,2022-10-23T10:53:00Z,31.53,-84.2,6.1,3.9,0,0,,10.0,30.188976,1022.3,,TRUE,TRUE,,,,,,,CLR,,,,,,,,VFR,,,,,,,,,,,,METAR,60.0
KABR 231053Z AUTO 03009KT 10SM CLR 04/01 A2942 RMK AO2 SLP964 T00390011,KABR,2022-10-23T10:53:00Z,45.45,-98.42,3.9,1.1,30,9,,10.0,29.421259,996.4,,TRUE,TRUE,,,,,,,CLR,,,,,,,,VFR,,,,,,,,,,,,METAR,397.0
KAAF 231053Z AUTO 05005KT 10SM CLR 11/11 A3013 RMK AO2 SLP202 T01060106,KAAF,2022-10-23T10:53:00Z,29.73,-85.03,10.6,10.6,50,5,,10.0,30.129921,1020.2,,TRUE,TRUE,,,,,,,CLR,,,,,,,,VFR,,,,,,,,,,,,METAR,5.0
PATA 231052Z AUTO 00000KT 10SM OVC009 M03/M04 A3000 RMK AO2 SLP164 T10281044 TSNO $,PATA,2022-10-23T10:52:00Z,65.17,-152.1,-2.8,-4.4,0,0,,10.0,30.0,1016.4,,TRUE,TRUE,TRUE,,TRUE,,,,OVC,900,,,,,,,IFR,,,,,,,,,,,,METAR,62.0
PABA 231052Z AUTO 10019KT 10SM OVC010 M04/M06 A3004 RMK AO2 SLP180 T10441056 FZRANO PNO $,PABA,2022-10-23T10:52:00Z,70.13,-143.58,-4.4,-5.6,100,19,,10.0,30.041338,1018.0,,TRUE,TRUE,TRUE,,,TRUE,,,OVC,1000,,,,,,,MVFR,,,,,,,,,,,,METAR,1.0
MMVR 231052Z 20002KT 5SM FEW010 21/21 A2991 RMK 8/100 HZY BR RTS,MMVR,2022-10-23T10:52:00Z,19.15,-96.18,21.0,21.0,200,2,,5.0,29.911417,,,,,,,,,,,FEW,1000,,,,,,,MVFR,,,,,,,,,,,,METAR,26.0
KVTN 231052Z AUTO 07005KT 10SM CLR 06/02 A2928 RMK AO2 SLP903 T00610022,KVTN,2022-10-23T10:52:00Z,42.87,-100.55,6.1,2.2,70,5,,10.0,29.279528,990.3,,TRUE,TRUE,,,,,,,CLR,,,,,,,,VFR,,,,,,,,,,,,METAR,790.0
KTRM 231052Z AUTO 32009KT 10SM CLR 19/10 A2968 RMK AO2 SLP052 T01890100,KTRM,2022-10-23T10:52:00Z,33.63,-116.17,18.9,10.0,320,9,,10.0,29.681103,1005.2,,TRUE,TRUE,,,,,,,CLR,,,,,,,,VFR,,,,,,,,,,,,METAR,-39.0
KTOL 231052Z 00000KT 10SM CLR 09/08 A3012 RMK AO2 SLP199 T00940083,KTOL,2022-10-23T10:52:00Z,41.58,-83.8,9.4,8.3,0,0,,10.0,30.121063,1019.9,,,TRUE,,,,,,,CLR,,,,,,,,VFR,,,,,,,,,,,,METAR,206.0
KTAN 231052Z AUTO A3033 RMK AO2 SLPNO PWINO FZRANO TSNO $,KTAN,2022-10-23T10:52:00Z,41.88,-71.02,,,,,,,30.33071,,,TRUE,TRUE,TRUE,,TRUE,TRUE,TRUE,,,,,,,,,,,,,,,,,,,,,,METAR,8.0
KSUX 231052Z 12010KT 10SM CLR 13/11 A2943 RMK AO2 SLP962 T01280106,KSUX,2022-10-23T10:52:00Z,42.38,-96.38,12.8,10.6,120,10,,10.0,29.430119,996.2,,,TRUE,,,,,,,CLR,,,,,,,,VFR,,,,,,,,,,,,METAR,332.0
KSPS 231052Z AUTO 18014KT 10SM CLR 21/12 A2968 RMK AO2 SLP036 T02060122,KSPS,2022-10-23T10:52:00Z,33.98,-98.5,20.6,12.2,180,14,,10.0,29.681103,1003.6,,TRUE,TRUE,,,,,,,CLR,,,,,,,,VFR,,,,,,,,,,,,METAR,310.0
KSPI 231052Z 16014G23KT 10SM CLR 17/11 A2986 RMK AO2 SLP107 T01720106,KSPI,2022-10-23T10:52:00Z,39.85,-89.68,17.2,10.6,160,14,23,10.0,29.861221,1010.7,,,TRUE,,,,,,,CLR,,,,,,,,VFR,,,,,,,,,,,,METAR,179.0
KSGF 231052Z 17014KT 10SM SCT110 18/13 A2975 RMK AO2 SLP063 T01830128 $,KSGF,2022-10-23T10:52:00Z,37.23,-93.38,18.3,12.8,170,14,,10.0,29.749016,1006.3,,,TRUE,TRUE,,,,,,SCT,11000,,,,,,,VFR,,,,,,,,,,,,METAR,387.0
KREO 231052Z AUTO 29012KT 03/M02 A2982 RMK AO1 SLP105 T00281022,KREO,2022-10-23T10:52:00Z,42.58,-117.87,2.8,-2.2,290,12,,,29.819881,1010.5,,TRUE,TRUE,,,,,,,,,,,,,,,,,,,,,,,,,,,METAR,1237.0
KRAP 231052Z AUTO 31007KT 10SM CLR 06/02 A2931 RMK AO2 SLP920 T00560017 $,KRAP,2022-10-23T10:52:00Z,44.05,-103.05,5.6,1.7,310,7,,10.0,29.309055,992.0,,TRUE,TRUE,TRUE,,,,,,CLR,,,,,,,,VFR,,,,,,,,,,,,METAR,965.0
KPYM 231052Z AUTO 00000KT 10SM CLR 11/09 A3032 RMK AO2 SLP270 T01110094 $,KPYM,2022-10-23T10:52:00Z,41.92,-70.73,11.1,9.4,0,0,,10.0,30.318897,1027.0,,TRUE,TRUE,TRUE,,,,,,CLR,,,,,,,,VFR,,,,,,,,,,,,METAR,42.0
KPWK 231052Z AUTO 16007KT 10SM CLR 15/11 A2993 RMK AO2 SLP133 T01500106,KPWK,2022-10-23T10:52:00Z,42.12,-87.9,15.0,10.6,160,7,,10.0,29.929134,1013.3,,TRUE,TRUE,,,,,,,CLR,,,,,,,,VFR,,,,,,,,,,,,METAR,194.0
KPPF 231052Z AUTO 18013G27KT 10SM CLR 22/13 A2965 RMK AO2 PK WND 19027/1049 SLP031 T02170133 PWINO $,KPPF,2022-10-23T10:52:00Z,37.33,-95.5,21.7,13.3,180,13,27,10.0,29.648623,1003.1,,TRUE,TRUE,TRUE,,,,TRUE,,CLR,,,,,,,,VFR,,,,,,,,,,,,METAR,265.0
KP69 231052Z AUTO 00000KT 04/03 A2985 RMK AO1 SLP117 P0002 T00440033,KP69,2022-10-23T10:52:00Z,46.15,-115.6,4.4,3.3,0,0,,,29.84941,1011.7,,TRUE,TRUE,,,,,,,,,,,,,,,,,,,,,0.02,,,,,,METAR,447.0
KORE 231052Z AUTO 00000KT 9SM CLR 02/01 A3035 RMK AO2 SLP283 T00170011,KORE,2022-10-23T10:52:00Z,42.57,-72.28,1.7,1.1,0,0,,9.0,30.351377,1028.3,,TRUE,TRUE,,,,,,,CLR,,,,,,,,VFR,,,,,,,,,,,,METAR,165.0
KOMA 231052Z 14014KT 10SM CLR 17/12 A2945 RMK AO2 SLP966 T01720122,KOMA,2022-10-23T10:52:00Z,41.32,-95.9,17.2,12.2,140,14,,10.0,29.450787,996.6,,,TRUE,,,,,,,CLR,,,,,,,,VFR,,,,,,,,,,,,METAR,299.0
KOKC 231052Z 18017KT 10SM CLR 20/13 A2967 RMK AO2 SLP030 T02000128,KOKC,2022-10-23T10:52:00Z,35.38,-97.6,20.0,12.8,180,17,,10.0,29.66929,1003.0,,,TRUE,,,,,,,CLR,,,,,,,,VFR,,,,,,,,,,,,METAR,391.0
KNZY 231052Z AUTO 27009KT 10SM -DZ CLR 17/12 A2980 RMK AO2 SLP091 P0001 T01720122 $,KNZY,2022-10-23T10:52:00Z,32.7,-117.22,17.2,12.2,270,9,,10.0,29.799213,1009.1,,TRUE,TRUE,TRUE,,,,,-DZ,CLR,,,,,,,,VFR,,,,,,0.01,,,,,,SPECI,4.0
KNRB 231052Z AUTO 30004KT 10SM CLR A3011 RMK AO2 SLP197 $,KNRB,2022-10-23T10:52:00Z,30.38,-81.42,,,300,4,,10.0,30.109253,1019.7,,TRUE,TRUE,TRUE,,,,,,CLR,,,,,,,,VFR,,,,,,,,,,,,METAR,4.0
KNHK 231052Z AUTO 01013KT 10SM OVC024 15/11 A3018 RMK AO2 SLP221 T01500111 $,KNHK,2022-10-23T10:52:00Z,38.28,-76.4,15.0,11.1,10,13,,10.0,30.180119,1022.1,,TRUE,TRUE,TRUE,,,,,,OVC,2400,,,,,,,MVFR,,,,,,,,,,,,SPECI,5.0
KNFW 231052Z 18016KT 10SM SCT250 21/17 A2979 RMK AO2 PK WND 15028/1009 SLP071 T02110172 $,KNFW,2022-10-23T10:52:00Z,32.78,-97.43,21.1,17.2,180,16,,10.0,29.790354,1007.1,,,TRUE,TRUE,,,,,,SCT,25000,,,,,,,VFR,,,,,,,,,,,,METAR,188.0
KNFG 231052Z AUTO 25003KT 10SM FEW026 BKN034 16/12 A2981 RMK AO2 SLP092 T01560122,KNFG,2022-10-23T10:52:00Z,33.3,-117.35,15.6,12.2,250,3,,10.0,29.811024,1009.2,,TRUE,TRUE,,,,,,,FEW,2600,BKN,3400,,,,,VFR,,,,,,,,,,,,METAR,21.0
KN60 231052Z AUTO 06011G24KT 06/05 A2948 RMK AO1 PK WND 05027/1039 SLP991 T00610050,KN60,2022-10-23T10:52:00Z,47.65,-101.43,6.1,5.0,60,11,24,,29.480314,999.1,,TRUE,TRUE,,,,,,,,,,,,,,,,,,,,,,,,,,,METAR,582.0
KMWH 231052Z AUTO 29005KT 10SM CLR 04/M02 A2985 RMK AO2 SLP110 T00391022,KMWH,2022-10-23T10:52:00Z,47.2,-119.32,3.9,-2.2,290,5,,10.0,29.84941,1011.0,,TRUE,TRUE,,,,,,,CLR,,,,,,,,VFR,,,,,,,,,,,,METAR,355.0
KMLI 231052Z 16013KT 10SM OVC080 17/12 A2978 RMK AO2 SLP082 T01720122,KMLI,2022-10-23T10:52:00Z,41.45,-90.52,17.2,12.2,160,13,,10.0,29.778543,1008.2,,,TRUE,,,,,,,OVC,8000,,,,,,,VFR,,,,,,,,,,,,METAR,174.0
KMKE 231052Z 15006KT 10SM FEW250 14/11 A2990 RMK AO2 SLP123 T01440111,KMKE,2022-10-23T10:52:00Z,42.95,-87.9,14.4,11.1,150,6,,10.0,29.899607,1012.3,,,TRUE,,,,,,,FEW,25000,,,,,,,VFR,,,,,,,,,,,,METAR,203.0
KMHK 231052Z 20013KT 10SM CLR 22/12 A2946 RMK AO2 SLP965 T02220122,KMHK,2022-10-23T10:52:00Z,39.13,-96.68,22.2,12.2,200,13,,10.0,29.459646,996.5,,,TRUE,,,,,,,CLR,,,,,,,,VFR,,,,,,,,,,,,METAR,320.0
KMFD 231052Z 14007KT 10SM CLR 12/07 A3018 RMK AO2 SLP220 T01220067,KMFD,2022-10-23T10:52:00Z,40.82,-82.52,12.2,6.7,140,7,,10.0,30.180119,1022.0,,,TRUE,,,,,,,CLR,,,,,,,,VFR,,,,,,,,,,,,METAR,394.0
KMEB 231052Z AUTO 35003KT 10SM CLR 11/09 A3018 RMK AO2 SLP219 T01110089,KMEB,2022-10-23T10:52:00Z,34.78,-79.37,11.1,8.9,350,3,,10.0,30.180119,1021.9,,TRUE,TRUE,,,,,,,CLR,,,,,,,,VFR,,,,,,,,,,,,METAR,65.0
KMDH 231052Z AUTO 17016G23KT 10SM CLR 18/12 A2995 RMK AO2 SLP139 T01780122,KMDH,2022-10-23T10:52:00Z,37.78,-89.25,17.8,12.2,170,16,23,10.0,29.949802,1013.9,,TRUE,TRUE,,,,,,,CLR,,,,,,,,VFR,,,,,,,,,,,,METAR,122.0
KMBG 231052Z AUTO 07018G29KT 10SM CLR 08/02 A2933 RMK AO2 PK WND 06030/1029 SLP934 T00780017,KMBG,2022-10-23T10:52:00Z,45.55,-100.42,7.8,1.7,70,18,29,10.0,29.329725,993.4,,TRUE,TRUE,,,,,,,CLR,,,,,,,,VFR,,,,,,,,,,,,METAR,515.0
KLWC 231052Z AUTO 17014G21KT 10SM CLR 22/13 A2955 RMK AO1 SLP998 T02170128,KLWC,2022-10-23T10:52:00Z,39.02,-95.22,21.7,12.8,170,14,21,10.0,29.551182,999.8,,TRUE,TRUE,,,,,,,CLR,,,,,,,,VFR,,,,,,,,,,,,METAR,252.0
KIOW 231052Z AUTO 13007KT 10SM CLR 15/12 A2975 RMK AO2 SLP071 T01500117,KIOW,2022-10-23T10:52:00Z,41.63,-91.55,15.0,11.7,130,7,,10.0,29.749016,1007.1,,TRUE,TRUE,,,,,,,CLR,,,,,,,,VFR,,,,,,,,,,,,METAR,199.0
KIJD 231052Z AUTO 00000KT 10SM CLR 06/05 A3032 RMK AO2 SLP270 T00560050,KIJD,2022-10-23T10:52:00Z,41.75,-72.18,5.6,5.0,0,0,,10.0,30.318897,1027.0,,TRUE,TRUE,,,,,,,CLR,,,,,,,,VFR,,,,,,,,,,,,METAR,73.0
KIEN 231052Z AUTO 29004KT 10SM CLR 01/M02 A2928 RMK AO2 SLP901 T00061017,KIEN,2022-10-23T10:52:00Z,43.03,-102.52,0.6,-1.7,290,4,,10.0,29.279528,990.1,,TRUE,TRUE,,,,,,,CLR,,,,,,,,VFR,,,,,,,,,,,,METAR,1002.0
KIAD 231052Z 33004KT 10SM SCT140 BKN250 06/04 A3025 RMK AO2 SLP245 T00610039,KIAD,2022-10-23T10:52:00Z,38.93,-77.45,6.1,3.9,330,4,,10.0,30.250984,1024.5,,,TRUE,,,,,,,SCT,14000,BKN,25000,,,,,VFR,,,,,,,,,,,,METAR,90.0
KHUT 231052Z 17014G23KT 10SM CLR 20/12 A2948 RMK AO2 PK WND 17026/1004 SLP960 T02000117,KHUT,2022-10-23T10:52:00Z,38.07,-97.87,20.0,11.7,170,14,23,10.0,29.480314,996.0,,,TRUE,,,,,,,CLR,,,,,,,,VFR,,,,,,,,,,,,METAR,464.0
KHRL 231052Z 14008KT 10SM CLR 21/19 A2983 RMK AO2 SLP102 T02060194 $,KHRL,2022-10-23T10:52:00Z,26.23,-97.65,20.6,19.4,140,8,,10.0,29.828741,1010.2,,,TRUE,TRUE,,,,,,CLR,,,,,,,,VFR,,,,,,,,,,,,METAR,9.0
KHIE 231052Z AUTO 00000KT 10SM CLR M01/M02 A3036 RMK AO2 SLP294 T10111022,KHIE,2022-10-23T10:52:00Z,44.37,-71.55,-1.1,-2.2,0,0,,10.0,30.360237,1029.4,,TRUE,TRUE,,,,,,,CLR,,,,,,,,VFR,,,,,,,,,,,,METAR,321.0
KGLS 231052Z 16015KT 10SM FEW060 24/19 A2992 RMK AO2 SLP133 T02390189,KGLS,2022-10-23T10:52:00Z,29.27,-94.87,23.9,18.9,160,15,,10.0,29.920275,1013.3,,,TRUE,,,,,,,FEW,6000,,,,,,,VFR,,,,,,,,,,,,METAR,2.0
KFIT 231052Z AUTO 31003KT 10SM CLR 05/03 A3035 RMK AO2 SLP278 T00500033,KFIT,2022-10-23T10:52:00Z,42.55,-71.75,5.0,3.3,310,3,,10.0,30.351377,1027.8,,TRUE,TRUE,,,,,,,CLR,,,,,,,,VFR,,,,,,,,,,,,METAR,102.0
KEST 231052Z AUTO 15012KT 10SM CLR 14/09 A2955 RMK AO2 SLP001 T01390094,KEST,2022-10-23T10:52:00Z,43.4,-94.75,13.9,9.4,150,12,,10.0,29.551182,1000.1,,TRUE,TRUE,,,,,,,CLR,,,,,,,,VFR,,,,,,,,,,,,METAR,401.0
KDVN 231052Z AUTO 15012KT 10SM BKN080 17/12 A2980 RMK AO2 SLP084 T01670117,KDVN,2022-10-23T10:52:00Z,41.62,-90.58,16.7,11.7,150,12,,10.0,29.799213,1008.4,,TRUE,TRUE,,,,,,,BKN,8000,,,,,,,VFR,,,,,,,,,,,,METAR,227.0
KDPA 231052Z 16010KT 10SM CLR 16/10 A2990 RMK AO2 SLP122 T01560100,KDPA,2022-10-23T10:52:00Z,41.88,-88.25,15.6,10.0,160,10,,10.0,29.899607,1012.2,,,TRUE,,,,,,,CLR,,,,,,,,VFR,,,,,,,,,,,,METAR,228.0
KDDC 231052Z AUTO 21010KT 10SM CLR 18/10 A2948 RMK AO2 SLP949 T01830100 $,KDDC,2022-10-23T10:52:00Z,37.77,-99.97,18.3,10.0,210,10,,10.0,29.480314,994.9,,TRUE,TRUE,TRUE,,,,,,CLR,,,,,,,,VFR,,,,,,,,,,,,METAR,786.0
KDCA 231052Z 33007KT 10SM OVC250 10/07 A3025 RMK AO2 SLP243 T01000067 $,KDCA,2022-10-23T10:52:00Z,38.85,-77.03,10.0,6.7,330,7,,10.0,30.250984,1024.3,,,TRUE,TRUE,,,,,,OVC,25000,,,,,,,VFR,,,,,,,,,,,,METAR,4.0
KCVG 231052Z 17007KT 10SM FEW200 12/08 A3014 RMK AO2 SLP202 T01220083,KCVG,2022-10-23T10:52:00Z,39.05,-84.67,12.2,8.3,170,7,,10.0,30.138779,1020.2,,,TRUE,,,,,,,FEW,20000,,,,,,,VFR,,,,,,,,,,,,METAR,264.0
KCQX 231052Z AUTO 06006KT 10SM SCT003 BKN095 OVC120 15/13 A3032 RMK AO2 SLP269 T01500133,KCQX,2022-10-23T10:52:00Z,41.68,-70.0,15.0,13.3,60,6,,10.0,30.318897,1026.9,,TRUE,TRUE,,,,,,,SCT,300,BKN,9500,OVC,12000,,,VFR,,,,,,,,,,,,METAR,17.0
KCNU 231052Z AUTO 17019G29KT 10SM CLR 22/13 A2963 RMK AO2 PK WND 18029/1050 SLP021 T02220133 $,KCNU,2022-10-23T10:52:00Z,37.67,-95.48,22.2,13.3,170,19,29,10.0,29.630905,1002.1,,TRUE,TRUE,TRUE,,,,,,CLR,,,,,,,,VFR,,,,,,,,,,,,METAR,301.0
KCLT 231052Z 34005KT 10SM CLR 07/06 A3021 RMK SLP229 T00670056 $,KCLT,2022-10-23T10:52:00Z,35.22,-80.95,6.7,5.6,340,5,,10.0,30.209646,1022.9,,,,TRUE,,,,,,CLR,,,,,,,,VFR,,,,,,,,,,,,METAR,223.0
KCKV 231052Z AUTO 17004KT 10SM SCT070 16/10 A3010 RMK AO2 SLP189 T01610100,KCKV,2022-10-23T10:52:00Z,36.62,-87.42,16.1,10.0,170,4,,10.0,30.100393,1018.9,,TRUE,TRUE,,,,,,,SCT,7000,,,,,,,VFR,,,,,,,,,,,,METAR,166.0
KCID 231052Z 15011KT 10SM CLR 16/11 A2972 RMK AO2 SLP058 T01560111 $,KCID,2022-10-23T10:52:00Z,41.88,-91.72,15.6,11.1,150,11,,10.0,29.719488,1005.8,,,TRUE,TRUE,,,,,,CLR,,,,,,,,VFR,,,,,,,,,,,,METAR,257.0
KCFV 231052Z AUTO 18021G30KT 10SM CLR 22/14 A2963 RMK AO2 PK WND 19031/1036 SLP026 T02220139 PWINO $,KCFV,2022-10-23T10:52:00Z,37.08,-95.57,22.2,13.9,180,21,30,10.0,29.630905,1002.6,,TRUE,TRUE,TRUE,,,,TRUE,,CLR,,,,,,,,VFR,,,,,,,,,,,,METAR,228.0
KC99 231052Z AUTO 28009G17KT 250V030 10SM CLR 02/M08 A2956 RMK AO2,KC99,2022-10-23T10:52:00Z,39.87,-105.55,2.0,-8.0,280,9,17,10.0,29.56004,,,TRUE,TRUE,,,,,,,CLR,,,,,,,,VFR,,,,,,,,,,,,SPECI,3334.0
KBML 231052Z AUTO 00000KT 10SM CLR M01/M02 A3037 RMK AO2 SLP294 T10061017,KBML,2022-10-23T10:52:00Z,44.58,-71.18,-0.6,-1.7,0,0,,10.0,30.369095,1029.4,,TRUE,TRUE,,,,,,,CLR,,,,,,,,VFR,,,,,,,,,,,,METAR,344.0
KBLU 231052Z AUTO 06005KT 10SM CLR 02/M08 A2986 RMK AO2 SLP092 T00221083 $,KBLU,2022-10-23T10:52:00Z,39.28,-120.7,2.2,-8.3,60,5,,10.0,29.861221,1009.2,,TRUE,TRUE,TRUE,,,,,,CLR,,,,,,,,VFR,,,,,,,,,,,,METAR,1605.0
KBLH 231052Z AUTO 21011KT 10SM CLR 19/10 A2967 RMK AO2 SLP042 T01940100 TSNO,KBLH,2022-10-23T10:52:00Z,33.62,-114.72,19.4,10.0,210,11,,10.0,29.66929,1004.2,,TRUE,TRUE,,,TRUE,,,,CLR,,,,,,,,VFR,,,,,,,,,,,,METAR,119.0
KBLF 231052Z AUTO 11003KT 10SM CLR 05/01 A3025 RMK AO2 SLP233 T00500006,KBLF,2022-10-23T10:52:00Z,37.3,-81.2,5.0,0.6,110,3,,10.0,30.250984,1023.3,,TRUE,TRUE,,,,,,,CLR,,,,,,,,VFR,,,,,,,,,,,,METAR,871.0
KBKB 231052Z AUTO VRB03KT 10SM FEW049 17/16 A2998 RMK AO2 SLP177 T01670156,KBKB,2022-10-23T10:52:00Z,31.02,-92.92,16.7,15.6,0,3,,10.0,29.97933,1017.7,,TRUE,TRUE,,,,,,,FEW,4900,,,,,,,VFR,,,,,,,,,,,,METAR,74.0
KBIS 231052Z 05010KT 10SM CLR 07/04 A2947 RMK AO2 SLP986 T00670039,KBIS,2022-10-23T10:52:00Z,46.77,-100.75,6.7,3.9,50,10,,10.0,29.471457,998.6,,,TRUE,,,,,,,CLR,,,,,,,,VFR,,,,,,,,,,,,METAR,506.0
KBDR 231052Z 02007KT 10SM CLR 11/09 A3030 RMK AO2 SLP259 T01110089,KBDR,2022-10-23T10:52:00Z,41.17,-73.13,11.1,8.9,20,7,,10.0,30.301182,1025.9,,,TRUE,,,,,,,CLR,,,,,,,,VFR,,,,,,,,,,,,METAR,5.0
KBAN 231052Z AUTO 00000KT 10SM CLR M06/M09 A2984 RMK AO2 SLP101 T10611094 $,KBAN,2022-10-23T10:52:00Z,38.35,-119.52,-6.1,-9.4,0,0,,10.0,29.840551,1010.1,,TRUE,TRUE,TRUE,,,,,,CLR,,,,,,,,VFR,,,,,,,,,,,,METAR,2067.0
KATL 231052Z 09003KT 10SM FEW200 SCT250 09/04 A3020 RMK AO2 SLP226 T00940039,KATL,2022-10-23T10:52:00Z,33.63,-84.45,9.4,3.9,90,3,,10.0,30.200787,1022.6,,,TRUE,,,,,,,FEW,20000,SCT,25000,,,,,VFR,,,,,,,,,,,,METAR,309.0
KARR 231052Z AUTO 16010KT 10SM CLR 16/11 A2989 RMK AO2 SLP120 T01560106,KARR,2022-10-23T10:52:00Z,41.77,-88.48,15.6,10.6,160,10,,10.0,29.890747,1012.0,,TRUE,TRUE,,,,,,,CLR,,,,,,,,VFR,,,,,,,,,,,,METAR,213.0
KAQW 231052Z AUTO 00000KT 10SM CLR 01/01 A3035 RMK AO2 SLP284 T00110011,KAQW,2022-10-23T10:52:00Z,42.7,-73.17,1.1,1.1,0,0,,10.0,30.351377,1028.4,,TRUE,TRUE,,,,,,,CLR,,,,,,,,VFR,,,,,,,,,,,,METAR,196.0
KALS 231052Z AUTO 23010G24KT 10SM BKN080 BKN090 OVC110 10/M01 A2965 RMK AO2 PK WND 24033/1000 SLP959 T01001006,KALS,2022-10-23T10:52:00Z,37.43,-105.87,10.0,-0.6,230,10,24,10.0,29.648623,995.9,,TRUE,TRUE,,,,,,,BKN,8000,BKN,9000,OVC,11000,,,VFR,,,,,,,,,,,,METAR,2299.0
KAFN 231052Z AUTO 00000KT 10SM CLR 04/02 A3033 RMK AO2 SLP284 T00390022,KAFN,2022-10-23T10:52:00Z,42.8,-72.0,3.9,2.2,0,0,,10.0,30.33071,1028.4,,TRUE,TRUE,,,,,,,CLR,,,,,,,,VFR,,,,,,,,,,,,METAR,308.0
KABQ 231052Z 17010KT 10SM FEW040 FEW050 SCT065 SCT140 14/09 A2973 RMK AO2 SLP997 MTNS OBSC NE AND SE T01390094,KABQ,2022-10-23T10:52:00Z,35.05,-106.62,13.9,9.4,170,10,,10.0,29.731298,999.7,,,TRUE,,,,,,,FEW,4000,FEW,5000,SCT,6500,SCT,14000,VFR,,,,,,,,,,,,METAR,1620.0
KABI 231052Z 19013G25KT 10SM CLR 21/13 A2974 RMK AO2 PK WND 19027/1028 SLP045 T02110128,KABI,2022-10-23T10:52:00Z,32.42,-99.68,21.1,12.8,190,13,25,10.0,29.740158,1004.5,,,TRUE,,,,,,,CLR,,,,,,,,VFR,,,,,,,,,,,,METAR,543.0
PTKK 231051Z 05006KT 15SM FEW014 SCT280 28/23 A2980 RMK SLP093 T02830231,PTKK,2022-10-23T10:51:00Z,7.47,151.85,28.3,23.1,50,6,,15.0,29.799213,1009.3,,,,,,,,,,FEW,1400,SCT,28000,,,,,VFR,,,,,,,,,,,,METAR,3.0
PKMR 231051Z 13007KT 15SM FEW015 SCT050 BKN120 OVC300 28/23 A2985 RMK SLP108 T02750231,PKMR,2022-10-23T10:51:00Z,7.08,171.38,27.5,23.1,130,7,,15.0,29.84941,1010.8,,,,,,,,,,FEW,1500,SCT,5000,BKN,12000,OVC,30000,VFR,,,,,,,,,,,,SPECI,7.0
PHBK 231051Z AUTO 12004KT 10SM CLR 24/19 A3001 RMK AO2 SLP166 T02390194,PHBK,2022-10-23T10:51:00Z,22.03,-159.78,23.9,19.4,120,4,,10.0,30.008858,1016.6,,TRUE,TRUE,,,,,,,CLR,,,,,,,,VFR,,,,,,,,,,,,SPECI,5.0
PAMD 231051Z AUTO 05018G21KT 10SM FEW023 BKN055 OVC120 07/04 A2960 RMK AO2 RAB30E43 SLP012 T00720039 PNO $,PAMD,2022-10-23T10:51:00Z,59.43,-146.3,7.2,3.9,50,18,21,10.0,29.601377,1001.2,,TRUE,TRUE,TRUE,,,,,,FEW,2300,BKN,5500,OVC,12000,,,VFR,,,,,,,,,,,,METAR,20.0
MUGM 231051Z 33008KT 10SM FEW030 BKN250 24/22 A2992 RMK AO2 SLP131 T02390222 $,MUGM,2022-10-23T10:51:00Z,19.9,-75.2,23.9,22.2,330,8,,10.0,29.920275,1013.1,,,TRUE,TRUE,,,,,,FEW,3000,BKN,25000,,,,,VFR,,,,,,,,,,,,SPECI,21.0
KYNG 231051Z 12009KT 10SM FEW250 09/03 A3023 RMK AO2 SLP237 T00890028,KYNG,2022-10-23T10:51:00Z,41.25,-80.67,8.9,2.8,120,9,,10.0,30.230314,1023.7,,,TRUE,,,,,,,FEW,25000,,,,,,,VFR,,,,,,,,,,,,METAR,356.0
KXWA 231051Z AUTO 08020G26KT 6SM -RA BR OVC007 05/04 A2950 RMK AO2 PK WND 08027/1034 RAB0959 SLP009 P0002 T00500039,KXWA,2022-10-23T10:51:00Z,48.27,-103.75,5.0,3.9,80,20,26,6.0,29.500984,1000.9,,TRUE,TRUE,,,,,,-RA BR,OVC,700,,,,,,,IFR,,,,,,0.02,,,,,,METAR,717.0
KVNY 231051Z AUTO 00000KT 10SM FEW018 16/13 A2977 RMK AO2 SLP075 T01560133 $,KVNY,2022-10-23T10:51:00Z,34.22,-118.48,15.6,13.3,0,0,,10.0,29.769686,1007.5,,TRUE,TRUE,TRUE,,,,,,FEW,1800,,,,,,,VFR,,,,,,,,,,,,METAR,241.0
KVCT 231051Z AUTO 12004KT 6SM BR CLR 16/16 A2987 RMK AO2 SLP113 T01610161,KVCT,2022-10-23T10:51:00Z,28.87,-96.93,16.1,16.1,120,4,,6.0,29.870079,1011.3,,TRUE,TRUE,,,,,,BR,CLR,,,,,,,,VFR,,,,,,,,,,,,METAR,33.0
KTPL 231051Z AUTO 17012KT 10SM OVC019 21/18 A2985 RMK AO2 SLP098 T02060183,KTPL,2022-10-23T10:51:00Z,31.15,-97.4,20.6,18.3,170,12,,10.0,29.84941,1009.8,,TRUE,TRUE,,,,,,,OVC,1900,,,,,,,MVFR,,,,,,,,,,,,METAR,206.0
KTEB 231051Z 01008KT 10SM OVC048 11/08 A3028 RMK AO2 SLP253 T01110078,KTEB,2022-10-23T10:51:00Z,40.87,-74.05,11.1,7.8,10,8,,10.0,30.280512,1025.3,,,TRUE,,,,,,,OVC,4800,,,,,,,VFR,,,,,,,,,,,,METAR,3.0
KSTL 231051Z 15009KT 10SM SCT090 19/11 A2985 RMK AO2 SLP098 T01890111 $,KSTL,2022-10-23T10:51:00Z,38.75,-90.37,18.9,11.1,150,9,,10.0,29.84941,1009.8,,,TRUE,TRUE,,,,,,SCT,9000,,,,,,,VFR,,,,,,,,,,,,METAR,163.0
KSNT 231051Z AUTO 30004KT M06/M08 A2970 RMK AO1 SLP047 T10611083,KSNT,2022-10-23T10:51:00Z,44.17,-114.93,-6.1,-8.3,300,4,,,29.698818,1004.7,,TRUE,TRUE,,,,,,,,,,,,,,,,,,,,,,,,,,,METAR,1980.0
KSMX 231051Z AUTO 00000KT 8SM CLR 08/07 A2984 RMK AO2 SLP109 T00780072,KSMX,2022-10-23T10:51:00Z,34.9,-120.45,7.8,7.2,0,0,,8.0,29.840551,1010.9,,TRUE,TRUE,,,,,,,CLR,,,,,,,,VFR,,,,,,,,,,,,METAR,73.0
KSMO 231051Z AUTO 00000KT 10SM CLR 15/12 A2978 RMK AO2 SLP084 T01500122,KSMO,2022-10-23T10:51:00Z,34.02,-118.45,15.0,12.2,0,0,,10.0,29.778543,1008.4,,TRUE,TRUE,,,,,,,CLR,,,,,,,,VFR,,,,,,,,,,,,METAR,56.0
KSLK 231051Z AUTO 00000KT 10SM CLR M02/M03 A3033 RMK AO2 SLP285 T10171028,KSLK,2022-10-23T10:51:00Z,44.4,-74.2,-1.7,-2.8,0,0,,10.0,30.33071,1028.5,,TRUE,TRUE,,,,,,,CLR,,,,,,,,VFR,,,,,,,,,,,,METAR,502.0
KSJT 231051Z AUTO 19016G24KT 10SM CLR 19/14 A2975 RMK AO2 SLP053 T01940144,KSJT,2022-10-23T10:51:00Z,31.37,-100.5,19.4,14.4,190,16,24,10.0,29.749016,1005.3,,TRUE,TRUE,,,,,,,CLR,,,,,,,,VFR,,,,,,,,,,,,METAR,582.0
KSAT 231051Z 17008KT 10SM BKN017 21/18 A2986 RMK AO2 SLP093 T02060178,KSAT,2022-10-23T10:51:00Z,29.53,-98.48,20.6,17.8,170,8,,10.0,29.861221,1009.3,,,TRUE,,,,,,,BKN,1700,,,,,,,MVFR,,,,,,,,,,,,METAR,246.0
KSAN 231051Z 27008KT 10SM FEW024 18/13 A2982 RMK AO2 SLP098 T01780133,KSAN,2022-10-23T10:51:00Z,32.73,-117.18,17.8,13.3,270,8,,10.0,29.819881,1009.8,,,TRUE,,,,,,,FEW,2400,,,,,,,VFR,,,,,,,,,,,,METAR,3.0
KSAD 231051Z AUTO 30009KT 10SM FEW090 19/11 A2972 RMK AO2 SLP018 T01890106,KSAD,2022-10-23T10:51:00Z,32.85,-109.63,18.9,10.6,300,9,,10.0,29.719488,1001.8,,TRUE,TRUE,,,,,,,FEW,9000,,,,,,,VFR,,,,,,,,,,,,METAR,937.0
KRPX 231051Z AUTO 10SM 04/01 A2946 RMK Roundup ,KRPX,2022-10-23T10:51:00Z,46.47,-108.55,4.0,1.0,,,,10.0,29.459646,,,TRUE,,,,,,,,,,,,,,,,,,,,,,,,,,,,METAR,1062.0
KROW 231051Z AUTO 18010KT 10SM CLR 17/11 A2968 RMK AO2 SLP994 T01670106,KROW,2022-10-23T10:51:00Z,33.3,-104.5,16.7,10.6,180,10,,10.0,29.681103,999.4,,TRUE,TRUE,,,,,,,CLR,,,,,,,,VFR,,,,,,,,,,,,METAR,1105.0
KRDU 231051Z 01004KT 10SM FEW050 BKN250 10/08 A3019 RMK AO2 SLP222 T01000083,KRDU,2022-10-23T10:51:00Z,35.9,-78.78,10.0,8.3,10,4,,10.0,30.188976,1022.2,,,TRUE,,,,,,,FEW,5000,BKN,25000,,,,,VFR,,,,,,,,,,,,METAR,121.0
KPWM 231051Z 32003KT 10SM BKN200 06/04 A3034 RMK AO2 SLP275 T00560044,KPWM,2022-10-23T10:51:00Z,43.65,-70.3,5.6,4.4,320,3,,10.0,30.339567,1027.5,,,TRUE,,,,,,,BKN,20000,,,,,,,VFR,,,,,,,,,,,,METAR,15.0
KPVD 231051Z 00000KT 10SM OVC210 09/08 A3033 RMK AO2 SLP270 T00940078 $,KPVD,2022-10-23T10:51:00Z,41.72,-71.43,9.4,7.8,0,0,,10.0,30.33071,1027.0,,,TRUE,TRUE,,,,,,OVC,21000,,,,,,,VFR,,,,,,,,,,,,METAR,15.0
KPIT 231051Z 00000KT 10SM FEW250 04/01 A3023 RMK AO2 SLP246 T00390011,KPIT,2022-10-23T10:51:00Z,40.47,-80.2,3.9,1.1,0,0,,10.0,30.230314,1024.6,,,TRUE,,,,,,,FEW,25000,,,,,,,VFR,,,,,,,,,,,,METAR,339.0
KPHX 231051Z 22008KT 10SM FEW040 BKN060 22/12 A2967 RMK AO2 SLP030 T02170117 $,KPHX,2022-10-23T10:51:00Z,33.43,-112.02,21.7,11.7,220,8,,10.0,29.66929,1003.0,,,TRUE,TRUE,,,,,,FEW,4000,BKN,6000,,,,,VFR,,,,,,,,,,,,METAR,338.0
KP59 231051Z AUTO 24011G19KT 12/09 A2979 RMK AO1 SLP086 T01220089 $,KP59,2022-10-23T10:51:00Z,47.47,-87.88,12.2,8.9,240,11,19,,29.790354,1008.6,,TRUE,TRUE,TRUE,,,,,,,,,,,,,,,,,,,,,,,,,,METAR,185.0
KOXR 231051Z AUTO 00000KT 10SM CLR 13/12 A2977 RMK AO2 SLP080 T01330122,KOXR,2022-10-23T10:51:00Z,34.2,-119.2,13.3,12.2,0,0,,10.0,29.769686,1008.0,,TRUE,TRUE,,,,,,,CLR,,,,,,,,VFR,,,,,,,,,,,,METAR,12.0
KOXC 231051Z 36005KT 10SM BKN038 10/08 A3032 RMK AO2 SLP281 T01000078,KOXC,2022-10-23T10:51:00Z,41.47,-73.13,10.0,7.8,360,5,,10.0,30.318897,1028.1,,,TRUE,,,,,,,BKN,3800,,,,,,,VFR,,,,,,,,,,,,METAR,211.0
KORF 231051Z AUTO 01015KT 10SM OVC008 16/14 A3011 RMK AO2 SLP195 T01560144,KORF,2022-10-23T10:51:00Z,36.9,-76.2,15.6,14.4,10,15,,10.0,30.109253,1019.5,,TRUE,TRUE,,,,,,,OVC,800,,,,,,,IFR,,,,,,,,,,,,METAR,5.0
KORD 231051Z 17011G18KT 10SM CLR 17/11 A2991 RMK AO2 SLP126 T01720106,KORD,2022-10-23T10:51:00Z,41.95,-87.93,17.2,10.6,170,11,18,10.0,29.911417,1012.6,,,TRUE,,,,,,,CLR,,,,,,,,VFR,,,,,,,,,,,,METAR,202.0
KOCF 231051Z 00000KT 10SM CLR 12/11 A3013 RMK AO2 SLP203 T01170106 PNO $,KOCF,2022-10-23T10:51:00Z,29.17,-82.22,11.7,10.6,0,0,,10.0,30.129921,1020.3,,,TRUE,TRUE,,,,,,CLR,,,,,,,,VFR,,,,,,,,,,,,METAR,24.0
KNYC 231051Z AUTO VRB05KT 10SM SCT046 14/09 A3030 RMK AO2 SLP252 T01390089 $,KNYC,2022-10-23T10:51:00Z,40.78,-73.97,13.9,8.9,0,5,,10.0,30.301182,1025.2,,TRUE,TRUE,TRUE,,,,,,SCT,4600,,,,,,,VFR,,,,,,,,,,,,METAR,33.0
KMYL 231051Z AUTO 00000KT 10SM FEW095 M02/M07 A2973 RMK AO2 SLP081 T10221067,KMYL,2022-10-23T10:51:00Z,44.9,-116.1,-2.2,-6.7,0,0,,10.0,29.731298,1008.1,,TRUE,TRUE,,,,,,,FEW,9500,,,,,,,VFR,,,,,,,,,,,,METAR,1532.0
KMWN 231051Z 11010KT 70SM BKN100 BKN180 09/M08 RMK PTCHY VLY FG ALQDS,KMWN,2022-10-23T10:51:00Z,44.27,-71.3,9.0,-8.0,110,10,,70.0,,,,,,,,,,,,BKN,10000,BKN,18000,,,,,VFR,,,,,,,,,,,,METAR,1911.0
KMPV 231051Z AUTO 00000KT 10SM CLR 03/01 A3039 RMK AO2 SLP298 T00280006,KMPV,2022-10-23T10:51:00Z,44.2,-72.57,2.8,0.6,0,0,,10.0,30.389763,1029.8,,TRUE,TRUE,,,,,,,CLR,,,,,,,,VFR,,,,,,,,,,,,METAR,336.0
KLGU 231051Z AUTO 00000KT 10SM OVC006 02/01 A2961 RMK AO2 SLP029 T00170011,KLGU,2022-10-23T10:51:00Z,41.78,-111.85,1.7,1.1,0,0,,10.0,29.610237,1002.9,,TRUE,TRUE,,,,,,,OVC,600,,,,,,,IFR,,,,,,,,,,,,METAR,1359.0
KLGA 231051Z 04006KT 10SM BKN040 BKN120 BKN250 14/11 A3028 RMK AO2 SLP259 T01330117 $,KLGA,2022-10-23T10:51:00Z,40.78,-73.88,13.3,11.7,40,6,,10.0,30.280512,1025.9,,,TRUE,TRUE,,,,,,BKN,4000,BKN,12000,BKN,25000,,,VFR,,,,,,,,,,,,METAR,9.0
KJFK 231051Z COR 02008KT 10SM FEW035 BKN047 BKN140 OVC210 14/12 A3028 RMK AO2 SLP253 T01390117,KJFK,2022-10-23T10:51:00Z,40.63,-73.77,13.9,11.7,20,8,,10.0,30.280512,1025.3,TRUE,,TRUE,,,,,,,FEW,3500,BKN,4700,BKN,14000,OVC,21000,VFR,,,,,,,,,,,,METAR,3.0
KJCT 231051Z AUTO 17004KT 10SM OVC017 20/17 A2984 RMK AO2 SLP067 T02000172 $,KJCT,2022-10-23T10:51:00Z,30.5,-99.77,20.0,17.2,170,4,,10.0,29.840551,1006.7,,TRUE,TRUE,TRUE,,,,,,OVC,1700,,,,,,,MVFR,,,,,,,,,,,,METAR,522.0
KILG 231051Z 36006KT 10SM OVC021 12/08 A3025 RMK AO2 SLP242 T01220078,KILG,2022-10-23T10:51:00Z,39.67,-75.6,12.2,7.8,360,6,,10.0,30.250984,1024.2,,,TRUE,,,,,,,OVC,2100,,,,,,,MVFR,,,,,,,,,,,,METAR,22.0
KIGM 231051Z AUTO 24016KT 10SM BKN040 OVC065 14/05 A2970 RMK AO2 SLP997 T01390050,KIGM,2022-10-23T10:51:00Z,35.25,-113.93,13.9,5.0,240,16,,10.0,29.698818,999.7,,TRUE,TRUE,,,,,,,BKN,4000,OVC,6500,,,,,VFR,,,,,,,,,,,,METAR,1045.0
KHTS 231051Z 00000KT 10SM CLR 08/07 A3020 RMK AO2 SLP223 T00830067,KHTS,2022-10-23T10:51:00Z,38.37,-82.55,8.3,6.7,0,0,,10.0,30.200787,1022.3,,,TRUE,,,,,,,CLR,,,,,,,,VFR,,,,,,,,,,,,METAR,252.0
KHSE 231051Z AUTO 35007KT 310V040 8SM -RA OVC009 17/17 A3001 RMK AO2 RAB29 CIG 008V013 SLP163 P0004 T01720172,KHSE,2022-10-23T10:51:00Z,35.23,-75.62,17.2,17.2,350,7,,8.0,30.008858,1016.3,,TRUE,TRUE,,,,,,-RA,OVC,900,,,,,,,IFR,,,,,,0.04,,,,,,SPECI,4.0
KHDO 231051Z AUTO 14007KT 10SM CLR 19/18 A2985 RMK AO2 SLP091 T01940183,KHDO,2022-10-23T10:51:00Z,29.37,-99.17,19.4,18.3,140,7,,10.0,29.84941,1009.1,,TRUE,TRUE,,,,,,,CLR,,,,,,,,VFR,,,,,,,,,,,,METAR,280.0
KGDP 231051Z AUTO 24029G37KT 9SM CLR 17/07 A2984 RMK AO2 PK WND 24042/0958 SLP029 T01720072,KGDP,2022-10-23T10:51:00Z,31.83,-104.82,17.2,7.2,240,29,37,9.0,29.840551,1002.9,,TRUE,TRUE,,,,,,,CLR,,,,,,,,VFR,,,,,,,,,,,,METAR,1664.0
KEWR 231051Z 01010KT 10SM BKN045 BKN210 13/08 A3028 RMK AO2 SLP252 T01280083,KEWR,2022-10-23T10:51:00Z,40.68,-74.17,12.8,8.3,10,10,,10.0,30.280512,1025.2,,,TRUE,,,,,,,BKN,4500,BKN,21000,,,,,VFR,,,,,,,,,,,,METAR,2.0
KERI 231051Z 16012KT 10SM CLR 13/03 A3021 RMK AO2 SLP230 T01280028,KERI,2022-10-23T10:51:00Z,42.08,-80.18,12.8,2.8,160,12,,10.0,30.209646,1023.0,,,TRUE,,,,,,,CLR,,,,,,,,VFR,,,,,,,,,,,,METAR,222.0
KELP 231051Z 19012G21KT 10SM FEW120 FEW180 22/09 A2977 RMK AO2 SLP007 T02170089,KELP,2022-10-23T10:51:00Z,31.82,-106.35,21.7,8.9,190,12,21,10.0,29.769686,1000.7,,,TRUE,,,,,,,FEW,12000,FEW,18000,,,,,VFR,,,,,,,,,,,,METAR,1205.0
KEKN 231051Z AUTO 00000KT 3SM BR SCT001 M01/M02 A3028 RMK AO2 SLP269 I1000 T10061022,KEKN,2022-10-23T10:51:00Z,38.88,-79.85,-0.6,-2.2,0,0,,3.0,30.280512,1026.9,,TRUE,TRUE,,,,,,BR,SCT,100,,,,,,,MVFR,,,,,,,,,,,,METAR,596.0
KDAW 231051Z AUTO 31006KT 10SM CLR 06/04 A3033 RMK AO2 SLP271 T00560039,KDAW,2022-10-23T10:51:00Z,43.28,-70.92,5.6,3.9,310,6,,10.0,30.33071,1027.1,,TRUE,TRUE,,,,,,,CLR,,,,,,,,VFR,,,,,,,,,,,,METAR,100.0
KCSG 231051Z AUTO 00000KT 10SM CLR 07/05 A3019 RMK AO2 SLP221 T00670050,KCSG,2022-10-23T10:51:00Z,32.52,-84.95,6.7,5.0,0,0,,10.0,30.188976,1022.1,,TRUE,TRUE,,,,,,,CLR,,,,,,,,VFR,,,,,,,,,,,,METAR,120.0
KCRP 231051Z 18009KT 10SM FEW025 FEW047 BKN250 22/19 A2985 RMK AO2 SLP105 T02220194,KCRP,2022-10-23T10:51:00Z,27.77,-97.5,22.2,19.4,180,9,,10.0,29.84941,1010.5,,,TRUE,,,,,,,FEW,2500,FEW,4700,BKN,25000,,,VFR,,,,,,,,,,,,METAR,11.0
KCON 231051Z AUTO 09006KT 10SM CLR 02/02 A3036 RMK AO2 SLP283 T00220017,KCON,2022-10-23T10:51:00Z,43.2,-71.5,2.2,1.7,90,6,,10.0,30.360237,1028.3,,TRUE,TRUE,,,,,,,CLR,,,,,,,,VFR,,,,,,,,,,,,METAR,102.0
KCMH 231051Z 11005KT 10SM FEW220 12/07 A3017 RMK AO2 SLP215 T01170072 $,KCMH,2022-10-23T10:51:00Z,40.0,-82.88,11.7,7.2,110,5,,10.0,30.171259,1021.5,,,TRUE,TRUE,,,,,,FEW,22000,,,,,,,VFR,,,,,,,,,,,,METAR,257.0
KCLE 231051Z 16009KT 10SM FEW250 13/06 A3017 RMK AO2 SLP232 T01280056 $,KCLE,2022-10-23T10:51:00Z,41.42,-81.85,12.8,5.6,160,9,,10.0,30.171259,1023.2,,,TRUE,TRUE,,,,,,FEW,25000,,,,,,,VFR,,,,,,,,,,,,METAR,237.0
KCDJ 231051Z AUTO 15006KT 18/12 A2964 RMK AO1 SLP026 T01780122,KCDJ,2022-10-23T10:51:00Z,39.82,-93.57,17.8,12.2,150,6,,,29.639763,1002.6,,TRUE,TRUE,,,,,,,,,,,,,,,,,,,,,,,,,,,METAR,234.0
KCAK 231051Z 14006KT 10SM CLR 11/04 A3021 RMK AO2 SLP229 T01110044,KCAK,2022-10-23T10:51:00Z,40.92,-81.45,11.1,4.4,140,6,,10.0,30.209646,1022.9,,,TRUE,,,,,,,CLR,,,,,,,,VFR,,,,,,,,,,,,METAR,369.0
KBKW 231051Z AUTO 00000KT 10SM CLR 06/01 A3025 RMK AO2 SLP241 T00610011,KBKW,2022-10-23T10:51:00Z,37.8,-81.12,6.1,1.1,0,0,,10.0,30.250984,1024.1,,TRUE,TRUE,,,,,,,CLR,,,,,,,,VFR,,,,,,,,,,,,METAR,762.0
KBHK 231051Z AUTO 09011KT 10SM SCT110 07/02 A2939 RMK AO2 SLP952 T00670022,KBHK,2022-10-23T10:51:00Z,46.35,-104.25,6.7,2.2,90,11,,10.0,29.388779,995.2,,TRUE,TRUE,,,,,,,SCT,11000,,,,,,,VFR,,,,,,,,,,,,METAR,904.0
KBGD 231051Z AUTO 19013G25KT 10SM CLR 21/10 A2958 RMK AO2 PK WND 17030/1006 SLP973 T02060100,KBGD,2022-10-23T10:51:00Z,35.7,-101.4,20.6,10.0,190,13,25,10.0,29.58071,997.3,,TRUE,TRUE,,,,,,,CLR,,,,,,,,VFR,,,,,,,,,,,,METAR,928.0
KBED 231051Z 00000KT 7SM CLR 04/03 A3034 RMK AO2 SLP286 T00390028,KBED,2022-10-23T10:51:00Z,42.47,-71.3,3.9,2.8,0,0,,7.0,30.339567,1028.6,,,TRUE,,,,,,,CLR,,,,,,,,VFR,,,,,,,,,,,,METAR,39.0
KBDL 231051Z 00000KT 10SM BKN230 06/04 A3033 RMK AO2 SLP270 T00610044,KBDL,2022-10-23T10:51:00Z,41.93,-72.68,6.1,4.4,0,0,,10.0,30.33071,1027.0,,,TRUE,,,,,,,BKN,23000,,,,,,,VFR,,,,,,,,,,,,METAR,52.0
KBAZ 231051Z AUTO 19005KT 10SM FEW021 18/17 A2985 RMK AO2 SLP100 T01830172,KBAZ,2022-10-23T10:51:00Z,29.72,-98.05,18.3,17.2,190,5,,10.0,29.84941,1010.0,,TRUE,TRUE,,,,,,,FEW,2100,,,,,,,VFR,,,,,,,,,,,,METAR,199.0
KATT 231051Z AUTO VRB03KT 10SM BKN019 OVC024 21/18 A2986 RMK AO2 SLP099 T02060183,KATT,2022-10-23T10:51:00Z,30.32,-97.77,20.6,18.3,0,3,,10.0,29.861221,1009.9,,TRUE,TRUE,,,,,,,BKN,1900,OVC,2400,,,,,MVFR,,,,,,,,,,,,METAR,203.0
KALB 231051Z 00000KT 10SM BKN250 04/03 A3033 RMK AO2 SLP272 T00440033,KALB,2022-10-23T10:51:00Z,42.75,-73.8,4.4,3.3,0,0,,10.0,30.33071,1027.2,,,TRUE,,,,,,,BKN,25000,,,,,,,VFR,,,,,,,,,,,,METAR,82.0
KAHN 231051Z AUTO 00000KT 10SM CLR 04/03 A3020 RMK AO2 SLP228 T00440033,KAHN,2022-10-23T10:51:00Z,33.95,-83.33,4.4,3.3,0,0,,10.0,30.200787,1022.8,,TRUE,TRUE,,,,,,,CLR,,,,,,,,VFR,,,,,,,,,,,,METAR,241.0
KACT 231051Z AUTO 18018G26KT 10SM OVC020 22/18 A2983 RMK AO2 PK WND 17026/1050 SLP095 T02220178 $,KACT,2022-10-23T10:51:00Z,31.62,-97.23,22.2,17.8,180,18,26,10.0,29.828741,1009.5,,TRUE,TRUE,TRUE,,,,,,OVC,2000,,,,,,,MVFR,,,,,,,,,,,,METAR,150.0
KABE 231051Z 00000KT 10SM FEW027 BKN032 BKN039 06/04 A3029 RMK AO2 SLP259 T00610044,KABE,2022-10-23T10:51:00Z,40.65,-75.45,6.1,4.4,0,0,,10.0,30.28937,1025.9,,,TRUE,,,,,,,FEW,2700,BKN,3200,BKN,3900,,,VFR,,,,,,,,,,,,METAR,117.0
K6R6 231051Z AUTO 01007KT 16/13 A2981 RMK AO1 SLP065 T01560128,K6R6,2022-10-23T10:51:00Z,30.05,-102.22,15.6,12.8,10,7,,,29.811024,1006.5,,TRUE,TRUE,,,,,,,,,,,,,,,,,,,,,,,,,,,METAR,702.0
TJBQ 231050Z 00000KT 10SM CLR 23/22 A2994,TJBQ,2022-10-23T10:50:00Z,18.5,-67.13,23.0,22.0,0,0,,10.0,29.940945,,,,,,,,,,,CLR,,,,,,,,VFR,,,,,,,,,,,,METAR,69.0
PTYA 231050Z VRB03KT 12SM SCT016 BKN120 OVC300 25/25 A2976 RMK SLP079 T02520249,PTYA,2022-10-23T10:50:00Z,9.48,138.08,25.2,24.9,0,3,,12.0,29.760826,1007.9,,,,,,,,,,SCT,1600,BKN,12000,OVC,30000,,,VFR,,,,,,,,,,,,SPECI,4.0
PTRO 231050Z 25013G17KT 8SM -SHRA BKN013CB BKN110 OVC290 25/24 A2972 RMK CB ALQDS AND OHD,PTRO,2022-10-23T10:50:00Z,7.37,134.55,25.0,24.0,250,13,17,8.0,29.719488,,,,,,,,,,-SHRA,BKN,1300,BKN,11000,OVC,29000,,,MVFR,,,,,,,,,,,,METAR,30.0
OOSA 231050Z 16008KT 130V220 9999 FEW025 29/22 Q1014 NOSIG,OOSA,2022-10-23T10:50:00Z,17.03,54.1,29.0,22.0,160,8,,6.21,29.940945,,,,,,TRUE,,,,,FEW,2500,,,,,,,VFR,,,,,,,,,,,,METAR,20.0
OOMS 231050Z 03008KT CAVOK 31/24 Q1014 NOSIG,OOMS,2022-10-23T10:50:00Z,23.58,58.28,31.0,24.0,30,8,,6.21,29.940945,,,,,,TRUE,,,,,CAVOK,,,,,,,,VFR,,,,,,,,,,,,METAR,8.0
OOKB 231050Z 01012KT 9999 FEW035 34/18 Q1014 NOSIG,OOKB,2022-10-23T10:50:00Z,26.17,56.23,34.0,18.0,10,12,,6.21,29.940945,,,,,,TRUE,,,,,FEW,3500,,,,,,,VFR,,,,,,,,,,,,METAR,30.0
OODQ 231050Z AUTO 07010KT CAVOK ////// 28/23 Q1015 NOSIG RMK RH76? 0,OODQ,2022-10-23T10:50:00Z,19.52,57.65,28.0,23.0,70,10,,6.21,29.970472,,,TRUE,,,TRUE,,,,,CAVOK,,,,,,,,VFR,,,,,,,,,,,,METAR,116.0
OOAD 231050Z AUTO 17005KT 120V210 9999 R31///// // NCD 34/07 Q1016 NOSIG,OOAD,2022-10-23T10:50:00Z,22.5,57.37,34.0,7.0,170,5,,6.21,30.0,,,TRUE,,,TRUE,,,,,CLR,,,,,,,,VFR,,,,,,,,,,,,METAR,327.0
OITU 231050Z 12008KT 9999 FEW020 SCT035 11/07 Q1024,OITU,2022-10-23T10:50:00Z,39.33,44.43,11.0,7.0,120,8,,6.21,30.236221,,,,,,,,,,,FEW,2000,SCT,3500,,,,,VFR,,,,,,,,,,,,METAR,1364.0
OIMC 231050Z 06012KT CAVOK 22/10 Q1024,OIMC,2022-10-23T10:50:00Z,36.5,61.07,22.0,10.0,60,12,,6.21,30.236221,,,,,,,,,,,CAVOK,,,,,,,,VFR,,,,,,,,,,,,METAR,287.0
OIGK 231050Z 25010KT 9999 SCT020 BKN070 15/07 Q1026,OIGK,2022-10-23T10:50:00Z,34.35,47.13,15.0,7.0,250,10,,6.21,30.295275,,,,,,,,,,,SCT,2000,BKN,7000,,,,,VFR,,,,,,,,,,,,METAR,1314.0
OIAI 231050Z 32004KT CAVOK 34/07 Q1016,OIAI,2022-10-23T10:50:00Z,32.0,49.27,34.0,7.0,320,4,,6.21,30.0,,,,,,,,,,,CAVOK,,,,,,,,VFR,,,,,,,,,,,,METAR,357.0
NSTU 231050Z 36011G17KT 10SM SCT020 BKN120 26/24 A2984 RMK SLP107 T02600244 403120253,NSTU,2022-10-23T10:50:00Z,-14.33,-170.72,26.0,24.4,360,11,17,10.0,29.840551,1010.7,,,,,,,,,,SCT,2000,BKN,12000,,,,,VFR,,,,31.2,25.3,,,,,,,METAR,8.0
MUVR 231050Z 12004KT 9000 FEW020 21/20 Q1015,MUVR,2022-10-23T10:50:00Z,23.03,-81.43,21.0,20.0,120,4,,5.59,29.970472,,,,,,,,,,,FEW,2000,,,,,,,VFR,,,,,,,,,,,,METAR,65.0
MUHG 231050Z VRB03KT 9000 FEW020 BKN165 22/22 Q1014,MUHG,2022-10-23T10:50:00Z,20.78,-76.32,22.0,22.0,0,3,,5.59,29.940945,,,,,,,,,,,FEW,2000,BKN,16500,,,,,VFR,,,,,,,,,,,,METAR,100.0
MUHA 231050Z 07002KT 7000 FEW030 17/17 Q1015,MUHA,2022-10-23T10:50:00Z,22.98,-82.42,17.0,17.0,70,2,,4.35,29.970472,,,,,,,,,,,FEW,3000,,,,,,,MVFR,,,,,,,,,,,,METAR,61.0
MUCU 231050Z 01005KT 9000 FEW020 BKN060 25/22 Q1013,MUCU,2022-10-23T10:50:00Z,19.97,-75.83,25.0,22.0,10,5,,5.59,29.911417,,,,,,,,,,,FEW,2000,BKN,6000,,,,,VFR,,,,,,,,,,,,METAR,70.0
MUCM 231050Z 34003KT 7000 VCFG FEW014 BKN100 22/22 Q1014,MUCM,2022-10-23T10:50:00Z,21.42,-77.85,22.0,22.0,340,3,,4.35,29.940945,,,,,,,,,,VCFG,FEW,1400,BKN,10000,,,,,MVFR,,,,,,,,,,,,METAR,125.0
MUCL 231050Z 05005KT 020V090 9000 BKN020 26/24 Q1014,MUCL,2022-10-23T10:50:00Z,21.63,-81.55,26.0,24.0,50,5,,5.59,29.940945,,,,,,,,,,,BKN,2000,,,,,,,MVFR,,,,,,,,,,,,METAR,5.0
MSLP 231050Z 05004KT 9999 FEW040 SCT078 24/21 Q1010 A2984 NOSIG,MSLP,2022-10-23T10:50:00Z,13.43,-89.05,24.0,21.0,50,4,,6.21,29.822834,,,,,,TRUE,,,,,FEW,4000,SCT,7800,,,,,VFR,,,,,,,,,,,,METAR,25.0
LXGB 231050Z 20006KT 9999 FEW025 SCT250 24/18 Q1018 NOSIG RMK BLU BLU,LXGB,2022-10-23T10:50:00Z,36.15,-5.33,24.0,18.0,200,6,,6.21,30.059055,,,,,,TRUE,,,,,FEW,2500,SCT,25000,,,,,VFR,,,,,,,,,,,,METAR,5.0
LTFO 231050Z 04011KT CAVOK 18/10 Q1020,LTFO,2022-10-23T10:50:00Z,41.18,40.85,18.0,10.0,40,11,,6.21,30.11811,,,,,,,,,,,CAVOK,,,,,,,,VFR,,,,,,,,,,,,METAR,5.0
LTFM 231050Z 23012KT CAVOK 21/13 Q1020 NOSIG RMK RWY17L 22012KT RWY34L 22011KT RWY16R 22011KT RWY36 22012KT RWY18 22013KT,LTFM,2022-10-23T10:50:00Z,41.27,28.75,21.0,13.0,230,12,,6.21,30.11811,,,,,,TRUE,,,,,CAVOK,,,,,,,,VFR,,,,,,,,,,,,METAR,99.0
LTFJ 231050Z 26013KT CAVOK 20/05 Q1021 NOSIG RMK RWY24 25014KT,LTFJ,2022-10-23T10:50:00Z,40.9,29.3,20.0,5.0,260,13,,6.21,30.147638,,,,,,TRUE,,,,,CAVOK,,,,,,,,VFR,,,,,,,,,,,,METAR,83.0
LTFH 231050Z 16005KT 130V190 CAVOK 23/06 Q1018 NOSIG,LTFH,2022-10-23T10:50:00Z,41.27,36.57,23.0,6.0,160,5,,6.21,30.059055,,,,,,TRUE,,,,,CAVOK,,,,,,,,VFR,,,,,,,,,,,,METAR,7.0
LTFG 231050Z 24008KT 210V280 CAVOK 24/11 Q1020,LTFG,2022-10-23T10:50:00Z,36.3,32.3,24.0,11.0,240,8,,6.21,30.11811,,,,,,,,,,,CAVOK,,,,,,,,VFR,,,,,,,,,,,,METAR,26.0
LTFE 231050Z 27009KT CAVOK 25/M01 Q1020 NOSIG RMK RWY10 27010KT,LTFE,2022-10-23T10:50:00Z,37.25,27.67,25.0,-1.0,270,9,,6.21,30.11811,,,,,,TRUE,,,,,CAVOK,,,,,,,,VFR,,,,,,,,,,,,METAR,6.0
LTFD 231050Z VRB04KT CAVOK 22/04 Q1022,LTFD,2022-10-23T10:50:00Z,39.55,27.02,22.0,4.0,0,4,,6.21,30.177166,,,,,,,,,,,CAVOK,,,,,,,,VFR,,,,,,,,,,,,METAR,15.0
LTFC 231050Z 21004KT 140V270 CAVOK 17/M04 Q1023 RMK RWY23 18003KT 080V250,LTFC,2022-10-23T10:50:00Z,37.87,30.38,17.0,-4.0,210,4,,6.21,30.206694,,,,,,,,,,,CAVOK,,,,,,,,VFR,,,,,,,,,,,,METAR,862.0
LTFB 231050Z 29009KT CAVOK 23/05 Q1021,LTFB,2022-10-23T10:50:00Z,37.95,27.33,23.0,5.0,290,9,,6.21,30.147638,,,,,,,,,,,CAVOK,,,,,,,,VFR,,,,,,,,,,,,METAR,3.0
LTDA 231050Z 31004KT 250V020 CAVOK 25/13 Q1019 NOSIG,LTDA,2022-10-23T10:50:00Z,36.37,36.28,25.0,13.0,310,4,,6.21,30.088583,,,,,,TRUE,,,,,CAVOK,,,,,,,,VFR,,,,,,,,,,,,METAR,80.0
LTCW 231050Z 20012KT 140V230 9999 FEW035 16/04 Q1024,LTCW,2022-10-23T10:50:00Z,37.55,44.23,16.0,4.0,200,12,,6.21,30.236221,,,,,,,,,,,FEW,3500,,,,,,,VFR,,,,,,,,,,,,METAR,1852.0
LTCV 231050Z 19003KT 100V240 9999 FEW040 23/09 Q1020,LTCV,2022-10-23T10:50:00Z,37.37,42.07,23.0,9.0,190,3,,6.21,30.11811,,,,,,,,,,,FEW,4000,,,,,,,VFR,,,,,,,,,,,,METAR,620.0
LTCU 231050Z 25005KT 200V300 9999 FEW035 18/03 Q1023,LTCU,2022-10-23T10:50:00Z,38.87,40.58,18.0,3.0,250,5,,6.21,30.206694,,,,,,,,,,,FEW,3500,,,,,,,VFR,,,,,,,,,,,,METAR,1061.0
LTCT 231050Z 11006KT 060V150 9999 FEW040 16/04 Q1023,LTCT,2022-10-23T10:50:00Z,39.98,43.87,16.0,4.0,110,6,,6.21,30.206694,,,,,,,,,,,FEW,4000,,,,,,,VFR,,,,,,,,,,,,METAR,936.0
LTCS 231050Z 29008KT 260V330 CAVOK 20/01 Q1022 RMK RWY22 32007KT 260V010 SKC,LTCS,2022-10-23T10:50:00Z,37.45,38.9,20.0,1.0,290,8,,6.21,30.177166,,,,,,,,,,,CAVOK,,,,,,,,VFR,,,,,,,,,,,,METAR,825.0
LTCR 231050Z 28006KT 220V320 CAVOK 23/04 Q1020,LTCR,2022-10-23T10:50:00Z,37.22,40.63,23.0,4.0,280,6,,6.21,30.11811,,,,,,,,,,,CAVOK,,,,,,,,VFR,,,,,,,,,,,,METAR,529.0
LTCP 231050Z VRB05KT 9999 FEW040 22/05 Q1021,LTCP,2022-10-23T10:50:00Z,37.73,38.47,22.0,5.0,0,5,,6.21,30.147638,,,,,,,,,,,FEW,4000,,,,,,,VFR,,,,,,,,,,,,METAR,672.0
LTCO 231050Z VRB04KT 9999 FEW040 13/04 Q1024,LTCO,2022-10-23T10:50:00Z,39.65,43.03,13.0,4.0,0,4,,6.21,30.236221,,,,,,,,,,,FEW,4000,,,,,,,VFR,,,,,,,,,,,,METAR,1657.0
LTCN 231050Z VRB04KT CAVOK 23/05 Q1021 NOSIG,LTCN,2022-10-23T10:50:00Z,37.53,36.95,23.0,5.0,0,4,,6.21,30.147638,,,,,,TRUE,,,,,CAVOK,,,,,,,,VFR,,,,,,,,,,,,METAR,505.0
LTCL 231050Z 26005KT 190V290 9999 FEW040 18/11 Q1022,LTCL,2022-10-23T10:50:00Z,37.98,41.83,18.0,11.0,260,5,,6.21,30.177166,,,,,,,,,,,FEW,4000,,,,,,,VFR,,,,,,,,,,,,METAR,602.0
LTCK 231050Z 30003KT 230V020 9999 FEW030 15/04 Q1023,LTCK,2022-10-23T10:50:00Z,38.75,41.67,15.0,4.0,300,3,,6.21,30.206694,,,,,,,,,,,FEW,3000,,,,,,,VFR,,,,,,,,,,,,METAR,1267.0
LTCJ 231050Z VRB03KT 9999 FEW030 SCT100 18/12 Q1021 NOSIG RMK RWY20 VRB02KT 2CU030 3AC100,LTCJ,2022-10-23T10:50:00Z,37.93,41.12,18.0,12.0,0,3,,6.21,30.147638,,,,,,TRUE,,,,,FEW,3000,SCT,10000,,,,,VFR,,,,,,,,,,,,METAR,559.0
LTCI 231050Z 30006KT 270V330 9999 FEW040 14/04 Q1026 NOSIG,LTCI,2022-10-23T10:50:00Z,38.47,43.33,14.0,4.0,300,6,,6.21,30.295275,,,,,,TRUE,,,,,FEW,4000,,,,,,,VFR,,,,,,,,,,,,METAR,1654.0
LTCG 231050Z 09006KT 060V120 CAVOK 18/10 Q1021 NOSIG RMK RWY29 09006KT,LTCG,2022-10-23T10:50:00Z,41.0,39.77,18.0,10.0,90,6,,6.21,30.147638,,,,,,TRUE,,,,,CAVOK,,,,,,,,VFR,,,,,,,,,,,,METAR,28.0
LTCF 231050Z VRB04KT CAVOK 13/M00 Q1024,LTCF,2022-10-23T10:50:00Z,40.57,43.12,13.0,0.0,0,4,,6.21,30.236221,,,,,,,,,,,CAVOK,,,,,,,,VFR,,,,,,,,,,,,METAR,1794.0
LTCE 231050Z VRB03KT CAVOK 13/M02 Q1024 NOSIG RMK RWY08R 28004KT 250V340 RWY26R 12003KT 050V160 RWY08L VRB03KT SKC,LTCE,2022-10-23T10:50:00Z,39.95,41.17,13.0,-2.0,0,3,,6.21,30.236221,,,,,,TRUE,,,,,CAVOK,,,,,,,,VFR,,,,,,,,,,,,METAR,1758.0
LTCD 231050Z VRB02KT CAVOK 17/03 Q1023 NOSIG,LTCD,2022-10-23T10:50:00Z,39.72,39.52,17.0,3.0,0,2,,6.21,30.206694,,,,,,TRUE,,,,,CAVOK,,,,,,,,VFR,,,,,,,,,,,,METAR,1146.0
LTCC 231050Z VRB03KT CAVOK 20/10 Q1021 NOSIG RMK RWY16 VRB03KT SKC,LTCC,2022-10-23T10:50:00Z,37.88,40.2,20.0,10.0,0,3,,6.21,30.147638,,,,,,TRUE,,,,,CAVOK,,,,,,,,VFR,,,,,,,,,,,,METAR,676.0
LTCB 231050Z 09008KT CAVOK 19/12 Q1020,LTCB,2022-10-23T10:50:00Z,40.97,38.07,19.0,12.0,90,8,,6.21,30.11811,,,,,,,,,,,CAVOK,,,,,,,,VFR,,,,,,,,,,,,METAR,5.0
LTCA 231050Z 22004KT 150V260 CAVOK 19/00 Q1022 NOSIG,LTCA,2022-10-23T10:50:00Z,38.6,39.28,19.0,0.0,220,4,,6.21,30.177166,,,,,,TRUE,,,,,CAVOK,,,,,,,,VFR,,,,,,,,,,,,METAR,887.0
LTBY 231050Z VRB04KT CAVOK 16/00 Q1023,LTBY,2022-10-23T10:50:00Z,39.82,30.52,16.0,0.0,0,4,,6.21,30.206694,,,,,,,,,,,CAVOK,,,,,,,,VFR,,,,,,,,,,,,METAR,788.0
LTBU 231050Z 24009KT 200V270 CAVOK 23/14 Q1020 RMK RWY22 24008KT 200V270,LTBU,2022-10-23T10:50:00Z,41.13,27.92,23.0,14.0,240,9,,6.21,30.11811,,,,,,,,,,,CAVOK,,,,,,,,VFR,,,,,,,,,,,,METAR,165.0
LTBS 231050Z 23010KT 9999 FEW025 23/11 Q1020 NOSIG RMK RWY19 21010KT 180V240 1CU025,LTBS,2022-10-23T10:50:00Z,36.7,28.78,23.0,11.0,230,10,,6.21,30.11811,,,,,,TRUE,,,,,FEW,2500,,,,,,,VFR,,,-1.0,,,,,,,,,METAR,2.0
LTBR 231050Z 15004KT 090V220 CAVOK 21/04 Q1021 NOSIG RMK RWY07 13004KT 070V170,LTBR,2022-10-23T10:50:00Z,40.25,29.57,21.0,4.0,150,4,,6.21,30.147638,,,,,,TRUE,,,,,CAVOK,,,,,,,,VFR,,,,,,,,,,,,METAR,233.0
LTBQ 231050Z 27010KT 230V300 CAVOK 21/07 Q1021 NOSIG,LTBQ,2022-10-23T10:50:00Z,40.73,30.07,21.0,7.0,270,10,,6.21,30.147638,,,,,,TRUE,,,,,CAVOK,,,,,,,,VFR,,,,,,,,,,,,METAR,51.0
LTBJ 231050Z 35006KT 320V030 CAVOK 25/M00 Q1020 NOSIG RMK RWY16 35007KT 330V050,LTBJ,2022-10-23T10:50:00Z,38.28,27.15,25.0,0.0,350,6,,6.21,30.11811,,,,,,TRUE,,,,,CAVOK,,,,,,,,VFR,,,,,,,,,,,,METAR,123.0
LTBH 231050Z 28006KT 230V310 CAVOK 20/11 Q1021,LTBH,2022-10-23T10:50:00Z,40.13,26.42,20.0,11.0,280,6,,6.21,30.147638,,,,,,,,,,,CAVOK,,,,,,,,VFR,,,,,,,,,,,,METAR,8.0
LTBF 231050Z VRB01KT CAVOK 24/01 Q1021 NOSIG,LTBF,2022-10-23T10:50:00Z,39.62,27.92,24.0,1.0,0,1,,6.21,30.147638,,,,,,TRUE,,,,,CAVOK,,,,,,,,VFR,,,,,,,,,,,,METAR,95.0
LTBD 231050Z 08005KT 040V110 CAVOK 24/01 Q1020,LTBD,2022-10-23T10:50:00Z,37.82,27.88,24.0,1.0,80,5,,6.21,30.11811,,,,,,,,,,,CAVOK,,,,,,,,VFR,,,,,,,,,,,,METAR,29.0
LTBA 231050Z 24010KT CAVOK 19/12 Q1021 RMK RWY23 24012KT,LTBA,2022-10-23T10:50:00Z,40.97,28.82,19.0,12.0,240,10,,6.21,30.147638,,,,,,,,,,,CAVOK,,,,,,,,VFR,,,,,,,,,,,,METAR,33.0
LTAZ 231050Z 28005KT 230V360 CAVOK 16/M06 Q1024 RMK RWY29 VRB04KT,LTAZ,2022-10-23T10:50:00Z,38.77,34.52,16.0,-6.0,280,5,,6.21,30.236221,,,,,,,,,,,CAVOK,,,,,,,,VFR,,,,,,,,,,,,METAR,944.0
LTAY 231050Z 00000KT CAVOK 20/M07 Q1023,LTAY,2022-10-23T10:50:00Z,37.78,29.7,20.0,-7.0,0,0,,6.21,30.206694,,,,,,,,,,,CAVOK,,,,,,,,VFR,,,,,,,,,,,,METAR,851.0
LTAW 231050Z 29003KT CAVOK 17/06 Q1025,LTAW,2022-10-23T10:50:00Z,40.3,36.37,17.0,6.0,290,3,,6.21,30.265747,,,,,,,,,,,CAVOK,,,,,,,,VFR,,,,,,,,,,,,METAR,561.0
LTAU 231050Z 00000KT CAVOK 15/M00 Q1024 NOSIG RMK RWY07 VRB03KT,LTAU,2022-10-23T10:50:00Z,38.77,35.48,15.0,0.0,0,0,,6.21,30.236221,,,,,,TRUE,,,,,CAVOK,,,,,,,,VFR,,,,,,,,,,,,METAR,1053.0
LTAT 231050Z 10004KT CAVOK 18/00 Q1024 NOSIG RMK RWY03 05004KT 340V120,LTAT,2022-10-23T10:50:00Z,38.43,38.08,18.0,0.0,100,4,,6.21,30.236221,,,,,,TRUE,,,,,CAVOK,,,,,,,,VFR,,,,,,,,,,,,METAR,850.0
LTAS 231050Z 22005KT 140V250 9999 FEW035 SCT100 22/06 Q1019,LTAS,2022-10-23T10:50:00Z,41.52,32.08,22.0,6.0,220,5,,6.21,30.088583,,,,,,,,,,,FEW,3500,SCT,10000,,,,,VFR,,,,,,,,,,,,METAR,13.0
LTAR 231050Z 25006KT 210V270 CAVOK 10/M03 Q1025,LTAR,2022-10-23T10:50:00Z,39.8,36.9,10.0,-3.0,250,6,,6.21,30.265747,,,,,,,,,,,CAVOK,,,,,,,,VFR,,,,,,,,,,,,METAR,1601.0
LTAP 231050Z 12005KT 080V190 CAVOK 17/02 Q1021 NOSIG RMK RWY23 14005KT 100V190,LTAP,2022-10-23T10:50:00Z,40.83,35.52,17.0,2.0,120,5,,6.21,30.147638,,,,,,TRUE,,,,,CAVOK,,,,,,,,VFR,,,,,,,,,,,,METAR,536.0
LTAN 231050Z 14005KT 060V190 CAVOK 15/M04 Q1024 NOSIG,LTAN,2022-10-23T10:50:00Z,37.97,32.55,15.0,-4.0,140,5,,6.21,30.236221,,,,,,TRUE,,,,,CAVOK,,,,,,,,VFR,,,,,,,,,,,,METAR,1029.0
LTAL 231050Z 35003KT 320V040 CAVOK 13/04 Q1021,LTAL,2022-10-23T10:50:00Z,41.32,33.8,13.0,4.0,350,3,,6.21,30.147638,,,,,,,,,,,CAVOK,,,,,,,,VFR,,,,,,,,,,,,METAR,1074.0
LTAJ 231050Z 00000KT 9999 SCT040 21/06 Q1021 NOSIG RMK RWY10 VRB03KT 3CU040,LTAJ,2022-10-23T10:50:00Z,36.95,37.48,21.0,6.0,0,0,,6.21,30.147638,,,,,,TRUE,,,,,SCT,4000,,,,,,,VFR,,,,,,,,,,,,METAR,684.0
LTAI 231050Z VRB04KT CAVOK 25/M02 Q1019 NOSIG RMK RWY18C VRB04KT RWY36R VRB04KT RWY18L VRB04KT,LTAI,2022-10-23T10:50:00Z,36.9,30.8,25.0,-2.0,0,4,,6.21,30.088583,,,,,,TRUE,,,,,CAVOK,,,,,,,,VFR,,,,,,,,,,,,METAR,50.0
LTAG 231050Z 19003KT CAVOK 28/03 Q1017 NOSIG RMK SKC,LTAG,2022-10-23T10:50:00Z,37.0,35.42,28.0,3.0,190,3,,6.21,30.029528,,,,,,TRUE,,,,,CAVOK,,,,,,,,VFR,,,,,,,,,,,,METAR,62.0
LTAF 231050Z VRB02KT CAVOK 28/05 Q1018 NOSIG RMK RWY23 24004KT 180V300 SKC,LTAF,2022-10-23T10:50:00Z,36.98,35.28,28.0,5.0,0,2,,6.21,30.059055,,,,,,TRUE,,,,,CAVOK,,,,,,,,VFR,,,,,,,,,,,,METAR,19.0
LTAE 231050Z 19004KT 140V230 CAVOK 16/M01 Q1023 NOSIG RMK RWY21 20004KT 130V250,LTAE,2022-10-23T10:50:00Z,40.07,32.57,16.0,-1.0,190,4,,6.21,30.206694,,,,,,TRUE,,,,,CAVOK,,,,,,,,VFR,,,0.4,,,,,,,,,METAR,836.0
LTAC 231050Z 19011KT 9999 SCT040 SCT080 15/M05 Q1023 NOSIG RMK RWY21L 19010KT RWY03L 18010KT RWY21R 20011KT,LTAC,2022-10-23T10:50:00Z,40.12,32.98,15.0,-5.0,190,11,,6.21,30.206694,,,,,,TRUE,,,,,SCT,4000,SCT,8000,,,,,VFR,,,1.1,,,,,,,,,METAR,952.0
LSZS 231050Z 28002KT 9999 FEW003 BKN022 BKN045 09/09 Q1026 RMK K TL170,LSZS,2022-10-23T10:50:00Z,46.53,9.88,9.0,9.0,280,2,,6.21,30.295275,,,,,,,,,,,FEW,300,BKN,2200,BKN,4500,,,MVFR,,,,,,,,,,,,METAR,1708.0
LSZR 231050Z VRB02KT CAVOK 14/12 Q1016 RMK D,LSZR,2022-10-23T10:50:00Z,47.48,9.57,14.0,12.0,0,2,,6.21,30.0,,,,,,,,,,,CAVOK,,,,,,,,VFR,,,,,,,,,,,,METAR,396.0
LSZL 231050Z AUTO VRB01KT 9999NDV FEW028 BKN043 15/14 Q1023 RMK,LSZL,2022-10-23T10:50:00Z,46.17,8.88,15.0,14.0,0,1,,,30.206694,,,TRUE,,,,,,,,FEW,2800,BKN,4300,,,,,,,,,,,,,,,,,METAR,198.0
LSZH 231050Z 32003KT 290V360 7000 FEW003 13/12 Q1016 NOSIG,LSZH,2022-10-23T10:50:00Z,47.48,8.53,13.0,12.0,320,3,,4.35,30.0,,,,,,TRUE,,,,,FEW,300,,,,,,,MVFR,,,,,,,,,,,,METAR,424.0
LSZG 231050Z VRB02KT 8000 BKN005 13/13 Q1016,LSZG,2022-10-23T10:50:00Z,47.17,7.42,13.0,13.0,0,2,,4.97,30.0,,,,,,,,,,,BKN,500,,,,,,,IFR,,,,,,,,,,,,METAR,428.0
LSZC 231050Z AUTO 23006KT 190V260 9999 NCD 16/11 Q1016,LSZC,2022-10-23T10:50:00Z,46.97,8.38,16.0,11.0,230,6,,6.21,30.0,,,TRUE,,,,,,,,CLR,,,,,,,,VFR,,,,,,,,,,,,METAR,445.0
LSZB 231050Z VRB01KT CAVOK 17/11 Q1016,LSZB,2022-10-23T10:50:00Z,46.92,7.5,17.0,11.0,0,1,,6.21,30.0,,,,,,,,,,,CAVOK,,,,,,,,VFR,,,,,,,,,,,,METAR,510.0
LSZA 231050Z AUTO VRB01KT 9999 FEW007 SCT009 OVC030 16/15 Q1023,LSZA,2022-10-23T10:50:00Z,46.0,8.92,16.0,15.0,0,1,,6.21,30.206694,,,TRUE,,,,,,,,FEW,700,SCT,900,OVC,3000,,,MVFR,,,,,,,,,,,,METAR,276.0
LSMP 231050Z AUTO 00000KT 9999NDV FEW001 OVC004 13/12 Q1017 RMK,LSMP,2022-10-23T10:50:00Z,46.83,6.92,13.0,12.0,0,0,,,30.029528,,,TRUE,,,,,,,,FEW,100,OVC,400,,,,,,,,,,,,,,,,,METAR,490.0
LSMM 231050Z AUTO 26009KT 230V300 9999NDV FEW120 14/10 Q1016 RMK,LSMM,2022-10-23T10:50:00Z,46.75,8.12,14.0,10.0,260,9,,,30.0,,,TRUE,,,,,,,,FEW,12000,,,,,,,,,,,,,,,,,,,METAR,570.0
LSME 231050Z AUTO VRB01KT 9999NDV FEW003 SCT130 13/12 Q1016 RMK,LSME,2022-10-23T10:50:00Z,47.1,8.3,13.0,12.0,0,1,,,30.0,,,TRUE,,,,,,,,FEW,300,SCT,13000,,,,,,,,,,,,,,,,,METAR,427.0
LSMD 231050Z AUTO VRB02KT 9999NDV FEW130 15/12 Q1016 RMK,LSMD,2022-10-23T10:50:00Z,47.4,8.65,15.0,12.0,0,2,,,30.0,,,TRUE,,,,,,,,FEW,13000,,,,,,,,,,,,,,,,,,,METAR,436.0
LSMA 231050Z AUTO 00000KT 9999NDV FEW140 15/11 Q1016 RMK,LSMA,2022-10-23T10:50:00Z,46.95,8.28,15.0,11.0,0,0,,,30.0,,,TRUE,,,,,,,,FEW,14000,,,,,,,,,,,,,,,,,,,METAR,441.0
LSGS 231050Z 08003KT 9999 BKN120 16/10 Q1019,LSGS,2022-10-23T10:50:00Z,46.22,7.32,16.0,10.0,80,3,,6.21,30.088583,,,,,,,,,,,BKN,12000,,,,,,,VFR,,,,,,,,,,,,METAR,482.0
LSGG 231050Z VRB02KT 9999 FEW004 14/12 Q1016 NOSIG,LSGG,2022-10-23T10:50:00Z,46.25,6.12,14.0,12.0,0,2,,6.21,30.0,,,,,,TRUE,,,,,FEW,400,,,,,,,VFR,,,,,,,,,,,,METAR,411.0
LSGC 231050Z 21016G28KT 170V240 CAVOK 20/08 Q1016 WS R24,LSGC,2022-10-23T10:50:00Z,47.08,6.8,20.0,8.0,210,16,28,6.21,30.0,,,,,,,,,,,CAVOK,,,,,,,,VFR,,,,,,,,,,,,METAR,1018.0
LOXZ 231050Z VRB02KT 9999 FEW014 BKN300 12/08 Q1022 NOSIG,LOXZ,2022-10-23T10:50:00Z,47.2,14.75,12.0,8.0,0,2,,6.21,30.177166,,,,,,TRUE,,,,,FEW,1400,BKN,30000,,,,,VFR,,,,,,,,,,,,METAR,678.0
LOWW 231050Z 12010KT 9999 FEW001 BKN003 10/09 Q1020 TEMPO FEW002 BKN005,LOWW,2022-10-23T10:50:00Z,48.12,16.57,10.0,9.0,120,10,,6.21,30.11811,,,,,,,,,,,FEW,100,BKN,300,,,,,LIFR,,,,,,,,,,,,METAR,179.0
LOWS 231050Z 14009KT CAVOK 17/09 Q1018 NOSIG,LOWS,2022-10-23T10:50:00Z,47.78,13.02,17.0,9.0,140,9,,6.21,30.059055,,,,,,TRUE,,,,,CAVOK,,,,,,,,VFR,,,,,,,,,,,,METAR,427.0
LOWL 231050Z AUTO 11003KT 060V170 9999 FEW006 13/11 Q1019 NOSIG,LOWL,2022-10-23T10:50:00Z,48.22,14.18,13.0,11.0,110,3,,6.21,30.088583,,,TRUE,,,TRUE,,,,,FEW,600,,,,,,,VFR,,,,,,,,,,,,METAR,290.0
LOWK 231050Z AUTO 35003KT 280V050 9999 FEW014 BKN018 14/10 Q1023 NOSIG,LOWK,2022-10-23T10:50:00Z,46.65,14.32,14.0,10.0,350,3,,6.21,30.206694,,,TRUE,,,TRUE,,,,,FEW,1400,BKN,1800,,,,,MVFR,,,,,,,,,,,,METAR,450.0
LOWI 231050Z 27010KT 9999 FEW070 15/09 Q1020 NOSIG,LOWI,2022-10-23T10:50:00Z,47.27,11.33,15.0,9.0,270,10,,6.21,30.11811,,,,,,TRUE,,,,,FEW,7000,,,,,,,VFR,,,,,,,,,,,,METAR,570.0
LOWG 231050Z VRB02KT 9999 FEW010 15/11 Q1021 NOSIG,LOWG,2022-10-23T10:50:00Z,47.0,15.43,15.0,11.0,0,2,,6.21,30.147638,,,,,,TRUE,,,,,FEW,1000,,,,,,,VFR,,,,,,,,,,,,METAR,337.0
LLIB 231050Z AUTO 13007KT 100V160 CAVOK 29/11 Q1016 RMK SCT080,LLIB,2022-10-23T10:50:00Z,32.98,35.57,29.0,11.0,130,7,,6.21,30.0,,,TRUE,,,,,,,,CAVOK,,,,,,,,VFR,,,,,,,,,,,,METAR,268.0
LLHA 231050Z 34013KT CAVOK 27/18 Q1016 RMK FEW090,LLHA,2022-10-23T10:50:00Z,32.8,35.03,27.0,18.0,340,13,,6.21,30.0,,,,,,,,,,,CAVOK,,,,,,,,VFR,,,,,,,,,,,,METAR,3.0
LLER 231050Z 36005KT 310V100 9000 NSC 29/13 Q1015 RMK FEW070,LLER,2022-10-23T10:50:00Z,29.72,35.02,29.0,13.0,360,5,,5.59,29.970472,,,,,,,,,,,CLR,,,,,,,,VFR,,,,,,,,,,,,METAR,88.0
LLBG 231050Z 26016KT 9999 FEW027 26/18 Q1016 NOSIG RMK SCT090,LLBG,2022-10-23T10:50:00Z,32.0,34.88,26.0,18.0,260,16,,6.21,30.0,,,,,,TRUE,,,,,FEW,2700,,,,,,,VFR,,,,,,,,,,,,METAR,35.0
LIRZ 231050Z AUTO 18003KT 140V210 9999 BKN035/// 22/16 Q1025,LIRZ,2022-10-23T10:50:00Z,43.1,12.5,22.0,16.0,180,3,,6.21,30.265747,,,TRUE,,,,,,,,BKN,3500,,,,,,,VFR,,,,,,,,,,,,METAR,206.0
LIRU 231050Z 18007KT 150V220 9999 SCT030 25/18 Q1025,LIRU,2022-10-23T10:50:00Z,41.95,12.5,25.0,18.0,180,7,,6.21,30.265747,,,,,,,,,,,SCT,3000,,,,,,,VFR,,,,,,,,,,,,METAR,16.0
LIRQ 231050Z 12005KT 9999 BKN045 23/18 Q1023,LIRQ,2022-10-23T10:50:00Z,43.8,11.2,23.0,18.0,120,5,,6.21,30.206694,,,,,,,,,,,BKN,4500,,,,,,,VFR,,,,,,,,,,,,METAR,33.0
LIRN 231050Z VRB02KT 9999 SCT050 23/17 Q1026 NOSIG,LIRN,2022-10-23T10:50:00Z,40.88,14.3,23.0,17.0,0,2,,6.21,30.295275,,,,,,TRUE,,,,,SCT,5000,,,,,,,VFR,,,,,,,,,,,,METAR,76.0
LIRI 231050Z 24005KT 200V270 CAVOK 23/18 Q1025,LIRI,2022-10-23T10:50:00Z,40.62,14.92,23.0,18.0,240,5,,6.21,30.265747,,,,,,,,,,,CAVOK,,,,,,,,VFR,,,,,,,,,,,,METAR,31.0
LIRF 231050Z 16010KT 130V200 9999 SCT018 23/19 Q1025 NOSIG,LIRF,2022-10-23T10:50:00Z,41.78,12.23,23.0,19.0,160,10,,6.21,30.265747,,,,,,TRUE,,,,,SCT,1800,,,,,,,VFR,,,,,,,,,,,,METAR,2.0
LIRA 231050Z 17009KT 150V210 9999 SCT030 23/16 Q1025,LIRA,2022-10-23T10:50:00Z,41.8,12.58,23.0,16.0,170,9,,6.21,30.265747,,,,,,,,,,,SCT,3000,,,,,,,VFR,,,,,,,,,,,,METAR,101.0
LIQN 231050Z 11003KT 340V150 CAVOK 23/14 Q1026,LIQN,2022-10-23T10:50:00Z,42.42,12.83,23.0,14.0,110,3,,6.21,30.295275,,,,,,,,,,,CAVOK,,,,,,,,VFR,,,,,,,,,,,,METAR,387.0
LIPZ 231050Z 07005KT 030V110 CAVOK 21/16 Q1022 NOSIG,LIPZ,2022-10-23T10:50:00Z,45.5,12.35,21.0,16.0,70,5,,6.21,30.177166,,,,,,TRUE,,,,,CAVOK,,,,,,,,VFR,,,,,,,,,,,,METAR,3.0
LIPY 231050Z AUTO VRB02KT 9999 BKN140/// 25/15 Q1022,LIPY,2022-10-23T10:50:00Z,43.62,13.37,25.0,15.0,0,2,,6.21,30.177166,,,TRUE,,,,,,,,BKN,14000,,,,,,,VFR,,,,,,,,,,,,METAR,11.0
LIPX 231050Z 11003KT 080V170 CAVOK 22/15 Q1022,LIPX,2022-10-23T10:50:00Z,45.38,10.87,22.0,15.0,110,3,,6.21,30.177166,,,,,,,,,,,CAVOK,,,,,,,,VFR,,,,,,,,,,,,METAR,67.0
LIPR 231050Z 20009KT CAVOK 26/16 Q1022,LIPR,2022-10-23T10:50:00Z,44.02,12.62,26.0,16.0,200,9,,6.21,30.177166,,,,,,,,,,,CAVOK,,,,,,,,VFR,,,,,,,,,,,,METAR,10.0
LIPQ 231050Z AUTO VRB02KT 9999 BKN010/// 21/18 Q1022,LIPQ,2022-10-23T10:50:00Z,45.82,13.47,21.0,18.0,0,2,,6.21,30.177166,,,TRUE,,,,,,,,BKN,1000,,,,,,,MVFR,,,,,,,,,,,,METAR,6.0
LIPO 231050Z AUTO 05007KT 010V080 9999 NCD 22/14 Q1022,LIPO,2022-10-23T10:50:00Z,45.42,10.33,22.0,14.0,50,7,,6.21,30.177166,,,TRUE,,,,,,,,CLR,,,,,,,,VFR,,,,,,,,,,,,METAR,104.0
LIPK 231050Z VRB02KT CAVOK 26/16 Q1022,LIPK,2022-10-23T10:50:00Z,44.2,12.07,26.0,16.0,0,2,,6.21,30.177166,,,,,,,,,,,CAVOK,,,,,,,,VFR,,,,,,,,,,,,METAR,24.0
LIPH 231050Z 04004KT 350V090 CAVOK 21/14 Q1022,LIPH,2022-10-23T10:50:00Z,45.63,12.18,21.0,14.0,40,4,,6.21,30.177166,,,,,,,,,,,CAVOK,,,,,,,,VFR,,,,,,,,,,,,METAR,10.0
LIPE 231050Z 33003KT 230V020 8000 NSC 20/16 Q1022,LIPE,2022-10-23T10:50:00Z,44.52,11.3,20.0,16.0,330,3,,4.97,30.177166,,,,,,,,,,,CLR,,,,,,,,MVFR,,,,,,,,,,,,METAR,37.0
LIPB 231050Z 00000KT 9999 BKN050 15/11 Q1024,LIPB,2022-10-23T10:50:00Z,46.47,11.32,15.0,11.0,0,0,,6.21,30.236221,,,,,,,,,,,BKN,5000,,,,,,,VFR,,,,,,,,,,,,METAR,239.0
LIMZ 231050Z AUTO 35003KT 290V040 8000 BKN012/// 18/16 Q1023,LIMZ,2022-10-23T10:50:00Z,44.53,7.62,18.0,16.0,350,3,,4.97,30.206694,,,TRUE,,,,,,,,BKN,1200,,,,,,,MVFR,,,,,,,,,,,,METAR,377.0
LIMW 231050Z AUTO VRB01KT 9999 FEW062/// 17/11 Q1023,LIMW,2022-10-23T10:50:00Z,45.73,7.37,17.0,11.0,0,1,,6.21,30.206694,,,TRUE,,,,,,,,FEW,6200,,,,,,,VFR,,,,,,,,,,,,METAR,554.0
LIMP 231050Z 14004KT 100V220 2500 BR FEW008 BKN015 17/17 Q1022,LIMP,2022-10-23T10:50:00Z,44.82,10.3,17.0,17.0,140,4,,1.55,30.177166,,,,,,,,,,BR,FEW,800,BKN,1500,,,,,IFR,,,,,,,,,,,,METAR,41.0
LIML 231050Z 11006KT 060V140 9999 SCT070 20/15 Q1022 NOSIG,LIML,2022-10-23T10:50:00Z,45.47,9.27,20.0,15.0,110,6,,6.21,30.177166,,,,,,TRUE,,,,,SCT,7000,,,,,,,VFR,,,,,,,,,,,,METAR,109.0
LIMJ 231050Z 13015KT 9999 BKN015 SCT025 22/20 Q1022,LIMJ,2022-10-23T10:50:00Z,44.42,8.83,22.0,20.0,130,15,,6.21,30.177166,,,,,,,,,,,BKN,1500,SCT,2500,,,,,MVFR,,,,,,,,,,,,METAR,3.0
LIMG 231050Z 08008KT 9999 SCT010 22/20 Q1022,LIMG,2022-10-23T10:50:00Z,44.03,8.12,22.0,20.0,80,8,,6.21,30.177166,,,,,,,,,,,SCT,1000,,,,,,,VFR,,,,,,,,,,,,METAR,41.0
LIMF 231050Z 09003KT 050V120 6000 BKN011 BKN025 18/16 Q1023,LIMF,2022-10-23T10:50:00Z,45.22,7.65,18.0,16.0,90,3,,3.73,30.206694,,,,,,,,,,,BKN,1100,BKN,2500,,,,,MVFR,,,,,,,,,,,,METAR,295.0
LIME 231050Z 11003KT 080V170 9999 SCT045 SCT070 20/15 Q1023 NOSIG,LIME,2022-10-23T10:50:00Z,45.67,9.7,20.0,15.0,110,3,,6.21,30.206694,,,,,,TRUE,,,,,SCT,4500,SCT,7000,,,,,VFR,,,,,,,,,,,,METAR,239.0
LIMC 231050Z 03005KT 9999 BKN020 18/16 Q1023 NOSIG,LIMC,2022-10-23T10:50:00Z,45.62,8.72,18.0,16.0,30,5,,6.21,30.206694,,,,,,TRUE,,,,,BKN,2000,,,,,,,MVFR,,,,,,,,,,,,METAR,221.0
LIMA 231050Z 06003KT 340V100 6000 BKN010 18/16 Q1023,LIMA,2022-10-23T10:50:00Z,45.08,7.6,18.0,16.0,60,3,,3.73,30.206694,,,,,,,,,,,BKN,1000,,,,,,,MVFR,,,,,,,,,,,,METAR,285.0
LIEO 231050Z 07006KT 030V100 CAVOK 27/16 Q1021,LIEO,2022-10-23T10:50:00Z,40.88,9.52,27.0,16.0,70,6,,6.21,30.147638,,,,,,,,,,,CAVOK,,,,,,,,VFR,,,,,,,,,,,,METAR,8.0
LIEE 231050Z 16009KT CAVOK 25/20 Q1022,LIEE,2022-10-23T10:50:00Z,39.25,9.07,25.0,20.0,160,9,,6.21,30.177166,,,,,,,,,,,CAVOK,,,,,,,,VFR,,,,,,,,,,,,METAR,1.0
LIEA 231050Z 18004KT CAVOK 27/16 Q1021,LIEA,2022-10-23T10:50:00Z,40.62,8.28,27.0,16.0,180,4,,6.21,30.147638,,,,,,,,,,,CAVOK,,,,,,,,VFR,,,,,,,,,,,,METAR,22.0
LICR 231050Z AUTO 34007KT 270V040 9999 NCD 26/14 Q1025,LICR,2022-10-23T10:50:00Z,38.07,15.65,26.0,14.0,340,7,,6.21,30.265747,,,TRUE,,,,,,,,CLR,,,,,,,,VFR,,,,,,,,,,,,METAR,16.0
LICJ 231050Z AUTO 22008KT 9999 NCD 25/17 Q1025,LICJ,2022-10-23T10:50:00Z,38.17,13.08,25.0,17.0,220,8,,6.21,30.265747,,,TRUE,,,,,,,,CLR,,,,,,,,VFR,,,,,,,,,,,,METAR,20.0
LICG 231050Z 19006KT 9999 FEW018 24/19 Q1026,LICG,2022-10-23T10:50:00Z,36.82,11.97,24.0,19.0,190,6,,6.21,30.295275,,,,,,,,,,,FEW,1800,,,,,,,VFR,,,,,,,,,,,,METAR,192.0
LICD 231050Z AUTO 20009KT 9999 NCD 26/18 Q1025,LICD,2022-10-23T10:50:00Z,35.5,12.62,26.0,18.0,200,9,,6.21,30.265747,,,TRUE,,,,,,,,CLR,,,,,,,,VFR,,,,,,,,,,,,METAR,20.0
LICC 231050Z 03004KT 290V090 CAVOK 26/16 Q1025,LICC,2022-10-23T10:50:00Z,37.47,15.05,26.0,16.0,30,4,,6.21,30.265747,,,,,,,,,,,CAVOK,,,,,,,,VFR,,,,,,,,,,,,METAR,6.0
LICB 231050Z AUTO 26004KT 220V300 9999 NCD 25/16 Q1026,LICB,2022-10-23T10:50:00Z,37.0,14.62,25.0,16.0,260,4,,6.21,30.295275,,,TRUE,,,,,,,,CLR,,,,,,,,VFR,,,,,,,,,,,,METAR,212.0
LICA 231050Z AUTO 25007KT 210V290 9999 NCD 23/18 Q1025,LICA,2022-10-23T10:50:00Z,38.9,16.25,23.0,18.0,250,7,,6.21,30.265747,,,TRUE,,,,,,,,CLR,,,,,,,,VFR,,,,,,,,,,,,METAR,7.0
LIBR 231050Z 11006KT 080V140 9999 FEW015 22/20 Q1024,LIBR,2022-10-23T10:50:00Z,40.65,17.95,22.0,20.0,110,6,,6.21,30.236221,,,,,,,,,,,FEW,1500,,,,,,,VFR,,,,,,,,,,,,METAR,5.0
LIBP 231050Z AUTO 05004KT 360V110 9999 NCD 22/18 Q1023,LIBP,2022-10-23T10:50:00Z,42.42,14.18,22.0,18.0,50,4,,6.21,30.206694,,,TRUE,,,,,,,,CLR,,,,,,,,VFR,,,,,,,,,,,,METAR,10.0
LIBG 231050Z 12003KT 060V170 CAVOK 23/19 Q1024,LIBG,2022-10-23T10:50:00Z,40.52,17.4,23.0,19.0,120,3,,6.21,30.236221,,,,,,,,,,,CAVOK,,,,,,,,VFR,,,,,,,,,,,,METAR,64.0
LIBF 231050Z VRB03KT CAVOK 26/15 Q1023,LIBF,2022-10-23T10:50:00Z,41.42,15.53,26.0,15.0,0,3,,6.21,30.206694,,,,,,,,,,,CAVOK,,,,,,,,VFR,,,,,,,,,,,,METAR,81.0
LIBD 231050Z 07007KT 030V090 CAVOK 23/18 Q1023,LIBD,2022-10-23T10:50:00Z,41.13,16.77,23.0,18.0,70,7,,6.21,30.206694,,,,,,,,,,,CAVOK,,,,,,,,VFR,,,,,,,,,,,,METAR,42.0
LIBC 231050Z 19005KT 160V220 CAVOK 26/13 Q1025,LIBC,2022-10-23T10:50:00Z,39.0,17.07,26.0,13.0,190,5,,6.21,30.265747,,,,,,,,,,,CAVOK,,,,,,,,VFR,,,,,,,,,,,,METAR,158.0
LGZA 231050Z 01009KT 9999 FEW016 23/17 Q1023,LGZA,2022-10-23T10:50:00Z,37.75,20.88,23.0,17.0,10,9,,6.21,30.206694,,,,,,,,,,,FEW,1600,,,,,,,VFR,,,,,,,,,,,,METAR,3.0
LGTS 231050Z 30005KT 250V350 CAVOK 21/13 Q1021 NOSIG,LGTS,2022-10-23T10:50:00Z,40.52,22.97,21.0,13.0,300,5,,6.21,30.147638,,,,,,TRUE,,,,,CAVOK,,,,,,,,VFR,,,,,,,,,,,,METAR,4.0
LGSR 231050Z 10005KT CAVOK 19/14 Q1022,LGSR,2022-10-23T10:50:00Z,36.4,25.48,19.0,14.0,100,5,,6.21,30.177166,,,,,,,,,,,CAVOK,,,,,,,,VFR,,,,,,,,,,,,METAR,31.0
LGSO 231050Z VRB05KT CAVOK 24/15 Q1022,LGSO,2022-10-23T10:50:00Z,37.42,24.95,24.0,15.0,0,5,,6.21,30.177166,,,,,,,,,,,CAVOK,,,,,,,,VFR,,,,,,,,,,,,METAR,71.0
LGSM 231050Z 14004KT 9999 FEW025 21/14 Q1021,LGSM,2022-10-23T10:50:00Z,37.68,26.92,21.0,14.0,140,4,,6.21,30.147638,,,,,,,,,,,FEW,2500,,,,,,,VFR,,,,,,,,,,,,METAR,5.0
LGSK 231050Z 01008KT 9999 FEW018 22/16 Q1020,LGSK,2022-10-23T10:50:00Z,39.18,23.5,22.0,16.0,10,8,,6.21,30.11811,,,,,,,,,,,FEW,1800,,,,,,,VFR,,,,,,,,,,,,METAR,13.0
LGSA 231050Z VRB03KT CAVOK 23/11 Q1021,LGSA,2022-10-23T10:50:00Z,35.53,24.13,23.0,11.0,0,3,,6.21,30.147638,,,,,,,,,,,CAVOK,,,,,,,,VFR,,,,,,,,,,,,METAR,122.0
LGRX 231050Z 27004KT CAVOK 23/16 Q1024 RMK FEW200 BLU,LGRX,2022-10-23T10:50:00Z,38.17,21.42,23.0,16.0,270,4,,6.21,30.236221,,,,,,,,,,,CAVOK,,,,,,,,VFR,,,,,,,,,,,,METAR,16.0
LGRP 231050Z 25010KT CAVOK 23/14 Q1020 NOSIG,LGRP,2022-10-23T10:50:00Z,36.4,28.08,23.0,14.0,250,10,,6.21,30.11811,,,,,,TRUE,,,,,CAVOK,,,,,,,,VFR,,,,,,,,,,,,METAR,3.0
LGPZ 231050Z 26009KT 9999 FEW025 23/18 Q1024,LGPZ,2022-10-23T10:50:00Z,38.92,20.77,23.0,18.0,260,9,,6.21,30.236221,,,,,,,,,,,FEW,2500,,,,,,,VFR,,,,,,,,,,,,METAR,3.0
LGPA 231050Z 20004KT CAVOK 22/15 Q1022,LGPA,2022-10-23T10:50:00Z,37.02,25.1,22.0,15.0,200,4,,6.21,30.177166,,,,,,,,,,,CAVOK,,,,,,,,VFR,,,,,,,,,,,,METAR,42.0
LGNX 231050Z 33005KT CAVOK 22/15 Q1022,LGNX,2022-10-23T10:50:00Z,37.08,25.37,22.0,15.0,330,5,,6.21,30.177166,,,,,,,,,,,CAVOK,,,,,,,,VFR,,,,,,,,,,,,METAR,3.0
LGMT 231050Z 11005KT CAVOK 20/10 Q1022,LGMT,2022-10-23T10:50:00Z,39.05,26.6,20.0,10.0,110,5,,6.21,30.177166,,,,,,,,,,,CAVOK,,,,,,,,VFR,,,,,,,,,,,,METAR,4.0
LGMK 231050Z 26005KT CAVOK 21/12 Q1022,LGMK,2022-10-23T10:50:00Z,37.43,25.35,21.0,12.0,260,5,,6.21,30.177166,,,,,,,,,,,CAVOK,,,,,,,,VFR,,,,,,,,,,,,METAR,126.0
LGLM 231050Z 17008KT 9999 FEW018 21/14 Q1021,LGLM,2022-10-23T10:50:00Z,39.92,25.23,21.0,14.0,170,8,,6.21,30.147638,,,,,,,,,,,FEW,1800,,,,,,,VFR,,,,,,,,,,,,METAR,4.0
LGKV 231050Z 17006KT CAVOK 21/12 Q1021,LGKV,2022-10-23T10:50:00Z,40.92,24.62,21.0,12.0,170,6,,6.21,30.147638,,,,,,,,,,,CAVOK,,,,,,,,VFR,,,,,,,,,,,,METAR,5.0
LGKR 231050Z 14006KT 9999 FEW018 22/17 Q1024 NOSIG,LGKR,2022-10-23T10:50:00Z,39.62,19.92,22.0,17.0,140,6,,6.21,30.236221,,,,,,TRUE,,,,,FEW,1800,,,,,,,VFR,,,,,,,,,,,,METAR,2.0
LGKP 231050Z 32015KT CAVOK 22/13 Q1021,LGKP,2022-10-23T10:50:00Z,35.42,27.15,22.0,13.0,320,15,,6.21,30.147638,,,,,,,,,,,CAVOK,,,,,,,,VFR,,,,,,,,,,,,METAR,20.0
LGKO 231050Z 31008KT CAVOK 24/12 Q1021,LGKO,2022-10-23T10:50:00Z,36.8,27.08,24.0,12.0,310,8,,6.21,30.147638,,,,,,,,,,,CAVOK,,,,,,,,VFR,,,,,,,,,,,,METAR,130.0
LGKL 231050Z 35010KT CAVOK 25/14 Q1022,LGKL,2022-10-23T10:50:00Z,37.07,22.02,25.0,14.0,350,10,,6.21,30.177166,,,,,,,,,,,CAVOK,,,,,,,,VFR,,,,,,,,,,,,METAR,4.0
LGKF 231050Z 31011KT 9999 FEW020 24/18 Q1024,LGKF,2022-10-23T10:50:00Z,38.12,20.5,24.0,18.0,310,11,,6.21,30.236221,,,,,,,,,,,FEW,2000,,,,,,,VFR,,,,,,,,,,,,METAR,14.0
LGKC 231050Z VRB03KT CAVOK 25/17 Q1023,LGKC,2022-10-23T10:50:00Z,36.28,23.02,25.0,17.0,0,3,,6.21,30.206694,,,,,,,,,,,CAVOK,,,,,,,,VFR,,,,,,,,,,,,METAR,313.0
LGIR 231050Z 01003KT CAVOK 21/13 Q1023 NOSIG,LGIR,2022-10-23T10:50:00Z,35.33,25.17,21.0,13.0,10,3,,6.21,30.206694,,,,,,TRUE,,,,,CAVOK,,,,,,,,VFR,,,,,,,,,,,,METAR,37.0
LGIO 231050Z 12003KT CAVOK 21/12 Q1025,LGIO,2022-10-23T10:50:00Z,39.7,20.82,21.0,12.0,120,3,,6.21,30.265747,,,,,,,,,,,CAVOK,,,,,,,,VFR,,,,,,,,,,,,METAR,476.0
LGHI 231050Z VRB03KT CAVOK 21/12 Q1020,LGHI,2022-10-23T10:50:00Z,38.33,26.13,21.0,12.0,0,3,,6.21,30.11811,,,,,,,,,,,CAVOK,,,,,,,,VFR,,,,,,,,,,,,METAR,6.0
LGEL 231050Z 16004KT CAVOK 24/13 Q1021,LGEL,2022-10-23T10:50:00Z,38.07,23.55,24.0,13.0,160,4,,6.21,30.147638,,,,,,,,,,,CAVOK,,,,,,,,VFR,,,,,,,,,,,,METAR,21.0
LGBL 231050Z 00000KT CAVOK 23/13 Q1021,LGBL,2022-10-23T10:50:00Z,39.22,22.8,23.0,13.0,0,0,,6.21,30.147638,,,,,,,,,,,CAVOK,,,,,,,,VFR,,,,,,,,,,,,METAR,13.0
LGAV 231050Z 10004KT 060V170 CAVOK 23/13 Q1021 NOSIG,LGAV,2022-10-23T10:50:00Z,37.93,23.95,23.0,13.0,100,4,,6.21,30.147638,,,,,,TRUE,,,,,CAVOK,,,,,,,,VFR,,,,,,,,,,,,METAR,83.0
LGAL 231050Z 24007KT 9999 FEW020 20/15 Q1021,LGAL,2022-10-23T10:50:00Z,40.85,25.95,20.0,15.0,240,7,,6.21,30.147638,,,,,,,,,,,FEW,2000,,,,,,,VFR,,,,,,,,,,,,METAR,5.0
LGAD 231050Z 32007KT CAVOK 23/16 Q1024,LGAD,2022-10-23T10:50:00Z,37.92,21.28,23.0,16.0,320,7,,6.21,30.236221,,,,,,,,,,,CAVOK,,,,,,,,VFR,,,,,,,,,,,,METAR,8.0
LCEN 231050Z 36007KT 330V040 9999 FEW025 26/08 Q1019 NOSIG RMK RWY11 34008KT 310V020,LCEN,2022-10-23T10:50:00Z,35.15,33.5,26.0,8.0,360,7,,6.21,30.088583,,,,,,TRUE,,,,,FEW,2500,,,,,,,VFR,,,,,,,,,,,,METAR,91.0
KVQQ 231050Z 00000KT 10SM CLR 08/08 A3013,KVQQ,2022-10-23T10:50:00Z,30.22,-81.88,8.0,8.0,0,0,,10.0,30.129921,,,,,,,,,,,CLR,,,,,,,,VFR,,,,,,,,,,,,METAR,21.0
KTXW 231050Z AUTO 16006KT 1 1/4SM BR VV007 22/20 A2984 RMK AO2 VIS 3/4V2 T02210198,KTXW,2022-10-23T10:50:00Z,26.18,-97.97,22.1,19.8,160,6,,1.25,29.840551,,,TRUE,TRUE,,,,,,BR,OVX,0,,,,,,,LIFR,,,,,,,,,,,700,SPECI,21.0
KTNB 231050Z AUTO 00000KT 10SM CLR M02/M02 A3027 RMK AO2 T10161016,KTNB,2022-10-23T10:50:00Z,36.2,-81.65,-1.6,-1.6,0,0,,10.0,30.268702,,,TRUE,TRUE,,,,,,,CLR,,,,,,,,VFR,,,,,,,,,,,,SPECI,958.0
KSLR 231050Z AUTO 17010G17KT 10SM OVC034 21/18 A2988 RMK AO2 T02090175,KSLR,2022-10-23T10:50:00Z,33.17,-95.62,20.9,17.5,170,10,17,10.0,29.878937,,,TRUE,TRUE,,,,,,,OVC,3400,,,,,,,VFR,,,,,,,,,,,,SPECI,144.0
KRYY 231050Z 00000KT 10SM CLR 06/06 A3022 RMK AO2 SLP228 T00610056 $,KRYY,2022-10-23T10:50:00Z,34.02,-84.6,6.1,5.6,0,0,,10.0,30.221457,1022.8,,,TRUE,TRUE,,,,,,CLR,,,,,,,,VFR,,,,,,,,,,,,METAR,306.0
KQEX 231050Z AUTO 31005KT 9999 CLR 15/06 A2999 RMK A02 TSNO,KQEX,2022-10-23T10:50:00Z,,,15.0,6.0,310,5,,6.21,29.991142,,,TRUE,TRUE,,,TRUE,,,,CLR,,,,,,,,VFR,,,,,,,,,,,,METAR,
KOMN 231050Z 00000KT 7SM CLR 14/14 A3010 RMK FIRST,KOMN,2022-10-23T10:50:00Z,29.3,-81.12,14.0,14.0,0,0,,7.0,30.100393,,,,,,,,,,,CLR,,,,,,,,VFR,,,,,,,,,,,,METAR,7.0
KNQA 231050Z 16008KT 10SM CLR 17/13 A3001,KNQA,2022-10-23T10:50:00Z,35.35,-89.87,17.0,13.0,160,8,,10.0,30.008858,,,,,,,,,,,CLR,,,,,,,,VFR,,,,,,,,,,,,METAR,90.0
KMPZ 231050Z AUTO 15008KT 10SM CLR 16/15 A2974 RMK AO2,KMPZ,2022-10-23T10:50:00Z,40.95,-91.52,16.0,15.0,150,8,,10.0,29.740158,,,TRUE,TRUE,,,,,,,CLR,,,,,,,,VFR,,,,,,,,,,,,METAR,222.0
KHSG 231050Z AUTO 00000KT 10SM -RA SCT026 SCT035 OVC044 04/03 A2944 RMK AO2 P0001 T00400025,KHSG,2022-10-23T10:50:00Z,43.72,-108.38,4.0,2.5,0,0,,10.0,29.438976,,,TRUE,TRUE,,,,,,-RA,SCT,2600,SCT,3500,OVC,4400,,,VFR,,,,,,0.01,,,,,,SPECI,1497.0
KHBV 231050Z AUTO 16005KT 10SM CLR 19/18 A2983 RMK AO2 T01870181,KHBV,2022-10-23T10:50:00Z,27.35,-98.73,18.7,18.1,160,5,,10.0,29.828741,,,TRUE,TRUE,,,,,,,CLR,,,,,,,,VFR,,,,,,,,,,,,SPECI,200.0
KESN 231050Z 01007KT 10SM SCT019 OVC026 12/11 A3024,KESN,2022-10-23T10:50:00Z,38.8,-76.07,12.0,11.0,10,7,,10.0,30.239174,,,,,,,,,,,SCT,1900,OVC,2600,,,,,MVFR,,,,,,,,,,,,METAR,14.0
KEAN 231050Z AUTO 22007KT 10SM CLR 10/01 A2932 RMK AO2 T01000005,KEAN,2022-10-23T10:50:00Z,42.05,-104.93,10.0,0.5,220,7,,10.0,29.320866,,,TRUE,TRUE,,,,,,,CLR,,,,,,,,VFR,,,,,,,,,,,,SPECI,1452.0
KDWX 231050Z AUTO 28008KT 1 1/4SM SN A2953 RMK AO2,KDWX,2022-10-23T10:50:00Z,41.03,-107.5,,,280,8,,1.25,29.530512,,,TRUE,TRUE,,,,,,SN,,,,,,,,,,,,,,,,,,,,,SPECI,1974.0
KDVK 231050Z AUTO 00000KT 10SM BKN060 10/07 A3020 RMK AO2,KDVK,2022-10-23T10:50:00Z,37.58,-84.77,10.0,7.0,0,0,,10.0,30.200787,,,TRUE,TRUE,,,,,,,BKN,6000,,,,,,,VFR,,,,,,,,,,,,METAR,309.0
KDAG 231050Z AUTO 25019G31KT 10SM CLR 15/07 A2973 RMK AO2 PK WND 25032/1037 SLP049 T01500067,KDAG,2022-10-23T10:50:00Z,34.85,-116.78,15.0,6.7,250,19,31,10.0,29.731298,1004.9,,TRUE,TRUE,,,,,,,CLR,,,,,,,,VFR,,,,,,,,,,,,METAR,584.0
KCQB 231050Z AUTO 17010KT 10SM CLR 21/14 A2969 RMK AO2 T02130138,KCQB,2022-10-23T10:50:00Z,35.72,-96.82,21.3,13.8,170,10,,10.0,29.68996,,,TRUE,TRUE,,,,,,,CLR,,,,,,,,VFR,,,,,,,,,,,,SPECI,298.0
KBMC 231050Z AUTO 10SM OVC120 04/01 A2962 RMK AO1 T00370006,KBMC,2022-10-23T10:50:00Z,41.55,-112.07,3.7,0.6,,,,10.0,29.619095,,,TRUE,TRUE,,,,,,,OVC,12000,,,,,,,VFR,,,,,,,,,,,,SPECI,1289.0
K4V1 231050Z AUTO 24020G34KT 10SM SCT031 SCT038 SCT050 15/02 A2955 RMK AO2 T01500015,K4V1,2022-10-23T10:50:00Z,37.7,-104.78,15.0,1.5,240,20,34,10.0,29.551182,,,TRUE,TRUE,,,,,,,SCT,3100,SCT,3800,SCT,5000,,,VFR,,,,,,,,,,,,METAR,1847.0
EYVI 231050Z 27009KT 9999 BKN007 11/10 Q1013 BECMG BKN010,EYVI,2022-10-23T10:50:00Z,54.63,25.28,11.0,10.0,270,9,,6.21,29.911417,,,,,,,,,,,BKN,700,,,,,,,IFR,,,,,,,,,,,,METAR,180.0
EYSA 231050Z 29011KT 9999 BKN027 12/06 Q1013 NOSIG,EYSA,2022-10-23T10:50:00Z,55.9,23.4,12.0,6.0,290,11,,6.21,29.911417,,,,,,TRUE,,,,,BKN,2700,,,,,,,MVFR,,,,,,,,,,,,METAR,135.0
EYPA 231050Z 28004KT 230V330 9999 OVC024 12/07 Q1014,EYPA,2022-10-23T10:50:00Z,55.97,21.08,12.0,7.0,280,4,,6.21,29.940945,,,,,,,,,,,OVC,2400,,,,,,,MVFR,,,,,,,,,,,,METAR,15.0
EYKA 231050Z 28012KT 250V310 9999 FEW018 BKN029 12/09 Q1013,EYKA,2022-10-23T10:50:00Z,54.97,24.08,12.0,9.0,280,12,,6.21,29.911417,,,,,,,,,,,FEW,1800,BKN,2900,,,,,MVFR,,,,,,,,,,,,METAR,68.0
EVVA 231050Z AUTO 29008KT 9999 OVC019 10/07 Q1012,EVVA,2022-10-23T10:50:00Z,57.35,21.55,10.0,7.0,290,8,,6.21,29.88189,,,TRUE,,,,,,,,OVC,1900,,,,,,,MVFR,,,,,,,,,,,,METAR,1.0
EVRA 231050Z 30005KT 250V350 9999 -RA SCT008 BKN010 OVC012 11/09 Q1011 TEMPO BKN008,EVRA,2022-10-23T10:50:00Z,56.92,23.97,11.0,9.0,300,5,,6.21,29.852362,,,,,,,,,,-RA,SCT,800,BKN,1000,OVC,1200,,,MVFR,,,,,,,,,,,,METAR,7.0
EVLA 231050Z AUTO 27007KT 9999 OVC022/// 11/06 Q1013,EVLA,2022-10-23T10:50:00Z,56.52,21.1,11.0,6.0,270,7,,6.21,29.911417,,,TRUE,,,,,,,,OVC,2200,,,,,,,MVFR,,,,,,,,,,,,METAR,5.0
ESUT 231050Z 31011KT 2000 -SN FEW011 SCT019 BKN027 00/M01 Q1008,ESUT,2022-10-23T10:50:00Z,65.8,15.08,0.0,-1.0,310,11,,1.24,29.763779,,,,,,,,,,-SN,FEW,1100,SCT,1900,BKN,2700,,,IFR,,,,,,,,,,,,METAR,457.0
ESUP 231050Z AUTO 29022KT 9999 NCD 03/M05 Q1000,ESUP,2022-10-23T10:50:00Z,67.25,23.07,3.0,-5.0,290,22,,6.21,29.52756,,,TRUE,,,,,,,,CLR,,,,,,,,VFR,,,,,,,,,,,,METAR,164.0
ESTL 231050Z AUTO 23007KT 9999 FEW030/// 14/12 Q1014,ESTL,2022-10-23T10:50:00Z,56.07,13.2,14.0,12.0,230,7,,6.21,29.940945,,,TRUE,,,,,,,,FEW,3000,,,,,,,VFR,,,,,,,,,,,,METAR,39.0
ESTA 231050Z 25008KT 9999 FEW010 OVC039 13/11 Q1014,ESTA,2022-10-23T10:50:00Z,56.28,12.83,13.0,11.0,250,8,,6.21,29.940945,,,,,,,,,,,FEW,1000,OVC,3900,,,,,VFR,,,,,,,,,,,,METAR,19.0
ESSV 231050Z 28008KT 9999 OVC015 10/06 Q1012,ESSV,2022-10-23T10:50:00Z,57.67,18.35,10.0,6.0,280,8,,6.21,29.88189,,,,,,,,,,,OVC,1500,,,,,,,MVFR,,,,,,,,,,,,METAR,38.0
ESST 231050Z AUTO 30003KT 9999 BKN005/// OVC047/// 01/00 Q1013,ESST,2022-10-23T10:50:00Z,60.15,12.98,1.0,0.0,300,3,,6.21,29.911417,,,TRUE,,,,,,,,BKN,500,OVC,4700,,,,,IFR,,,,,,,,,,,,METAR,110.0
ESSP 231050Z AUTO 30005KT 9999 FEW053/// BKN082/// OVC120/// 09/06 Q1012,ESSP,2022-10-23T10:50:00Z,58.58,16.25,9.0,6.0,300,5,,6.21,29.88189,,,TRUE,,,,,,,,FEW,5300,BKN,8200,OVC,12000,,,VFR,,,,,,,,,,,,METAR,3.0
ESSL 231050Z AUTO VRB02KT 9999 FEW011/// OVC021/// 09/07 Q1012,ESSL,2022-10-23T10:50:00Z,58.4,15.67,9.0,7.0,0,2,,6.21,29.88189,,,TRUE,,,,,,,,FEW,1100,OVC,2100,,,,,MVFR,,,,,,,,,,,,METAR,51.0
ESSD 231050Z AUTO VRB02KT 9999 NCD 06/01 Q1012,ESSD,2022-10-23T10:50:00Z,60.42,15.5,6.0,1.0,0,2,,6.21,29.88189,,,TRUE,,,,,,,,CLR,,,,,,,,VFR,,,,,,,,,,,,METAR,151.0
ESSB 231050Z VRB03KT CAVOK 07/02 Q1012,ESSB,2022-10-23T10:50:00Z,59.35,17.93,7.0,2.0,0,3,,6.21,29.88189,,,,,,,,,,,CAVOK,,,,,,,,VFR,,,,,,,,,,,,METAR,14.0
ESSA 231050Z VRB02KT CAVOK 05/04 Q1012 NOSIG,ESSA,2022-10-23T10:50:00Z,59.65,17.93,5.0,4.0,0,2,,6.21,29.88189,,,,,,TRUE,,,,,CAVOK,,,,,,,,VFR,,,,,,,,,,,,METAR,36.0
ESPE 231050Z AUTO 33017KT 9999 NCD 04/M03 Q1005,ESPE,2022-10-23T10:50:00Z,65.88,20.15,4.0,-3.0,330,17,,6.21,29.675198,,,TRUE,,,,,,,,CLR,,,,,,,,VFR,,,,,,,,,,,,METAR,182.0
ESPA 231050Z 29015KT CAVOK 05/M03 Q1004,ESPA,2022-10-23T10:50:00Z,65.53,22.12,5.0,-3.0,290,15,,6.21,29.64567,,,,,,,,,,,CAVOK,,,,,,,,VFR,,,,,,,,,,,,METAR,12.0
ESOW 231050Z AUTO 18003KT 130V240 9999 NCD 07/03 Q1013,ESOW,2022-10-23T10:50:00Z,59.58,16.63,7.0,3.0,180,3,,6.21,29.911417,,,TRUE,,,,,,,,CLR,,,,,,,,VFR,,,,,,,,,,,,METAR,7.0
ESOK 231050Z AUTO 03004KT 9999 FEW003/// OVC030/// ///// Q1012,ESOK,2022-10-23T10:50:00Z,59.45,13.33,,,30,4,,6.21,29.88189,,,TRUE,,,,,,,,FEW,300,OVC,3000,,,,,MVFR,,,,,,,,,,,,METAR,101.0
ESOH 231050Z AUTO 35003KT 9999 OVC057/// M00/M00 Q1012,ESOH,2022-10-23T10:50:00Z,60.02,13.58,0.0,0.0,350,3,,6.21,29.88189,,,TRUE,,,,,,,,OVC,5700,,,,,,,VFR,,,,,,,,,,,,METAR,145.0
ESOE 231050Z AUTO 10002KT 9999 BKN046/// 07/05 Q1012,ESOE,2022-10-23T10:50:00Z,59.22,15.05,7.0,5.0,100,2,,6.21,29.88189,,,TRUE,,,,,,,,BKN,4600,,,,,,,VFR,,,,,,,,,,,,METAR,57.0
ESNZ 231050Z 31006KT 280V350 9999 SCT024 BKN078 04/M00 Q1011,ESNZ,2022-10-23T10:50:00Z,63.18,14.5,4.0,0.0,310,6,,6.21,29.852362,,,,,,,,,,,SCT,2400,BKN,7800,,,,,VFR,,,,,,,,,,,,METAR,360.0
ESNX 231050Z AUTO 29018KT 9999 FEW038/// 02/M04 Q1006,ESNX,2022-10-23T10:50:00Z,65.58,19.28,2.0,-4.0,290,18,,6.21,29.704725,,,TRUE,,,,,,,,FEW,3800,,,,,,,VFR,,,,,,,,,,,,METAR,380.0
ESNV 231050Z AUTO 28010KT 9999 NCD ///// Q1009,ESNV,2022-10-23T10:50:00Z,64.58,16.83,,,280,10,,6.21,29.793306,,,TRUE,,,,,,,,CLR,,,,,,,,VFR,,,,,,,,,,,,METAR,348.0
ESNU 231050Z 30013KT CAVOK 06/M02 Q1008,ESNU,2022-10-23T10:50:00Z,63.78,20.28,6.0,-2.0,300,13,,6.21,29.763779,,,,,,,,,,,CAVOK,,,,,,,,VFR,,,,,,,,,,,,METAR,8.0
ESNS 231050Z 28015KT CAVOK 05/M03 Q1006,ESNS,2022-10-23T10:50:00Z,64.62,21.07,5.0,-3.0,280,15,,6.21,29.704725,,,,,,,,,,,CAVOK,,,,,,,,VFR,,,,,,,,,,,,METAR,41.0
ESNQ 231050Z AUTO 30018KT 9999 NCD 00/M06 Q1000,ESNQ,2022-10-23T10:50:00Z,67.82,20.33,0.0,-6.0,300,18,,6.21,29.52756,,,TRUE,,,,,,,,CLR,,,,,,,,VFR,,,,,,,,,,,,METAR,447.0
ESNO 231050Z AUTO 31009KT 280V340 9999 FEW160/// 04/M01 Q1009,ESNO,2022-10-23T10:50:00Z,63.4,18.97,4.0,-1.0,310,9,,6.21,29.793306,,,TRUE,,,,,,,,FEW,16000,,,,,,,VFR,,,,,,,,,,,,METAR,100.0
ESNN 231050Z 32004KT CAVOK 07/01 Q1011,ESNN,2022-10-23T10:50:00Z,62.52,17.43,7.0,1.0,320,4,,6.21,29.852362,,,,,,,,,,,CAVOK,,,,,,,,VFR,,,,,,,,,,,,METAR,4.0
ESNL 231050Z AUTO 29009KT 9999 NCD 04/M04 Q1008,ESNL,2022-10-23T10:50:00Z,64.55,18.72,4.0,-4.0,290,9,,6.21,29.763779,,,TRUE,,,,,,,,CLR,,,,,,,,VFR,,,,,,,,,,,,METAR,220.0
ESNK 231050Z AUTO 32010KT 9999 OVC150/// 06/M01 Q1011,ESNK,2022-10-23T10:50:00Z,63.03,17.77,6.0,-1.0,320,10,,6.21,29.852362,,,TRUE,,,,,,,,OVC,15000,,,,,,,VFR,,,,,,,,,,,,METAR,4.0
ESNG 231050Z AUTO 28016KT 9999 NCD 02/// Q1002,ESNG,2022-10-23T10:50:00Z,67.13,20.82,,,280,16,,6.21,29.586615,,,TRUE,,,,,,,,CLR,,,,,,,,VFR,,,,,,,,,,,,METAR,300.0
ESND 231050Z AUTO VRB02KT 9999 OVC061/// 02/00 Q1012,ESND,2022-10-23T10:50:00Z,62.05,14.42,2.0,0.0,0,2,,6.21,29.88189,,,TRUE,,,,,,,,OVC,6100,,,,,,,VFR,,,,,,,,,,,,METAR,352.0
ESMX 231050Z 22007KT 9999 BKN008 13/12 Q1013,ESMX,2022-10-23T10:50:00Z,56.92,14.72,13.0,12.0,220,7,,6.21,29.911417,,,,,,,,,,,BKN,800,,,,,,,IFR,,,,,,,,,,,,METAR,176.0
ESMV 231050Z AUTO 23006KT 9999 FEW009/// OVC028/// 12/12 Q1012,ESMV,2022-10-23T10:50:00Z,57.28,14.13,12.0,12.0,230,6,,6.21,29.88189,,,TRUE,,,,,,,,FEW,900,OVC,2800,,,,,MVFR,,,,,,,,,,,,METAR,167.0
ESMT 231050Z 29007KT 260V320 9999 FEW005 BKN007 12/11 Q1013,ESMT,2022-10-23T10:50:00Z,56.68,12.82,12.0,11.0,290,7,,6.21,29.911417,,,,,,,,,,,FEW,500,BKN,700,,,,,IFR,,,,,,,,,,,,METAR,24.0
ESMS 231050Z 24009KT 9999 SCT015 14/11 Q1014,ESMS,2022-10-23T10:50:00Z,55.53,13.37,14.0,11.0,240,9,,6.21,29.940945,,,,,,,,,,,SCT,1500,,,,,,,VFR,,,,,,,,,,,,METAR,68.0
ESMQ 231050Z AUTO 17005KT 9999 SCT003/// BKN005/// OVC006/// 12/11 Q1013,ESMQ,2022-10-23T10:50:00Z,56.68,16.3,12.0,11.0,170,5,,6.21,29.911417,,,TRUE,,,,,,,,SCT,300,BKN,500,OVC,600,,,IFR,,,,,,,,,,,,METAR,3.0
ESMK 231050Z 23006KT 9999 FEW024 SCT030 15/10 Q1014,ESMK,2022-10-23T10:50:00Z,55.92,14.08,15.0,10.0,230,6,,6.21,29.940945,,,,,,,,,,,FEW,2400,SCT,3000,,,,,VFR,,,,,,,,,,,,METAR,20.0
ESKS 231050Z 28002KT CAVOK 02/M01 Q1011,ESKS,2022-10-23T10:50:00Z,61.17,12.83,2.0,-1.0,280,2,,6.21,29.852362,,,,,,,,,,,CAVOK,,,,,,,,VFR,,,,,,,,,,,,METAR,503.0
ESKN 231050Z 27005KT CAVOK 08/03 Q1012,ESKN,2022-10-23T10:50:00Z,58.78,16.92,8.0,3.0,270,5,,6.21,29.88189,,,,,,,,,,,CAVOK,,,,,,,,VFR,,,,,,,,,,,,METAR,41.0
ESKM 231050Z AUTO 00000KT 9999 NCD 06/02 Q1012,ESKM,2022-10-23T10:50:00Z,60.97,14.52,6.0,2.0,0,0,,6.21,29.88189,,,TRUE,,,,,,,,CLR,,,,,,,,VFR,,,,,,,,,,,,METAR,184.0
ESIB 231050Z AUTO 10003KT 2600 BR OVC002/// 10/10 Q1011,ESIB,2022-10-23T10:50:00Z,58.42,12.7,10.0,10.0,100,3,,1.62,29.852362,,,TRUE,,,,,,,BR,OVC,200,,,,,,,LIFR,,,,,,,,,,,,METAR,51.0
ESIA 231050Z AUTO 14003KT 110V170 6000 DZ BKN005/// BKN007/// OVC009/// 09/08 Q1012,ESIA,2022-10-23T10:50:00Z,58.52,14.5,9.0,8.0,140,3,,3.73,29.88189,,,TRUE,,,,,,,DZ,BKN,500,BKN,700,OVC,900,,,IFR,,,,,,,,,,,,METAR,94.0
ESGT 231050Z AUTO 19004KT 9000 OVC005/// 12/11 Q1011 REDZ,ESGT,2022-10-23T10:50:00Z,58.32,12.33,12.0,11.0,190,4,,5.59,29.852362,,,TRUE,,,,,,,,OVC,500,,,,,,,IFR,,,,,,,,,,,,METAR,40.0
ESGP 231050Z 24006KT 5000 BKN005 13/11 Q1012,ESGP,2022-10-23T10:50:00Z,57.77,11.87,13.0,11.0,240,6,,3.11,29.88189,,,,,,,,,,,BKN,500,,,,,,,IFR,,,,,,,,,,,,METAR,15.0
ESGJ 231050Z AUTO 22008KT 9999 BKN007/// OVC015/// 12/12 Q1012,ESGJ,2022-10-23T10:50:00Z,57.77,14.07,12.0,12.0,220,8,,6.21,29.88189,,,TRUE,,,,,,,,BKN,700,OVC,1500,,,,,IFR,,,,,,,,,,,,METAR,224.0
ESGG 231050Z 23008KT 5000 OVC003 11/11 Q1012,ESGG,2022-10-23T10:50:00Z,57.67,12.3,11.0,11.0,230,8,,3.11,29.88189,,,,,,,,,,,OVC,300,,,,,,,LIFR,,,,,,,,,,,,METAR,152.0
ESDF 231050Z 26004KT 230V290 9999 BKN010 BKN032 14/13 Q1014,ESDF,2022-10-23T10:50:00Z,56.27,15.27,14.0,13.0,260,4,,6.21,29.940945,,,,,,,,,,,BKN,1000,BKN,3200,,,,,MVFR,,,,,,,,,,,,METAR,52.0
ESCM 231050Z AUTO 30003KT 260V330 9999 NCD 07/03 Q1012,ESCM,2022-10-23T10:50:00Z,59.88,17.6,7.0,3.0,300,3,,6.21,29.88189,,,TRUE,,,,,,,,CLR,,,,,,,,VFR,,,,,,,,,,,,METAR,21.0
ESCF 231050Z AUTO 21001KT 9999 BKN009/// OVC020/// 09/07 Q1012,ESCF,2022-10-23T10:50:00Z,58.38,15.52,9.0,7.0,210,1,,6.21,29.88189,,,TRUE,,,,,,,,BKN,900,OVC,2000,,,,,IFR,,,,,,,,,,,,METAR,86.0
ENZV 231050Z 17006KT 9999 BKN043 14/12 Q1010,ENZV,2022-10-23T10:50:00Z,58.88,5.63,14.0,12.0,170,6,,6.21,29.822834,,,,,,,,,,,BKN,4300,,,,,,,VFR,,,,,,,,,,,,METAR,7.0
ENWV 231050Z AUTO 16017KT 9999NDV BKN004/// 13/13 Q1008 W///S3,ENWV,2022-10-23T10:50:00Z,56.28,3.4,13.0,13.0,160,17,,,29.763779,,,TRUE,,,,,,,,BKN,400,,,,,,,,,,,,,,,,,,,METAR,30.0
ENVD 231050Z 30015KT 9999 -SHRA FEW012 SCT018 BKN096 02/00 Q0985,ENVD,2022-10-23T10:50:00Z,70.07,29.85,2.0,0.0,300,15,,6.21,29.084646,,,,,,,,,,-SHRA,FEW,1200,SCT,1800,BKN,9600,,,VFR,,,,,,,,,,,,METAR,39.0
ENVA 231050Z 14004KT 9999 FEW008 SCT020 05/04 Q1013 NOSIG RMK WIND 670FT 12006KT,ENVA,2022-10-23T10:50:00Z,63.47,10.92,5.0,4.0,140,4,,6.21,29.911417,,,,,,TRUE,,,,,FEW,800,SCT,2000,,,,,VFR,,,,,,,,,,,,METAR,12.0
ENUG 231050Z AUTO 34031KT 9999NDV BKN018/// 04/00 Q0993 W///S6,ENUG,2022-10-23T10:50:00Z,71.3,22.25,4.0,0.0,340,31,,,29.320866,,,TRUE,,,,,,,,BKN,1800,,,,,,,,,,,,,,,,,,,METAR,30.0
ENTO 231050Z 36007KT 7000 -DZ OVC003 05/05 Q1011 TEMPO BKN004,ENTO,2022-10-23T10:50:00Z,59.2,10.27,5.0,5.0,360,7,,4.35,29.852362,,,,,,,,,,-DZ,OVC,300,,,,,,,LIFR,,,,,,,,,,,,METAR,84.0
ENTC 231050Z 34018G29KT 8000 -SHSNRA VV010 01/M01 Q1003 TEMPO 31018KT 2000 SHRASNGS BKN009CB RMK WIND 2600FT 33049G61KT,ENTC,2022-10-23T10:50:00Z,69.68,18.92,1.0,-1.0,340,18,29,4.97,29.616142,,,,,,,,,,-SHSN -SHRA,OVX,0,,,,,,,LIFR,,,,,,,,,,,1000,METAR,9.0
ENST 231050Z 03007KT 340V080 9999 -SHRA FEW015TCU SCT020 SCT035 03/01 Q1012 RMK WIND 300FT 04008KT,ENST,2022-10-23T10:50:00Z,65.97,12.47,3.0,1.0,30,7,,6.21,29.88189,,,,,,,,,,-SHRA,FEW,1500,SCT,2000,SCT,3500,,,VFR,,,,,,,,,,,,METAR,17.0
ENSS 231050Z AUTO 36018KT 9999 SCT014 BKN020 04/02 Q0984 RMK WIND 0500FT 01025KT,ENSS,2022-10-23T10:50:00Z,70.35,31.05,4.0,2.0,360,18,,6.21,29.055119,,,TRUE,,,,,,,,SCT,1400,BKN,2000,,,,,MVFR,,,,,,,,,,,,METAR,13.0
ENSR 231050Z 30020G32KT 270V340 5000 -SHSNRA -GS VV017 04/M01 Q0999 RMK WIND RWY32 30020G36KT WIND 1118FT 30041G57KT,ENSR,2022-10-23T10:50:00Z,69.78,20.97,4.0,-1.0,300,20,32,3.11,29.498032,,,,,,,,,,-SHSN -SHRA -GS,OVX,0,,,,,,,LIFR,,,,,,,,,,,1700,METAR,5.0
ENSO 231050Z 14008KT 3000 RADZ BR SCT003 BKN006 OVC009 11/11 Q1009,ENSO,2022-10-23T10:50:00Z,59.78,5.33,11.0,11.0,140,8,,1.86,29.793306,,,,,,,,,,RA DZ BR,SCT,300,BKN,600,OVC,900,,,IFR,,,,,,,,,,,,METAR,48.0
ENSL 231050Z AUTO 19016KT 9999NDV NCD 13/12 Q1009 W09/S3,ENSL,2022-10-23T10:50:00Z,58.37,1.9,13.0,12.0,190,16,,,29.793306,,,TRUE,,,,,,,,CLR,,,,,,,,,,,,,,,,,,,,METAR,50.0
ENSK 231050Z 31007KT 9999 VCSH FEW020TCU SCT043 BKN068 02/M03 Q1009,ENSK,2022-10-23T10:50:00Z,68.57,15.02,2.0,-3.0,310,7,,6.21,29.793306,,,,,,,,,,VCSH,FEW,2000,SCT,4300,BKN,6800,,,VFR,,,,,,,,,,,,METAR,3.0
ENSG 231050Z 07004KT 9999 VCSH BKN030 04/02 Q1009 RMK WIND 3306FT 13008KT,ENSG,2022-10-23T10:50:00Z,61.15,7.13,4.0,2.0,70,4,,6.21,29.793306,,,,,,,,,,VCSH,BKN,3000,,,,,,,MVFR,,,,,,,,,,,,METAR,493.0
ENSF 231050Z AUTO 05026KT 9999NDV BKN014/// BKN040/// 11/07 Q1009 W///S4,ENSF,2022-10-23T10:50:00Z,61.25,1.85,11.0,7.0,50,26,,,29.793306,,,TRUE,,,,,,,,BKN,1400,BKN,4000,,,,,,,,,,,,,,,,,METAR,15.0
ENSE 231050Z AUTO 06025KT 9999NDV SCT015/// OVC043/// 09/06 Q1009 W///S4,ENSE,2022-10-23T10:50:00Z,61.45,2.15,9.0,6.0,60,25,,,29.793306,,,TRUE,,,,,,,,SCT,1500,OVC,4300,,,,,,,,,,,,,,,,,METAR,10.0
ENSD 231050Z VRB01KT 9999 FEW055 06/04 Q1010 RMK WIND RWY26 00000KT WIND 1140FT 08003KT,ENSD,2022-10-23T10:50:00Z,61.82,6.12,6.0,4.0,0,1,,6.21,29.822834,,,,,,,,,,,FEW,5500,,,,,,,VFR,,,,,,,,,,,,METAR,61.0
ENSB 231050Z 12009KT 9999 FEW035 SCT050 BKN075 M06/M09 Q1008 RMK WIND 1400FT VRB02KT,ENSB,2022-10-23T10:50:00Z,78.25,15.47,-6.0,-9.0,120,9,,6.21,29.763779,,,,,,,,,,,FEW,3500,SCT,5000,BKN,7500,,,VFR,,,,,,,,,,,,METAR,30.0
ENRY 231050Z AUTO 34005KT 7000NDV OVC002/// 05/05 Q1012,ENRY,2022-10-23T10:50:00Z,59.37,10.77,5.0,5.0,340,5,,,29.88189,,,TRUE,,,,,,,,OVC,200,,,,,,,,,,,,,,,,,,,METAR,45.0
ENRS 231050Z AUTO 33015KT 9999 SCT057 05/M03 Q1012,ENRS,2022-10-23T10:50:00Z,67.52,12.1,5.0,-3.0,330,15,,6.21,29.88189,,,TRUE,,,,,,,,SCT,5700,,,,,,,VFR,,,,,,,,,,,,METAR,4.0
ENRO 231050Z 00000KT 9999 BKN034 00/M01 Q1011,ENRO,2022-10-23T10:50:00Z,62.57,11.33,0.0,-1.0,0,0,,6.21,29.852362,,,,,,,,,,,BKN,3400,,,,,,,VFR,,,,,,,,,,,,METAR,624.0
ENRM 231050Z 20002KT 9999 VCSH FEW020 SCT030 06/02 Q1013,ENRM,2022-10-23T10:50:00Z,64.83,11.13,6.0,2.0,200,2,,6.21,29.911417,,,,,,,,,,VCSH,FEW,2000,SCT,3000,,,,,VFR,,,,,,,,,,,,METAR,4.0
ENRA 231050Z 22004KT 180V300 9999 SCT015 SCT053 04/01 Q1011,ENRA,2022-10-23T10:50:00Z,66.37,14.3,4.0,1.0,220,4,,6.21,29.852362,,,,,,,,,,,SCT,1500,SCT,5300,,,,,VFR,,,,,,,,,,,,METAR,66.0
ENQR 231050Z AUTO 05017KT 9999NDV BKN017/// OVC042/// 10/06 Q1009 W10/S4,ENQR,2022-10-23T10:50:00Z,61.52,2.22,10.0,6.0,50,17,,,29.793306,,,TRUE,,,,,,,,BKN,1700,OVC,4200,,,,,,,,,,,,,,,,,METAR,10.0
ENQA 231050Z AUTO 06016KT 5000NDV -DZ OVC003/// 10/09 Q1008 W17/S3,ENQA,2022-10-23T10:50:00Z,60.65,3.72,10.0,9.0,60,16,,,29.763779,,,TRUE,,,,,,,-DZ,OVC,300,,,,,,,,,,,,,,,,,,,METAR,90.0
ENOV 231050Z VRB01KT 9999 SCT018 BKN130 08/05 Q1010 RMK WIND RWY24 00000KT WIND 2090FT VRB02KT,ENOV,2022-10-23T10:50:00Z,62.17,6.07,8.0,5.0,0,1,,6.21,29.822834,,,,,,,,,,,SCT,1800,BKN,13000,,,,,VFR,,,,,,,,,,,,METAR,72.0
ENOL 231050Z 10003KT 9999 FEW012 06/03 Q1013 NOSIG,ENOL,2022-10-23T10:50:00Z,63.7,9.6,6.0,3.0,100,3,,6.21,29.911417,,,,,,TRUE,,,,,FEW,1200,,,,,,,VFR,,,,,,,,,,,,METAR,9.0
ENOA 231050Z 06016KT 0500 BR BKN003 10/10 Q1007 W///S3,ENOA,2022-10-23T10:50:00Z,60.5,2.83,10.0,10.0,60,16,,0.31,29.734253,,,,,,,,,,BR,BKN,300,,,,,,,LIFR,,,,,,,,,,,,METAR,5.0
ENNO 231050Z VRB01KT 9000 -RA FEW008 SCT015 BKN022 06/05 Q1011,ENNO,2022-10-23T10:50:00Z,59.57,9.22,6.0,5.0,0,1,,5.59,29.852362,,,,,,,,,,-RA,FEW,800,SCT,1500,BKN,2200,,,MVFR,,,,,,,,,,,,METAR,19.0
ENNM 231050Z AUTO VRB02KT 9999 SCT020 05/02 Q1013,ENNM,2022-10-23T10:50:00Z,64.47,11.57,5.0,2.0,0,2,,6.21,29.911417,,,TRUE,,,,,,,,SCT,2000,,,,,,,VFR,,,,,,,,,,,,METAR,2.0
ENNE 231050Z 34009KT 9999 FEW030 05/M02 Q1013 W///S5,ENNE,2022-10-23T10:50:00Z,66.03,8.08,5.0,-2.0,340,9,,6.21,29.911417,,,,,,,,,,,FEW,3000,,,,,,,VFR,,,,,,,,,,,,METAR,10.0
ENNA 231050Z 30024KT 9999 VCSH SCT016 BKN062 04/M00 Q0992 RMK WIND 1800FT 30031KT,ENNA,2022-10-23T10:50:00Z,70.07,24.97,4.0,0.0,300,24,,6.21,29.291338,,,,,,,,,,VCSH,SCT,1600,BKN,6200,,,,,VFR,,,,,,,,,,,,METAR,12.0
ENMS 231050Z 22005KT 9999 VCSH FEW012 SCT028 02/01 Q1011 RMK WIND 412FT VRB02KT,ENMS,2022-10-23T10:50:00Z,65.78,13.22,2.0,1.0,220,5,,6.21,29.852362,,,,,,,,,,VCSH,FEW,1200,SCT,2800,,,,,VFR,,,,,,,,,,,,METAR,44.0
ENML 231050Z 05008KT 9999 FEW015 BKN045 07/04 Q1011,ENML,2022-10-23T10:50:00Z,62.75,7.27,7.0,4.0,50,8,,6.21,29.852362,,,,,,,,,,,FEW,1500,BKN,4500,,,,,VFR,,,,,,,,,,,,METAR,3.0
ENMH 231050Z AUTO 03014KT 9999 -RA FEW011 SCT014 BKN019 04/02 Q0988,ENMH,2022-10-23T10:50:00Z,71.02,27.82,4.0,2.0,30,14,,6.21,29.17323,,,TRUE,,,,,,,-RA,FEW,1100,SCT,1400,BKN,1900,,,MVFR,,,,,,,,,,,,METAR,10.0
ENLK 231050Z 32015KT 9999 VCSH FEW025 SCT035CB 04/M04 Q1010,ENLK,2022-10-23T10:50:00Z,68.15,13.62,4.0,-4.0,320,15,,6.21,29.822834,,,,,,,,,,VCSH,FEW,2500,SCT,3500,,,,,VFR,,,,,,,,,,,,METAR,26.0
ENLE 231050Z 15019KT 0200 FG VV002 12/12 Q1008 W13/S3,ENLE,2022-10-23T10:50:00Z,56.53,3.22,12.0,12.0,150,19,,0.12,29.763779,,,,,,,,,,FG,OVX,0,,,,,,,LIFR,,,,,,,,,,,200,METAR,10.0
ENLA 231050Z AUTO 14010KT 8000NDV NCD 13/12 Q1007 W///S3,ENLA,2022-10-23T10:50:00Z,57.1,2.83,13.0,12.0,140,10,,,29.734253,,,TRUE,,,,,,,,CLR,,,,,,,,,,,,,,,,,,,,METAR,10.0
ENKR 231050Z 28012KT 9999 FEW012 SCT043 BKN080 02/M00 Q0985 RMK WIND 731FT 28022KT,ENKR,2022-10-23T10:50:00Z,69.72,29.88,2.0,0.0,280,12,,6.21,29.084646,,,,,,,,,,,FEW,1200,SCT,4300,BKN,8000,,,VFR,,,,,,,,,,,,METAR,86.0
ENKB 231050Z 04005KT 360V060 CAVOK 07/03 Q1012 RMK WIND 745FT 06007KT,ENKB,2022-10-23T10:50:00Z,63.12,7.82,7.0,3.0,40,5,,6.21,29.88189,,,,,,,,,,,CAVOK,,,,,,,,VFR,,,,,,,,,,,,METAR,62.0
ENJS 231050Z 18016KT 8000 FEW015 SCT040 12/11 Q1008 W11/S/,ENJS,2022-10-23T10:50:00Z,,,12.0,11.0,180,16,,4.97,29.763779,,,,,,,,,,,FEW,1500,SCT,4000,,,,,MVFR,,,,,,,,,,,,METAR,
ENHV 231050Z AUTO 35019KT 9999 OVC018/// 05/02 Q0990,ENHV,2022-10-23T10:50:00Z,71.02,25.97,5.0,2.0,350,19,,6.21,29.232283,,,TRUE,,,,,,,,OVC,1800,,,,,,,MVFR,,,,,,,,,,,,METAR,13.0
ENHM 231050Z AUTO 19008KT 0700NDV FG NCD 11/11 Q1007 W12/S/,ENHM,2022-10-23T10:50:00Z,59.57,2.23,11.0,11.0,190,8,,,29.734253,,,TRUE,,,,,,,FG,CLR,,,,,,,,,,,,,,,,,,,,METAR,10.0
ENHK 231050Z AUTO 31018KT 9999 -RA SCT017 04/02 Q0995,ENHK,2022-10-23T10:50:00Z,70.48,22.13,4.0,2.0,310,18,,6.21,29.379921,,,TRUE,,,,,,,-RA,SCT,1700,,,,,,,VFR,,,,,,,,,,,,METAR,6.0
ENHF 231050Z VRB05G15KT 9999 VCSH SCT018 BKN043 04/00 Q0992 RMK WIND 1254FT 32030KT,ENHF,2022-10-23T10:50:00Z,70.67,23.67,4.0,0.0,0,5,15,6.21,29.291338,,,,,,,,,,VCSH,SCT,1800,BKN,4300,,,,,VFR,,,,,,,,,,,,METAR,79.0
ENHE 231050Z 04010KT 9999 SCT035 05/M02 Q1013 W///S6,ENHE,2022-10-23T10:50:00Z,65.33,2.33,5.0,-2.0,40,10,,6.21,29.911417,,,,,,,,,,,SCT,3500,,,,,,,VFR,,,,,,,,,,,,METAR,10.0
ENHD 231050Z 17007KT 9999 SCT007 BKN027 13/11 Q1009,ENHD,2022-10-23T10:50:00Z,59.35,5.22,13.0,11.0,170,7,,6.21,29.793306,,,,,,,,,,,SCT,700,BKN,2700,,,,,MVFR,,,,,,,,,,,,METAR,22.0
ENGM 231050Z 04003KT 010V100 4000 1200NE R19R/P2000N R01R/P2000N R19L/1600N R01L/P2000N BR OVC002 02/02 Q1012 NOSIG,ENGM,2022-10-23T10:50:00Z,60.2,11.07,2.0,2.0,40,3,,2.49,29.88189,,,,,,TRUE,,,,BR,OVC,200,,,,,,,LIFR,,,,,,,,,,,,METAR,204.0
ENGC 231050Z 06025KT 9999 SCT010 BKN040 10/07 Q1009 W09/S4,ENGC,2022-10-23T10:50:00Z,61.02,2.02,10.0,7.0,60,25,,6.21,29.793306,,,,,,,,,,,SCT,1000,BKN,4000,,,,,VFR,,,,,,,,,,,,METAR,10.0
ENFL 231050Z 09004KT 040V130 CAVOK 07/05 Q1009,ENFL,2022-10-23T10:50:00Z,61.57,5.02,7.0,5.0,90,4,,6.21,29.793306,,,,,,,,,,,CAVOK,,,,,,,,VFR,,,,,,,,,,,,METAR,1.0
ENFB 231050Z AUTO 05026KT 9999NDV BKN014/// BKN039/// 10/07 Q1009 W///S4,ENFB,2022-10-23T10:50:00Z,61.2,1.83,10.0,7.0,50,26,,,29.793306,,,TRUE,,,,,,,,BKN,1400,BKN,3900,,,,,,,,,,,,,,,,,METAR,10.0
ENEV 231050Z 22004KT 170V300 9999 -SHSN FEW011 SCT018 SCT076 01/M00 Q1008 RMK WIND 1400FT 27014KT,ENEV,2022-10-23T10:50:00Z,68.48,16.67,1.0,0.0,220,4,,6.21,29.763779,,,,,,,,,,-SHSN,FEW,1100,SCT,1800,SCT,7600,,,VFR,,,,,,,,,,,,METAR,26.0
ENDU 231050Z 29019KT 9999 5000N -SHSN FEW010 BKN030 02/M03 Q1004 TEMPO 28020G30KT 2000 SHSN VV010 RMK WIND 1100FT 29019KT WIND 2200FT 30030G40KT,ENDU,2022-10-23T10:50:00Z,69.05,18.55,2.0,-3.0,290,19,,6.21,29.64567,,,,,,,,,,-SHSN,FEW,1000,BKN,3000,,,,,MVFR,,,,,,,,,,,,METAR,65.0
ENDR 231050Z AUTO 05011KT 9999NDV SCT027/// 09/02 Q1013 W///S5,ENDR,2022-10-23T10:50:00Z,64.35,7.77,9.0,2.0,50,11,,,29.911417,,,TRUE,,,,,,,,SCT,2700,,,,,,,,,,,,,,,,,,,METAR,10.0
ENCN 231050Z VRB02KT 1900 BR OVC002 10/10 Q1011,ENCN,2022-10-23T10:50:00Z,58.2,8.07,10.0,10.0,0,2,,1.18,29.852362,,,,,,,,,,BR,OVC,200,,,,,,,LIFR,,,,,,,,,,,,METAR,17.0
ENBV 231050Z AUTO 02012KT 9999 -RA SCT015 BKN024 BKN034 04/02 Q0987,ENBV,2022-10-23T10:50:00Z,70.87,29.02,4.0,2.0,20,12,,6.21,29.143702,,,TRUE,,,,,,,-RA,SCT,1500,BKN,2400,BKN,3400,,,MVFR,,,,,,,,,,,,METAR,13.0
ENBS 231050Z AUTO 36012KT 9999 -RA BKN010/// BKN020/// OVC026/// 02/01 Q0985,ENBS,2022-10-23T10:50:00Z,70.62,29.68,2.0,1.0,360,12,,6.21,29.084646,,,TRUE,,,,,,,-RA,BKN,1000,BKN,2000,OVC,2600,,,MVFR,,,,,,,,,,,,METAR,144.0
ENBR 231050Z 15008KT 5000 -DZ BR SCT003 BKN005 11/11 Q1008 TEMPO 3000 BKN003 RMK WIND 1200FT 16011KT,ENBR,2022-10-23T10:50:00Z,60.28,5.22,11.0,11.0,150,8,,3.11,29.763779,,,,,,,,,,-DZ BR,SCT,300,BKN,500,,,,,IFR,,,,,,,,,,,,METAR,49.0
ENBO 231050Z 35013KT 9999 4500E VCSH FEW014 FEW020TCU SCT045 03/00 Q1010 TEMPO SHRAGS,ENBO,2022-10-23T10:50:00Z,67.27,14.37,3.0,0.0,350,13,,6.21,29.822834,,,,,,,,,,VCSH,FEW,1400,FEW,2000,SCT,4500,,,VFR,,,,,,,,,,,,METAR,13.0
ENBN 231050Z 30007KT 260V030 9999 VCSH FEW015 SCT023 BKN045 06/01 Q1013,ENBN,2022-10-23T10:50:00Z,65.47,12.22,6.0,1.0,300,7,,6.21,29.911417,,,,,,,,,,VCSH,FEW,1500,SCT,2300,BKN,4500,,,VFR,,,,,,,,,,,,METAR,3.0
ENBL 231050Z 35003KT 9999 FEW025 SCT055 BKN090 08/03 Q1008,ENBL,2022-10-23T10:50:00Z,61.4,5.77,8.0,3.0,350,3,,6.21,29.763779,,,,,,,,,,,FEW,2500,SCT,5500,BKN,9000,,,VFR,,,,,,,,,,,,METAR,313.0
ENAT 231050Z 31022KT 9999 -RA FEW011 BKN020 04/02 Q0994 RMK WIND 700FT 32028KT,ENAT,2022-10-23T10:50:00Z,69.97,23.37,4.0,2.0,310,22,,6.21,29.350393,,,,,,,,,,-RA,FEW,1100,BKN,2000,,,,,MVFR,,,,,,,,,,,,METAR,3.0
ENAN 231050Z 30022KT 9999 SCT040 03/M04 Q1007,ENAN,2022-10-23T10:50:00Z,69.3,16.13,3.0,-4.0,300,22,,6.21,29.734253,,,,,,,,,,,SCT,4000,,,,,,,VFR,,,,,,,,,,,,METAR,13.0
ENAL 231050Z 06014KT 9999 FEW015 SCT041 08/05 Q1011,ENAL,2022-10-23T10:50:00Z,62.57,6.12,8.0,5.0,60,14,,6.21,29.852362,,,,,,,,,,,FEW,1500,SCT,4100,,,,,VFR,,,,,,,,,,,,METAR,21.0
ELLX 231050Z 17011KT 140V200 CAVOK 17/13 Q1011 NOSIG,ELLX,2022-10-23T10:50:00Z,49.63,6.2,17.0,13.0,170,11,,6.21,29.852362,,,,,,TRUE,,,,,CAVOK,,,,,,,,VFR,,,,,,,,,,,,METAR,374.0
EKYT 231050Z AUTO 24006KT 9999 SCT005/// OVC007/// 13/12 Q1012,EKYT,2022-10-23T10:50:00Z,57.1,9.87,13.0,12.0,240,6,,6.21,29.88189,,,TRUE,,,,,,,,SCT,500,OVC,700,,,,,IFR,,,,,,,,,,,,METAR,2.0
EKVG 231050Z AUTO 09007KT 010V120 9999 BKN021/// 07/03 Q1010 RMK FEW018/// WIND SKEID 09010KT,EKVG,2022-10-23T10:50:00Z,62.07,-7.27,7.0,3.0,90,7,,6.21,29.822834,,,TRUE,,,,,,,,BKN,2100,,,,,,,MVFR,,,,,,,,,,,,METAR,89.0
EKVD 231050Z 18004KT 150V210 9999 FEW007 BKN200 14/12 Q1013,EKVD,2022-10-23T10:50:00Z,55.43,9.32,14.0,12.0,180,4,,6.21,29.911417,,,,,,,,,,,FEW,700,BKN,20000,,,,,VFR,,,,,,,,,,,,METAR,41.0
EKSP 231050Z 18005KT 150V210 CAVOK 13/12 Q1013 RMK BKN200,EKSP,2022-10-23T10:50:00Z,55.22,9.27,13.0,12.0,180,5,,6.21,29.911417,,,,,,,,,,,CAVOK,,,,,,,,VFR,,,,,,,,,,,,METAR,40.0
EKSB 231050Z AUTO 17004KT 140V200 2600 BR OVC002/// 12/12 Q1013,EKSB,2022-10-23T10:50:00Z,54.97,9.8,12.0,12.0,170,4,,1.62,29.911417,,,TRUE,,,,,,,BR,OVC,200,,,,,,,LIFR,,,,,,,,,,,,METAR,23.0
EKRN 231050Z AUTO 25008KT 9999 OVC007/// 13/12 Q1015,EKRN,2022-10-23T10:50:00Z,55.07,14.75,13.0,12.0,250,8,,6.21,29.970472,,,TRUE,,,,,,,,OVC,700,,,,,,,IFR,,,,,,,,,,,,METAR,14.0
EKRK 231050Z 21007KT 9999 BKN015 12/11 Q1014,EKRK,2022-10-23T10:50:00Z,55.58,12.13,12.0,11.0,210,7,,6.21,29.940945,,,,,,,,,,,BKN,1500,,,,,,,MVFR,,,,,,,,,,,,METAR,40.0
EKOD 231050Z 19007KT 110V210 9999 FEW009 14/13 Q1014,EKOD,2022-10-23T10:50:00Z,55.47,10.32,14.0,13.0,190,7,,6.21,29.940945,,,,,,,,,,,FEW,900,,,,,,,VFR,,,,,,,,,,,,METAR,13.0
EKEB 231050Z AUTO 14007KT 1700 R08/0550N R26/1300U BR VV002 12/11 Q1013,EKEB,2022-10-23T10:50:00Z,55.52,8.55,12.0,11.0,140,7,,1.06,29.911417,,,TRUE,,,,,,,BR,OVX,0,,,,,,,LIFR,,,,,,,,,,,200,METAR,29.0
EKCH 231050Z 24008KT 9999 BKN009 13/11 Q1015 BECMG SCT008,EKCH,2022-10-23T10:50:00Z,55.62,12.67,13.0,11.0,240,8,,6.21,29.970472,,,,,,,,,,,BKN,900,,,,,,,IFR,,,,,,,,,,,,METAR,4.0
EKBI 231050Z AUTO 19006KT 9999 BKN005/// 13/13 Q1013,EKBI,2022-10-23T10:50:00Z,55.73,9.15,13.0,13.0,190,6,,6.21,29.911417,,,TRUE,,,,,,,,BKN,500,,,,,,,IFR,,,,,,,,,,,,METAR,67.0
EKAH 231050Z AUTO 25003KT 9999 BKN005/// 12/11 Q1014,EKAH,2022-10-23T10:50:00Z,56.28,10.62,12.0,11.0,250,3,,6.21,29.940945,,,TRUE,,,,,,,,BKN,500,,,,,,,IFR,,,,,,,,,,,,METAR,25.0
EGYP 231050Z 36025KT 9999 FEW020 BKN180 BKN210 07/05 Q0999,EGYP,2022-10-23T10:50:00Z,-51.82,-58.45,7.0,5.0,360,25,,6.21,29.498032,,,,,,,,,,,FEW,2000,BKN,18000,BKN,21000,,,VFR,,,,,,,,,,,,METAR,70.0
EGYM 231050Z AUTO 11010KT 9999 // SCT038/// SCT050/// 15/14 Q1002,EGYM,2022-10-23T10:50:00Z,52.63,0.57,15.0,14.0,110,10,,6.21,29.586615,,,TRUE,,,,,,,,SCT,3800,SCT,5000,,,,,VFR,,,,,,,,,,,,METAR,25.0
EGYH 231050Z AUTO 14006KT 2200 +RA OVC009/// 15/14 Q1002,EGYH,2022-10-23T10:50:00Z,52.87,0.15,15.0,14.0,140,6,,1.37,29.586615,,,TRUE,,,,,,,+RA,OVC,900,,,,,,,IFR,,,,,,,,,,,,METAR,5.0
EGYE 231050Z AUTO 13017KT //// VV/// ///// Q////,EGYE,2022-10-23T10:50:00Z,52.97,-0.57,,,130,17,,,,,,TRUE,,,,,,,,OVX,0,,,,,,,LIFR,,,,,,,,,,,,METAR,105.0
EGYD 231050Z AUTO 13016KT 9999 OVC003/// 14/14 Q1002,EGYD,2022-10-23T10:50:00Z,53.03,-0.5,14.0,14.0,130,16,,6.21,29.586615,,,TRUE,,,,,,,,OVC,300,,,,,,,LIFR,,,,,,,,,,,,METAR,65.0
EGXZ 231050Z AUTO 11009KT 6000 RA OVC007/// 14/13 Q1002,EGXZ,2022-10-23T10:50:00Z,54.2,-1.38,14.0,13.0,110,9,,3.73,29.586615,,,TRUE,,,,,,,RA,OVC,700,,,,,,,IFR,,,,,,,,,,,,METAR,24.0
EGXW 231050Z AUTO 13015KT 9999 -RA FEW004/// BKN050/// 14/14 Q1001,EGXW,2022-10-23T10:50:00Z,53.18,-0.52,14.0,14.0,130,15,,6.21,29.557087,,,TRUE,,,,,,,-RA,FEW,400,BKN,5000,,,,,VFR,,,,,,,,,,,,METAR,70.0
EGXV 231050Z AUTO 12005KT 2900 RA BKN004/// OVC045/// 14/14 Q1002,EGXV,2022-10-23T10:50:00Z,53.87,-0.45,14.0,14.0,120,5,,1.8,29.586615,,,TRUE,,,,,,,RA,BKN,400,OVC,4500,,,,,LIFR,,,,,,,,,,,,METAR,6.0
EGXT 231050Z AUTO 11007KT 2100 +RA SCT002/// SCT070/// 14/14 Q1001,EGXT,2022-10-23T10:50:00Z,52.62,-0.47,14.0,14.0,110,7,,1.3,29.557087,,,TRUE,,,,,,,+RA,SCT,200,SCT,7000,,,,,IFR,,,,,,,,,,,,METAR,74.0
EGXS 231050Z AUTO 12009KT 2800 -RA OVC050/// 14/13 Q1003,EGXS,2022-10-23T10:50:00Z,53.48,0.15,14.0,13.0,120,9,,1.74,29.616142,,,TRUE,,,,,,,-RA,OVC,5000,,,,,,,IFR,,,,,,,,,,,,METAR,6.0
EGXP 231050Z AUTO 12015KT 9999 // FEW005/// BKN050/// 14/14 Q1001,EGXP,2022-10-23T10:50:00Z,53.3,-0.55,14.0,14.0,120,15,,6.21,29.557087,,,TRUE,,,,,,,,FEW,500,BKN,5000,,,,,VFR,,,,,,,,,,,,METAR,58.0
EGXE 231050Z AUTO 10006KT 9999 -RA OVC009/// 14/13 Q1002,EGXE,2022-10-23T10:50:00Z,54.28,-1.52,14.0,13.0,100,6,,6.21,29.586615,,,TRUE,,,,,,,-RA,OVC,900,,,,,,,IFR,,,,,,,,,,,,METAR,30.0
EGXC 231050Z 11008KT 3000 +RA SCT005 BKN030 OVC060 14/14 Q1002 RMK YLO1,EGXC,2022-10-23T10:50:00Z,53.1,-0.17,14.0,14.0,110,8,,1.86,29.586615,,,,,,,,,,+RA,SCT,500,BKN,3000,OVC,6000,,,IFR,,,,,,,,,,,,METAR,9.0
EGWU 231050Z 14007KT 9999 FEW007 SCT080 17/16 Q1001 NOSIG RMK BLU BLU,EGWU,2022-10-23T10:50:00Z,51.55,-0.42,17.0,16.0,140,7,,6.21,29.557087,,,,,,TRUE,,,,,FEW,700,SCT,8000,,,,,VFR,,,,,,,,,,,,METAR,33.0
EGVP 231050Z AUTO 17011KT 9999 BKN009/// 17/14 Q1000,EGVP,2022-10-23T10:50:00Z,51.13,-1.57,17.0,14.0,170,11,,6.21,29.52756,,,TRUE,,,,,,,,BKN,900,,,,,,,IFR,,,,,,,,,,,,METAR,80.0
EGVO 231050Z AUTO 15009KT 9999 FEW010/// SCT100/// 17/15 Q1001,EGVO,2022-10-23T10:50:00Z,51.23,-0.95,17.0,15.0,150,9,,6.21,29.557087,,,TRUE,,,,,,,,FEW,1000,SCT,10000,,,,,VFR,,,,,,,,,,,,METAR,118.0
EGVN 231050Z 14009KT 9999 SCT012 16/15 Q1000 BECMG SCT015,EGVN,2022-10-23T10:50:00Z,51.77,-1.58,16.0,15.0,140,9,,6.21,29.52756,,,,,,,,,,,SCT,1200,,,,,,,VFR,,,,,,,,,,,,METAR,83.0
EGUW 231050Z AUTO 11011KT 9999 -RA FEW044/// BKN050/// 16/14 Q1003,EGUW,2022-10-23T10:50:00Z,52.12,0.97,16.0,14.0,110,11,,6.21,29.616142,,,TRUE,,,,,,,-RA,FEW,4400,BKN,5000,,,,,VFR,,,,,,,,,,,,METAR,86.0
EGUB 231050Z AUTO 13010KT 9999 NCD 17/14 Q1000,EGUB,2022-10-23T10:50:00Z,51.62,-1.08,17.0,14.0,130,10,,6.21,29.52756,,,TRUE,,,,,,,,CLR,,,,,,,,VFR,,,,,,,,,,,,METAR,56.0
EGTK 231050Z 12009KT 9999 FEW008 SCT012 16/15 Q1000,EGTK,2022-10-23T10:50:00Z,51.83,-1.32,16.0,15.0,120,9,,6.21,29.52756,,,,,,,,,,,FEW,800,SCT,1200,,,,,VFR,,,,,,,,,,,,METAR,78.0
EGTE 231050Z 17006KT 9999 SCT016 17/13 Q0999,EGTE,2022-10-23T10:50:00Z,50.73,-3.42,17.0,13.0,170,6,,6.21,29.498032,,,,,,,,,,,SCT,1600,,,,,,,VFR,,,,,,,,,,,,METAR,30.0
EGTC 231050Z 17004KT 100V210 9999 FEW001 SCT003 14/14 Q1001,EGTC,2022-10-23T10:50:00Z,52.07,-0.62,14.0,14.0,170,4,,6.21,29.557087,,,,,,,,,,,FEW,100,SCT,300,,,,,VFR,,,,,,,,,,,,METAR,110.0
EGSY 231050Z 11007KT 9999 FEW008 SCT017 16/14 Q0999,EGSY,2022-10-23T10:50:00Z,51.4,-3.43,16.0,14.0,110,7,,6.21,29.498032,,,,,,,,,,,FEW,800,SCT,1700,,,,,VFR,,,,,,,,,,,,METAR,46.0
EGSS 231050Z AUTO 12011KT 9999 -RA SCT018/// //////TCU 15/14 Q1002,EGSS,2022-10-23T10:50:00Z,51.88,0.22,15.0,14.0,120,11,,6.21,29.586615,,,TRUE,,,,,,,-RA,SCT,1800,,,,,,,VFR,,,,,,,,,,,,METAR,101.0
EGSH 231050Z 12006KT 090V160 9999 FEW005 SCT012 16/15 Q1003 TEMPO BKN009,EGSH,2022-10-23T10:50:00Z,52.68,1.28,16.0,15.0,120,6,,6.21,29.616142,,,,,,,,,,,FEW,500,SCT,1200,,,,,VFR,,,,,,,,,,,,METAR,21.0
EGQS 231050Z 07003KT 9999 FEW005 SCT050 BKN250 14/12 Q1003 RMK BLU,EGQS,2022-10-23T10:50:00Z,57.72,-3.32,14.0,12.0,70,3,,6.21,29.616142,,,,,,,,,,,FEW,500,SCT,5000,BKN,25000,,,VFR,,,,,,,,,,,,METAR,6.0
EGQM 231050Z AUTO 15008KT 0650 FG BKN001/// 13/12 Q1003,EGQM,2022-10-23T10:50:00Z,55.42,-1.6,13.0,12.0,150,8,,0.4,29.616142,,,TRUE,,,,,,,FG,BKN,100,,,,,,,LIFR,,,,,,,,,,,,METAR,24.0
EGQL 231050Z 10010KT 9999 5000W VCFG FEW004 BKN080 BKN140 13/12 Q1003 RMK WHT,EGQL,2022-10-23T10:50:00Z,56.38,-2.87,13.0,12.0,100,10,,6.21,29.616142,,,,,,,,,,VCFG,FEW,400,BKN,8000,BKN,14000,,,VFR,,,,,,,,,,,,METAR,11.0
EGQK 231050Z AUTO 03003KT 9999 BKN056/// 11/11 Q1003,EGQK,2022-10-23T10:50:00Z,57.65,-3.57,11.0,11.0,30,3,,6.21,29.616142,,,TRUE,,,,,,,,BKN,5600,,,,,,,VFR,,,,,,,,,,,,SPECI,5.0
EGPU 231050Z AUTO 12012KT 9999 BKN019/// 14/13 Q1000 RERA,EGPU,2022-10-23T10:50:00Z,56.5,-6.88,14.0,13.0,120,12,,6.21,29.52756,,,TRUE,,,,,,,,BKN,1900,,,,,,,MVFR,,,,,,,,,,,,METAR,12.0
EGPO 231050Z VRB02KT 9999 FEW006 SCT038 13/12 Q1002,EGPO,2022-10-23T10:50:00Z,58.22,-6.32,13.0,12.0,0,2,,6.21,29.586615,,,,,,,,,,,FEW,600,SCT,3800,,,,,VFR,,,,,,,,,,,,METAR,10.0
EGPN 231050Z 09006KT 9999 FEW005 SCT040 13/12 Q1003,EGPN,2022-10-23T10:50:00Z,56.45,-3.02,13.0,12.0,90,6,,6.21,29.616142,,,,,,,,,,,FEW,500,SCT,4000,,,,,VFR,,,,,,,,,,,,METAR,4.0
EGPL 231050Z 13009KT 9999 FEW007 SCT016 BKN031 14/12 Q1000,EGPL,2022-10-23T10:50:00Z,57.47,-7.37,14.0,12.0,130,9,,6.21,29.52756,,,,,,,,,,,FEW,700,SCT,1600,BKN,3100,,,VFR,,,,,,,,,,,,METAR,3.0
EGPK 231050Z 10014KT 9999 SCT028 15/12 Q1000,EGPK,2022-10-23T10:50:00Z,55.5,-4.58,15.0,12.0,100,14,,6.21,29.52756,,,,,,,,,,,SCT,2800,,,,,,,VFR,,,,,,,,,,,,METAR,14.0
EGPI 231050Z 08013KT 9999 FEW009 14/13 Q0999,EGPI,2022-10-23T10:50:00Z,55.68,-6.25,14.0,13.0,80,13,,6.21,29.498032,,,,,,,,,,,FEW,900,,,,,,,VFR,,,,,,,,,,,,METAR,17.0
EGPH 231050Z 06006KT CAVOK 13/12 Q1002,EGPH,2022-10-23T10:50:00Z,55.95,-3.35,13.0,12.0,60,6,,6.21,29.586615,,,,,,,,,,,CAVOK,,,,,,,,VFR,,,,,,,,,,,,METAR,29.0
EGPF 231050Z AUTO 06010KT 9999 //////TCU 13/12 Q1001,EGPF,2022-10-23T10:50:00Z,55.87,-4.42,13.0,12.0,60,10,,6.21,29.557087,,,TRUE,,,,,,,,,,,,,,,,,,,,,,,,,,,,METAR,8.0
EGPE 231050Z VRB01KT 8000 0600SW R23/P1500N PRFG OVC001 10/10 Q1003,EGPE,2022-10-23T10:50:00Z,57.53,-4.05,10.0,10.0,0,1,,4.97,29.616142,,,,,,,,,,PRFG,OVC,100,,,,,,,LIFR,,,,,,,,,,,,METAR,7.0
EGPD 231050Z 15004KT 090V170 9999 SCT008 13/12 Q1004 TEMPO 4000 BR BKN006,EGPD,2022-10-23T10:50:00Z,57.2,-2.22,13.0,12.0,150,4,,6.21,29.64567,,,,,,,,,,,SCT,800,,,,,,,VFR,,,,,,,,,,,,METAR,65.0
EGPC 231050Z AUTO 09008KT 0200 FG VV/// 11/11 Q1004,EGPC,2022-10-23T10:50:00Z,58.45,-3.08,11.0,11.0,90,8,,0.12,29.64567,,,TRUE,,,,,,,FG,OVX,0,,,,,,,LIFR,,,,,,,,,,,,METAR,38.0
EGPB 231050Z 09014KT 9999 SCT005 OVC006 11/10 Q1006 TEMPO BKN004,EGPB,2022-10-23T10:50:00Z,59.87,-1.3,11.0,10.0,90,14,,6.21,29.704725,,,,,,,,,,,SCT,500,OVC,600,,,,,IFR,,,,,,,,,,,,METAR,2.0
EGPA 231050Z 10007KT 5000 BR FEW002 OVC003 12/11 Q1004,EGPA,2022-10-23T10:50:00Z,58.95,-2.9,12.0,11.0,100,7,,3.11,29.64567,,,,,,,,,,BR,FEW,200,OVC,300,,,,,LIFR,,,,,,,,,,,,METAR,15.0
EGOV 231050Z AUTO 10003KT 9999 -RA FEW032/// BKN046/// 15/12 Q0997,EGOV,2022-10-23T10:50:00Z,53.25,-4.53,15.0,12.0,100,3,,6.21,29.438976,,,TRUE,,,,,,,-RA,FEW,3200,BKN,4600,,,,,VFR,,,,,,,,,,,,SPECI,11.0
EGOS 231050Z AUTO 15004KT 9999 // SCT012/// BKN110/// 14/12 Q0999,EGOS,2022-10-23T10:50:00Z,52.8,-2.67,14.0,12.0,150,4,,6.21,29.498032,,,TRUE,,,,,,,,SCT,1200,BKN,11000,,,,,VFR,,,,,,,,,,,,METAR,76.0
EGOP 231050Z AUTO 18012KT 9999 OVC010/// 16/14 Q0998,EGOP,2022-10-23T10:50:00Z,51.72,-4.37,16.0,14.0,180,12,,6.21,29.468504,,,TRUE,,,,,,,,OVC,1000,,,,,,,MVFR,,,,,,,,,,,,METAR,8.0
EGOM 231050Z AUTO 10011KT 5000 BR OVC001/// 11/11 Q1002,EGOM,2022-10-23T10:50:00Z,55.05,-2.55,11.0,11.0,100,11,,3.11,29.586615,,,TRUE,,,,,,,BR,OVC,100,,,,,,,LIFR,,,,,,,,,,,,METAR,286.0
EGNX 231050Z 12009KT 9999 -RA BKN006 BKN041 14/13 Q1000,EGNX,2022-10-23T10:50:00Z,52.82,-1.32,14.0,13.0,120,9,,6.21,29.52756,,,,,,,,,,-RA,BKN,600,BKN,4100,,,,,IFR,,,,,,,,,,,,METAR,91.0
EGNV 231050Z 07004KT 4000 -RA BKN018 13/12 Q1002,EGNV,2022-10-23T10:50:00Z,54.52,-1.42,13.0,12.0,70,4,,2.49,29.586615,,,,,,,,,,-RA,BKN,1800,,,,,,,IFR,,,,,,,,,,,,METAR,36.0
EGNT 231050Z 13005KT 100V180 3500 BR BKN003 13/13 Q1003,EGNT,2022-10-23T10:50:00Z,55.03,-1.7,13.0,13.0,130,5,,2.17,29.616142,,,,,,,,,,BR,BKN,300,,,,,,,LIFR,,,,,,,,,,,,METAR,77.0
EGNS 231050Z 09014KT 9999 FEW005 SCT010 14/14 Q0998 NOSIG,EGNS,2022-10-23T10:50:00Z,54.08,-4.63,14.0,14.0,90,14,,6.21,29.468504,,,,,,TRUE,,,,,FEW,500,SCT,1000,,,,,VFR,,,,,,,,,,,,METAR,18.0
EGNR 231050Z 16005KT 120V190 9999 VCSH SCT014 SCT034 16/13 Q0999,EGNR,2022-10-23T10:50:00Z,53.17,-2.98,16.0,13.0,160,5,,6.21,29.498032,,,,,,,,,,VCSH,SCT,1400,SCT,3400,,,,,VFR,,,,,,,,,,,,METAR,11.0
EGNM 231050Z 09007KT 1800 -RADZ BR OVC002 12/12 Q1001,EGNM,2022-10-23T10:50:00Z,53.87,-1.65,12.0,12.0,90,7,,1.12,29.557087,,,,,,,,,,-RA -DZ BR,OVC,200,,,,,,,LIFR,,,,,,,,,,,,METAR,221.0
EGNJ 231050Z 13010KT 5000 RA FEW034 BKN047 15/15 Q1003,EGNJ,2022-10-23T10:50:00Z,53.57,-0.35,15.0,15.0,130,10,,3.11,29.616142,,,,,,,,,,RA,FEW,3400,BKN,4700,,,,,MVFR,,,,,,,,,,,,METAR,23.0
EGNH 231050Z 12009KT 9999 VCSH SCT012 14/13 Q0998,EGNH,2022-10-23T10:50:00Z,53.77,-3.03,14.0,13.0,120,9,,6.21,29.468504,,,,,,,,,,VCSH,SCT,1200,,,,,,,VFR,,,,,,,,,,,,METAR,10.0
EGMD 231050Z 16010KT 9999 VCSH FEW012 BKN033 17/16 Q1003,EGMD,2022-10-23T10:50:00Z,50.95,0.93,17.0,16.0,160,10,,6.21,29.616142,,,,,,,,,,VCSH,FEW,1200,BKN,3300,,,,,VFR,,,,,,,,,,,,METAR,4.0
EGMC 231050Z 15007KT 9999 VCSH FEW008 SCT011 17/15 Q1002,EGMC,2022-10-23T10:50:00Z,51.57,0.7,17.0,15.0,150,7,,6.21,29.586615,,,,,,,,,,VCSH,FEW,800,SCT,1100,,,,,VFR,,,,,,,,,,,,METAR,15.0
EGLL 231050Z 12006KT CAVOK 17/15 Q1001,EGLL,2022-10-23T10:50:00Z,51.48,-0.45,17.0,15.0,120,6,,6.21,29.557087,,,,,,,,,,,CAVOK,,,,,,,,VFR,,,,,,,,,,,,METAR,26.0
EGLF 231050Z 14008KT 110V190 9999 FEW010 17/15 Q1001,EGLF,2022-10-23T10:50:00Z,51.28,-0.77,17.0,15.0,140,8,,6.21,29.557087,,,,,,,,,,,FEW,1000,,,,,,,VFR,,,,,,,,,,,,METAR,65.0
EGLC 231050Z AUTO 14005KT 9999 -RA FEW024/// SCT041/// //////CB 16/15 Q1002,EGLC,2022-10-23T10:50:00Z,51.5,0.05,16.0,15.0,140,5,,6.21,29.586615,,,TRUE,,,,,,,-RA,FEW,2400,SCT,4100,,,,,VFR,,,,,,,,,,,,METAR,10.0
EGKK 231050Z 16005KT 120V200 9999 FEW007 SCT025 17/16 Q1001,EGKK,2022-10-23T10:50:00Z,51.13,-0.18,17.0,16.0,160,5,,6.21,29.557087,,,,,,,,,,,FEW,700,SCT,2500,,,,,VFR,,,,,,,,,,,,METAR,58.0
EGKB 231050Z 17009KT 9999 VCSH BKN005 15/15 Q1002 RETS,EGKB,2022-10-23T10:50:00Z,51.32,0.02,15.0,15.0,170,9,,6.21,29.586615,,,,,,,,,,VCSH,BKN,500,,,,,,,IFR,,,,,,,,,,,,METAR,183.0
EGKA 231050Z 17002KT 9999 FEW014 17/16 Q1001,EGKA,2022-10-23T10:50:00Z,50.83,-0.3,17.0,16.0,170,2,,6.21,29.557087,,,,,,,,,,,FEW,1400,,,,,,,VFR,,,,,,,,,,,,METAR,2.0
EGJJ 231050Z 13015KT 9999 FEW045 17/15 Q0999,EGJJ,2022-10-23T10:50:00Z,49.22,-2.2,17.0,15.0,130,15,,6.21,29.498032,,,,,,,,,,,FEW,4500,,,,,,,VFR,,,,,,,,,,,,METAR,84.0
EGJB 231050Z 13011KT CAVOK 18/15 Q0999,EGJB,2022-10-23T10:50:00Z,49.42,-2.6,18.0,15.0,130,11,,6.21,29.498032,,,,,,,,,,,CAVOK,,,,,,,,VFR,,,,,,,,,,,,METAR,102.0
EGJA 231050Z 15013KT CAVOK 17/15 Q0999,EGJA,2022-10-23T10:50:00Z,49.72,-2.2,17.0,15.0,150,13,,6.21,29.498032,,,,,,,,,,,CAVOK,,,,,,,,VFR,,,,,,,,,,,,METAR,83.0
EGHQ 231050Z 14010KT 9999 SCT010 15/13 Q0997,EGHQ,2022-10-23T10:50:00Z,50.43,-5.0,15.0,13.0,140,10,,6.21,29.438976,,,,,,,,,,,SCT,1000,,,,,,,VFR,,,,,,,,,,,,METAR,101.0
EGHI 231050Z 15005KT 100V210 9999 SCT012 17/14 Q1001,EGHI,2022-10-23T10:50:00Z,50.95,-1.35,17.0,14.0,150,5,,6.21,29.557087,,,,,,,,,,,SCT,1200,,,,,,,VFR,,,,,,,,,,,,METAR,13.0
EGHH 231050Z 17009KT 9999 FEW007 SCT012 18/15 Q1000,EGHH,2022-10-23T10:50:00Z,50.78,-1.83,18.0,15.0,170,9,,6.21,29.52756,,,,,,,,,,,FEW,700,SCT,1200,,,,,VFR,,,,,,,,,,,,METAR,9.0
EGGW 231050Z 12008KT 9999 BKN003 15/13 Q1001,EGGW,2022-10-23T10:50:00Z,51.87,-0.37,15.0,13.0,120,8,,6.21,29.557087,,,,,,,,,,,BKN,300,,,,,,,LIFR,,,,,,,,,,,,METAR,159.0
EGGP 231050Z 18004KT 150V230 9999 VCSH SCT012 BKN016 15/14 Q0999,EGGP,2022-10-23T10:50:00Z,53.33,-2.85,15.0,14.0,180,4,,6.21,29.498032,,,,,,,,,,VCSH,SCT,1200,BKN,1600,,,,,MVFR,,,,,,,,,,,,METAR,23.0
EGGD 231050Z 17009KT 9999 SCT013 16/13 Q1000,EGGD,2022-10-23T10:50:00Z,51.37,-2.72,16.0,13.0,170,9,,6.21,29.52756,,,,,,,,,,,SCT,1300,,,,,,,VFR,,,,,,,,,,,,METAR,182.0
EGFF 231050Z AUTO 11008KT 9999 FEW009 16/14 Q0999,EGFF,2022-10-23T10:50:00Z,51.38,-3.35,16.0,14.0,110,8,,6.21,29.498032,,,TRUE,,,,,,,,FEW,900,,,,,,,VFR,,,,,,,,,,,,METAR,65.0
EGEO 231050Z 14005KT 100V170 9999 FEW017 BKN035 14/11 Q1001,EGEO,2022-10-23T10:50:00Z,56.47,-5.4,14.0,11.0,140,5,,6.21,29.557087,,,,,,,,,,,FEW,1700,BKN,3500,,,,,VFR,,,,,,,,,,,,METAR,5.0
EGDY 231050Z AUTO 16011KT 9999 FEW018/// 17/13 Q0999,EGDY,2022-10-23T10:50:00Z,51.0,-2.63,17.0,13.0,160,11,,6.21,29.498032,,,TRUE,,,,,,,,FEW,1800,,,,,,,VFR,,,,,,,,,,,,SPECI,21.0
EGDR 231050Z AUTO 11006KT 9999 FEW006/// 15/13 Q0996,EGDR,2022-10-23T10:50:00Z,50.08,-5.25,15.0,13.0,110,6,,6.21,29.409449,,,TRUE,,,,,,,,FEW,600,,,,,,,VFR,,,,,,,,,,,,SPECI,74.0
EGDM 231050Z AUTO 19010KT 9999 BKN010/// SCT020/// 16/13 Q1000,EGDM,2022-10-23T10:50:00Z,51.17,-1.75,16.0,13.0,190,10,,6.21,29.52756,,,TRUE,,,,,,,,BKN,1000,SCT,2000,,,,,MVFR,,,,,,,,,,,,SPECI,122.0
EGCN 231050Z 11010KT 070V140 8000 -RA SCT005 BKN006 OVC008 14/13 Q1002,EGCN,2022-10-23T10:50:00Z,53.48,-1.0,14.0,13.0,110,10,,4.97,29.586615,,,,,,,,,,-RA,SCT,500,BKN,600,OVC,800,,,IFR,,,,,,,,,,,,METAR,9.0
EGCK 231050Z 14005KT 090V200 9999 VCSH BKN031 BKN044 17/12 Q0997,EGCK,2022-10-23T10:50:00Z,53.1,-4.33,17.0,12.0,140,5,,6.21,29.438976,,,,,,,,,,VCSH,BKN,3100,BKN,4400,,,,,VFR,,,,,,,,,,,,METAR,6.0
EGCC 231050Z 07006KT 9999 -RA FEW015 FEW026TCU 14/13 Q0999 RERA TEMPO BKN014,EGCC,2022-10-23T10:50:00Z,53.35,-2.27,14.0,13.0,70,6,,6.21,29.498032,,,,,,,,,,-RA,FEW,1500,FEW,2600,,,,,VFR,,,,,,,,,,,,METAR,78.0
EGBJ 231050Z 14006KT 9999 VCSH FEW012 SCT042CB 17/14 Q0999,EGBJ,2022-10-23T10:50:00Z,51.9,-2.17,17.0,14.0,140,6,,6.21,29.498032,,,,,,,,,,VCSH,FEW,1200,SCT,4200,,,,,VFR,,,,,,,,,,,,METAR,27.0
EGBB 231050Z 11011KT 9999 BKN005 15/14 Q0999,EGBB,2022-10-23T10:50:00Z,52.47,-1.75,15.0,14.0,110,11,,6.21,29.498032,,,,,,,,,,,BKN,500,,,,,,,IFR,,,,,,,,,,,,METAR,91.0
EGAE 231050Z 06005KT 9999 FEW004 BKN010 14/13 Q0998,EGAE,2022-10-23T10:50:00Z,55.03,-7.15,14.0,13.0,60,5,,6.21,29.468504,,,,,,,,,,,FEW,400,BKN,1000,,,,,MVFR,,,,,,,,,,,,METAR,9.0
EGAC 231050Z AUTO 13007KT 9999 -RA BKN008 BKN012 OVC016 14/13 Q0998,EGAC,2022-10-23T10:50:00Z,54.62,-5.87,14.0,13.0,130,7,,6.21,29.468504,,,TRUE,,,,,,,-RA,BKN,800,BKN,1200,OVC,1600,,,IFR,,,,,,,,,,,,METAR,2.0
EGAA 231050Z AUTO 12008KT 080V140 9999 BKN006 OVC011 14/13 Q0998,EGAA,2022-10-23T10:50:00Z,54.65,-6.22,14.0,13.0,120,8,,6.21,29.468504,,,TRUE,,,,,,,,BKN,600,OVC,1100,,,,,IFR,,,,,,,,,,,,METAR,65.0
EFVA 231050Z AUTO 33010KT CAVOK 06/M02 Q1008,EFVA,2022-10-23T10:50:00Z,63.05,21.77,6.0,-2.0,330,10,,6.21,29.763779,,,TRUE,,,,,,,,CAVOK,,,,,,,,VFR,,,,,,,,,,,,METAR,4.0
EFUT 231050Z AUTO 29008KT 260V320 9999 BKN018 07/03 Q1006,EFUT,2022-10-23T10:50:00Z,60.88,26.93,7.0,3.0,290,8,,6.21,29.704725,,,TRUE,,,,,,,,BKN,1800,,,,,,,MVFR,,,,,,,,,,,,METAR,104.0
EFTU 231050Z AUTO 29008KT 250V320 9999 BKN023 09/04 Q1009,EFTU,2022-10-23T10:50:00Z,60.52,22.27,9.0,4.0,290,8,,6.21,29.793306,,,TRUE,,,,,,,,BKN,2300,,,,,,,MVFR,,,,,,,,,,,,METAR,47.0
EFTP 231050Z AUTO 32008KT 280V350 9999 FEW023 BKN037 06/01 Q1007,EFTP,2022-10-23T10:50:00Z,61.42,23.62,6.0,1.0,320,8,,6.21,29.734253,,,TRUE,,,,,,,,FEW,2300,BKN,3700,,,,,VFR,,,,,,,,,,,,METAR,111.0
EFSI 231050Z AUTO 30009KT 270V330 CAVOK 04/M01 Q1007,EFSI,2022-10-23T10:50:00Z,62.7,22.83,4.0,-1.0,300,9,,6.21,29.734253,,,TRUE,,,,,,,,CAVOK,,,,,,,,VFR,,,,,,,,,,,,METAR,90.0
EFSA 231050Z AUTO 30009KT 260V340 9999 BKN021 06/02 Q1004,EFSA,2022-10-23T10:50:00Z,61.95,28.93,6.0,2.0,300,9,,6.21,29.64567,,,TRUE,,,,,,,,BKN,2100,,,,,,,MVFR,,,,,,,,,,,,METAR,90.0
EFRO 231050Z AUTO 29015G25KT 260V320 CAVOK 03/M06 Q0998,EFRO,2022-10-23T10:50:00Z,66.57,25.82,3.0,-6.0,290,15,25,6.21,29.468504,,,TRUE,,,,,,,,CAVOK,,,,,,,,VFR,,,,,,,,,,,,METAR,201.0
EFPO 231050Z AUTO 32010KT 9999 FEW031 08/00 Q1009,EFPO,2022-10-23T10:50:00Z,61.47,21.8,8.0,0.0,320,10,,6.21,29.793306,,,TRUE,,,,,,,,FEW,3100,,,,,,,VFR,,,,,,,,,,,,METAR,10.0
EFOU 231050Z AUTO 32016KT CAVOK 05/M03 Q1002,EFOU,2022-10-23T10:50:00Z,64.92,25.37,5.0,-3.0,320,16,,6.21,29.586615,,,TRUE,,,,,,,,CAVOK,,,,,,,,VFR,,,,,,,,,,,,METAR,15.0
EFMI 231050Z AUTO 29005KT 260V320 9999 SCT020 06/02 Q1005,EFMI,2022-10-23T10:50:00Z,61.68,27.2,6.0,2.0,290,5,,6.21,29.675198,,,TRUE,,,,,,,,SCT,2000,,,,,,,VFR,,,,,,,,,,,,METAR,99.0
EFMA 231050Z AUTO 33008KT 9999 BKN023 09/04 Q1011,EFMA,2022-10-23T10:50:00Z,60.12,19.9,9.0,4.0,330,8,,6.21,29.852362,,,TRUE,,,,,,,,BKN,2300,,,,,,,MVFR,,,,,,,,,,,,METAR,6.0
EFLP 231050Z AUTO 28005KT 250V330 9999 BKN031 08/04 Q1005,EFLP,2022-10-23T10:50:00Z,61.03,28.15,8.0,4.0,280,5,,6.21,29.675198,,,TRUE,,,,,,,,BKN,3100,,,,,,,VFR,,,,,,,,,,,,METAR,102.0
EFKU 231050Z AUTO 30009KT 260V320 9999 FEW027 05/M02 Q1004,EFKU,2022-10-23T10:50:00Z,63.02,27.8,5.0,-2.0,300,9,,6.21,29.64567,,,TRUE,,,,,,,,FEW,2700,,,,,,,VFR,,,,,,,,,,,,METAR,92.0
EFKT 231050Z AUTO 30018G28KT 9999 NSC 03/M06 Q0995,EFKT,2022-10-23T10:50:00Z,67.7,24.85,3.0,-6.0,300,18,28,6.21,29.379921,,,TRUE,,,,,,,,CLR,,,,,,,,VFR,,,,,,,,,,,,METAR,190.0
EFKS 231050Z AUTO 29017KT CAVOK 02/M06 Q0995,EFKS,2022-10-23T10:50:00Z,66.0,29.23,2.0,-6.0,290,17,,6.21,29.379921,,,TRUE,,,,,,,,CAVOK,,,,,,,,VFR,,,,,,,,,,,,METAR,270.0
EFKK 231050Z AUTO 29008KT 250V310 CAVOK 05/M01 Q1006,EFKK,2022-10-23T10:50:00Z,63.72,23.13,5.0,-1.0,290,8,,6.21,29.704725,,,TRUE,,,,,,,,CAVOK,,,,,,,,VFR,,,,,,,,,,,,METAR,25.0
EFKI 231050Z AUTO 29015KT CAVOK 04/M01 Q1001,EFKI,2022-10-23T10:50:00Z,64.27,27.67,4.0,-1.0,290,15,,6.21,29.557087,,,TRUE,,,,,,,,CAVOK,,,,,,,,VFR,,,,,,,,,,,,METAR,132.0
EFKE 231050Z AUTO 31014KT CAVOK 05/M06 Q1001,EFKE,2022-10-23T10:50:00Z,65.78,24.57,5.0,-6.0,310,14,,6.21,29.557087,,,TRUE,,,,,,,,CAVOK,,,,,,,,VFR,,,,,,,,,,,,METAR,15.0
EFJY 231050Z AUTO 31009KT 9999 FEW024 05/M00 Q1006,EFJY,2022-10-23T10:50:00Z,62.4,25.68,5.0,0.0,310,9,,6.21,29.704725,,,TRUE,,,,,,,,FEW,2400,,,,,,,VFR,,,,,,,,,,,,METAR,139.0
EFJO 231050Z AUTO 31011KT CAVOK 05/M02 Q1003,EFJO,2022-10-23T10:50:00Z,62.67,29.62,5.0,-2.0,310,11,,6.21,29.616142,,,TRUE,,,,,,,,CAVOK,,,,,,,,VFR,,,,,,,,,,,,METAR,118.0
EFIV 231050Z AUTO 30014KT 270V340 9999 -RA OVC027 02/M01 Q0990,EFIV,2022-10-23T10:50:00Z,68.62,27.42,2.0,-1.0,300,14,,6.21,29.232283,,,TRUE,,,,,,,-RA,OVC,2700,,,,,,,MVFR,,,,,,,,,,,,METAR,145.0
EFHK 231050Z 28012KT 9999 SCT026 09/02 Q1007 NOSIG,EFHK,2022-10-23T10:50:00Z,60.32,24.97,9.0,2.0,280,12,,6.21,29.734253,,,,,,TRUE,,,,,SCT,2600,,,,,,,VFR,,,,,,,,,,,,METAR,56.0
EFHA 231050Z AUTO 30008KT 270V330 9999 BKN020 05/01 Q1006,EFHA,2022-10-23T10:50:00Z,61.85,24.8,5.0,1.0,300,8,,6.21,29.704725,,,TRUE,,,,,,,,BKN,2000,,,,,,,MVFR,,,,,,,,,,,,METAR,144.0
EFET 231050Z AUTO 30021G34KT 260V320 CAVOK 01/M05 Q0996,EFET,2022-10-23T10:50:00Z,68.37,23.43,1.0,-5.0,300,21,34,6.21,29.409449,,,TRUE,,,,,,,,CAVOK,,,,,,,,VFR,,,,,,,,,,,,METAR,300.0
EETU 231050Z AUTO 27008KT 8000 OVC005/// 08/07 Q1008,EETU,2022-10-23T10:50:00Z,58.32,26.68,8.0,7.0,270,8,,4.97,29.763779,,,TRUE,,,,,,,,OVC,500,,,,,,,IFR,,,,,,,,,,,,METAR,67.0
EETN 231050Z 31007KT 280V340 9999 SCT016 BKN032 09/05 Q1008 NOSIG,EETN,2022-10-23T10:50:00Z,59.4,24.82,9.0,5.0,310,7,,6.21,29.763779,,,,,,TRUE,,,,,SCT,1600,BKN,3200,,,,,VFR,,,,,,,,,,,,METAR,41.0
EEPU 231050Z AUTO 27006KT 230V290 9999 -RA FEW008/// BKN010/// OVC049/// 10/08 Q1009,EEPU,2022-10-23T10:50:00Z,58.42,24.47,10.0,8.0,270,6,,6.21,29.793306,,,TRUE,,,,,,,-RA,FEW,800,BKN,1000,OVC,4900,,,MVFR,,,,,,,,,,,,METAR,13.0
EEKE 231050Z 28006KT 240V340 9999 FEW014 OVC025 09/07 Q1011,EEKE,2022-10-23T10:50:00Z,58.23,22.52,9.0,7.0,280,6,,6.21,29.852362,,,,,,,,,,,FEW,1400,OVC,2500,,,,,MVFR,,,,,,,,,,,,METAR,4.0
EEEI 231050Z 32004KT 9999 FEW013 SCT019 BKN040 09/07 Q1009 NOSIG,EEEI,2022-10-23T10:50:00Z,59.27,24.2,9.0,7.0,320,4,,6.21,29.793306,,,,,,TRUE,,,,,FEW,1300,SCT,1900,BKN,4000,,,VFR,,,,,,,,,,,,METAR,19.0
EDXW 231050Z 15009KT CAVOK 14/12 Q1012,EDXW,2022-10-23T10:50:00Z,54.92,8.33,14.0,12.0,150,9,,6.21,29.88189,,,,,,,,,,,CAVOK,,,,,,,,VFR,,,,,,,,,,,,METAR,8.0
EDVK 231050Z 13011KT CAVOK 16/11 Q1014,EDVK,2022-10-23T10:50:00Z,51.4,9.37,16.0,11.0,130,11,,6.21,29.940945,,,,,,,,,,,CAVOK,,,,,,,,VFR,,,,,,,,,,,,METAR,277.0
EDVE 231050Z 11003KT CAVOK 16/14 Q1014,EDVE,2022-10-23T10:50:00Z,52.32,10.55,16.0,14.0,110,3,,6.21,29.940945,,,,,,,,,,,CAVOK,,,,,,,,VFR,,,,,,,,,,,,METAR,83.0
EDTY 231050Z VRB02KT CAVOK 20/11 Q1015,EDTY,2022-10-23T10:50:00Z,49.12,9.78,20.0,11.0,0,2,,6.21,29.970472,,,,,,,,,,,CAVOK,,,,,,,,VFR,,,,,,,,,,,,METAR,398.0
EDTL 231050Z VRB03KT CAVOK 19/14 Q1013,EDTL,2022-10-23T10:50:00Z,48.37,7.83,19.0,14.0,0,3,,6.21,29.911417,,,,,,,,,,,CAVOK,,,,,,,,VFR,,,,,,,,,,,,METAR,152.0
EDSB 231050Z VRB01KT CAVOK 18/12 Q1013,EDSB,2022-10-23T10:50:00Z,48.78,8.08,18.0,12.0,0,1,,6.21,29.911417,,,,,,,,,,,CAVOK,,,,,,,,VFR,,,,,,,,,,,,METAR,122.0
EDQM 231050Z 13004KT 100V170 9999 FEW015 15/12 Q1017,EDQM,2022-10-23T10:50:00Z,50.3,11.85,15.0,12.0,130,4,,6.21,30.029528,,,,,,,,,,,FEW,1500,,,,,,,VFR,,,,,,,,,,,,METAR,578.0
EDNY 231050Z VRB02KT CAVOK 15/12 Q1016,EDNY,2022-10-23T10:50:00Z,47.67,9.52,15.0,12.0,0,2,,6.21,30.0,,,,,,,,,,,CAVOK,,,,,,,,VFR,,,,,,,,,,,,METAR,411.0
EDMO 231050Z AUTO 12004KT 9999 // NCD 20/11 Q1016,EDMO,2022-10-23T10:50:00Z,48.07,11.27,20.0,11.0,120,4,,6.21,30.0,,,TRUE,,,,,,,,CLR,,,,,,,,VFR,,,,,,,,,,,,METAR,587.0
EDMA 231050Z 12003KT 080V160 CAVOK 17/11 Q1016,EDMA,2022-10-23T10:50:00Z,48.42,10.92,17.0,11.0,120,3,,6.21,30.0,,,,,,,,,,,CAVOK,,,,,,,,VFR,,,,,,,,,,,,METAR,462.0
EDLW 231050Z 14006KT CAVOK 19/11 Q1011,EDLW,2022-10-23T10:50:00Z,51.52,7.62,19.0,11.0,140,6,,6.21,29.852362,,,,,,,,,,,CAVOK,,,,,,,,VFR,,,,,,,,,,,,METAR,122.0
EDLV 231050Z 13007KT CAVOK 16/13 Q1009,EDLV,2022-10-23T10:50:00Z,51.6,6.15,16.0,13.0,130,7,,6.21,29.793306,,,,,,,,,,,CAVOK,,,,,,,,VFR,,,,,,,,,,,,METAR,27.0
EDLP 231050Z 15010KT CAVOK 18/11 Q1012,EDLP,2022-10-23T10:50:00Z,51.62,8.62,18.0,11.0,150,10,,6.21,29.88189,,,,,,,,,,,CAVOK,,,,,,,,VFR,,,,,,,,,,,,METAR,211.0
EDLN 231050Z 12009KT CAVOK 17/13 Q1009,EDLN,2022-10-23T10:50:00Z,51.23,6.5,17.0,13.0,120,9,,6.21,29.793306,,,,,,,,,,,CAVOK,,,,,,,,VFR,,,,,,,,,,,,METAR,38.0
EDJA 231050Z 00000KT CAVOK 20/12 Q1016,EDJA,2022-10-23T10:50:00Z,47.98,10.23,20.0,12.0,0,0,,6.21,30.0,,,,,,,,,,,CAVOK,,,,,,,,VFR,,,,,,,,,,,,METAR,625.0
EDHL 231050Z 16006KT 120V230 CAVOK 15/12 Q1014,EDHL,2022-10-23T10:50:00Z,53.8,10.72,15.0,12.0,160,6,,6.21,29.940945,,,,,,,,,,,CAVOK,,,,,,,,VFR,,,,,,,,,,,,METAR,13.0
EDHK 231050Z 16005KT 130V190 7000 SCT002 BKN004 12/12 Q1014,EDHK,2022-10-23T10:50:00Z,54.38,10.15,12.0,12.0,160,5,,4.35,29.940945,,,,,,,,,,,SCT,200,BKN,400,,,,,LIFR,,,,,,,,,,,,METAR,24.0
EDHI 231050Z AUTO 11004KT 040V170 9999 // BKN160/// 15/14 Q1013,EDHI,2022-10-23T10:50:00Z,53.53,9.83,15.0,14.0,110,4,,6.21,29.911417,,,TRUE,,,,,,,,BKN,16000,,,,,,,VFR,,,,,,,,,,,,METAR,5.0
EDGS 231050Z 11008KT CAVOK 14/11 Q1013,EDGS,2022-10-23T10:50:00Z,50.7,8.08,14.0,11.0,110,8,,6.21,29.911417,,,,,,,,,,,CAVOK,,,,,,,,VFR,,,,,,,,,,,,METAR,595.0
EDFM 231050Z 20003KT 160V250 CAVOK 18/13 Q1013,EDFM,2022-10-23T10:50:00Z,49.47,8.52,18.0,13.0,200,3,,6.21,29.911417,,,,,,,,,,,CAVOK,,,,,,,,VFR,,,,,,,,,,,,METAR,94.0
EDFH 231050Z 13011KT 9999 FEW004 12/11 Q1012,EDFH,2022-10-23T10:50:00Z,49.95,7.27,12.0,11.0,130,11,,6.21,29.88189,,,,,,,,,,,FEW,400,,,,,,,VFR,,,,,,,,,,,,METAR,494.0
EDDW 231050Z AUTO 12005KT 080V160 CAVOK 14/12 Q1012 NOSIG,EDDW,2022-10-23T10:50:00Z,53.03,8.8,14.0,12.0,120,5,,6.21,29.88189,,,TRUE,,,TRUE,,,,,CAVOK,,,,,,,,VFR,,,,,,,,,,,,METAR,5.0
EDDV 231050Z AUTO 13005KT 100V180 CAVOK 16/12 Q1013 NOSIG,EDDV,2022-10-23T10:50:00Z,52.47,9.68,16.0,12.0,130,5,,6.21,29.911417,,,TRUE,,,TRUE,,,,,CAVOK,,,,,,,,VFR,,,,,,,,,,,,METAR,53.0
EDDS 231050Z AUTO 11003KT 070V170 CAVOK 18/13 Q1014,EDDS,2022-10-23T10:50:00Z,48.68,9.22,18.0,13.0,110,3,,6.21,29.940945,,,TRUE,,,,,,,,CAVOK,,,,,,,,VFR,,,,,,,,,,,,METAR,374.0
EDDR 231050Z AUTO 16009KT 140V200 CAVOK 21/12 Q1012,EDDR,2022-10-23T10:50:00Z,49.22,7.1,21.0,12.0,160,9,,6.21,29.88189,,,TRUE,,,,,,,,CAVOK,,,,,,,,VFR,,,,,,,,,,,,METAR,317.0
EDDP 231050Z AUTO 17010KT CAVOK 17/11 Q1016 NOSIG,EDDP,2022-10-23T10:50:00Z,51.43,12.23,17.0,11.0,170,10,,6.21,30.0,,,TRUE,,,TRUE,,,,,CAVOK,,,,,,,,VFR,,,,,,,,,,,,METAR,129.0
EDDN 231050Z AUTO 14010KT CAVOK 17/11 Q1016 NOSIG,EDDN,2022-10-23T10:50:00Z,49.5,11.05,17.0,11.0,140,10,,6.21,30.0,,,TRUE,,,TRUE,,,,,CAVOK,,,,,,,,VFR,,,,,,,,,,,,METAR,312.0
EDDM 231050Z AUTO 08005KT 030V110 CAVOK 16/12 Q1017 NOSIG,EDDM,2022-10-23T10:50:00Z,48.35,11.82,16.0,12.0,80,5,,6.21,30.029528,,,TRUE,,,TRUE,,,,,CAVOK,,,,,,,,VFR,,,,,,,,,,,,METAR,445.0
EDDL 231050Z AUTO 14013KT 9999 -SHRA FEW///CB 18/12 Q1009 NOSIG,EDDL,2022-10-23T10:50:00Z,51.3,6.77,18.0,12.0,140,13,,6.21,29.793306,,,TRUE,,,TRUE,,,,-SHRA,,,,,,,,,,,,,,,,,,,,,METAR,37.0
EDDK 231050Z AUTO 12010KT 080V150 CAVOK 17/12 Q1010 NOSIG,EDDK,2022-10-23T10:50:00Z,50.87,7.15,17.0,12.0,120,10,,6.21,29.822834,,,TRUE,,,TRUE,,,,,CAVOK,,,,,,,,VFR,,,,,,,,,,,,METAR,92.0
EDDH 231050Z AUTO 14009KT CAVOK 15/13 Q1013 NOSIG,EDDH,2022-10-23T10:50:00Z,53.63,10.0,15.0,13.0,140,9,,6.21,29.911417,,,TRUE,,,TRUE,,,,,CAVOK,,,,,,,,VFR,,,,,,,,,,,,METAR,8.0
EDDG 231050Z AUTO 13005KT 090V170 CAVOK 16/13 Q1011 NOSIG,EDDG,2022-10-23T10:50:00Z,52.13,7.7,16.0,13.0,130,5,,6.21,29.852362,,,TRUE,,,TRUE,,,,,CAVOK,,,,,,,,VFR,,,,,,,,,,,,METAR,46.0
EDDF 231050Z AUTO 06004KT CAVOK 15/12 Q1014,EDDF,2022-10-23T10:50:00Z,50.05,8.6,15.0,12.0,60,4,,6.21,29.940945,,,TRUE,,,,,,,,CAVOK,,,,,,,,VFR,,,,,,,,,,,,METAR,113.0
EDDE 231050Z AUTO 18008KT CAVOK 18/11 Q1015 NOSIG,EDDE,2022-10-23T10:50:00Z,50.98,10.97,18.0,11.0,180,8,,6.21,29.970472,,,TRUE,,,TRUE,,,,,CAVOK,,,,,,,,VFR,,,,,,,,,,,,METAR,314.0
EDDC 231050Z AUTO 15008KT CAVOK 17/12 Q1017 NOSIG,EDDC,2022-10-23T10:50:00Z,51.13,13.75,17.0,12.0,150,8,,6.21,30.029528,,,TRUE,,,TRUE,,,,,CAVOK,,,,,,,,VFR,,,,,,,,,,,,METAR,227.0
EDDB 231050Z AUTO 18008KT 140V200 CAVOK 18/13 Q1016 NOSIG,EDDB,2022-10-23T10:50:00Z,52.38,13.53,18.0,13.0,180,8,,6.21,30.0,,,TRUE,,,TRUE,,,,,CAVOK,,,,,,,,VFR,,,,,,,,,,,,METAR,48.0
EDBC 231050Z AUTO 15009KT 9999 // BKN190/// 16/13 Q1015,EDBC,2022-10-23T10:50:00Z,51.85,11.42,16.0,13.0,150,9,,6.21,29.970472,,,TRUE,,,,,,,,BKN,19000,,,,,,,VFR,,,,,,,,,,,,METAR,178.0
EDAH 231050Z 18006KT 9999 FEW003 14/12 Q1016,EDAH,2022-10-23T10:50:00Z,53.87,14.15,14.0,12.0,180,6,,6.21,30.0,,,,,,,,,,,FEW,300,,,,,,,VFR,,,,,,,,,,,,METAR,22.0
EDAC 231050Z 20004KT CAVOK 18/12 Q1016,EDAC,2022-10-23T10:50:00Z,50.98,12.5,18.0,12.0,200,4,,6.21,30.0,,,,,,,,,,,CAVOK,,,,,,,,VFR,,,,,,,,,,,,METAR,193.0
EBOS 231050Z 15016KT 9999 FEW025 16/14 Q1004 NOSIG,EBOS,2022-10-23T10:50:00Z,51.2,2.87,16.0,14.0,150,16,,6.21,29.64567,,,,,,TRUE,,,,,FEW,2500,,,,,,,VFR,,,,,,,,,,,,METAR,5.0
EBLG 231050Z 17015KT CAVOK 18/12 Q1008 NOSIG,EBLG,2022-10-23T10:50:00Z,50.63,5.45,18.0,12.0,170,15,,6.21,29.763779,,,,,,TRUE,,,,,CAVOK,,,,,,,,VFR,,,,,,,,,,,,METAR,187.0
EBCI 231050Z 15008KT CAVOK 17/12 Q1007 NOSIG,EBCI,2022-10-23T10:50:00Z,50.47,4.45,17.0,12.0,150,8,,6.21,29.734253,,,,,,TRUE,,,,,CAVOK,,,,,,,,VFR,,,,,,,,,,,,METAR,176.0
EBBR 231050Z 16009KT CAVOK 18/13 Q1007 NOSIG,EBBR,2022-10-23T10:50:00Z,50.9,4.52,18.0,13.0,160,9,,6.21,29.734253,,,,,,TRUE,,,,,CAVOK,,,,,,,,VFR,,,,,,,,,,,,METAR,49.0
EBAW 231050Z AUTO 11008KT CAVOK ///// Q1007,EBAW,2022-10-23T10:50:00Z,51.2,4.47,,,110,8,,6.21,29.734253,,,TRUE,,,,,,,,CAVOK,,,,,,,,VFR,,,,,,,,,,,,METAR,7.0
BGSF 231050Z AUTO 03011KT 9999NDV FEW090/// SCT110/// 05/M01 Q0995,BGSF,2022-10-23T10:50:00Z,67.0,-50.72,5.0,-1.0,30,11,,,29.379921,,,TRUE,,,,,,,,FEW,9000,SCT,11000,,,,,,,,,,,,,,,,,SPECI,75.0
BGKK 231050Z AUTO 19002KT 9999NDV OVC110/// M01/M03 Q1005,BGKK,2022-10-23T10:50:00Z,65.57,-37.13,-1.0,-3.0,190,2,,,29.675198,,,TRUE,,,,,,,,OVC,11000,,,,,,,,,,,,,,,,,,,SPECI,37.0
BGJN 231050Z 10008KT 9999 FEW025 BKN040 04/M02 Q0996,BGJN,2022-10-23T10:50:00Z,69.25,-51.07,4.0,-2.0,100,8,,6.21,29.409449,,,,,,,,,,,FEW,2500,BKN,4000,,,,,VFR,,,,,,,,,,,,METAR,22.0
BGGH 231050Z 16023G33KT 9999 -RA SCT014 BKN030 03/01 Q0997,BGGH,2022-10-23T10:50:00Z,64.2,-51.68,3.0,1.0,160,23,33,6.21,29.438976,,,,,,,,,,-RA,SCT,1400,BKN,3000,,,,,MVFR,,,,,,,,,,,,METAR,76.0
BGBW 231050Z AUTO 21001KT 9999NDV FEW065/// BKN100/// BKN120/// 02/00 Q1004,BGBW,2022-10-23T10:50:00Z,61.17,-45.42,2.0,0.0,210,1,,,29.64567,,,TRUE,,,,,,,,FEW,6500,BKN,10000,BKN,12000,,,,,,,,,,,,,,,SPECI,49.0
MMMD 231048Z 00000KT 7SM SKC 16/16 A2999,MMMD,2022-10-23T10:48:00Z,20.95,-89.65,16.0,16.0,0,0,,7.0,29.991142,,,,,,,,,,,SKC,,,,,,,,VFR,,,,,,,,,,,,METAR,10.0
KJDN 231048Z AUTO 04008KT 07/06 A2944 RMK AO1 SLP980 T00670056,KJDN,2022-10-23T10:48:00Z,47.33,-106.95,6.7,5.6,40,8,,,29.438976,998.0,,TRUE,TRUE,,,,,,,,,,,,,,,,,,,,,,,,,,,METAR,802.0
KASG 231048Z 18011G17KT 10SM SCT110 20/17 A2981,KASG,2022-10-23T10:48:00Z,36.17,-94.12,20.0,17.0,180,11,17,10.0,29.811024,,,,,,,,,,,SCT,11000,,,,,,,VFR,,,,,,,,,,,,METAR,410.0
MMTO 231047Z 34006KT 5SM BKN015 BKN070 12/11 A3036 RMK 8/530 HZY CI,MMTO,2022-10-23T10:47:00Z,19.35,-99.57,12.0,11.0,340,6,,5.0,30.360237,,,,,,,,,,,BKN,1500,BKN,7000,,,,,MVFR,,,,,,,,,,,,METAR,2582.0
MMGL 231047Z 03003KT 8SM SCT020 BKN090 OVC300 18/14 A3009 RMK 8/577 OCNL DROPS,MMGL,2022-10-23T10:47:00Z,20.52,-103.32,18.0,14.0,30,3,,8.0,30.088583,,,,,,,,,,,SCT,2000,BKN,9000,OVC,30000,,,VFR,,,,,,,,,,,,METAR,1531.0
KSUA 231047Z 31005KT 10SM CLR 19/17 A3006,KSUA,2022-10-23T10:47:00Z,27.18,-80.22,19.0,17.0,310,5,,10.0,30.059055,,,,,,,,,,,CLR,,,,,,,,VFR,,,,,,,,,,,,METAR,4.0
KLBE 231047Z 00000KT 15SM CLR 03/02 A3026,KLBE,2022-10-23T10:47:00Z,40.27,-79.4,3.0,2.0,0,0,,15.0,30.259842,,,,,,,,,,,CLR,,,,,,,,VFR,,,,,,,,,,,,METAR,345.0
KHUM 231047Z 09004KT 7SM CLR 14/14 A3005,KHUM,2022-10-23T10:47:00Z,29.57,-90.67,14.0,14.0,90,4,,7.0,30.050198,,,,,,,,,,,CLR,,,,,,,,VFR,,,,,,,,,,,,METAR,1.0
KGYH 231047Z 00000KT 10SM CLR 08/03 A3021,KGYH,2022-10-23T10:47:00Z,34.75,-82.38,8.0,3.0,0,0,,10.0,30.209646,,,,,,,,,,,CLR,,,,,,,,VFR,,,,,,,,,,,,METAR,283.0
KEVB 231047Z 32003KT 10SM SCT050 16/15 A3009 RMK FIRST,KEVB,2022-10-23T10:47:00Z,29.05,-80.95,16.0,15.0,320,3,,10.0,30.088583,,,,,,,,,,,SCT,5000,,,,,,,VFR,,,,,,,,,,,,METAR,2.0
KCQT 231047Z AUTO 00000KT 10SM CLR 15/13 A2979 RMK AO2 SLP085 T01500128,KCQT,2022-10-23T10:47:00Z,34.02,-118.28,15.0,12.8,0,0,,10.0,29.790354,1008.5,,TRUE,TRUE,,,,,,,CLR,,,,,,,,VFR,,,,,,,,,,,,SPECI,51.0
MMUN 231046Z 00000KT 7SM SCT015 18/17 A2998 RMK 8/500,MMUN,2022-10-23T10:46:00Z,21.03,-86.85,18.0,17.0,0,0,,7.0,29.97933,,,,,,,,,,,SCT,1500,,,,,,,VFR,,,,,,,,,,,,METAR,13.0
MMCZ 231046Z 34009KT 7SM SKC 23/19 A2996,MMCZ,2022-10-23T10:46:00Z,20.52,-86.92,23.0,19.0,340,9,,7.0,29.958662,,,,,,,,,,,SKC,,,,,,,,VFR,,,,,,,,,,,,METAR,7.0
TJIG 231045Z 00000KT 8SM VCSH SCT040 25/24 A2993 RMK VCSH N AND E,TJIG,2022-10-23T10:45:00Z,18.45,-66.1,25.0,24.0,0,0,,8.0,29.929134,,,,,,,,,,VCSH,SCT,4000,,,,,,,VFR,,,,,,,,,,,,METAR,3.0
PANI 231045Z AUTO 26005KT 2SM BR SCT004 M04/M04 A3009 RMK AO2 FZRANO $,PANI,2022-10-23T10:45:00Z,61.58,-159.53,-4.0,-4.0,260,5,,2.0,30.088583,,,TRUE,TRUE,TRUE,,,TRUE,,BR,SCT,400,,,,,,,IFR,,,,,,,,,,,,METAR,21.0
MMMX 231045Z 00000KT 8SM SCT020 BKN100 BKN220 16/11 A3028 NOSIG RMK 8/538 HZY,MMMX,2022-10-23T10:45:00Z,19.43,-99.08,16.0,11.0,0,0,,8.0,30.280512,,,,,,TRUE,,,,,SCT,2000,BKN,10000,BKN,22000,,,VFR,,,,,,,,,,,,METAR,2224.0
MMLO 231045Z 00000KT 8SM BKN220 15/13 A3025 RMK 8/008,MMLO,2022-10-23T10:45:00Z,21.0,-101.47,15.0,13.0,0,0,,8.0,30.250984,,,,,,,,,,,BKN,22000,,,,,,,VFR,,,,,,,,,,,,METAR,1805.0
MMHO 231045Z 00000KT 10SM SCT080 21/17 A2979 RMK 8/030 ISOL CI HZY,MMHO,2022-10-23T10:45:00Z,29.08,-111.05,21.0,17.0,0,0,,10.0,29.790354,,,,,,,,,,,SCT,8000,,,,,,,VFR,,,,,,,,,,,,METAR,186.0
MMCE 231045Z 08008KT 7SM SKC 24/18 A2994 RMK RTS,MMCE,2022-10-23T10:45:00Z,18.65,-91.8,24.0,18.0,80,8,,7.0,29.940945,,,,,,,,,,,SKC,,,,,,,,VFR,,,,,,,,,,,,METAR,5.0
LIRP 231045Z 12006KT 9999 BKN040 24/17 Q1023 NOSIG,LIRP,2022-10-23T10:45:00Z,43.68,10.38,24.0,17.0,120,6,,6.21,30.206694,,,,,,TRUE,,,,,BKN,4000,,,,,,,VFR,,,,,,,,,,,,METAR,1.0
LHSN 231045Z 18006KT 150V210 9999 SCT011 SCT200 15/13 Q1023 NOSIG RMK BLU,LHSN,2022-10-23T10:45:00Z,47.12,20.23,15.0,13.0,180,6,,6.21,30.206694,,,,,,TRUE,,,,,SCT,1100,SCT,20000,,,,,VFR,,,,,,,,,,,,METAR,89.0
LHSM 231045Z AUTO 16005KT 9999 OVC004 14/14 Q1022 BECMG BKN004,LHSM,2022-10-23T10:45:00Z,46.68,17.17,14.0,14.0,160,5,,6.21,30.177166,,,TRUE,,,,,,,,OVC,400,,,,,,,LIFR,,,,,,,,,,,,METAR,119.0
LHPR 231045Z AUTO 11003KT 060V190 CAVOK 20/12 Q1021 NOSIG,LHPR,2022-10-23T10:45:00Z,47.63,17.82,20.0,12.0,110,3,,6.21,30.147638,,,TRUE,,,TRUE,,,,,CAVOK,,,,,,,,VFR,,,,,,,,,,,,METAR,127.0
LHPP 231045Z AUTO 12006KT 9999 FEW043 OVC058 15/15 Q1023,LHPP,2022-10-23T10:45:00Z,45.98,18.23,15.0,15.0,120,6,,6.21,30.206694,,,TRUE,,,,,,,,FEW,4300,OVC,5800,,,,,VFR,,,,,,,,,,,,METAR,193.0
LHPA 231045Z 22010KT 9999 BKN033 17/13 Q1021 NOSIG RMK BLU,LHPA,2022-10-23T10:45:00Z,47.35,17.5,17.0,13.0,220,10,,6.21,30.147638,,,,,,TRUE,,,,,BKN,3300,,,,,,,VFR,,,,,,,,,,,,METAR,143.0
LHKE 231045Z 16004KT 9999 FEW020 SCT200 18/13 Q1023 NOSIG RMK BLU,LHKE,2022-10-23T10:45:00Z,46.92,19.75,18.0,13.0,160,4,,6.21,30.206694,,,,,,TRUE,,,,,FEW,2000,SCT,20000,,,,,VFR,,,,,,,,,,,,METAR,113.0
KUES 231045Z 13005KT 10SM CLR 12/09 A2991,KUES,2022-10-23T10:45:00Z,43.05,-88.25,12.0,9.0,130,5,,10.0,29.911417,,,,,,,,,,,CLR,,,,,,,,VFR,,,,,,,,,,,,METAR,273.0
KSWF 231045Z 00000KT 7SM OVC030 07/06 A3031,KSWF,2022-10-23T10:45:00Z,41.5,-74.08,7.0,6.0,0,0,,7.0,30.31004,,,,,,,,,,,OVC,3000,,,,,,,MVFR,,,,,,,,,,,,METAR,139.0
KSAW 231045Z 18007KT 7SM CLR 09/09 A2988,KSAW,2022-10-23T10:45:00Z,46.35,-87.4,9.0,9.0,180,7,,7.0,29.878937,,,,,,,,,,,CLR,,,,,,,,VFR,,,,,,,,,,,,METAR,359.0
KMMU 231045Z 00000KT 10SM OVC046 11/11 A3030,KMMU,2022-10-23T10:45:00Z,40.78,-74.42,11.0,11.0,0,0,,10.0,30.301182,,,,,,,,,,,OVC,4600,,,,,,,VFR,,,,,,,,,,,,METAR,55.0
KJVL 231045Z 16008KT 10SM CLR 14/11 A2986,KJVL,2022-10-23T10:45:00Z,42.62,-89.05,14.0,11.0,160,8,,10.0,29.861221,,,,,,,,,,,CLR,,,,,,,,VFR,,,,,,,,,,,,METAR,244.0
KGYY 231045Z 16008KT 10SM SCT060 17/11 A2995,KGYY,2022-10-23T10:45:00Z,41.62,-87.42,17.0,11.0,160,8,,10.0,29.949802,,,,,,,,,,,SCT,6000,,,,,,,VFR,,,,,,,,,,,,METAR,179.0
KCGF 231045Z 16010KT 10SM CLR 13/05 A3019,KCGF,2022-10-23T10:45:00Z,41.57,-81.47,13.0,5.0,160,10,,10.0,30.188976,,,,,,,,,,,CLR,,,,,,,,VFR,,,,,,,,,,,,METAR,265.0
KBAK 231045Z 16010KT 10SM CLR 14/10 A3010,KBAK,2022-10-23T10:45:00Z,39.27,-85.9,14.0,10.0,160,10,,10.0,30.100393,,,,,,,,,,,CLR,,,,,,,,VFR,,,,,,,,,,,,METAR,199.0
KATW 231045Z 14007KT 10SM CLR 12/09 A2986,KATW,2022-10-23T10:45:00Z,44.27,-88.52,12.0,9.0,140,7,,10.0,29.861221,,,,,,,,,,,CLR,,,,,,,,VFR,,,,,,,,,,,,METAR,266.0
MMAA 231044Z 00000KT 5SM SCT300 24/23 A2986 RMK 8/002 HZY,MMAA,2022-10-23T10:44:00Z,16.75,-99.75,24.0,23.0,0,0,,5.0,29.861221,,,,,,,,,,,SCT,30000,,,,,,,MVFR,,,,,,,,,,,,METAR,5.0
MMMM 231042Z 00000KT 7SM SCT030 SCT300 14/13 A3020 RMK 8/508 HZY,MMMM,2022-10-23T10:42:00Z,19.85,-101.03,14.0,13.0,0,0,,7.0,30.200787,,,,,,,,,,,SCT,3000,SCT,30000,,,,,VFR,,,,,,,,,,,,METAR,1840.0
MMQT 231041Z 30005KT 8SM SCT020 15/13 A3026 RMK 8/500,MMQT,2022-10-23T10:41:00Z,20.62,-100.18,15.0,13.0,300,5,,8.0,30.259842,,,,,,,,,,,SCT,2000,,,,,,,VFR,,,,,,,,,,,,METAR,1909.0
MMMZ 231041Z 00000KT 10SM BKN030 OVC100 25/25 A2972 RMK 8/47/ OCNL DROPS,MMMZ,2022-10-23T10:41:00Z,23.17,-106.27,25.0,25.0,0,0,,10.0,29.719488,,,,,,,,,,,BKN,3000,OVC,10000,,,,,MVFR,,,,,,,,,,,,METAR,7.0
MMAS 231041Z 13004KT 9SM BKN200 13/12 A3019 RMK 8/008 ISOL AC,MMAS,2022-10-23T10:41:00Z,21.7,-102.32,13.0,12.0,130,4,,9.0,30.188976,,,,,,,,,,,BKN,20000,,,,,,,VFR,,,,,,,,,,,,METAR,1866.0
MMZC 231040Z E00000KT 10SM SCT080 13/12 A3019 RMK 8/020,MMZC,2022-10-23T10:40:00Z,22.9,-102.68,13.0,12.0,0,0,,10.0,30.188976,,,,,,,,,,,SCT,8000,,,,,,,VFR,,,,,,,,,,,,METAR,2175.0
MMTP 231040Z 00000KT 8SM SCT100 24/24 A2986 RMK 8/070,MMTP,2022-10-23T10:40:00Z,14.78,-92.37,24.0,24.0,0,0,,8.0,29.861221,,,,,,,,,,,SCT,10000,,,,,,,VFR,,,,,,,,,,,,METAR,27.0
MMTJ 231040Z 25006KT 6SM SCT020 16/16 A2984 RMK 8/500 HZY,MMTJ,2022-10-23T10:40:00Z,32.53,-116.97,16.0,16.0,250,6,,6.0,29.840551,,,,,,,,,,,SCT,2000,,,,,,,VFR,,,,,,,,,,,,METAR,150.0
MMSP 231040Z 00000KT 6SM SKC 12/10 A3016 RMK HZY CI,MMSP,2022-10-23T10:40:00Z,22.25,-100.93,12.0,10.0,0,0,,6.0,30.159449,,,,,,,,,,,SKC,,,,,,,,VFR,,,,,,,,,,,,METAR,1841.0
MMMY 231040Z 06003KT 8SM OVC010 18/18 A2982 RMK 8/5//,MMMY,2022-10-23T10:40:00Z,25.77,-100.1,18.0,18.0,60,3,,8.0,29.819881,,,,,,,,,,,OVC,1000,,,,,,,MVFR,,,,,,,,,,,,METAR,382.0
KTFP 231035Z AUTO 19009KT 10SM CLR 25/20 A2985 RMK AO2 T02530202,KTFP,2022-10-23T10:35:00Z,27.92,-97.22,25.3,20.2,190,9,,10.0,29.84941,,,TRUE,TRUE,,,,,,,CLR,,,,,,,,VFR,,,,,,,,,,,,METAR,5.0
KAVK 231035Z AUTO 19016KT 10SM CLR 22/11 A2952 RMK AO2 PWINO,KAVK,2022-10-23T10:35:00Z,36.77,-98.67,22.0,11.0,190,16,,10.0,29.518702,,,TRUE,TRUE,,,,,TRUE,,CLR,,,,,,,,VFR,,,,,,,,,,,,METAR,450.0
K9D7 231035Z AUTO 04017G25KT 10SM FEW009 06/06 A2959 RMK AO2 TSNO,K9D7,2022-10-23T10:35:00Z,48.48,-99.23,6.0,6.0,40,17,25,10.0,29.589567,,,TRUE,TRUE,,,TRUE,,,,FEW,900,,,,,,,VFR,,,,,,,,,,,,METAR,451.0
VYMD 231030Z 00000KT 7000 BKN020 35/21 Q1008 NOSIG,VYMD,2022-10-23T10:30:00Z,21.7,95.98,35.0,21.0,0,0,,4.35,29.763779,,,,,,TRUE,,,,,BKN,2000,,,,,,,MVFR,,,,,,,,,,,,METAR,87.0
VOKU 231030Z 31012KT 5000 HZ NSC 30/09 Q1011,VOKU,2022-10-23T10:30:00Z,15.72,78.17,30.0,9.0,310,12,,3.11,29.852362,,,,,,,,,,HZ,CLR,,,,,,,,MVFR,,,,,,,,,,,,METAR,280.0
VOGO 231030Z 30008KT 6000 FEW030 SCT090 31/19 Q1009 NOSIG,VOGO,2022-10-23T10:30:00Z,15.38,73.83,31.0,19.0,300,8,,3.73,29.793306,,,,,,TRUE,,,,,FEW,3000,SCT,9000,,,,,MVFR,,,,,,,,,,,,METAR,56.0
VAKP 231030Z 01007KT 8000 FEW020 29/11 Q1014,VAKP,2022-10-23T10:30:00Z,16.65,74.28,29.0,11.0,10,7,,4.97,29.940945,,,,,,,,,,,FEW,2000,,,,,,,MVFR,,,,,,,,,,,,METAR,612.0
KSLB 231030Z AUTO 13010G17KT 10SM CLR 13/10 A2952 RMK AO2,KSLB,2022-10-23T10:30:00Z,42.6,-95.23,13.0,10.0,130,10,17,10.0,29.518702,,,TRUE,TRUE,,,,,,,CLR,,,,,,,,VFR,,,,,,,,,,,,METAR,450.0
HUEN 231030Z 15010KT 9999 FEW023 FEW025CB 27/21 Q1018,HUEN,2022-10-23T10:30:00Z,0.03,32.45,27.0,21.0,150,10,,6.21,30.059055,,,,,,,,,,,FEW,2300,FEW,2500,,,,,VFR,,,,,,,,,,,,METAR,1147.0
KSFY 231023Z AUTO 15008KT 10SM CLR 14/12 A2981 RMK AO2,KSFY,2022-10-23T10:23:00Z,42.05,-90.12,14.0,12.0,150,8,,10.0,29.811024,,,TRUE,TRUE,,,,,,,CLR,,,,,,,,VFR,,,,,,,,,,,,SPECI,188.0
ETWM 231020Z AUTO 10004KT //// // ////// 14/13 Q1011 ///,ETWM,2022-10-23T10:20:00Z,52.72,7.33,14.0,13.0,100,4,,,29.852362,,,TRUE,,,,,,,,,,,,,,,,,,,,,,,,,,,,METAR,18.0
ETSN 231020Z 09005KT 9999 FEW010 BKN250 14/11 Q1017 BLU+,ETSN,2022-10-23T10:20:00Z,48.72,11.22,14.0,11.0,90,5,,6.21,30.029528,,,,,,,,,,,FEW,1000,BKN,25000,,,,,VFR,,,,,,,,,,,,METAR,378.0
ETSL 231020Z 14003KT 9999 FEW130 SCT320 18/11 Q1016 BLU+,ETSL,2022-10-23T10:20:00Z,48.18,10.87,18.0,11.0,140,3,,6.21,30.0,,,,,,,,,,,FEW,13000,SCT,32000,,,,,VFR,,,,,,,,,,,,METAR,548.0
ETSI 231020Z AUTO 06006KT 0350 // ////// 14/11 Q1017 ///,ETSI,2022-10-23T10:20:00Z,48.72,11.53,14.0,11.0,60,6,,0.22,30.029528,,,TRUE,,,,,,,,,,,,,,,,,,,,,,,,,,,,METAR,366.0
ETSH 231020Z 16006KT 9999 SCT170 BKN190 16/12 Q1016 BLU,ETSH,2022-10-23T10:20:00Z,51.77,13.17,16.0,12.0,160,6,,6.21,30.0,,,,,,,,,,,SCT,17000,BKN,19000,,,,,VFR,,,,,,,,,,,,SPECI,79.0
ETSB 231020Z AUTO 13006KT //// // ////// 14/11 Q1012 ///,ETSB,2022-10-23T10:20:00Z,50.17,7.07,14.0,11.0,130,6,,,29.88189,,,TRUE,,,,,,,,,,,,,,,,,,,,,,,,,,,,METAR,477.0
ETNW 231020Z 13009KT 9999 FEW140 BKN180 15/13 Q1013 BLU,ETNW,2022-10-23T10:20:00Z,52.45,9.42,15.0,13.0,130,9,,6.21,29.911417,,,,,,,,,,,FEW,14000,BKN,18000,,,,,VFR,,,,,,,,,,,,SPECI,57.0
ETNT 231020Z AUTO ///06KT //// // ////// 14/13 Q1011 ///,ETNT,2022-10-23T10:20:00Z,53.53,7.67,14.0,13.0,,,,,29.852362,,,TRUE,,,,,,,,,,,,,,,,,,,,,,,,,,,,METAR,5.0
ETNS 231020Z AUTO 14007KT 2900 // ////// 11/11 Q1014 ///,ETNS,2022-10-23T10:20:00Z,54.47,9.52,11.0,11.0,140,7,,1.8,29.940945,,,TRUE,,,,,,,,,,,,,,,,,,,,,,,,,,,,METAR,22.0
ETNN 231020Z AUTO 10007KT 8000 // ////// 17/13 Q1009 ///,ETNN,2022-10-23T10:20:00Z,50.82,6.67,17.0,13.0,100,7,,4.97,29.793306,,,TRUE,,,,,,,,,,,,,,,,,,,,,,,,,,,,METAR,108.0
ETNL 231020Z 18004KT 8000 SCT003 BKN190 13/12 Q1015 BLU,ETNL,2022-10-23T10:20:00Z,53.92,12.27,13.0,12.0,180,4,,4.97,29.970472,,,,,,,,,,,SCT,300,BKN,19000,,,,,MVFR,,,,,,,,,,,,SPECI,40.0
ETNH 231020Z AUTO 11004KT 0150 // ////// 12/12 Q1013 ///,ETNH,2022-10-23T10:20:00Z,54.32,9.55,12.0,12.0,110,4,,0.09,29.911417,,,TRUE,,,,,,,,,,,,,,,,,,,,,,,,,,,,METAR,6.0
ETMN 231020Z 12006KT 9999 BKN130 BKN220 13/12 Q1012 BLU,ETMN,2022-10-23T10:20:00Z,53.77,8.67,13.0,12.0,120,6,,6.21,29.88189,,,,,,,,,,,BKN,13000,BKN,22000,,,,,VFR,,,,,,,,,,,,SPECI,23.0
ETHS 231020Z AUTO 08004KT 6000 // ////// 15/13 Q1014 ///,ETHS,2022-10-23T10:20:00Z,52.92,10.18,15.0,13.0,80,4,,3.73,29.940945,,,TRUE,,,,,,,,,,,,,,,,,,,,,,,,,,,,METAR,71.0
ETHN 231020Z 15011KT 9999 FEW080 SCT240 BKN340 18/11 Q1015 BLU+,ETHN,2022-10-23T10:20:00Z,49.38,9.97,18.0,11.0,150,11,,6.21,29.970472,,,,,,,,,,,FEW,8000,SCT,24000,BKN,34000,,,VFR,,,,,,,,,,,,METAR,466.0
ETHL 231020Z 02002KT 9999 FEW009 BKN260 13/10 Q1016 BLU+,ETHL,2022-10-23T10:20:00Z,48.22,9.92,13.0,10.0,20,2,,6.21,30.0,,,,,,,,,,,FEW,900,BKN,26000,,,,,VFR,,,,,,,,,,,,METAR,536.0
ETHF 231020Z VRB01KT 9999 VCFG FEW001 BKN160 12/12 Q1014 BLU,ETHF,2022-10-23T10:20:00Z,51.12,9.28,12.0,12.0,0,1,,6.21,29.940945,,,,,,,,,,VCFG,FEW,100,BKN,16000,,,,,VFR,,,,,,,,,,,,METAR,171.0
ETHC 231020Z 12005KT 9999 FEW150 BKN180 15/12 Q1014 BLU,ETHC,2022-10-23T10:20:00Z,52.6,10.02,15.0,12.0,120,5,,6.21,29.940945,,,,,,,,,,,FEW,15000,BKN,18000,,,,,VFR,,,,,,,,,,,,METAR,35.0
ETHB 231020Z 17011KT 9999 FEW150 BKN160 OVC200 16/11 Q1012 BLU,ETHB,2022-10-23T10:20:00Z,52.27,9.07,16.0,11.0,170,11,,6.21,29.88189,,,,,,,,,,,FEW,15000,BKN,16000,OVC,20000,,,VFR,,,,,,,,,,,,SPECI,69.0
ETHA 231020Z AUTO 19001KT 9999 // ////// 19/08 Q1017 ///,ETHA,2022-10-23T10:20:00Z,47.83,10.87,19.0,8.0,190,1,,6.21,30.029528,,,TRUE,,,,,,,,,,,,,,,,,,,,,,,,,,,,METAR,738.0
ETGG 231020Z AUTO VRB03KT 9999 // ////// 13/12 Q1013 ///,ETGG,2022-10-23T10:20:00Z,54.83,9.5,13.0,12.0,0,3,,6.21,29.911417,,,TRUE,,,,,,,,,,,,,,,,,,,,,,,,,,,,SPECI,33.0
YGTH 231015Z AUTO 10013KT 9999 VCTS -SHRA SCT021 BKN044 BKN073 20/17 Q1008 RETS,YGTH,2022-10-23T10:15:00Z,-34.25,146.07,20.0,17.0,100,13,,6.21,29.763779,,,TRUE,,,,,,,VCTS -SHRA,SCT,2100,BKN,4400,BKN,7300,,,VFR,,,,,,,,,,,,SPECI,132.0
"FMSD 231100Z,Z 10021KT 9999 FEW020 30/20 Q1014",FMSD,2022-10-23T10:14:00Z,-25.03,46.95,30.0,20.0,100,21,,6.21,,,,,,,,,,,,FEW,2000,,,,,,,VFR,,,,,,,,,,,,METAR,7.0
VCBI 231010Z 26003KT 200V350 9999 SCT018 28/23 Q1010 NOSIG,VCBI,2022-10-23T10:10:00Z,7.17,79.88,28.0,23.0,260,3,,6.21,29.822834,,,,,,TRUE,,,,,SCT,1800,,,,,,,VFR,,,,,,,,,,,,METAR,10.0
