No errors
No warnings
309 ms
data source=metars
4855 results
raw_text,station_id,observation_time,latitude,longitude,temp_c,dewpoint_c,wind_dir_degrees,wind_speed_kt,wind_gust_kt,visibility_statute_mi,altim_in_hg,sea_level_pressure_mb,corrected,auto,auto_station,maintenance_indicator_on,no_signal,lightning_sensor_off,freezing_rain_sensor_off,present_weather_sensor_off,wx_string,sky_cover,cloud_base_ft_agl,sky_cover,cloud_base_ft_agl,sky_cover,cloud_base_ft_agl,sky_cover,cloud_base_ft_agl,flight_category,three_hr_pressure_tendency_mb,maxT_c,minT_c,maxT24hr_c,minT24hr_c,precip_in,pcp3hr_in,pcp6hr_in,pcp24hr_in,snow_in,vert_vis_ft,metar_type,elevation_m
KUNV 230953Z 00000KT 10SM SCT070 02/02 A3030,KUNV,2022-10-23T09:53:00Z,40.85,-77.83,2.0,2.0,0,0,,10.0,30.301182,,,,,,,,,,,SCT,7000,,,,,,,VFR,,,,,,,,,,,,METAR,365.0
PHBK 230951Z AUTO 00000KT 10SM CLR 24/19 A3002 RMK AO2 SLP169 T02440194 403110222 ,PHBK,2022-10-23T09:51:00Z,22.03,-159.78,24.4,19.4,0,0,,10.0,30.02067,1016.9,,TRUE,TRUE,,,,,,,CLR,,,,,,,,VFR,,,,31.1,22.2,,,,,,,METAR,5.0
PAWN 230951Z AUTO 12014KT 1 3/4SM -SN BR BKN008 OVC014 00/M01 A2979 RMK AO2 RAE0859SNB0859 CIG 005V010 P0000 FZRANO,PAWN,2022-10-23T09:51:00Z,67.57,-162.98,0.0,-1.0,120,14,,1.75,29.790354,,,TRUE,TRUE,,,,TRUE,,-SN BR,BKN,800,OVC,1400,,,,,IFR,,,,,,0.005,,,,,,SPECI,26.0
PAMD 230951Z AUTO 05015G20KT 10SM FEW030 SCT045 BKN120 07/03 A2961 RMK AO2 RAB32E46 SLP013 T00670033 PNO $,PAMD,2022-10-23T09:51:00Z,59.43,-146.3,6.7,3.3,50,15,20,10.0,29.610237,1001.3,,TRUE,TRUE,TRUE,,,,,,FEW,3000,SCT,4500,BKN,12000,,,VFR,,,,,,,,,,,,METAR,20.0
PAKK 230951Z AUTO 16008KT 2 1/2SM -SN BR OVC003 00/00 A2987 RMK AO2 P0000 FZRANO,PAKK,2022-10-23T09:51:00Z,64.93,-161.15,0.0,0.0,160,8,,2.5,29.870079,,,TRUE,TRUE,,,,TRUE,,-SN BR,OVC,300,,,,,,,LIFR,,,,,,0.005,,,,,,SPECI,56.0
PADM 230951Z AUTO 03005KT 2SM BR BKN001 BKN011 OVC019 M04/M06 A3006 RMK AO2 FZRANO,PADM,2022-10-23T09:51:00Z,61.87,-162.03,-4.0,-6.0,30,5,,2.0,30.059055,,,TRUE,TRUE,,,,TRUE,,BR,BKN,100,BKN,1100,OVC,1900,,,LIFR,,,,,,,,,,,,SPECI,17.0
MUGM 230951Z 35007KT 10SM FEW030 BKN250 24/23 A2991 RMK AO2 SLP127 T02390228 $ ,MUGM,2022-10-23T09:51:00Z,19.9,-75.2,23.9,22.8,350,7,,10.0,29.911417,1012.7,,,TRUE,TRUE,,,,,,FEW,3000,BKN,25000,,,,,VFR,,,,,,,,,,,,METAR,21.0
KTPL 230951Z AUTO 17013KT 10SM OVC019 21/18 A2984 RMK AO2 SLP094 T02060183,KTPL,2022-10-23T09:51:00Z,31.15,-97.4,20.6,18.3,170,13,,10.0,29.840551,1009.4,,TRUE,TRUE,,,,,,,OVC,1900,,,,,,,MVFR,,,,,,,,,,,,METAR,206.0
KSNT 230951Z AUTO 00000KT M05/M07 A2968 RMK AO1 SLP036 T10501072 ,KSNT,2022-10-23T09:51:00Z,44.17,-114.93,-5.0,-7.2,0,0,,,29.681103,1003.6,,TRUE,TRUE,,,,,,,,,,,,,,,,,,,,,,,,,,,METAR,1980.0
KSLK 230951Z AUTO 00000KT 10SM CLR M02/M03 A3030 RMK AO2 SLP270 T10171028,KSLK,2022-10-23T09:51:00Z,44.4,-74.2,-1.7,-2.8,0,0,,10.0,30.301182,1027.0,,TRUE,TRUE,,,,,,,CLR,,,,,,,,VFR,,,,,,,,,,,,METAR,502.0
KPVG 230951Z AUTO VRB05KT 10SM OVC008 13/13 A3014 RMK AO2 PNO $,KPVG,2022-10-23T09:51:00Z,36.78,-76.45,13.0,13.0,0,5,,10.0,30.138779,,,TRUE,TRUE,TRUE,,,,,,OVC,800,,,,,,,IFR,,,,,,,,,,,,SPECI,7.0
KOXC 230951Z AUTO 04005KT 10SM BKN038 10/08 A3031 RMK AO2 SLP277 T01000083,KOXC,2022-10-23T09:51:00Z,41.47,-73.13,10.0,8.3,40,5,,10.0,30.31004,1027.7,,TRUE,TRUE,,,,,,,BKN,3800,,,,,,,VFR,,,,,,,,,,,,METAR,211.0
KOCF 230951Z AUTO 00000KT 10SM CLR 12/11 A3011 RMK AO2 SLP198 T01170106 PNO $,KOCF,2022-10-23T09:51:00Z,29.17,-82.22,11.7,10.6,0,0,,10.0,30.109253,1019.8,,TRUE,TRUE,TRUE,,,,,,CLR,,,,,,,,VFR,,,,,,,,,,,,METAR,24.0
KMPV 230951Z AUTO 00000KT 10SM CLR 04/01 A3037 RMK AO2 SLP290 T00390011,KMPV,2022-10-23T09:51:00Z,44.2,-72.57,3.9,1.1,0,0,,10.0,30.369095,1029.0,,TRUE,TRUE,,,,,,,CLR,,,,,,,,VFR,,,,,,,,,,,,METAR,336.0
KLGU 230951Z AUTO 00000KT 10SM OVC004 02/02 A2961 RMK AO2 SLP027 T00170017,KLGU,2022-10-23T09:51:00Z,41.78,-111.85,1.7,1.7,0,0,,10.0,29.610237,1002.7,,TRUE,TRUE,,,,,,,OVC,400,,,,,,,LIFR,,,,,,,,,,,,METAR,1359.0
CYTE 230951Z AUTO 27020KT 9SM BKN013 M01/M03 A2949 RMK SLP993,CYTE,2022-10-23T09:51:00Z,64.22,-76.52,-1.0,-3.0,270,20,,9.0,29.489174,999.3,,TRUE,,,,,,,,BKN,1300,,,,,,,MVFR,,,,,,,,,,,,SPECI,49.0
CYLH 230951Z AUTO 06007KT 9SM -RA FEW049 OVC066 03/03 A2997 RMK SLP165,CYLH,2022-10-23T09:51:00Z,52.2,-87.93,3.0,3.0,60,7,,9.0,29.970472,1016.5,,TRUE,,,,,,,-RA,FEW,4900,OVC,6600,,,,,VFR,,,,,,,,,,,,SPECI,245.0
LATI 230950Z VRB01KT CAVOK 22/09 Q1025 NOSIG,LATI,2022-10-23T09:50:00Z,41.42,19.72,22.0,9.0,0,1,,6.21,30.265747,,,,,,TRUE,,,,,CAVOK,,,,,,,,VFR,,,,,,,,,,,,METAR,32.0
KRYY 230950Z AUTO 00000KT 10SM CLR 06/05 A3021 RMK AO2 SLP227 T00560050 $,KRYY,2022-10-23T09:50:00Z,34.02,-84.6,5.6,5.0,0,0,,10.0,30.209646,1022.7,,TRUE,TRUE,TRUE,,,,,,CLR,,,,,,,,VFR,,,,,,,,,,,,METAR,306.0
KQFX 230950Z AUTO 11001KT 9999 CLR 18/16 / RMK A02 TSNO,KQFX,2022-10-23T09:50:00Z,,,18.0,16.0,110,1,,6.21,,,,TRUE,TRUE,,,TRUE,,,,CLR,,,,,,,,VFR,,,,,,,,,,,,METAR,
KQFV 230950Z AUTO 23001KT 9999 CLR 11/M01 A3010 RMK A02 TSNO,KQFV,2022-10-23T09:50:00Z,,,11.0,-1.0,230,1,,6.21,30.100393,,,TRUE,TRUE,,,TRUE,,,,CLR,,,,,,,,VFR,,,,,,,,,,,,METAR,
KQFU 230950Z AUTO 30001KT 9999 CLR 14/M03 A3014 RMK A02 TSNO,KQFU,2022-10-23T09:50:00Z,,,14.0,-3.0,300,1,,6.21,30.138779,,,TRUE,TRUE,,,TRUE,,,,CLR,,,,,,,,VFR,,,,,,,,,,,,METAR,
KQFT 230950Z AUTO 19001KT 9999 CLR 15/M03 A3006 RMK A02 TSNO,KQFT,2022-10-23T09:50:00Z,,,15.0,-3.0,190,1,,6.21,30.059055,,,TRUE,TRUE,,,TRUE,,,,CLR,,,,,,,,VFR,,,,,,,,,,,,METAR,
KQFB 230950Z AUTO 36005KT 8000 HZ BKN060 16/09 A3008 RMK A02 TSNO,KQFB,2022-10-23T09:50:00Z,,,16.0,9.0,360,5,,4.97,30.079725,,,TRUE,TRUE,,,TRUE,,,HZ,BKN,6000,,,,,,,MVFR,,,,,,,,,,,,METAR,
KQEW 230950Z AUTO 24002KT 9999 // CLR 15/06 A3005 RMK A02 TSNO,KQEW,2022-10-23T09:50:00Z,,,15.0,6.0,240,2,,6.21,30.050198,,,TRUE,TRUE,,,TRUE,,,,CLR,,,,,,,,VFR,,,,,,,,,,,,METAR,
KQEV 230950Z AUTO 30002KT 9999 CLR 12/04 A3006 RMK A02 TSNO,KQEV,2022-10-23T09:50:00Z,,,12.0,4.0,300,2,,6.21,30.059055,,,TRUE,TRUE,,,TRUE,,,,CLR,,,,,,,,VFR,,,,,,,,,,,,METAR,
KQEQ 230950Z AUTO 32004KT 9999 CLR 12/M01 A3014 RMK A02 TSNO,KQEQ,2022-10-23T09:50:00Z,,,12.0,-1.0,320,4,,6.21,30.138779,,,TRUE,TRUE,,,TRUE,,,,CLR,,,,,,,,VFR,,,,,,,,,,,,METAR,
KQEP 230950Z AUTO 25003KT 9999 CLR 13/M01 A3010 RMK A02 TSNO,KQEP,2022-10-23T09:50:00Z,,,13.0,-1.0,250,3,,6.21,30.100393,,,TRUE,TRUE,,,TRUE,,,,CLR,,,,,,,,VFR,,,,,,,,,,,,METAR,
KQEN 230950Z AUTO 14001KT M0400 -SHRA FG CLR / / RMK A02 TSNO,KQEN,2022-10-23T09:50:00Z,,,,,140,1,,0.25,,,,TRUE,TRUE,,,TRUE,,,-SHRA FG,CLR,,,,,,,,LIFR,,,,,,,,,,,,METAR,
KQEJ 230950Z AUTO 14002KT 9999 // FEW070 21/21 / RMK A02 TSNO,KQEJ,2022-10-23T09:50:00Z,,,21.0,21.0,140,2,,6.21,,,,TRUE,TRUE,,,TRUE,,,,FEW,7000,,,,,,,VFR,,,,,,,,,,,,METAR,
KQEI 230950Z AUTO 15002KT 9999 CLR 09/08 A3006 RMK A02 TSNO,KQEI,2022-10-23T09:50:00Z,,,9.0,8.0,150,2,,6.21,30.059055,,,TRUE,TRUE,,,TRUE,,,,CLR,,,,,,,,VFR,,,,,,,,,,,,METAR,
KDLN 230950Z AUTO 14004KT 1SM -SN BR VV010 M01/M01 A2960 RMK AO2 P0005,KDLN,2022-10-23T09:50:00Z,45.25,-112.55,-1.0,-1.0,140,4,,1.0,29.601377,,,TRUE,TRUE,,,,,,-SN BR,OVX,0,,,,,,,LIFR,,,,,,0.05,,,,,1000,SPECI,1586.0
KDAG 230950Z AUTO 26022G32KT 10SM CLR 16/07 A2972 RMK AO2 PK WND 25036/0900 SLP043 T01610072,KDAG,2022-10-23T09:50:00Z,34.85,-116.78,16.1,7.2,260,22,32,10.0,29.719488,1004.3,,TRUE,TRUE,,,,,,,CLR,,,,,,,,VFR,,,,,,,,,,,,METAR,584.0
KCRQ 230950Z AUTO 25008KT 10SM SCT021 17/13 A2979 RMK AO2 RAE10 P0002,KCRQ,2022-10-23T09:50:00Z,33.13,-117.28,17.0,13.0,250,8,,10.0,29.790354,,,TRUE,TRUE,,,,,,,SCT,2100,,,,,,,VFR,,,,,,0.02,,,,,,SPECI,96.0
KBUR 230950Z 15005KT 10SM BKN016 17/13 A2978 RMK AO2,KBUR,2022-10-23T09:50:00Z,34.2,-118.37,17.0,13.0,150,5,,10.0,29.778543,,,,TRUE,,,,,,,BKN,1600,,,,,,,MVFR,,,,,,,,,,,,SPECI,221.0
KBKE 230950Z AUTO 00000KT 10SM BKN013 BKN028 OVC075 M01/M01 A2982 RMK AO2 UPB0854E04B34E37SNB04E34 P0001,KBKE,2022-10-23T09:50:00Z,44.85,-117.82,-1.0,-1.0,0,0,,10.0,29.819881,,,TRUE,TRUE,,,,,,,BKN,1300,BKN,2800,OVC,7500,,,MVFR,,,,,,0.01,,,,,,SPECI,1025.0
KASX 230950Z AUTO 00000KT 1 1/4SM BR CLR 03/03 A2972 RMK AO2,KASX,2022-10-23T09:50:00Z,46.55,-90.92,3.0,3.0,0,0,,1.25,29.719488,,,TRUE,TRUE,,,,,,BR,CLR,,,,,,,,IFR,,,,,,,,,,,,SPECI,249.0
EYVI 230950Z 28009KT 9999 BKN005 11/10 Q1013 NOSIG,EYVI,2022-10-23T09:50:00Z,54.63,25.28,11.0,10.0,280,9,,6.21,29.911417,,,,,,TRUE,,,,,BKN,500,,,,,,,IFR,,,,,,,,,,,,METAR,180.0
EYSA 230950Z 27012KT 240V300 9999 FEW021 BKN036 12/07 Q1012 NOSIG,EYSA,2022-10-23T09:50:00Z,55.9,23.4,12.0,7.0,270,12,,6.21,29.88189,,,,,,TRUE,,,,,FEW,2100,BKN,3600,,,,,VFR,,,,,,,,,,,,METAR,135.0
EYPA 230950Z VRB03KT 9999 OVC018 12/08 Q1014,EYPA,2022-10-23T09:50:00Z,55.97,21.08,12.0,8.0,0,3,,6.21,29.940945,,,,,,,,,,,OVC,1800,,,,,,,MVFR,,,,,,,,,,,,METAR,15.0
EYKA 230950Z 28008KT 240V310 9999 SCT015 OVC031 12/10 Q1013,EYKA,2022-10-23T09:50:00Z,54.97,24.08,12.0,10.0,280,8,,6.21,29.911417,,,,,,,,,,,SCT,1500,OVC,3100,,,,,VFR,,,,,,,,,,,,METAR,68.0
EVVA 230950Z AUTO 27009KT 9999 OVC019 10/08 Q1012,EVVA,2022-10-23T09:50:00Z,57.35,21.55,10.0,8.0,270,9,,6.21,29.88189,,,TRUE,,,,,,,,OVC,1900,,,,,,,MVFR,,,,,,,,,,,,METAR,1.0
EVRA 230950Z 27005KT 200V310 9999 BKN007 BKN009 OVC015 11/10 Q1011 NOSIG,EVRA,2022-10-23T09:50:00Z,56.92,23.97,11.0,10.0,270,5,,6.21,29.852362,,,,,,TRUE,,,,,BKN,700,BKN,900,OVC,1500,,,IFR,,,,,,,,,,,,METAR,7.0
EVLA 230950Z AUTO 27005KT 240V320 9999 OVC019/// 10/07 Q1013,EVLA,2022-10-23T09:50:00Z,56.52,21.1,10.0,7.0,270,5,,6.21,29.911417,,,TRUE,,,,,,,,OVC,1900,,,,,,,MVFR,,,,,,,,,,,,METAR,5.0
ENZV 230950Z 17009KT 9999 BKN039 13/12 Q1009,ENZV,2022-10-23T09:50:00Z,58.88,5.63,13.0,12.0,170,9,,6.21,29.793306,,,,,,,,,,,BKN,3900,,,,,,,VFR,,,,,,,,,,,,METAR,7.0
ENVA 230950Z VRB02KT 9999 FEW010 BKN022 05/04 Q1013 NOSIG RMK WIND 670FT 05005KT,ENVA,2022-10-23T09:50:00Z,63.47,10.92,5.0,4.0,0,2,,6.21,29.911417,,,,,,TRUE,,,,,FEW,1000,BKN,2200,,,,,MVFR,,,,,,,,,,,,METAR,12.0
ENTO 230950Z 36007KT 5000 BR VV005 05/05 Q1011 TEMPO 4000 BR BKN004,ENTO,2022-10-23T09:50:00Z,59.2,10.27,5.0,5.0,360,7,,3.11,29.852362,,,,,,,,,,BR,OVX,0,,,,,,,LIFR,,,,,,,,,,,500,METAR,84.0
ENTC 230950Z 30021KT 7000 SHSNRA SCT018 BKN023 02/M01 Q1002 TEMPO 31025G35KT 2000 SHRASNGS BKN009CB RMK WIND 2600FT 33045G67KT,ENTC,2022-10-23T09:50:00Z,69.68,18.92,2.0,-1.0,300,21,,4.35,29.586615,,,,,,,,,,SHSN SHRA,SCT,1800,BKN,2300,,,,,MVFR,,,,,,,,,,,,METAR,9.0
ENSB 230950Z 12009KT 9999 FEW035 SCT050 BKN075 M06/M10 Q1008 RMK WIND 1400FT 13007KT,ENSB,2022-10-23T09:50:00Z,78.25,15.47,-6.0,-10.0,120,9,,6.21,29.763779,,,,,,,,,,,FEW,3500,SCT,5000,BKN,7500,,,VFR,,,,,,,,,,,,METAR,30.0
ENRY 230950Z AUTO 36003KT 2900NDV -DZ VV002 05/04 Q1012,ENRY,2022-10-23T09:50:00Z,59.37,10.77,5.0,4.0,360,3,,,29.88189,,,TRUE,,,,,,,-DZ,OVX,0,,,,,,,LIFR,,,,,,,,,,,200,METAR,45.0
ENRO 230950Z 00000KT 9999 BKN028 M01/M02 Q1010,ENRO,2022-10-23T09:50:00Z,62.57,11.33,-1.0,-2.0,0,0,,6.21,29.822834,,,,,,,,,,,BKN,2800,,,,,,,MVFR,,,,,,,,,,,,METAR,624.0
ENOL 230950Z 10004KT 9999 FEW012 SCT070 05/03 Q1013 NOSIG,ENOL,2022-10-23T09:50:00Z,63.7,9.6,5.0,3.0,100,4,,6.21,29.911417,,,,,,TRUE,,,,,FEW,1200,SCT,7000,,,,,VFR,,,,,,,,,,,,METAR,9.0
ENHD 230950Z 17008KT 9999 FEW006 SCT022 BKN034 13/11 Q1009,ENHD,2022-10-23T09:50:00Z,59.35,5.22,13.0,11.0,170,8,,6.21,29.793306,,,,,,,,,,,FEW,600,SCT,2200,BKN,3400,,,VFR,,,,,,,,,,,,METAR,22.0
ENGM 230950Z 03003KT 360V080 2000 0700NE R19R/P2000N R01R/1000U R19L/0800N R01L/P2000N PRFG OVC002 02/02 Q1011 TEMPO 4000 BR BKN003,ENGM,2022-10-23T09:50:00Z,60.2,11.07,2.0,2.0,30,3,,1.24,29.852362,,,,,,,,,,PRFG,OVC,200,,,,,,,LIFR,,,,,,,,,,,,METAR,204.0
ENDU 230950Z 28016G26KT 9999 FEW020 SCT035 02/M03 Q1003 TEMPO 2000 SHSN VV010 RMK WIND 1100FT 28023KT WIND 2200FT 28027G40KT,ENDU,2022-10-23T09:50:00Z,69.05,18.55,2.0,-3.0,280,16,26,6.21,29.616142,,,,,,,,,,,FEW,2000,SCT,3500,,,,,VFR,,,,,,,,,,,,METAR,65.0
ENCN 230950Z VRB02KT 5000 BR OVC003 09/09 Q1011,ENCN,2022-10-23T09:50:00Z,58.2,8.07,9.0,9.0,0,2,,3.11,29.852362,,,,,,,,,,BR,OVC,300,,,,,,,LIFR,,,,,,,,,,,,METAR,17.0
ENBR 230950Z 15003KT 4000 -DZ BR FEW002 SCT005 BKN007 10/10 Q1008 TEMPO 2000 DZRA BKN004 RMK WIND 1200FT 15012KT,ENBR,2022-10-23T09:50:00Z,60.28,5.22,10.0,10.0,150,3,,2.49,29.763779,,,,,,,,,,-DZ BR,FEW,200,SCT,500,BKN,700,,,IFR,,,,,,,,,,,,METAR,49.0
ENBO 230950Z 32014KT 9999 VCSH FEW025TCU SCT055 05/M02 Q1009 TEMPO SHRAGS,ENBO,2022-10-23T09:50:00Z,67.27,14.37,5.0,-2.0,320,14,,6.21,29.793306,,,,,,,,,,VCSH,FEW,2500,SCT,5500,,,,,VFR,,,,,,,,,,,,METAR,13.0
ENAN 230950Z 32025KT 9999 VCSH FEW032 BKN042 BKN064 03/M05 Q1006,ENAN,2022-10-23T09:50:00Z,69.3,16.13,3.0,-5.0,320,25,,6.21,29.704725,,,,,,,,,,VCSH,FEW,3200,BKN,4200,BKN,6400,,,VFR,,,,,,,,,,,,METAR,13.0
ENAL 230950Z 06016KT 9999 FEW018 08/05 Q1011,ENAL,2022-10-23T09:50:00Z,62.57,6.12,8.0,5.0,60,16,,6.21,29.852362,,,,,,,,,,,FEW,1800,,,,,,,VFR,,,,,,,,,,,,METAR,21.0
EKVG 230950Z AUTO 09007KT 050V120 9999 BKN021/// 06/03 Q1011 RMK FEW017/// SCT019/// WIND SKEID 08011KT,EKVG,2022-10-23T09:50:00Z,62.07,-7.27,6.0,3.0,90,7,,6.21,29.852362,,,TRUE,,,,,,,,BKN,2100,,,,,,,MVFR,,,,,,,,,,,,METAR,89.0
EGEO 230950Z 15003KT 090V200 9999 FEW010 SCT029 13/12 Q1001,EGEO,2022-10-23T09:50:00Z,56.47,-5.4,13.0,12.0,150,3,,6.21,29.557087,,,,,,,,,,,FEW,1000,SCT,2900,,,,,VFR,,,,,,,,,,,,METAR,5.0
EFVA 230950Z AUTO 31006KT 270V350 CAVOK 06/M02 Q1008,EFVA,2022-10-23T09:50:00Z,63.05,21.77,6.0,-2.0,310,6,,6.21,29.763779,,,TRUE,,,,,,,,CAVOK,,,,,,,,VFR,,,,,,,,,,,,METAR,4.0
EFTU 230950Z AUTO 31006KT 270V360 9999 FEW021 09/04 Q1009,EFTU,2022-10-23T09:50:00Z,60.52,22.27,9.0,4.0,310,6,,6.21,29.793306,,,TRUE,,,,,,,,FEW,2100,,,,,,,VFR,,,,,,,,,,,,METAR,47.0
EFTP 230950Z AUTO 32008KT 300V360 9999 BKN017 06/02 Q1007,EFTP,2022-10-23T09:50:00Z,61.42,23.62,6.0,2.0,320,8,,6.21,29.734253,,,TRUE,,,,,,,,BKN,1700,,,,,,,MVFR,,,,,,,,,,,,METAR,111.0
EFRO 230950Z AUTO 29014KT 250V330 CAVOK 02/M06 Q0997,EFRO,2022-10-23T09:50:00Z,66.57,25.82,2.0,-6.0,290,14,,6.21,29.438976,,,TRUE,,,,,,,,CAVOK,,,,,,,,VFR,,,,,,,,,,,,METAR,201.0
EFOU 230950Z AUTO 31015KT CAVOK 05/M02 Q1002,EFOU,2022-10-23T09:50:00Z,64.92,25.37,5.0,-2.0,310,15,,6.21,29.586615,,,TRUE,,,,,,,,CAVOK,,,,,,,,VFR,,,,,,,,,,,,METAR,15.0
EFMA 230950Z AUTO 31006KT 260V350 9999 BKN021 09/04 Q1010,EFMA,2022-10-23T09:50:00Z,60.12,19.9,9.0,4.0,310,6,,6.21,29.822834,,,TRUE,,,,,,,,BKN,2100,,,,,,,MVFR,,,,,,,,,,,,METAR,6.0
EFIV 230950Z AUTO 30018G28KT 270V330 9999 FEW021 BKN041 03/M01 Q0988,EFIV,2022-10-23T09:50:00Z,68.62,27.42,3.0,-1.0,300,18,28,6.21,29.17323,,,TRUE,,,,,,,,FEW,2100,BKN,4100,,,,,VFR,,,,,,,,,,,,METAR,145.0
EFHK 230950Z 30013KT 9999 BKN023 07/02 Q1007 NOSIG,EFHK,2022-10-23T09:50:00Z,60.32,24.97,7.0,2.0,300,13,,6.21,29.734253,,,,,,TRUE,,,,,BKN,2300,,,,,,,MVFR,,,,,,,,,,,,METAR,56.0
EETU 230950Z AUTO 25008KT 3200 BR OVC003/// 07/06 Q1008,EETU,2022-10-23T09:50:00Z,58.32,26.68,7.0,6.0,250,8,,1.99,29.763779,,,TRUE,,,,,,,BR,OVC,300,,,,,,,LIFR,,,,,,,,,,,,METAR,67.0
EETN 230950Z 32007KT 290V350 9999 OVC011 08/06 Q1008 NOSIG,EETN,2022-10-23T09:50:00Z,59.4,24.82,8.0,6.0,320,7,,6.21,29.763779,,,,,,TRUE,,,,,OVC,1100,,,,,,,MVFR,,,,,,,,,,,,METAR,41.0
EEPU 230950Z AUTO 27007KT 240V300 9999 FEW006/// SCT008/// OVC029/// 10/08 Q1009,EEPU,2022-10-23T09:50:00Z,58.42,24.47,10.0,8.0,270,7,,6.21,29.793306,,,TRUE,,,,,,,,FEW,600,SCT,800,OVC,2900,,,MVFR,,,,,,,,,,,,METAR,13.0
EEKE 230950Z 29006KT 250V330 9999 SCT010 OVC023 09/08 Q1011,EEKE,2022-10-23T09:50:00Z,58.23,22.52,9.0,8.0,290,6,,6.21,29.852362,,,,,,,,,,,SCT,1000,OVC,2300,,,,,MVFR,,,,,,,,,,,,METAR,4.0
CYXS 230950Z AUTO VRB02KT 5/8SM BR BKN003 OVC009 M00/M01 A2992 RMK SLP168,CYXS,2022-10-23T09:50:00Z,53.88,-122.68,0.0,-1.0,0,2,,0.63,29.920275,1016.8,,TRUE,,,,,,,BR,BKN,300,OVC,900,,,,,LIFR,,,,,,,,,,,,SPECI,685.0
CYQV 230950Z AUTO 06012KT 9SM -SNRA BKN032 OVC066 01/M01 A2981 RMK SLP120,CYQV,2022-10-23T09:50:00Z,51.27,-102.47,1.0,-1.0,60,12,,9.0,29.811024,1012.0,,TRUE,,,,,,,-SN -RA,BKN,3200,OVC,6600,,,,,VFR,,,,,,,,,,,,SPECI,493.0
CYDB 230950Z AUTO 28008KT 2 1/2SM -SN OVC022 M05/M08 A2973 RMK VIS VRB 1 1/2-3 SLP120,CYDB,2022-10-23T09:50:00Z,61.37,-139.02,-5.0,-8.0,280,8,,2.5,29.731298,1012.0,,TRUE,,,,,,,-SN,OVC,2200,,,,,,,IFR,,,,,,,,,,,,SPECI,807.0
KGZH 230949Z AUTO 00000KT 1 3/4SM BR CLR 06/04 A3015 RMK AO2 VIS 3/4V5,KGZH,2022-10-23T09:49:00Z,31.42,-87.05,6.0,4.0,0,0,,1.75,30.15059,,,TRUE,TRUE,,,,,,BR,CLR,,,,,,,,IFR,,,,,,,,,,,,METAR,77.0
KGFL 230949Z AUTO 00000KT 1 3/4SM BR CLR 00/M01 A3032 RMK AO2,KGFL,2022-10-23T09:49:00Z,43.33,-73.62,0.0,-1.0,0,0,,1.75,30.318897,,,TRUE,TRUE,,,,,,BR,CLR,,,,,,,,IFR,,,,,,,,,,,,SPECI,99.0
KBLI 230949Z AUTO 00000KT 1 3/4SM R16/3500VP6000FT BR SCT017 02/02 A2995 RMK AO2,KBLI,2022-10-23T09:49:00Z,48.8,-122.53,2.0,2.0,0,0,,1.75,29.949802,,,TRUE,TRUE,,,,,,BR,SCT,1700,,,,,,,IFR,,,,,,,,,,,,METAR,46.0
CYUA 230949Z AUTO 11009KT ////SM SCT006 BKN029 OVC035 M08/M09 A3004,CYUA,2022-10-23T09:49:00Z,68.92,-137.23,-8.0,-9.0,110,9,,,30.041338,,,TRUE,,,,,,,,SCT,600,BKN,2900,OVC,3500,,,,,,,,,,,,,,,SPECI,25.0
CYSF 230949Z AUTO 12003KT 3/4SM BR VV001 M10/M10 A3011 RMK ICE PAST HR SLP223,CYSF,2022-10-23T09:49:00Z,59.25,-105.83,-10.0,-10.0,120,3,,0.75,30.109253,1022.3,,TRUE,,,,,,,BR,OVX,0,,,,,,,LIFR,,,,,,,,,,,100,SPECI,238.0
CYPY 230949Z AUTO 04005KT 9SM BKN029 OVC055 M03/M05 A3007 RMK SLP201,CYPY,2022-10-23T09:49:00Z,58.77,-111.12,-3.0,-5.0,40,5,,9.0,30.070866,1020.1,,TRUE,,,,,,,,BKN,2900,OVC,5500,,,,,MVFR,,,,,,,,,,,,SPECI,225.0
PASH 230948Z AUTO 21014KT 10SM SCT009 OVC015 01/01 A2970 RMK AO2 FZRANO PNO $,PASH,2022-10-23T09:48:00Z,66.27,-166.08,1.0,1.0,210,14,,10.0,29.698818,,,TRUE,TRUE,TRUE,,,TRUE,,,SCT,900,OVC,1500,,,,,MVFR,,,,,,,,,,,,METAR,3.0
KOLM 230948Z AUTO 00000KT 3/4SM BR CLR 02/01 A2996 RMK AO2 $,KOLM,2022-10-23T09:48:00Z,46.97,-122.9,2.0,1.0,0,0,,0.75,29.958662,,,TRUE,TRUE,TRUE,,,,,BR,CLR,,,,,,,,LIFR,,,,,,,,,,,,SPECI,58.0
KNKX 230948Z 24007KT 4SM -RA BR FEW005 BKN020 OVC027 16/16 A2981 RMK AO2 P0002 T01560156,KNKX,2022-10-23T09:48:00Z,32.87,-117.13,15.6,15.6,240,7,,4.0,29.811024,,,,TRUE,,,,,,-RA BR,FEW,500,BKN,2000,OVC,2700,,,MVFR,,,,,,0.02,,,,,,METAR,138.0
KMTJ 230948Z AUTO 23009G27KT 2 1/2SM +RA BR BKN032 OVC042 08/06 A2954 RMK AO2 PK WND 27047/0909 WSHFT 0901 RAB01 P0014 $,KMTJ,2022-10-23T09:48:00Z,38.5,-107.9,8.0,6.0,230,9,27,2.5,29.53937,,,TRUE,TRUE,TRUE,,,,,+RA BR,BKN,3200,OVC,4200,,,,,IFR,,,,,,0.14,,,,,,METAR,1755.0
KJDN 230948Z AUTO 04007KT 07/06 A2944 RMK AO1 SLP978 T00670056 ,KJDN,2022-10-23T09:48:00Z,47.33,-106.95,6.7,5.6,40,7,,,29.438976,997.8,,TRUE,TRUE,,,,,,,,,,,,,,,,,,,,,,,,,,,METAR,802.0
KFBG 230948Z AUTO 33003KT 10SM CLR 11/10 A3015 RMK AO2 SLP212 $,KFBG,2022-10-23T09:48:00Z,35.12,-78.92,11.0,10.0,330,3,,10.0,30.15059,1021.2,,TRUE,TRUE,TRUE,,,,,,CLR,,,,,,,,VFR,,,,,,,,,,,,METAR,69.0
KCNY 230948Z AUTO 27012KT 10SM -RA FEW016 BKN055 OVC070 04/03 A2952 RMK AO2 PK WND 28033/0854 P0006,KCNY,2022-10-23T09:48:00Z,38.77,-109.75,4.0,3.0,270,12,,10.0,29.518702,,,TRUE,TRUE,,,,,,-RA,FEW,1600,BKN,5500,OVC,7000,,,VFR,,,,,,0.06,,,,,,METAR,1392.0
KBZN 230948Z AUTO 28007KT 1 1/4SM -SN BR OVC014 00/00 A2960 RMK AO2 P0001 T00000000,KBZN,2022-10-23T09:48:00Z,45.78,-111.17,0.0,0.0,280,7,,1.25,29.601377,,,TRUE,TRUE,,,,,,-SN BR,OVC,1400,,,,,,,IFR,,,,,,0.01,,,,,,SPECI,1349.0
CYFC 230948Z AUTO VRB02KT 5/8SM R09/2600VP6000FT BR BKN002 02/02 A3034 RMK SLP277,CYFC,2022-10-23T09:48:00Z,45.87,-66.53,2.0,2.0,0,2,,0.63,30.339567,1027.7,,TRUE,,,,,,,BR,BKN,200,,,,,,,LIFR,,,,,,,,,,,,METAR,16.0
PAQH 230947Z AUTO 00000KT 3/4SM BR OVC002 M02/M03 A3006 RMK AO2 FZRANO,PAQH,2022-10-23T09:47:00Z,59.75,-161.85,-2.0,-3.0,0,0,,0.75,30.059055,,,TRUE,TRUE,,,,TRUE,,BR,OVC,200,,,,,,,LIFR,,,,,,,,,,,,METAR,8.0
KSBY 230947Z 35008KT 10SM OVC008 13/12 A3017 RMK AO2 CIG 005V011 T01330122,KSBY,2022-10-23T09:47:00Z,38.33,-75.5,13.3,12.2,350,8,,10.0,30.171259,,,,TRUE,,,,,,,OVC,800,,,,,,,IFR,,,,,,,,,,,,SPECI,14.0
KNZY 230947Z AUTO 23005KT 10SM -DZ FEW016 SCT023 OVC039 18/16 A2981 RMK AO2 P0000 $,KNZY,2022-10-23T09:47:00Z,32.7,-117.22,18.0,16.0,230,5,,10.0,29.811024,,,TRUE,TRUE,TRUE,,,,,-DZ,FEW,1600,SCT,2300,OVC,3900,,,VFR,,,,,,0.005,,,,,,SPECI,4.0
KFTK 230947Z AUTO 15007KT 10SM SCT190 BKN220 14/10 A3010 RMK AO2 SLP191,KFTK,2022-10-23T09:47:00Z,37.9,-85.97,14.0,10.0,150,7,,10.0,30.100393,1019.1,,TRUE,TRUE,,,,,,,SCT,19000,BKN,22000,,,,,VFR,,,,,,,,,,,,METAR,225.0
KDIJ 230947Z AUTO 31009KT 9SM -SN OVC012 M01/M02 A2960 RMK AO2 P0000,KDIJ,2022-10-23T09:47:00Z,43.75,-111.1,-1.0,-2.0,310,9,,9.0,29.601377,,,TRUE,TRUE,,,,,,-SN,OVC,1200,,,,,,,MVFR,,,,,,0.005,,,,,,METAR,1896.0
KCQT 230947Z AUTO 00000KT 10SM FEW038 16/13 A2979 RMK AO2 SLP086 T01610133,KCQT,2022-10-23T09:47:00Z,34.02,-118.28,16.1,13.3,0,0,,10.0,29.790354,1008.6,,TRUE,TRUE,,,,,,,FEW,3800,,,,,,,VFR,,,,,,,,,,,,METAR,51.0
CYZH 230947Z AUTO 13003KT 9SM SCT023 BKN046 OVC060 02/00 A2994 RMK SLP168,CYZH,2022-10-23T09:47:00Z,55.28,-114.77,2.0,0.0,130,3,,9.0,29.940945,1016.8,,TRUE,,,,,,,,SCT,2300,BKN,4600,OVC,6000,,,VFR,,,,,,,,,,,,SPECI,583.0
CYKL 230947Z AUTO 28015KT 9SM -RA FEW010 BKN016 BKN021 01/00 A3000 RMK SLP188,CYKL,2022-10-23T09:47:00Z,54.8,-66.8,1.0,0.0,280,15,,9.0,30.0,1018.8,,TRUE,,,,,,,-RA,FEW,1000,BKN,1600,BKN,2100,,,MVFR,,,,,,,,,,,,SPECI,507.0
CWIL 230947Z AUTO ///// ////SM FEW005 OVC012 ///// A////,CWIL,2022-10-23T09:47:00Z,68.32,-100.07,,,,,,,,,,TRUE,,,,,,,,FEW,500,OVC,1200,,,,,,,,,,,,,,,,,SPECI,28.0
KSHN 230946Z AUTO 00000KT 1 3/4SM BR BKN002 01/01 A2994 RMK AO2 T00060006,KSHN,2022-10-23T09:46:00Z,47.23,-123.13,0.6,0.6,0,0,,1.75,29.940945,,,TRUE,TRUE,,,,,,BR,BKN,200,,,,,,,LIFR,,,,,,,,,,,,METAR,84.0
KHLN 230946Z AUTO 30008G15KT 3SM -SN OVC018 01/M02 A2962 RMK AO2 P0001 T00111017,KHLN,2022-10-23T09:46:00Z,46.6,-111.98,1.1,-1.7,300,8,15,3.0,29.619095,,,TRUE,TRUE,,,,,,-SN,OVC,1800,,,,,,,MVFR,,,,,,0.01,,,,,,SPECI,1178.0
KCAO 230946Z AUTO 23011G21KT 10SM VCTS CLR 16/09 A2963 RMK AO2 PK WND 22030/0911 T01610094,KCAO,2022-10-23T09:46:00Z,36.45,-103.15,16.1,9.4,230,11,21,10.0,29.630905,,,TRUE,TRUE,,,,,,VCTS,CLR,,,,,,,,VFR,,,,,,,,,,,,METAR,1517.0
CYFS 230946Z 10002KT 15SM SCT005 OVC016 M05/M06 A3007 RMK SC4SC4 CIG RAG SLP200,CYFS,2022-10-23T09:46:00Z,61.75,-121.22,-5.0,-6.0,100,2,,15.0,30.070866,1020.0,,,,,,,,,,SCT,500,OVC,1600,,,,,MVFR,,,,,,,,,,,,SPECI,174.0
RODN 230945Z 02016KT 10SM SCT022 BKN029 OVC035 25/21 A2986 RMK AO2A CIG 022V029 CIG 024 RWY23 SLP117 $,RODN,2022-10-23T09:45:00Z,26.35,127.77,25.0,21.0,20,16,,10.0,29.861221,1011.7,,,TRUE,TRUE,,,,,,SCT,2200,BKN,2900,OVC,3500,,,MVFR,,,,,,,,,,,,SPECI,38.0
LMML 230945Z 22006KT 180V290 9999 FEW029 24/17 Q1026 NOSIG,LMML,2022-10-23T09:45:00Z,35.85,14.47,24.0,17.0,220,6,,6.21,30.295275,,,,,,TRUE,,,,,FEW,2900,,,,,,,VFR,,,,,,,,,,,,METAR,78.0
LHBP 230945Z 16004KT 120V210 3300 BR BKN002 12/12 Q1023 BECMG 5000 BR TEMPO FM1100 SCT003,LHBP,2022-10-23T09:45:00Z,47.43,19.27,12.0,12.0,160,4,,2.05,30.206694,,,,,,,,,,BR,BKN,200,,,,,,,LIFR,,,,,,,,,,,,METAR,141.0
KSSF 230945Z AUTO 13004KT 10SM BKN021 19/18 A2984 RMK AO2 T01940183,KSSF,2022-10-23T09:45:00Z,29.33,-98.47,19.4,18.3,130,4,,10.0,29.840551,,,TRUE,TRUE,,,,,,,BKN,2100,,,,,,,MVFR,,,,,,,,,,,,SPECI,175.0
KS71 230945Z AUTO 06005KT 7SM 03/03 A2959 ,KS71,2022-10-23T09:45:00Z,48.6,-109.25,3.0,3.0,60,5,,7.0,29.589567,,,TRUE,,,,,,,,,,,,,,,,,,,,,,,,,,,,METAR,736.0
KS59 230945Z AUTO 00000KT 10SM 02/02 A2977 ,KS59,2022-10-23T09:45:00Z,48.28,-115.48,2.0,2.0,0,0,,10.0,29.769686,,,TRUE,,,,,,,,,,,,,,,,,,,,,,,,,,,,METAR,793.0
KRNM 230945Z AUTO 24006KT 2 1/2SM -RA BR BKN006 OVC012 14/14 A2981 RMK AO2 P0005 T01440139,KRNM,2022-10-23T09:45:00Z,33.03,-116.92,14.4,13.9,240,6,,2.5,29.811024,,,TRUE,TRUE,,,,,,-RA BR,BKN,600,OVC,1200,,,,,IFR,,,,,,0.05,,,,,,METAR,423.0
KPNE 230945Z 02006KT 10SM BKN027 OVC034 13/07 A3027 RMK AO2 T01280067,KPNE,2022-10-23T09:45:00Z,40.08,-75.02,12.8,6.7,20,6,,10.0,30.268702,,,,TRUE,,,,,,,BKN,2700,OVC,3400,,,,,MVFR,,,,,,,,,,,,SPECI,32.0
KOTH 230945Z AUTO 17004KT 10SM FEW008 SCT020 SCT026 08/08 A3005 RMK AO2 RAE21 P0001,KOTH,2022-10-23T09:45:00Z,43.42,-124.25,8.0,8.0,170,4,,10.0,30.050198,,,TRUE,TRUE,,,,,,,FEW,800,SCT,2000,SCT,2600,,,VFR,,,,,,0.01,,,,,,SPECI,3.0
KNRS 230945Z AUTO 26010KT 10SM FEW006 SCT018 OVC039 18/16 A2983 RMK AO2 RAE38 P0002 T01780161 $,KNRS,2022-10-23T09:45:00Z,32.57,-117.12,17.8,16.1,260,10,,10.0,29.828741,,,TRUE,TRUE,TRUE,,,,,,FEW,600,SCT,1800,OVC,3900,,,VFR,,,,,,0.02,,,,,,METAR,15.0
KLUF 230945Z AUTO 20015KT 10SM SCT034 BKN047 BKN060 OVC075 21/15 A2967 RMK AO2 DZB41E45 SLP035 $,KLUF,2022-10-23T09:45:00Z,33.53,-112.37,21.0,15.0,200,15,,10.0,29.66929,1003.5,,TRUE,TRUE,TRUE,,,,,,SCT,3400,BKN,4700,BKN,6000,OVC,7500,VFR,,,,,,,,,,,,SPECI,333.0
KHRF 230945Z AUTO 00000KT 10SM OVC050 00/M01 A2970 RMK AO2 Hamilton ,KHRF,2022-10-23T09:45:00Z,46.25,-114.13,0.0,-1.0,0,0,,10.0,29.698818,,,TRUE,TRUE,,,,,,,OVC,5000,,,,,,,VFR,,,,,,,,,,,,METAR,1112.0
KHIF 230945Z AUTO 00000KT 10SM -RA OVC008 03/03 A2958 RMK AO2 DZB18E40RAB40E43RAB45 CIG 006 RWY14 SLP008 $,KHIF,2022-10-23T09:45:00Z,41.12,-111.97,3.0,3.0,0,0,,10.0,29.58071,1000.8,,TRUE,TRUE,TRUE,,,,,-RA,OVC,800,,,,,,,IFR,,,,,,,,,,,,METAR,1461.0
KGYY 230945Z 16009KT 10SM CLR 16/11 A2994,KGYY,2022-10-23T09:45:00Z,41.62,-87.42,16.0,11.0,160,9,,10.0,29.940945,,,,,,,,,,,CLR,,,,,,,,VFR,,,,,,,,,,,,METAR,179.0
KGFA 230945Z AUTO 31008KT 2 3/4SM -SN OVC006 00/00 A2960 RMK AO2 VIS 2 3/4V4 SLP048 $,KGFA,2022-10-23T09:45:00Z,47.5,-111.18,0.0,0.0,310,8,,2.75,29.601377,1004.8,,TRUE,TRUE,TRUE,,,,,-SN,OVC,600,,,,,,,IFR,,,,,,,,,,,,METAR,1058.0
KFMH 230945Z 03005KT 10SM BKN004 12/12 A3032,KFMH,2022-10-23T09:45:00Z,41.65,-70.52,12.0,12.0,30,5,,10.0,30.318897,,,,,,,,,,,BKN,400,,,,,,,LIFR,,,,,,,,,,,,METAR,35.0
KCXO 230945Z AUTO 00000KT 3/4SM BR CLR 17/17 A2992 RMK AO2 T01670167,KCXO,2022-10-23T09:45:00Z,30.35,-95.42,16.7,16.7,0,0,,0.75,29.920275,,,TRUE,TRUE,,,,,,BR,CLR,,,,,,,,LIFR,,,,,,,,,,,,SPECI,69.0
KCAG 230945Z AUTO 23008KT 1 3/4SM -SN BR OVC014 01/M01 A2947 RMK AO2 P0000 T00061006,KCAG,2022-10-23T09:45:00Z,40.5,-107.52,0.6,-0.6,230,8,,1.75,29.471457,,,TRUE,TRUE,,,,,,-SN BR,OVC,1400,,,,,,,IFR,,,,,,0.005,,,,,,SPECI,1888.0
KBHB 230945Z AUTO 00000KT 10SM BKN001 05/05 A3036 RMK AO2 PNO $,KBHB,2022-10-23T09:45:00Z,44.45,-68.37,5.0,5.0,0,0,,10.0,30.360237,,,TRUE,TRUE,TRUE,,,,,,BKN,100,,,,,,,LIFR,,,,,,,,,,,,SPECI,21.0
K79S 230945Z AUTO 26004KT 01/01 A2961 ,K79S,2022-10-23T09:45:00Z,47.85,-110.63,1.0,1.0,260,4,,,29.610237,,,TRUE,,,,,,,,,,,,,,,,,,,,,,,,,,,,METAR,874.0
K3U3 230945Z AUTO 00000KT 10SM M01/M01 A2964 ,K3U3,2022-10-23T09:45:00Z,46.15,-112.87,-1.0,-1.0,0,0,,10.0,29.639763,,,TRUE,,,,,,,,,,,,,,,,,,,,,,,,,,,,METAR,1534.0
K38S 230945Z AUTO 29006KT 10SM 01/M02 A2966 ,K38S,2022-10-23T09:45:00Z,46.38,-112.77,1.0,-2.0,290,6,,10.0,29.660433,,,TRUE,,,,,,,,,,,,,,,,,,,,,,,,,,,,METAR,1430.0
K1S3 230945Z AUTO 32004KT 10SM 07/06 A2942 ,K1S3,2022-10-23T09:45:00Z,46.27,-106.62,7.0,6.0,320,4,,10.0,29.421259,,,TRUE,,,,,,,,,,,,,,,,,,,,,,,,,,,,METAR,831.0
CYXP 230945Z 12002KT 15SM BKN031 BKN130 M01/M03 A2925 RMK SC5AC2 CALL OUT SLP907,CYXP,2022-10-23T09:45:00Z,66.15,-65.72,-1.0,-3.0,120,2,,15.0,29.25,990.7,,,,,,,,,,BKN,3100,BKN,13000,,,,,VFR,,,,,,,,,,,,SPECI,29.0
CYQI 230945Z 07003KT 7SM BCFG SCT250 05/05 A3036 RMK FG1CI3 VIS 1/2SM SE-SW SLP285,CYQI,2022-10-23T09:45:00Z,43.83,-66.08,5.0,5.0,70,3,,7.0,30.360237,1028.5,,,,,,,,,BCFG,SCT,25000,,,,,,,VFR,,,,,,,,,,,,SPECI,37.0
CWPF 230945Z AUTO 01002KT 06/04 RMK AO1 SLP142 T00600035 52016,CWPF,2022-10-23T09:45:00Z,48.43,-123.43,6.0,3.5,10,2,,,,1014.2,,TRUE,TRUE,,,,,,,,,,,,,,,,1.6,,,,,,,,,,,METAR,5.0
PAFB 230944Z AUTO 00000KT 2 1/2SM BR FEW000 OVC055 M02/M02 A2993 RMK AO2 VIS 1 1/4V2 1/2 FZDZB18E19 SLP147,PAFB,2022-10-23T09:44:00Z,64.83,-147.62,-2.0,-2.0,0,0,,2.5,29.929134,1014.7,,TRUE,TRUE,,,,,,BR,FEW,0,OVC,5500,,,,,IFR,,,,,,,,,,,,SPECI,137.0
PAAK 230944Z AUTO VRB06KT 10SM -RA BKN019 OVC060 A3031 RMK AO2 P0001 FZRANO $,PAAK,2022-10-23T09:44:00Z,52.22,-174.2,,,0,6,,10.0,30.31004,,,TRUE,TRUE,TRUE,,,TRUE,,-RA,BKN,1900,OVC,6000,,,,,MVFR,,,,,,0.01,,,,,,METAR,11.0
KVEL 230944Z AUTO 15004KT 1 1/4SM -SN BR OVC007 01/M01 A2954 RMK AO2 P0008 T00061006,KVEL,2022-10-23T09:44:00Z,40.45,-109.52,0.6,-0.6,150,4,,1.25,29.53937,,,TRUE,TRUE,,,,,,-SN BR,OVC,700,,,,,,,IFR,,,,,,0.08,,,,,,SPECI,1604.0
KRXE 230944Z AUTO 22006KT 10SM SCT006 SCT049 BKN060 02/00 A2960 RMK AO2 T00220000,KRXE,2022-10-23T09:44:00Z,43.83,-111.8,2.2,0.0,220,6,,10.0,29.601377,,,TRUE,TRUE,,,,,,,SCT,600,SCT,4900,BKN,6000,,,VFR,,,,,,,,,,,,SPECI,1483.0
KMLP 230944Z AUTO 34003KT 1 1/2SM -SN BR OVC001 M02/M04 A2967 RMK AO2 P0000 T10221044,KMLP,2022-10-23T09:44:00Z,47.45,-115.67,-2.2,-4.4,340,3,,1.5,29.66929,,,TRUE,TRUE,,,,,,-SN BR,OVC,100,,,,,,,LIFR,,,,,,0.005,,,,,,SPECI,1837.0
K0J4 230944Z AUTO 00000KT 10SM TS CLR 07/04 A3016 RMK AO2 TSB41 T00670039 $,K0J4,2022-10-23T09:44:00Z,31.05,-86.32,6.7,3.9,0,0,,10.0,30.159449,,,TRUE,TRUE,TRUE,,,,,TS,CLR,,,,,,,,VFR,,,,,,,,,,,,SPECI,96.0
EGVA 230944Z AUTO 08010KT 9999 BKN003 15/15 A2950 RMK AO2 RAB04E29 BKN V FEW SLPNO $,EGVA,2022-10-23T09:44:00Z,51.67,-1.78,15.0,15.0,80,10,,6.21,29.500984,,,TRUE,TRUE,TRUE,,,,,,BKN,300,,,,,,,LIFR,,,,,,,,,,,,SPECI,84.0
YBCS 230943Z AUTO 36004KT 9999 // SCT021 SCT030 BKN045 28/24 Q1007,YBCS,2022-10-23T09:43:00Z,-16.87,145.75,28.0,24.0,360,4,,6.21,29.734253,,,TRUE,,,,,,,,SCT,2100,SCT,3000,BKN,4500,,,VFR,,,,,,,,,,,,SPECI,2.0
RKNN 230943Z 21002KT 8000 -RA BR FEW020 BKN040 11/10 A3011 RMK CIG040,RKNN,2022-10-23T09:43:00Z,37.75,128.93,11.0,10.0,210,2,,4.97,30.109253,,,,,,,,,,-RA BR,FEW,2000,BKN,4000,,,,,MVFR,,,,,,,,,,,,SPECI,11.0
PHLI 230943Z AUTO 08011KT 10SM SCT025 BKN033 26/22 A3007 RMK AO2 T02610217 TSNO $,PHLI,2022-10-23T09:43:00Z,21.97,-159.33,26.1,21.7,80,11,,10.0,30.070866,,,TRUE,TRUE,TRUE,,TRUE,,,,SCT,2500,BKN,3300,,,,,VFR,,,,,,,,,,,,SPECI,32.0
PANI 230943Z AUTO 26003KT 10SM FEW003 M04/M04 A3008 RMK AO2 FZRANO $,PANI,2022-10-23T09:43:00Z,61.58,-159.53,-4.0,-4.0,260,3,,10.0,30.079725,,,TRUE,TRUE,TRUE,,,TRUE,,,FEW,300,,,,,,,VFR,,,,,,,,,,,,METAR,21.0
PABR 230943Z AUTO 11019KT 10SM OVC005 M04/M05 A2995 RMK AO2 PK WND 10029/0909 T10391050 TSNO,PABR,2022-10-23T09:43:00Z,71.28,-156.78,-3.9,-5.0,110,19,,10.0,29.949802,,,TRUE,TRUE,,,TRUE,,,,OVC,500,,,,,,,IFR,,,,,,,,,,,,SPECI,6.0
PABL 230943Z AUTO 13017G22KT 10SM BKN027 OVC033 01/00 A2986 RMK AO2 PK WND 14026/0920 RAB10E35 P0000 FZRANO $,PABL,2022-10-23T09:43:00Z,65.98,-161.15,1.0,0.0,130,17,22,10.0,29.861221,,,TRUE,TRUE,TRUE,,,TRUE,,,BKN,2700,OVC,3300,,,,,MVFR,,,,,,0.005,,,,,,METAR,7.0
KSFY 230943Z AUTO 15009KT 10SM BKN110 15/12 A2981 RMK AO2,KSFY,2022-10-23T09:43:00Z,42.05,-90.12,15.0,12.0,150,9,,10.0,29.811024,,,TRUE,TRUE,,,,,,,BKN,11000,,,,,,,VFR,,,,,,,,,,,,SPECI,188.0
KRWL 230943Z AUTO 26007KT 3/4SM -SN BR BKN005 OVC009 01/M01 A2946 RMK AO2 P0006 T00061006,KRWL,2022-10-23T09:43:00Z,41.8,-107.2,0.6,-0.6,260,7,,0.75,29.459646,,,TRUE,TRUE,,,,,,-SN BR,BKN,500,OVC,900,,,,,LIFR,,,,,,0.06,,,,,,SPECI,2066.0
KROS 230943Z AUTO 15005KT 10SM CLR 17/09 A2964 RMK AO2,KROS,2022-10-23T09:43:00Z,45.7,-92.95,17.0,9.0,150,5,,10.0,29.639763,,,TRUE,TRUE,,,,,,,CLR,,,,,,,,VFR,,,,,,,,,,,,SPECI,282.0
KMYF 230943Z AUTO 24008KT 6SM -RA BR BKN005 OVC009 16/16 A2982 RMK AO2 P0004 T01610156,KMYF,2022-10-23T09:43:00Z,32.82,-117.13,16.1,15.6,240,8,,6.0,29.819881,,,TRUE,TRUE,,,,,,-RA BR,BKN,500,OVC,900,,,,,IFR,,,,,,0.04,,,,,,METAR,128.0
KIWI 230943Z AUTO 00000KT 1/2SM FG VV002 06/05 A3035 RMK AO2 T00610050,KIWI,2022-10-23T09:43:00Z,43.97,-69.72,6.1,5.0,0,0,,0.5,30.351377,,,TRUE,TRUE,,,,,,FG,OVX,0,,,,,,,LIFR,,,,,,,,,,,200,METAR,16.0
KESN 230943Z AUTO 01007KT 10SM BKN024 OVC029 12/11 A3024 RMK AO2 T01150110,KESN,2022-10-23T09:43:00Z,38.8,-76.07,11.5,11.0,10,7,,10.0,30.239174,,,TRUE,TRUE,,,,,,,BKN,2400,OVC,2900,,,,,MVFR,,,,,,,,,,,,METAR,14.0
CYPH 230943Z AUTO 28017G27KT 9SM -RA OVC030 02/M01 A2994 RMK SLP141,CYPH,2022-10-23T09:43:00Z,58.47,-78.08,2.0,-1.0,280,17,27,9.0,29.940945,1014.1,,TRUE,,,,,,,-RA,OVC,3000,,,,,,,MVFR,,,,,,,,,,,,SPECI,24.0
CYNA 230943Z AUTO 29004KT 9SM CLR 03/03 A3017 RMK ICE MISG SLP220,CYNA,2022-10-23T09:43:00Z,50.18,-61.78,3.0,3.0,290,4,,9.0,30.171259,1022.0,,TRUE,,,,,,,,CLR,,,,,,,,VFR,,,,,,,,,,,,SPECI,9.0
PAOT 230942Z AUTO 14020KT 1 1/2SM -SN BR FEW008 BKN013 OVC022 M01/M01 A2977 RMK AO2 PK WND 14026/0929 P0002 T10061006 TSNO,PAOT,2022-10-23T09:42:00Z,66.88,-162.6,-0.6,-0.6,140,20,,1.5,29.769686,,,TRUE,TRUE,,,TRUE,,,-SN BR,FEW,800,BKN,1300,OVC,2200,,,IFR,,,,,,0.02,,,,,,SPECI,3.0
PABE 230942Z 18005KT 3SM BR OVC001 M04/M04 A3004 RMK AO2 I1000 T10391044,PABE,2022-10-23T09:42:00Z,60.78,-161.83,-3.9,-4.4,180,5,,3.0,30.041338,,,,TRUE,,,,,,BR,OVC,100,,,,,,,LIFR,,,,,,,,,,,,SPECI,28.0
LPLA 230942Z /////KT 3000 RA BR BKN014 BKN032 16/13 Q1014,LPLA,2022-10-23T09:42:00Z,38.77,-27.1,16.0,13.0,,,,1.86,29.940945,,,,,,,,,,RA BR,BKN,1400,BKN,3200,,,,,IFR,,,,,,,,,,,,SPECI,60.0
KSDM 230942Z AUTO 24009KT 3SM -RA BR BKN006 BKN014 OVC023 16/15 A2983 RMK AO2 RAB0858 P0003 T01610150,KSDM,2022-10-23T09:42:00Z,32.58,-117.0,16.1,15.0,240,9,,3.0,29.828741,,,TRUE,TRUE,,,,,,-RA BR,BKN,600,BKN,1400,OVC,2300,,,IFR,,,,,,0.03,,,,,,SPECI,161.0
KNSI 230942Z AUTO 30022G29KT SCT015 14/09 A2979 RMK AO2 PK WND 30029/0933 T01390094 PWINO $,KNSI,2022-10-23T09:42:00Z,33.23,-119.45,13.9,9.4,300,22,29,,29.790354,,,TRUE,TRUE,TRUE,,,,TRUE,,SCT,1500,,,,,,,,,,,,,,,,,,,SPECI,161.0
CYOJ 230942Z AUTO 35004KT 9SM FEW005 SCT014 BKN019 OVC028 M04/M04 A3006 RMK SLP206,CYOJ,2022-10-23T09:42:00Z,58.62,-117.17,-4.0,-4.0,350,4,,9.0,30.059055,1020.6,,TRUE,,,,,,,,FEW,500,SCT,1400,BKN,1900,OVC,2800,MVFR,,,,,,,,,,,,SPECI,339.0
PALG 230941Z AUTO 00000KT 1/4SM FZFG OVC003 M04/M04 A3004 RMK AO2 FZRANO,PALG,2022-10-23T09:41:00Z,61.53,-160.33,-4.0,-4.0,0,0,,0.25,30.041338,,,TRUE,TRUE,,,,TRUE,,FZFG,OVC,300,,,,,,,LIFR,,,,,,,,,,,,METAR,13.0
PAKV 230941Z AUTO 00000KT 5SM BR BKN004 OVC027 M04/M04 A3001 RMK AO2 I1000 T10391044 TSNO,PAKV,2022-10-23T09:41:00Z,64.33,-158.72,-3.9,-4.4,0,0,,5.0,30.008858,,,TRUE,TRUE,,,TRUE,,,BR,BKN,400,OVC,2700,,,,,LIFR,,,,,,,,,,,,METAR,53.0
PAGA 230941Z AUTO 10SM FEW003 OVC032 M02/M02 A3000 RMK AO2 FZRANO $,PAGA,2022-10-23T09:41:00Z,64.73,-156.93,-2.0,-2.0,,,,10.0,30.0,,,TRUE,TRUE,TRUE,,,TRUE,,,FEW,300,OVC,3200,,,,,VFR,,,,,,,,,,,,METAR,39.0
KEVM 230941Z AUTO 00000KT 10SM CLR 04/03 A2967 RMK AO2,KEVM,2022-10-23T09:41:00Z,47.42,-92.5,4.0,3.0,0,0,,10.0,29.66929,,,TRUE,TRUE,,,,,,,CLR,,,,,,,,VFR,,,,,,,,,,,,SPECI,419.0
KAWO 230941Z AUTO 00000KT 1/4SM FG BKN012 BKN055 04/04 A2996 RMK AO2,KAWO,2022-10-23T09:41:00Z,48.17,-122.17,4.0,4.0,0,0,,0.25,29.958662,,,TRUE,TRUE,,,,,,FG,BKN,1200,BKN,5500,,,,,LIFR,,,,,,,,,,,,METAR,38.0
CZVL 230941Z AUTO 33002KT 2 1/2SM R26/3000VP6000FT BR FEW024 M03/ A2992 RMK DP MISG SLP169,CZVL,2022-10-23T09:41:00Z,53.67,-113.85,-3.0,,330,2,,2.5,29.920275,1016.9,,TRUE,,,,,,,BR,FEW,2400,,,,,,,IFR,,,,,,,,,,,,SPECI,685.0
PKWA 230940Z AUTO 08005KT 10SM SCT110 26/24 A2985 RMK AO2 T02610236,PKWA,2022-10-23T09:40:00Z,8.72,167.72,26.1,23.6,80,5,,10.0,29.84941,,,TRUE,TRUE,,,,,,,SCT,11000,,,,,,,VFR,,,,,,,,,,,,SPECI,6.0
PGUA 230940Z AUTO 13007KT 10SM SCT013 SCT022 SCT034 BKN050 26/24 A2984 RMK AO2 SLP095 $,PGUA,2022-10-23T09:40:00Z,13.57,144.92,26.0,24.0,130,7,,10.0,29.840551,1009.5,,TRUE,TRUE,TRUE,,,,,,SCT,1300,SCT,2200,SCT,3400,BKN,5000,VFR,,,,,,,,,,,,SPECI,159.0
KW99 230940Z AUTO 00000KT 10SM CLR 01/01 A3030 RMK AO2,KW99,2022-10-23T09:40:00Z,39.0,-79.15,1.0,1.0,0,0,,10.0,30.301182,,,TRUE,TRUE,,,,,,,CLR,,,,,,,,VFR,,,,,,,,,,,,SPECI,288.0
KVOA 230940Z AUTO 13006KT 10SM CLR 23/12 A3009 RMK A01,KVOA,2022-10-23T09:40:00Z,29.23,-87.78,23.0,12.0,130,6,,10.0,30.088583,,,TRUE,TRUE,,,,,,,CLR,,,,,,,,VFR,,,,,,,,,,,,METAR,53.0
KSKF 230940Z AUTO 14005KT 8SM BKN018 19/19 A2984 RMK AO2 SLP098 $,KSKF,2022-10-23T09:40:00Z,29.38,-98.57,19.0,19.0,140,5,,8.0,29.840551,1009.8,,TRUE,TRUE,TRUE,,,,,,BKN,1800,,,,,,,MVFR,,,,,,,,,,,,SPECI,214.0
KSBD 230940Z AUTO 00000KT 10SM SCT015 BKN022 OVC049 15/12 A2980 RMK AO2 T01530115,KSBD,2022-10-23T09:40:00Z,34.08,-117.25,15.3,11.5,0,0,,10.0,29.799213,,,TRUE,TRUE,,,,,,,SCT,1500,BKN,2200,OVC,4900,,,MVFR,,,,,,,,,,,,METAR,353.0
KS85 230940Z AUTO 07015G20KT 10SM OVC014 07/06 A2949 RMK A01 Culbertson ,KS85,2022-10-23T09:40:00Z,48.15,-104.5,7.0,6.0,70,15,20,10.0,29.489174,,,TRUE,TRUE,,,,,,,OVC,1400,,,,,,,MVFR,,,,,,,,,,,,METAR,596.0
KQFW 230940Z AUTO 02002KT 9999 BKN070 10/10 A2990 RMK A02 TSNO,KQFW,2022-10-23T09:40:00Z,,,10.0,10.0,20,2,,6.21,29.899607,,,TRUE,TRUE,,,TRUE,,,,BKN,7000,,,,,,,VFR,,,,,,,,,,,,METAR,
KQEY 230940Z AUTO 28005KT 9999 CLR 13/05 A2979 RMK A02 TSNO,KQEY,2022-10-23T09:40:00Z,,,13.0,5.0,280,5,,6.21,29.790354,,,TRUE,TRUE,,,TRUE,,,,CLR,,,,,,,,VFR,,,,,,,,,,,,METAR,
KQER 230940Z AUTO 11001KT 9999 CLR 12/M02 A3003 RMK A02 TSNO,KQER,2022-10-23T09:40:00Z,,,12.0,-2.0,110,1,,6.21,30.029528,,,TRUE,TRUE,,,TRUE,,,,CLR,,,,,,,,VFR,,,,,,,,,,,,METAR,
KMTK 230940Z AUTO 13009KT 10SM BKN042 BKN048 23/14 A3006 RMK A01,KMTK,2022-10-23T09:40:00Z,,,23.0,14.0,130,9,,10.0,30.059055,,,TRUE,TRUE,,,,,,,BKN,4200,BKN,4800,,,,,VFR,,,,,,,,,,,,METAR,
KMHV 230940Z AUTO 26018G30KT 10SM OVC055 12/03 A2977 RMK A01,KMHV,2022-10-23T09:40:00Z,35.07,-118.15,12.0,3.0,260,18,30,10.0,29.769686,,,TRUE,TRUE,,,,,,,OVC,5500,,,,,,,VFR,,,,,,,,,,,,SPECI,841.0
KMEH 230940Z AUTO 00000KT 7SM -SN SCT008 OVC019 01/00 A2981 RMK AO2 UPB07E10B19E24SNB10E19B24 P0001 T00110000,KMEH,2022-10-23T09:40:00Z,45.52,-118.42,1.1,0.0,0,0,,7.0,29.811024,,,TRUE,TRUE,,,,,,-SN,SCT,800,OVC,1900,,,,,MVFR,,,,,,0.01,,,,,,SPECI,1138.0
KLSF 230940Z AUTO 00000KT 5SM BR CLR 04/04 M RMK AO2 SLPNO CHINO RWY15 $,KLSF,2022-10-23T09:40:00Z,32.32,-84.97,4.0,4.0,0,0,,5.0,,,,TRUE,TRUE,TRUE,,,,,BR,CLR,,,,,,,,MVFR,,,,,,,,,,,,SPECI,68.0
KLFI 230940Z AUTO 35010KT 10SM OVC010 14/14 A3013 RMK AO2 SLP209 $,KLFI,2022-10-23T09:40:00Z,37.08,-76.33,14.0,14.0,350,10,,10.0,30.129921,1020.9,,TRUE,TRUE,TRUE,,,,,,OVC,1000,,,,,,,MVFR,,,,,,,,,,,,METAR,2.0
KKLS 230940Z AUTO 14003KT 10SM FEW020 OVC045 07/07 A2998 RMK AO2,KKLS,2022-10-23T09:40:00Z,46.12,-122.9,7.0,7.0,140,3,,10.0,29.97933,,,TRUE,TRUE,,,,,,,FEW,2000,OVC,4500,,,,,VFR,,,,,,,,,,,,METAR,4.0
KGHB 230940Z AUTO VRB04G12KT 7SM OVC037 25/18 A2999 RMK A01,KGHB,2022-10-23T09:40:00Z,27.83,-91.98,25.0,18.0,0,4,12,7.0,29.991142,,,TRUE,TRUE,,,,,,,OVC,3700,,,,,,,VFR,,,,,,,,,,,,SPECI,30.0
KFYM 230940Z AUTO 17006KT 10SM FEW033 SCT043 12/09 A3016 RMK A01,KFYM,2022-10-23T09:40:00Z,35.07,-86.57,12.0,9.0,170,6,,10.0,30.159449,,,TRUE,TRUE,,,,,,,FEW,3300,SCT,4300,,,,,VFR,,,,,,,,,,,,SPECI,297.0
KFDK 230940Z AUTO 00000KT 5SM BR CLR 03/03 A3027 RMK AO2,KFDK,2022-10-23T09:40:00Z,39.42,-77.37,3.0,3.0,0,0,,5.0,30.268702,,,TRUE,TRUE,,,,,,BR,CLR,,,,,,,,MVFR,,,,,,,,,,,,SPECI,82.0
KEDU 230940Z AUTO 33009G14KT 10SM CLR 14/M01 A2986 RMK AO1,KEDU,2022-10-23T09:40:00Z,38.53,-121.78,14.0,-1.0,330,9,14,10.0,29.861221,,,TRUE,TRUE,,,,,,,CLR,,,,,,,,VFR,,,,,,,,,,,,SPECI,20.0
KBAZ 230940Z AUTO 18006KT 10SM BKN020 19/17 A2985 RMK AO2 T01890172,KBAZ,2022-10-23T09:40:00Z,29.72,-98.05,18.9,17.2,180,6,,10.0,29.84941,,,TRUE,TRUE,,,,,,,BKN,2000,,,,,,,MVFR,,,,,,,,,,,,METAR,199.0
K6S8 230940Z AUTO 31011KT 10SM 04/03 A2948 RMK A01 Laurel,K6S8,2022-10-23T09:40:00Z,45.7,-108.77,4.0,3.0,310,11,,10.0,29.480314,,,TRUE,TRUE,,,,,,,,,,,,,,,,,,,,,,,,,,,SPECI,1072.0
GCXO 230940Z 30005KT 280V340 5000 DZ FEW001 BKN006 18/18 Q1021 NOSIG,GCXO,2022-10-23T09:40:00Z,28.48,-16.35,18.0,18.0,300,5,,3.11,30.147638,,,,,,TRUE,,,,DZ,FEW,100,BKN,600,,,,,IFR,,,,,,,,,,,,SPECI,623.0
ETNL 230940Z 20005KT 1200 BR OVC003 12/12 Q1015 AMB,ETNL,2022-10-23T09:40:00Z,53.92,12.27,12.0,12.0,200,5,,0.75,29.970472,,,,,,,,,,BR,OVC,300,,,,,,,LIFR,,,,,,,,,,,,SPECI,40.0
CYVL 230940Z AUTO 11009KT 6SM -SN FEW025 OVC044 M08/M10 A3003 RMK SLP200,CYVL,2022-10-23T09:40:00Z,67.02,-126.13,-8.0,-10.0,110,9,,6.0,30.029528,1020.0,,TRUE,,,,,,,-SN,FEW,2500,OVC,4400,,,,,VFR,,,,,,,,,,,,SPECI,261.0
CYMM 230940Z AUTO 11005KT 9SM SCT008 OVC040 00/M00 A3000 RMK SLP181,CYMM,2022-10-23T09:40:00Z,56.65,-111.22,0.0,0.0,110,5,,9.0,30.0,1018.1,,TRUE,,,,,,,,SCT,800,OVC,4000,,,,,VFR,,,,,,,,,,,,SPECI,371.0
CYET 230940Z AUTO VRB02KT 1/2SM FZFG VV003 M01/ A2992 RMK DP MISG SLP175,CYET,2022-10-23T09:40:00Z,53.57,-116.47,-1.0,,0,2,,0.5,29.920275,1017.5,,TRUE,,,,,,,FZFG,OVX,0,,,,,,,LIFR,,,,,,,,,,,300,SPECI,925.0
BGTL 230940Z AUTO 17007KT 9999 -UP OVC016 M04/M07 A2942 RMK AO2 UPB40 CIG 013 RWY26 SLP949 TSNO $,BGTL,2022-10-23T09:40:00Z,76.53,-68.75,-4.0,-7.0,170,7,,6.21,29.421259,994.9,,TRUE,TRUE,TRUE,,TRUE,,,UP,OVC,1600,,,,,,,MVFR,,,,,,,,,,,,SPECI,79.0
RJCK 230939Z 03007KT 8000 -SHRA FEW008 SCT030 BKN040 07/06 Q1009 RMK 1ST008 4CU030 6CU040 A2981,RJCK,2022-10-23T09:39:00Z,43.03,144.18,7.0,6.0,30,7,,4.97,29.793306,,,,,,,,,,-SHRA,FEW,800,SCT,3000,BKN,4000,,,MVFR,,,,,,,,,,,,SPECI,94.0
PFNO 230939Z AUTO 13015KT 1 1/2SM -SN BR OVC015 00/M01 A2986 RMK AO2 P0000 FZRANO,PFNO,2022-10-23T09:39:00Z,66.82,-161.02,0.0,-1.0,130,15,,1.5,29.861221,,,TRUE,TRUE,,,,TRUE,,-SN BR,OVC,1500,,,,,,,IFR,,,,,,0.005,,,,,,METAR,14.0
PAHX 230939Z AUTO 19004KT 10SM SCT002 M02/M02 A3002 RMK AO2 FZRANO,PAHX,2022-10-23T09:39:00Z,62.7,-159.57,-2.0,-2.0,190,4,,10.0,30.02067,,,TRUE,TRUE,,,,TRUE,,,SCT,200,,,,,,,VFR,,,,,,,,,,,,METAR,20.0
KSXT 230939Z AUTO 00000KT 3/4SM BR FEW002 BKN006 OVC038 02/01 A2997 RMK AO2 T00170011,KSXT,2022-10-23T09:39:00Z,42.6,-123.37,1.7,1.1,0,0,,0.75,29.970472,,,TRUE,TRUE,,,,,,BR,FEW,200,BKN,600,OVC,3800,,,LIFR,,,,,,,,,,,,METAR,1151.0
KMTN 230939Z AUTO 00000KT 10SM CLR 08/07 A3026 RMK AO2,KMTN,2022-10-23T09:39:00Z,39.32,-76.42,8.0,7.0,0,0,,10.0,30.259842,,,TRUE,TRUE,,,,,,,CLR,,,,,,,,VFR,,,,,,,,,,,,SPECI,2.0
KLWT 230939Z AUTO 29010G19KT 1 3/4SM -SN BR SCT004 OVC008 M01/M01 A2951 RMK AO2 SNB58 P0000 T10061011 $,KLWT,2022-10-23T09:39:00Z,47.05,-109.47,-0.6,-1.1,290,10,19,1.75,29.509842,,,TRUE,TRUE,TRUE,,,,,-SN BR,SCT,400,OVC,800,,,,,IFR,,,,,,0.005,,,,,,METAR,1254.0
KLVS 230939Z AUTO 23011KT 10SM VCTS CLR 11/09 A2973 RMK AO2 PK WND 23037/0855 LTG DSNT SW AND W RAB0854E10 P0001 T01110089,KLVS,2022-10-23T09:39:00Z,35.65,-105.13,11.1,8.9,230,11,,10.0,29.731298,,,TRUE,TRUE,,,,,,VCTS,CLR,,,,,,,,VFR,,,,,,0.01,,,,,,METAR,2095.0
KHDN 230939Z AUTO 23003KT 2 1/2SM -SN BR SCT004 BKN014 OVC026 00/00 A2948 RMK AO2 VIS 1 3/4V5 UPB02E04RAB04E17SNB17 P0001 FZRANO,KHDN,2022-10-23T09:39:00Z,40.48,-107.22,0.0,0.0,230,3,,2.5,29.480314,,,TRUE,TRUE,,,,TRUE,,-SN BR,SCT,400,BKN,1400,OVC,2600,,,IFR,,,,,,0.01,,,,,,METAR,2012.0
KHDC 230939Z AUTO 00000KT 10SM CLR 14/14 A3006 RMK AO2,KHDC,2022-10-23T09:39:00Z,30.52,-90.42,14.0,14.0,0,0,,10.0,30.059055,,,TRUE,TRUE,,,,,,,CLR,,,,,,,,VFR,,,,,,,,,,,,METAR,12.0
KFME 230939Z AUTO 00000KT 7SM CLR 05/04 A3026 RMK AO1,KFME,2022-10-23T09:39:00Z,39.08,-76.77,5.0,4.0,0,0,,7.0,30.259842,,,TRUE,TRUE,,,,,,,CLR,,,,,,,,VFR,,,,,,,,,,,,SPECI,43.0
KEKN 230939Z AUTO 00000KT 3SM BR CLR M01/M02 A3026 RMK AO2 I1000 T10061017,KEKN,2022-10-23T09:39:00Z,38.88,-79.85,-0.6,-1.7,0,0,,3.0,30.259842,,,TRUE,TRUE,,,,,,BR,CLR,,,,,,,,MVFR,,,,,,,,,,,,METAR,596.0
K2W6 230939Z AUTO 00000KT 10SM CLR 11/10 A3021 RMK AO1,K2W6,2022-10-23T09:39:00Z,38.32,-76.55,11.0,10.0,0,0,,10.0,30.209646,,,TRUE,TRUE,,,,,,,CLR,,,,,,,,VFR,,,,,,,,,,,,SPECI,40.0
CYYN 230939Z AUTO 06016G21KT 5SM -SN -UP OVC005 01/01 A2966 RMK SLP073,CYYN,2022-10-23T09:39:00Z,50.28,-107.68,1.0,1.0,60,16,21,5.0,29.660433,1007.3,,TRUE,,,,,,,-SN UP,OVC,500,,,,,,,IFR,,,,,,,,,,,,SPECI,814.0
PACZ 230938Z AUTO 19021G29KT 10SM BKN011 BKN075 03/01 A2988 RMK AO2 SLP126,PACZ,2022-10-23T09:38:00Z,61.78,-166.03,3.0,1.0,190,21,29,10.0,29.878937,1012.6,,TRUE,TRUE,,,,,,,BKN,1100,BKN,7500,,,,,MVFR,,,,,,,,,,,,METAR,129.0
KSAW 230938Z AUTO 17006KT 7SM CLR 10/09 A2987 RMK AO2 T00960090,KSAW,2022-10-23T09:38:00Z,46.35,-87.4,9.6,9.0,170,6,,7.0,29.870079,,,TRUE,TRUE,,,,,,,CLR,,,,,,,,VFR,,,,,,,,,,,,METAR,359.0
KSAN 230938Z 20006KT 10SM FEW006 SCT014 OVC040 17/16 A2983 RMK AO2 RAE24 P0002 T01720156,KSAN,2022-10-23T09:38:00Z,32.73,-117.18,17.2,15.6,200,6,,10.0,29.828741,,,,TRUE,,,,,,,FEW,600,SCT,1400,OVC,4000,,,VFR,,,,,,0.02,,,,,,METAR,3.0
KRBG 230938Z AUTO 00000KT 3SM BR OVC002 07/06 A3002 RMK AO2 RAE07 P0001 T00670061,KRBG,2022-10-23T09:38:00Z,43.23,-123.35,6.7,6.1,0,0,,3.0,30.02067,,,TRUE,TRUE,,,,,,BR,OVC,200,,,,,,,LIFR,,,,,,0.01,,,,,,METAR,152.0
KNTD 230938Z AUTO 30008KT 8SM SCT021 16/12 A2978 RMK AO2 T01560117,KNTD,2022-10-23T09:38:00Z,34.12,-119.12,15.6,11.7,300,8,,8.0,29.778543,,,TRUE,TRUE,,,,,,,SCT,2100,,,,,,,VFR,,,,,,,,,,,,SPECI,1.0
KRKD 230937Z AUTO 00000KT 3/4SM BR OVC002 05/05 A3035 RMK AO2,KRKD,2022-10-23T09:37:00Z,44.07,-69.1,5.0,5.0,0,0,,0.75,30.351377,,,TRUE,TRUE,,,,,,BR,OVC,200,,,,,,,LIFR,,,,,,,,,,,,SPECI,15.0
KJYG 230937Z AUTO 14011KT 10SM CLR 14/08 A2955 RMK AO2,KJYG,2022-10-23T09:37:00Z,43.98,-94.55,14.0,8.0,140,11,,10.0,29.551182,,,TRUE,TRUE,,,,,,,CLR,,,,,,,,VFR,,,,,,,,,,,,SPECI,323.0
KGKY 230937Z AUTO 16012KT 10SM BKN023 22/17 A2979 RMK AO2 T02170167,KGKY,2022-10-23T09:37:00Z,32.67,-97.1,21.7,16.7,160,12,,10.0,29.790354,,,TRUE,TRUE,,,,,,,BKN,2300,,,,,,,MVFR,,,,,,,,,,,,SPECI,189.0
KFCS 230937Z 22028G37KT 10SM CLR 17/M04 A2937 RMK SLP877 $,KFCS,2022-10-23T09:37:00Z,38.67,-104.77,17.0,-4.0,220,28,37,10.0,29.371063,987.7,,,,TRUE,,,,,,CLR,,,,,,,,VFR,,,,,,,,,,,,METAR,1789.0
KCQM 230937Z AUTO 00000KT 10SM CLR 04/02 A2963 RMK AO,KCQM,2022-10-23T09:37:00Z,47.82,-92.68,4.0,2.0,0,0,,10.0,29.630905,,,TRUE,,,,,,,,CLR,,,,,,,,VFR,,,,,,,,,,,,SPECI,406.0
KBBB 230937Z AUTO 15009KT 10SM CLR 13/07 A2952 RMK AO,KBBB,2022-10-23T09:37:00Z,45.32,-95.65,13.0,7.0,150,9,,10.0,29.518702,,,TRUE,,,,,,,,CLR,,,,,,,,VFR,,,,,,,,,,,,SPECI,315.0
KAUM 230937Z AUTO 14007KT 10SM SCT080 15/10 A2966 RMK AO2,KAUM,2022-10-23T09:37:00Z,43.67,-92.92,15.0,10.0,140,7,,10.0,29.660433,,,TRUE,TRUE,,,,,,,SCT,8000,,,,,,,VFR,,,,,,,,,,,,SPECI,376.0
PATE 230936Z AUTO 24019KT 9SM OVC010 01/M01 A2977 RMK AO2 CIG 006V014 FZRANO,PATE,2022-10-23T09:36:00Z,65.23,-166.33,1.0,-1.0,240,19,,9.0,29.769686,,,TRUE,TRUE,,,,TRUE,,,OVC,1000,,,,,,,MVFR,,,,,,,,,,,,METAR,93.0
PASC 230936Z 10014KT 3SM BR OVC005 M07/M07 A3002 RMK AO2 I1001 T10671072 $,PASC,2022-10-23T09:36:00Z,70.2,-148.47,-6.7,-7.2,100,14,,3.0,30.02067,,,,TRUE,TRUE,,,,,BR,OVC,500,,,,,,,IFR,,,,,,,,,,,,METAR,17.0
PAIM 230936Z AUTO 15001KT 10SM SCT002 OVC042 M04/M04 A2994 RMK AO2 SLP163,PAIM,2022-10-23T09:36:00Z,66.0,-153.7,-4.0,-4.0,150,1,,10.0,29.940945,1016.3,,TRUE,TRUE,,,,,,,SCT,200,OVC,4200,,,,,VFR,,,,,,,,,,,,SPECI,309.0
KRKS 230936Z AUTO 25012KT 3/4SM -SN BR BKN004 OVC011 M01/M01 A2951 RMK AO2 P0000 T10111011,KRKS,2022-10-23T09:36:00Z,41.6,-109.07,-1.1,-1.1,250,12,,0.75,29.509842,,,TRUE,TRUE,,,,,,-SN BR,BKN,400,OVC,1100,,,,,LIFR,,,,,,0.005,,,,,,SPECI,2062.0
KNFE 230936Z AUTO 01010KT 10SM OVC007 17/13 A3011 RMK AO2 CIG 006V012 T01670133,KNFE,2022-10-23T09:36:00Z,36.7,-76.13,16.7,13.3,10,10,,10.0,30.109253,,,TRUE,TRUE,,,,,,,OVC,700,,,,,,,IFR,,,,,,,,,,,,SPECI,4.0
KCOE 230936Z AUTO 00000KT 10SM BKN021 03/02 A2978 RMK AO2 PNO $,KCOE,2022-10-23T09:36:00Z,47.77,-116.82,3.0,2.0,0,0,,10.0,29.778543,,,TRUE,TRUE,TRUE,,,,,,BKN,2100,,,,,,,MVFR,,,,,,,,,,,,SPECI,693.0
KAPS 230936Z AUTO 00000KT 1 1/4SM BR VV007 14/13 A3006 RMK AO2,KAPS,2022-10-23T09:36:00Z,30.08,-90.58,14.0,13.0,0,0,,1.25,30.059055,,,TRUE,TRUE,,,,,,BR,OVX,0,,,,,,,LIFR,,,,,,,,,,,700,METAR,1.0
CZCP 230936Z AUTO 32003KT 260V360 ////SM //// SCT004 BKN014 OVC021 M07/M09 A3012,CZCP,2022-10-23T09:36:00Z,70.17,-124.68,-7.0,-9.0,320,3,,,30.121063,,,TRUE,,,,,,,,SCT,400,BKN,1400,OVC,2100,,,,,,,,,,,,,,,SPECI,23.0
CYQZ 230936Z AUTO 29002KT 3/8SM FZFG VV003 M00/M00 A2995 RMK SLP172,CYQZ,2022-10-23T09:36:00Z,53.02,-122.52,0.0,0.0,290,2,,0.38,29.949802,1017.2,,TRUE,,,,,,,FZFG,OVX,0,,,,,,,LIFR,,,,,,,,,,,300,SPECI,548.0
PFSH 230935Z AUTO 19021KT 10SM BKN012 BKN028 OVC044 03/01 A2994 RMK AO2,PFSH,2022-10-23T09:35:00Z,64.37,-161.22,3.0,1.0,190,21,,10.0,29.940945,,,TRUE,TRUE,,,,,,,BKN,1200,BKN,2800,OVC,4400,,,MVFR,,,,,,,,,,,,METAR,6.0
PAUT 230935Z AUTO 22005KT 10SM OVC032 05/02 A3024 RMK AO2,PAUT,2022-10-23T09:35:00Z,54.13,-165.6,5.0,2.0,220,5,,10.0,30.239174,,,TRUE,TRUE,,,,,,,OVC,3200,,,,,,,VFR,,,,,,,,,,,,METAR,25.0
PANN 230935Z AUTO 00000KT 3/4SM BR VV003 M02/M02 A2993 RMK AO2 T10171017 TSNO,PANN,2022-10-23T09:35:00Z,64.55,-149.08,-1.7,-1.7,0,0,,0.75,29.929134,,,TRUE,TRUE,,,TRUE,,,BR,OVX,0,,,,,,,LIFR,,,,,,,,,,,300,METAR,110.0
PAKX 230935Z AUTO 17003KT 10SM CLR M02/M02 A2988 RMK AO2,PAKX,2022-10-23T09:35:00Z,60.2,-154.32,-2.0,-2.0,170,3,,10.0,29.878937,,,TRUE,TRUE,,,,,,,CLR,,,,,,,,VFR,,,,,,,,,,,,METAR,88.0
PADQ 230935Z AUTO 29014G21KT 10SM FEW027 BKN032 OVC090 06/01 A2978 RMK AO2 T00560011 TSNO,PADQ,2022-10-23T09:35:00Z,57.75,-152.5,5.6,1.1,290,14,21,10.0,29.778543,,,TRUE,TRUE,,,TRUE,,,,FEW,2700,BKN,3200,OVC,9000,,,VFR,,,,,,,,,,,,METAR,5.0
PAAD 230935Z AUTO 12012KT 10SM OVC007 M07/M08 A3002 RMK AO2 T10701077,PAAD,2022-10-23T09:35:00Z,70.13,-146.28,-7.0,-7.7,120,12,,10.0,30.02067,,,TRUE,TRUE,,,,,,,OVC,700,,,,,,,IFR,,,,,,,,,,,,METAR,8.0
KZPH 230935Z AUTO 01005KT 10SM CLR 14/13 A3009 RMK A02 T01360131,KZPH,2022-10-23T09:35:00Z,28.23,-82.15,13.6,13.1,10,5,,10.0,30.088583,,,TRUE,TRUE,,,,,,,CLR,,,,,,,,VFR,,,,,,,,,,,,METAR,26.0
KZER 230935Z AUTO 08005KT 10SM CLR 07/04 A3029 RMK AO2,KZER,2022-10-23T09:35:00Z,,,7.0,4.0,80,5,,10.0,30.28937,,,TRUE,TRUE,,,,,,,CLR,,,,,,,,VFR,,,,,,,,,,,,METAR,
KY70 230935Z AUTO 15006KT 10SM CLR 11/10 A3003 RMK AO2 T01080101,KY70,2022-10-23T09:35:00Z,42.93,-85.07,10.8,10.1,150,6,,10.0,30.029528,,,TRUE,TRUE,,,,,,,CLR,,,,,,,,VFR,,,,,,,,,,,,SPECI,247.0
KY63 230935Z AUTO 11009KT 10SM CLR 09/05 A2950 RMK AO2 T00940051,KY63,2022-10-23T09:35:00Z,45.98,-96.0,9.4,5.1,110,9,,10.0,29.500984,,,TRUE,TRUE,,,,,,,CLR,,,,,,,,VFR,,,,,,,,,,,,METAR,367.0
KY49 230935Z AUTO 00000KT 10SM CLR 06/05 A2958 RMK AO2 T00590054,KY49,2022-10-23T09:35:00Z,47.15,-94.65,5.9,5.4,0,0,,10.0,29.58071,,,TRUE,TRUE,,,,,,,CLR,,,,,,,,VFR,,,,,,,,,,,,METAR,413.0
KY31 230935Z AUTO 27006KT 10SM CLR 04/03 A3004 RMK AO2 T00410031 P0001,KY31,2022-10-23T09:35:00Z,44.25,-84.18,4.1,3.1,270,6,,10.0,30.041338,,,TRUE,TRUE,,,,,,,CLR,,,,,,,,VFR,,,,,,0.01,,,,,,SPECI,264.0
KY23 230935Z AUTO 00000KT 10SM CLR 11/10 A2972 RMK AO2 T01110102,KY23,2022-10-23T09:35:00Z,45.3,-91.63,11.1,10.2,0,0,,10.0,29.719488,,,TRUE,TRUE,,,,,,,CLR,,,,,,,,VFR,,,,,,,,,,,,METAR,322.0
KY19 230935Z AUTO 06011KT 10SM FEW014 SCT019 07/05 A2946 RMK AO2,KY19,2022-10-23T09:35:00Z,46.77,-100.9,7.0,5.0,60,11,,10.0,29.459646,,,TRUE,TRUE,,,,,,,FEW,1400,SCT,1900,,,,,VFR,,,,,,,,,,,,SPECI,591.0
KXSA 230935Z AUTO 33003KT 10SM CLR 10/10 A3020 RMK AO2 T01010101,KXSA,2022-10-23T09:35:00Z,37.87,-76.9,10.1,10.1,330,3,,10.0,30.200787,,,TRUE,TRUE,,,,,,,CLR,,,,,,,,VFR,,,,,,,,,,,,SPECI,41.0
KXNX 230935Z AUTO 00000KT 10SM FEW045 FEW055 10/10 A3016 RMK A01,KXNX,2022-10-23T09:35:00Z,36.38,-86.42,10.0,10.0,0,0,,10.0,30.159449,,,TRUE,TRUE,,,,,,,FEW,4500,FEW,5500,,,,,VFR,,,,,,,,,,,,SPECI,178.0
KXLL 230935Z AUTO 00000KT 10SM OVC030 06/05 A3030 RMK AO2,KXLL,2022-10-23T09:35:00Z,40.57,-75.48,6.0,5.0,0,0,,10.0,30.301182,,,TRUE,TRUE,,,,,,,OVC,3000,,,,,,,MVFR,,,,,,,,,,,,SPECI,118.0
KXER 230935Z AUTO 13011KT 10SM CLR 25/16 A2993 RMK A01,KXER,2022-10-23T09:35:00Z,,,25.0,16.0,130,11,,10.0,29.929134,,,TRUE,TRUE,,,,,,,CLR,,,,,,,,VFR,,,,,,,,,,,,METAR,
KXBP 230935Z AUTO 17007KT 10SM CLR 21/15 A2977 RMK AO2 T02090152,KXBP,2022-10-23T09:35:00Z,33.18,-97.83,20.9,15.2,170,7,,10.0,29.769686,,,TRUE,TRUE,,,,,,,CLR,,,,,,,,VFR,,,,,,,,,,,,METAR,256.0
KX60 230935Z AUTO 00000KT 10SM CLR 09/09 A3011 RMK AO2 T00940088,KX60,2022-10-23T09:35:00Z,29.35,-82.47,9.4,8.8,0,0,,10.0,30.109253,,,TRUE,TRUE,,,,,,,CLR,,,,,,,,VFR,,,,,,,,,,,,SPECI,21.0
KX26 230935Z AUTO 32004KT 10SM CLR 19/18 A3005 RMK AO2 T01850178,KX26,2022-10-23T09:35:00Z,27.82,-80.5,18.5,17.8,320,4,,10.0,30.050198,,,TRUE,TRUE,,,,,,,CLR,,,,,,,,VFR,,,,,,,,,,,,METAR,5.0
KX07 230935Z AUTO 01004KT 10SM CLR 16/16 A3007 RMK A01,KX07,2022-10-23T09:35:00Z,27.9,-81.62,16.0,16.0,10,4,,10.0,30.070866,,,TRUE,TRUE,,,,,,,CLR,,,,,,,,VFR,,,,,,,,,,,,SPECI,36.0
KWDR 230935Z AUTO 00000KT 10SM CLR 06/03 A3022 RMK AO2,KWDR,2022-10-23T09:35:00Z,33.98,-83.67,6.0,3.0,0,0,,10.0,30.221457,,,TRUE,TRUE,,,,,,,CLR,,,,,,,,VFR,,,,,,,,,,,,SPECI,280.0
KWDG 230935Z AUTO 19014G20KT 10SM CLR 22/12 A2957 RMK AO2,KWDG,2022-10-23T09:35:00Z,36.37,-97.78,22.0,12.0,190,14,20,10.0,29.568897,,,TRUE,TRUE,,,,,,,CLR,,,,,,,,VFR,,,,,,,,,,,,METAR,352.0
KWBF 230935Z AUTO 12013KT 10SM 24/15 A3002 RMK A01,KWBF,2022-10-23T09:35:00Z,26.93,-90.5,24.0,15.0,120,13,,10.0,30.02067,,,TRUE,TRUE,,,,,,,,,,,,,,,,,,,,,,,,,,,SPECI,40.0
KW81 230935Z AUTO 33004KT 10SM CLR 08/06 A3020 RMK AO1 T00760055,KW81,2022-10-23T09:35:00Z,37.18,-78.1,7.6,5.5,330,4,,10.0,30.200787,,,TRUE,TRUE,,,,,,,CLR,,,,,,,,VFR,,,,,,,,,,,,SPECI,121.0
KW78 230935Z AUTO 00000KT 10SM CLR 04/03 A3022 RMK AO1 T00400030,KW78,2022-10-23T09:35:00Z,36.7,-78.85,4.0,3.0,0,0,,10.0,30.221457,,,TRUE,TRUE,,,,,,,CLR,,,,,,,,VFR,,,,,,,,,,,,SPECI,120.0
KW31 230935Z AUTO 10SM CLR 08/07 A3019 RMK AO1 T00840068,KW31,2022-10-23T09:35:00Z,36.95,-78.18,8.4,6.8,,,,10.0,30.188976,,,TRUE,TRUE,,,,,,,CLR,,,,,,,,VFR,,,,,,,,,,,,SPECI,159.0
KW22 230935Z AUTO 24005KT 4SM HZ CLR 05/02 A3022 RMK AO2,KW22,2022-10-23T09:35:00Z,39.0,-80.27,5.0,2.0,240,5,,4.0,30.221457,,,TRUE,TRUE,,,,,,HZ,CLR,,,,,,,,MVFR,,,,,,,,,,,,METAR,497.0
KVYS 230935Z AUTO 15010KT 10SM CLR 16/11 A2986 RMK AO2 T01550112,KVYS,2022-10-23T09:35:00Z,41.35,-89.15,15.5,11.2,150,10,,10.0,29.861221,,,TRUE,TRUE,,,,,,,CLR,,,,,,,,VFR,,,,,,,,,,,,SPECI,198.0
KVWU 230935Z AUTO 07004KT 10SM CLR 06/03 A2959 RMK AO2,KVWU,2022-10-23T09:35:00Z,48.15,-94.52,6.0,3.0,70,4,,10.0,29.589567,,,TRUE,TRUE,,,,,,,CLR,,,,,,,,VFR,,,,,,,,,,,,SPECI,359.0
KVVV 230935Z 12007KT 10SM 08/04 A2948 RMK AO2,KVVV,2022-10-23T09:35:00Z,45.3,-96.42,8.0,4.0,120,7,,10.0,29.480314,,,,TRUE,,,,,,,,,,,,,,,,,,,,,,,,,,,METAR,334.0
KVVS 230935Z AUTO 07005KT 10SM CLR 09/02 A3022 RMK AO2 T00930020,KVVS,2022-10-23T09:35:00Z,39.95,-79.65,9.3,2.0,70,5,,10.0,30.221457,,,TRUE,TRUE,,,,,,,CLR,,,,,,,,VFR,,,,,,,,,,,,SPECI,386.0
KVUJ 230935Z AUTO 00000KT 10SM CLR 05/05 A3025 RMK AO2 T00500046,KVUJ,2022-10-23T09:35:00Z,35.42,-80.15,5.0,4.6,0,0,,10.0,30.250984,,,TRUE,TRUE,,,,,,,CLR,,,,,,,,VFR,,,,,,,,,,,,SPECI,174.0
KVTP 230935Z AUTO 24018G34KT 10SM SCT031 BKN044 OVC070 M06/M12 A2971 RMK AO2,KVTP,2022-10-23T09:35:00Z,37.5,-105.17,-6.0,-12.0,240,18,34,10.0,29.71063,,,TRUE,TRUE,,,,,,,SCT,3100,BKN,4400,OVC,7000,,,VFR,,,,,,,,,,,,SPECI,3086.0
KVTI 230935Z AUTO 14011KT 10SM CLR 17/11 A2970 RMK AO2 T01670105,KVTI,2022-10-23T09:35:00Z,42.22,-92.02,16.7,10.5,140,11,,10.0,29.698818,,,TRUE,TRUE,,,,,,,CLR,,,,,,,,VFR,,,,,,,,,,,,SPECI,256.0
KVQQ 230935Z AUTO 00000KT 10SM CLR 09/09 A3011 RMK AO2,KVQQ,2022-10-23T09:35:00Z,30.22,-81.88,9.0,9.0,0,0,,10.0,30.109253,,,TRUE,TRUE,,,,,,,CLR,,,,,,,,VFR,,,,,,,,,,,,METAR,21.0
KVPC 230935Z AUTO 00000KT 9SM OVC046 06/06 A3021 RMK AO2,KVPC,2022-10-23T09:35:00Z,34.1,-84.85,6.0,6.0,0,0,,9.0,30.209646,,,TRUE,TRUE,,,,,,,OVC,4600,,,,,,,VFR,,,,,,,,,,,,SPECI,234.0
KVLL 230935Z AUTO 00000KT 10SM CLR 10/08 A3013 RMK AO2 T00950080,KVLL,2022-10-23T09:35:00Z,42.55,-83.18,9.5,8.0,0,0,,10.0,30.129921,,,TRUE,TRUE,,,,,,,CLR,,,,,,,,VFR,,,,,,,,,,,,SPECI,214.0
KVKS 230935Z AUTO 15006G11KT 10SM FEW044 16/16 A3003 RMK A01,KVKS,2022-10-23T09:35:00Z,32.23,-90.93,16.0,16.0,150,6,11,10.0,30.029528,,,TRUE,TRUE,,,,,,,FEW,4400,,,,,,,VFR,,,,,,,,,,,,SPECI,31.0
KVJI 230935Z AUTO 10004KT 10SM CLR 07/01 A3023 RMK AO2 T00680008,KVJI,2022-10-23T09:35:00Z,36.68,-82.03,6.8,0.8,100,4,,10.0,30.230314,,,TRUE,TRUE,,,,,,,CLR,,,,,,,,VFR,,,,,,,,,,,,SPECI,636.0
KVHN 230935Z AUTO 21008KT 10SM CLR 16/08 A2986 RMK AO2 T01640077,KVHN,2022-10-23T09:35:00Z,31.07,-104.78,16.4,7.7,210,8,,10.0,29.861221,,,TRUE,TRUE,,,,,,,CLR,,,,,,,,VFR,,,,,,,,,,,,SPECI,1200.0
KVGC 230935Z AUTO 00000KT 7SM CLR 00/00 A3031 RMK AO2,KVGC,2022-10-23T09:35:00Z,42.85,-75.57,0.0,0.0,0,0,,7.0,30.31004,,,TRUE,TRUE,,,,,,,CLR,,,,,,,,VFR,,,,,,,,,,,,SPECI,346.0
KVES 230935Z AUTO 16004KT 10SM CLR 10/07 A3011 RMK AO2,KVES,2022-10-23T09:35:00Z,40.2,-84.53,10.0,7.0,160,4,,10.0,30.109253,,,TRUE,TRUE,,,,,,,CLR,,,,,,,,VFR,,,,,,,,,,,,METAR,308.0
KVDI 230935Z AUTO 00000KT 10SM CLR 10/05 A3015 RMK AO2,KVDI,2022-10-23T09:35:00Z,32.2,-82.37,10.0,5.0,0,0,,10.0,30.15059,,,TRUE,TRUE,,,,,,,CLR,,,,,,,,VFR,,,,,,,,,,,,SPECI,81.0
KVDF 230935Z AUTO 00000KT 10SM CLR 16/15 A3009 RMK AO2,KVDF,2022-10-23T09:35:00Z,28.02,-82.33,16.0,15.0,0,0,,10.0,30.088583,,,TRUE,TRUE,,,,,,,CLR,,,,,,,,VFR,,,,,,,,,,,,SPECI,5.0
KVCV 230935Z AUTO 20008KT 10SM BKN050 BKN055 11/07 A2981 RMK AO2,KVCV,2022-10-23T09:35:00Z,34.58,-117.38,11.0,7.0,200,8,,10.0,29.811024,,,TRUE,TRUE,,,,,,,BKN,5000,BKN,5500,,,,,VFR,,,,,,,,,,,,SPECI,871.0
KVAF 230935Z AUTO 18021KT 10SM CLR 26/15 A2993 RMK A01,KVAF,2022-10-23T09:35:00Z,27.35,-94.63,26.0,15.0,180,21,,10.0,29.929134,,,TRUE,TRUE,,,,,,,CLR,,,,,,,,VFR,,,,,,,,,,,,SPECI,38.0
KUYF 230935Z AUTO 00000KT 10SM CLR 07/06 A3015 RMK AO2,KUYF,2022-10-23T09:35:00Z,39.93,-83.47,7.0,6.0,0,0,,10.0,30.15059,,,TRUE,TRUE,,,,,,,CLR,,,,,,,,VFR,,,,,,,,,,,,SPECI,326.0
KUXL 230935Z AUTO 13005KT 10SM CLR 21/17 A2998 RMK AO2 T02070171,KUXL,2022-10-23T09:35:00Z,30.13,-93.38,20.7,17.1,130,5,,10.0,29.97933,,,TRUE,TRUE,,,,,,,CLR,,,,,,,,VFR,,,,,,,,,,,,SPECI,2.0
KUVA 230935Z AUTO 00000KT 10SM CLR 17/17 A2986 RMK AO2 T01710171,KUVA,2022-10-23T09:35:00Z,29.22,-99.75,17.1,17.1,0,0,,10.0,29.861221,,,TRUE,TRUE,,,,,,,CLR,,,,,,,,VFR,,,,,,,,,,,,SPECI,285.0
KUTA 230935Z AUTO 16010KT 10SM CLR 18/13 A3002 RMK AO2 T01770133 $,KUTA,2022-10-23T09:35:00Z,34.68,-90.35,17.7,13.3,160,10,,10.0,30.02067,,,TRUE,TRUE,TRUE,,,,,,CLR,,,,,,,,VFR,,,,,,,,,,,,SPECI,58.0
KUSE 230935Z AUTO 16006KT 10SM CLR 11/11 A3009 RMK AO2,KUSE,2022-10-23T09:35:00Z,41.62,-84.13,11.0,11.0,160,6,,10.0,30.088583,,,TRUE,TRUE,,,,,,,CLR,,,,,,,,VFR,,,,,,,,,,,,SPECI,237.0
KUOX 230935Z AUTO 15006KT 10SM CLR 15/12 A3008 RMK AO2 PWINO,KUOX,2022-10-23T09:35:00Z,34.38,-89.53,15.0,12.0,150,6,,10.0,30.079725,,,TRUE,TRUE,,,,,TRUE,,CLR,,,,,,,,VFR,,,,,,,,,,,,SPECI,123.0
KUNI 230935Z AUTO 00000KT 5SM -SN CLR 06/06 A3018 RMK AO2 T00590059,KUNI,2022-10-23T09:35:00Z,39.22,-82.23,5.9,5.9,0,0,,5.0,30.180119,,,TRUE,TRUE,,,,,,-SN,CLR,,,,,,,,MVFR,,,,,,,,,,,,METAR,232.0
KUMP 230935Z AUTO 16006KT 10SM CLR 16/12 A3006 RMK AO2 T01550120,KUMP,2022-10-23T09:35:00Z,39.93,-86.05,15.5,12.0,160,6,,10.0,30.059055,,,TRUE,TRUE,,,,,,,CLR,,,,,,,,VFR,,,,,,,,,,,,METAR,247.0
KULS 230935Z AUTO 22004KT 10SM CLR 15/07 A2947 RMK AO2,KULS,2022-10-23T09:35:00Z,37.6,-101.37,15.0,7.0,220,4,,10.0,29.471457,,,TRUE,TRUE,,,,,,,CLR,,,,,,,,VFR,,,,,,,,,,,,METAR,934.0
KULM 230935Z AUTO 14011KT 10SM CLR 14/07 A2956 RMK AO2,KULM,2022-10-23T09:35:00Z,44.32,-94.5,14.0,7.0,140,11,,10.0,29.56004,,,TRUE,TRUE,,,,,,,CLR,,,,,,,,VFR,,,,,,,,,,,,SPECI,305.0
KUKT 230935Z AUTO 00000KT 10SM OVC026 08/08 A3028 RMK A01,KUKT,2022-10-23T09:35:00Z,40.43,-75.38,8.0,8.0,0,0,,10.0,30.280512,,,TRUE,TRUE,,,,,,,OVC,2600,,,,,,,MVFR,,,,,,,,,,,,SPECI,156.0
KUKL 230935Z AUTO 19020G26KT 10SM CLR A2957 RMK AO2,KUKL,2022-10-23T09:35:00Z,38.3,-95.73,,,190,20,26,10.0,29.568897,,,TRUE,TRUE,,,,,,,CLR,,,,,,,,VFR,,,,,,,,,,,,SPECI,357.0
KUKF 230935Z AUTO 00000KT 10SM CLR 02/01 A3027 RMK AO2,KUKF,2022-10-23T09:35:00Z,36.22,-81.1,2.0,1.0,0,0,,10.0,30.268702,,,TRUE,TRUE,,,,,,,CLR,,,,,,,,VFR,,,,,,,,,,,,METAR,383.0
KUES 230935Z AUTO 16004KT 10SM CLR 13/10 A2990 RMK AO2,KUES,2022-10-23T09:35:00Z,43.05,-88.25,13.0,10.0,160,4,,10.0,29.899607,,,TRUE,TRUE,,,,,,,CLR,,,,,,,,VFR,,,,,,,,,,,,SPECI,273.0
KU68 230935Z AUTO 30013KT 10SM SCT028 BKN065 OVC085 05/01 A2942 RMK AO2,KU68,2022-10-23T09:35:00Z,44.92,-108.45,5.0,1.0,300,13,,10.0,29.421259,,,TRUE,TRUE,,,,,,,SCT,2800,BKN,6500,OVC,8500,,,VFR,,,,,,,,,,,,SPECI,1244.0
KU55 230935Z AUTO 00000KT 2SM BR 00/M00 A2961 RMK A01,KU55,2022-10-23T09:35:00Z,37.85,-112.38,0.0,0.0,0,0,,2.0,29.610237,,,TRUE,TRUE,,,,,,BR,,,,,,,,,,,,,,,,,,,,,METAR,2060.0
KU42 230935Z AUTO 31007KT 7SM BKN004 OVC008 01/01 A2961 RMK AO1 T00070007,KU42,2022-10-23T09:35:00Z,40.62,-111.98,0.7,0.7,310,7,,7.0,29.610237,,,TRUE,TRUE,,,,,,,BKN,400,OVC,800,,,,,LIFR,,,,,,,,,,,,METAR,1399.0
KTZR 230935Z AUTO 00000KT 10SM CLR 09/07 A3016 RMK AO2 T00930072,KTZR,2022-10-23T09:35:00Z,39.9,-83.13,9.3,7.2,0,0,,10.0,30.159449,,,TRUE,TRUE,,,,,,,CLR,,,,,,,,VFR,,,,,,,,,,,,SPECI,275.0
KTYQ 230935Z AUTO 17008KT 10SM CLR 14/10 A3005 RMK AO2 T01440102,KTYQ,2022-10-23T09:35:00Z,40.03,-86.25,14.4,10.2,170,8,,10.0,30.050198,,,TRUE,TRUE,,,,,,,CLR,,,,,,,,VFR,,,,,,,,,,,,SPECI,279.0
KTYL 230935Z AUTO 22020G32KT 10SM SCT038 12/05 A2975 RMK AO2,KTYL,2022-10-23T09:35:00Z,34.45,-110.12,12.0,5.0,220,20,32,10.0,29.749016,,,TRUE,TRUE,,,,,,,SCT,3800,,,,,,,VFR,,,,,,,,,,,,SPECI,1748.0
KTWT 230935Z AUTO 15011KT 10SM CLR 17/11 A3003 RMK AO2,KTWT,2022-10-23T09:35:00Z,37.55,-87.95,17.0,11.0,150,11,,10.0,30.029528,,,TRUE,TRUE,,,,,,,CLR,,,,,,,,VFR,,,,,,,,,,,,SPECI,113.0
KTWM 230935Z AUTO 03004KT 10SM CLR 07/06 A2969 RMK AO2,KTWM,2022-10-23T09:35:00Z,47.05,-91.75,7.0,6.0,30,4,,10.0,29.68996,,,TRUE,TRUE,,,,,,,CLR,,,,,,,,VFR,,,,,,,,,,,,METAR,331.0
KTVY 230935Z AUTO 04006KT 10SM BKN015 BKN026 OVC039 03/02 A2961 RMK AO2,KTVY,2022-10-23T09:35:00Z,40.62,-112.35,3.0,2.0,40,6,,10.0,29.610237,,,TRUE,TRUE,,,,,,,BKN,1500,BKN,2600,OVC,3900,,,MVFR,,,,,,,,,,,,METAR,1310.0
KTVI 230935Z AUTO 00000KT 10SM CLR 06/05 A3016 RMK AO2,KTVI,2022-10-23T09:35:00Z,30.9,-83.88,6.0,5.0,0,0,,10.0,30.159449,,,TRUE,TRUE,,,,,,,CLR,,,,,,,,VFR,,,,,,,,,,,,SPECI,74.0
KTTF 230935Z AUTO 15004KT 10SM CLR 11/08 A3010 RMK AO2 T01100083,KTTF,2022-10-23T09:35:00Z,41.93,-83.42,11.0,8.3,150,4,,10.0,30.100393,,,TRUE,TRUE,,,,,,,CLR,,,,,,,,VFR,,,,,,,,,,,,SPECI,186.0
KTTA 230935Z AUTO 00000KT 10SM CLR 06/06 A3018 RMK AO2 T00550055,KTTA,2022-10-23T09:35:00Z,35.58,-79.1,5.5,5.5,0,0,,10.0,30.180119,,,TRUE,TRUE,,,,,,,CLR,,,,,,,,VFR,,,,,,,,,,,,METAR,71.0
KTSP 230935Z AUTO 30012G21KT 9SM OVC047 08/01 A2982 RMK AO2,KTSP,2022-10-23T09:35:00Z,35.13,-118.43,8.0,1.0,300,12,21,9.0,29.819881,,,TRUE,TRUE,,,,,,,OVC,4700,,,,,,,VFR,,,,,,,,,,,,METAR,1209.0
KTRK 230935Z AUTO 00000KT 10SM CLR M07/M08 A2988 RMK AO2,KTRK,2022-10-23T09:35:00Z,39.32,-120.13,-7.0,-8.0,0,0,,10.0,29.878937,,,TRUE,TRUE,,,,,,,CLR,,,,,,,,VFR,,,,,,,,,,,,METAR,1800.0
KTQV 230935Z AUTO 36007KT 10SM CLR 12/08 A3018 RMK A01,KTQV,2022-10-23T09:35:00Z,36.0,-78.93,12.0,8.0,360,7,,10.0,30.180119,,,TRUE,TRUE,,,,,,,CLR,,,,,,,,VFR,,,,,,,,,,,,METAR,230.0
KTQK 230935Z AUTO 21010KT 10SM CLR 14/06 A2944 RMK AO2 T01350063,KTQK,2022-10-23T09:35:00Z,38.47,-100.88,13.5,6.3,210,10,,10.0,29.438976,,,TRUE,TRUE,,,,,,,CLR,,,,,,,,VFR,,,,,,,,,,,,SPECI,906.0
KTQH 230935Z AUTO 16010G22KT 10SM CLR 21/11 A2977 RMK AO2,KTQH,2022-10-23T09:35:00Z,35.93,-95.0,21.0,11.0,160,10,22,10.0,29.769686,,,TRUE,TRUE,,,,,,,CLR,,,,,,,,VFR,,,,,,,,,,,,METAR,265.0
KTOC 230935Z AUTO 33003KT 10SM CLR 07/04 A3021 RMK AO2 T00670041,KTOC,2022-10-23T09:35:00Z,34.6,-83.3,6.7,4.1,330,3,,10.0,30.209646,,,TRUE,TRUE,,,,,,,CLR,,,,,,,,VFR,,,,,,,,,,,,METAR,292.0
KTOB 230935Z AUTO 13010KT 10SM SCT080 13/08 A2966 RMK AO2,KTOB,2022-10-23T09:35:00Z,44.02,-92.82,13.0,8.0,130,10,,10.0,29.660433,,,TRUE,TRUE,,,,,,,SCT,8000,,,,,,,VFR,,,,,,,,,,,,SPECI,394.0
KTNU 230935Z AUTO 14012G17KT 10SM CLR 16/12 A2965 RMK A01,KTNU,2022-10-23T09:35:00Z,41.67,-93.02,16.0,12.0,140,12,17,10.0,29.648623,,,TRUE,TRUE,,,,,,,CLR,,,,,,,,VFR,,,,,,,,,,,,SPECI,287.0
KTMT 230935Z AUTO 00000KT 10SM SCT044 SCT050 M03/M05 A2982 RMK AO2 T10301046,KTMT,2022-10-23T09:35:00Z,39.47,-117.2,-3.0,-4.6,0,0,,10.0,29.819881,,,TRUE,TRUE,,,,,,,SCT,4400,SCT,5000,,,,,VFR,,,,,,,,,,,,METAR,1748.0
KTMK 230935Z AUTO 13003KT 10SM SCT024 SCT037 BKN047 06/05 A3000 RMK AO2,KTMK,2022-10-23T09:35:00Z,45.42,-123.82,6.0,5.0,130,3,,10.0,30.0,,,TRUE,TRUE,,,,,,,SCT,2400,SCT,3700,BKN,4700,,,VFR,,,,,,,,,,,,METAR,8.0
KTME 230935Z AUTO 17006KT 10SM FEW050 19/18 A2991 RMK AO2,KTME,2022-10-23T09:35:00Z,29.8,-95.9,19.0,18.0,170,6,,10.0,29.911417,,,TRUE,TRUE,,,,,,,FEW,5000,,,,,,,VFR,,,,,,,,,,,,METAR,49.0
KTKX 230935Z AUTO 18012KT 8SM CLR 18/13 A2995 RMK AO2 TSNO,KTKX,2022-10-23T09:35:00Z,36.22,-90.03,18.0,13.0,180,12,,8.0,29.949802,,,TRUE,TRUE,,,TRUE,,,,CLR,,,,,,,,VFR,,,,,,,,,,,,SPECI,73.0
KTKV 230935Z AUTO 00000KT 10SM CLR 10/08 A2981 RMK AO2 T01010084 PWINO,KTKV,2022-10-23T09:35:00Z,45.47,-89.82,10.1,8.4,0,0,,10.0,29.811024,,,TRUE,TRUE,,,,,TRUE,,CLR,,,,,,,,VFR,,,,,,,,,,,,METAR,449.0
KTKC 230935Z AUTO 16008KT 10SM 15/08 A2952 RMK AO2 T01450076,KTKC,2022-10-23T09:35:00Z,44.25,-95.62,14.5,7.6,160,8,,10.0,29.518702,,,TRUE,TRUE,,,,,,,,,,,,,,,,,,,,,,,,,,,SPECI,408.0
KTIP 230935Z AUTO 16010G15KT 10SM CLR 16/11 A2994 RMK AO2 T01570106,KTIP,2022-10-23T09:35:00Z,40.28,-88.15,15.7,10.6,160,10,15,10.0,29.940945,,,TRUE,TRUE,,,,,,,CLR,,,,,,,,VFR,,,,,,,,,,,,METAR,224.0
KTIF 230935Z AUTO 00000KT 10SM CLR 03/00 A2930 RMK AO2 T00321004,KTIF,2022-10-23T09:35:00Z,41.97,-100.57,3.2,-0.4,0,0,,10.0,29.300198,,,TRUE,TRUE,,,,,,,CLR,,,,,,,,VFR,,,,,,,,,,,,METAR,888.0
KTHA 230935Z AUTO 00000KT 10SM CLR 08/06 A3015 RMK A01,KTHA,2022-10-23T09:35:00Z,35.38,-86.25,8.0,6.0,0,0,,10.0,30.15059,,,TRUE,TRUE,,,,,,,CLR,,,,,,,,VFR,,,,,,,,,,,,METAR,333.0
KTEX 230935Z AUTO 19021G35KT 10SM -RA SCT027 BKN036 OVC050 05/M01 A2965 RMK AO2,KTEX,2022-10-23T09:35:00Z,37.95,-107.9,5.0,-1.0,190,21,35,10.0,29.648623,,,TRUE,TRUE,,,,,,-RA,SCT,2700,BKN,3600,OVC,5000,,,VFR,,,,,,,,,,,,SPECI,2760.0
KTEW 230935Z AUTO 18009KT 10SM CLR 13/09 A3007 RMK AO2 T01300093,KTEW,2022-10-23T09:35:00Z,42.57,-84.42,13.0,9.3,180,9,,10.0,30.070866,,,TRUE,TRUE,,,,,,,CLR,,,,,,,,VFR,,,,,,,,,,,,METAR,281.0
KTDF 230935Z AUTO 00000KT 10SM CLR 05/05 A3022 RMK AO2,KTDF,2022-10-23T09:35:00Z,36.28,-78.98,5.0,5.0,0,0,,10.0,30.221457,,,TRUE,TRUE,,,,,,,CLR,,,,,,,,VFR,,,,,,,,,,,,METAR,180.0
KTCY 230935Z AUTO 29010KT 10SM CLR 15/01 A2985 RMK A01,KTCY,2022-10-23T09:35:00Z,37.68,-121.43,15.0,1.0,290,10,,10.0,29.84941,,,TRUE,TRUE,,,,,,,CLR,,,,,,,,VFR,,,,,,,,,,,,METAR,51.0
KTBR 230935Z AUTO 00000KT 10SM CLR 06/05 A3015 RMK AO2 T00610049,KTBR,2022-10-23T09:35:00Z,32.48,-81.73,6.1,4.9,0,0,,10.0,30.15059,,,TRUE,TRUE,,,,,,,CLR,,,,,,,,VFR,,,,,,,,,,,,SPECI,54.0
KTAZ 230935Z AUTO 16011G18KT 10SM BKN075 17/11 A2988 RMK AO2 T01670106,KTAZ,2022-10-23T09:35:00Z,39.53,-89.33,16.7,10.6,160,11,18,10.0,29.878937,,,TRUE,TRUE,,,,,,,BKN,7500,,,,,,,VFR,,,,,,,,,,,,METAR,188.0
KT89 230935Z AUTO 10003KT 10SM CLR 21/04 A2980 RMK A01,KT89,2022-10-23T09:35:00Z,29.27,-103.68,21.0,4.0,100,3,,10.0,29.799213,,,TRUE,TRUE,,,,,,,CLR,,,,,,,,VFR,,,,,,,,,,,,SPECI,801.0
KT82 230935Z AUTO 19009G17KT 10SM OVC012 20/17 A2988 RMK AO2 T01970170,KT82,2022-10-23T09:35:00Z,30.25,-98.92,19.7,17.0,190,9,17,10.0,29.878937,,,TRUE,TRUE,,,,,,,OVC,1200,,,,,,,MVFR,,,,,,,,,,,,SPECI,509.0
KT78 230935Z AUTO 15004KT 10SM FEW048 19/18 A2992 RMK AO2,KT78,2022-10-23T09:35:00Z,30.08,-94.7,19.0,18.0,150,4,,10.0,29.920275,,,TRUE,TRUE,,,,,,,FEW,4800,,,,,,,VFR,,,,,,,,,,,,METAR,21.0
KT74 230935Z AUTO 19007KT 10SM CLR 20/18 A2986 RMK AO2 T01990176,KT74,2022-10-23T09:35:00Z,30.57,-97.45,19.9,17.6,190,7,,10.0,29.861221,,,TRUE,TRUE,,,,,,,CLR,,,,,,,,VFR,,,,,,,,,,,,SPECI,169.0
KT69 230935Z AUTO 19004KT 10SM FEW049 21/20 A2985 RMK A01,KT69,2022-10-23T09:35:00Z,28.03,-97.55,21.0,20.0,190,4,,10.0,29.84941,,,TRUE,TRUE,,,,,,,FEW,4900,,,,,,,VFR,,,,,,,,,,,,METAR,15.0
KT41 230935Z AUTO 10SM SCT043 OVC050 24/18 A2992 RMK AO2 T02360181,KT41,2022-10-23T09:35:00Z,29.67,-95.07,23.6,18.1,,,,10.0,29.920275,,,TRUE,TRUE,,,,,,,SCT,4300,OVC,5000,,,,,VFR,,,,,,,,,,,,SPECI,8.0
KT35 230935Z AUTO 19010KT 10SM CLR 21/18 A2986 RMK AO2 T02050175,KT35,2022-10-23T09:35:00Z,30.88,-96.97,20.5,17.5,190,10,,10.0,29.861221,,,TRUE,TRUE,,,,,,,CLR,,,,,,,,VFR,,,,,,,,,,,,METAR,122.0
KT20 230935Z AUTO 15004KT 10SM CLR 19/18 A2987 RMK AO2 T01910181,KT20,2022-10-23T09:35:00Z,29.52,-97.47,19.1,18.1,150,4,,10.0,29.870079,,,TRUE,TRUE,,,,,,,CLR,,,,,,,,VFR,,,,,,,,,,,,METAR,107.0
KSZY 230935Z AUTO 17009KT 10SM OVC055 16/11 A3008 RMK A01,KSZY,2022-10-23T09:35:00Z,35.2,-88.5,16.0,11.0,170,9,,10.0,30.079725,,,TRUE,TRUE,,,,,,,OVC,5500,,,,,,,VFR,,,,,,,,,,,,METAR,184.0
KSZT 230935Z AUTO 00000KT 10SM -DZ SCT036 BKN043 OVC050 03/02 A2978 RMK AO2,KSZT,2022-10-23T09:35:00Z,48.3,-116.57,3.0,2.0,0,0,,10.0,29.778543,,,TRUE,TRUE,,,,,,-DZ,SCT,3600,BKN,4300,OVC,5000,,,VFR,,,,,,,,,,,,SPECI,649.0
KSYN 230935Z AUTO 15011G15KT 10SM CLR 17/08 A2964 RMK AO2 T01700083,KSYN,2022-10-23T09:35:00Z,44.47,-93.02,17.0,8.3,150,11,15,10.0,29.639763,,,TRUE,TRUE,,,,,,,CLR,,,,,,,,VFR,,,,,,,,,,,,SPECI,280.0
KSYM 230935Z AUTO 14005KT 10SM FEW055 13/07 A3018 RMK AO2,KSYM,2022-10-23T09:35:00Z,38.22,-83.58,13.0,7.0,140,5,,10.0,30.180119,,,TRUE,TRUE,,,,,,,FEW,5500,,,,,,,VFR,,,,,,,,,,,,METAR,307.0
KSYI 230935Z AUTO 14004KT 10SM CLR 09/08 A3014 RMK A01,KSYI,2022-10-23T09:35:00Z,35.57,-86.45,9.0,8.0,140,4,,10.0,30.138779,,,TRUE,TRUE,,,,,,,CLR,,,,,,,,VFR,,,,,,,,,,,,METAR,244.0
KSYF 230935Z AUTO 21016KT 10SM CLR 19/M01 A2931 RMK AO2 T01851010 PWINO,KSYF,2022-10-23T09:35:00Z,39.77,-101.8,18.5,-1.0,210,16,,10.0,29.309055,,,TRUE,TRUE,,,,,TRUE,,CLR,,,,,,,,VFR,,,,,,,,,,,,METAR,1041.0
KSXU 230935Z AUTO 18015G19KT 10SM CLR 16/09 A2967 RMK AO2 LTG DSNT NW T01640090,KSXU,2022-10-23T09:35:00Z,34.93,-104.65,16.4,9.0,180,15,19,10.0,29.66929,,,TRUE,TRUE,,,,,,,CLR,,,,,,,,VFR,,,,,,,,,,,,METAR,1465.0
KSXK 230935Z AUTO 13015KT 10SM FEW024 14/11 A2946 RMK AO2,KSXK,2022-10-23T09:35:00Z,42.98,-96.17,14.0,11.0,130,15,,10.0,29.459646,,,TRUE,TRUE,,,,,,,FEW,2400,,,,,,,VFR,,,,,,,,,,,,SPECI,430.0
KSWW 230935Z AUTO 19017KT 10SM CLR 21/12 A2977 RMK AO2 T02100117,KSWW,2022-10-23T09:35:00Z,32.47,-100.47,21.0,11.7,190,17,,10.0,29.769686,,,TRUE,TRUE,,,,,,,CLR,,,,,,,,VFR,,,,,,,,,,,,SPECI,718.0
KSVH 230935Z AUTO 00000KT 10SM CLR 04/02 A3021 RMK AO2 T00350021,KSVH,2022-10-23T09:35:00Z,35.75,-80.95,3.5,2.1,0,0,,10.0,30.209646,,,TRUE,TRUE,,,,,,,CLR,,,,,,,,VFR,,,,,,,,,,,,SPECI,286.0
KSVE 230935Z AUTO 00000KT 10SM CLR M01/M06 A2990 RMK AO2,KSVE,2022-10-23T09:35:00Z,40.37,-120.57,-1.0,-6.0,0,0,,10.0,29.899607,,,TRUE,TRUE,,,,,,,CLR,,,,,,,,VFR,,,,,,,,,,,,METAR,1263.0
KSVC 230935Z AUTO 27005KT 10SM SCT027 SCT039 BKN110 16/14 A2985 RMK AO2 T01600142,KSVC,2022-10-23T09:35:00Z,32.63,-108.15,16.0,14.2,270,5,,10.0,29.84941,,,TRUE,TRUE,,,,,,,SCT,2700,SCT,3900,BKN,11000,,,VFR,,,,,,,,,,,,METAR,1638.0
KSUZ 230935Z AUTO 19010G16KT 10SM OVC033 20/16 A2993 RMK A01,KSUZ,2022-10-23T09:35:00Z,34.58,-92.48,20.0,16.0,190,10,16,10.0,29.929134,,,TRUE,TRUE,,,,,,,OVC,3300,,,,,,,VFR,,,,,,,,,,,,SPECI,114.0
KSUT 230935Z AUTO 36008KT 10SM CLR 15/09 A3010 RMK AO2 T01470085,KSUT,2022-10-23T09:35:00Z,33.93,-78.08,14.7,8.5,360,8,,10.0,30.100393,,,TRUE,TRUE,,,,,,,CLR,,,,,,,,VFR,,,,,,,,,,,,METAR,6.0
KSUN 230935Z AUTO 33006KT 10SM CLR 00/M04 A2963 RMK AO2,KSUN,2022-10-23T09:35:00Z,43.5,-114.28,0.0,-4.0,330,6,,10.0,29.630905,,,TRUE,TRUE,,,,,,,CLR,,,,,,,,VFR,,,,,,,,,,,,METAR,1619.0
KSUA 230935Z AUTO 30005KT 10SM CLR 20/18 A3004 RMK AO2 T01970175,KSUA,2022-10-23T09:35:00Z,27.18,-80.22,19.7,17.5,300,5,,10.0,30.041338,,,TRUE,TRUE,,,,,,,CLR,,,,,,,,VFR,,,,,,,,,,,,SPECI,4.0
KSTK 230935Z AUTO 14005KT 10SM CLR 06/M03 A2928 RMK AO2,KSTK,2022-10-23T09:35:00Z,40.62,-103.27,6.0,-3.0,140,5,,10.0,29.279528,,,TRUE,TRUE,,,,,,,CLR,,,,,,,,VFR,,,,,,,,,,,,SPECI,1228.0
KSTF 230935Z AUTO 00000KT 9SM CLR 12/12 A3008 RMK AO2,KSTF,2022-10-23T09:35:00Z,33.43,-88.85,12.0,12.0,0,0,,9.0,30.079725,,,TRUE,TRUE,,,,,,,CLR,,,,,,,,VFR,,,,,,,,,,,,SPECI,99.0
KSTE 230935Z AUTO 14005KT 10SM CLR 14/09 A2983 RMK AO2 T01420091,KSTE,2022-10-23T09:35:00Z,44.55,-89.53,14.2,9.1,140,5,,10.0,29.828741,,,TRUE,TRUE,,,,,,,CLR,,,,,,,,VFR,,,,,,,,,,,,SPECI,335.0
KSRR 230935Z AUTO 24015G27KT 10SM 14/07 A2983 RMK AO2,KSRR,2022-10-23T09:35:00Z,33.47,-105.52,14.0,7.0,240,15,27,10.0,29.828741,,,TRUE,TRUE,,,,,,,,,,,,,,,,,,,,,,,,,,,METAR,2063.0
KSRE 230935Z AUTO 10SM CLR 21/13 A2972 RMK AO2,KSRE,2022-10-23T09:35:00Z,35.27,-96.68,21.0,13.0,,,,10.0,29.719488,,,TRUE,TRUE,,,,,,,CLR,,,,,,,,VFR,,,,,,,,,,,,METAR,306.0
KSRB 230935Z AUTO 00000KT 10SM SCT047 07/06 A3017 RMK A01,KSRB,2022-10-23T09:35:00Z,36.05,-85.53,7.0,6.0,0,0,,10.0,30.171259,,,TRUE,TRUE,,,,,,,SCT,4700,,,,,,,VFR,,,,,,,,,,,,METAR,303.0
KSQL 230935Z AUTO 00000KT 10SM CLR 12/05 A2990 RMK AO2,KSQL,2022-10-23T09:35:00Z,37.52,-122.25,12.0,5.0,0,0,,10.0,29.899607,,,TRUE,TRUE,,,,,,,CLR,,,,,,,,VFR,,,,,,,,,,,,METAR,1.0
KSPF 230935Z AUTO 29004KT 10SM SCT100 SCT120 08/03 A2935 RMK AO2,KSPF,2022-10-23T09:35:00Z,44.47,-103.78,8.0,3.0,290,4,,10.0,29.350393,,,TRUE,TRUE,,,,,,,SCT,10000,SCT,12000,,,,,VFR,,,,,,,,,,,,SPECI,1191.0
KSOW 230935Z AUTO 22022G30KT 10SM CLR 10/05 A2977 RMK AO2,KSOW,2022-10-23T09:35:00Z,34.27,-110.0,10.0,5.0,220,22,30,10.0,29.769686,,,TRUE,TRUE,,,,,,,CLR,,,,,,,,VFR,,,,,,,,,,,,METAR,1954.0
KSOA 230935Z AUTO 17011KT 10SM 19/15 A2986 RMK AO2,KSOA,2022-10-23T09:35:00Z,30.58,-100.65,19.0,15.0,170,11,,10.0,29.861221,,,TRUE,TRUE,,,,,,,,,,,,,,,,,,,,,,,,,,,METAR,654.0
KSNL 230935Z AUTO 18016G23KT 10SM CLR 22/11 A2969 RMK AO2 T02160112,KSNL,2022-10-23T09:35:00Z,35.35,-96.95,21.6,11.2,180,16,23,10.0,29.68996,,,TRUE,TRUE,,,,,,,CLR,,,,,,,,VFR,,,,,,,,,,,,SPECI,327.0
KSNK 230935Z AUTO 18009KT 10SM CLR 19/11 A2975 RMK AO2 T01910109,KSNK,2022-10-23T09:35:00Z,32.7,-100.95,19.1,10.9,180,9,,10.0,29.749016,,,TRUE,TRUE,,,,,,,CLR,,,,,,,,VFR,,,,,,,,,,,,METAR,738.0
KSNC 230935Z AUTO 33003KT 10SM CLR 09/09 A3030 RMK AO2,KSNC,2022-10-23T09:35:00Z,41.38,-72.5,9.0,9.0,330,3,,10.0,30.301182,,,TRUE,TRUE,,,,,,,CLR,,,,,,,,VFR,,,,,,,,,,,,METAR,114.0
KSMS 230935Z AUTO 00000KT 10SM CLR 08/08 A3017 RMK AO2,KSMS,2022-10-23T09:35:00Z,34.0,-80.37,8.0,8.0,0,0,,10.0,30.171259,,,TRUE,TRUE,,,,,,,CLR,,,,,,,,VFR,,,,,,,,,,,,METAR,53.0
KSME 230935Z AUTO 00000KT 10SM CLR 09/09 A3016 RMK AO2,KSME,2022-10-23T09:35:00Z,37.05,-84.62,9.0,9.0,0,0,,10.0,30.159449,,,TRUE,TRUE,,,,,,,CLR,,,,,,,,VFR,,,,,,,,,,,,METAR,279.0
KSLO 230935Z AUTO 15009KT 10SM CLR 18/11 A2993 RMK AO2 T01820108,KSLO,2022-10-23T09:35:00Z,38.65,-88.97,18.2,10.8,150,9,,10.0,29.929134,,,TRUE,TRUE,,,,,,,CLR,,,,,,,,VFR,,,,,,,,,,,,SPECI,173.0
KSLH 230935Z AUTO 00000KT 7SM CLR 07/07 A2997 RMK AO2,KSLH,2022-10-23T09:35:00Z,45.65,-84.52,7.0,7.0,0,0,,7.0,29.970472,,,TRUE,TRUE,,,,,,,CLR,,,,,,,,VFR,,,,,,,,,,,,METAR,193.0
KSLB 230935Z AUTO 14013KT 10SM CLR 13/10 A2953 RMK AO2,KSLB,2022-10-23T09:35:00Z,42.6,-95.23,13.0,10.0,140,13,,10.0,29.530512,,,TRUE,TRUE,,,,,,,CLR,,,,,,,,VFR,,,,,,,,,,,,METAR,450.0
KSJX 230935Z AUTO 19006KT 10SM CLR 17/12 A2995 RMK AO2 T01700115,KSJX,2022-10-23T09:35:00Z,45.7,-85.57,17.0,11.5,190,6,,10.0,29.949802,,,TRUE,TRUE,,,,,,,CLR,,,,,,,,VFR,,,,,,,,,,,,SPECI,202.0
KSJS 230935Z AUTO 00000KT 10SM CLR 10/06 A3019 RMK AO2 T00980060,KSJS,2022-10-23T09:35:00Z,37.75,-82.63,9.8,6.0,0,0,,10.0,30.188976,,,TRUE,TRUE,,,,,,,CLR,,,,,,,,VFR,,,,,,,,,,,,METAR,359.0
KSIK 230935Z AUTO 17008G14KT 10SM CLR 18/12 A2997 RMK AO2,KSIK,2022-10-23T09:35:00Z,36.9,-89.57,18.0,12.0,170,8,14,10.0,29.970472,,,TRUE,TRUE,,,,,,,CLR,,,,,,,,VFR,,,,,,,,,,,,SPECI,95.0
KSIF 230935Z AUTO 00000KT 10SM CLR 02/02 A3024 RMK AO2 T00160016,KSIF,2022-10-23T09:35:00Z,36.43,-79.85,1.6,1.6,0,0,,10.0,30.239174,,,TRUE,TRUE,,,,,,,CLR,,,,,,,,VFR,,,,,,,,,,,,SPECI,206.0
KSHL 230935Z AUTO 13012KT 10SM CLR 14/11 A2948 RMK AO2,KSHL,2022-10-23T09:35:00Z,43.22,-95.83,14.0,11.0,130,12,,10.0,29.480314,,,TRUE,TRUE,,,,,,,CLR,,,,,,,,VFR,,,,,,,,,,,,METAR,430.0
KSHD 230935Z AUTO 29003KT 10SM CLR M01/M01 A3028 RMK AO2 T10071011,KSHD,2022-10-23T09:35:00Z,38.27,-78.9,-0.7,-1.1,290,3,,10.0,30.280512,,,TRUE,TRUE,,,,,,,CLR,,,,,,,,VFR,,,,,,,,,,,,SPECI,360.0
KSGS 230935Z AUTO 15004KT 10SM CLR 16/07 A2964 RMK AO2 T01630072,KSGS,2022-10-23T09:35:00Z,44.87,-93.03,16.3,7.2,150,4,,10.0,29.639763,,,TRUE,TRUE,,,,,,,CLR,,,,,,,,VFR,,,,,,,,,,,,METAR,250.0
KSFQ 230935Z AUTO 36006KT 10SM BKN013 14/13 A3014 RMK AO2 T01410125,KSFQ,2022-10-23T09:35:00Z,36.68,-76.6,14.1,12.5,360,6,,10.0,30.138779,,,TRUE,TRUE,,,,,,,BKN,1300,,,,,,,MVFR,,,,,,,,,,,,SPECI,19.0
KSEZ 230935Z AUTO 18016G28KT 10SM 13/08 A2971 RMK AO2,KSEZ,2022-10-23T09:35:00Z,34.85,-111.78,13.0,8.0,180,16,28,10.0,29.71063,,,TRUE,TRUE,,,,,,,,,,,,,,,,,,,,,,,,,,,SPECI,1455.0
KSEP 230935Z AUTO 18009KT 10SM CLR 20/16 A2982 RMK AO2 T01950162,KSEP,2022-10-23T09:35:00Z,32.22,-98.17,19.5,16.2,180,9,,10.0,29.819881,,,TRUE,TRUE,,,,,,,CLR,,,,,,,,VFR,,,,,,,,,,,,SPECI,399.0
KSEM 230935Z AUTO 15003KT 10SM SCT037 BKN047 07/07 A3014 RMK AO2,KSEM,2022-10-23T09:35:00Z,32.35,-86.98,7.0,7.0,150,3,,10.0,30.138779,,,TRUE,TRUE,,,,,,,SCT,3700,BKN,4700,,,,,VFR,,,,,,,,,,,,METAR,48.0
KSEF 230935Z AUTO 35005KT 10SM CLR 17/ A3006 RMK AO2 T0166////,KSEF,2022-10-23T09:35:00Z,27.45,-81.35,16.6,,350,5,,10.0,30.059055,,,TRUE,TRUE,,,,,,,CLR,,,,,,,,VFR,,,,,,,,,,,,SPECI,17.0
KSEE 230935Z AUTO 22006KT 1 3/4SM BR SCT008 BKN019 OVC032 16/15 A2981 RMK AO2,KSEE,2022-10-23T09:35:00Z,32.82,-116.97,16.0,15.0,220,6,,1.75,29.811024,,,TRUE,TRUE,,,,,,BR,SCT,800,BKN,1900,OVC,3200,,,IFR,,,,,,,,,,,,METAR,113.0
KSDC 230935Z AUTO 17004KT 10SM CLR 10/02 A3025 RMK AO2,KSDC,2022-10-23T09:35:00Z,43.23,-77.12,10.0,2.0,170,4,,10.0,30.250984,,,TRUE,TRUE,,,,,,,CLR,,,,,,,,VFR,,,,,,,,,,,,METAR,127.0
KSDA 230935Z AUTO 12005KT 10SM CLR 17/12 A2949 RMK AO2,KSDA,2022-10-23T09:35:00Z,40.75,-95.42,17.0,12.0,120,5,,10.0,29.489174,,,TRUE,TRUE,,,,,,,CLR,,,,,,,,VFR,,,,,,,,,,,,METAR,293.0
KSCX 230935Z AUTO 00000KT 10SM CLR 08/07 A3019 RMK A01,KSCX,2022-10-23T09:35:00Z,36.45,-84.58,8.0,7.0,0,0,,10.0,30.188976,,,TRUE,TRUE,,,,,,,CLR,,,,,,,,VFR,,,,,,,,,,,,METAR,462.0
KSCR 230935Z AUTO 32003KT 10SM CLR 07/07 A3020 RMK AO2 T00690069,KSCR,2022-10-23T09:35:00Z,35.7,-79.5,6.9,6.9,320,3,,10.0,30.200787,,,TRUE,TRUE,,,,,,,CLR,,,,,,,,VFR,,,,,,,,,,,,SPECI,182.0
KSCD 230935Z AUTO 00000KT 5SM BR BKN110 06/06 A3017 RMK AO2 T00550055,KSCD,2022-10-23T09:35:00Z,33.17,-86.3,5.5,5.5,0,0,,5.0,30.171259,,,TRUE,TRUE,,,,,,BR,BKN,11000,,,,,,,MVFR,,,,,,,,,,,,METAR,164.0
KSBS 230935Z AUTO 23009KT 200V260 5SM BKN005 BKN048 OVC065 02/02 A2947 RMK AO1 T00150015,KSBS,2022-10-23T09:35:00Z,40.52,-106.87,1.5,1.5,230,9,,5.0,29.471457,,,TRUE,TRUE,,,,,,,BKN,500,BKN,4800,OVC,6500,,,IFR,,,,,,,,,,,,METAR,2097.0
KSBO 230935Z AUTO 00000KT 10SM CLR 07/07 A3016 RMK AO2,KSBO,2022-10-23T09:35:00Z,32.62,-82.37,7.0,7.0,0,0,,10.0,30.159449,,,TRUE,TRUE,,,,,,,CLR,,,,,,,,VFR,,,,,,,,,,,,SPECI,98.0
KSAZ 230935Z AUTO 00000KT 10SM CLR 12/06 A2956 RMK AO2,KSAZ,2022-10-23T09:35:00Z,46.37,-94.8,12.0,6.0,0,0,,10.0,29.56004,,,TRUE,TRUE,,,,,,,CLR,,,,,,,,VFR,,,,,,,,,,,,METAR,391.0
KSAR 230935Z AUTO 17008G19KT 10SM CLR 19/11 A2991 RMK AO2 T01850108,KSAR,2022-10-23T09:35:00Z,38.15,-89.7,18.5,10.8,170,8,19,10.0,29.911417,,,TRUE,TRUE,,,,,,,CLR,,,,,,,,VFR,,,,,,,,,,,,SPECI,162.0
KSAA 230935Z AUTO 00000KT 7SM UP BKN003 OVC008 00/00 A2945 RMK AO2,KSAA,2022-10-23T09:35:00Z,41.45,-106.8,0.0,0.0,0,0,,7.0,29.450787,,,TRUE,TRUE,,,,,,UP,BKN,300,OVC,800,,,,,LIFR,,,,,,,,,,,,SPECI,2093.0
KS52 230935Z AUTO 00000KT 10SM BKN090 OVC120 M02/M06 A2985 RMK AO2 T10161060,KS52,2022-10-23T09:35:00Z,48.42,-120.15,-1.6,-6.0,0,0,,10.0,29.84941,,,TRUE,TRUE,,,,,,,BKN,9000,OVC,12000,,,,,VFR,,,,,,,,,,,,METAR,517.0
KS39 230935Z AUTO 00000KT 10SM SCT033 SCT041 BKN065 00/M01 A2990 RMK AO2,KS39,2022-10-23T09:35:00Z,44.28,-120.9,0.0,-1.0,0,0,,10.0,29.899607,,,TRUE,TRUE,,,,,,,SCT,3300,SCT,4100,BKN,6500,,,VFR,,,,,,,,,,,,SPECI,987.0
KS33 230935Z AUTO 16005KT 10SM SCT100 00/M01 A2992 RMK AO2,KS33,2022-10-23T09:35:00Z,44.67,-121.15,0.0,-1.0,160,5,,10.0,29.920275,,,TRUE,TRUE,,,,,,,SCT,10000,,,,,,,VFR,,,,,,,,,,,,SPECI,739.0
KS32 230935Z AUTO 03013KT 10SM BKN022 OVC027 06/06 A2952 RMK AO2 TSNO,KS32,2022-10-23T09:35:00Z,47.42,-98.1,6.0,6.0,30,13,,10.0,29.518702,,,TRUE,TRUE,,,TRUE,,,,BKN,2200,OVC,2700,,,,,MVFR,,,,,,,,,,,,SPECI,435.0
KS25 230935Z AUTO 08014G22KT 10SM OVC008 06/06 A2950 RMK AO2,KS25,2022-10-23T09:35:00Z,47.8,-103.25,6.0,6.0,80,14,22,10.0,29.500984,,,TRUE,TRUE,,,,,,,OVC,800,,,,,,,IFR,,,,,,,,,,,,SPECI,632.0
KS24 230935Z AUTO 17007KT 10SM CLR 14/08 A3013 RMK AO2,KS24,2022-10-23T09:35:00Z,,,14.0,8.0,170,7,,10.0,30.129921,,,TRUE,TRUE,,,,,,,CLR,,,,,,,,VFR,,,,,,,,,,,,SPECI,
KS21 230935Z AUTO 20005KT 10SM FEW050 SCT055 M02/M03 A2993 RMK AO2,KS21,2022-10-23T09:35:00Z,43.88,-121.45,-2.0,-3.0,200,5,,10.0,29.929134,,,TRUE,TRUE,,,,,,,FEW,5000,SCT,5500,,,,,VFR,,,,,,,,,,,,METAR,1269.0
KRZT 230935Z AUTO 00000KT 10SM CLR 10/07 A3016 RMK AO2 PWINO,KRZT,2022-10-23T09:35:00Z,39.43,-83.02,10.0,7.0,0,0,,10.0,30.159449,,,TRUE,TRUE,,,,,TRUE,,CLR,,,,,,,,VFR,,,,,,,,,,,,METAR,217.0
KRZR 230935Z AUTO 00000KT 7SM CLR 04/04 A3017 RMK A01,KRZR,2022-10-23T09:35:00Z,35.22,-84.8,4.0,4.0,0,0,,7.0,30.171259,,,TRUE,TRUE,,,,,,,CLR,,,,,,,,VFR,,,,,,,,,,,,METAR,259.0
KRZN 230935Z AUTO 16005KT 10SM CLR 15/07 A2967 RMK AO2 T01470073,KRZN,2022-10-23T09:35:00Z,45.82,-92.37,14.7,7.3,160,5,,10.0,29.66929,,,TRUE,TRUE,,,,,,,CLR,,,,,,,,VFR,,,,,,,,,,,,SPECI,301.0
KRZL 230935Z AUTO 16010G16KT 10SM BKN055 16/10 A2997 RMK AO2,KRZL,2022-10-23T09:35:00Z,40.95,-87.18,16.0,10.0,160,10,16,10.0,29.970472,,,TRUE,TRUE,,,,,,,BKN,5500,,,,,,,VFR,,,,,,,,,,,,SPECI,210.0
KRYW 230935Z AUTO 20011G17KT 10SM OVC014 21/17 A2987 RMK AO2 T02070173,KRYW,2022-10-23T09:35:00Z,30.5,-97.97,20.7,17.3,200,11,17,10.0,29.870079,,,TRUE,TRUE,,,,,,,OVC,1400,,,,,,,MVFR,,,,,,,,,,,,SPECI,370.0
KRYV 230935Z AUTO 16008KT 10SM CLR 15/10 A2986 RMK AO2 T01450104,KRYV,2022-10-23T09:35:00Z,43.17,-88.72,14.5,10.4,160,8,,10.0,29.861221,,,TRUE,TRUE,,,,,,,CLR,,,,,,,,VFR,,,,,,,,,,,,SPECI,249.0
KRWV 230935Z AUTO 16006KT 10SM CLR 19/17 A2988 RMK AO2 T01900169,KRWV,2022-10-23T09:35:00Z,30.52,-96.7,19.0,16.9,160,6,,10.0,29.878937,,,TRUE,TRUE,,,,,,,CLR,,,,,,,,VFR,,,,,,,,,,,,SPECI,116.0
KRVL 230935Z AUTO 00000KT 5SM BR CLR 01/00 A3029 RMK AO2,KRVL,2022-10-23T09:35:00Z,40.68,-77.63,1.0,0.0,0,0,,5.0,30.28937,,,TRUE,TRUE,,,,,,BR,CLR,,,,,,,,MVFR,,,,,,,,,,,,METAR,250.0
KRVJ 230935Z AUTO 34004KT 10SM CLR 06/05 A3014 RMK AO2 T00620053,KRVJ,2022-10-23T09:35:00Z,32.07,-82.15,6.2,5.3,340,4,,10.0,30.138779,,,TRUE,TRUE,,,,,,,CLR,,,,,,,,VFR,,,,,,,,,,,,METAR,60.0
KRVF 230935Z AUTO 17003KT 10SM FEW022 SCT032 OVC039 00/M00 A2962 RMK AO2,KRVF,2022-10-23T09:35:00Z,45.53,-112.3,0.0,0.0,170,3,,10.0,29.619095,,,TRUE,TRUE,,,,,,,FEW,2200,SCT,3200,OVC,3900,,,VFR,,,,,,,,,,,,METAR,1445.0
KRUQ 230935Z AUTO 00000KT 10SM CLR 03/02 A3021 RMK AO2 T00300023,KRUQ,2022-10-23T09:35:00Z,35.65,-80.52,3.0,2.3,0,0,,10.0,30.209646,,,TRUE,TRUE,,,,,,,CLR,,,,,,,,VFR,,,,,,,,,,,,SPECI,231.0
KRUG 230935Z AUTO 05023G29KT 10SM FEW011 SCT085 OVC110 06/06 A2956 RMK AO2,KRUG,2022-10-23T09:35:00Z,48.38,-100.02,6.0,6.0,50,23,29,10.0,29.56004,,,TRUE,TRUE,,,,,,,FEW,1100,SCT,8500,OVC,11000,,,VFR,,,,,,,,,,,,SPECI,469.0
KRTS 230935Z AUTO 07004KT 10SM CLR M01/M09 A2989 RMK AO2,KRTS,2022-10-23T09:35:00Z,39.67,-119.88,-1.0,-9.0,70,4,,10.0,29.890747,,,TRUE,TRUE,,,,,,,CLR,,,,,,,,VFR,,,,,,,,,,,,SPECI,1537.0
KRSV 230935Z AUTO 17012KT 10SM BKN070 OVC110 17/11 A3001 RMK AO2 T01700108,KRSV,2022-10-23T09:35:00Z,39.02,-87.65,17.0,10.8,170,12,,10.0,30.008858,,,TRUE,TRUE,,,,,,,BKN,7000,OVC,11000,,,,,VFR,,,,,,,,,,,,SPECI,139.0
KRSN 230935Z AUTO 16007KT 10SM CLR 18/15 A3002 RMK AO2 T01750145,KRSN,2022-10-23T09:35:00Z,32.52,-92.58,17.5,14.5,160,7,,10.0,30.02067,,,TRUE,TRUE,,,,,,,CLR,,,,,,,,VFR,,,,,,,,,,,,METAR,86.0
KRRT 230935Z AUTO 04010G15KT 10SM 08/06 A2964 RMK AO2,KRRT,2022-10-23T09:35:00Z,48.93,-95.33,8.0,6.0,40,10,15,10.0,29.639763,,,TRUE,TRUE,,,,,,,,,,,,,,,,,,,,,,,,,,,SPECI,327.0
KRQO 230935Z AUTO 18016KT CLR 21/12 A2965 RMK AO2 PWINO,KRQO,2022-10-23T09:35:00Z,35.47,-98.0,21.0,12.0,180,16,,,29.648623,,,TRUE,TRUE,,,,,TRUE,,CLR,,,,,,,,,,,,,,,,,,,,SPECI,431.0
KRQB 230935Z AUTO 00000KT 7SM CLR 09/08 A3000 RMK AO2 T00920083,KRQB,2022-10-23T09:35:00Z,43.72,-85.5,9.2,8.3,0,0,,7.0,30.0,,,TRUE,TRUE,,,,,,,CLR,,,,,,,,VFR,,,,,,,,,,,,SPECI,282.0
KRPJ 230935Z AUTO 16011KT 10SM CLR 14/12 A2986 RMK AO2 T01420124 TSNO,KRPJ,2022-10-23T09:35:00Z,41.88,-89.08,14.2,12.4,160,11,,10.0,29.861221,,,TRUE,TRUE,,,TRUE,,,,CLR,,,,,,,,VFR,,,,,,,,,,,,SPECI,234.0
KRPH 230935Z AUTO 15007KT 10SM CLR 21/13 A2972 RMK AO2 T02110128 $,KRPH,2022-10-23T09:35:00Z,33.12,-98.55,21.1,12.8,150,7,,10.0,29.719488,,,TRUE,TRUE,TRUE,,,,,,CLR,,,,,,,,VFR,,,,,,,,,,,,METAR,341.0
KRPD 230935Z AUTO 12008KT 10SM CLR 14/11 A2972 RMK AO2 T01430110,KRPD,2022-10-23T09:35:00Z,45.42,-91.77,14.3,11.0,120,8,,10.0,29.719488,,,TRUE,TRUE,,,,,,,CLR,,,,,,,,VFR,,,,,,,,,,,,METAR,334.0
KROX 230935Z AUTO 05009KT 10SM CLR 07/06 A2962 RMK AO2,KROX,2022-10-23T09:35:00Z,48.85,-95.7,7.0,6.0,50,9,,10.0,29.619095,,,TRUE,TRUE,,,,,,,CLR,,,,,,,,VFR,,,,,,,,,,,,METAR,320.0
KRNV 230935Z AUTO 17009KT 10SM CLR A3003 RMK AO2 TSNO,KRNV,2022-10-23T09:35:00Z,33.77,-90.75,,,170,9,,10.0,30.029528,,,TRUE,TRUE,,,TRUE,,,,CLR,,,,,,,,VFR,,,,,,,,,,,,SPECI,42.0
KRNP 230935Z AUTO 14004KT 10SM CLR 14/09 A3006 RMK AO2 T01370087,KRNP,2022-10-23T09:35:00Z,43.0,-84.13,13.7,8.7,140,4,,10.0,30.059055,,,TRUE,TRUE,,,,,,,CLR,,,,,,,,VFR,,,,,,,,,,,,SPECI,224.0
KRNH 230935Z AUTO 15006KT 10SM CLR 16/12 A2967 RMK AO2 T01590115,KRNH,2022-10-23T09:35:00Z,45.15,-92.53,15.9,11.5,150,6,,10.0,29.66929,,,TRUE,TRUE,,,,,,,CLR,,,,,,,,VFR,,,,,,,,,,,,SPECI,302.0
KRNC 230935Z AUTO 00000KT 10SM CLR 07/06 A3016 RMK A01,KRNC,2022-10-23T09:35:00Z,35.7,-85.85,7.0,6.0,0,0,,10.0,30.159449,,,TRUE,TRUE,,,,,,,CLR,,,,,,,,VFR,,,,,,,,,,,,METAR,310.0
KRMY 230935Z AUTO 15004KT 10SM CLR 14/10 A3005 RMK AO2 T01360096,KRMY,2022-10-23T09:35:00Z,42.25,-84.95,13.6,9.6,150,4,,10.0,30.050198,,,TRUE,TRUE,,,,,,,CLR,,,,,,,,VFR,,,,,,,,,,,,SPECI,285.0
KRMN 230935Z AUTO 35006KT 10SM CLR 10/08 A3025 RMK AO2 T01000075,KRMN,2022-10-23T09:35:00Z,38.4,-77.45,10.0,7.5,350,6,,10.0,30.250984,,,TRUE,TRUE,,,,,,,CLR,,,,,,,,VFR,,,,,,,,,,,,SPECI,50.0
KRLD 230935Z AUTO 27006KT 10SM BKN100 OVC120 08/02 A2984 RMK AO2 T00800021,KRLD,2022-10-23T09:35:00Z,46.3,-119.3,8.0,2.1,270,6,,10.0,29.840551,,,TRUE,TRUE,,,,,,,BKN,10000,OVC,12000,,,,,VFR,,,,,,,,,,,,SPECI,118.0
KRKR 230935Z AUTO 18016G22KT 10SM CLR 21/13 A2981 RMK AO2,KRKR,2022-10-23T09:35:00Z,35.02,-94.62,21.0,13.0,180,16,22,10.0,29.811024,,,TRUE,TRUE,,,,,,,CLR,,,,,,,,VFR,,,,,,,,,,,,METAR,136.0
KRHP 230935Z AUTO 00000KT 10SM CLR 01/00 A3023 RMK AO2 T00090002,KRHP,2022-10-23T09:35:00Z,35.18,-83.85,0.9,0.2,0,0,,10.0,30.230314,,,TRUE,TRUE,,,,,,,CLR,,,,,,,,VFR,,,,,,,,,,,,SPECI,515.0
KRGK 230935Z AUTO 13004KT 10SM CLR 17/08 A2966 RMK AO2,KRGK,2022-10-23T09:35:00Z,44.58,-92.48,17.0,8.0,130,4,,10.0,29.660433,,,TRUE,TRUE,,,,,,,CLR,,,,,,,,VFR,,,,,,,,,,,,METAR,238.0
KRGA 230935Z AUTO 00000KT 10SM CLR 15/08 A3018 RMK AO2,KRGA,2022-10-23T09:35:00Z,37.63,-84.33,15.0,8.0,0,0,,10.0,30.180119,,,TRUE,TRUE,,,,,,,CLR,,,,,,,,VFR,,,,,,,,,,,,SPECI,301.0
KRFI 230935Z AUTO 15007KT 10SM CLR 21/15 A2992 RMK AO2 T02110150,KRFI,2022-10-23T09:35:00Z,32.15,-94.85,21.1,15.0,150,7,,10.0,29.920275,,,TRUE,TRUE,,,,,,,CLR,,,,,,,,VFR,,,,,,,,,,,,SPECI,133.0
KREG 230935Z AUTO 00000KT 10SM SCT044 18/16 A3004 RMK AO2 T01760159,KREG,2022-10-23T09:35:00Z,30.17,-90.93,17.6,15.9,0,0,,10.0,30.041338,,,TRUE,TRUE,,,,,,,SCT,4400,,,,,,,VFR,,,,,,,,,,,,SPECI,3.0
KRDK 230935Z AUTO 15012G19KT CLR 18/12 A2951 RMK AO2,KRDK,2022-10-23T09:35:00Z,41.02,-95.27,18.0,12.0,150,12,19,,29.509842,,,TRUE,TRUE,,,,,,,CLR,,,,,,,,,,,,,,,,,,,,METAR,317.0
KRCZ 230935Z AUTO 00000KT 10SM CLR 10/09 A3018 RMK AO2 T00970085,KRCZ,2022-10-23T09:35:00Z,34.88,-79.77,9.7,8.5,0,0,,10.0,30.180119,,,TRUE,TRUE,,,,,,,CLR,,,,,,,,VFR,,,,,,,,,,,,SPECI,110.0
KRCX 230935Z AUTO 14005KT 10SM CLR 16/12 A2976 RMK AO2 T01560115,KRCX,2022-10-23T09:35:00Z,45.5,-91.0,15.6,11.5,140,5,,10.0,29.760826,,,TRUE,TRUE,,,,,,,CLR,,,,,,,,VFR,,,,,,,,,,,,METAR,373.0
KRCV 230935Z AUTO 24028G36KT 10SM -RA SCT028 SCT050 BKN120 08/00 A2964 RMK AO2 T00821005,KRCV,2022-10-23T09:35:00Z,37.72,-106.35,8.2,-0.5,240,28,36,10.0,29.639763,,,TRUE,TRUE,,,,,,-RA,SCT,2800,SCT,5000,BKN,12000,,,VFR,,,,,,,,,,,,METAR,2418.0
KRCR 230935Z AUTO 16007KT 10SM CLR 15/11 A3001 RMK AO2,KRCR,2022-10-23T09:35:00Z,41.07,-86.18,15.0,11.0,160,7,,10.0,30.008858,,,TRUE,TRUE,,,,,,,CLR,,,,,,,,VFR,,,,,,,,,,,,METAR,240.0
KRCM 230935Z AUTO 15011G16KT 10SM CLR 19/11 A2964 RMK AO2,KRCM,2022-10-23T09:35:00Z,38.78,-93.8,19.0,11.0,150,11,16,10.0,29.639763,,,TRUE,TRUE,,,,,,,CLR,,,,,,,,VFR,,,,,,,,,,,,SPECI,242.0
KRCE 230935Z AUTO 19018G26KT 10SM CLR 21/12 A2963 RMK AO2,KRCE,2022-10-23T09:35:00Z,35.48,-97.82,21.0,12.0,190,18,26,10.0,29.630905,,,TRUE,TRUE,,,,,,,CLR,,,,,,,,VFR,,,,,,,,,,,,SPECI,412.0
KRBW 230935Z AUTO 00000KT 10SM CLR 08/08 A3015 RMK AO2,KRBW,2022-10-23T09:35:00Z,32.92,-80.63,8.0,8.0,0,0,,10.0,30.15059,,,TRUE,TRUE,,,,,,,CLR,,,,,,,,VFR,,,,,,,,,,,,METAR,30.0
KRBO 230935Z AUTO 10SM CLR 22/20 A2985 RMK AO2 T02200195,KRBO,2022-10-23T09:35:00Z,27.78,-97.68,22.0,19.5,,,,10.0,29.84941,,,TRUE,TRUE,,,,,,,CLR,,,,,,,,VFR,,,,,,,,,,,,METAR,24.0
KRAW 230935Z AUTO 19011G19KT 10SM CLR 20/12 A2970 RMK AO2,KRAW,2022-10-23T09:35:00Z,38.35,-93.35,20.0,12.0,190,11,19,10.0,29.698818,,,TRUE,TRUE,,,,,,,CLR,,,,,,,,VFR,,,,,,,,,,,,SPECI,285.0
KRAS 230935Z AUTO 16013KT 10SM CLR A2987 RMK AO2,KRAS,2022-10-23T09:35:00Z,27.82,-97.08,,,160,13,,10.0,29.870079,,,TRUE,TRUE,,,,,,,CLR,,,,,,,,VFR,,,,,,,,,,,,SPECI,3.0
KPZZ 230935Z AUTO 13018KT 10SM CLR 24/16 A3002 RMK A01,KPZZ,2022-10-23T09:35:00Z,28.43,-91.03,24.0,16.0,130,18,,10.0,30.02067,,,TRUE,TRUE,,,,,,,CLR,,,,,,,,VFR,,,,,,,,,,,,METAR,25.0
KPZQ 230935Z AUTO 16004KT 10SM CLR 14/10 A3002 RMK AO2 T01350095,KPZQ,2022-10-23T09:35:00Z,45.4,-83.82,13.5,9.5,160,4,,10.0,30.02067,,,TRUE,TRUE,,,,,,,CLR,,,,,,,,VFR,,,,,,,,,,,,METAR,199.0
KPYX 230935Z AUTO 23015KT 10SM CLR 20/09 A2955 RMK AO2 T02000091,KPYX,2022-10-23T09:35:00Z,36.42,-100.75,20.0,9.1,230,15,,10.0,29.551182,,,TRUE,TRUE,,,,,,,CLR,,,,,,,,VFR,,,,,,,,,,,,SPECI,890.0
KPXE 230935Z AUTO 00000KT 10SM CLR 04/03 A3018 RMK AO2 T00370031,KPXE,2022-10-23T09:35:00Z,32.52,-83.77,3.7,3.1,0,0,,10.0,30.180119,,,TRUE,TRUE,,,,,,,CLR,,,,,,,,VFR,,,,,,,,,,,,METAR,126.0
KPWD 230935Z AUTO 07021KT 10SM OVC008 04/03 A2953 RMK AO2,KPWD,2022-10-23T09:35:00Z,48.78,-104.52,4.0,3.0,70,21,,10.0,29.530512,,,TRUE,TRUE,,,,,,,OVC,800,,,,,,,IFR,,,,,,,,,,,,METAR,690.0
KPWC 230935Z AUTO 14003KT 10SM CLR 08/06 A2962 RMK AO2,KPWC,2022-10-23T09:35:00Z,46.72,-94.38,8.0,6.0,140,3,,10.0,29.619095,,,TRUE,TRUE,,,,,,,CLR,,,,,,,,VFR,,,,,,,,,,,,METAR,394.0
KPVJ 230935Z AUTO 17009G17KT 10SM CLR 21/14 A2971 RMK AO2 T02120137,KPVJ,2022-10-23T09:35:00Z,34.72,-97.22,21.2,13.7,170,9,17,10.0,29.71063,,,TRUE,TRUE,,,,,,,CLR,,,,,,,,VFR,,,,,,,,,,,,METAR,287.0
KPVF 230935Z AUTO 08007KT 10SM CLR 08/M05 A2983 RMK AO1,KPVF,2022-10-23T09:35:00Z,38.72,-120.75,8.0,-5.0,80,7,,10.0,29.828741,,,TRUE,TRUE,,,,,,,CLR,,,,,,,,VFR,,,,,,,,,,,,METAR,788.0
KPVB 230935Z AUTO 13009KT 10SM CLR 15/12 A2980 RMK AO1 T01530117,KPVB,2022-10-23T09:35:00Z,42.68,-90.43,15.3,11.7,130,9,,10.0,29.799213,,,TRUE,TRUE,,,,,,,CLR,,,,,,,,VFR,,,,,,,,,,,,SPECI,311.0
KPUJ 230935Z AUTO 00000KT 7SM CLR 10/03 A3019 RMK AO2,KPUJ,2022-10-23T09:35:00Z,33.92,-84.93,10.0,3.0,0,0,,7.0,30.188976,,,TRUE,TRUE,,,,,,,CLR,,,,,,,,VFR,,,,,,,,,,,,METAR,385.0
KPTT 230935Z AUTO 18011KT 10SM CLR 20/08 A2949 RMK AO2 T01970080,KPTT,2022-10-23T09:35:00Z,37.7,-98.75,19.7,8.0,180,11,,10.0,29.489174,,,TRUE,TRUE,,,,,,,CLR,,,,,,,,VFR,,,,,,,,,,,,METAR,594.0
KPTS 230935Z AUTO 19017G27KT 10SM BKN120 22/13 A2965 RMK AO2 T02180133 PWINO,KPTS,2022-10-23T09:35:00Z,37.45,-94.73,21.8,13.3,190,17,27,10.0,29.648623,,,TRUE,TRUE,,,,,TRUE,,BKN,12000,,,,,,,VFR,,,,,,,,,,,,METAR,286.0
KPTD 230935Z AUTO 16003KT 10SM BKN070 09/02 A3027 RMK AO2,KPTD,2022-10-23T09:35:00Z,44.68,-74.95,9.0,2.0,160,3,,10.0,30.268702,,,TRUE,TRUE,,,,,,,BKN,7000,,,,,,,VFR,,,,,,,,,,,,SPECI,144.0
KPSO 230935Z AUTO 23022G33KT 10SM CLR 11/01 A2972 RMK AO2 LTG DSNT SE T01090012,KPSO,2022-10-23T09:35:00Z,37.28,-107.05,10.9,1.2,230,22,33,10.0,29.719488,,,TRUE,TRUE,,,,,,,CLR,,,,,,,,VFR,,,,,,,,,,,,SPECI,2332.0
KPSN 230935Z AUTO 15007KT 10SM OVC045 20/18 A2988 RMK AO2,KPSN,2022-10-23T09:35:00Z,31.78,-95.7,20.0,18.0,150,7,,10.0,29.878937,,,TRUE,TRUE,,,,,,,OVC,4500,,,,,,,VFR,,,,,,,,,,,,METAR,124.0
KPSK 230935Z AUTO 00000KT 10SM CLR 01/01 A3024 RMK AO2 T00100010,KPSK,2022-10-23T09:35:00Z,37.13,-80.67,1.0,1.0,0,0,,10.0,30.239174,,,TRUE,TRUE,,,,,,,CLR,,,,,,,,VFR,,,,,,,,,,,,SPECI,629.0
KPRS 230935Z AUTO 05005KT 10SM CLR 20/08 A2982 RMK AO2 T02030080,KPRS,2022-10-23T09:35:00Z,29.63,-104.35,20.3,8.0,50,5,,10.0,29.819881,,,TRUE,TRUE,,,,,,,CLR,,,,,,,,VFR,,,,,,,,,,,,SPECI,890.0
KPRO 230935Z AUTO 12010KT 10SM CLR 16/11 A2958 RMK AO2 T01590107,KPRO,2022-10-23T09:35:00Z,41.83,-94.17,15.9,10.7,120,10,,10.0,29.58071,,,TRUE,TRUE,,,,,,,CLR,,,,,,,,VFR,,,,,,,,,,,,SPECI,308.0
KPRG 230935Z AUTO 16015KT 10SM OVC065 18/12 A2999 RMK AO2 T01750120,KPRG,2022-10-23T09:35:00Z,39.7,-87.67,17.5,12.0,160,15,,10.0,29.991142,,,TRUE,TRUE,,,,,,,OVC,6500,,,,,,,VFR,,,,,,,,,,,,SPECI,197.0
KPPQ 230935Z AUTO 14008KT 10SM SCT070 SCT095 17/13 A2981 RMK AO2 T01710126,KPPQ,2022-10-23T09:35:00Z,39.63,-90.78,17.1,12.6,140,8,,10.0,29.811024,,,TRUE,TRUE,,,,,,,SCT,7000,SCT,9500,,,,,VFR,,,,,,,,,,,,METAR,215.0
KPPO 230935Z AUTO 16005KT 10SM CLR 14/12 A2998 RMK AO2 T01410123,KPPO,2022-10-23T09:35:00Z,41.57,-86.73,14.1,12.3,160,5,,10.0,29.97933,,,TRUE,TRUE,,,,,,,CLR,,,,,,,,VFR,,,,,,,,,,,,METAR,242.0
KPPA 230935Z AUTO 21018G23KT 10SM CLR 20/12 A2962 RMK AO2 T02000118,KPPA,2022-10-23T09:35:00Z,35.62,-101.0,20.0,11.8,210,18,23,10.0,29.619095,,,TRUE,TRUE,,,,,,,CLR,,,,,,,,VFR,,,,,,,,,,,,METAR,989.0
KPOY 230935Z AUTO 34020G26KT 10SM OVC075 01/00 A2943 RMK AO2,KPOY,2022-10-23T09:35:00Z,44.87,-108.8,1.0,0.0,340,20,26,10.0,29.430119,,,TRUE,TRUE,,,,,,,OVC,7500,,,,,,,VFR,,,,,,,,,,,,METAR,1547.0
KPOV 230935Z AUTO 11005KT 10SM CLR 08/04 A3019 RMK AO2 T00780040 PWINO,KPOV,2022-10-23T09:35:00Z,41.22,-81.25,7.8,4.0,110,5,,10.0,30.188976,,,TRUE,TRUE,,,,,TRUE,,CLR,,,,,,,,VFR,,,,,,,,,,,,METAR,363.0
KPNT 230935Z AUTO 15012KT 10SM CLR 16/13 A2990 RMK AO2 T01550126,KPNT,2022-10-23T09:35:00Z,40.92,-88.62,15.5,12.6,150,12,,10.0,29.899607,,,TRUE,TRUE,,,,,,,CLR,,,,,,,,VFR,,,,,,,,,,,,SPECI,199.0
KPNM 230935Z AUTO 11004KT 10SM CLR 13/08 A2962 RMK AO2 TSNO,KPNM,2022-10-23T09:35:00Z,45.53,-93.6,13.0,8.0,110,4,,10.0,29.619095,,,TRUE,TRUE,,,TRUE,,,,CLR,,,,,,,,VFR,,,,,,,,,,,,SPECI,298.0
KPNA 230935Z AUTO 31009KT 10SM BKN120 M01/M05 A2952 RMK AO2,KPNA,2022-10-23T09:35:00Z,42.8,-109.8,-1.0,-5.0,310,9,,10.0,29.518702,,,TRUE,TRUE,,,,,,,BKN,12000,,,,,,,VFR,,,,,,,,,,,,METAR,2158.0
KPMV 230935Z AUTO 14010G17KT 10SM CLR 17/13 A2947 RMK AO2 T01670125,KPMV,2022-10-23T09:35:00Z,40.95,-95.92,16.7,12.5,140,10,17,10.0,29.471457,,,TRUE,TRUE,,,,,,,CLR,,,,,,,,VFR,,,,,,,,,,,,METAR,365.0
KPMU 230935Z AUTO 00000KT 10SM FEW060 13/12 A3005 RMK AO2,KPMU,2022-10-23T09:35:00Z,34.37,-89.9,13.0,12.0,0,0,,10.0,30.050198,,,TRUE,TRUE,,,,,,,FEW,6000,,,,,,,VFR,,,,,,,,,,,,METAR,67.0
KPMH 230935Z AUTO 00000KT 10SM CLR 08/06 A3019 RMK AO2 T00840060,KPMH,2022-10-23T09:35:00Z,38.83,-82.85,8.4,6.0,0,0,,10.0,30.188976,,,TRUE,TRUE,,,,,,,CLR,,,,,,,,VFR,,,,,,,,,,,,SPECI,200.0
KPLU 230935Z AUTO 00000KT 4SM -DZ FEW015 BKN019 OVC036 05/05 A2995 RMK AO2,KPLU,2022-10-23T09:35:00Z,47.1,-122.28,5.0,5.0,0,0,,4.0,29.949802,,,TRUE,TRUE,,,,,,-DZ,FEW,1500,BKN,1900,OVC,3600,,,MVFR,,,,,,,,,,,,METAR,164.0
KPLR 230935Z AUTO 00000KT 6SM BR FEW022 BKN037 BKN045 06/06 A3018 RMK A01,KPLR,2022-10-23T09:35:00Z,33.57,-86.25,6.0,6.0,0,0,,6.0,30.180119,,,TRUE,TRUE,,,,,,BR,FEW,2200,BKN,3700,BKN,4500,,,VFR,,,,,,,,,,,,SPECI,145.0
KPIM 230935Z AUTO 00000KT 10SM CLR 07/05 A3019 RMK AO2 T00650045,KPIM,2022-10-23T09:35:00Z,32.83,-84.88,6.5,4.5,0,0,,10.0,30.188976,,,TRUE,TRUE,,,,,,,CLR,,,,,,,,VFR,,,,,,,,,,,,METAR,274.0
KPIB 230935Z AUTO 00000KT 10SM CLR 12/11 A3011 RMK AO2 PNO $,KPIB,2022-10-23T09:35:00Z,31.47,-89.33,12.0,11.0,0,0,,10.0,30.109253,,,TRUE,TRUE,TRUE,,,,,,CLR,,,,,,,,VFR,,,,,,,,,,,,METAR,91.0
KPHT 230935Z AUTO 17011KT 10SM OVC060 18/11 A3005 RMK A01,KPHT,2022-10-23T09:35:00Z,36.33,-88.38,18.0,11.0,170,11,,10.0,30.050198,,,TRUE,TRUE,,,,,,,OVC,6000,,,,,,,VFR,,,,,,,,,,,,METAR,172.0
KPHN 230935Z AUTO 00000KT 10SM CLR 09/07 A3012 RMK AO2,KPHN,2022-10-23T09:35:00Z,42.92,-82.52,9.0,7.0,0,0,,10.0,30.121063,,,TRUE,TRUE,,,,,,,CLR,,,,,,,,VFR,,,,,,,,,,,,SPECI,195.0
KPGV 230935Z AUTO 36006KT 10SM CLR 12/12 A3012 RMK AO2,KPGV,2022-10-23T09:35:00Z,35.63,-77.4,12.0,12.0,360,6,,10.0,30.121063,,,TRUE,TRUE,,,,,,,CLR,,,,,,,,VFR,,,,,,,,,,,,SPECI,6.0
KPEZ 230935Z AUTO 16005KT 10SM CLR 20/18 A2986 RMK AO2 T02010183,KPEZ,2022-10-23T09:35:00Z,28.95,-98.52,20.1,18.3,160,5,,10.0,29.861221,,,TRUE,TRUE,,,,,,,CLR,,,,,,,,VFR,,,,,,,,,,,,SPECI,126.0
KPEX 230935Z AUTO 12006KT 10SM CLR 13/07 A2958 RMK AO2,KPEX,2022-10-23T09:35:00Z,45.37,-94.73,13.0,7.0,120,6,,10.0,29.58071,,,TRUE,TRUE,,,,,,,CLR,,,,,,,,VFR,,,,,,,,,,,,SPECI,359.0
KPEQ 230935Z AUTO 00000KT 10SM CLR 15/12 A2974 RMK AO2 T01450116,KPEQ,2022-10-23T09:35:00Z,31.38,-103.52,14.5,11.6,0,0,,10.0,29.740158,,,TRUE,TRUE,,,,,,,CLR,,,,,,,,VFR,,,,,,,,,,,,METAR,794.0
KPEA 230935Z AUTO 14012KT 10SM CLR 17/11 A2966 RMK AO2 T01710114,KPEA,2022-10-23T09:35:00Z,41.4,-92.95,17.1,11.4,140,12,,10.0,29.660433,,,TRUE,TRUE,,,,,,,CLR,,,,,,,,VFR,,,,,,,,,,,,METAR,264.0
KPCZ 230935Z AUTO 11004KT 10SM CLR 13/11 A2984 RMK AO2 T01300105,KPCZ,2022-10-23T09:35:00Z,44.33,-89.02,13.0,10.5,110,4,,10.0,29.840551,,,TRUE,TRUE,,,,,,,CLR,,,,,,,,VFR,,,,,,,,,,,,METAR,248.0
KPCW 230935Z AUTO 17006KT 10SM FEW060 12/10 A3012 RMK AO2,KPCW,2022-10-23T09:35:00Z,41.52,-82.87,12.0,10.0,170,6,,10.0,30.121063,,,TRUE,TRUE,,,,,,,FEW,6000,,,,,,,VFR,,,,,,,,,,,,SPECI,179.0
KPCM 230935Z AUTO 03003KT 10SM CLR 17/15 A3009 RMK AO2,KPCM,2022-10-23T09:35:00Z,28.0,-82.17,17.0,15.0,30,3,,10.0,30.088583,,,TRUE,TRUE,,,,,,,CLR,,,,,,,,VFR,,,,,,,,,,,,SPECI,43.0
KPCD 230935Z AUTO 16011KT 10SM BKN110 18/12 A2990 RMK AO2 T01810123,KPCD,2022-10-23T09:35:00Z,37.87,-89.87,18.1,12.3,160,11,,10.0,29.899607,,,TRUE,TRUE,,,,,,,BKN,11000,,,,,,,VFR,,,,,,,,,,,,METAR,112.0
KPBX 230935Z AUTO 13004KT 10SM CLR 11/05 A3019 RMK AO2 T01140047,KPBX,2022-10-23T09:35:00Z,37.57,-82.57,11.4,4.7,130,4,,10.0,30.188976,,,TRUE,TRUE,,,,,,,CLR,,,,,,,,VFR,,,,,,,,,,,,METAR,447.0
KPAN 230935Z AUTO 19010G17KT 10SM SCT021 BKN027 OVC041 12/08 A2979 RMK AO2 PWINO TSNO,KPAN,2022-10-23T09:35:00Z,34.25,-111.33,12.0,8.0,190,10,17,10.0,29.790354,,,TRUE,TRUE,,,TRUE,,TRUE,,SCT,2100,BKN,2700,OVC,4100,,,MVFR,,,,,,,,,,,,METAR,1575.0
KP08 230935Z AUTO 20013G19KT 10SM CLR 20/14 A2973 RMK AO2,KP08,2022-10-23T09:35:00Z,32.93,-111.43,20.0,14.0,200,13,19,10.0,29.731298,,,TRUE,TRUE,,,,,,,CLR,,,,,,,,VFR,,,,,,,,,,,,SPECI,477.0
KOZW 230935Z AUTO 12005KT 10SM CLR 12/09 A3008 RMK AO2 T01190094,KOZW,2022-10-23T09:35:00Z,42.62,-83.98,11.9,9.4,120,5,,10.0,30.079725,,,TRUE,TRUE,,,,,,,CLR,,,,,,,,VFR,,,,,,,,,,,,METAR,288.0
KOZS 230935Z AUTO 18012G16KT 10SM SCT110 19/12 A2975 RMK AO2,KOZS,2022-10-23T09:35:00Z,37.97,-92.68,19.0,12.0,180,12,16,10.0,29.749016,,,TRUE,TRUE,,,,,,,SCT,11000,,,,,,,VFR,,,,,,,,,,,,SPECI,321.0
KOZA 230935Z AUTO 18006KT 10SM CLR 18/12 A2984 RMK AO2,KOZA,2022-10-23T09:35:00Z,30.73,-101.2,18.0,12.0,180,6,,10.0,29.840551,,,TRUE,TRUE,,,,,,,CLR,,,,,,,,VFR,,,,,,,,,,,,METAR,721.0
KOXV 230935Z AUTO 14012KT 10SM CLR 17/11 A2964 RMK AO2,KOXV,2022-10-23T09:35:00Z,41.28,-93.12,17.0,11.0,140,12,,10.0,29.639763,,,TRUE,TRUE,,,,,,,CLR,,,,,,,,VFR,,,,,,,,,,,,SPECI,280.0
KOXI 230935Z AUTO 16009KT 10SM CLR 14/11 A2998 RMK AO1,KOXI,2022-10-23T09:35:00Z,41.33,-86.67,14.0,11.0,160,9,,10.0,29.97933,,,TRUE,TRUE,,,,,,,CLR,,,,,,,,VFR,,,,,,,,,,,,SPECI,208.0
KOXD 230935Z AUTO 00000KT 10SM CLR 15/09 A3012 RMK AO2 T01540089,KOXD,2022-10-23T09:35:00Z,39.5,-84.78,15.4,8.9,0,0,,10.0,30.121063,,,TRUE,TRUE,,,,,,,CLR,,,,,,,,VFR,,,,,,,,,,,,SPECI,317.0
KOWX 230935Z AUTO 00000KT 10SM CLR 11/06 A3013 RMK AO1,KOWX,2022-10-23T09:35:00Z,41.03,-83.98,11.0,6.0,0,0,,10.0,30.129921,,,TRUE,TRUE,,,,,,,CLR,,,,,,,,VFR,,,,,,,,,,,,SPECI,232.0
KOWP 230935Z AUTO 19010G21KT 10SM CLR 24/15 A2969 RMK AO2 T02380145,KOWP,2022-10-23T09:35:00Z,36.18,-96.15,23.8,14.5,190,10,21,10.0,29.68996,,,TRUE,TRUE,,,,,,,CLR,,,,,,,,VFR,,,,,,,,,,,,METAR,267.0
KOVL 230935Z AUTO 13010KT 10SM CLR 13/07 A2954 RMK AO2,KOVL,2022-10-23T09:35:00Z,44.78,-95.03,13.0,7.0,130,10,,10.0,29.53937,,,TRUE,TRUE,,,,,,,CLR,,,,,,,,VFR,,,,,,,,,,,,METAR,329.0
KOUN 230935Z AUTO 17018KT 10SM CLR 22/13 A2966 RMK AO2 T02200127,KOUN,2022-10-23T09:35:00Z,35.25,-97.47,22.0,12.7,170,18,,10.0,29.660433,,,TRUE,TRUE,,,,,,,CLR,,,,,,,,VFR,,,,,,,,,,,,METAR,359.0
KOSC 230935Z AUTO 20005KT 10SM CLR 11/10 A3005 RMK AO2 T01090098,KOSC,2022-10-23T09:35:00Z,44.45,-83.4,10.9,9.8,200,5,,10.0,30.050198,,,TRUE,TRUE,,,,,,,CLR,,,,,,,,VFR,,,,,,,,,,,,METAR,191.0
KORS 230935Z AUTO 19003KT 9SM BKN043 04/ A2994 RMK AO2,KORS,2022-10-23T09:35:00Z,48.7,-122.92,4.0,,190,3,,9.0,29.940945,,,TRUE,TRUE,,,,,,,BKN,4300,,,,,,,VFR,,,,,,,,,,,,METAR,7.0
KORG 230935Z AUTO 17005KT 10SM SCT049 23/18 A2997 RMK AO2 T02250182,KORG,2022-10-23T09:35:00Z,30.07,-93.8,22.5,18.2,170,5,,10.0,29.970472,,,TRUE,TRUE,,,,,,,SCT,4900,,,,,,,VFR,,,,,,,,,,,,METAR,2.0
KOQN 230935Z AUTO 02006KT 10SM SCT015 OVC023 11/07 A3027 RMK AO2,KOQN,2022-10-23T09:35:00Z,39.98,-75.58,11.0,7.0,20,6,,10.0,30.268702,,,TRUE,TRUE,,,,,,,SCT,1500,OVC,2300,,,,,MVFR,,,,,,,,,,,,SPECI,141.0
KOPN 230935Z AUTO 00000KT 10SM CLR 07/03 A3019 RMK AO2,KOPN,2022-10-23T09:35:00Z,32.95,-84.27,7.0,3.0,0,0,,10.0,30.188976,,,TRUE,TRUE,,,,,,,CLR,,,,,,,,VFR,,,,,,,,,,,,SPECI,241.0
KOPL 230935Z AUTO 12005KT 10SM CLR 17/16 A3001 RMK AO2 T01670155,KOPL,2022-10-23T09:35:00Z,30.55,-92.1,16.7,15.5,120,5,,10.0,30.008858,,,TRUE,TRUE,,,,,,,CLR,,,,,,,,VFR,,,,,,,,,,,,SPECI,22.0
KOOA 230935Z AUTO 15014KT 10SM CLR 18/15 A2968 RMK AO2 T01800146,KOOA,2022-10-23T09:35:00Z,41.23,-92.5,18.0,14.6,150,14,,10.0,29.681103,,,TRUE,TRUE,,,,,,,CLR,,,,,,,,VFR,,,,,,,,,,,,SPECI,256.0
KONZ 230935Z AUTO 16004KT 10SM SCT100 BKN120 11/08 A3011 RMK AO2 T01100083,KONZ,2022-10-23T09:35:00Z,42.1,-83.15,11.0,8.3,160,4,,10.0,30.109253,,,TRUE,TRUE,,,,,,,SCT,10000,BKN,12000,,,,,VFR,,,,,,,,,,,,SPECI,179.0
KONX 230935Z AUTO 36009KT 10SM -RA OVC010 15/14 A3009 RMK AO2 T01520138,KONX,2022-10-23T09:35:00Z,36.4,-76.02,15.2,13.8,360,9,,10.0,30.088583,,,TRUE,TRUE,,,,,,-RA,OVC,1000,,,,,,,MVFR,,,,,,,,,,,,METAR,4.0
KONM 230935Z AUTO 18008KT 10SM BKN080 15/09 A2972 RMK AO2 T01470087,KONM,2022-10-23T09:35:00Z,34.02,-106.9,14.7,8.7,180,8,,10.0,29.719488,,,TRUE,TRUE,,,,,,,BKN,8000,,,,,,,VFR,,,,,,,,,,,,METAR,1467.0
KONL 230935Z AUTO 14007KT 10SM CLR 11/06 A2936 RMK AO2 T01080060,KONL,2022-10-23T09:35:00Z,42.47,-98.68,10.8,6.0,140,7,,10.0,29.359253,,,TRUE,TRUE,,,,,,,CLR,,,,,,,,VFR,,,,,,,,,,,,SPECI,619.0
KONA 230935Z AUTO 16005KT 10SM CLR 18/10 A2971 RMK AO2,KONA,2022-10-23T09:35:00Z,44.07,-91.7,18.0,10.0,160,5,,10.0,29.71063,,,TRUE,TRUE,,,,,,,CLR,,,,,,,,VFR,,,,,,,,,,,,SPECI,200.0
KOMH 230935Z AUTO 33003KT 10SM CLR 04/03 A3025 RMK AO2,KOMH,2022-10-23T09:35:00Z,38.25,-78.05,4.0,3.0,330,3,,10.0,30.250984,,,TRUE,TRUE,,,,,,,CLR,,,,,,,,VFR,,,,,,,,,,,,SPECI,136.0
KOLZ 230935Z AUTO 14013KT 10SM CLR 15/11 A2972 RMK A01,KOLZ,2022-10-23T09:35:00Z,42.67,-91.97,15.0,11.0,140,13,,10.0,29.719488,,,TRUE,TRUE,,,,,,,CLR,,,,,,,,VFR,,,,,,,,,,,,SPECI,328.0
KOLY 230935Z AUTO 15012G16KT 10SM OVC060 19/10 A2998 RMK AO2 T01900099,KOLY,2022-10-23T09:35:00Z,38.72,-88.18,19.0,9.9,150,12,16,10.0,29.97933,,,TRUE,TRUE,,,,,,,OVC,6000,,,,,,,VFR,,,,,,,,,,,,SPECI,144.0
KOLV 230935Z AUTO 17007KT 10SM SCT050 16/12 A3003 RMK A01,KOLV,2022-10-23T09:35:00Z,34.98,-89.78,16.0,12.0,170,7,,10.0,30.029528,,,TRUE,TRUE,,,,,,,SCT,5000,,,,,,,VFR,,,,,,,,,,,,SPECI,124.0
KOLG 230935Z AUTO 03003KT 10SM CLR 05/03 A2968 RMK AO1,KOLG,2022-10-23T09:35:00Z,46.3,-91.82,5.0,3.0,30,3,,10.0,29.681103,,,TRUE,TRUE,,,,,,,CLR,,,,,,,,VFR,,,,,,,,,,,,SPECI,334.0
KOLE 230935Z AUTO 20005KT 10SM CLR 08/01 A3026 RMK AO2,KOLE,2022-10-23T09:35:00Z,42.23,-78.37,8.0,1.0,200,5,,10.0,30.259842,,,TRUE,TRUE,,,,,,,CLR,,,,,,,,VFR,,,,,,,,,,,,SPECI,651.0
KOKZ 230935Z AUTO 00000KT 10SM CLR 05/04 A3017 RMK AO2 T00550038,KOKZ,2022-10-23T09:35:00Z,32.97,-82.83,5.5,3.8,0,0,,10.0,30.171259,,,TRUE,TRUE,,,,,,,CLR,,,,,,,,VFR,,,,,,,,,,,,SPECI,128.0
KOKV 230935Z AUTO 00000KT 10SM CLR 02/01 A3026 RMK AO2,KOKV,2022-10-23T09:35:00Z,39.13,-78.15,2.0,1.0,0,0,,10.0,30.259842,,,TRUE,TRUE,,,,,,,CLR,,,,,,,,VFR,,,,,,,,,,,,SPECI,213.0
KOKM 230935Z AUTO 18018G28KT 10SM CLR 22/15 A2971 RMK AO2 T02210145,KOKM,2022-10-23T09:35:00Z,35.67,-95.95,22.1,14.5,180,18,28,10.0,29.71063,,,TRUE,TRUE,,,,,,,CLR,,,,,,,,VFR,,,,,,,,,,,,SPECI,215.0
KOJA 230935Z AUTO 20013G18KT 10SM CLR 21/12 A2962 RMK AO2 T02100119,KOJA,2022-10-23T09:35:00Z,35.55,-98.67,21.0,11.9,200,13,18,10.0,29.619095,,,TRUE,TRUE,,,,,,,CLR,,,,,,,,VFR,,,,,,,,,,,,METAR,490.0
KOIN 230935Z AUTO 23007KT 10SM CLR 14/M02 A2937 RMK AO1 T01351016,KOIN,2022-10-23T09:35:00Z,39.83,-100.53,13.5,-1.6,230,7,,10.0,29.371063,,,TRUE,TRUE,,,,,,,CLR,,,,,,,,VFR,,,,,,,,,,,,SPECI,810.0
KOGS 230935Z AUTO 00000KT 10SM CLR 05/04 A3024 RMK AO2,KOGS,2022-10-23T09:35:00Z,44.67,-75.47,5.0,4.0,0,0,,10.0,30.239174,,,TRUE,TRUE,,,,,,,CLR,,,,,,,,VFR,,,,,,,,,,,,METAR,88.0
KOGA 230935Z AUTO 22004KT 10SM CLR 05/M03 A2929 RMK AO2 T00531027,KOGA,2022-10-23T09:35:00Z,41.12,-101.77,5.3,-2.7,220,4,,10.0,29.291338,,,TRUE,TRUE,,,,,,,CLR,,,,,,,,VFR,,,,,,,,,,,,SPECI,991.0
KOEO 230935Z AUTO 13008KT 10SM CLR 16/11 A2968 RMK AO2 T01640106,KOEO,2022-10-23T09:35:00Z,45.32,-92.7,16.4,10.6,130,8,,10.0,29.681103,,,TRUE,TRUE,,,,,,,CLR,,,,,,,,VFR,,,,,,,,,,,,SPECI,269.0
KOEL 230935Z AUTO 23016G21KT 10SM CLR 16/03 A2937 RMK AO1 T01640029,KOEL,2022-10-23T09:35:00Z,39.12,-100.82,16.4,2.9,230,16,21,10.0,29.371063,,,TRUE,TRUE,,,,,,,CLR,,,,,,,,VFR,,,,,,,,,,,,METAR,924.0
KOEB 230935Z AUTO 15007KT 10SM CLR 13/10 A3006 RMK AO2 T01330095,KOEB,2022-10-23T09:35:00Z,41.92,-85.05,13.3,9.5,150,7,,10.0,30.059055,,,TRUE,TRUE,,,,,,,CLR,,,,,,,,VFR,,,,,,,,,,,,SPECI,291.0
KOCW 230935Z AUTO 35008KT 10SM CLR 13/11 A3011 RMK AO2 T01300109,KOCW,2022-10-23T09:35:00Z,35.57,-77.05,13.0,10.9,350,8,,10.0,30.109253,,,TRUE,TRUE,,,,,,,CLR,,,,,,,,VFR,,,,,,,,,,,,SPECI,10.0
KOCQ 230935Z AUTO 14004KT 10SM CLR 10/10 A2987 RMK AO1 T01000100,KOCQ,2022-10-23T09:35:00Z,44.87,-87.92,10.0,10.0,140,4,,10.0,29.870079,,,TRUE,TRUE,,,,,,,CLR,,,,,,,,VFR,,,,,,,,,,,,SPECI,181.0
KOBE 230935Z AUTO 35005KT 10SM CLR 17/17 A3004 RMK AO2,KOBE,2022-10-23T09:35:00Z,27.27,-80.85,17.0,17.0,350,5,,10.0,30.041338,,,TRUE,TRUE,,,,,,,CLR,,,,,,,,VFR,,,,,,,,,,,,SPECI,11.0
KOAR 230935Z AUTO 21007KT 7SM CLR M12/M17 A2987 RMK AO2 PWINO,KOAR,2022-10-23T09:35:00Z,36.67,-121.77,-12.0,-17.0,210,7,,7.0,29.870079,,,TRUE,TRUE,,,,,TRUE,,CLR,,,,,,,,VFR,,,,,,,,,,,,METAR,41.0
KO69 230935Z AUTO 32005G10KT 10SM CLR 10/02 A2990 RMK A01,KO69,2022-10-23T09:35:00Z,38.25,-122.6,10.0,2.0,320,5,10,10.0,29.899607,,,TRUE,TRUE,,,,,,,CLR,,,,,,,,VFR,,,,,,,,,,,,SPECI,26.0
KO32 230935Z AUTO 30006KT 8SM CLR 10/06 A2980 RMK AO2 T01030055 $,KO32,2022-10-23T09:35:00Z,36.67,-119.45,10.3,5.5,300,6,,8.0,29.799213,,,TRUE,TRUE,TRUE,,,,,,CLR,,,,,,,,VFR,,,,,,,,,,,,METAR,117.0
KO22 230935Z AUTO 00000KT 10SM CLR 04/M00 A2981 RMK A01,KO22,2022-10-23T09:35:00Z,38.03,-120.42,4.0,0.0,0,0,,10.0,29.811024,,,TRUE,TRUE,,,,,,,CLR,,,,,,,,VFR,,,,,,,,,,,,METAR,637.0
KO05 230935Z AUTO 34006KT 10SM FEW040 02/M05 A2989 RMK A01,KO05,2022-10-23T09:35:00Z,40.28,-121.23,2.0,-5.0,340,6,,10.0,29.890747,,,TRUE,TRUE,,,,,,,FEW,4000,,,,,,,VFR,,,,,,,,,,,,METAR,1380.0
KNY0 230935Z AUTO 05003KT 10SM CLR 04/04 A3033 RMK AO2,KNY0,2022-10-23T09:35:00Z,42.98,-74.33,4.0,4.0,50,3,,10.0,30.33071,,,TRUE,TRUE,,,,,,,CLR,,,,,,,,VFR,,,,,,,,,,,,METAR,266.0
KNUQ 230935Z AUTO 25004KT 10SM CLR 12/06 A2989 RMK AO2,KNUQ,2022-10-23T09:35:00Z,37.4,-122.05,12.0,6.0,250,4,,10.0,29.890747,,,TRUE,TRUE,,,,,,,CLR,,,,,,,,VFR,,,,,,,,,,,,METAR,9.0
KNRN 230935Z AUTO 23006KT 10SM CLR 12/M01 A2937 RMK AO2,KNRN,2022-10-23T09:35:00Z,39.85,-99.9,12.0,-1.0,230,6,,10.0,29.371063,,,TRUE,TRUE,,,,,,,CLR,,,,,,,,VFR,,,,,,,,,,,,METAR,726.0
KNQA 230935Z AUTO 15007KT 10SM CLR 17/13 A2999 RMK A01,KNQA,2022-10-23T09:35:00Z,35.35,-89.87,17.0,13.0,150,7,,10.0,29.991142,,,TRUE,TRUE,,,,,,,CLR,,,,,,,,VFR,,,,,,,,,,,,SPECI,90.0
KNOW 230935Z AUTO 22004KT 10SM SCT060 08/07 A2996 RMK AO2 T00800066,KNOW,2022-10-23T09:35:00Z,48.13,-123.4,8.0,6.6,220,4,,10.0,29.958662,,,TRUE,TRUE,,,,,,,SCT,6000,,,,,,,VFR,,,,,,,,,,,,METAR,3.0
KN38 230935Z AUTO 22003KT 10SM CLR 03/02 A3028 RMK AO2,KN38,2022-10-23T09:35:00Z,41.73,-77.4,3.0,2.0,220,3,,10.0,30.280512,,,TRUE,TRUE,,,,,,,CLR,,,,,,,,VFR,,,,,,,,,,,,SPECI,576.0
KN03 230935Z AUTO 00000KT 10SM CLR 01/00 A3030 RMK AO2,KN03,2022-10-23T09:35:00Z,42.6,-76.22,1.0,0.0,0,0,,10.0,30.301182,,,TRUE,TRUE,,,,,,,CLR,,,,,,,,VFR,,,,,,,,,,,,METAR,361.0
KMZZ 230935Z AUTO 17007KT 10SM CLR 14/10 A3006 RMK AO2 T01360100,KMZZ,2022-10-23T09:35:00Z,40.48,-85.68,13.6,10.0,170,7,,10.0,30.059055,,,TRUE,TRUE,,,,,,,CLR,,,,,,,,VFR,,,,,,,,,,,,SPECI,260.0
KMZH 230935Z AUTO 00000KT 2SM BR CLR 07/05 A2967 RMK AO2,KMZH,2022-10-23T09:35:00Z,46.42,-92.8,7.0,5.0,0,0,,2.0,29.66929,,,TRUE,TRUE,,,,,,BR,CLR,,,,,,,,IFR,,,,,,,,,,,,SPECI,331.0
KMYP 230935Z AUTO 22027G34KT 10SM SCT016 BKN020 OVC027 00/M03 A2981 RMK AO2,KMYP,2022-10-23T09:35:00Z,38.48,-106.32,0.0,-3.0,220,27,34,10.0,29.811024,,,TRUE,TRUE,,,,,,,SCT,1600,BKN,2000,OVC,2700,,,MVFR,,,,,,,,,,,,SPECI,3629.0
KMWO 230935Z AUTO 00000KT 7SM CLR 09/ A3014 RMK AO2 T0087////,KMWO,2022-10-23T09:35:00Z,39.53,-84.4,8.7,,0,0,,7.0,30.138779,,,TRUE,TRUE,,,,,,,CLR,,,,,,,,VFR,,,,,,,,,,,,SPECI,197.0
KMWM 230935Z AUTO 13011G16KT 10SM CLR 13/08 A2954 RMK AO2,KMWM,2022-10-23T09:35:00Z,43.9,-95.1,13.0,8.0,130,11,16,10.0,29.53937,,,TRUE,TRUE,,,,,,,CLR,,,,,,,,VFR,,,,,,,,,,,,SPECI,427.0
KMWK 230935Z AUTO 00000KT 10SM CLR 03/02 A3024 RMK AO2 T00320023,KMWK,2022-10-23T09:35:00Z,36.47,-80.55,3.2,2.3,0,0,,10.0,30.239174,,,TRUE,TRUE,,,,,,,CLR,,,,,,,,VFR,,,,,,,,,,,,METAR,374.0
KMWC 230935Z AUTO 15004KT 10SM CLR 14/09 A2990 RMK AO2,KMWC,2022-10-23T09:35:00Z,43.12,-88.03,14.0,9.0,150,4,,10.0,29.899607,,,TRUE,TRUE,,,,,,,CLR,,,,,,,,VFR,,,,,,,,,,,,SPECI,225.0
KMWA 230935Z AUTO 17012G21KT 10SM CLR 18/12 A2997 RMK AO2 T01810117,KMWA,2022-10-23T09:35:00Z,37.77,-89.02,18.1,11.7,170,12,21,10.0,29.970472,,,TRUE,TRUE,,,,,,,CLR,,,,,,,,VFR,,,,,,,,,,,,SPECI,142.0
KMVH 230935Z AUTO 31012KT 8SM SCT021 OVC029 01/M01 A2948 RMK AO2 PWINO,KMVH,2022-10-23T09:35:00Z,46.83,-108.93,1.0,-1.0,310,12,,8.0,29.480314,,,TRUE,TRUE,,,,,TRUE,,SCT,2100,OVC,2900,,,,,MVFR,,,,,,,,,,,,SPECI,1352.0
KMVE 230935Z AUTO 12008KT 10SM CLR 09/06 A2951 RMK AO2,KMVE,2022-10-23T09:35:00Z,44.97,-95.72,9.0,6.0,120,8,,10.0,29.509842,,,TRUE,TRUE,,,,,,,CLR,,,,,,,,VFR,,,,,,,,,,,,METAR,319.0
KMUT 230935Z AUTO 14005KT 10SM SCT080 17/13 A2976 RMK AO2,KMUT,2022-10-23T09:35:00Z,41.37,-91.15,17.0,13.0,140,5,,10.0,29.760826,,,TRUE,TRUE,,,,,,,SCT,8000,,,,,,,VFR,,,,,,,,,,,,SPECI,166.0
KMTV 230935Z AUTO 00000KT 10SM CLR 01/00 A3025 RMK AO2 T00081001,KMTV,2022-10-23T09:35:00Z,36.63,-80.02,0.8,-0.1,0,0,,10.0,30.250984,,,TRUE,TRUE,,,,,,,CLR,,,,,,,,VFR,,,,,,,,,,,,SPECI,276.0
KMRT 230935Z AUTO 00000KT 10SM CLR 09/07 A3016 RMK AO2 T00940067,KMRT,2022-10-23T09:35:00Z,40.22,-83.35,9.4,6.7,0,0,,10.0,30.159449,,,TRUE,TRUE,,,,,,,CLR,,,,,,,,VFR,,,,,,,,,,,,METAR,302.0
KMRJ 230935Z AUTO 14008KT 10SM CLR 14/10 A2981 RMK AO2,KMRJ,2022-10-23T09:35:00Z,42.88,-90.23,14.0,10.0,140,8,,10.0,29.811024,,,TRUE,TRUE,,,,,,,CLR,,,,,,,,VFR,,,,,,,,,,,,METAR,350.0
KMQW 230935Z AUTO 00000KT 10SM CLR 04/03 A3016 RMK AO2 T00410034,KMQW,2022-10-23T09:35:00Z,32.1,-82.88,4.1,3.4,0,0,,10.0,30.159449,,,TRUE,TRUE,,,,,,,CLR,,,,,,,,VFR,,,,,,,,,,,,METAR,62.0
KMQS 230935Z AUTO 35005KT 10SM BKN019 OVC028 09/08 A3027 RMK AO2,KMQS,2022-10-23T09:35:00Z,39.98,-75.87,9.0,8.0,350,5,,10.0,30.268702,,,TRUE,TRUE,,,,,,,BKN,1900,OVC,2800,,,,,MVFR,,,,,,,,,,,,SPECI,200.0
KMQI 230935Z AUTO 03016G22KT 10SM OVC010 17/16 A3005 RMK AO2 T01700157,KMQI,2022-10-23T09:35:00Z,35.92,-75.7,17.0,15.7,30,16,22,10.0,30.050198,,,TRUE,TRUE,,,,,,,OVC,1000,,,,,,,MVFR,,,,,,,,,,,,SPECI,3.0
KMQB 230935Z AUTO 15009KT 10SM CLR 15/11 A2981 RMK AO2 T01450106,KMQB,2022-10-23T09:35:00Z,40.52,-90.65,14.5,10.6,150,9,,10.0,29.811024,,,TRUE,TRUE,,,,,,,CLR,,,,,,,,VFR,,,,,,,,,,,,METAR,205.0
KMPR 230935Z AUTO 17013KT 10SM CLR 20/11 A2947 RMK AO2 T01960108,KMPR,2022-10-23T09:35:00Z,38.35,-97.68,19.6,10.8,170,13,,10.0,29.471457,,,TRUE,TRUE,,,,,,,CLR,,,,,,,,VFR,,,,,,,,,,,,METAR,455.0
KMOX 230935Z AUTO 14012KT 10SM CLR 11/04 A2951 RMK AO2,KMOX,2022-10-23T09:35:00Z,45.57,-95.97,11.0,4.0,140,12,,10.0,29.509842,,,TRUE,TRUE,,,,,,,CLR,,,,,,,,VFR,,,,,,,,,,,,SPECI,346.0
KMOR 230935Z AUTO 03003KT 10SM FEW041 FEW050 08/06 A3017 RMK A01,KMOR,2022-10-23T09:35:00Z,36.18,-83.37,8.0,6.0,30,3,,10.0,30.171259,,,TRUE,TRUE,,,,,,,FEW,4100,FEW,5000,,,,,VFR,,,,,,,,,,,,METAR,393.0
KMOP 230935Z AUTO 00000KT 10SM CLR 10/10 A3003 RMK AO2 T00960095,KMOP,2022-10-23T09:35:00Z,43.62,-84.73,9.6,9.5,0,0,,10.0,30.029528,,,TRUE,TRUE,,,,,,,CLR,,,,,,,,VFR,,,,,,,,,,,,SPECI,229.0
KMNZ 230935Z AUTO 18012KT 10SM BKN018 20/17 A2982 RMK AO2 T01980174,KMNZ,2022-10-23T09:35:00Z,31.67,-98.15,19.8,17.4,180,12,,10.0,29.819881,,,TRUE,TRUE,,,,,,,BKN,1800,,,,,,,MVFR,,,,,,,,,,,,SPECI,397.0
KMNV 230935Z AUTO 00000KT 10SM 05/05 A3018 RMK A01,KMNV,2022-10-23T09:35:00Z,35.55,-84.38,5.0,5.0,0,0,,10.0,30.180119,,,TRUE,TRUE,,,,,,,,,,,,,,,,,,,,,,,,,,,METAR,306.0
KMNI 230935Z AUTO 00000KT 10SM TS CLR 08/08 A3015 RMK AO2,KMNI,2022-10-23T09:35:00Z,33.58,-80.22,8.0,8.0,0,0,,10.0,30.15059,,,TRUE,TRUE,,,,,,TS,CLR,,,,,,,,VFR,,,,,,,,,,,,SPECI,29.0
KMNH 230935Z AUTO 19011G23KT 10SM CLR 12/M04 A2946 RMK AO2,KMNH,2022-10-23T09:35:00Z,39.22,-104.65,12.0,-4.0,190,11,23,10.0,29.459646,,,TRUE,TRUE,,,,,,,CLR,,,,,,,,VFR,,,,,,,,,,,,SPECI,2152.0
KMNE 230935Z AUTO 15005KT 10SM BKN037 18/17 A2997 RMK AO2 T01830166,KMNE,2022-10-23T09:35:00Z,32.65,-93.3,18.3,16.6,150,5,,10.0,29.970472,,,TRUE,TRUE,,,,,,,BKN,3700,,,,,,,VFR,,,,,,,,,,,,METAR,84.0
KMMU 230935Z AUTO 00000KT 10SM OVC034 08/07 A3029 RMK AO2,KMMU,2022-10-23T09:35:00Z,40.78,-74.42,8.0,7.0,0,0,,10.0,30.28937,,,TRUE,TRUE,,,,,,,OVC,3400,,,,,,,VFR,,,,,,,,,,,,METAR,55.0
KMMI 230935Z AUTO 00000KT 10SM FEW050 05/04 A3020 RMK A01,KMMI,2022-10-23T09:35:00Z,35.4,-84.57,5.0,4.0,0,0,,10.0,30.200787,,,TRUE,TRUE,,,,,,,FEW,5000,,,,,,,VFR,,,,,,,,,,,,METAR,252.0
KMLJ 230935Z AUTO 00000KT 10SM CLR 08/07 A3018 RMK AO2,KMLJ,2022-10-23T09:35:00Z,33.15,-83.25,8.0,7.0,0,0,,10.0,30.180119,,,TRUE,TRUE,,,,,,,CLR,,,,,,,,VFR,,,,,,,,,,,,SPECI,115.0
KMLE 230935Z AUTO 12008KT 10SM CLR 17/13 A2946 RMK AO2 T01700125,KMLE,2022-10-23T09:35:00Z,41.2,-96.12,17.0,12.5,120,8,,10.0,29.459646,,,TRUE,TRUE,,,,,,,CLR,,,,,,,,VFR,,,,,,,,,,,,METAR,318.0
KMKS 230935Z AUTO 00000KT 10SM CLR 12/10 A3014 RMK AO2,KMKS,2022-10-23T09:35:00Z,33.18,-80.03,12.0,10.0,0,0,,10.0,30.138779,,,TRUE,TRUE,,,,,,,CLR,,,,,,,,VFR,,,,,,,,,,,,METAR,22.0
KMKN 230935Z AUTO 17011KT 10SM CLR 20/17 A2980 RMK AO2 T01970165,KMKN,2022-10-23T09:35:00Z,31.92,-98.6,19.7,16.5,170,11,,10.0,29.799213,,,TRUE,TRUE,,,,,,,CLR,,,,,,,,VFR,,,,,,,,,,,,SPECI,428.0
KMKJ 230935Z AUTO 00000KT 10SM CLR 00/M01 A3028 RMK AO2 T10011006,KMKJ,2022-10-23T09:35:00Z,36.88,-81.33,-0.1,-0.6,0,0,,10.0,30.280512,,,TRUE,TRUE,,,,,,,CLR,,,,,,,,VFR,,,,,,,,,,,,SPECI,777.0
KMJQ 230935Z AUTO 15009KT 10SM CLR 12/07 A2956 RMK AO2,KMJQ,2022-10-23T09:35:00Z,43.63,-94.98,12.0,7.0,150,9,,10.0,29.56004,,,TRUE,TRUE,,,,,,,CLR,,,,,,,,VFR,,,,,,,,,,,,SPECI,439.0
KMJD 230935Z AUTO 00000KT 10SM CLR 12/12 A3007 RMK AO2,KMJD,2022-10-23T09:35:00Z,30.48,-89.65,12.0,12.0,0,0,,10.0,30.070866,,,TRUE,TRUE,,,,,,,CLR,,,,,,,,VFR,,,,,,,,,,,,SPECI,17.0
KMIO 230935Z AUTO 16015G25KT 10SM CLR 22/13 A2968 RMK AO2,KMIO,2022-10-23T09:35:00Z,36.92,-94.88,22.0,13.0,160,15,25,10.0,29.681103,,,TRUE,TRUE,,,,,,,CLR,,,,,,,,VFR,,,,,,,,,,,,METAR,245.0
KMHR 230935Z AUTO 34009KT 10SM CLR 13/01 A2982 RMK A01,KMHR,2022-10-23T09:35:00Z,38.55,-121.28,13.0,1.0,340,9,,10.0,29.819881,,,TRUE,TRUE,,,,,,,CLR,,,,,,,,VFR,,,,,,,,,,,,METAR,30.0
KMHP 230935Z AUTO 00000KT 10SM CLR 06/06 A3015 RMK AO2 T0064////,KMHP,2022-10-23T09:35:00Z,32.37,-82.08,6.4,6.0,0,0,,10.0,30.15059,,,TRUE,TRUE,,,,,,,CLR,,,,,,,,VFR,,,,,,,,,,,,METAR,60.0
KMHL 230935Z AUTO 12007KT 10SM CLR 16/12 A2968 RMK AO2,KMHL,2022-10-23T09:35:00Z,39.1,-93.2,16.0,12.0,120,7,,10.0,29.681103,,,TRUE,TRUE,,,,,,,CLR,,,,,,,,VFR,,,,,,,,,,,,SPECI,236.0
KMGR 230935Z AUTO 00000KT 10SM CLR 06/05 A3015 RMK AO2,KMGR,2022-10-23T09:35:00Z,31.08,-83.8,6.0,5.0,0,0,,10.0,30.15059,,,TRUE,TRUE,,,,,,,CLR,,,,,,,,VFR,,,,,,,,,,,,METAR,86.0
KMGN 230935Z AUTO 00000KT 10SM CLR 15/11 A2997 RMK AO2 T01560110,KMGN,2022-10-23T09:35:00Z,45.43,-84.92,15.6,11.0,0,0,,10.0,29.970472,,,TRUE,TRUE,,,,,,,CLR,,,,,,,,VFR,,,,,,,,,,,,METAR,205.0
KMGG 230935Z AUTO 00000KT 10SM CLR 14/08 A2961 RMK AO2 T01400076 PWINO,KMGG,2022-10-23T09:35:00Z,45.23,-93.98,14.0,7.6,0,0,,10.0,29.610237,,,TRUE,TRUE,,,,,TRUE,,CLR,,,,,,,,VFR,,,,,,,,,,,,METAR,310.0
KMGC 230935Z AUTO 16006KT 10SM CLR 15/10 A2997 RMK AO2,KMGC,2022-10-23T09:35:00Z,41.7,-86.82,15.0,10.0,160,6,,10.0,29.970472,,,TRUE,TRUE,,,,,,,CLR,,,,,,,,VFR,,,,,,,,,,,,METAR,199.0
KMEZ 230935Z AUTO 22008KT 060V290 10SM 20/16 A2989 RMK AO2 T01970156 $,KMEZ,2022-10-23T09:35:00Z,34.55,-94.2,19.7,15.6,220,8,,10.0,29.890747,,,TRUE,TRUE,TRUE,,,,,,,,,,,,,,,,,,,,,,,,,,SPECI,320.0
KMEV 230935Z AUTO VRB03KT 10SM CLR M04/M05 A2987 RMK AO2,KMEV,2022-10-23T09:35:00Z,38.98,-119.75,-4.0,-5.0,0,3,,10.0,29.870079,,,TRUE,TRUE,,,,,,,CLR,,,,,,,,VFR,,,,,,,,,,,,SPECI,1437.0
KMER 230935Z AUTO 10SM CLR 11/03 A2983 RMK AO1,KMER,2022-10-23T09:35:00Z,37.38,-120.57,11.0,3.0,,,,10.0,29.828741,,,TRUE,TRUE,,,,,,,CLR,,,,,,,,VFR,,,,,,,,,,,,METAR,58.0
KMDZ 230935Z AUTO 14006KT 10SM CLR 13/10 A2979 RMK AO2 T01300097 PWINO,KMDZ,2022-10-23T09:35:00Z,45.1,-90.3,13.0,9.7,140,6,,10.0,29.790354,,,TRUE,TRUE,,,,,TRUE,,CLR,,,,,,,,VFR,,,,,,,,,,,,METAR,446.0
KMDS 230935Z AUTO 14010KT 10SM CLR 12/09 A2945 RMK AO2,KMDS,2022-10-23T09:35:00Z,44.02,-97.08,12.0,9.0,140,10,,10.0,29.450787,,,TRUE,TRUE,,,,,,,CLR,,,,,,,,VFR,,,,,,,,,,,,SPECI,524.0
KMDQ 230935Z AUTO 00000KT 10SM CLR 09/08 A3015 RMK A02 T00910083,KMDQ,2022-10-23T09:35:00Z,34.87,-86.55,9.1,8.3,0,0,,10.0,30.15059,,,TRUE,TRUE,,,,,,,CLR,,,,,,,,VFR,,,,,,,,,,,,SPECI,221.0
KMDD 230935Z AUTO 18014KT 10SM CLR 19/12 A2976 RMK AO2 T01930117,KMDD,2022-10-23T09:35:00Z,32.03,-102.1,19.3,11.7,180,14,,10.0,29.760826,,,TRUE,TRUE,,,,,,,CLR,,,,,,,,VFR,,,,,,,,,,,,SPECI,853.0
KMCD 230935Z AUTO 17004KT 10SM CLR 14/10 A2998 RMK AO2 T01370096,KMCD,2022-10-23T09:35:00Z,45.85,-84.63,13.7,9.6,170,4,,10.0,29.97933,,,TRUE,TRUE,,,,,,,CLR,,,,,,,,VFR,,,,,,,,,,,,SPECI,228.0
KMCC 230935Z AUTO 34003KT 10SM CLR 12/00 A2984 RMK AO2,KMCC,2022-10-23T09:35:00Z,38.67,-121.4,12.0,0.0,340,3,,10.0,29.840551,,,TRUE,TRUE,,,,,,,CLR,,,,,,,,VFR,,,,,,,,,,,,METAR,21.0
KMBY 230935Z AUTO 15010KT 10SM CLR 18/11 A2972 RMK AO2,KMBY,2022-10-23T09:35:00Z,39.47,-92.43,18.0,11.0,150,10,,10.0,29.719488,,,TRUE,TRUE,,,,,,,CLR,,,,,,,,VFR,,,,,,,,,,,,SPECI,263.0
KMBT 230935Z AUTO 15004KT 10SM BKN030 BKN044 BKN050 11/09 A3012 RMK A01,KMBT,2022-10-23T09:35:00Z,35.88,-86.38,11.0,9.0,150,4,,10.0,30.121063,,,TRUE,TRUE,,,,,,,BKN,3000,BKN,4400,BKN,5000,,,MVFR,,,,,,,,,,,,METAR,187.0
KMBO 230935Z AUTO 00000KT 10SM CLR 14/14 A3007 RMK AO2,KMBO,2022-10-23T09:35:00Z,32.43,-90.1,14.0,14.0,0,0,,10.0,30.070866,,,TRUE,TRUE,,,,,,,CLR,,,,,,,,VFR,,,,,,,,,,,,METAR,98.0
KMAW 230935Z AUTO 16012G17KT 10SM CLR 17/11 A2996 RMK AO1,KMAW,2022-10-23T09:35:00Z,36.6,-90.0,17.0,11.0,160,12,17,10.0,29.958662,,,TRUE,TRUE,,,,,,,CLR,,,,,,,,VFR,,,,,,,,,,,,SPECI,88.0
KMAO 230935Z AUTO 01003KT 10SM CLR 11/08 A3015 RMK AO2,KMAO,2022-10-23T09:35:00Z,34.18,-79.33,11.0,8.0,10,3,,10.0,30.15059,,,TRUE,TRUE,,,,,,,CLR,,,,,,,,VFR,,,,,,,,,,,,SPECI,27.0
KMAN 230935Z AUTO 33006KT 10SM BKN001 03/00 A2979 RMK A01,KMAN,2022-10-23T09:35:00Z,43.58,-116.52,3.0,0.0,330,6,,10.0,29.790354,,,TRUE,TRUE,,,,,,,BKN,100,,,,,,,LIFR,,,,,,,,,,,,METAR,773.0
KM91 230935Z AUTO 16003KT 10SM FEW048 SCT055 OVC065 15/11 A3009 RMK A01,KM91,2022-10-23T09:35:00Z,36.53,-86.92,15.0,11.0,160,3,,10.0,30.088583,,,TRUE,TRUE,,,,,,,FEW,4800,SCT,5500,OVC,6500,,,VFR,,,,,,,,,,,,METAR,214.0
KM75 230935Z AUTO 04012G17KT 8SM OVC015 05/05 A2950 RMK A01,KM75,2022-10-23T09:35:00Z,48.37,-107.92,5.0,5.0,40,12,17,8.0,29.500984,,,TRUE,TRUE,,,,,,,OVC,1500,,,,,,,MVFR,,,,,,,,,,,,SPECI,687.0
KM40 230935Z AUTO 15003KT 10SM CLR 12/12 A3012 RMK AO2,KM40,2022-10-23T09:35:00Z,33.87,-88.48,12.0,12.0,150,3,,10.0,30.121063,,,TRUE,TRUE,,,,,,,CLR,,,,,,,,VFR,,,,,,,,,,,,SPECI,68.0
KM30 230935Z AUTO 17009KT 10SM OVC060 19/11 A3000 RMK AO2 T01900108,KM30,2022-10-23T09:35:00Z,37.18,-88.75,19.0,10.8,170,9,,10.0,30.0,,,TRUE,TRUE,,,,,,,OVC,6000,,,,,,,VFR,,,,,,,,,,,,SPECI,116.0
KM21 230935Z AUTO 17005KT 10SM SCT060 OVC075 17/11 A3008 RMK AO2 T01720107,KM21,2022-10-23T09:35:00Z,37.22,-87.15,17.2,10.7,170,5,,10.0,30.079725,,,TRUE,TRUE,,,,,,,SCT,6000,OVC,7500,,,,,VFR,,,,,,,,,,,,METAR,127.0
KM08 230935Z AUTO 15007KT 10SM OVC047 17/12 A3005 RMK A01,KM08,2022-10-23T09:35:00Z,35.22,-89.05,17.0,12.0,150,7,,10.0,30.050198,,,TRUE,TRUE,,,,,,,OVC,4700,,,,,,,VFR,,,,,,,,,,,,METAR,149.0
KM04 230935Z AUTO 19009KT 10SM FEW050 18/12 A3001 RMK A01,KM04,2022-10-23T09:35:00Z,35.58,-89.58,18.0,12.0,190,9,,10.0,30.008858,,,TRUE,TRUE,,,,,,,FEW,5000,,,,,,,VFR,,,,,,,,,,,,METAR,83.0
KM02 230935Z AUTO 18006KT 10SM 15/11 A3010 RMK A01,KM02,2022-10-23T09:35:00Z,36.13,-87.43,15.0,11.0,180,6,,10.0,30.100393,,,TRUE,TRUE,,,,,,,,,,,,,,,,,,,,,,,,,,,METAR,268.0
KM01 230935Z AUTO 17011KT 10SM CLR 18/14 A2999 RMK AO2 T01850136 $,KM01,2022-10-23T09:35:00Z,35.2,-90.05,18.5,13.6,170,11,,10.0,29.991142,,,TRUE,TRUE,TRUE,,,,,,CLR,,,,,,,,VFR,,,,,,,,,,,,METAR,69.0
KLZZ 230935Z AUTO 21010G14KT 10SM CLR 20/17 A2979 RMK AO2 T02010170,KLZZ,2022-10-23T09:35:00Z,31.1,-98.2,20.1,17.0,210,10,14,10.0,29.790354,,,TRUE,TRUE,,,,,,,CLR,,,,,,,,VFR,,,,,,,,,,,,SPECI,356.0
KLYV 230935Z AUTO 12006KT 10SM CLR 11/08 A2949 RMK AO2,KLYV,2022-10-23T09:35:00Z,43.62,-96.22,11.0,8.0,120,6,,10.0,29.489174,,,TRUE,TRUE,,,,,,,CLR,,,,,,,,VFR,,,,,,,,,,,,METAR,435.0
KLYO 230935Z AUTO 17013KT 10SM CLR 19/08 A2945 RMK AO2 T01890078,KLYO,2022-10-23T09:35:00Z,38.35,-98.23,18.9,7.8,170,13,,10.0,29.450787,,,TRUE,TRUE,,,,,,,CLR,,,,,,,,VFR,,,,,,,,,,,,METAR,515.0
KLXY 230935Z AUTO 18013KT 10SM CLR 21/17 A2986 RMK AO2 T02120170,KLXY,2022-10-23T09:35:00Z,31.63,-96.52,21.2,17.0,180,13,,10.0,29.861221,,,TRUE,TRUE,,,,,,,CLR,,,,,,,,VFR,,,,,,,,,,,,SPECI,164.0
KLXN 230935Z AUTO 13007KT 10SM CLR 08/02 A2933 RMK AO2 T00750016,KLXN,2022-10-23T09:35:00Z,40.78,-99.77,7.5,1.6,130,7,,10.0,29.329725,,,TRUE,TRUE,,,,,,,CLR,,,,,,,,VFR,,,,,,,,,,,,SPECI,734.0
KLXL 230935Z AUTO 13008KT 10SM CLR 14/07 A2959 RMK AO2,KLXL,2022-10-23T09:35:00Z,45.95,-94.33,14.0,7.0,130,8,,10.0,29.589567,,,TRUE,TRUE,,,,,,,CLR,,,,,,,,VFR,,,,,,,,,,,,SPECI,335.0
KLWB 230935Z AUTO 00000KT 10SM CLR 01/00 A3026 RMK AO2 T00091001,KLWB,2022-10-23T09:35:00Z,37.87,-80.4,0.9,-0.1,0,0,,10.0,30.259842,,,TRUE,TRUE,,,,,,,CLR,,,,,,,,VFR,,,,,,,,,,,,SPECI,702.0
KLWA 230935Z AUTO 16003KT 10SM CLR 15/11 A2998 RMK AO2 T01500108,KLWA,2022-10-23T09:35:00Z,42.35,-86.25,15.0,10.8,160,3,,10.0,29.97933,,,TRUE,TRUE,,,,,,,CLR,,,,,,,,VFR,,,,,,,,,,,,SPECI,199.0
KLVN 230935Z AUTO 13003KT 10SM CLR 14/07 A2964 RMK AO2,KLVN,2022-10-23T09:35:00Z,44.63,-93.23,14.0,7.0,130,3,,10.0,29.639763,,,TRUE,TRUE,,,,,,,CLR,,,,,,,,VFR,,,,,,,,,,,,SPECI,292.0
KLVL 230935Z AUTO 34003KT 10SM CLR 11/09 A3019 RMK AO1 T01050086,KLVL,2022-10-23T09:35:00Z,36.78,-77.8,10.5,8.6,340,3,,10.0,30.188976,,,TRUE,TRUE,,,,,,,CLR,,,,,,,,VFR,,,,,,,,,,,,SPECI,98.0
KLUX 230935Z AUTO 34006KT 10SM CLR 05/03 A3020 RMK AO2,KLUX,2022-10-23T09:35:00Z,34.5,-81.95,5.0,3.0,340,6,,10.0,30.200787,,,TRUE,TRUE,,,,,,,CLR,,,,,,,,VFR,,,,,,,,,,,,SPECI,213.0
KLUV 230935Z AUTO 18011KT 10SM SCT070 OVC100 17/13 A2975 RMK AO2,KLUV,2022-10-23T09:35:00Z,32.75,-101.92,17.0,13.0,180,11,,10.0,29.749016,,,TRUE,TRUE,,,,,,,SCT,7000,OVC,10000,,,,,VFR,,,,,,,,,,,,METAR,910.0
KLUM 230935Z AUTO 11007KT 10SM CLR 14/12 A2970 RMK AO2 T01400116,KLUM,2022-10-23T09:35:00Z,44.9,-91.87,14.0,11.6,110,7,,10.0,29.698818,,,TRUE,TRUE,,,,,,,CLR,,,,,,,,VFR,,,,,,,,,,,,METAR,271.0
KLUL 230935Z AUTO 00000KT 10SM CLR 11/11 A3010 RMK A02 T01130110,KLUL,2022-10-23T09:35:00Z,31.67,-89.17,11.3,11.0,0,0,,10.0,30.100393,,,TRUE,TRUE,,,,,,,CLR,,,,,,,,VFR,,,,,,,,,,,,METAR,74.0
KLUG 230935Z AUTO 00000KT 9SM FEW060 07/07 A3013 RMK A01,KLUG,2022-10-23T09:35:00Z,35.52,-86.8,7.0,7.0,0,0,,9.0,30.129921,,,TRUE,TRUE,,,,,,,FEW,6000,,,,,,,VFR,,,,,,,,,,,,METAR,218.0
KLUD 230935Z AUTO 17012G15KT 7SM CLR 20/16 A2977 RMK AO2 T02010156,KLUD,2022-10-23T09:35:00Z,33.25,-97.58,20.1,15.6,170,12,15,7.0,29.769686,,,TRUE,TRUE,,,,,,,CLR,,,,,,,,VFR,,,,,,,,,,,,SPECI,319.0
KLUA 230935Z AUTO 00000KT 7SM CLR 01/01 A3026 RMK AO2,KLUA,2022-10-23T09:35:00Z,38.67,-78.5,1.0,1.0,0,0,,7.0,30.259842,,,TRUE,TRUE,,,,,,,CLR,,,,,,,,VFR,,,,,,,,,,,,METAR,273.0
KLRY 230935Z AUTO 17007KT 10SM BKN120 20/12 A2965 RMK AO2,KLRY,2022-10-23T09:35:00Z,38.62,-94.35,20.0,12.0,170,7,,10.0,29.648623,,,TRUE,TRUE,,,,,,,BKN,12000,,,,,,,VFR,,,,,,,,,,,,SPECI,272.0
KLRU 230935Z AUTO 24018G23KT 10SM CLR 19/10 A2980 RMK AO2 T01920095,KLRU,2022-10-23T09:35:00Z,32.28,-106.92,19.2,9.5,240,18,23,10.0,29.799213,,,TRUE,TRUE,,,,,,,CLR,,,,,,,,VFR,,,,,,,,,,,,SPECI,1355.0
KLRO 230935Z AUTO 00000KT 10SM CLR 13/13 A3013 RMK AO2,KLRO,2022-10-23T09:35:00Z,32.9,-79.78,13.0,13.0,0,0,,10.0,30.129921,,,TRUE,TRUE,,,,,,,CLR,,,,,,,,VFR,,,,,,,,,,,,SPECI,3.0
KLRJ 230935Z AUTO 13010KT 10SM CLR 14/11 A2945 RMK AO2,KLRJ,2022-10-23T09:35:00Z,42.77,-96.2,14.0,11.0,130,10,,10.0,29.450787,,,TRUE,TRUE,,,,,,,CLR,,,,,,,,VFR,,,,,,,,,,,,METAR,363.0
KLOT 230935Z AUTO 17015KT 10SM CLR 16/11 A2992 RMK AO2,KLOT,2022-10-23T09:35:00Z,41.6,-88.1,16.0,11.0,170,15,,10.0,29.920275,,,TRUE,TRUE,,,,,,,CLR,,,,,,,,VFR,,,,,,,,,,,,METAR,205.0
KLOM 230935Z AUTO 00000KT 10SM BKN031 OVC038 09/08 A3028 RMK AO2 T00930075,KLOM,2022-10-23T09:35:00Z,40.13,-75.27,9.3,7.5,0,0,,10.0,30.280512,,,TRUE,TRUE,,,,,,,BKN,3100,OVC,3800,,,,,VFR,,,,,,,,,,,,SPECI,87.0
KLNQ 230935Z AUTO 10003KT 10SM CLR 19/16 A3008 RMK AO2 T01870164,KLNQ,2022-10-23T09:35:00Z,29.35,-89.43,18.7,16.4,100,3,,10.0,30.079725,,,TRUE,TRUE,,,,,,,CLR,,,,,,,,VFR,,,,,,,,,,,,METAR,1.0
KLNP 230935Z AUTO 17003KT 10SM CLR 08/01 A3024 RMK AO2,KLNP,2022-10-23T09:35:00Z,36.98,-82.52,8.0,1.0,170,3,,10.0,30.239174,,,TRUE,TRUE,,,,,,,CLR,,,,,,,,VFR,,,,,,,,,,,,SPECI,817.0
KLNN 230935Z AUTO 16004KT 10SM CLR 14/03 A3017 RMK AO1 T01440031,KLNN,2022-10-23T09:35:00Z,41.68,-81.38,14.4,3.1,160,4,,10.0,30.171259,,,TRUE,TRUE,,,,,,,CLR,,,,,,,,VFR,,,,,,,,,,,,SPECI,190.0
KLNL 230935Z AUTO 17003KT 10SM CLR 13/09 A2983 RMK AO2 T01310087,KLNL,2022-10-23T09:35:00Z,46.15,-89.22,13.1,8.7,170,3,,10.0,29.828741,,,TRUE,TRUE,,,,,,,CLR,,,,,,,,VFR,,,,,,,,,,,,METAR,517.0
KLNC 230935Z AUTO 17010KT 10SM BKN022 21/16 A2983 RMK AO2 T02080160,KLNC,2022-10-23T09:35:00Z,32.58,-96.72,20.8,16.0,170,10,,10.0,29.828741,,,TRUE,TRUE,,,,,,,BKN,2200,,,,,,,MVFR,,,,,,,,,,,,SPECI,152.0
KLNA 230935Z AUTO 00000KT 10SM CLR 21/20 A3002 RMK AO2 T02070200 PNO,KLNA,2022-10-23T09:35:00Z,26.6,-80.08,20.7,20.0,0,0,,10.0,30.02067,,,TRUE,TRUE,,,,,,,CLR,,,,,,,,VFR,,,,,,,,,,,,METAR,3.0
KLMO 230935Z AUTO 35003KT 7SM CLR 09/M01 A2933 RMK AO2 T00851008,KLMO,2022-10-23T09:35:00Z,40.17,-105.17,8.5,-0.8,350,3,,7.0,29.329725,,,TRUE,TRUE,,,,,,,CLR,,,,,,,,VFR,,,,,,,,,,,,METAR,1535.0
KLLN 230935Z AUTO 19010KT 10SM CLR 15/13 A2975 RMK AO2,KLLN,2022-10-23T09:35:00Z,33.55,-102.37,15.0,13.0,190,10,,10.0,29.749016,,,TRUE,TRUE,,,,,,,CLR,,,,,,,,VFR,,,,,,,,,,,,METAR,1071.0
KLKU 230935Z AUTO 33005KT 10SM CLR 06/05 A3023 RMK AO2 T00570052,KLKU,2022-10-23T09:35:00Z,38.02,-77.97,5.7,5.2,330,5,,10.0,30.230314,,,TRUE,TRUE,,,,,,,CLR,,,,,,,,VFR,,,,,,,,,,,,SPECI,146.0
KLKR 230935Z AUTO 00000KT 10SM OVC036 06/05 A3019 RMK AO2,KLKR,2022-10-23T09:35:00Z,34.72,-80.85,6.0,5.0,0,0,,10.0,30.188976,,,TRUE,TRUE,,,,,,,OVC,3600,,,,,,,VFR,,,,,,,,,,,,SPECI,166.0
KLJF 230935Z AUTO 14007KT 10SM CLR 13/07 A2957 RMK AO2,KLJF,2022-10-23T09:35:00Z,45.1,-94.52,13.0,7.0,140,7,,10.0,29.568897,,,TRUE,TRUE,,,,,,,CLR,,,,,,,,VFR,,,,,,,,,,,,METAR,347.0
KLHM 230935Z AUTO 33006KT 10SM CLR 08/01 A2984 RMK AO1,KLHM,2022-10-23T09:35:00Z,38.92,-121.35,8.0,1.0,330,6,,10.0,29.840551,,,TRUE,TRUE,,,,,,,CLR,,,,,,,,VFR,,,,,,,,,,,,SPECI,36.0
KLHB 230935Z AUTO 13004KT 10SM SCT040 19/16 A2989 RMK AO2 T01890162,KLHB,2022-10-23T09:35:00Z,30.87,-96.62,18.9,16.2,130,4,,10.0,29.890747,,,TRUE,TRUE,,,,,,,SCT,4000,,,,,,,VFR,,,,,,,,,,,,SPECI,83.0
KLGC 230935Z AUTO 00000KT 10SM CLR 03/02 A3019 RMK AO2 T00330024,KLGC,2022-10-23T09:35:00Z,33.0,-85.07,3.3,2.4,0,0,,10.0,30.188976,,,TRUE,TRUE,,,,,,,CLR,,,,,,,,VFR,,,,,,,,,,,,SPECI,209.0
KLDM 230935Z AUTO 17004KT 10SM CLR 17/11 A2995 RMK AO2 T01700111,KLDM,2022-10-23T09:35:00Z,43.97,-86.4,17.0,11.1,170,4,,10.0,29.949802,,,TRUE,TRUE,,,,,,,CLR,,,,,,,,VFR,,,,,,,,,,,,METAR,194.0
KLDJ 230935Z AUTO 02004KT 10SM OVC047 13/07 A3028 RMK AO2 T01270066,KLDJ,2022-10-23T09:35:00Z,40.62,-74.25,12.7,6.6,20,4,,10.0,30.280512,,,TRUE,TRUE,,,,,,,OVC,4700,,,,,,,VFR,,,,,,,,,,,,METAR,6.0
KLCQ 230935Z AUTO 00000KT 10SM CLR 07/07 A3012 RMK AO2,KLCQ,2022-10-23T09:35:00Z,30.18,-82.58,7.0,7.0,0,0,,10.0,30.121063,,,TRUE,TRUE,,,,,,,CLR,,,,,,,,VFR,,,,,,,,,,,,SPECI,59.0
KLCG 230935Z AUTO 00000KT 10SM CLR 13/10 A2943 RMK AO2 T01250095,KLCG,2022-10-23T09:35:00Z,42.25,-96.98,12.5,9.5,0,0,,10.0,29.430119,,,TRUE,TRUE,,,,,,,CLR,,,,,,,,VFR,,,,,,,,,,,,SPECI,434.0
KLBO 230935Z AUTO 18013G22KT 10SM CLR 18/11 A2977 RMK AO2,KLBO,2022-10-23T09:35:00Z,37.65,-92.65,18.0,11.0,180,13,22,10.0,29.769686,,,TRUE,TRUE,,,,,,,CLR,,,,,,,,VFR,,,,,,,,,,,,SPECI,399.0
KLBE 230935Z AUTO 00000KT 10SM CLR 04/02 A3023 RMK AO2,KLBE,2022-10-23T09:35:00Z,40.27,-79.4,4.0,2.0,0,0,,10.0,30.230314,,,TRUE,TRUE,,,,,,,CLR,,,,,,,,VFR,,,,,,,,,,,,SPECI,345.0
KLAM 230935Z AUTO 21015G27KT 10SM CLR 12/04 A2975 RMK AO2 LTG DSNT NE T01200043,KLAM,2022-10-23T09:35:00Z,35.87,-106.27,12.0,4.3,210,15,27,10.0,29.749016,,,TRUE,TRUE,,,,,,,CLR,,,,,,,,VFR,,,,,,,,,,,,SPECI,2166.0
KLAL 230935Z AUTO 00000KT 10SM CLR 16/14 A3008 RMK AO2 T01590137,KLAL,2022-10-23T09:35:00Z,27.98,-82.02,15.9,13.7,0,0,,10.0,30.079725,,,TRUE,TRUE,,,,,,,CLR,,,,,,,,VFR,,,,,,,,,,,,SPECI,39.0
KL52 230935Z AUTO 00000KT 8SM CLR 09/09 A2985 RMK A01,KL52,2022-10-23T09:35:00Z,35.1,-120.62,9.0,9.0,0,0,,8.0,29.84941,,,TRUE,TRUE,,,,,,,CLR,,,,,,,,VFR,,,,,,,,,,,,SPECI,3.0
KL35 230935Z AUTO 26005KT 10SM BKN012 BKN019 03/01 A2984 RMK AO2,KL35,2022-10-23T09:35:00Z,34.27,-116.85,3.0,1.0,260,5,,10.0,29.840551,,,TRUE,TRUE,,,,,,,BKN,1200,BKN,1900,,,,,MVFR,,,,,,,,,,,,SPECI,2062.0
KL18 230935Z AUTO 20003KT 10SM SCT007 BKN010 BKN015 14/14 A2981 RMK AO2,KL18,2022-10-23T09:35:00Z,33.35,-117.25,14.0,14.0,200,3,,10.0,29.811024,,,TRUE,TRUE,,,,,,,SCT,700,BKN,1000,BKN,1500,,,MVFR,,,,,,,,,,,,METAR,215.0
KL08 230935Z AUTO 36003KT 10SM FEW048 BKN060 OVC070 19/11 A2974 RMK AO2,KL08,2022-10-23T09:35:00Z,33.27,-116.32,19.0,11.0,360,3,,10.0,29.740158,,,TRUE,TRUE,,,,,,,FEW,4800,BKN,6000,OVC,7000,,,VFR,,,,,,,,,,,,SPECI,156.0
KKY8 230935Z AUTO 16006KT 10SM BKN070 18/13 A3007 RMK A01,KKY8,2022-10-23T09:35:00Z,37.95,-86.87,18.0,13.0,160,6,,10.0,30.070866,,,TRUE,TRUE,,,,,,,BKN,7000,,,,,,,VFR,,,,,,,,,,,,SPECI,124.0
KK88 230935Z AUTO 17018G25KT 10SM CLR 21/13 A2962 RMK AO1 T02110125,KK88,2022-10-23T09:35:00Z,37.87,-95.38,21.1,12.5,170,18,25,10.0,29.619095,,,TRUE,TRUE,,,,,,,CLR,,,,,,,,VFR,,,,,,,,,,,,SPECI,308.0
KK70 230935Z AUTO VRB03G10KT 10SM CLR 23/22 A2998 RMK AO2,KK70,2022-10-23T09:35:00Z,25.32,-80.28,23.0,22.0,0,3,10,10.0,29.97933,,,TRUE,TRUE,,,,,,,CLR,,,,,,,,VFR,,,,,,,,,,,,METAR,20.0
KK62 230935Z AUTO 16008KT 10SM CLR 13/07 A3014 RMK AO2,KK62,2022-10-23T09:35:00Z,38.7,-84.4,13.0,7.0,160,8,,10.0,30.138779,,,TRUE,TRUE,,,,,,,CLR,,,,,,,,VFR,,,,,,,,,,,,METAR,274.0
KJZI 230935Z AUTO 34005KT 10SM CLR 14/12 A3013 RMK AO2,KJZI,2022-10-23T09:35:00Z,32.7,-80.0,14.0,12.0,340,5,,10.0,30.129921,,,TRUE,TRUE,,,,,,,CLR,,,,,,,,VFR,,,,,,,,,,,,SPECI,5.0
KJYR 230935Z AUTO 14008KT 10SM CLR 14/11 A2939 RMK AO2,KJYR,2022-10-23T09:35:00Z,40.9,-97.62,14.0,11.0,140,8,,10.0,29.388779,,,TRUE,TRUE,,,,,,,CLR,,,,,,,,VFR,,,,,,,,,,,,METAR,508.0
KJYM 230935Z AUTO 15004KT 10SM CLR 12/09 A3008 RMK AO2 T01150091,KJYM,2022-10-23T09:35:00Z,41.92,-84.58,11.5,9.1,150,4,,10.0,30.079725,,,TRUE,TRUE,,,,,,,CLR,,,,,,,,VFR,,,,,,,,,,,,SPECI,357.0
KJYL 230935Z AUTO 00000KT 10SM CLR 07/05 A3016 RMK AO2 T00650051,KJYL,2022-10-23T09:35:00Z,32.65,-81.6,6.5,5.1,0,0,,10.0,30.159449,,,TRUE,TRUE,,,,,,,CLR,,,,,,,,VFR,,,,,,,,,,,,METAR,54.0
KJWY 230935Z AUTO 18012G20KT 10SM OVC021 21/17 A2984 RMK AO2 T02080171,KJWY,2022-10-23T09:35:00Z,32.45,-96.92,20.8,17.1,180,12,20,10.0,29.840551,,,TRUE,TRUE,,,,,,,OVC,2100,,,,,,,MVFR,,,,,,,,,,,,SPECI,211.0
KJWN 230935Z AUTO 00000KT 10SM 12/10 A3010 RMK A01,KJWN,2022-10-23T09:35:00Z,36.18,-86.88,12.0,10.0,0,0,,10.0,30.100393,,,TRUE,TRUE,,,,,,,,,,,,,,,,,,,,,,,,,,,METAR,149.0
KJWG 230935Z AUTO 16010KT 10SM CLR 22/12 A2962 RMK AO2 T02150120,KJWG,2022-10-23T09:35:00Z,35.87,-98.42,21.5,12.0,160,10,,10.0,29.619095,,,TRUE,TRUE,,,,,,,CLR,,,,,,,,VFR,,,,,,,,,,,,METAR,469.0
KJVY 230935Z AUTO 00000KT 10SM SCT065 10/10 A3011 RMK AO2 PWINO,KJVY,2022-10-23T09:35:00Z,38.37,-85.73,10.0,10.0,0,0,,10.0,30.109253,,,TRUE,TRUE,,,,,TRUE,,SCT,6500,,,,,,,VFR,,,,,,,,,,,,SPECI,141.0
KJVW 230935Z AUTO 13005KT 10SM CLR 15/15 A3006 RMK AO2,KJVW,2022-10-23T09:35:00Z,32.3,-90.42,15.0,15.0,130,5,,10.0,30.059055,,,TRUE,TRUE,,,,,,,CLR,,,,,,,,VFR,,,,,,,,,,,,SPECI,73.0
KJVL 230935Z AUTO 16008KT 10SM CLR 15/10 A2985 RMK AO2,KJVL,2022-10-23T09:35:00Z,42.62,-89.05,15.0,10.0,160,8,,10.0,29.84941,,,TRUE,TRUE,,,,,,,CLR,,,,,,,,VFR,,,,,,,,,,,,METAR,244.0
KJTC 230935Z AUTO VRB06G14KT 10SM SCT050 SCT060 12/02 A2980 RMK AO2,KJTC,2022-10-23T09:35:00Z,34.13,-109.32,12.0,2.0,0,6,14,10.0,29.799213,,,TRUE,TRUE,,,,,,,SCT,5000,SCT,6000,,,,,VFR,,,,,,,,,,,,SPECI,2148.0
KJSY 230935Z AUTO 1SM BR BKN005 BKN013 OVC026 M01/M01 A2979 RMK AO2 P0001 T10091009 TSNO,KJSY,2022-10-23T09:35:00Z,45.35,-117.25,-0.9,-0.9,,,,1.0,29.790354,,,TRUE,TRUE,,,TRUE,,,BR,BKN,500,BKN,1300,OVC,2600,,,IFR,,,,,,0.01,,,,,,METAR,1256.0
KJSO 230935Z AUTO 19009KT 10SM CLR 18/17 A2993 RMK AO2 T01800170 TSNO,KJSO,2022-10-23T09:35:00Z,31.87,-95.22,18.0,17.0,190,9,,10.0,29.929134,,,TRUE,TRUE,,,TRUE,,,,CLR,,,,,,,,VFR,,,,,,,,,,,,METAR,204.0
KJQF 230935Z AUTO 00000KT 10SM CLR 05/03 A3023 RMK AO2,KJQF,2022-10-23T09:35:00Z,35.38,-80.72,5.0,3.0,0,0,,10.0,30.230314,,,TRUE,TRUE,,,,,,,CLR,,,,,,,,VFR,,,,,,,,,,,,SPECI,204.0
KJPX 230935Z AUTO 02004KT 10SM OVC045 14/14 A3028 RMK AO2 T01350135,KJPX,2022-10-23T09:35:00Z,40.95,-72.25,13.5,13.5,20,4,,10.0,30.280512,,,TRUE,TRUE,,,,,,,OVC,4500,,,,,,,VFR,,,,,,,,,,,,SPECI,10.0
KJOT 230935Z AUTO 17007KT 10SM CLR 17/11 A2991 RMK AO2 T01700112,KJOT,2022-10-23T09:35:00Z,41.52,-88.18,17.0,11.2,170,7,,10.0,29.911417,,,TRUE,TRUE,,,,,,,CLR,,,,,,,,VFR,,,,,,,,,,,,SPECI,175.0
KJNX 230935Z AUTO 00000KT 10SM CLR 11/08 A3015 RMK AO2,KJNX,2022-10-23T09:35:00Z,35.53,-78.38,11.0,8.0,0,0,,10.0,30.15059,,,TRUE,TRUE,,,,,,,CLR,,,,,,,,VFR,,,,,,,,,,,,SPECI,41.0
KJMR 230935Z AUTO 00000KT 10SM CLR 07/05 A2967 RMK AO2,KJMR,2022-10-23T09:35:00Z,45.88,-93.27,7.0,5.0,0,0,,10.0,29.66929,,,TRUE,TRUE,,,,,,,CLR,,,,,,,,VFR,,,,,,,,,,,,METAR,301.0
KJKJ 230935Z AUTO 09003KT 10SM CLR 03/M01 A2952 RMK AO2 TSNO,KJKJ,2022-10-23T09:35:00Z,46.83,-96.67,3.0,-1.0,90,3,,10.0,29.518702,,,TRUE,TRUE,,,TRUE,,,,CLR,,,,,,,,VFR,,,,,,,,,,,,METAR,280.0
KJKA 230935Z AUTO 05004KT 10SM CLR 12/10 A3010 RMK AO2,KJKA,2022-10-23T09:35:00Z,30.28,-87.67,12.0,10.0,50,4,,10.0,30.100393,,,TRUE,TRUE,,,,,,,CLR,,,,,,,,VFR,,,,,,,,,,,,SPECI,5.0
KJHN 230935Z AUTO 21015G20KT 10SM CLR 19/09 A2947 RMK AO2 T01890087,KJHN,2022-10-23T09:35:00Z,37.58,-101.73,18.9,8.7,210,15,20,10.0,29.471457,,,TRUE,TRUE,,,,,,,CLR,,,,,,,,VFR,,,,,,,,,,,,SPECI,1013.0
KJFZ 230935Z AUTO 00000KT 10SM CLR 09/01 A3023 RMK AO2 T00940010,KJFZ,2022-10-23T09:35:00Z,37.07,-81.8,9.4,1.0,0,0,,10.0,30.230314,,,TRUE,TRUE,,,,,,,CLR,,,,,,,,VFR,,,,,,,,,,,,SPECI,809.0
KJFX 230935Z AUTO 00000KT 4SM BR CLR 07/06 A3014 RMK AO2,KJFX,2022-10-23T09:35:00Z,33.9,-87.32,7.0,6.0,0,0,,4.0,30.138779,,,TRUE,TRUE,,,,,,BR,CLR,,,,,,,,MVFR,,,,,,,,,,,,SPECI,144.0
KJES 230935Z AUTO 00000KT 10SM CLR 05/03 A3015 RMK AO2,KJES,2022-10-23T09:35:00Z,31.55,-81.88,5.0,3.0,0,0,,10.0,30.15059,,,TRUE,TRUE,,,,,,,CLR,,,,,,,,VFR,,,,,,,,,,,,METAR,26.0
KJDD 230935Z AUTO 15004KT 10SM SCT019 20/18 A2987 RMK AO2,KJDD,2022-10-23T09:35:00Z,32.75,-95.5,20.0,18.0,150,4,,10.0,29.870079,,,TRUE,TRUE,,,,,,,SCT,1900,,,,,,,VFR,,,,,,,,,,,,SPECI,127.0
KJCA 230935Z AUTO 36004KT 10SM CLR 06/04 A3021 RMK AO2 T00630045,KJCA,2022-10-23T09:35:00Z,34.18,-83.57,6.3,4.5,360,4,,10.0,30.209646,,,TRUE,TRUE,,,,,,,CLR,,,,,,,,VFR,,,,,,,,,,,,METAR,287.0
KJAS 230935Z AUTO 00000KT 10SM SCT037 BKN043 OVC048 18/17 A2994 RMK AO2,KJAS,2022-10-23T09:35:00Z,30.88,-94.03,18.0,17.0,0,0,,10.0,29.940945,,,TRUE,TRUE,,,,,,,SCT,3700,BKN,4300,OVC,4800,,,VFR,,,,,,,,,,,,SPECI,60.0
KJAQ 230935Z AUTO 00000KT 10SM CLR 08/M01 A2982 RMK AO1 T00811015,KJAQ,2022-10-23T09:35:00Z,38.37,-120.8,8.1,-1.5,0,0,,10.0,29.819881,,,TRUE,TRUE,,,,,,,CLR,,,,,,,,VFR,,,,,,,,,,,,METAR,518.0
KIZA 230935Z AUTO 00000KT 8SM OVC013 09/08 A2983 RMK AO2,KIZA,2022-10-23T09:35:00Z,34.6,-120.07,9.0,8.0,0,0,,8.0,29.828741,,,TRUE,TRUE,,,,,,,OVC,1300,,,,,,,MVFR,,,,,,,,,,,,METAR,200.0
KIYA 230935Z AUTO 00000KT CLR 17/15 A3001 RMK AO2 T01700147 PWINO,KIYA,2022-10-23T09:35:00Z,29.98,-92.08,17.0,14.7,0,0,,,30.008858,,,TRUE,TRUE,,,,,TRUE,,CLR,,,,,,,,,,,,,,,,,,,,METAR,4.0
KIXA 230935Z AUTO 02006KT 10SM CLR 09/09 A3015 RMK AO2,KIXA,2022-10-23T09:35:00Z,36.33,-77.63,9.0,9.0,20,6,,10.0,30.15059,,,TRUE,TRUE,,,,,,,CLR,,,,,,,,VFR,,,,,,,,,,,,SPECI,43.0
KIWA 230935Z AUTO 21014KT 10SM SCT065 20/13 A2972 RMK AO2 T02040133,KIWA,2022-10-23T09:35:00Z,33.3,-111.65,20.4,13.3,210,14,,10.0,29.719488,,,TRUE,TRUE,,,,,,,SCT,6500,,,,,,,VFR,,,,,,,,,,,,METAR,420.0
KIUA 230935Z AUTO 16004KT 10SM CLR 09/04 A3024 RMK AO2 T00870043,KIUA,2022-10-23T09:35:00Z,42.92,-77.33,8.7,4.3,160,4,,10.0,30.239174,,,TRUE,TRUE,,,,,,,CLR,,,,,,,,VFR,,,,,,,,,,,,METAR,248.0
KISQ 230935Z AUTO 19005KT 10SM CLR 10/09 A2992 RMK AO2 T01000090,KISQ,2022-10-23T09:35:00Z,45.97,-86.17,10.0,9.0,190,5,,10.0,29.920275,,,TRUE,TRUE,,,,,,,CLR,,,,,,,,VFR,,,,,,,,,,,,SPECI,206.0
KISO 230935Z AUTO 35005KT 10SM CLR 13/11 A3012 RMK AO2 T01300107,KISO,2022-10-23T09:35:00Z,35.32,-77.62,13.0,10.7,350,5,,10.0,30.121063,,,TRUE,TRUE,,,,,,,CLR,,,,,,,,VFR,,,,,,,,,,,,SPECI,27.0
KIRS 230935Z AUTO 16006KT 10SM CLR 13/12 A3003 RMK AO2 T01340119,KIRS,2022-10-23T09:35:00Z,41.8,-85.43,13.4,11.9,160,6,,10.0,30.029528,,,TRUE,TRUE,,,,,,,CLR,,,,,,,,VFR,,,,,,,,,,,,SPECI,282.0
KIOB 230935Z AUTO 20005KT 10SM CLR 11/07 A3018 RMK AO2 PWINO,KIOB,2022-10-23T09:35:00Z,38.05,-83.98,11.0,7.0,200,5,,10.0,30.180119,,,TRUE,TRUE,,,,,TRUE,,CLR,,,,,,,,VFR,,,,,,,,,,,,SPECI,301.0
KINJ 230935Z AUTO 18012G19KT 10SM OVC019 22/18 A2982 RMK AO2 T02150175,KINJ,2022-10-23T09:35:00Z,32.08,-97.1,21.5,17.5,180,12,19,10.0,29.819881,,,TRUE,TRUE,,,,,,,OVC,1900,,,,,,,MVFR,,,,,,,,,,,,SPECI,208.0
KINF 230935Z AUTO 00000KT 10SM CLR 13/13 A3010 RMK AO2,KINF,2022-10-23T09:35:00Z,28.8,-82.32,13.0,13.0,0,0,,10.0,30.100393,,,TRUE,TRUE,,,,,,,CLR,,,,,,,,VFR,,,,,,,,,,,,SPECI,14.0
KIMS 230935Z AUTO 15003KT 10SM CLR 13/11 A3013 RMK AO2,KIMS,2022-10-23T09:35:00Z,38.75,-85.47,13.0,11.0,150,3,,10.0,30.129921,,,TRUE,TRUE,,,,,,,CLR,,,,,,,,VFR,,,,,,,,,,,,SPECI,244.0
KIKW 230935Z AUTO 16004KT 10SM CLR 14/10 A3004 RMK AO2 T01360097,KIKW,2022-10-23T09:35:00Z,43.67,-84.27,13.6,9.7,160,4,,10.0,30.041338,,,TRUE,TRUE,,,,,,,CLR,,,,,,,,VFR,,,,,,,,,,,,METAR,190.0
KIKV 230935Z AUTO 14008KT 10SM CLR 16/11 A2962 RMK AO2,KIKV,2022-10-23T09:35:00Z,41.68,-93.57,16.0,11.0,140,8,,10.0,29.619095,,,TRUE,TRUE,,,,,,,CLR,,,,,,,,VFR,,,,,,,,,,,,METAR,270.0
KIKK 230935Z AUTO 16008KT 10SM SCT050 16/10 A2994 RMK AO2 T01570103,KIKK,2022-10-23T09:35:00Z,41.07,-87.85,15.7,10.3,160,8,,10.0,29.940945,,,TRUE,TRUE,,,,,,,SCT,5000,,,,,,,VFR,,,,,,,,,,,,METAR,188.0
KIJX 230935Z AUTO 15012G17KT 10SM CLR 17/12 A2982 RMK AO2 T01710115,KIJX,2022-10-23T09:35:00Z,39.77,-90.25,17.1,11.5,150,12,17,10.0,29.819881,,,TRUE,TRUE,,,,,,,CLR,,,,,,,,VFR,,,,,,,,,,,,METAR,187.0
KIIY 230935Z AUTO 35004KT 10SM CLR 07/04 A3020 RMK AO2 T00720038,KIIY,2022-10-23T09:35:00Z,33.78,-82.82,7.2,3.8,350,4,,10.0,30.200787,,,TRUE,TRUE,,,,,,,CLR,,,,,,,,VFR,,,,,,,,,,,,METAR,192.0
KIIB 230935Z AUTO 13009KT 10SM CLR 14/11 A2973 RMK AO2 T01400108,KIIB,2022-10-23T09:35:00Z,42.45,-91.95,14.0,10.8,130,9,,10.0,29.731298,,,TRUE,TRUE,,,,,,,CLR,,,,,,,,VFR,,,,,,,,,,,,METAR,294.0
KIGQ 230935Z AUTO 17010G15KT 10SM CLR 16/11 A2993 RMK AO2 T01580107,KIGQ,2022-10-23T09:35:00Z,41.53,-87.53,15.8,10.7,170,10,15,10.0,29.929134,,,TRUE,TRUE,,,,,,,CLR,,,,,,,,VFR,,,,,,,,,,,,SPECI,187.0
KIFP 230935Z AUTO 22011KT 10SM CLR 21/06 A2962 RMK AO2,KIFP,2022-10-23T09:35:00Z,35.15,-114.57,21.0,6.0,220,11,,10.0,29.619095,,,TRUE,TRUE,,,,,,,CLR,,,,,,,,VFR,,,,,,,,,,,,SPECI,210.0
KIFA 230935Z AUTO 13010KT 10SM CLR 16/12 A2965 RMK AO2 T01610115,KIFA,2022-10-23T09:35:00Z,42.47,-93.27,16.1,11.5,130,10,,10.0,29.648623,,,TRUE,TRUE,,,,,,,CLR,,,,,,,,VFR,,,,,,,,,,,,SPECI,344.0
KIER 230935Z AUTO 14004KT 10SM SCT046 16/16 A2998 RMK AO2 T01620155,KIER,2022-10-23T09:35:00Z,31.73,-93.1,16.2,15.5,140,4,,10.0,29.97933,,,TRUE,TRUE,,,,,,,SCT,4600,,,,,,,VFR,,,,,,,,,,,,METAR,35.0
KIDP 230935Z AUTO 17020G26KT 10SM CLR 22/13 A2962 RMK AO2 T02200134,KIDP,2022-10-23T09:35:00Z,37.17,-95.78,22.0,13.4,170,20,26,10.0,29.619095,,,TRUE,TRUE,,,,,,,CLR,,,,,,,,VFR,,,,,,,,,,,,SPECI,252.0
KIDI 230935Z AUTO 00000KT 10SM CLR 04/03 A3027 RMK A01,KIDI,2022-10-23T09:35:00Z,40.63,-79.1,4.0,3.0,0,0,,10.0,30.268702,,,TRUE,TRUE,,,,,,,CLR,,,,,,,,VFR,,,,,,,,,,,,SPECI,425.0
KICL 230935Z AUTO 17008G15KT 10SM CLR 18/12 A2954 RMK AO2,KICL,2022-10-23T09:35:00Z,40.72,-95.02,18.0,12.0,170,8,15,10.0,29.53937,,,TRUE,TRUE,,,,,,,CLR,,,,,,,,VFR,,,,,,,,,,,,SPECI,299.0
KIBM 230935Z AUTO 28004KT 10SM CLR 05/M07 A2932 RMK AO2 T00541073,KIBM,2022-10-23T09:35:00Z,41.18,-103.68,5.4,-7.3,280,4,,10.0,29.320866,,,TRUE,TRUE,,,,,,,CLR,,,,,,,,VFR,,,,,,,,,,,,METAR,1494.0
KI75 230935Z AUTO 13011KT 10SM CLR 17/12 A2962 RMK AO2 T01720122,KI75,2022-10-23T09:35:00Z,41.05,-93.68,17.2,12.2,130,11,,10.0,29.619095,,,TRUE,TRUE,,,,,,,CLR,,,,,,,,VFR,,,,,,,,,,,,METAR,336.0
KI74 230935Z AUTO 00000KT 10SM CLR 06/06 A3014 RMK AO2,KI74,2022-10-23T09:35:00Z,40.12,-83.75,6.0,6.0,0,0,,10.0,30.138779,,,TRUE,TRUE,,,,,,,CLR,,,,,,,,VFR,,,,,,,,,,,,SPECI,322.0
KI69 230935Z AUTO 00000KT 10SM CLR 12/09 A3015 RMK AO2 T01220085,KI69,2022-10-23T09:35:00Z,39.08,-84.22,12.2,8.5,0,0,,10.0,30.15059,,,TRUE,TRUE,,,,,,,CLR,,,,,,,,VFR,,,,,,,,,,,,METAR,238.0
KI68 230935Z AUTO 12004KT 10SM CLR 13/09 A3014 RMK AO1 T01330086,KI68,2022-10-23T09:35:00Z,39.47,-84.25,13.3,8.6,120,4,,10.0,30.138779,,,TRUE,TRUE,,,,,,,CLR,,,,,,,,VFR,,,,,,,,,,,,SPECI,274.0
KI67 230935Z AUTO 00000KT 10SM CLR 08/07 A3012 RMK AO1,KI67,2022-10-23T09:35:00Z,39.25,-84.78,8.0,7.0,0,0,,10.0,30.121063,,,TRUE,TRUE,,,,,,,CLR,,,,,,,,VFR,,,,,,,,,,,,SPECI,177.0
KI63 230935Z AUTO 15010KT 10SM SCT070 BKN085 16/12 A2979 RMK AO2 T01600116,KI63,2022-10-23T09:35:00Z,39.98,-90.8,16.0,11.6,150,10,,10.0,29.790354,,,TRUE,TRUE,,,,,,,SCT,7000,BKN,8500,,,,,VFR,,,,,,,,,,,,METAR,221.0
KI35 230935Z AUTO 00000KT 10SM CLR 06/06 A3021 RMK AO2 T00580058,KI35,2022-10-23T09:35:00Z,36.87,-83.37,5.8,5.8,0,0,,10.0,30.209646,,,TRUE,TRUE,,,,,,,CLR,,,,,,,,VFR,,,,,,,,,,,,METAR,467.0
KI23 230935Z AUTO 00000KT 10SM CLR 11/07 A3015 RMK AO1,KI23,2022-10-23T09:35:00Z,39.57,-83.42,11.0,7.0,0,0,,10.0,30.15059,,,TRUE,TRUE,,,,,,,CLR,,,,,,,,VFR,,,,,,,,,,,,SPECI,298.0
KHZX 230935Z AUTO 13005KT 10SM CLR 08/06 A2964 RMK AO2,KHZX,2022-10-23T09:35:00Z,46.62,-93.32,8.0,6.0,130,5,,10.0,29.639763,,,TRUE,TRUE,,,,,,,CLR,,,,,,,,VFR,,,,,,,,,,,,SPECI,374.0
KHZR 230935Z AUTO 10003KT 10SM CLR 15/14 A3004 RMK AO2 T01500139,KHZR,2022-10-23T09:35:00Z,30.72,-91.48,15.0,13.9,100,3,,10.0,30.041338,,,TRUE,TRUE,,,,,,,CLR,,,,,,,,VFR,,,,,,,,,,,,METAR,11.0
KHZL 230935Z AUTO 00000KT 7SM CLR 02/01 A3032 RMK AO2,KHZL,2022-10-23T09:35:00Z,40.98,-76.0,2.0,1.0,0,0,,7.0,30.318897,,,TRUE,TRUE,,,,,,,CLR,,,,,,,,VFR,,,,,,,,,,,,SPECI,481.0
KHZE 230935Z AUTO 06010G16KT 10SM OVC010 07/06 A2951 RMK AO2,KHZE,2022-10-23T09:35:00Z,47.28,-101.58,7.0,6.0,60,10,16,10.0,29.509842,,,TRUE,TRUE,,,,,,,OVC,1000,,,,,,,MVFR,,,,,,,,,,,,SPECI,542.0
KHZD 230935Z AUTO 16010KT 10SM OVC060 17/11 A3004 RMK A01,KHZD,2022-10-23T09:35:00Z,36.08,-88.47,17.0,11.0,160,10,,10.0,30.041338,,,TRUE,TRUE,,,,,,,OVC,6000,,,,,,,VFR,,,,,,,,,,,,METAR,147.0
KHYX 230935Z AUTO 17005KT 10SM CLR 13/09 A3006 RMK AO2 T01270086,KHYX,2022-10-23T09:35:00Z,43.43,-83.87,12.7,8.6,170,5,,10.0,30.059055,,,TRUE,TRUE,,,,,,,CLR,,,,,,,,VFR,,,,,,,,,,,,SPECI,181.0
KHYW 230935Z AUTO 00000KT 10SM CLR 09/08 A3014 RMK AO2,KHYW,2022-10-23T09:35:00Z,33.83,-79.12,9.0,8.0,0,0,,10.0,30.138779,,,TRUE,TRUE,,,,,,,CLR,,,,,,,,VFR,,,,,,,,,,,,SPECI,10.0
KHXD 230935Z AUTO 00000KT 10SM CLR 15/12 A3014 RMK AO2,KHXD,2022-10-23T09:35:00Z,32.22,-80.7,15.0,12.0,0,0,,10.0,30.138779,,,TRUE,TRUE,,,,,,,CLR,,,,,,,,VFR,,,,,,,,,,,,SPECI,5.0
KHWY 230935Z AUTO 00000KT 10SM CLR 02/01 A3028 RMK AO2 T00210006,KHWY,2022-10-23T09:35:00Z,38.58,-77.72,2.1,0.6,0,0,,10.0,30.280512,,,TRUE,TRUE,,,,,,,CLR,,,,,,,,VFR,,,,,,,,,,,,SPECI,93.0
KHVS 230935Z AUTO 36005KT 10SM SCT037 SCT050 12/09 A3017 RMK AO2,KHVS,2022-10-23T09:35:00Z,34.4,-80.12,12.0,9.0,360,5,,10.0,30.171259,,,TRUE,TRUE,,,,,,,SCT,3700,SCT,5000,,,,,VFR,,,,,,,,,,,,SPECI,110.0
KHVE 230935Z AUTO 18006KT 10SM SCT039 BKN050 OVC070 04/02 A2957 RMK AO2,KHVE,2022-10-23T09:35:00Z,38.42,-110.7,4.0,2.0,180,6,,10.0,29.568897,,,TRUE,TRUE,,,,,,,SCT,3900,BKN,5000,OVC,7000,,,VFR,,,,,,,,,,,,METAR,1351.0
KHUM 230935Z AUTO 08003KT 15/14 A3004 RMK AO2 T01500135 PWINO,KHUM,2022-10-23T09:35:00Z,29.57,-90.67,15.0,13.5,80,3,,,30.041338,,,TRUE,TRUE,,,,,TRUE,,,,,,,,,,,,,,,,,,,,,,METAR,1.0
KHSP 230935Z AUTO 31003KT 10SM CLR 09/00 A3026 RMK AO2 T00901005,KHSP,2022-10-23T09:35:00Z,37.95,-79.82,9.0,-0.5,310,3,,10.0,30.259842,,,TRUE,TRUE,,,,,,,CLR,,,,,,,,VFR,,,,,,,,,,,,SPECI,1148.0
KHSB 230935Z AUTO 16013G17KT 10SM CLR 18/14 A2999 RMK AO2 T01800137,KHSB,2022-10-23T09:35:00Z,37.82,-88.55,18.0,13.7,160,13,17,10.0,29.991142,,,TRUE,TRUE,,,,,,,CLR,,,,,,,,VFR,,,,,,,,,,,,SPECI,118.0
KHRX 230935Z AUTO 21011KT 10SM CLR 18/11 A2969 RMK AO2 T01800105,KHRX,2022-10-23T09:35:00Z,34.87,-102.33,18.0,10.5,210,11,,10.0,29.68996,,,TRUE,TRUE,,,,,,,CLR,,,,,,,,VFR,,,,,,,,,,,,SPECI,1153.0
KHRJ 230935Z AUTO 01004KT 7SM CLR 12/09 A3017 RMK AO2 T01160087,KHRJ,2022-10-23T09:35:00Z,35.38,-78.73,11.6,8.7,10,4,,7.0,30.171259,,,TRUE,TRUE,,,,,,,CLR,,,,,,,,VFR,,,,,,,,,,,,SPECI,55.0
KHQZ 230935Z AUTO 17012G19KT 10SM BKN026 21/16 A2983 RMK AO1 T02100160,KHQZ,2022-10-23T09:35:00Z,32.75,-96.53,21.0,16.0,170,12,19,10.0,29.828741,,,TRUE,TRUE,,,,,,,BKN,2600,,,,,,,MVFR,,,,,,,,,,,,SPECI,136.0
KHQU 230935Z AUTO 00000KT 10SM BKN041 05/04 A3019 RMK AO2 T00470037,KHQU,2022-10-23T09:35:00Z,33.53,-82.52,4.7,3.7,0,0,,10.0,30.188976,,,TRUE,TRUE,,,,,,,BKN,4100,,,,,,,VFR,,,,,,,,,,,,METAR,141.0
KHQG 230935Z AUTO 21014G22KT 10SM CLR 19/09 A2951 RMK AO2 T01860092,KHQG,2022-10-23T09:35:00Z,37.17,-101.37,18.6,9.2,210,14,22,10.0,29.509842,,,TRUE,TRUE,,,,,,,CLR,,,,,,,,VFR,,,,,,,,,,,,METAR,956.0
KHQG 230935Z AUTO 21014G22KT 10SM CLR 19/09 A2951 RMK AO2 T01860092,KHQG,2022-10-23T09:35:00Z,37.17,-101.37,18.6,9.2,210,14,22,10.0,29.509842,,,TRUE,TRUE,,,,,,,CLR,,,,,,,,VFR,,,,,,,,,,,,METAR,956.0
KHPT 230935Z AUTO 15008KT 10SM CLR 16/10 A2964 RMK AO2,KHPT,2022-10-23T09:35:00Z,42.72,-93.23,16.0,10.0,150,8,,10.0,29.639763,,,TRUE,TRUE,,,,,,,CLR,,,,,,,,VFR,,,,,,,,,,,,SPECI,354.0
KHOE 230935Z AUTO 00000KT 10SM CLR 04/03 A3014 RMK AO2 T00470035,KHOE,2022-10-23T09:35:00Z,31.05,-82.78,4.7,3.5,0,0,,10.0,30.138779,,,TRUE,TRUE,,,,,,,CLR,,,,,,,,VFR,,,,,,,,,,,,METAR,56.0
KHOB 230935Z AUTO 17011KT 10SM CLR 15/14 A2976 RMK AO2,KHOB,2022-10-23T09:35:00Z,32.67,-103.22,15.0,14.0,170,11,,10.0,29.760826,,,TRUE,TRUE,,,,,,,CLR,,,,,,,,VFR,,,,,,,,,,,,METAR,1112.0
KHNR 230935Z AUTO 15010G17KT 10SM CLR 17/13 A2951 RMK A01,KHNR,2022-10-23T09:35:00Z,41.58,-95.33,17.0,13.0,150,10,17,10.0,29.509842,,,TRUE,TRUE,,,,,,,CLR,,,,,,,,VFR,,,,,,,,,,,,SPECI,364.0
KHMZ 230935Z AUTO 00000KT 10SM CLR M01/M01 A3029 RMK AO2 T10121015,KHMZ,2022-10-23T09:35:00Z,40.08,-78.52,-1.2,-1.5,0,0,,10.0,30.28937,,,TRUE,TRUE,,,,,,,CLR,,,,,,,,VFR,,,,,,,,,,,,SPECI,351.0
KHMT 230935Z AUTO 20006KT 10SM SCT010 13/ A2980 RMK AO2 T0132////,KHMT,2022-10-23T09:35:00Z,33.73,-117.02,13.2,,200,6,,10.0,29.799213,,,TRUE,TRUE,,,,,,,SCT,1000,,,,,,,VFR,,,,,,,,,,,,METAR,462.0
KHMP 230935Z AUTO 00000KT 10SM CLR 04/03 A3023 RMK AO2 T00350033,KHMP,2022-10-23T09:35:00Z,33.38,-84.33,3.5,3.3,0,0,,10.0,30.230314,,,TRUE,TRUE,,,,,,,CLR,,,,,,,,VFR,,,,,,,,,,,,METAR,263.0
KHLX 230935Z AUTO 00000KT 10SM CLR 04/01 A3024 RMK AO2 T00350009,KHLX,2022-10-23T09:35:00Z,36.77,-80.82,3.5,0.9,0,0,,10.0,30.239174,,,TRUE,TRUE,,,,,,,CLR,,,,,,,,VFR,,,,,,,,,,,,METAR,819.0
KHJH 230935Z AUTO 16008KT 10SM CLR 17/12 A2939 RMK AO2 T01700116,KHJH,2022-10-23T09:35:00Z,40.15,-97.58,17.0,11.6,160,8,,10.0,29.388779,,,TRUE,TRUE,,,,,,,CLR,,,,,,,,VFR,,,,,,,,,,,,METAR,449.0
KHII 230935Z AUTO 23012KT 10SM CLR 20/07 A2964 RMK AO2,KHII,2022-10-23T09:35:00Z,34.57,-114.37,20.0,7.0,230,12,,10.0,29.639763,,,TRUE,TRUE,,,,,,,CLR,,,,,,,,VFR,,,,,,,,,,,,METAR,241.0
KHHW 230935Z AUTO 16010KT 10SM SCT031 20/14 A2983 RMK AO2,KHHW,2022-10-23T09:35:00Z,34.03,-95.55,20.0,14.0,160,10,,10.0,29.828741,,,TRUE,TRUE,,,,,,,SCT,3100,,,,,,,VFR,,,,,,,,,,,,METAR,178.0
KHHV 230935Z AUTO 21007G20KT 160V250 10SM FEW037 25/17 A2990 RMK A01,KHHV,2022-10-23T09:35:00Z,26.93,-94.68,25.0,17.0,210,7,20,10.0,29.899607,,,TRUE,TRUE,,,,,,,FEW,3700,,,,,,,VFR,,,,,,,,,,,,SPECI,25.0
KHHG 230935Z AUTO 15005KT 10SM CLR A3005 RMK AO2,KHHG,2022-10-23T09:35:00Z,40.85,-85.45,,,150,5,,10.0,30.050198,,,TRUE,TRUE,,,,,,,CLR,,,,,,,,VFR,,,,,,,,,,,,SPECI,247.0
KHHF 230935Z AUTO 22012G22KT 10SM CLR 22/11 A2957 RMK AO2 T02150108,KHHF,2022-10-23T09:35:00Z,35.9,-100.4,21.5,10.8,220,12,22,10.0,29.568897,,,TRUE,TRUE,,,,,,,CLR,,,,,,,,VFR,,,,,,,,,,,,SPECI,729.0
KHFY 230935Z AUTO 15007KT 10SM CLR 15/12 A3007 RMK AO2 T01490116,KHFY,2022-10-23T09:35:00Z,39.63,-86.08,14.9,11.6,150,7,,10.0,30.070866,,,TRUE,TRUE,,,,,,,CLR,,,,,,,,VFR,,,,,,,,,,,,METAR,250.0
KHFJ 230935Z AUTO 18014G24KT 10SM CLR 20/12 A2975 RMK AO2,KHFJ,2022-10-23T09:35:00Z,36.9,-94.02,20.0,12.0,180,14,24,10.0,29.749016,,,TRUE,TRUE,,,,,,,CLR,,,,,,,,VFR,,,,,,,,,,,,METAR,398.0
KHEQ 230935Z AUTO 24008KT 10SM CLR 05/M03 A2930 RMK AO2,KHEQ,2022-10-23T09:35:00Z,40.57,-102.28,5.0,-3.0,240,8,,10.0,29.300198,,,TRUE,TRUE,,,,,,,CLR,,,,,,,,VFR,,,,,,,,,,,,METAR,1136.0
KHEG 230935Z AUTO 00000KT 10SM CLR 10/09 A3013 RMK AO2,KHEG,2022-10-23T09:35:00Z,30.28,-81.8,10.0,9.0,0,0,,10.0,30.129921,,,TRUE,TRUE,,,,,,,CLR,,,,,,,,VFR,,,,,,,,,,,,METAR,25.0
KHDL 230935Z AUTO 00000KT 10SM CLR 07/06 A3014 RMK AO2,KHDL,2022-10-23T09:35:00Z,31.37,-85.32,7.0,6.0,0,0,,10.0,30.138779,,,TRUE,TRUE,,,,,,,CLR,,,,,,,,VFR,,,,,,,,,,,,SPECI,109.0
KHDE 230935Z AUTO 18003KT 10SM CLR 09/01 A2934 RMK AO2 T00900006,KHDE,2022-10-23T09:35:00Z,40.45,-99.33,9.0,0.6,180,3,,10.0,29.338583,,,TRUE,TRUE,,,,,,,CLR,,,,,,,,VFR,,,,,,,,,,,,METAR,703.0
KHCR 230935Z AUTO 00000KT 10SM BKN010 OVC014 01/00 A2953 RMK AO2,KHCR,2022-10-23T09:35:00Z,40.48,-111.43,1.0,0.0,0,0,,10.0,29.530512,,,TRUE,TRUE,,,,,,,BKN,1000,OVC,1400,,,,,MVFR,,,,,,,,,,,,METAR,1708.0
KHCO 230935Z AUTO 03008KT 10SM CLR 08/06 A2960 RMK AO2,KHCO,2022-10-23T09:35:00Z,48.75,-96.93,8.0,6.0,30,8,,10.0,29.601377,,,TRUE,TRUE,,,,,,,CLR,,,,,,,,VFR,,,,,,,,,,,,METAR,250.0
KHCD 230935Z AUTO 12008KT 10SM CLR 12/08 A2958 RMK AO2 T01220075,KHCD,2022-10-23T09:35:00Z,44.87,-94.38,12.2,7.5,120,8,,10.0,29.58071,,,TRUE,TRUE,,,,,,,CLR,,,,,,,,VFR,,,,,,,,,,,,SPECI,320.0
KHBI 230935Z AUTO 00000KT 10SM CLR 05/05 A3023 RMK AO2 T00520048,KHBI,2022-10-23T09:35:00Z,35.65,-79.9,5.2,4.8,0,0,,10.0,30.230314,,,TRUE,TRUE,,,,,,,CLR,,,,,,,,VFR,,,,,,,,,,,,SPECI,199.0
KHAI 230935Z AUTO 16006KT 10SM CLR 15/10 A3003 RMK AO2 T01520102,KHAI,2022-10-23T09:35:00Z,41.97,-85.6,15.2,10.2,160,6,,10.0,30.029528,,,TRUE,TRUE,,,,,,,CLR,,,,,,,,VFR,,,,,,,,,,,,SPECI,250.0
KHAF 230935Z AUTO 35014G19KT 7SM CLR 12/09 A2990 RMK AO2,KHAF,2022-10-23T09:35:00Z,37.52,-122.5,12.0,9.0,350,14,19,7.0,29.899607,,,TRUE,TRUE,,,,,,,CLR,,,,,,,,VFR,,,,,,,,,,,,METAR,11.0
KHAE 230935Z AUTO 15011G15KT 10SM SCT080 20/11 A2976 RMK AO2,KHAE,2022-10-23T09:35:00Z,39.73,-91.45,20.0,11.0,150,11,15,10.0,29.760826,,,TRUE,TRUE,,,,,,,SCT,8000,,,,,,,VFR,,,,,,,,,,,,SPECI,230.0
KH71 230935Z AUTO 18014G24KT 10SM CLR 22/14 A2970 RMK AO2,KH71,2022-10-23T09:35:00Z,36.22,-95.33,22.0,14.0,180,14,24,10.0,29.698818,,,TRUE,TRUE,,,,,,,CLR,,,,,,,,VFR,,,,,,,,,,,,METAR,190.0
KGZS 230935Z AUTO 00000KT 4SM BR OVC055 08/08 A3014 RMK A01,KGZS,2022-10-23T09:35:00Z,35.15,-87.05,8.0,8.0,0,0,,4.0,30.138779,,,TRUE,TRUE,,,,,,BR,OVC,5500,,,,,,,MVFR,,,,,,,,,,,,METAR,198.0
KGZL 230935Z AUTO 20009G19KT 10SM CLR 22/15 A2975 RMK AO2,KGZL,2022-10-23T09:35:00Z,35.28,-95.1,22.0,15.0,200,9,19,10.0,29.749016,,,TRUE,TRUE,,,,,,,CLR,,,,,,,,VFR,,,,,,,,,,,,SPECI,176.0
KGYL 230935Z AUTO 12007KT 7SM CLR 11/07 A2959 RMK AO2 T01130070,KGYL,2022-10-23T09:35:00Z,44.77,-94.08,11.3,7.0,120,7,,7.0,29.589567,,,TRUE,TRUE,,,,,,,CLR,,,,,,,,VFR,,,,,,,,,,,,METAR,304.0
KGYI 230935Z AUTO 17020G25KT 10SM CLR 21/16 A2978 RMK AO2 T02070160 TSNO,KGYI,2022-10-23T09:35:00Z,33.72,-96.67,20.7,16.0,170,20,25,10.0,29.778543,,,TRUE,TRUE,,,TRUE,,,,CLR,,,,,,,,VFR,,,,,,,,,,,,SPECI,227.0
KGYH 230935Z AUTO 32004KT 10SM CLR 08/03 A3020 RMK A02 T00790033,KGYH,2022-10-23T09:35:00Z,34.75,-82.38,7.9,3.3,320,4,,10.0,30.200787,,,TRUE,TRUE,,,,,,,CLR,,,,,,,,VFR,,,,,,,,,,,,METAR,283.0
KGYF 230935Z AUTO 15018KT 10SM CLR 25/15 A2991 RMK AO2 T02520149,KGYF,2022-10-23T09:35:00Z,26.13,-94.9,25.2,14.9,150,18,,10.0,29.911417,,,TRUE,TRUE,,,,,,,CLR,,,,,,,,VFR,,,,,,,,,,,,METAR,65.0
KGYB 230935Z AUTO 19005KT 10SM SCT041 20/18 A2988 RMK AO2 T02030178,KGYB,2022-10-23T09:35:00Z,30.17,-96.98,20.3,17.8,190,5,,10.0,29.878937,,,TRUE,TRUE,,,,,,,SCT,4100,,,,,,,VFR,,,,,,,,,,,,SPECI,140.0
KGWR 230935Z AUTO 02007KT 10SM CLR 02/03 A2948 RMK A01,KGWR,2022-10-23T09:35:00Z,46.22,-97.65,2.0,3.0,20,7,,10.0,29.480314,,,TRUE,TRUE,,,,,,,CLR,,,,,,,,VFR,,,,,,,,,,,,SPECI,381.0
KGWB 230935Z AUTO 00000KT 10SM CLR 12/09 A3007 RMK AO2,KGWB,2022-10-23T09:35:00Z,41.3,-85.07,12.0,9.0,0,0,,10.0,30.070866,,,TRUE,TRUE,,,,,,,CLR,,,,,,,,VFR,,,,,,,,,,,,METAR,268.0
KGVT 230935Z AUTO 17014G18KT 10SM OVC032 21/15 A2985 RMK AO2 TSNO T02100154,KGVT,2022-10-23T09:35:00Z,33.07,-96.07,21.0,15.4,170,14,18,10.0,29.84941,,,TRUE,TRUE,,,TRUE,,,,OVC,3200,,,,,,,VFR,,,,,,,,,,,,METAR,165.0
KGRY 230935Z AUTO 18013KT 10SM BKN042 BKN048 24/13 A3004 RMK A01,KGRY,2022-10-23T09:35:00Z,27.63,-90.45,24.0,13.0,180,13,,10.0,30.041338,,,TRUE,TRUE,,,,,,,BKN,4200,BKN,4800,,,,,VFR,,,,,,,,,,,,METAR,58.0
KGRN 230935Z AUTO 29003KT 10SM CLR 00/M07 A2929 RMK AO2 T00001066,KGRN,2022-10-23T09:35:00Z,42.8,-102.17,0.0,-6.6,290,3,,10.0,29.291338,,,TRUE,TRUE,,,,,,,CLR,,,,,,,,VFR,,,,,,,,,,,,METAR,1080.0
KGPM 230935Z AUTO 18011G16KT 10SM BKN023 21/16 A2982 RMK AO2 T02120162,KGPM,2022-10-23T09:35:00Z,32.7,-97.05,21.2,16.2,180,11,16,10.0,29.819881,,,TRUE,TRUE,,,,,,,BKN,2300,,,,,,,MVFR,,,,,,,,,,,,SPECI,178.0
KGPC 230935Z AUTO 16010KT 10SM BKN070 15/11 A3003 RMK AO2 T01490106,KGPC,2022-10-23T09:35:00Z,39.63,-86.82,14.9,10.6,160,10,,10.0,30.029528,,,TRUE,TRUE,,,,,,,BKN,7000,,,,,,,VFR,,,,,,,,,,,,METAR,254.0
KGOP 230935Z AUTO 10SM BKN020 21/17 A2984 RMK AO2,KGOP,2022-10-23T09:35:00Z,31.42,-97.8,21.0,17.0,,,,10.0,29.840551,,,TRUE,TRUE,,,,,,,BKN,2000,,,,,,,MVFR,,,,,,,,,,,,SPECI,272.0
KGOO 230935Z AUTO VRB04KT 10SM CLR 07/M07 A2983 RMK A01,KGOO,2022-10-23T09:35:00Z,39.22,-121.0,7.0,-7.0,0,4,,10.0,29.828741,,,TRUE,TRUE,,,,,,,CLR,,,,,,,,VFR,,,,,,,,,,,,METAR,950.0
KGNG 230935Z AUTO 27013KT 10SM FEW060 FEW110 01/01 A2968 RMK AO2,KGNG,2022-10-23T09:35:00Z,42.92,-114.77,1.0,1.0,270,13,,10.0,29.681103,,,TRUE,TRUE,,,,,,,FEW,6000,FEW,11000,,,,,VFR,,,,,,,,,,,,SPECI,1128.0
KGNC 230935Z AUTO 20007KT 10SM CLR 16/14 A2979 RMK AO2 T01620135,KGNC,2022-10-23T09:35:00Z,32.68,-102.65,16.2,13.5,200,7,,10.0,29.790354,,,TRUE,TRUE,,,,,,,CLR,,,,,,,,VFR,,,,,,,,,,,,METAR,1002.0
KGNB 230935Z AUTO 00000KT 10SM CLR 03/M05 A2950 RMK AO2 T00311055,KGNB,2022-10-23T09:35:00Z,40.08,-105.92,3.1,-5.5,0,0,,10.0,29.500984,,,TRUE,TRUE,,,,,,,CLR,,,,,,,,VFR,,,,,,,,,,,,METAR,2500.0
KGMJ 230935Z AUTO 19020G29KT 10SM CLR 15/05 A2970 RMK AO2,KGMJ,2022-10-23T09:35:00Z,36.6,-94.73,15.0,5.0,190,20,29,10.0,29.698818,,,TRUE,TRUE,,,,,,,CLR,,,,,,,,VFR,,,,,,,,,,,,SPECI,251.0
KGLY 230935Z AUTO 17011KT 10SM BKN120 20/13 A2966 RMK AO2,KGLY,2022-10-23T09:35:00Z,38.35,-93.68,20.0,13.0,170,11,,10.0,29.660433,,,TRUE,TRUE,,,,,,,BKN,12000,,,,,,,VFR,,,,,,,,,,,,SPECI,247.0
KGLX 230935Z AUTO 00000KT 10SM FEW042 23/14 A3006 RMK A01,KGLX,2022-10-23T09:35:00Z,28.23,-88.98,23.0,14.0,0,0,,10.0,30.059055,,,TRUE,TRUE,,,,,,,FEW,4200,,,,,,,VFR,,,,,,,,,,,,METAR,32.0
KGLW 230935Z AUTO 00000KT 10SM CLR 14/10 A3013 RMK AO2 T01350096,KGLW,2022-10-23T09:35:00Z,37.03,-85.95,13.5,9.6,0,0,,10.0,30.129921,,,TRUE,TRUE,,,,,,,CLR,,,,,,,,VFR,,,,,,,,,,,,METAR,216.0
KGLE 230935Z AUTO 17012G18KT 10SM CLR 20/16 A2978 RMK AO2 T02000160,KGLE,2022-10-23T09:35:00Z,33.65,-97.2,20.0,16.0,170,12,18,10.0,29.778543,,,TRUE,TRUE,,,,,,,CLR,,,,,,,,VFR,,,,,,,,,,,,METAR,250.0
KGKT 230935Z AUTO 00000KT 10SM CLR 06/05 A3019 RMK A01,KGKT,2022-10-23T09:35:00Z,35.85,-83.53,6.0,5.0,0,0,,10.0,30.188976,,,TRUE,TRUE,,,,,,,CLR,,,,,,,,VFR,,,,,,,,,,,,METAR,305.0
KGIC 230935Z AUTO 23004KT 10SM BKN023 BKN037 OVC050 00/00 A2978 RMK AO1,KGIC,2022-10-23T09:35:00Z,45.95,-116.12,0.0,0.0,230,4,,10.0,29.778543,,,TRUE,TRUE,,,,,,,BKN,2300,BKN,3700,OVC,5000,,,MVFR,,,,,,,,,,,,METAR,1002.0
KGHW 230935Z AUTO 10009KT 10SM CLR 10/06 A2955 RMK AO2,KGHW,2022-10-23T09:35:00Z,45.63,-95.32,10.0,6.0,100,9,,10.0,29.551182,,,TRUE,TRUE,,,,,,,CLR,,,,,,,,VFR,,,,,,,,,,,,METAR,423.0
KGHG 230935Z AUTO 00000KT 10SM CLR 08/07 A3032 RMK AO2,KGHG,2022-10-23T09:35:00Z,42.1,-70.67,8.0,7.0,0,0,,10.0,30.318897,,,TRUE,TRUE,,,,,,,CLR,,,,,,,,VFR,,,,,,,,,,,,SPECI,3.0
KGGP 230935Z AUTO 16009KT 10SM CLR 14/10 A3002 RMK AO2,KGGP,2022-10-23T09:35:00Z,40.72,-86.37,14.0,10.0,160,9,,10.0,30.02067,,,TRUE,TRUE,,,,,,,CLR,,,,,,,,VFR,,,,,,,,,,,,METAR,224.0
KGGI 230935Z AUTO 14012KT 10SM CLR 18/12 A2968 RMK AO2 T01760123,KGGI,2022-10-23T09:35:00Z,41.72,-92.73,17.6,12.3,140,12,,10.0,29.681103,,,TRUE,TRUE,,,,,,,CLR,,,,,,,,VFR,,,,,,,,,,,,SPECI,305.0
KGGF 230935Z AUTO 19007KT 10SM CLR 07/M06 A2928 RMK AO2,KGGF,2022-10-23T09:35:00Z,,,7.0,-6.0,190,7,,10.0,29.279528,,,TRUE,TRUE,,,,,,,CLR,,,,,,,,VFR,,,,,,,,,,,,SPECI,
KGGE 230935Z AUTO 00000KT 10SM CLR 12/11 A3013 RMK AO2,KGGE,2022-10-23T09:35:00Z,33.32,-79.32,12.0,11.0,0,0,,10.0,30.129921,,,TRUE,TRUE,,,,,,,CLR,,,,,,,,VFR,,,,,,,,,,,,SPECI,9.0
KGEV 230935Z AUTO 00000KT 10SM CLR 04/01 A3025 RMK AO2 T00420008,KGEV,2022-10-23T09:35:00Z,36.43,-81.42,4.2,0.8,0,0,,10.0,30.250984,,,TRUE,TRUE,,,,,,,CLR,,,,,,,,VFR,,,,,,,,,,,,METAR,961.0
KGDJ 230935Z AUTO 16009KT 10SM CLR 21/17 A2979 RMK AO2 T02070167,KGDJ,2022-10-23T09:35:00Z,32.45,-97.82,20.7,16.7,160,9,,10.0,29.790354,,,TRUE,TRUE,,,,,,,CLR,,,,,,,,VFR,,,,,,,,,,,,SPECI,235.0
KGDB 230935Z AUTO 11009KT 10SM CLR 12/08 A2953 RMK AO2 T01220077,KGDB,2022-10-23T09:35:00Z,44.75,-95.55,12.2,7.7,110,9,,10.0,29.530512,,,TRUE,TRUE,,,,,,,CLR,,,,,,,,VFR,,,,,,,,,,,,SPECI,316.0
KGCY 230935Z AUTO 00000KT 10SM CLR 09/03 A3019 RMK A01,KGCY,2022-10-23T09:35:00Z,36.2,-82.82,9.0,3.0,0,0,,10.0,30.188976,,,TRUE,TRUE,,,,,,,CLR,,,,,,,,VFR,,,,,,,,,,,,SPECI,488.0
KGCM 230935Z AUTO 18014G19KT 10SM CLR 21/11 A2971 RMK AO2,KGCM,2022-10-23T09:35:00Z,36.3,-95.48,21.0,11.0,180,14,19,10.0,29.71063,,,TRUE,TRUE,,,,,,,CLR,,,,,,,,VFR,,,,,,,,,,,,SPECI,215.0
KGCD 230935Z AUTO 25004KT 10SM OVC028 01/00 A2985 RMK AO2 T00070002,KGCD,2022-10-23T09:35:00Z,44.4,-118.97,0.7,0.2,250,4,,10.0,29.84941,,,TRUE,TRUE,,,,,,,OVC,2800,,,,,,,MVFR,,,,,,,,,,,,METAR,1122.0
KGBK 230935Z AUTO 15010G16KT 9SM SCT039 BKN065 25/17 A2997 RMK A01,KGBK,2022-10-23T09:35:00Z,27.2,-92.2,25.0,17.0,150,10,16,9.0,29.970472,,,TRUE,TRUE,,,,,,,SCT,3900,BKN,6500,,,,,VFR,,,,,,,,,,,,METAR,20.0
KGBG 230935Z AUTO 15007KT 10SM BKN080 16/13 A2981 RMK AO2 T01610130,KGBG,2022-10-23T09:35:00Z,40.93,-90.43,16.1,13.0,150,7,,10.0,29.811024,,,TRUE,TRUE,,,,,,,BKN,8000,,,,,,,VFR,,,,,,,,,,,,METAR,230.0
KGAO 230935Z AUTO 12004KT 10SM CLR 17/15 A3006 RMK AO2 T01660146,KGAO,2022-10-23T09:35:00Z,29.45,-90.27,16.6,14.6,120,4,,10.0,30.059055,,,TRUE,TRUE,,,,,,,CLR,,,,,,,,VFR,,,,,,,,,,,,SPECI,0.0
KFZG 230935Z AUTO 00000KT 10SM SCT029 06/05 A3016 RMK AO2 T00570050,KFZG,2022-10-23T09:35:00Z,31.68,-83.27,5.7,5.0,0,0,,10.0,30.159449,,,TRUE,TRUE,,,,,,,SCT,2900,,,,,,,VFR,,,,,,,,,,,,METAR,105.0
KFYJ 230935Z AUTO 00000KT 10SM CLR 11/10 A3019 RMK AO1 T01070095,KFYJ,2022-10-23T09:35:00Z,37.52,-76.77,10.7,9.5,0,0,,10.0,30.188976,,,TRUE,TRUE,,,,,,,CLR,,,,,,,,VFR,,,,,,,,,,,,METAR,3.0
KFYE 230935Z AUTO 18008G14KT 10SM CLR 18/12 A3003 RMK A01,KFYE,2022-10-23T09:35:00Z,35.2,-89.38,18.0,12.0,180,8,14,10.0,30.029528,,,TRUE,TRUE,,,,,,,CLR,,,,,,,,VFR,,,,,,,,,,,,SPECI,133.0
KFXY 230935Z AUTO 13011KT 10SM CLR 15/10 A2962 RMK AO2,KFXY,2022-10-23T09:35:00Z,43.23,-93.62,15.0,10.0,130,11,,10.0,29.619095,,,TRUE,TRUE,,,,,,,CLR,,,,,,,,VFR,,,,,,,,,,,,SPECI,366.0
KFWZ 230935Z AUTO 25003KT 10SM SCT011 SCT027 BKN036 M01/M02 A2948 RMK AO2,KFWZ,2022-10-23T09:35:00Z,42.52,-108.78,-1.0,-2.0,250,3,,10.0,29.480314,,,TRUE,TRUE,,,,,,,SCT,1100,SCT,2700,BKN,3600,,,VFR,,,,,,,,,,,,METAR,2605.0
KFWS 230935Z AUTO 16010KT 10SM CLR 21/17 A2981 RMK AO2 T02060166,KFWS,2022-10-23T09:35:00Z,32.57,-97.3,20.6,16.6,160,10,,10.0,29.811024,,,TRUE,TRUE,,,,,,,CLR,,,,,,,,VFR,,,,,,,,,,,,SPECI,211.0
KFWC 230935Z AUTO 14008KT SCT060 17/11 A2997 RMK AO1 T01710105 PWINO,KFWC,2022-10-23T09:35:00Z,38.38,-88.42,17.1,10.5,140,8,,,29.970472,,,TRUE,TRUE,,,,,TRUE,,SCT,6000,,,,,,,,,,,,,,,,,,,METAR,131.0
KFWB 230935Z AUTO VRB06G15KT 150V220 10SM BKN120 20/14 A2979 RMK AO2,KFWB,2022-10-23T09:35:00Z,36.7,-93.4,20.0,14.0,0,6,15,10.0,29.790354,,,TRUE,TRUE,,,,,,,BKN,12000,,,,,,,VFR,,,,,,,,,,,,SPECI,392.0
KFVX 230935Z AUTO 00000KT 10SM CLR 04/04 A3021 RMK AO2 T00400039,KFVX,2022-10-23T09:35:00Z,37.35,-78.43,4.0,3.9,0,0,,10.0,30.209646,,,TRUE,TRUE,,,,,,,CLR,,,,,,,,VFR,,,,,,,,,,,,SPECI,129.0
KFTN 230935Z AUTO 15007G13KT 10SM CLR 21/18 A2981 RMK A01,KFTN,2022-10-23T09:35:00Z,28.22,-100.02,21.0,18.0,150,7,13,10.0,29.811024,,,TRUE,TRUE,,,,,,,CLR,,,,,,,,VFR,,,,,,,,,,,,METAR,236.0
KFSW 230935Z AUTO 14007KT 10SM OVC001 16/12 A2975 RMK AO2,KFSW,2022-10-23T09:35:00Z,40.67,-91.32,16.0,12.0,140,7,,10.0,29.749016,,,TRUE,TRUE,,,,,,,OVC,100,,,,,,,LIFR,,,,,,,,,,,,METAR,219.0
KFSO 230935Z AUTO 16003KT 10SM CLR 09/03 A3029 RMK AO2 T00870032,KFSO,2022-10-23T09:35:00Z,44.93,-73.1,8.7,3.2,160,3,,10.0,30.28937,,,TRUE,TRUE,,,,,,,CLR,,,,,,,,VFR,,,,,,,,,,,,SPECI,70.0
KFSK 230935Z AUTO 19021G27KT 10SM OVC120 22/13 A2963 RMK AO2 T02210128,KFSK,2022-10-23T09:35:00Z,37.8,-94.77,22.1,12.8,190,21,27,10.0,29.630905,,,TRUE,TRUE,,,,,,,OVC,12000,,,,,,,VFR,,,,,,,,,,,,METAR,276.0
KFSE 230935Z AUTO 10004KT 10SM CLR 06/03 A2955 RMK AO2,KFSE,2022-10-23T09:35:00Z,47.58,-95.77,6.0,3.0,100,4,,10.0,29.551182,,,TRUE,TRUE,,,,,,,CLR,,,,,,,,VFR,,,,,,,,,,,,METAR,389.0
KFQD 230935Z AUTO 35004KT 10SM CLR 06/03 A3023 RMK AO2,KFQD,2022-10-23T09:35:00Z,35.42,-81.93,6.0,3.0,350,4,,10.0,30.230314,,,TRUE,TRUE,,,,,,,CLR,,,,,,,,VFR,,,,,,,,,,,,METAR,325.0
KFPY 230935Z AUTO 00000KT 5SM BR CLR 06/05 A3013 RMK AO2 T00600054 TSNO,KFPY,2022-10-23T09:35:00Z,30.07,-83.57,6.0,5.4,0,0,,5.0,30.129921,,,TRUE,TRUE,,,TRUE,,,BR,CLR,,,,,,,,MVFR,,,,,,,,,,,,METAR,12.0
KFPK 230935Z AUTO 16004KT 10SM CLR 13/09 A3004 RMK AO2 T01260093,KFPK,2022-10-23T09:35:00Z,42.57,-84.82,12.6,9.3,160,4,,10.0,30.041338,,,TRUE,TRUE,,,,,,,CLR,,,,,,,,VFR,,,,,,,,,,,,SPECI,269.0
KFOA 230935Z AUTO 16011KT 10SM CLR 17/11 A2997 RMK AO2,KFOA,2022-10-23T09:35:00Z,38.67,-88.45,17.0,11.0,160,11,,10.0,29.970472,,,TRUE,TRUE,,,,,,,CLR,,,,,,,,VFR,,,,,,,,,,,,METAR,141.0
KFMM 230935Z AUTO 25008KT 10SM CLR 12/M05 A2931 RMK AO2,KFMM,2022-10-23T09:35:00Z,40.33,-103.8,12.0,-5.0,250,8,,10.0,29.309055,,,TRUE,TRUE,,,,,,,CLR,,,,,,,,VFR,,,,,,,,,,,,SPECI,1376.0
KFLY 230935Z AUTO 19023G33KT 10SM CLR 13/M03 A2947 RMK AO2 T01301033,KFLY,2022-10-23T09:35:00Z,38.95,-104.57,13.0,-3.3,190,23,33,10.0,29.471457,,,TRUE,TRUE,,,,,,,CLR,,,,,,,,VFR,,,,,,,,,,,,SPECI,2096.0
KFKS 230935Z AUTO 14003KT 10SM CLR 16/11 A2995 RMK AO2 T01550110,KFKS,2022-10-23T09:35:00Z,44.63,-86.2,15.5,11.0,140,3,,10.0,29.949802,,,TRUE,TRUE,,,,,,,CLR,,,,,,,,VFR,,,,,,,,,,,,SPECI,189.0
KFKR 230935Z AUTO 17010KT 10SM FEW047 BKN055 15/11 A3001 RMK AO2,KFKR,2022-10-23T09:35:00Z,40.27,-86.57,15.0,11.0,170,10,,10.0,30.008858,,,TRUE,TRUE,,,,,,,FEW,4700,BKN,5500,,,,,VFR,,,,,,,,,,,,METAR,260.0
KFKN 230935Z AUTO 36004KT 10SM BKN008 11/10 A3014 RMK AO2 T01100100,KFKN,2022-10-23T09:35:00Z,36.7,-76.9,11.0,10.0,360,4,,10.0,30.138779,,,TRUE,TRUE,,,,,,,BKN,800,,,,,,,IFR,,,,,,,,,,,,SPECI,9.0
KFKA 230935Z AUTO 16009G16KT 10SM SCT070 15/09 A2971 RMK AO2 T01520093,KFKA,2022-10-23T09:35:00Z,43.68,-92.17,15.2,9.3,160,9,16,10.0,29.71063,,,TRUE,TRUE,,,,,,,SCT,7000,,,,,,,VFR,,,,,,,,,,,,SPECI,388.0
KFIN 230935Z AUTO 00000KT 10SM CLR 14/13 A3009 RMK AO2 T01380132,KFIN,2022-10-23T09:35:00Z,29.47,-81.2,13.8,13.2,0,0,,10.0,30.088583,,,TRUE,TRUE,,,,,,,CLR,,,,,,,,VFR,,,,,,,,,,,,METAR,10.0
KFHB 230935Z AUTO 33007KT 10SM CLR 14/11 A3011 RMK AO2,KFHB,2022-10-23T09:35:00Z,30.62,-81.47,14.0,11.0,330,7,,10.0,30.109253,,,TRUE,TRUE,,,,,,,CLR,,,,,,,,VFR,,,,,,,,,,,,METAR,4.0
KFGX 230935Z AUTO 19005KT 10SM CLR 13/07 A3017 RMK AO2 T01300071,KFGX,2022-10-23T09:35:00Z,38.55,-83.75,13.0,7.1,190,5,,10.0,30.171259,,,TRUE,TRUE,,,,,,,CLR,,,,,,,,VFR,,,,,,,,,,,,SPECI,279.0
KFGN 230935Z AUTO 06011KT 10SM CLR 08/04 A2965 RMK AO2,KFGN,2022-10-23T09:35:00Z,49.32,-94.9,8.0,4.0,60,11,,10.0,29.648623,,,TRUE,TRUE,,,,,,,CLR,,,,,,,,VFR,,,,,,,,,,,,METAR,327.0
KFFX 230935Z AUTO 14003KT 10SM CLR 15/11 A2999 RMK AO2 T01530108,KFFX,2022-10-23T09:35:00Z,43.43,-86.0,15.3,10.8,140,3,,10.0,29.991142,,,TRUE,TRUE,,,,,,,CLR,,,,,,,,VFR,,,,,,,,,,,,SPECI,234.0
KFFM 230935Z AUTO 11007KT 10SM CLR 12/04 A2949 RMK AO2,KFFM,2022-10-23T09:35:00Z,46.28,-96.15,12.0,4.0,110,7,,10.0,29.489174,,,TRUE,TRUE,,,,,,,CLR,,,,,,,,VFR,,,,,,,,,,,,METAR,362.0
KFFL 230935Z AUTO 15010G16KT 10SM CLR 18/11 A2971 RMK A01,KFFL,2022-10-23T09:35:00Z,41.05,-91.97,18.0,11.0,150,10,16,10.0,29.71063,,,TRUE,TRUE,,,,,,,CLR,,,,,,,,VFR,,,,,,,,,,,,METAR,240.0
KFET 230935Z AUTO 13010KT 10SM CLR 18/13 A2944 RMK AO2 T01770131,KFET,2022-10-23T09:35:00Z,41.45,-96.52,17.7,13.1,130,10,,10.0,29.438976,,,TRUE,TRUE,,,,,,,CLR,,,,,,,,VFR,,,,,,,,,,,,METAR,366.0
KFEP 230935Z AUTO 15008KT 10SM CLR 15/14 A2984 RMK AO2 T01460138,KFEP,2022-10-23T09:35:00Z,42.25,-89.58,14.6,13.8,150,8,,10.0,29.840551,,,TRUE,TRUE,,,,,,,CLR,,,,,,,,VFR,,,,,,,,,,,,METAR,255.0
KFDW 230935Z AUTO 35004KT 10SM CLR 08/05 A3018 RMK AO1,KFDW,2022-10-23T09:35:00Z,34.32,-81.12,8.0,5.0,350,4,,10.0,30.180119,,,TRUE,TRUE,,,,,,,CLR,,,,,,,,VFR,,,,,,,,,,,,SPECI,174.0
KFBL 230935Z AUTO 13010G15KT 10SM CLR 16/09 A2963 RMK AO2,KFBL,2022-10-23T09:35:00Z,44.33,-93.32,16.0,9.0,130,10,15,10.0,29.630905,,,TRUE,TRUE,,,,,,,CLR,,,,,,,,VFR,,,,,,,,,,,,METAR,318.0
KF70 230935Z AUTO 20005KT 10SM BKN008 BKN017 14/14 A2980 RMK AO2,KF70,2022-10-23T09:35:00Z,33.57,-117.13,14.0,14.0,200,5,,10.0,29.799213,,,TRUE,TRUE,,,,,,,BKN,800,BKN,1700,,,,,IFR,,,,,,,,,,,,METAR,406.0
KF46 230935Z AUTO 19009KT 10SM SCT025 20/16 A2983 RMK AO2 T02030157,KF46,2022-10-23T09:35:00Z,32.93,-96.43,20.3,15.7,190,9,,10.0,29.828741,,,TRUE,TRUE,,,,,,,SCT,2500,,,,,,,VFR,,,,,,,,,,,,METAR,175.0
KF44 230935Z AUTO 18008KT 10SM BKN036 20/16 A2987 RMK AO2,KF44,2022-10-23T09:35:00Z,32.17,-95.83,20.0,16.0,180,8,,10.0,29.870079,,,TRUE,TRUE,,,,,,,BKN,3600,,,,,,,VFR,,,,,,,,,,,,SPECI,137.0
KF17 230935Z AUTO 15004KT 10SM SCT034 BKN046 19/16 A2995 RMK AO2,KF17,2022-10-23T09:35:00Z,31.83,-94.15,19.0,16.0,150,4,,10.0,29.949802,,,TRUE,TRUE,,,,,,,SCT,3400,BKN,4600,,,,,VFR,,,,,,,,,,,,SPECI,93.0
KF05 230935Z AUTO 18011KT 10SM CLR 22/13 A2967 RMK AO2 T02200128,KF05,2022-10-23T09:35:00Z,34.23,-99.28,22.0,12.8,180,11,,10.0,29.66929,,,TRUE,TRUE,,,,,,,CLR,,,,,,,,VFR,,,,,,,,,,,,SPECI,384.0
KF00 230935Z AUTO 17014G21KT 10SM CLR 20/15 A2981 RMK AO2 T02040155,KF00,2022-10-23T09:35:00Z,33.62,-96.18,20.4,15.5,170,14,21,10.0,29.811024,,,TRUE,TRUE,,,,,,,CLR,,,,,,,,VFR,,,,,,,,,,,,SPECI,189.0
KEZZ 230935Z AUTO 15012KT 10SM CLR 18/12 A2961 RMK AO2 T01810123,KEZZ,2022-10-23T09:35:00Z,39.72,-94.28,18.1,12.3,150,12,,10.0,29.610237,,,TRUE,TRUE,,,,,,,CLR,,,,,,,,VFR,,,,,,,,,,,,METAR,317.0
KEZM 230935Z AUTO 00000KT 10SM CLR 03/03 A3017 RMK AO2,KEZM,2022-10-23T09:35:00Z,32.22,-83.13,3.0,3.0,0,0,,10.0,30.171259,,,TRUE,TRUE,,,,,,,CLR,,,,,,,,VFR,,,,,,,,,,,,SPECI,86.0
KEZF 230935Z AUTO 00000KT 10SM CLR 07/06 A3021 RMK AO2 T00650062,KEZF,2022-10-23T09:35:00Z,38.27,-77.45,6.5,6.2,0,0,,10.0,30.209646,,,TRUE,TRUE,,,,,,,CLR,,,,,,,,VFR,,,,,,,,,,,,SPECI,26.0
KEYF 230935Z AUTO 34005KT 10SM CLR 13/10 A3014 RMK AO2 T01280100,KEYF,2022-10-23T09:35:00Z,34.6,-78.58,12.8,10.0,340,5,,10.0,30.138779,,,TRUE,TRUE,,,,,,,CLR,,,,,,,,VFR,,,,,,,,,,,,SPECI,39.0
KEXX 230935Z AUTO 00000KT 10SM CLR 04/04 A3021 RMK AO2 T00410041,KEXX,2022-10-23T09:35:00Z,35.78,-80.3,4.1,4.1,0,0,,10.0,30.209646,,,TRUE,TRUE,,,,,,,CLR,,,,,,,,VFR,,,,,,,,,,,,SPECI,221.0
KEVU 230935Z AUTO 14011KT 10SM CLR 18/13 A2954 RMK AO2 T01830135,KEVU,2022-10-23T09:35:00Z,40.35,-94.92,18.3,13.5,140,11,,10.0,29.53937,,,TRUE,TRUE,,,,,,,CLR,,,,,,,,VFR,,,,,,,,,,,,SPECI,351.0
KETN 230935Z AUTO 18010G16KT 10SM CLR 20/13 A2977 RMK AO2 T01970134,KETN,2022-10-23T09:35:00Z,32.42,-98.82,19.7,13.4,180,10,16,10.0,29.769686,,,TRUE,TRUE,,,,,,,CLR,,,,,,,,VFR,,,,,,,,,,,,METAR,445.0
KETC 230935Z AUTO 01003KT 10SM CLR 11/10 A3014 RMK AO2 T01150099,KETC,2022-10-23T09:35:00Z,35.93,-77.55,11.5,9.9,10,3,,10.0,30.138779,,,TRUE,TRUE,,,,,,,CLR,,,,,,,,VFR,,,,,,,,,,,,METAR,15.0
KERY 230935Z AUTO 19013G20KT 10SM CLR 14/10 A2993 RMK AO2 T01440098,KERY,2022-10-23T09:35:00Z,46.3,-85.45,14.4,9.8,190,13,20,10.0,29.929134,,,TRUE,TRUE,,,,,,,CLR,,,,,,,,VFR,,,,,,,,,,,,SPECI,261.0
KERV 230935Z AUTO 18010G15KT 10SM OVC010 20/18 A2987 RMK AO2 T01950175,KERV,2022-10-23T09:35:00Z,29.98,-99.08,19.5,17.5,180,10,15,10.0,29.870079,,,TRUE,TRUE,,,,,,,OVC,1000,,,,,,,MVFR,,,,,,,,,,,,SPECI,483.0
KEQA 230935Z AUTO 18016G21KT 10SM CLR 22/12 A2954 RMK AO2,KEQA,2022-10-23T09:35:00Z,37.78,-96.82,22.0,12.0,180,16,21,10.0,29.53937,,,TRUE,TRUE,,,,,,,CLR,,,,,,,,VFR,,,,,,,,,,,,METAR,422.0
KEOE 230935Z AUTO 03003KT 10SM CLR 07/02 A3022 RMK AO2,KEOE,2022-10-23T09:35:00Z,34.32,-81.63,7.0,2.0,30,3,,10.0,30.221457,,,TRUE,TRUE,,,,,,,CLR,,,,,,,,VFR,,,,,,,,,,,,SPECI,166.0
KEMM 230935Z AUTO 31008G14KT 10SM CLR M02/M04 A2954 RMK AO2,KEMM,2022-10-23T09:35:00Z,41.82,-110.55,-2.0,-4.0,310,8,14,10.0,29.53937,,,TRUE,TRUE,,,,,,,CLR,,,,,,,,VFR,,,,,,,,,,,,SPECI,2219.0
KELO 230935Z AUTO 00000KT 10SM CLR 03/03 A2968 RMK AO2,KELO,2022-10-23T09:35:00Z,47.82,-91.83,3.0,3.0,0,0,,10.0,29.681103,,,TRUE,TRUE,,,,,,,CLR,,,,,,,,VFR,,,,,,,,,,,,METAR,438.0
KELK 230935Z AUTO 19010KT 10SM FEW240 19/12 A2963 RMK AO2 SLP325 T01920119 $,KELK,2022-10-23T09:35:00Z,35.43,-99.4,19.2,11.9,190,10,,10.0,29.630905,1032.5,,TRUE,TRUE,TRUE,,,,,,FEW,24000,,,,,,,VFR,,,,,,,,,,,,SPECI,603.0
KELA 230935Z AUTO 00000KT 10SM CLR 18/17 A2989 RMK AO2 T01760167,KELA,2022-10-23T09:35:00Z,29.6,-96.32,17.6,16.7,0,0,,10.0,29.890747,,,TRUE,TRUE,,,,,,,CLR,,,,,,,,VFR,,,,,,,,,,,,SPECI,56.0
KEKX 230935Z AUTO 14004KT 10SM CLR 13/10 A3012 RMK AO2 T01300095,KEKX,2022-10-23T09:35:00Z,37.68,-85.92,13.0,9.5,140,4,,10.0,30.121063,,,TRUE,TRUE,,,,,,,CLR,,,,,,,,VFR,,,,,,,,,,,,METAR,234.0
KEKS 230935Z AUTO 04011KT 1SM -SN OVC003 M01/M02 A2962 RMK AO2,KEKS,2022-10-23T09:35:00Z,45.27,-111.65,-1.0,-2.0,40,11,,1.0,29.619095,,,TRUE,TRUE,,,,,,-SN,OVC,300,,,,,,,LIFR,,,,,,,,,,,,SPECI,1636.0
KEKM 230935Z AUTO 13004KT 9SM CLR 13/11 A3002 RMK AO2 T01290112,KEKM,2022-10-23T09:35:00Z,41.72,-86.0,12.9,11.2,130,4,,9.0,30.02067,,,TRUE,TRUE,,,,,,,CLR,,,,,,,,VFR,,,,,,,,,,,,SPECI,236.0
KEIK 230935Z AUTO 19004KT 10SM CLR 13/M06 A2932 RMK AO2 T01261057 PWINO,KEIK,2022-10-23T09:35:00Z,40.02,-105.05,12.6,-5.7,190,4,,10.0,29.320866,,,TRUE,TRUE,,,,,TRUE,,CLR,,,,,,,,VFR,,,,,,,,,,,,METAR,1551.0
KEHO 230935Z AUTO 00000KT 10SM CLR 04/03 A3021 RMK AO2 T00400030,KEHO,2022-10-23T09:35:00Z,35.25,-81.6,4.0,3.0,0,0,,10.0,30.209646,,,TRUE,TRUE,,,,,,,CLR,,,,,,,,VFR,,,,,,,,,,,,SPECI,261.0
KEHA 230935Z AUTO 22023G29KT 10SM CLR 20/09 A2953 RMK AO2 T01990094,KEHA,2022-10-23T09:35:00Z,37.0,-101.87,19.9,9.4,220,23,29,10.0,29.530512,,,TRUE,TRUE,,,,,,,CLR,,,,,,,,VFR,,,,,,,,,,,,SPECI,1103.0
KEGV 230935Z AUTO 16003KT 10SM CLR 12/08 A2982 RMK AO2 T01210082,KEGV,2022-10-23T09:35:00Z,45.93,-89.27,12.1,8.2,160,3,,10.0,29.819881,,,TRUE,TRUE,,,,,,,CLR,,,,,,,,VFR,,,,,,,,,,,,SPECI,499.0
KEGT 230935Z AUTO 18016G25KT 10SM CLR 23/12 A2954 RMK AO2 T02270117,KEGT,2022-10-23T09:35:00Z,37.32,-97.38,22.7,11.7,180,16,25,10.0,29.53937,,,TRUE,TRUE,,,,,,,CLR,,,,,,,,VFR,,,,,,,,,,,,METAR,387.0
KEFK 230935Z AUTO 22005KT 10SM CLR 05/03 A3034 RMK AO2 T00450032,KEFK,2022-10-23T09:35:00Z,44.88,-72.23,4.5,3.2,220,5,,10.0,30.339567,,,TRUE,TRUE,,,,,,,CLR,,,,,,,,VFR,,,,,,,,,,,,SPECI,282.0
KEDN 230935Z AUTO 00000KT 10SM CLR 07/07 A3013 RMK AO2 T00730073,KEDN,2022-10-23T09:35:00Z,31.3,-85.9,7.3,7.3,0,0,,10.0,30.129921,,,TRUE,TRUE,,,,,,,CLR,,,,,,,,VFR,,,,,,,,,,,,SPECI,103.0
KEDJ 230935Z AUTO 15007KT 10SM FEW055 15/08 A3014 RMK A01,KEDJ,2022-10-23T09:35:00Z,40.37,-83.82,15.0,8.0,150,7,,10.0,30.138779,,,TRUE,TRUE,,,,,,,FEW,5500,,,,,,,VFR,,,,,,,,,,,,METAR,341.0
KEDE 230935Z AUTO 35013KT 10SM SCT120 14/14 A3009 RMK AO2 T01430140,KEDE,2022-10-23T09:35:00Z,36.03,-76.57,14.3,14.0,350,13,,10.0,30.088583,,,TRUE,TRUE,,,,,,,SCT,12000,,,,,,,VFR,,,,,,,,,,,,SPECI,4.0
KECU 230935Z AUTO 16012G21KT 10SM OVC007 18/17 A2989 RMK AO2,KECU,2022-10-23T09:35:00Z,29.95,-100.17,18.0,17.0,160,12,21,10.0,29.890747,,,TRUE,TRUE,,,,,,,OVC,700,,,,,,,IFR,,,,,,,,,,,,METAR,725.0
KECS 230935Z AUTO 01008KT 10SM CLR 11/M02 A2936 RMK AO2,KECS,2022-10-23T09:35:00Z,43.88,-104.32,11.0,-2.0,10,8,,10.0,29.359253,,,TRUE,TRUE,,,,,,,CLR,,,,,,,,VFR,,,,,,,,,,,,SPECI,1273.0
KEBS 230935Z AUTO 13014G19KT 10SM CLR 15/11 A2958 RMK AO2,KEBS,2022-10-23T09:35:00Z,42.43,-93.87,15.0,11.0,130,14,19,10.0,29.58071,,,TRUE,TRUE,,,,,,,CLR,,,,,,,,VFR,,,,,,,,,,,,SPECI,340.0
KEBG 230935Z AUTO 13004KT 10SM CLR 19/18 A2985 RMK AO2 T01910183 PWINO,KEBG,2022-10-23T09:35:00Z,26.45,-98.13,19.1,18.3,130,4,,10.0,29.84941,,,TRUE,TRUE,,,,,TRUE,,CLR,,,,,,,,VFR,,,,,,,,,,,,SPECI,21.0
KEBA 230935Z AUTO 34004KT 10SM CLR 07/06 A3020 RMK AO2 T00710057,KEBA,2022-10-23T09:35:00Z,34.1,-82.82,7.1,5.7,340,4,,10.0,30.200787,,,TRUE,TRUE,,,,,,,CLR,,,,,,,,VFR,,,,,,,,,,,,METAR,180.0
KE42 230935Z AUTO 22013KT 10SM CLR 19/10 A2957 RMK AO2 T01900103,KE42,2022-10-23T09:35:00Z,36.22,-101.2,19.0,10.3,220,13,,10.0,29.568897,,,TRUE,TRUE,,,,,,,CLR,,,,,,,,VFR,,,,,,,,,,,,SPECI,942.0
KE41 230935Z AUTO 17014KT 10SM CLR 19/13 A2981 RMK AO2 T01870126,KE41,2022-10-23T09:35:00Z,31.2,-101.47,18.7,12.6,170,14,,10.0,29.811024,,,TRUE,TRUE,,,,,,,CLR,,,,,,,,VFR,,,,,,,,,,,,SPECI,825.0
KE38 230935Z AUTO 19006KT 10SM CLR 18/03 A2992 RMK AO2 T01840033,KE38,2022-10-23T09:35:00Z,30.38,-103.68,18.4,3.3,190,6,,10.0,29.920275,,,TRUE,TRUE,,,,,,,CLR,,,,,,,,VFR,,,,,,,,,,,,METAR,1372.0
KE16 230935Z AUTO 30006KT 10SM FEW017 10/07 A2990 RMK AO2,KE16,2022-10-23T09:35:00Z,37.08,-121.6,10.0,7.0,300,6,,10.0,29.899607,,,TRUE,TRUE,,,,,,,FEW,1700,,,,,,,VFR,,,,,,,,,,,,METAR,84.0
KE11 230935Z AUTO 19013G18KT 10SM CLR 18/12 A2976 RMK AO2 T01750117,KE11,2022-10-23T09:35:00Z,32.33,-102.53,17.5,11.7,190,13,18,10.0,29.760826,,,TRUE,TRUE,,,,,,,CLR,,,,,,,,VFR,,,,,,,,,,,,METAR,966.0
KDZJ 230935Z AUTO 00000KT 7SM BR CLR 01/01 A3022 RMK AO2 T00130011,KDZJ,2022-10-23T09:35:00Z,34.85,-84.0,1.3,1.1,0,0,,7.0,30.221457,,,TRUE,TRUE,,,,,,BR,CLR,,,,,,,,VFR,,,,,,,,,,,,METAR,578.0
KDZB 230935Z AUTO 19006G14KT 10SM OVC020 22/17 A2986 RMK AO2 T02150170,KDZB,2022-10-23T09:35:00Z,30.53,-98.37,21.5,17.0,190,6,14,10.0,29.861221,,,TRUE,TRUE,,,,,,,OVC,2000,,,,,,,MVFR,,,,,,,,,,,,SPECI,329.0
KDYT 230935Z AUTO 06011KT 10SM OVC006 10/09 A2970 RMK AO2,KDYT,2022-10-23T09:35:00Z,46.72,-92.03,10.0,9.0,60,11,,10.0,29.698818,,,TRUE,TRUE,,,,,,,OVC,600,,,,,,,IFR,,,,,,,,,,,,SPECI,185.0
KDYB 230935Z AUTO 00000KT 10SM CLR 10/10 A3014 RMK AO2,KDYB,2022-10-23T09:35:00Z,33.07,-80.28,10.0,10.0,0,0,,10.0,30.138779,,,TRUE,TRUE,,,,,,,CLR,,,,,,,,VFR,,,,,,,,,,,,SPECI,15.0
KDXX 230935Z AUTO 11008KT 10SM CLR 09/05 A2950 RMK AO2,KDXX,2022-10-23T09:35:00Z,44.98,-96.18,9.0,5.0,110,8,,10.0,29.500984,,,TRUE,TRUE,,,,,,,CLR,,,,,,,,VFR,,,,,,,,,,,,METAR,327.0
KDWA 230935Z AUTO 34006KT 10SM CLR 13/M01 A2987 RMK AO2,KDWA,2022-10-23T09:35:00Z,38.58,-121.85,13.0,-1.0,340,6,,10.0,29.870079,,,TRUE,TRUE,,,,,,,CLR,,,,,,,,VFR,,,,,,,,,,,,METAR,28.0
KDVO 230935Z AUTO 32014G21KT 10SM CLR 13/02 A2989 RMK AO2,KDVO,2022-10-23T09:35:00Z,38.15,-122.55,13.0,2.0,320,14,21,10.0,29.890747,,,TRUE,TRUE,,,,,,,CLR,,,,,,,,VFR,,,,,,,,,,,,SPECI,1.0
KDUX 230935Z AUTO 20012KT 10SM CLR 17/09 A2961 RMK AO2 T01700094,KDUX,2022-10-23T09:35:00Z,35.85,-102.02,17.0,9.4,200,12,,10.0,29.610237,,,TRUE,TRUE,,,,,,,CLR,,,,,,,,VFR,,,,,,,,,,,,METAR,1129.0
KDUH 230935Z AUTO 16004KT 10SM CLR 12/08 A3011 RMK AO2 T01210081,KDUH,2022-10-23T09:35:00Z,41.73,-83.65,12.1,8.1,160,4,,10.0,30.109253,,,TRUE,TRUE,,,,,,,CLR,,,,,,,,VFR,,,,,,,,,,,,SPECI,203.0
KDUC 230935Z AUTO 17015KT 10SM CLR 20/13 A2971 RMK AO2 T02010128,KDUC,2022-10-23T09:35:00Z,34.47,-97.97,20.1,12.8,170,15,,10.0,29.71063,,,TRUE,TRUE,,,,,,,CLR,,,,,,,,VFR,,,,,,,,,,,,METAR,339.0
KDUA 230935Z AUTO 19015G21KT 10SM CLR 21/15 A2979 RMK AO2,KDUA,2022-10-23T09:35:00Z,33.95,-96.4,21.0,15.0,190,15,21,10.0,29.790354,,,TRUE,TRUE,,,,,,,CLR,,,,,,,,VFR,,,,,,,,,,,,SPECI,209.0
KDTL 230935Z AUTO 00000KT 10SM CLR 06/04 A2953 RMK AO2,KDTL,2022-10-23T09:35:00Z,46.82,-95.88,6.0,4.0,0,0,,10.0,29.530512,,,TRUE,TRUE,,,,,,,CLR,,,,,,,,VFR,,,,,,,,,,,,SPECI,425.0
KDTA 230935Z AUTO 20005KT 7SM OVC001 00/00 A2961 RMK AO1,KDTA,2022-10-23T09:35:00Z,39.38,-112.5,0.0,0.0,200,5,,7.0,29.610237,,,TRUE,TRUE,,,,,,,OVC,100,,,,,,,LIFR,,,,,,,,,,,,METAR,1452.0
KDSF 230935Z AUTO 08006KT 10SM FEW034 23/14 A3007 RMK A01,KDSF,2022-10-23T09:35:00Z,28.35,-88.27,23.0,14.0,80,6,,10.0,30.070866,,,TRUE,TRUE,,,,,,,FEW,3400,,,,,,,VFR,,,,,,,,,,,,SPECI,40.0
KDRM 230935Z AUTO 14003KT 10SM CLR 08/08 A3000 RMK AO2 T00840075,KDRM,2022-10-23T09:35:00Z,46.0,-83.75,8.4,7.5,140,3,,10.0,30.0,,,TRUE,TRUE,,,,,,,CLR,,,,,,,,VFR,,,,,,,,,,,,METAR,201.0
KDRI 230935Z AUTO 12003KT 10SM CLR 17/17 A2999 RMK AO2 T01730169 $,KDRI,2022-10-23T09:35:00Z,30.83,-93.33,17.3,16.9,120,3,,10.0,29.991142,,,TRUE,TRUE,TRUE,,,,,,CLR,,,,,,,,VFR,,,,,,,,,,,,SPECI,59.0
KDQH 230935Z AUTO 00000KT 10SM CLR 08/05 A3016 RMK AO2 T00780054,KDQH,2022-10-23T09:35:00Z,31.48,-82.87,7.8,5.4,0,0,,10.0,30.159449,,,TRUE,TRUE,,,,,,,CLR,,,,,,,,VFR,,,,,,,,,,,,METAR,76.0
KDPL 230935Z AUTO 33006KT 10SM CLR 13/08 A3012 RMK AO2,KDPL,2022-10-23T09:35:00Z,35.0,-77.97,13.0,8.0,330,6,,10.0,30.121063,,,TRUE,TRUE,,,,,,,CLR,,,,,,,,VFR,,,,,,,,,,,,METAR,39.0
KDNV 230935Z AUTO 18011G14KT 10SM SCT050 BKN070 18/11 A2997 RMK AO2 T01830106,KDNV,2022-10-23T09:35:00Z,40.2,-87.6,18.3,10.6,180,11,14,10.0,29.970472,,,TRUE,TRUE,,,,,,,SCT,5000,BKN,7000,,,,,VFR,,,,,,,,,,,,METAR,208.0
KDNN 230935Z AUTO 00000KT 8SM CLR 05/04 A3019 RMK AO2 T00500041,KDNN,2022-10-23T09:35:00Z,34.72,-84.87,5.0,4.1,0,0,,8.0,30.188976,,,TRUE,TRUE,,,,,,,CLR,,,,,,,,VFR,,,,,,,,,,,,SPECI,216.0
KDNA 230935Z AUTO 24007KT 10SM CLR 19/09 A2981 RMK AO2,KDNA,2022-10-23T09:35:00Z,31.88,-106.7,19.0,9.0,240,7,,10.0,29.811024,,,TRUE,TRUE,,,,,,,CLR,,,,,,,,VFR,,,,,,,,,,,,METAR,1254.0
KDMW 230935Z AUTO 35004KT 10SM CLR 07/06 A3026 RMK AO2,KDMW,2022-10-23T09:35:00Z,39.6,-77.0,7.0,6.0,350,4,,10.0,30.259842,,,TRUE,TRUE,,,,,,,CLR,,,,,,,,VFR,,,,,,,,,,,,SPECI,239.0
KDLZ 230935Z AUTO 00000KT 10SM SCT100 10/06 A3016 RMK AO2,KDLZ,2022-10-23T09:35:00Z,40.28,-83.12,10.0,6.0,0,0,,10.0,30.159449,,,TRUE,TRUE,,,,,,,SCT,10000,,,,,,,VFR,,,,,,,,,,,,METAR,287.0
KDLO 230935Z AUTO 00000KT 10SM CLR 10/04 A2982 RMK AO2 T00950038,KDLO,2022-10-23T09:35:00Z,35.75,-119.23,9.5,3.8,0,0,,10.0,29.819881,,,TRUE,TRUE,,,,,,,CLR,,,,,,,,VFR,,,,,,,,,,,,METAR,97.0
KDKX 230935Z AUTO 00000KT M1/4SM FG OVC002 07/07 A3020 RMK A01,KDKX,2022-10-23T09:35:00Z,35.97,-83.87,7.0,7.0,0,0,,0.25,30.200787,,,TRUE,TRUE,,,,,,FG,OVC,200,,,,,,,LIFR,,,,,,,,,,,,SPECI,253.0
KDKR 230935Z AUTO 11004KT 10SM BKN029 19/19 A2991 RMK AO2,KDKR,2022-10-23T09:35:00Z,31.3,-95.4,19.0,19.0,110,4,,10.0,29.911417,,,TRUE,TRUE,,,,,,,BKN,2900,,,,,,,MVFR,,,,,,,,,,,,SPECI,105.0
KDKB 230935Z AUTO 15009KT 10SM CLR 13/12 A2989 RMK AO2 T01310115,KDKB,2022-10-23T09:35:00Z,41.93,-88.7,13.1,11.5,150,9,,10.0,29.890747,,,TRUE,TRUE,,,,,,,CLR,,,,,,,,VFR,,,,,,,,,,,,METAR,277.0
KDEH 230935Z AUTO 15010G16KT 10SM SCT055 BKN070 15/10 A2971 RMK AO2,KDEH,2022-10-23T09:35:00Z,43.27,-91.73,15.0,10.0,150,10,16,10.0,29.71063,,,TRUE,TRUE,,,,,,,SCT,5500,BKN,7000,,,,,VFR,,,,,,,,,,,,SPECI,348.0
KDED 230935Z AUTO 31005KT 10SM CLR 15/13 A3010 RMK AO2 T01480135,KDED,2022-10-23T09:35:00Z,29.07,-81.28,14.8,13.5,310,5,,10.0,30.100393,,,TRUE,TRUE,,,,,,,CLR,,,,,,,,VFR,,,,,,,,,,,,METAR,21.0
KDCY 230935Z AUTO 17010KT 10SM SCT060 BKN070 18/11 A3003 RMK AO2 T01780107,KDCY,2022-10-23T09:35:00Z,38.7,-87.13,17.8,10.7,170,10,,10.0,30.029528,,,TRUE,TRUE,,,,,,,SCT,6000,BKN,7000,,,,,VFR,,,,,,,,,,,,SPECI,143.0
KDBN 230935Z AUTO 00000KT 10SM CLR 05/04 A3019 RMK AO2,KDBN,2022-10-23T09:35:00Z,32.57,-82.98,5.0,4.0,0,0,,10.0,30.188976,,,TRUE,TRUE,,,,,,,CLR,,,,,,,,VFR,,,,,,,,,,,,SPECI,90.0
KD95 230935Z AUTO 16004KT 10SM CLR 15/07 A3010 RMK AO2 T01450066,KD95,2022-10-23T09:35:00Z,43.07,-83.27,14.5,6.6,160,4,,10.0,30.100393,,,TRUE,TRUE,,,,,,,CLR,,,,,,,,VFR,,,,,,,,,,,,SPECI,253.0
KD73 230935Z AUTO 00000KT 7SM CLR 04/ A3021 RMK AO2 T0040////,KD73,2022-10-23T09:35:00Z,33.78,-83.7,4.0,,0,0,,7.0,30.209646,,,TRUE,TRUE,,,,,,,CLR,,,,,,,,VFR,,,,,,,,,,,,METAR,254.0
KD60 230935Z AUTO 07024G30KT 9SM OVC009 05/05 A2951 RMK AO2,KD60,2022-10-23T09:35:00Z,48.38,-102.9,5.0,5.0,70,24,30,9.0,29.509842,,,TRUE,TRUE,,,,,,,OVC,900,,,,,,,IFR,,,,,,,,,,,,SPECI,682.0
KD57 230935Z AUTO 06016G21KT 10SM 06/04 A2942 RMK AO2,KD57,2022-10-23T09:35:00Z,46.82,-101.87,6.0,4.0,60,16,21,10.0,29.421259,,,TRUE,TRUE,,,,,,,,,,,,,,,,,,,,,,,,,,,SPECI,636.0
KD55 230935Z AUTO 04018G24KT 10SM OVC007 06/06 A2961 RMK AO2,KD55,2022-10-23T09:35:00Z,48.75,-98.4,6.0,6.0,40,18,24,10.0,29.610237,,,TRUE,TRUE,,,,,,,OVC,700,,,,,,,IFR,,,,,,,,,,,,METAR,488.0
KD39 230935Z AUTO 11003KT 10SM CLR 10/06 A2957 RMK AO2 T00970058,KD39,2022-10-23T09:35:00Z,45.7,-94.93,9.7,5.8,110,3,,10.0,29.568897,,,TRUE,TRUE,,,,,,,CLR,,,,,,,,VFR,,,,,,,,,,,,SPECI,378.0
KD25 230935Z AUTO 15007KT 10SM CLR 13/09 A2979 RMK AO2 T01310089,KD25,2022-10-23T09:35:00Z,46.12,-89.88,13.1,8.9,150,7,,10.0,29.790354,,,TRUE,TRUE,,,,,,,CLR,,,,,,,,VFR,,,,,,,,,,,,METAR,490.0
KCZT 230935Z AUTO 13003KT 10SM CLR 18/18 A2980 RMK AO2,KCZT,2022-10-23T09:35:00Z,28.52,-99.82,18.0,18.0,130,3,,10.0,29.799213,,,TRUE,TRUE,,,,,,,CLR,,,,,,,,VFR,,,,,,,,,,,,METAR,176.0
KCZL 230935Z AUTO 00000KT 10SM CLR 05/04 A3021 RMK AO2,KCZL,2022-10-23T09:35:00Z,34.47,-84.93,5.0,4.0,0,0,,10.0,30.209646,,,TRUE,TRUE,,,,,,,CLR,,,,,,,,VFR,,,,,,,,,,,,SPECI,197.0
KCXW 230935Z AUTO 19015G20KT 10SM OVC031 21/15 A2990 RMK A01,KCXW,2022-10-23T09:35:00Z,35.02,-92.55,21.0,15.0,190,15,20,10.0,29.899607,,,TRUE,TRUE,,,,,,,OVC,3100,,,,,,,VFR,,,,,,,,,,,,SPECI,84.0
KCXU 230935Z AUTO 00000KT 10SM CLR 05/03 A3015 RMK AO1 T00500027,KCXU,2022-10-23T09:35:00Z,31.22,-84.23,5.0,2.7,0,0,,10.0,30.15059,,,TRUE,TRUE,,,,,,,CLR,,,,,,,,VFR,,,,,,,,,,,,SPECI,48.0
KCXP 230935Z AUTO 00000KT 10SM CLR M01/M05 A2988 RMK AO2,KCXP,2022-10-23T09:35:00Z,39.18,-119.73,-1.0,-5.0,0,0,,10.0,29.878937,,,TRUE,TRUE,,,,,,,CLR,,,,,,,,VFR,,,,,,,,,,,,SPECI,1431.0
KCXE 230935Z AUTO 35004KT 10SM CLR 09/06 A3020 RMK AO1 T00850062,KCXE,2022-10-23T09:35:00Z,36.78,-78.5,8.5,6.2,350,4,,10.0,30.200787,,,TRUE,TRUE,,,,,,,CLR,,,,,,,,VFR,,,,,,,,,,,,SPECI,154.0
KCWV 230935Z AUTO 00000KT 7SM CLR 07/06 A3015 RMK AO2 T00650057,KCWV,2022-10-23T09:35:00Z,32.2,-81.87,6.5,5.7,0,0,,7.0,30.15059,,,TRUE,TRUE,,,,,,,CLR,,,,,,,,VFR,,,,,,,,,,,,METAR,32.0
KCWF 230935Z AUTO 10004KT 10SM CLR 16/15 A2997 RMK AO2 T01630154,KCWF,2022-10-23T09:35:00Z,30.22,-93.15,16.3,15.4,100,4,,10.0,29.970472,,,TRUE,TRUE,,,,,,,CLR,,,,,,,,VFR,,,,,,,,,,,,METAR,4.0
KCWC 230935Z AUTO 17008KT 10SM CLR 21/12 A2971 RMK AO2 T02100119,KCWC,2022-10-23T09:35:00Z,33.85,-98.48,21.0,11.9,170,8,,10.0,29.71063,,,TRUE,TRUE,,,,,,,CLR,,,,,,,,VFR,,,,,,,,,,,,SPECI,304.0
KCWA 230935Z AUTO 13005KT 10SM CLR 12/09 A2982 RMK AO2,KCWA,2022-10-23T09:35:00Z,44.78,-89.67,12.0,9.0,130,5,,10.0,29.819881,,,TRUE,TRUE,,,,,,,CLR,,,,,,,,VFR,,,,,,,,,,,,METAR,387.0
KCVX 230935Z AUTO 15004KT 10SM CLR 14/11 A2996 RMK AO2 T01410105,KCVX,2022-10-23T09:35:00Z,45.3,-85.27,14.1,10.5,150,4,,10.0,29.958662,,,TRUE,TRUE,,,,,,,CLR,,,,,,,,VFR,,,,,,,,,,,,SPECI,196.0
KCVH 230935Z AUTO 00000KT 10SM CLR 10/05 A2989 RMK A01,KCVH,2022-10-23T09:35:00Z,36.9,-121.42,10.0,5.0,0,0,,10.0,29.890747,,,TRUE,TRUE,,,,,,,CLR,,,,,,,,VFR,,,,,,,,,,,,METAR,68.0
KCVC 230935Z AUTO 00000KT 10SM CLR 06/03 A3018 RMK AO2,KCVC,2022-10-23T09:35:00Z,33.63,-83.85,6.0,3.0,0,0,,10.0,30.180119,,,TRUE,TRUE,,,,,,,CLR,,,,,,,,VFR,,,,,,,,,,,,SPECI,240.0
KCUH 230935Z AUTO 18012G19KT 10SM CLR 22/14 A2965 RMK AO2 T02150135,KCUH,2022-10-23T09:35:00Z,35.95,-96.77,21.5,13.5,180,12,19,10.0,29.648623,,,TRUE,TRUE,,,,,,,CLR,,,,,,,,VFR,,,,,,,,,,,,METAR,274.0
KCTZ 230935Z AUTO 34004KT 10SM CLR 13/11 A3014 RMK AO2 T01280113,KCTZ,2022-10-23T09:35:00Z,34.98,-78.37,12.8,11.3,340,4,,10.0,30.138779,,,TRUE,TRUE,,,,,,,CLR,,,,,,,,VFR,,,,,,,,,,,,SPECI,43.0
KCTY 230935Z AUTO 03003KT 10SM CLR 06/05 A3012 RMK AO2 T00650051,KCTY,2022-10-23T09:35:00Z,29.63,-83.1,6.5,5.1,30,3,,10.0,30.121063,,,TRUE,TRUE,,,,,,,CLR,,,,,,,,VFR,,,,,,,,,,,,SPECI,12.0
KCTJ 230935Z AUTO 00000KT 10SM CLR 05/04 A3023 RMK AO2 T00480038,KCTJ,2022-10-23T09:35:00Z,33.63,-85.15,4.8,3.8,0,0,,10.0,30.230314,,,TRUE,TRUE,,,,,,,CLR,,,,,,,,VFR,,,,,,,,,,,,METAR,351.0
KCSQ 230935Z AUTO 14010KT 10SM CLR 15/12 A2957 RMK AO2,KCSQ,2022-10-23T09:35:00Z,41.02,-94.37,15.0,12.0,140,10,,10.0,29.568897,,,TRUE,TRUE,,,,,,,CLR,,,,,,,,VFR,,,,,,,,,,,,SPECI,394.0
KCRX 230935Z AUTO 15006KT 10SM OVC055 15/11 A3009 RMK AO2,KCRX,2022-10-23T09:35:00Z,34.92,-88.6,15.0,11.0,150,6,,10.0,30.088583,,,TRUE,TRUE,,,,,,,OVC,5500,,,,,,,VFR,,,,,,,,,,,,SPECI,128.0
KCQW 230935Z AUTO 35003KT 10SM CLR 08/08 A3017 RMK AO2 PWINO,KCQW,2022-10-23T09:35:00Z,34.72,-79.95,8.0,8.0,350,3,,10.0,30.171259,,,TRUE,TRUE,,,,,TRUE,,CLR,,,,,,,,VFR,,,,,,,,,,,,SPECI,67.0
KCQF 230935Z AUTO 00000KT 10SM CLR 11/08 A3011 RMK AO2,KCQF,2022-10-23T09:35:00Z,30.47,-87.88,11.0,8.0,0,0,,10.0,30.109253,,,TRUE,TRUE,,,,,,,CLR,,,,,,,,VFR,,,,,,,,,,,,METAR,21.0
KCQB 230935Z AUTO 17013G19KT 10SM CLR 22/14 A2968 RMK AO2 T02160138,KCQB,2022-10-23T09:35:00Z,35.72,-96.82,21.6,13.8,170,13,19,10.0,29.681103,,,TRUE,TRUE,,,,,,,CLR,,,,,,,,VFR,,,,,,,,,,,,METAR,298.0
KCPW 230935Z AUTO 22046G71KT 10SM OVC003 M02/M02 A2975 RMK AO2 LTG DSNT E,KCPW,2022-10-23T09:35:00Z,37.45,-106.8,-2.0,-2.0,220,46,71,10.0,29.749016,,,TRUE,TRUE,,,,,,,OVC,300,,,,,,,LIFR,,,,,,,,,,,,SPECI,3570.0
KCPU 230935Z AUTO 00000KT 10SM CLR 05/M01 A2983 RMK AO2 T00541014,KCPU,2022-10-23T09:35:00Z,38.15,-120.65,5.4,-1.4,0,0,,10.0,29.828741,,,TRUE,TRUE,,,,,,,CLR,,,,,,,,VFR,,,,,,,,,,,,METAR,400.0
KCPT 230935Z AUTO 17012KT 10SM OVC021 20/18 A2981 RMK A01,KCPT,2022-10-23T09:35:00Z,32.35,-97.43,20.0,18.0,170,12,,10.0,29.811024,,,TRUE,TRUE,,,,,,,OVC,2100,,,,,,,MVFR,,,,,,,,,,,,METAR,260.0
KCPK 230935Z AUTO 35006KT 15/13 A3011 RMK AO2 T01510128,KCPK,2022-10-23T09:35:00Z,36.67,-76.32,15.1,12.8,350,6,,,30.109253,,,TRUE,TRUE,,,,,,,,,,,,,,,,,,,,,,,,,,,SPECI,4.0
KCPC 230935Z AUTO 33004KT 10SM CLR 13/09 A3014 RMK AO2 T01310093,KCPC,2022-10-23T09:35:00Z,34.28,-78.72,13.1,9.3,330,4,,10.0,30.138779,,,TRUE,TRUE,,,,,,,CLR,,,,,,,,VFR,,,,,,,,,,,,METAR,27.0
KCOQ 230935Z AUTO 11004KT 1/4SM FG OVC002 07/07 A2967 RMK AO2 TSNO,KCOQ,2022-10-23T09:35:00Z,46.7,-92.5,7.0,7.0,110,4,,0.25,29.66929,,,TRUE,TRUE,,,TRUE,,,FG,OVC,200,,,,,,,LIFR,,,,,,,,,,,,METAR,390.0
KCOM 230935Z AUTO 19009KT 10SM CLR 20/13 A2979 RMK AO2 T02000132,KCOM,2022-10-23T09:35:00Z,31.83,-99.4,20.0,13.2,190,9,,10.0,29.790354,,,TRUE,TRUE,,,,,,,CLR,,,,,,,,VFR,,,,,,,,,,,,METAR,516.0
KCNI 230935Z AUTO 00000KT 10SM CLR 08/04 A3021 RMK AO2 T00770038,KCNI,2022-10-23T09:35:00Z,34.32,-84.42,7.7,3.8,0,0,,10.0,30.209646,,,TRUE,TRUE,,,,,,,CLR,,,,,,,,VFR,,,,,,,,,,,,METAR,371.0
KCNC 230935Z AUTO 14011G18KT 10SM CLR 17/12 A2962 RMK AO2,KCNC,2022-10-23T09:35:00Z,41.02,-93.37,17.0,12.0,140,11,18,10.0,29.619095,,,TRUE,TRUE,,,,,,,CLR,,,,,,,,VFR,,,,,,,,,,,,SPECI,319.0
KCNB 230935Z AUTO 00000KT 10SM CLR 04/00 A2950 RMK AO2 T00410000,KCNB,2022-10-23T09:35:00Z,44.73,-96.27,4.1,0.0,0,0,,10.0,29.500984,,,TRUE,TRUE,,,,,,,CLR,,,,,,,,VFR,,,,,,,,,,,,SPECI,363.0
KCMR 230935Z AUTO 23023G37KT 10SM SCT012 BKN020 OVC065 08/06 A2971 RMK AO2,KCMR,2022-10-23T09:35:00Z,35.3,-112.2,8.0,6.0,230,23,37,10.0,29.71063,,,TRUE,TRUE,,,,,,,SCT,1200,BKN,2000,OVC,6500,,,MVFR,,,,,,,,,,,,METAR,2039.0
KCMD 230935Z AUTO VRB05KT 10SM CLR 15/09 A3016 RMK AO2,KCMD,2022-10-23T09:35:00Z,34.27,-86.85,15.0,9.0,0,5,,10.0,30.159449,,,TRUE,TRUE,,,,,,,CLR,,,,,,,,VFR,,,,,,,,,,,,METAR,294.0
KCLW 230935Z AUTO 08003KT 10SM CLR 17/13 A3007 RMK AO2,KCLW,2022-10-23T09:35:00Z,27.98,-82.75,17.0,13.0,80,3,,10.0,30.070866,,,TRUE,TRUE,,,,,,,CLR,,,,,,,,VFR,,,,,,,,,,,,SPECI,21.0
KCLS 230935Z AUTO 22003KT 9SM BKN023 BKN027 BKN036 03/03 A2996 RMK AO2,KCLS,2022-10-23T09:35:00Z,46.68,-122.98,3.0,3.0,220,3,,9.0,29.958662,,,TRUE,TRUE,,,,,,,BKN,2300,BKN,2700,BKN,3600,,,MVFR,,,,,,,,,,,,METAR,52.0
KCLI 230935Z AUTO 16004KT 10SM CLR 13/10 A2986 RMK AO2 T01290103,KCLI,2022-10-23T09:35:00Z,44.62,-88.73,12.9,10.3,160,4,,10.0,29.861221,,,TRUE,TRUE,,,,,,,CLR,,,,,,,,VFR,,,,,,,,,,,,SPECI,248.0
KCKZ 230935Z AUTO 00000KT 10SM OVC027 09/09 A3028 RMK AO2,KCKZ,2022-10-23T09:35:00Z,40.38,-75.28,9.0,9.0,0,0,,10.0,30.280512,,,TRUE,TRUE,,,,,,,OVC,2700,,,,,,,MVFR,,,,,,,,,,,,SPECI,160.0
KCKP 230935Z AUTO 00000KT 10SM CLR 12/10 A2951 RMK AO2 T01240099,KCKP,2022-10-23T09:35:00Z,42.73,-95.55,12.4,9.9,0,0,,10.0,29.509842,,,TRUE,TRUE,,,,,,,CLR,,,,,,,,VFR,,,,,,,,,,,,METAR,369.0
KCKN 230935Z AUTO 06008KT 10SM CLR 06/03 A2955 RMK AO2,KCKN,2022-10-23T09:35:00Z,47.85,-96.62,6.0,3.0,60,8,,10.0,29.551182,,,TRUE,TRUE,,,,,,,CLR,,,,,,,,VFR,,,,,,,,,,,,SPECI,272.0
KCKM 230935Z AUTO 15009KT 10SM FEW031 SCT039 BKN047 18/13 A3003 RMK A01,KCKM,2022-10-23T09:35:00Z,34.3,-90.52,18.0,13.0,150,9,,10.0,30.029528,,,TRUE,TRUE,,,,,,,FEW,3100,SCT,3900,BKN,4700,,,VFR,,,,,,,,,,,,SPECI,52.0
KCKI 230935Z AUTO 32003KT 10SM CLR A3015 RMK AO2,KCKI,2022-10-23T09:35:00Z,33.72,-79.85,,,320,3,,10.0,30.15059,,,TRUE,TRUE,,,,,,,CLR,,,,,,,,VFR,,,,,,,,,,,,SPECI,19.0
KCKF 230935Z AUTO 00000KT 10SM CLR 05/03 A3017 RMK AO2 T00470029,KCKF,2022-10-23T09:35:00Z,31.98,-83.77,4.7,2.9,0,0,,10.0,30.171259,,,TRUE,TRUE,,,,,,,CLR,,,,,,,,VFR,,,,,,,,,,,,METAR,92.0
KCKC 230935Z AUTO 05004KT 10SM CLR 08/06 A2974 RMK AO2,KCKC,2022-10-23T09:35:00Z,47.83,-90.38,8.0,6.0,50,4,,10.0,29.740158,,,TRUE,TRUE,,,,,,,CLR,,,,,,,,VFR,,,,,,,,,,,,METAR,544.0
KCJR 230935Z AUTO 00000KT 10SM CLR 05/04 A3025 RMK AO2 T00450037,KCJR,2022-10-23T09:35:00Z,38.53,-77.87,4.5,3.7,0,0,,10.0,30.250984,,,TRUE,TRUE,,,,,,,CLR,,,,,,,,VFR,,,,,,,,,,,,SPECI,90.0
KCIR 230935Z AUTO 20008KT 10SM CLR 19/12 A2998 RMK AO2 T01880121,KCIR,2022-10-23T09:35:00Z,37.07,-89.22,18.8,12.1,200,8,,10.0,29.97933,,,TRUE,TRUE,,,,,,,CLR,,,,,,,,VFR,,,,,,,,,,,,SPECI,96.0
KCIN 230935Z AUTO 12008KT 10SM CLR 11/11 A2954 RMK AO2,KCIN,2022-10-23T09:35:00Z,42.03,-94.78,11.0,11.0,120,8,,10.0,29.53937,,,TRUE,TRUE,,,,,,,CLR,,,,,,,,VFR,,,,,,,,,,,,SPECI,365.0
KCIC 230935Z AUTO 31010KT 10SM CLR 11/00 A2989 RMK AO1,KCIC,2022-10-23T09:35:00Z,39.78,-121.85,11.0,0.0,310,10,,10.0,29.890747,,,TRUE,TRUE,,,,,,,CLR,,,,,,,,VFR,,,,,,,,,,,,METAR,72.0
KCGF 230935Z AUTO 14008KT 10SM CLR 14/06 A3019 RMK AO2 T01390056,KCGF,2022-10-23T09:35:00Z,41.57,-81.47,13.9,5.6,140,8,,10.0,30.188976,,,TRUE,TRUE,,,,,,,CLR,,,,,,,,VFR,,,,,,,,,,,,METAR,265.0
KCGE 230935Z AUTO 36006KT 10SM OVC025 13/12 A3020 RMK A01,KCGE,2022-10-23T09:35:00Z,38.53,-76.03,13.0,12.0,360,6,,10.0,30.200787,,,TRUE,TRUE,,,,,,,OVC,2500,,,,,,,MVFR,,,,,,,,,,,,SPECI,5.0
KCGC 230935Z AUTO 10SM 11/10 RMK AO2 PNO,KCGC,2022-10-23T09:35:00Z,28.87,-82.57,11.0,10.0,,,,10.0,,,,TRUE,TRUE,,,,,,,,,,,,,,,,,,,,,,,,,,,SPECI,3.0
KCFS 230935Z AUTO 13003KT 10SM CLR 13/09 A3007 RMK AO2 T01280086,KCFS,2022-10-23T09:35:00Z,43.47,-83.45,12.8,8.6,130,3,,10.0,30.070866,,,TRUE,TRUE,,,,,,,CLR,,,,,,,,VFR,,,,,,,,,,,,SPECI,214.0
KCFO 230935Z AUTO 17012KT 10SM CLR 16/M04 A2937 RMK AO2 T01551042,KCFO,2022-10-23T09:35:00Z,39.78,-104.55,15.5,-4.2,170,12,,10.0,29.371063,,,TRUE,TRUE,,,,,,,CLR,,,,,,,,VFR,,,,,,,,,,,,METAR,1672.0
KCFJ 230935Z AUTO 15008KT 10SM BKN065 13/07 A3001 RMK AO2 T01330067,KCFJ,2022-10-23T09:35:00Z,39.98,-86.92,13.3,6.7,150,8,,10.0,30.008858,,,TRUE,TRUE,,,,,,,BKN,6500,,,,,,,VFR,,,,,,,,,,,,SPECI,243.0
KCFE 230935Z AUTO 14008KT 10SM SCT023 SCT046 15/08 A2960 RMK AO2,KCFE,2022-10-23T09:35:00Z,45.17,-93.85,15.0,8.0,140,8,,10.0,29.601377,,,TRUE,TRUE,,,,,,,SCT,2300,SCT,4600,,,,,VFR,,,,,,,,,,,,METAR,292.0
KCFD 230935Z AUTO 16006KT 10SM BKN043 19/17 A2990 RMK AO2 T01930169,KCFD,2022-10-23T09:35:00Z,30.72,-96.33,19.3,16.9,160,6,,10.0,29.899607,,,TRUE,TRUE,,,,,,,BKN,4300,,,,,,,VFR,,,,,,,,,,,,SPECI,106.0
KCEY 230935Z AUTO 15007KT 10SM OVC060 17/11 A3005 RMK A01,KCEY,2022-10-23T09:35:00Z,36.67,-88.37,17.0,11.0,150,7,,10.0,30.050198,,,TRUE,TRUE,,,,,,,OVC,6000,,,,,,,VFR,,,,,,,,,,,,SPECI,172.0
KCDN 230935Z AUTO 00000KT 10SM CLR 09/07 A3017 RMK AO2,KCDN,2022-10-23T09:35:00Z,34.28,-80.57,9.0,7.0,0,0,,10.0,30.171259,,,TRUE,TRUE,,,,,,,CLR,,,,,,,,VFR,,,,,,,,,,,,SPECI,90.0
KCDI 230935Z AUTO 00000KT 10SM CLR 03/03 A3020 RMK AO2 T00280028,KCDI,2022-10-23T09:35:00Z,39.97,-81.58,2.8,2.8,0,0,,10.0,30.200787,,,TRUE,TRUE,,,,,,,CLR,,,,,,,,VFR,,,,,,,,,,,,SPECI,241.0
KCDH 230935Z AUTO 14007KT 10SM OVC045 19/17 A2995 RMK AO2,KCDH,2022-10-23T09:35:00Z,33.62,-92.77,19.0,17.0,140,7,,10.0,29.949802,,,TRUE,TRUE,,,,,,,OVC,4500,,,,,,,VFR,,,,,,,,,,,,SPECI,38.0
KCDA 230935Z AUTO 00000KT 10SM 04/03 A3035 RMK AO2 T00420026,KCDA,2022-10-23T09:35:00Z,44.57,-72.02,4.2,2.6,0,0,,10.0,30.351377,,,TRUE,TRUE,,,,,,,,,,,,,,,,,,,,,,,,,,,SPECI,357.0
KCCY 230935Z AUTO 14012KT 10SM CLR 15/10 A2968 RMK AO2,KCCY,2022-10-23T09:35:00Z,43.07,-92.62,15.0,10.0,140,12,,10.0,29.681103,,,TRUE,TRUE,,,,,,,CLR,,,,,,,,VFR,,,,,,,,,,,,SPECI,340.0
KCCU 230935Z AUTO 17015G29KT 130V190 10SM CLR 01/M03 A2968 RMK AO2,KCCU,2022-10-23T09:35:00Z,39.48,-106.15,1.0,-3.0,170,15,29,10.0,29.681103,,,TRUE,TRUE,,,,,,,CLR,,,,,,,,VFR,,,,,,,,,,,,SPECI,3672.0
KCCO 230935Z AUTO 00000KT 10SM CLR 07/05 A3019 RMK AO2 T00650046,KCCO,2022-10-23T09:35:00Z,33.32,-84.77,6.5,4.6,0,0,,10.0,30.188976,,,TRUE,TRUE,,,,,,,CLR,,,,,,,,VFR,,,,,,,,,,,,METAR,290.0
KCCB 230935Z AUTO 26004KT 10SM BKN007 BKN013 OVC034 14/14 A2979 RMK AO2,KCCB,2022-10-23T09:35:00Z,34.12,-117.68,14.0,14.0,260,4,,10.0,29.790354,,,TRUE,TRUE,,,,,,,BKN,700,BKN,1300,OVC,3400,,,IFR,,,,,,,,,,,,METAR,440.0
KCCA 230935Z AUTO 10003KT 10SM OVC033 15/14 A2990 RMK AO2,KCCA,2022-10-23T09:35:00Z,35.6,-92.45,15.0,14.0,100,3,,10.0,29.899607,,,TRUE,TRUE,,,,,,,OVC,3300,,,,,,,VFR,,,,,,,,,,,,SPECI,152.0
KCBK 230935Z AUTO 21012KT 10SM CLR 14/00 A2937 RMK AO2 T01450003,KCBK,2022-10-23T09:35:00Z,39.43,-101.05,14.5,0.3,210,12,,10.0,29.371063,,,TRUE,TRUE,,,,,,,CLR,,,,,,,,VFR,,,,,,,,,,,,METAR,970.0
KCBG 230935Z AUTO 00000KT 10SM CLR 16/06 A2963 RMK AO2,KCBG,2022-10-23T09:35:00Z,45.57,-93.27,16.0,6.0,0,0,,10.0,29.630905,,,TRUE,TRUE,,,,,,,CLR,,,,,,,,VFR,,,,,,,,,,,,METAR,285.0
KCBF 230935Z AUTO 14011KT 10SM CLR 15/11 A2946 RMK AO2,KCBF,2022-10-23T09:35:00Z,41.27,-95.77,15.0,11.0,140,11,,10.0,29.459646,,,TRUE,TRUE,,,,,,,CLR,,,,,,,,VFR,,,,,,,,,,,,METAR,379.0
KCBE 230935Z AUTO 25003KT 10SM CLR 01/01 A3032 RMK AO2 T00130008,KCBE,2022-10-23T09:35:00Z,39.62,-78.77,1.3,0.8,250,3,,10.0,30.318897,,,TRUE,TRUE,,,,,,,CLR,,,,,,,,VFR,,,,,,,,,,,,SPECI,226.0
KCAV 230935Z AUTO 13018G24KT 10SM 15/11 A2960 RMK A01,KCAV,2022-10-23T09:35:00Z,42.75,-93.77,15.0,11.0,130,18,24,10.0,29.601377,,,TRUE,TRUE,,,,,,,,,,,,,,,,,,,,,,,,,,,METAR,352.0
KCAD 230935Z AUTO 19003KT 10SM CLR 13/10 A2999 RMK AO2 T01300099,KCAD,2022-10-23T09:35:00Z,44.27,-85.42,13.0,9.9,190,3,,10.0,29.991142,,,TRUE,TRUE,,,,,,,CLR,,,,,,,,VFR,,,,,,,,,,,,SPECI,397.0
KC83 230935Z AUTO 25012KT 10SM CLR 13/04 A2986 RMK AO2,KC83,2022-10-23T09:35:00Z,37.83,-121.62,13.0,4.0,250,12,,10.0,29.861221,,,TRUE,TRUE,,,,,,,CLR,,,,,,,,VFR,,,,,,,,,,,,SPECI,16.0
KC75 230935Z AUTO 17008KT 10SM CLR 16/12 A2984 RMK AO2 T01640124,KC75,2022-10-23T09:35:00Z,41.02,-89.38,16.4,12.4,170,8,,10.0,29.840551,,,TRUE,TRUE,,,,,,,CLR,,,,,,,,VFR,,,,,,,,,,,,SPECI,166.0
KC65 230935Z AUTO 16006KT 10SM FEW049 FEW055 16/10 A3000 RMK A01,KC65,2022-10-23T09:35:00Z,41.37,-86.3,16.0,10.0,160,6,,10.0,30.0,,,TRUE,TRUE,,,,,,,FEW,4900,FEW,5500,,,,,VFR,,,,,,,,,,,,METAR,241.0
KC35 230935Z AUTO 16006KT 10SM SCT120 16/11 A2980 RMK AO2 T01560113 PWINO,KC35,2022-10-23T09:35:00Z,43.53,-89.98,15.6,11.3,160,6,,10.0,29.799213,,,TRUE,TRUE,,,,,TRUE,,SCT,12000,,,,,,,VFR,,,,,,,,,,,,METAR,272.0
KC29 230935Z AUTO 14007KT 10SM CLR 16/12 A2983 RMK AO1 T01600122,KC29,2022-10-23T09:35:00Z,43.12,-89.53,16.0,12.2,140,7,,10.0,29.828741,,,TRUE,TRUE,,,,,,,CLR,,,,,,,,VFR,,,,,,,,,,,,SPECI,282.0
KC09 230935Z AUTO 17010KT 10SM CLR 16/11 A2989 RMK AO2 T01590112,KC09,2022-10-23T09:35:00Z,41.43,-88.42,15.9,11.2,170,10,,10.0,29.890747,,,TRUE,TRUE,,,,,,,CLR,,,,,,,,VFR,,,,,,,,,,,,SPECI,179.0
KC07 230935Z AUTO 21008G26KT 180V240 3/4SM -SN OVC007 00/00 A2957 RMK AO2,KC07,2022-10-23T09:35:00Z,40.35,-106.7,0.0,0.0,210,8,26,0.75,29.568897,,,TRUE,TRUE,,,,,,-SN,OVC,700,,,,,,,LIFR,,,,,,,,,,,,SPECI,3224.0
KBYY 230935Z AUTO 16004KT 10SM SCT039 SCT060 21/19 A2990 RMK AO2 T02170197,KBYY,2022-10-23T09:35:00Z,28.97,-95.87,21.7,19.7,160,4,,10.0,29.899607,,,TRUE,TRUE,,,,,,,SCT,3900,SCT,6000,,,,,VFR,,,,,,,,,,,,METAR,12.0
KBYL 230935Z AUTO 00000KT 10SM CLR 08/07 A3020 RMK AO1,KBYL,2022-10-23T09:35:00Z,36.8,-84.2,8.0,7.0,0,0,,10.0,30.200787,,,TRUE,TRUE,,,,,,,CLR,,,,,,,,VFR,,,,,,,,,,,,METAR,355.0
KBXK 230935Z AUTO 21010G17KT 10SM BKN031 OVC046 21/15 A2970 RMK A01,KBXK,2022-10-23T09:35:00Z,33.42,-112.68,21.0,15.0,210,10,17,10.0,29.698818,,,TRUE,TRUE,,,,,,,BKN,3100,OVC,4600,,,,,VFR,,,,,,,,,,,,METAR,303.0
KBXA 230935Z AUTO 00000KT 10SM SCT002 10/09 A3009 RMK AO2 T00980086,KBXA,2022-10-23T09:35:00Z,30.82,-89.87,9.8,8.6,0,0,,10.0,30.088583,,,TRUE,TRUE,,,,,,,SCT,200,,,,,,,VFR,,,,,,,,,,,,SPECI,35.0
KBWW 230935Z AUTO 09011G17KT 10SM FEW120 06/04 A2940 RMK AO2,KBWW,2022-10-23T09:35:00Z,46.17,-103.3,6.0,4.0,90,11,17,10.0,29.40059,,,TRUE,TRUE,,,,,,,FEW,12000,,,,,,,VFR,,,,,,,,,,,,SPECI,911.0
KBWP 230935Z AUTO 04004KT 10SM CLR 05/M00 A2949 RMK AO2,KBWP,2022-10-23T09:35:00Z,46.25,-96.62,5.0,0.0,40,4,,10.0,29.489174,,,TRUE,TRUE,,,,,,,CLR,,,,,,,,VFR,,,,,,,,,,,,SPECI,294.0
KBVU 230935Z AUTO 02013KT 10SM OVC060 14/05 A2966 RMK AO2,KBVU,2022-10-23T09:35:00Z,35.95,-114.87,14.0,5.0,20,13,,10.0,29.660433,,,TRUE,TRUE,,,,,,,OVC,6000,,,,,,,VFR,,,,,,,,,,,,METAR,654.0
KBVS 230935Z AUTO 00000KT 10SM OVC008 06/06 A2996 RMK A01,KBVS,2022-10-23T09:35:00Z,48.47,-122.42,6.0,6.0,0,0,,10.0,29.958662,,,TRUE,TRUE,,,,,,,OVC,800,,,,,,,IFR,,,,,,,,,,,,SPECI,31.0
KBVN 230935Z AUTO 12007KT 10SM CLR 12/09 A2938 RMK AO2 T01230088,KBVN,2022-10-23T09:35:00Z,41.73,-98.05,12.3,8.8,120,7,,10.0,29.379921,,,TRUE,TRUE,,,,,,,CLR,,,,,,,,VFR,,,,,,,,,,,,METAR,547.0
KBVI 230935Z AUTO 11003KT 10SM CLR 11/03 A3022 RMK AO2 T01100025,KBVI,2022-10-23T09:35:00Z,40.77,-80.37,11.0,2.5,110,3,,10.0,30.221457,,,TRUE,TRUE,,,,,,,CLR,,,,,,,,VFR,,,,,,,,,,,,SPECI,387.0
KBUU 230935Z AUTO 00000KT 10SM CLR 15/11 A2989 RMK AO2 T01490112 PWINO,KBUU,2022-10-23T09:35:00Z,42.68,-88.3,14.9,11.2,0,0,,10.0,29.890747,,,TRUE,TRUE,,,,,TRUE,,CLR,,,,,,,,VFR,,,,,,,,,,,,METAR,238.0
KBTN 230935Z AUTO 05006KT 9SM CLR 01/01 A2944 RMK AO2,KBTN,2022-10-23T09:35:00Z,45.82,-97.75,1.0,1.0,50,6,,9.0,29.438976,,,TRUE,TRUE,,,,,,,CLR,,,,,,,,VFR,,,,,,,,,,,,SPECI,400.0
KBTA 230935Z AUTO 14010G15KT 10SM CLR 18/13 A2946 RMK AO2 T01750126,KBTA,2022-10-23T09:35:00Z,41.42,-96.12,17.5,12.6,140,10,15,10.0,29.459646,,,TRUE,TRUE,,,,,,,CLR,,,,,,,,VFR,,,,,,,,,,,,SPECI,400.0
KBRY 230935Z AUTO 12004KT 10SM SCT200 BKN220 13/09 A3010 RMK AO2 T01340090,KBRY,2022-10-23T09:35:00Z,37.82,-85.5,13.4,9.0,120,4,,10.0,30.100393,,,TRUE,TRUE,,,,,,,SCT,20000,BKN,22000,,,,,VFR,,,,,,,,,,,,SPECI,192.0
KBRG 230935Z AUTO 19011KT 10SM SCT070 15/09 A2973 RMK AO2 LTG DSNT E T01450086,KBRG,2022-10-23T09:35:00Z,34.65,-106.83,14.5,8.6,190,11,,10.0,29.731298,,,TRUE,TRUE,,,,,,,SCT,7000,,,,,,,VFR,,,,,,,,,,,,SPECI,1585.0
KBQX 230935Z AUTO 17023KT 9SM 26/19 A2990 RMK A01,KBQX,2022-10-23T09:35:00Z,28.5,-95.72,26.0,19.0,170,23,,9.0,29.899607,,,TRUE,TRUE,,,,,,,,,,,,,,,,,,,,,,,,,,,SPECI,34.0
KBQP 230935Z AUTO 00000KT 10SM CLR 17/15 A3002 RMK AO2 T01670145,KBQP,2022-10-23T09:35:00Z,32.75,-91.88,16.7,14.5,0,0,,10.0,30.02067,,,TRUE,TRUE,,,,,,,CLR,,,,,,,,VFR,,,,,,,,,,,,METAR,50.0
KBQK 230935Z AUTO 00000KT 10SM CLR 09/09 A3012 RMK AO2 T00930090,KBQK,2022-10-23T09:35:00Z,31.25,-81.47,9.3,9.0,0,0,,10.0,30.121063,,,TRUE,TRUE,,,,,,,CLR,,,,,,,,VFR,,,,,,,,,,,,METAR,7.0
KBPG 230935Z AUTO 17018G23KT 10SM CLR 20/12 A2975 RMK AO2 T01950118,KBPG,2022-10-23T09:35:00Z,32.22,-101.52,19.5,11.8,170,18,23,10.0,29.749016,,,TRUE,TRUE,,,,,,,CLR,,,,,,,,VFR,,,,,,,,,,,,METAR,782.0
KBPC 230935Z AUTO 22014KT 10SM CLR 20/10 A2958 RMK AO2 PNO,KBPC,2022-10-23T09:35:00Z,35.88,-101.03,20.0,10.0,220,14,,10.0,29.58071,,,TRUE,TRUE,,,,,,,CLR,,,,,,,,VFR,,,,,,,,,,,,SPECI,844.0
KBOW 230935Z AUTO 36005KT 10SM CLR 18/15 A3008 RMK AO2,KBOW,2022-10-23T09:35:00Z,27.93,-81.77,18.0,15.0,360,5,,10.0,30.079725,,,TRUE,TRUE,,,,,,,CLR,,,,,,,,VFR,,,,,,,,,,,,SPECI,38.0
KBNW 230935Z AUTO 13013KT 10SM CLR 14/11 A2962 RMK AO2,KBNW,2022-10-23T09:35:00Z,42.03,-93.83,14.0,11.0,130,13,,10.0,29.619095,,,TRUE,TRUE,,,,,,,CLR,,,,,,,,VFR,,,,,,,,,,,,METAR,350.0
KBMT 230935Z AUTO 14003KT 10SM SCT034 OVC050 21/18 A2994 RMK AO2 T02050180,KBMT,2022-10-23T09:35:00Z,30.07,-94.22,20.5,18.0,140,3,,10.0,29.940945,,,TRUE,TRUE,,,,,,,SCT,3400,OVC,5000,,,,,VFR,,,,,,,,,,,,METAR,8.0
KBKT 230935Z AUTO 35007KT 10SM CLR 08/07 A3019 RMK AO1 T00800066,KBKT,2022-10-23T09:35:00Z,37.07,-77.95,8.0,6.6,350,7,,10.0,30.188976,,,TRUE,TRUE,,,,,,,CLR,,,,,,,,VFR,,,,,,,,,,,,SPECI,134.0
KBKS 230935Z AUTO 15004KT 10SM CLR 19/19 A2983 RMK AO2 SLP062 T01930191 $,KBKS,2022-10-23T09:35:00Z,27.2,-98.12,19.3,19.1,150,4,,10.0,29.828741,1006.2,,TRUE,TRUE,TRUE,,,,,,CLR,,,,,,,,VFR,,,,,,,,,,,,METAR,34.0
KBKD 230935Z AUTO 19010G15KT 10SM CLR 22/13 A2974 RMK AO2 T02200127,KBKD,2022-10-23T09:35:00Z,32.72,-98.88,22.0,12.7,190,10,15,10.0,29.740158,,,TRUE,TRUE,,,,,,,CLR,,,,,,,,VFR,,,,,,,,,,,,SPECI,383.0
KBJI 230935Z AUTO 00000KT 10SM CLR 04/03 A2958 RMK AO2 T00360033,KBJI,2022-10-23T09:35:00Z,47.5,-94.92,3.6,3.3,0,0,,10.0,29.58071,,,TRUE,TRUE,,,,,,,CLR,,,,,,,,VFR,,,,,,,,,,,,SPECI,422.0
KBJC 230935Z AUTO 15003KT 10SM CLR 14/M05 A2935 RMK AO2,KBJC,2022-10-23T09:35:00Z,39.9,-105.1,14.0,-5.0,150,3,,10.0,29.350393,,,TRUE,TRUE,,,,,,,CLR,,,,,,,,VFR,,,,,,,,,,,,SPECI,1694.0
KBIJ 230935Z AUTO 00000KT 10SM CLR 03/02 A3016 RMK AO2,KBIJ,2022-10-23T09:35:00Z,31.4,-84.9,3.0,2.0,0,0,,10.0,30.159449,,,TRUE,TRUE,,,,,,,CLR,,,,,,,,VFR,,,,,,,,,,,,METAR,63.0
KBIE 230935Z AUTO 14009KT 10SM CLR 18/13 A2942 RMK AO2 T01770132,KBIE,2022-10-23T09:35:00Z,40.28,-96.75,17.7,13.2,140,9,,10.0,29.421259,,,TRUE,TRUE,,,,,,,CLR,,,,,,,,VFR,,,,,,,,,,,,METAR,398.0
KBHC 230935Z AUTO 00000KT 10SM SCT027 A3014 RMK AO2,KBHC,2022-10-23T09:35:00Z,31.72,-82.4,,,0,0,,10.0,30.138779,,,TRUE,TRUE,,,,,,,SCT,2700,,,,,,,VFR,,,,,,,,,,,,METAR,61.0
KBGF 230935Z AUTO 14005KT 10SM CLR 14/07 A3015 RMK A01,KBGF,2022-10-23T09:35:00Z,35.18,-86.07,14.0,7.0,140,5,,10.0,30.15059,,,TRUE,TRUE,,,,,,,CLR,,,,,,,,VFR,,,,,,,,,,,,SPECI,295.0
KBGE 230935Z AUTO 00000KT 10SM CLR 06/04 A3015 RMK AO2 T00640045,KBGE,2022-10-23T09:35:00Z,30.97,-84.63,6.4,4.5,0,0,,10.0,30.15059,,,TRUE,TRUE,,,,,,,CLR,,,,,,,,VFR,,,,,,,,,,,,METAR,40.0
KBEC 230935Z AUTO 18014G20KT 10SM CLR 21/11 A2953 RMK AO2 T02130112,KBEC,2022-10-23T09:35:00Z,37.7,-97.22,21.3,11.2,180,14,20,10.0,29.530512,,,TRUE,TRUE,,,,,,,CLR,,,,,,,,VFR,,,,,,,,,,,,METAR,421.0
KBEA 230935Z AUTO 14004KT 10SM SCT027 BKN047 19/18 A2985 RMK AO2 T01920177 PWINO,KBEA,2022-10-23T09:35:00Z,28.37,-97.78,19.2,17.7,140,4,,10.0,29.84941,,,TRUE,TRUE,,,,,TRUE,,SCT,2700,BKN,4700,,,,,VFR,,,,,,,,,,,,METAR,83.0
KBDU 230935Z AUTO 24003KT 10SM CLR 10/M05 A2932 RMK AO2,KBDU,2022-10-23T09:35:00Z,40.03,-105.23,10.0,-5.0,240,3,,10.0,29.320866,,,TRUE,TRUE,,,,,,,CLR,,,,,,,,VFR,,,,,,,,,,,,SPECI,1614.0
KBDH 230935Z AUTO 12010KT 10SM CLR 12/07 A2957 RMK AO2,KBDH,2022-10-23T09:35:00Z,45.12,-95.13,12.0,7.0,120,10,,10.0,29.568897,,,TRUE,TRUE,,,,,,,CLR,,,,,,,,VFR,,,,,,,,,,,,METAR,341.0
KBDG 230935Z AUTO 21017G24KT 10SM 09/07 A2963 RMK AO1 T00910066,KBDG,2022-10-23T09:35:00Z,37.58,-109.47,9.1,6.6,210,17,24,10.0,29.630905,,,TRUE,TRUE,,,,,,,,,,,,,,,,,,,,,,,,,,,METAR,1778.0
KBCK 230935Z AUTO 16005KT 10SM CLR 16/10 A2975 RMK AO2 T01630101,KBCK,2022-10-23T09:35:00Z,44.25,-90.85,16.3,10.1,160,5,,10.0,29.749016,,,TRUE,TRUE,,,,,,,CLR,,,,,,,,VFR,,,,,,,,,,,,METAR,256.0
KBCB 230935Z AUTO 00000KT 10SM CLR 02/02 A3028 RMK AO2 T00210021,KBCB,2022-10-23T09:35:00Z,37.22,-80.42,2.1,2.1,0,0,,10.0,30.280512,,,TRUE,TRUE,,,,,,,CLR,,,,,,,,VFR,,,,,,,,,,,,SPECI,642.0
KBBP 230935Z AUTO 00000KT 10SM CLR 07/07 A3017 RMK AO2,KBBP,2022-10-23T09:35:00Z,34.62,-79.73,7.0,7.0,0,0,,10.0,30.171259,,,TRUE,TRUE,,,,,,,CLR,,,,,,,,VFR,,,,,,,,,,,,METAR,44.0
KBBG 230935Z AUTO 16005KT 10SM FEW034 19/14 A2981 RMK AO2,KBBG,2022-10-23T09:35:00Z,36.53,-93.2,19.0,14.0,160,5,,10.0,29.811024,,,TRUE,TRUE,,,,,,,FEW,3400,,,,,,,VFR,,,,,,,,,,,,METAR,403.0
KBBD 230935Z AUTO 18010G15KT 10SM CLR 19/16 A2981 RMK AO2,KBBD,2022-10-23T09:35:00Z,31.18,-99.32,19.0,16.0,180,10,15,10.0,29.811024,,,TRUE,TRUE,,,,,,,CLR,,,,,,,,VFR,,,,,,,,,,,,METAR,554.0
KBAX 230935Z AUTO 17004KT 10SM CLR 12/09 A3009 RMK AO2 T01150086,KBAX,2022-10-23T09:35:00Z,43.78,-82.98,11.5,8.6,170,4,,10.0,30.088583,,,TRUE,TRUE,,,,,,,CLR,,,,,,,,VFR,,,,,,,,,,,,METAR,229.0
KBAM 230935Z AUTO 01004KT 10SM SCT045 OVC060 02/00 A2981 RMK AO1,KBAM,2022-10-23T09:35:00Z,40.6,-116.87,2.0,0.0,10,4,,10.0,29.811024,,,TRUE,TRUE,,,,,,,SCT,4500,OVC,6000,,,,,VFR,,,,,,,,,,,,SPECI,1381.0
KBAC 230935Z AUTO 04010KT 10SM FEW031 06/05 A2951 RMK AO2,KBAC,2022-10-23T09:35:00Z,46.93,-98.02,6.0,5.0,40,10,,10.0,29.509842,,,TRUE,TRUE,,,,,,,FEW,3100,,,,,,,VFR,,,,,,,,,,,,SPECI,423.0
KAZE 230935Z AUTO 00000KT 10SM CLR 08/07 A3014 RMK AO2 T00750069,KAZE,2022-10-23T09:35:00Z,31.88,-82.65,7.5,6.9,0,0,,10.0,30.138779,,,TRUE,TRUE,,,,,,,CLR,,,,,,,,VFR,,,,,,,,,,,,METAR,78.0
KAZC 230935Z AUTO 26003KT 10SM RA OVC009 05/03 A2968 RMK AO2 P0003,KAZC,2022-10-23T09:35:00Z,36.97,-113.02,5.0,3.0,260,3,,10.0,29.681103,,,TRUE,TRUE,,,,,,RA,OVC,900,,,,,,,IFR,,,,,,0.03,,,,,,SPECI,1476.0
KAYS 230935Z AUTO 00000KT 10SM OVC027 09/08 A3014 RMK AO2 T00910084,KAYS,2022-10-23T09:35:00Z,31.25,-82.4,9.1,8.4,0,0,,10.0,30.138779,,,TRUE,TRUE,,,,,,,OVC,2700,,,,,,,MVFR,,,,,,,,,,,,METAR,42.0
KAXX 230935Z AUTO 23011G28KT 10SM SCT045 BKN065 BKN085 10/02 A2976 RMK AO2 T00950023,KAXX,2022-10-23T09:35:00Z,36.42,-105.28,9.5,2.3,230,11,28,10.0,29.760826,,,TRUE,TRUE,,,,,,,SCT,4500,BKN,6500,BKN,8500,,,VFR,,,,,,,,,,,,METAR,2543.0
KAXV 230935Z AUTO 16006KT 10SM CLR 13/09 A3011 RMK AO2,KAXV,2022-10-23T09:35:00Z,40.5,-84.3,13.0,9.0,160,6,,10.0,30.109253,,,TRUE,TRUE,,,,,,,CLR,,,,,,,,VFR,,,,,,,,,,,,METAR,278.0
KAXS 230935Z AUTO 19010KT 10SM CLR 22/12 A2966 RMK AO2 T02210120,KAXS,2022-10-23T09:35:00Z,34.7,-99.33,22.1,12.0,190,10,,10.0,29.660433,,,TRUE,TRUE,,,,,,,CLR,,,,,,,,VFR,,,,,,,,,,,,SPECI,433.0
KAXH 230935Z AUTO 00000KT 10SM SCT041 BKN050 18/17 A2992 RMK AO2 T01770171,KAXH,2022-10-23T09:35:00Z,29.52,-95.48,17.7,17.1,0,0,,10.0,29.920275,,,TRUE,TRUE,,,,,,,SCT,4100,BKN,5000,,,,,VFR,,,,,,,,,,,,SPECI,18.0
KAXA 230935Z AUTO 14015G20KT 10SM CLR 16/11 A2957 RMK A01,KAXA,2022-10-23T09:35:00Z,43.07,-94.27,16.0,11.0,140,15,20,10.0,29.568897,,,TRUE,TRUE,,,,,,,CLR,,,,,,,,VFR,,,,,,,,,,,,SPECI,371.0
KAWG 230935Z AUTO 15012KT 10SM CLR 16/14 A2971 RMK AO2,KAWG,2022-10-23T09:35:00Z,41.27,-91.67,16.0,14.0,150,12,,10.0,29.71063,,,TRUE,TRUE,,,,,,,CLR,,,,,,,,VFR,,,,,,,,,,,,SPECI,229.0
KAVQ 230935Z AUTO 22006KT 10SM CLR 20/13 A2977 RMK AO2 T01960125,KAVQ,2022-10-23T09:35:00Z,32.4,-111.22,19.6,12.5,220,6,,10.0,29.769686,,,TRUE,TRUE,,,,,,,CLR,,,,,,,,VFR,,,,,,,,,,,,METAR,618.0
KAVK 230935Z AUTO 18012KT 10SM CLR 21/10 A2952 RMK AO2 PWINO,KAVK,2022-10-23T09:35:00Z,36.77,-98.67,21.0,10.0,180,12,,10.0,29.518702,,,TRUE,TRUE,,,,,TRUE,,CLR,,,,,,,,VFR,,,,,,,,,,,,METAR,450.0
KAVC 230935Z AUTO 34005KT 10SM CLR 09/09 A3024 RMK AO2 T00900087,KAVC,2022-10-23T09:35:00Z,36.68,-78.05,9.0,8.7,340,5,,10.0,30.239174,,,TRUE,TRUE,,,,,,,CLR,,,,,,,,VFR,,,,,,,,,,,,SPECI,119.0
KAUN 230935Z AUTO 06005KT 10SM CLR 06/M01 A2983 RMK A01,KAUN,2022-10-23T09:35:00Z,38.95,-121.08,6.0,-1.0,60,5,,10.0,29.828741,,,TRUE,TRUE,,,,,,,CLR,,,,,,,,VFR,,,,,,,,,,,,METAR,453.0
KAUH 230935Z AUTO 15011KT 10SM CLR 13/10 A2937 RMK AO2 T01330101,KAUH,2022-10-23T09:35:00Z,40.88,-98.0,13.3,10.1,150,11,,10.0,29.371063,,,TRUE,TRUE,,,,,,,CLR,,,,,,,,VFR,,,,,,,,,,,,SPECI,549.0
KATS 230935Z AUTO 17010KT 10SM CLR 18/10 A2972 RMK AO2,KATS,2022-10-23T09:35:00Z,32.85,-104.47,18.0,10.0,170,10,,10.0,29.719488,,,TRUE,TRUE,,,,,,,CLR,,,,,,,,VFR,,,,,,,,,,,,METAR,1073.0
KATP 230935Z AUTO 13008KT 10SM FEW045 BKN055 24/15 A3004 RMK A01,KATP,2022-10-23T09:35:00Z,27.2,-90.03,24.0,15.0,130,8,,10.0,30.041338,,,TRUE,TRUE,,,,,,,FEW,4500,BKN,5500,,,,,VFR,,,,,,,,,,,,METAR,50.0
KATA 230935Z AUTO 15008KT 10SM CLR 20/17 A2990 RMK AO2 SLP023 T01970166 $,KATA,2022-10-23T09:35:00Z,33.1,-94.2,19.7,16.6,150,8,,10.0,29.899607,1002.3,,TRUE,TRUE,TRUE,,,,,,CLR,,,,,,,,VFR,,,,,,,,,,,,METAR,85.0
KASW 230935Z AUTO 14003KT 10SM CLR 15/10 A3003 RMK AO2 T01470098,KASW,2022-10-23T09:35:00Z,41.27,-85.83,14.7,9.8,140,3,,10.0,30.029528,,,TRUE,TRUE,,,,,,,CLR,,,,,,,,VFR,,,,,,,,,,,,SPECI,253.0
KASN 230935Z AUTO 00000KT 10SM CLR 06/05 A3018 RMK AO2 T00620053,KASN,2022-10-23T09:35:00Z,33.57,-86.05,6.2,5.3,0,0,,10.0,30.180119,,,TRUE,TRUE,,,,,,,CLR,,,,,,,,VFR,,,,,,,,,,,,METAR,159.0
KASL 230935Z AUTO 00000KT 10SM CLR 19/16 A2990 RMK AO2 T01870159 TSNO $,KASL,2022-10-23T09:35:00Z,32.52,-94.3,18.7,15.9,0,0,,10.0,29.899607,,,TRUE,TRUE,TRUE,,TRUE,,,,CLR,,,,,,,,VFR,,,,,,,,,,,,METAR,104.0
KASJ 230935Z AUTO 35007KT 10SM CLR 11/11 A3013 RMK AO2 T01110111,KASJ,2022-10-23T09:35:00Z,36.28,-77.17,11.1,11.1,350,7,,10.0,30.129921,,,TRUE,TRUE,,,,,,,CLR,,,,,,,,VFR,,,,,,,,,,,,SPECI,20.0
KARW 230935Z AUTO 00000KT 10SM CLR 12/10 A3013 RMK AO2,KARW,2022-10-23T09:35:00Z,32.42,-80.63,12.0,10.0,0,0,,10.0,30.129921,,,TRUE,TRUE,,,,,,,CLR,,,,,,,,VFR,,,,,,,,,,,,SPECI,2.0
KARV 230935Z AUTO 17007KT 10SM CLR 14/09 A2980 RMK AO2 T01410091,KARV,2022-10-23T09:35:00Z,45.92,-89.72,14.1,9.1,170,7,,10.0,29.799213,,,TRUE,TRUE,,,,,,,CLR,,,,,,,,VFR,,,,,,,,,,,,METAR,494.0
KARM 230935Z AUTO 12004KT 10SM CLR 18/18 A2990 RMK AO2 T01810179 TSNO,KARM,2022-10-23T09:35:00Z,29.25,-96.15,18.1,17.9,120,4,,10.0,29.899607,,,TRUE,TRUE,,,TRUE,,,,CLR,,,,,,,,VFR,,,,,,,,,,,,SPECI,29.0
KAQX 230935Z AUTO 00000KT 10SM CLR 09/08 A3015 RMK AO2,KAQX,2022-10-23T09:35:00Z,32.98,-81.27,9.0,8.0,0,0,,10.0,30.15059,,,TRUE,TRUE,,,,,,,CLR,,,,,,,,VFR,,,,,,,,,,,,SPECI,48.0
KAQO 230935Z AUTO 17006KT 10SM OVC024 21/17 A2983 RMK AO2,KAQO,2022-10-23T09:35:00Z,30.78,-98.67,21.0,17.0,170,6,,10.0,29.828741,,,TRUE,TRUE,,,,,,,OVC,2400,,,,,,,MVFR,,,,,,,,,,,,SPECI,334.0
KANW 230935Z AUTO 14009KT 10SM CLR 10/04 A2931 RMK AO2 T01030040,KANW,2022-10-23T09:35:00Z,42.57,-100.0,10.3,4.0,140,9,,10.0,29.309055,,,TRUE,TRUE,,,,,,,CLR,,,,,,,,VFR,,,,,,,,,,,,SPECI,788.0
KANQ 230935Z AUTO 00000KT 10SM FEW038 BKN046 BKN055 12/10 A3006 RMK AO2,KANQ,2022-10-23T09:35:00Z,41.63,-85.08,12.0,10.0,0,0,,10.0,30.059055,,,TRUE,TRUE,,,,,,,FEW,3800,BKN,4600,BKN,5500,,,VFR,,,,,,,,,,,,SPECI,299.0
KANE 230935Z AUTO 15006KT 10SM CLR 17/08 A2963 RMK AO2,KANE,2022-10-23T09:35:00Z,45.15,-93.22,17.0,8.0,150,6,,10.0,29.630905,,,TRUE,TRUE,,,,,,,CLR,,,,,,,,VFR,,,,,,,,,,,,METAR,276.0
KAMN 230935Z AUTO 13005KT 10SM CLR 12/09 A3004 RMK AO2 T01180090,KAMN,2022-10-23T09:35:00Z,43.32,-84.68,11.8,9.0,130,5,,10.0,30.041338,,,TRUE,TRUE,,,,,,,CLR,,,,,,,,VFR,,,,,,,,,,,,METAR,228.0
KALX 230935Z AUTO 00000KT 10SM CLR 06/06 A3017 RMK AO2 T00630061,KALX,2022-10-23T09:35:00Z,32.92,-85.97,6.3,6.1,0,0,,10.0,30.171259,,,TRUE,TRUE,,,,,,,CLR,,,,,,,,VFR,,,,,,,,,,,,METAR,198.0
KALN 230935Z AUTO 13007KT 10SM SCT090 18/11 A2987 RMK AO2 T01750105,KALN,2022-10-23T09:35:00Z,38.88,-90.03,17.5,10.5,130,7,,10.0,29.870079,,,TRUE,TRUE,,,,,,,SCT,9000,,,,,,,VFR,,,,,,,,,,,,METAR,159.0
KALM 230935Z AUTO 15019G26KT 10SM FEW043 BKN050 OVC070 20/08 A2976 RMK AO2,KALM,2022-10-23T09:35:00Z,32.83,-105.98,20.0,8.0,150,19,26,10.0,29.760826,,,TRUE,TRUE,,,,,,,FEW,4300,BKN,5000,OVC,7000,,,VFR,,,,,,,,,,,,METAR,1267.0
KAJZ 230935Z AUTO 20012G19KT 7SM SCT036 BKN050 OVC065 10/07 A2949 RMK AO2 P0004 T00970069 PWINO,KAJZ,2022-10-23T09:35:00Z,38.78,-108.07,9.7,6.9,200,12,19,7.0,29.489174,,,TRUE,TRUE,,,,,TRUE,,SCT,3600,BKN,5000,OVC,6500,,,VFR,,,,,,0.04,,,,,,SPECI,1583.0
KAJR 230935Z AUTO 04004KT 7SM CLR 06/05 A3021 RMK AO2 T00580052,KAJR,2022-10-23T09:35:00Z,34.5,-83.55,5.8,5.2,40,4,,7.0,30.209646,,,TRUE,TRUE,,,,,,,CLR,,,,,,,,VFR,,,,,,,,,,,,METAR,441.0
KAJG 230935Z AUTO 18010KT 10SM SCT060 BKN070 19/11 A3001 RMK AO2 T01870113,KAJG,2022-10-23T09:35:00Z,38.62,-87.73,18.7,11.3,180,10,,10.0,30.008858,,,TRUE,TRUE,,,,,,,SCT,6000,BKN,7000,,,,,VFR,,,,,,,,,,,,SPECI,130.0
KAIT 230935Z AUTO 00000KT 10SM CLR 03/03 A2961 RMK AO2,KAIT,2022-10-23T09:35:00Z,46.53,-93.67,3.0,3.0,0,0,,10.0,29.610237,,,TRUE,TRUE,,,,,,,CLR,,,,,,,,VFR,,,,,,,,,,,,METAR,367.0
KAIO 230935Z AUTO 15009G19KT 10SM CLR 18/14 A2951 RMK AO2,KAIO,2022-10-23T09:35:00Z,41.4,-95.03,18.0,14.0,150,9,19,10.0,29.509842,,,TRUE,TRUE,,,,,,,CLR,,,,,,,,VFR,,,,,,,,,,,,SPECI,349.0
KAIK 230935Z AUTO 00000KT 10SM CLR 06/03 A3018 RMK AO2 T00640035,KAIK,2022-10-23T09:35:00Z,33.65,-81.68,6.4,3.5,0,0,,10.0,30.180119,,,TRUE,TRUE,,,,,,,CLR,,,,,,,,VFR,,,,,,,,,,,,SPECI,155.0
KAIG 230935Z AUTO 14007KT 10SM CLR 10/09 A2985 RMK AO2 T01010089,KAIG,2022-10-23T09:35:00Z,45.15,-89.12,10.1,8.9,140,7,,10.0,29.84941,,,TRUE,TRUE,,,,,,,CLR,,,,,,,,VFR,,,,,,,,,,,,SPECI,462.0
KAHQ 230935Z AUTO 13010KT 10SM CLR 14/12 A2944 RMK AO2 T01420117,KAHQ,2022-10-23T09:35:00Z,41.23,-96.6,14.2,11.7,130,10,,10.0,29.438976,,,TRUE,TRUE,,,,,,,CLR,,,,,,,,VFR,,,,,,,,,,,,METAR,372.0
KAGO 230935Z AUTO 17006G11KT 10SM OVC043 20/16 A2994 RMK A01,KAGO,2022-10-23T09:35:00Z,33.23,-93.22,20.0,16.0,170,6,11,10.0,29.940945,,,TRUE,TRUE,,,,,,,OVC,4300,,,,,,,VFR,,,,,,,,,,,,SPECI,91.0
KAGI 230935Z AUTO 15014KT 10SM CLR 25/15 A2998 RMK AO2 T02480153,KAGI,2022-10-23T09:35:00Z,27.55,-92.45,24.8,15.3,150,14,,10.0,29.97933,,,TRUE,TRUE,,,,,,,CLR,,,,,,,,VFR,,,,,,,,,,,,METAR,41.0
KAFP 230935Z AUTO 00000KT 7SM CLR 05/04 A3019 RMK AO2 T00470039,KAFP,2022-10-23T09:35:00Z,35.02,-80.08,4.7,3.9,0,0,,7.0,30.188976,,,TRUE,TRUE,,,,,,,CLR,,,,,,,,VFR,,,,,,,,,,,,SPECI,91.0
KAFO 230935Z AUTO 04003KT 10SM SCT024 BKN032 OVC060 00/M04 A2957 RMK AO2,KAFO,2022-10-23T09:35:00Z,42.72,-110.95,0.0,-4.0,40,3,,10.0,29.568897,,,TRUE,TRUE,,,,,,,SCT,2400,BKN,3200,OVC,6000,,,VFR,,,,,,,,,,,,METAR,1881.0
KAFK 230935Z AUTO 16010KT 10SM CLR 17/13 A2948 RMK AO2 T01710127,KAFK,2022-10-23T09:35:00Z,40.6,-95.85,17.1,12.7,160,10,,10.0,29.480314,,,TRUE,TRUE,,,,,,,CLR,,,,,,,,VFR,,,,,,,,,,,,SPECI,353.0
KAEL 230935Z AUTO 15012KT 10SM SCT065 16/10 A2963 RMK AO2,KAEL,2022-10-23T09:35:00Z,43.68,-93.37,16.0,10.0,150,12,,10.0,29.630905,,,TRUE,TRUE,,,,,,,SCT,6500,,,,,,,VFR,,,,,,,,,,,,SPECI,382.0
KAEJ 230935Z AUTO 14006KT 10SM 09/M03 A2956 RMK AO2 T00931026,KAEJ,2022-10-23T09:35:00Z,38.82,-106.12,9.3,-2.6,140,6,,10.0,29.56004,,,TRUE,TRUE,,,,,,,,,,,,,,,,,,,,,,,,,,,SPECI,2420.0
KAEG 230935Z AUTO 22011KT 10SM CLR 13/07 A2974 RMK AO2 T01290068,KAEG,2022-10-23T09:35:00Z,35.13,-106.8,12.9,6.8,220,11,,10.0,29.740158,,,TRUE,TRUE,,,,,,,CLR,,,,,,,,VFR,,,,,,,,,,,,METAR,1771.0
KADU 230935Z AUTO 14011G15KT 10SM SCT049 SCT065 BKN075 17/12 A2954 RMK AO2,KADU,2022-10-23T09:35:00Z,41.7,-94.92,17.0,12.0,140,11,15,10.0,29.53937,,,TRUE,TRUE,,,,,,,SCT,4900,SCT,6500,BKN,7500,,,VFR,,,,,,,,,,,,SPECI,391.0
KADT 230935Z AUTO 00000KT 10SM CLR 15/M03 A2938 RMK AO2 T01451031,KADT,2022-10-23T09:35:00Z,39.83,-101.05,14.5,-3.1,0,0,,10.0,29.379921,,,TRUE,TRUE,,,,,,,CLR,,,,,,,,VFR,,,,,,,,,,,,METAR,899.0
KADS 230935Z AUTO 18015G21KT 10SM OVC023 21/16 A2982 RMK AO2 T02110163,KADS,2022-10-23T09:35:00Z,32.97,-96.83,21.1,16.3,180,15,21,10.0,29.819881,,,TRUE,TRUE,,,,,,,OVC,2300,,,,,,,MVFR,,,,,,,,,,,,METAR,198.0
KADM 230935Z AUTO 15008KT 10SM CLR 21/16 A2975 RMK AO2,KADM,2022-10-23T09:35:00Z,34.3,-97.02,21.0,16.0,150,8,,10.0,29.749016,,,TRUE,TRUE,,,,,,,CLR,,,,,,,,VFR,,,,,,,,,,,,METAR,223.0
KADH 230935Z AUTO 17013KT 10SM CLR 20/15 A2975 RMK AO2,KADH,2022-10-23T09:35:00Z,34.8,-96.67,20.0,15.0,170,13,,10.0,29.749016,,,TRUE,TRUE,,,,,,,CLR,,,,,,,,VFR,,,,,,,,,,,,METAR,301.0
KADC 230935Z AUTO 00000KT 10SM CLR 06/03 A2954 RMK AO2 TSNO,KADC,2022-10-23T09:35:00Z,46.45,-95.22,6.0,3.0,0,0,,10.0,29.53937,,,TRUE,TRUE,,,TRUE,,,,CLR,,,,,,,,VFR,,,,,,,,,,,,SPECI,416.0
KACQ 230935Z AUTO 13011KT 10SM CLR 15/08 A2963 RMK AO2,KACQ,2022-10-23T09:35:00Z,44.07,-93.55,15.0,8.0,130,11,,10.0,29.630905,,,TRUE,TRUE,,,,,,,CLR,,,,,,,,VFR,,,,,,,,,,,,METAR,339.0
KACP 230935Z AUTO 12003KT 10SM CLR 17/15 A2999 RMK AO2,KACP,2022-10-23T09:35:00Z,30.75,-92.68,17.0,15.0,120,3,,10.0,29.991142,,,TRUE,TRUE,,,,,,,CLR,,,,,,,,VFR,,,,,,,,,,,,METAR,31.0
KACJ 230935Z AUTO 00000KT 9SM CLR 05/03 A3016 RMK AO2 T00490033,KACJ,2022-10-23T09:35:00Z,32.12,-84.18,4.9,3.3,0,0,,9.0,30.159449,,,TRUE,TRUE,,,,,,,CLR,,,,,,,,VFR,,,,,,,,,,,,SPECI,140.0
KACB 230935Z AUTO 00000KT 10SM CLR 11/10 A2998 RMK AO2 T01100097,KACB,2022-10-23T09:35:00Z,44.98,-85.2,11.0,9.7,0,0,,10.0,29.97933,,,TRUE,TRUE,,,,,,,CLR,,,,,,,,VFR,,,,,,,,,,,,SPECI,189.0
KAAS 230935Z AUTO 14005KT 10SM CLR 11/08 A3019 RMK AO1,KAAS,2022-10-23T09:35:00Z,37.35,-85.32,11.0,8.0,140,5,,10.0,30.188976,,,TRUE,TRUE,,,,,,,CLR,,,,,,,,VFR,,,,,,,,,,,,METAR,270.0
KAAA 230935Z AUTO 16008KT 10SM BKN070 17/12 A2987 RMK AO2 T01650117,KAAA,2022-10-23T09:35:00Z,40.17,-89.33,16.5,11.7,160,8,,10.0,29.870079,,,TRUE,TRUE,,,,,,,BKN,7000,,,,,,,VFR,,,,,,,,,,,,METAR,179.0
K9V9 230935Z AUTO 11009KT 10SM CLR 10/05 A2933 RMK AO2 T01010051,K9V9,2022-10-23T09:35:00Z,43.77,-99.32,10.1,5.1,110,9,,10.0,29.329725,,,TRUE,TRUE,,,,,,,CLR,,,,,,,,VFR,,,,,,,,,,,,METAR,511.0
K9MN 230935Z AUTO 12009G14KT 10SM SCT060 16/08 A2969 RMK AO1 T01590083,K9MN,2022-10-23T09:35:00Z,44.02,-92.48,15.9,8.3,120,9,14,10.0,29.68996,,,TRUE,TRUE,,,,,,,SCT,6000,,,,,,,VFR,,,,,,,,,,,,SPECI,308.0
K9D7 230935Z AUTO 04013G22KT 10SM BKN009 06/06 A2961 RMK AO2 TSNO,K9D7,2022-10-23T09:35:00Z,48.48,-99.23,6.0,6.0,40,13,22,10.0,29.610237,,,TRUE,TRUE,,,TRUE,,,,BKN,900,,,,,,,IFR,,,,,,,,,,,,SPECI,451.0
K9A5 230935Z AUTO 00000KT 5SM CLR 05/05 A3020 RMK AO2 T00460046,K9A5,2022-10-23T09:35:00Z,34.68,-85.28,4.6,4.6,0,0,,5.0,30.200787,,,TRUE,TRUE,,,,,,,CLR,,,,,,,,MVFR,,,,,,,,,,,,METAR,234.0
K96D 230935Z AUTO 01010KT 10SM CLR 06/06 A2964 RMK AO2,K96D,2022-10-23T09:35:00Z,48.93,-97.9,6.0,6.0,10,10,,10.0,29.639763,,,TRUE,TRUE,,,,,,,CLR,,,,,,,,VFR,,,,,,,,,,,,SPECI,290.0
K8W2 230935Z AUTO 22003KT 10SM CLR 01/00 A3027 RMK AO1 T00070002,K8W2,2022-10-23T09:35:00Z,38.65,-78.7,0.7,0.2,220,3,,10.0,30.268702,,,TRUE,TRUE,,,,,,,CLR,,,,,,,,VFR,,,,,,,,,,,,SPECI,295.0
K8T6 230935Z AUTO 00000KT 10SM SCT028 SCT033 BKN039 19/19 A2985 RMK AO2,K8T6,2022-10-23T09:35:00Z,28.37,-98.12,19.0,19.0,0,0,,10.0,29.84941,,,TRUE,TRUE,,,,,,,SCT,2800,SCT,3300,BKN,3900,,,VFR,,,,,,,,,,,,METAR,39.0
K8A3 230935Z AUTO 19006KT 10SM CLR 14/06 A3016 RMK A01,K8A3,2022-10-23T09:35:00Z,36.42,-85.32,14.0,6.0,190,6,,10.0,30.159449,,,TRUE,TRUE,,,,,,,CLR,,,,,,,,VFR,,,,,,,,,,,,METAR,413.0
K8A0 230935Z AUTO 14004KT 10SM CLR 12/06 A3016 RMK AO2,K8A0,2022-10-23T09:35:00Z,34.23,-86.25,12.0,6.0,140,4,,10.0,30.159449,,,TRUE,TRUE,,,,,,,CLR,,,,,,,,VFR,,,,,,,,,,,,METAR,313.0
K82V 230935Z AUTO 21007G10KT 10SM CLR 06/M07 A2935 RMK AO2,K82V,2022-10-23T09:35:00Z,41.15,-104.13,6.0,-7.0,210,7,10,10.0,29.350393,,,TRUE,TRUE,,,,,,,CLR,,,,,,,,VFR,,,,,,,,,,,,SPECI,1563.0
K82C 230935Z AUTO 14006KT 10SM BKN120 15/12 A2979 RMK AO2 T01540116,K82C,2022-10-23T09:35:00Z,43.83,-90.13,15.4,11.6,140,6,,10.0,29.790354,,,TRUE,TRUE,,,,,,,BKN,12000,,,,,,,VFR,,,,,,,,,,,,SPECI,273.0
K81R 230935Z AUTO 21008KT 10SM CLR 20/17 A2982 RMK AO2 T02010171,K81R,2022-10-23T09:35:00Z,31.23,-98.72,20.1,17.1,210,8,,10.0,29.819881,,,TRUE,TRUE,,,,,,,CLR,,,,,,,,VFR,,,,,,,,,,,,SPECI,381.0
K7W4 230935Z AUTO 29005KT 10SM CLR 07/06 A3022 RMK AO1 T00680064,K7W4,2022-10-23T09:35:00Z,37.97,-77.75,6.8,6.4,290,5,,10.0,30.221457,,,TRUE,TRUE,,,,,,,CLR,,,,,,,,VFR,,,,,,,,,,,,SPECI,115.0
K7L2 230935Z AUTO 10011G16KT 10SM FEW023 FEW030 06/03 A2944 RMK AO2,K7L2,2022-10-23T09:35:00Z,46.22,-100.25,6.0,3.0,100,11,16,10.0,29.438976,,,TRUE,TRUE,,,,,,,FEW,2300,FEW,3000,,,,,VFR,,,,,,,,,,,,METAR,541.0
K7BM 230935Z AUTO 24022G31KT 10SM SCT050 BKN065 OVC100 06/M04 A2962 RMK AO2,K7BM,2022-10-23T09:35:00Z,38.78,-106.22,6.0,-4.0,240,22,31,10.0,29.619095,,,TRUE,TRUE,,,,,,,SCT,5000,BKN,6500,OVC,10000,,,VFR,,,,,,,,,,,,SPECI,2996.0
K74V 230935Z AUTO 10010KT 10SM UP 04/01 A2952 RMK AO2 P0002,K74V,2022-10-23T09:35:00Z,40.28,-110.05,4.0,1.0,100,10,,10.0,29.518702,,,TRUE,TRUE,,,,,,UP,,,,,,,,,,,,,,,0.02,,,,,,SPECI,1567.0
K6S2 230935Z AUTO 00000KT 6SM BR BKN003 07/07 A3002 RMK AO2,K6S2,2022-10-23T09:35:00Z,43.98,-124.12,7.0,7.0,0,0,,6.0,30.02067,,,TRUE,TRUE,,,,,,BR,BKN,300,,,,,,,LIFR,,,,,,,,,,,,METAR,16.0
K6S0 230935Z AUTO 26020G28KT 10SM SCT039 BKN055 BKN065 02/M02 A2949 RMK A01,K6S0,2022-10-23T09:35:00Z,45.8,-109.97,2.0,-2.0,260,20,28,10.0,29.489174,,,TRUE,TRUE,,,,,,,SCT,3900,BKN,5500,BKN,6500,,,VFR,,,,,,,,,,,,METAR,1364.0
K6P9 230935Z AUTO 19009G14KT 10SM CLR 20/14 A2978 RMK AO2 T01950139,K6P9,2022-10-23T09:35:00Z,32.43,-98.6,19.5,13.9,190,9,14,10.0,29.778543,,,TRUE,TRUE,,,,,,,CLR,,,,,,,,VFR,,,,,,,,,,,,METAR,451.0
K6L4 230935Z AUTO 00000KT 10SM CLR 13/03 A3020 RMK AO2,K6L4,2022-10-23T09:35:00Z,37.85,-81.92,13.0,3.0,0,0,,10.0,30.200787,,,TRUE,TRUE,,,,,,,CLR,,,,,,,,VFR,,,,,,,,,,,,METAR,504.0
K6I2 230935Z AUTO 15007KT 10SM CLR 14/08 A3015 RMK AO2,K6I2,2022-10-23T09:35:00Z,37.63,-85.25,14.0,8.0,150,7,,10.0,30.15059,,,TRUE,TRUE,,,,,,,CLR,,,,,,,,VFR,,,,,,,,,,,,METAR,258.0
K6B9 230935Z AUTO 15005KT 10SM CLR 09/05 A3026 RMK AO2,K6B9,2022-10-23T09:35:00Z,42.92,-76.43,9.0,5.0,150,5,,10.0,30.259842,,,TRUE,TRUE,,,,,,,CLR,,,,,,,,VFR,,,,,,,,,,,,SPECI,306.0
K6B0 230935Z AUTO 00000KT 10SM CLR 05/03 A3032 RMK AO2 T00450032,K6B0,2022-10-23T09:35:00Z,43.98,-73.1,4.5,3.2,0,0,,10.0,30.318897,,,TRUE,TRUE,,,,,,,CLR,,,,,,,,VFR,,,,,,,,,,,,SPECI,149.0
K6A2 230935Z AUTO 00000KT 10SM CLR 04/03 A3019 RMK AO2,K6A2,2022-10-23T09:35:00Z,33.23,-84.27,4.0,3.0,0,0,,10.0,30.188976,,,TRUE,TRUE,,,,,,,CLR,,,,,,,,VFR,,,,,,,,,,,,METAR,290.0
K66R 230935Z AUTO 00000KT 10SM CLR 17/17 A2990 RMK AO2 T01730165,K66R,2022-10-23T09:35:00Z,29.65,-96.52,17.3,16.5,0,0,,10.0,29.899607,,,TRUE,TRUE,,,,,,,CLR,,,,,,,,VFR,,,,,,,,,,,,METAR,70.0
K65S 230935Z AUTO 00000KT 8SM BKN037 BKN050 OVC070 03/02 A2978 RMK AO2,K65S,2022-10-23T09:35:00Z,48.73,-116.3,3.0,2.0,0,0,,8.0,29.778543,,,TRUE,TRUE,,,,,,,BKN,3700,BKN,5000,OVC,7000,,,VFR,,,,,,,,,,,,SPECI,708.0
K63S 230935Z AUTO 00000KT 10SM BKN049 BKN055 OVC070 05/01 A2980 RMK A01,K63S,2022-10-23T09:35:00Z,48.53,-117.88,5.0,1.0,0,0,,10.0,29.799213,,,TRUE,TRUE,,,,,,,BKN,4900,BKN,5500,OVC,7000,,,VFR,,,,,,,,,,,,METAR,571.0
K5T9 230935Z AUTO 06005KT 10SM CLR 16/16 A2979 RMK A01,K5T9,2022-10-23T09:35:00Z,28.85,-100.52,16.0,16.0,60,5,,10.0,29.790354,,,TRUE,TRUE,,,,,,,CLR,,,,,,,,VFR,,,,,,,,,,,,SPECI,269.0
K5SM 230935Z AUTO 24012G22KT 220V280 1/4SM +SN OVC002 00/M01 A2964 RMK AO2,K5SM,2022-10-23T09:35:00Z,39.43,-107.38,0.0,-1.0,240,12,22,0.25,29.639763,,,TRUE,TRUE,,,,,,+SN,OVC,200,,,,,,,LIFR,,,,,,,,,,,,METAR,3229.0
K5R8 230935Z AUTO 00000KT 10SM OVC050 17/16 A2997 RMK AO2 T01660160,K5R8,2022-10-23T09:35:00Z,30.43,-93.47,16.6,16.0,0,0,,10.0,29.970472,,,TRUE,TRUE,,,,,,,OVC,5000,,,,,,,VFR,,,,,,,,,,,,METAR,26.0
K5M9 230935Z AUTO 18005KT 10SM OVC055 17/10 A3004 RMK AO2 T01720103,K5M9,2022-10-23T09:35:00Z,37.33,-88.12,17.2,10.3,180,5,,10.0,30.041338,,,TRUE,TRUE,,,,,,,OVC,5500,,,,,,,VFR,,,,,,,,,,,,METAR,199.0
K5H4 230935Z AUTO 05013KT 10SM BKN009 OVC034 06/M06 A2955 RMK AO2,K5H4,2022-10-23T09:35:00Z,47.78,-99.93,6.0,-6.0,50,13,,10.0,29.551182,,,TRUE,TRUE,,,,,,,BKN,900,OVC,3400,,,,,IFR,,,,,,,,,,,,SPECI,490.0
K5C1 230935Z AUTO 19007KT 10SM OVC009 18/18 A2988 RMK AO1,K5C1,2022-10-23T09:35:00Z,29.72,-98.7,18.0,18.0,190,7,,10.0,29.878937,,,TRUE,TRUE,,,,,,,OVC,900,,,,,,,IFR,,,,,,,,,,,,METAR,422.0
K57C 230935Z AUTO 15004KT 10SM CLR 15/11 A2988 RMK AO2 T01460110,K57C,2022-10-23T09:35:00Z,42.8,-88.37,14.6,11.0,150,4,,10.0,29.878937,,,TRUE,TRUE,,,,,,,CLR,,,,,,,,VFR,,,,,,,,,,,,METAR,454.0
K54J 230935Z AUTO 00000KT 10SM CLR 10/07 A3015 RMK AO2 T01010065,K54J,2022-10-23T09:35:00Z,30.73,-86.15,10.1,6.5,0,0,,10.0,30.15059,,,TRUE,TRUE,,,,,,,CLR,,,,,,,,VFR,,,,,,,,,,,,SPECI,87.0
K54A 230935Z AUTO 04004KT 10SM CLR 18/18 A3004 RMK AO2,K54A,2022-10-23T09:35:00Z,26.85,-82.25,18.0,18.0,40,4,,10.0,30.041338,,,TRUE,TRUE,,,,,,,CLR,,,,,,,,VFR,,,,,,,,,,,,METAR,2.0
K4V0 230935Z AUTO 00000KT 1 1/2SM -SN OVC013 00/00 A2954 RMK AO2 T00000000,K4V0,2022-10-23T09:35:00Z,40.1,-108.77,0.0,0.0,0,0,,1.5,29.53937,,,TRUE,TRUE,,,,,,-SN,OVC,1300,,,,,,,IFR,,,,,,,,,,,,SPECI,1602.0
K4S2 230935Z AUTO 30003KT 10SM BKN048 07/03 A2992 RMK AO2,K4S2,2022-10-23T09:35:00Z,45.68,-121.55,7.0,3.0,300,3,,10.0,29.920275,,,TRUE,TRUE,,,,,,,BKN,4800,,,,,,,VFR,,,,,,,,,,,,METAR,183.0
K4S1 230935Z AUTO 06006KT 7SM CLR 08/07 A3004 RMK AO2,K4S1,2022-10-23T09:35:00Z,42.42,-124.42,8.0,7.0,60,6,,7.0,30.041338,,,TRUE,TRUE,,,,,,,CLR,,,,,,,,VFR,,,,,,,,,,,,METAR,7.0
K4R5 230935Z AUTO 00000KT 3/4SM BR OVC003 04/04 A2970 RMK AO2 T00380038,K4R5,2022-10-23T09:35:00Z,46.78,-90.77,3.8,3.8,0,0,,0.75,29.698818,,,TRUE,TRUE,,,,,,BR,OVC,300,,,,,,,LIFR,,,,,,,,,,,,METAR,195.0
K4O4 230935Z AUTO 14010KT 9SM OVC026 20/17 A2987 RMK AO2,K4O4,2022-10-23T09:35:00Z,33.92,-94.87,20.0,17.0,140,10,,9.0,29.870079,,,TRUE,TRUE,,,,,,,OVC,2600,,,,,,,MVFR,,,,,,,,,,,,METAR,148.0
K4M9 230935Z AUTO 15009KT 10SM CLR 17/13 A2993 RMK AO2 PWINO,K4M9,2022-10-23T09:35:00Z,36.4,-90.65,17.0,13.0,150,9,,10.0,29.929134,,,TRUE,TRUE,,,,,TRUE,,CLR,,,,,,,,VFR,,,,,,,,,,,,SPECI,86.0
K4I3 230935Z AUTO 00000KT 10SM CLR 11/07 A3018 RMK AO2,K4I3,2022-10-23T09:35:00Z,40.33,-82.53,11.0,7.0,0,0,,10.0,30.180119,,,TRUE,TRUE,,,,,,,CLR,,,,,,,,VFR,,,,,,,,,,,,METAR,361.0
K4F2 230935Z AUTO 13004KT 10SM SCT031 SCT038 18/16 A2993 RMK AO2 T01820161,K4F2,2022-10-23T09:35:00Z,32.18,-94.3,18.2,16.1,130,4,,10.0,29.929134,,,TRUE,TRUE,,,,,,,SCT,3100,SCT,3800,,,,,VFR,,,,,,,,,,,,METAR,76.0
K4BM 230935Z AUTO 15016G26KT 070V190 10SM SCT050 SCT055 01/M05 A2970 RMK AO2,K4BM,2022-10-23T09:35:00Z,39.05,-105.52,1.0,-5.0,150,16,26,10.0,29.698818,,,TRUE,TRUE,,,,,,,SCT,5000,SCT,5500,,,,,VFR,,,,,,,,,,,,SPECI,3432.0
K4A9 230935Z AUTO 13005KT 10SM CLR 07/06 A3017 RMK AO2 T00700061,K4A9,2022-10-23T09:35:00Z,34.47,-85.72,7.0,6.1,130,5,,10.0,30.171259,,,TRUE,TRUE,,,,,,,CLR,,,,,,,,VFR,,,,,,,,,,,,METAR,273.0
K4A6 230935Z AUTO 00000KT 10SM SCT019 SCT027 08/08 A3018 RMK AO2,K4A6,2022-10-23T09:35:00Z,34.68,-86.0,8.0,8.0,0,0,,10.0,30.180119,,,TRUE,TRUE,,,,,,,SCT,1900,SCT,2700,,,,,VFR,,,,,,,,,,,,SPECI,191.0
K49A 230935Z AUTO 36003KT 10SM CLR 04/03 A3023 RMK AO2 T00440031,K49A,2022-10-23T09:35:00Z,34.63,-84.53,4.4,3.1,360,3,,10.0,30.230314,,,TRUE,TRUE,,,,,,,CLR,,,,,,,,VFR,,,,,,,,,,,,SPECI,449.0
K48A 230935Z AUTO 00000KT 10SM CLR 04/03 A3017 RMK AO2 T00380030,K48A,2022-10-23T09:35:00Z,32.4,-83.27,3.8,3.0,0,0,,10.0,30.171259,,,TRUE,TRUE,,,,,,,CLR,,,,,,,,VFR,,,,,,,,,,,,SPECI,115.0
K46U 230935Z AUTO VRB04G10KT 10SM BKN019 OVC024 02/M01 A2959 RMK A01,K46U,2022-10-23T09:35:00Z,43.18,-111.05,2.0,-1.0,0,4,10,10.0,29.589567,,,TRUE,TRUE,,,,,,,BKN,1900,OVC,2400,,,,,MVFR,,,,,,,,,,,,SPECI,1718.0
K46D 230935Z AUTO 04013KT 10SM CLR 06/05 A2953 RMK AO2,K46D,2022-10-23T09:35:00Z,47.45,-99.15,6.0,5.0,40,13,,10.0,29.530512,,,TRUE,TRUE,,,,,,,CLR,,,,,,,,VFR,,,,,,,,,,,,SPECI,488.0
K42J 230935Z AUTO 00000KT 10SM SCT041 SCT046 SCT055 10/10 A3010 RMK A01,K42J,2022-10-23T09:35:00Z,29.85,-82.05,10.0,10.0,0,0,,10.0,30.100393,,,TRUE,TRUE,,,,,,,SCT,4100,SCT,4600,SCT,5500,,,VFR,,,,,,,,,,,,SPECI,57.0
K41U 230935Z AUTO 20008KT 10SM CLR 00/00 A2956 RMK AO1 T00030003,K41U,2022-10-23T09:35:00Z,39.33,-111.6,0.3,0.3,200,8,,10.0,29.56004,,,TRUE,TRUE,,,,,,,CLR,,,,,,,,VFR,,,,,,,,,,,,METAR,1676.0
K40U 230935Z AUTO 28006KT 3SM -SN BR SCT011 BKN026 OVC032 00/00 A2956 RMK AO2 T00021005,K40U,2022-10-23T09:35:00Z,40.98,-109.68,0.2,-0.5,280,6,,3.0,29.56004,,,TRUE,TRUE,,,,,,-SN BR,SCT,1100,BKN,2600,OVC,3200,,,MVFR,,,,,,,,,,,,SPECI,1882.0
K3S8 230935Z AUTO 00000KT 4SM BR BKN003 OVC007 06/05 A3006 RMK AO2,K3S8,2022-10-23T09:35:00Z,42.5,-123.4,6.0,5.0,0,0,,4.0,30.059055,,,TRUE,TRUE,,,,,,BR,BKN,300,OVC,700,,,,,LIFR,,,,,,,,,,,,SPECI,339.0
K3N8 230935Z AUTO 11007KT 10SM CLR 08/04 A2954 RMK AO2 T00830042,K3N8,2022-10-23T09:35:00Z,47.25,-95.92,8.3,4.2,110,7,,10.0,29.53937,,,TRUE,TRUE,,,,,,,CLR,,,,,,,,VFR,,,,,,,,,,,,METAR,379.0
K3LF 230935Z AUTO 15014G19KT 10SM SCT070 BKN090 17/10 A2989 RMK AO2 T01720100,K3LF,2022-10-23T09:35:00Z,39.17,-89.67,17.2,10.0,150,14,19,10.0,29.890747,,,TRUE,TRUE,,,,,,,SCT,7000,BKN,9000,,,,,VFR,,,,,,,,,,,,SPECI,207.0
K3K3 230935Z AUTO 21006KT 10SM CLR 15/06 A2947 RMK AO2,K3K3,2022-10-23T09:35:00Z,38.0,-101.75,15.0,6.0,210,6,,10.0,29.471457,,,TRUE,TRUE,,,,,,,CLR,,,,,,,,VFR,,,,,,,,,,,,SPECI,1010.0
K3J7 230935Z AUTO 00000KT 10SM CLR 07/03 A3019 RMK AO2,K3J7,2022-10-23T09:35:00Z,33.6,-83.13,7.0,3.0,0,0,,10.0,30.188976,,,TRUE,TRUE,,,,,,,CLR,,,,,,,,VFR,,,,,,,,,,,,METAR,207.0
K3F3 230935Z AUTO 13008KT 10SM BKN038 OVC046 19/17 A2999 RMK AO2 T01880165,K3F3,2022-10-23T09:35:00Z,32.07,-93.77,18.8,16.5,130,8,,10.0,29.991142,,,TRUE,TRUE,,,,,,,BKN,3800,OVC,4600,,,,,VFR,,,,,,,,,,,,METAR,96.0
K3AU 230935Z AUTO 18014G19KT 10SM CLR 21/10 A2954 RMK AO2,K3AU,2022-10-23T09:35:00Z,37.67,-97.08,21.0,10.0,180,14,19,10.0,29.53937,,,TRUE,TRUE,,,,,,,CLR,,,,,,,,VFR,,,,,,,,,,,,SPECI,403.0
K35A 230935Z AUTO 04003KT 10SM CLR 05/04 A3024 RMK A02 T00540038,K35A,2022-10-23T09:35:00Z,34.68,-81.63,5.4,3.8,40,3,,10.0,30.239174,,,TRUE,TRUE,,,,,,,CLR,,,,,,,,VFR,,,,,,,,,,,,SPECI,186.0
K33V 230935Z AUTO 13006G16KT 10SM SCT070 SCT120 07/M03 A2947 RMK AO1,K33V,2022-10-23T09:35:00Z,40.75,-106.28,7.0,-3.0,130,6,16,10.0,29.471457,,,TRUE,TRUE,,,,,,,SCT,7000,SCT,12000,,,,,VFR,,,,,,,,,,,,METAR,2486.0
K33N 230935Z AUTO 01007KT 10SM OVC028 12/11 A3022 RMK A01,K33N,2022-10-23T09:35:00Z,39.22,-75.6,12.0,11.0,10,7,,10.0,30.221457,,,TRUE,TRUE,,,,,,,OVC,2800,,,,,,,MVFR,,,,,,,,,,,,SPECI,17.0
K2V5 230935Z AUTO 23009KT 10SM CLR 15/M01 A2930 RMK AO2,K2V5,2022-10-23T09:35:00Z,40.1,-102.25,15.0,-1.0,230,9,,10.0,29.300198,,,TRUE,TRUE,,,,,,,CLR,,,,,,,,VFR,,,,,,,,,,,,METAR,1117.0
K2R9 230935Z AUTO 10003KT 10SM CLR 19/18 A2987 RMK AO2 T01860175,K2R9,2022-10-23T09:35:00Z,28.82,-97.87,18.6,17.5,100,3,,10.0,29.870079,,,TRUE,TRUE,,,,,,,CLR,,,,,,,,VFR,,,,,,,,,,,,METAR,88.0
K2P2 230935Z AUTO 19008KT 10SM CLR 11/11 A2990 RMK AO2 T01100110,K2P2,2022-10-23T09:35:00Z,45.38,-86.92,11.0,11.0,190,8,,10.0,29.899607,,,TRUE,TRUE,,,,,,,CLR,,,,,,,,VFR,,,,,,,,,,,,METAR,182.0
K2M2 230935Z AUTO 00000KT 10SM SCT038 BKN048 OVC055 12/09 A3012 RMK A01,K2M2,2022-10-23T09:35:00Z,35.23,-87.25,12.0,9.0,0,0,,10.0,30.121063,,,TRUE,TRUE,,,,,,,SCT,3800,BKN,4800,OVC,5500,,,VFR,,,,,,,,,,,,METAR,286.0
K2J9 230935Z AUTO 00000KT 10SM CLR 05/05 A3015 RMK AO2,K2J9,2022-10-23T09:35:00Z,30.6,-84.55,5.0,5.0,0,0,,10.0,30.15059,,,TRUE,TRUE,,,,,,,CLR,,,,,,,,VFR,,,,,,,,,,,,SPECI,62.0
K2J5 230935Z AUTO 00000KT 10SM CLR 06/05 A3017 RMK AO2 T00600047,K2J5,2022-10-23T09:35:00Z,32.9,-81.97,6.0,4.7,0,0,,10.0,30.171259,,,TRUE,TRUE,,,,,,,CLR,,,,,,,,VFR,,,,,,,,,,,,METAR,72.0
K2J3 230935Z AUTO 00000KT 10SM BKN036 06/05 A3017 RMK AO2 T00610050,K2J3,2022-10-23T09:35:00Z,32.98,-82.38,6.1,5.0,0,0,,10.0,30.171259,,,TRUE,TRUE,,,,,,,BKN,3600,,,,,,,VFR,,,,,,,,,,,,METAR,97.0
K2G9 230935Z AUTO 00000KT 10SM CLR 00/M01 A3025 RMK AO2,K2G9,2022-10-23T09:35:00Z,40.03,-79.02,0.0,-1.0,0,0,,10.0,30.250984,,,TRUE,TRUE,,,,,,,CLR,,,,,,,,VFR,,,,,,,,,,,,METAR,677.0
K2G2 230935Z AUTO 10004KT 10SM SCT047 07/05 A3020 RMK A01,K2G2,2022-10-23T09:35:00Z,,,7.0,5.0,100,4,,10.0,30.200787,,,TRUE,TRUE,,,,,,,SCT,4700,,,,,,,VFR,,,,,,,,,,,,SPECI,
K2D5 230935Z AUTO 05013KT 10SM BKN022 BKN027 04/02 A2947 RMK AO2,K2D5,2022-10-23T09:35:00Z,46.17,-98.08,4.0,2.0,50,13,,10.0,29.471457,,,TRUE,TRUE,,,,,,,BKN,2200,BKN,2700,,,,,MVFR,,,,,,,,,,,,SPECI,407.0
K2A0 230935Z AUTO 00000KT M1/4SM FG VV000 05/05 A3018 RMK A01,K2A0,2022-10-23T09:35:00Z,35.48,-84.93,5.0,5.0,0,0,,0.25,30.180119,,,TRUE,TRUE,,,,,,FG,OVX,0,,,,,,,LIFR,,,,,,,,,,,0,METAR,219.0
K28J 230935Z AUTO 00000KT 10SM BKN016 08/08 A3011 RMK AO2 TSNO,K28J,2022-10-23T09:35:00Z,29.65,-81.68,8.0,8.0,0,0,,10.0,30.109253,,,TRUE,TRUE,,,TRUE,,,,BKN,1600,,,,,,,MVFR,,,,,,,,,,,,SPECI,9.0
K27K 230935Z AUTO 17005KT 10SM CLR 12/07 A3016 RMK AO1,K27K,2022-10-23T09:35:00Z,38.23,-84.43,12.0,7.0,170,5,,10.0,30.159449,,,TRUE,TRUE,,,,,,,CLR,,,,,,,,VFR,,,,,,,,,,,,SPECI,283.0
K24J 230935Z AUTO 00000KT 10SM 05/05 A3012 RMK A01,K24J,2022-10-23T09:35:00Z,30.3,-83.03,5.0,5.0,0,0,,10.0,30.121063,,,TRUE,TRUE,,,,,,,,,,,,,,,,,,,,,,,,,,,SPECI,30.0
K24A 230935Z AUTO 15007KT 10SM CLR 05/02 A3025 RMK AO2 T00530020,K24A,2022-10-23T09:35:00Z,35.32,-83.2,5.3,2.0,150,7,,10.0,30.250984,,,TRUE,TRUE,,,,,,,CLR,,,,,,,,VFR,,,,,,,,,,,,SPECI,864.0
K22N 230935Z AUTO 00000KT 7SM CLR 00/M01 A3032 RMK AO2,K22N,2022-10-23T09:35:00Z,40.8,-75.77,0.0,-1.0,0,0,,7.0,30.318897,,,TRUE,TRUE,,,,,,,CLR,,,,,,,,VFR,,,,,,,,,,,,SPECI,159.0
K21D 230935Z AUTO 15007KT 10SM CLR 16/08 A2966 RMK AO2,K21D,2022-10-23T09:35:00Z,45.0,-92.85,16.0,8.0,150,7,,10.0,29.660433,,,TRUE,TRUE,,,,,,,CLR,,,,,,,,VFR,,,,,,,,,,,,METAR,281.0
K20V 230935Z AUTO 18005KT 10SM BKN080 09/M03 A2947 RMK AO2,K20V,2022-10-23T09:35:00Z,40.05,-106.37,9.0,-3.0,180,5,,10.0,29.471457,,,TRUE,TRUE,,,,,,,BKN,8000,,,,,,,VFR,,,,,,,,,,,,METAR,2259.0
K20U 230935Z AUTO 08008KT 10SM SCT014 OVC075 06/05 A2943 RMK AO2,K20U,2022-10-23T09:35:00Z,46.93,-103.98,6.0,5.0,80,8,,10.0,29.430119,,,TRUE,TRUE,,,,,,,SCT,1400,OVC,7500,,,,,VFR,,,,,,,,,,,,METAR,839.0
K1V6 230935Z AUTO 26028G37KT 10SM CLR 18/M01 A2944 RMK AO2,K1V6,2022-10-23T09:35:00Z,38.43,-105.1,18.0,-1.0,260,28,37,10.0,29.438976,,,TRUE,TRUE,,,,,,,CLR,,,,,,,,VFR,,,,,,,,,,,,SPECI,1658.0
K1U7 230935Z AUTO 01003KT 10SM SCT035 OVC050 M00/M00 A2957 RMK A01,K1U7,2022-10-23T09:35:00Z,42.25,-111.33,0.0,0.0,10,3,,10.0,29.568897,,,TRUE,TRUE,,,,,,,SCT,3500,OVC,5000,,,,,VFR,,,,,,,,,,,,METAR,1808.0
K1R8 230935Z AUTO 08006KT 10SM SCT037 SCT050 SCT055 10/08 A3011 RMK AO2,K1R8,2022-10-23T09:35:00Z,30.87,-87.82,10.0,8.0,80,6,,10.0,30.109253,,,TRUE,TRUE,,,,,,,SCT,3700,SCT,5000,SCT,5500,,,VFR,,,,,,,,,,,,SPECI,76.0
K1R7 230935Z AUTO 00000KT 10SM CLR 14/14 A3008 RMK AO2 PWINO,K1R7,2022-10-23T09:35:00Z,31.6,-90.42,14.0,14.0,0,0,,10.0,30.079725,,,TRUE,TRUE,,,,,TRUE,,CLR,,,,,,,,VFR,,,,,,,,,,,,SPECI,142.0
K1P1 230935Z AUTO 00000KT 7SM CLR 00/00 A3034 RMK AO2 T00020002,K1P1,2022-10-23T09:35:00Z,43.78,-71.75,0.2,0.2,0,0,,7.0,30.339567,,,TRUE,TRUE,,,,,,,CLR,,,,,,,,VFR,,,,,,,,,,,,METAR,155.0
K1M5 230935Z AUTO 17008KT 10SM BKN050 14/11 A3011 RMK A01,K1M5,2022-10-23T09:35:00Z,36.6,-86.48,14.0,11.0,170,8,,10.0,30.109253,,,TRUE,TRUE,,,,,,,BKN,5000,,,,,,,VFR,,,,,,,,,,,,METAR,239.0
K1K1 230935Z AUTO 18012G20KT 10SM CLR 21/11 A2953 RMK AO2 T02050105,K1K1,2022-10-23T09:35:00Z,37.77,-97.12,20.5,10.5,180,12,20,10.0,29.530512,,,TRUE,TRUE,,,,,,,CLR,,,,,,,,VFR,,,,,,,,,,,,METAR,411.0
K1H2 230935Z AUTO 13012KT 10SM SCT075 18/11 A2996 RMK AO2 T01750110,K1H2,2022-10-23T09:35:00Z,39.07,-88.53,17.5,11.0,130,12,,10.0,29.958662,,,TRUE,TRUE,,,,,,,SCT,7500,,,,,,,VFR,,,,,,,,,,,,METAR,174.0
K1F0 230935Z AUTO 17010G16KT 10SM CLR 21/16 A2975 RMK AO2 T02100160,K1F0,2022-10-23T09:35:00Z,34.15,-97.12,21.0,16.0,170,10,16,10.0,29.749016,,,TRUE,TRUE,,,,,,,CLR,,,,,,,,VFR,,,,,,,,,,,,METAR,256.0
K1D1 230935Z AUTO 10004KT 9SM CLR 04/01 A2948 RMK AO2,K1D1,2022-10-23T09:35:00Z,45.23,-96.57,4.0,1.0,100,4,,9.0,29.480314,,,TRUE,TRUE,,,,,,,CLR,,,,,,,,VFR,,,,,,,,,,,,METAR,341.0
K1A9 230935Z AUTO 00000KT 10SM CLR 07/06 A3016 RMK AO2 T00670063,K1A9,2022-10-23T09:35:00Z,32.43,-86.52,6.7,6.3,0,0,,10.0,30.159449,,,TRUE,TRUE,,,,,,,CLR,,,,,,,,VFR,,,,,,,,,,,,METAR,65.0
K1A6 230935Z AUTO 00000KT 10SM SCT002 05/05 A3023 RMK AO2 T00450045,K1A6,2022-10-23T09:35:00Z,36.62,-83.73,4.5,4.5,0,0,,10.0,30.230314,,,TRUE,TRUE,,,,,,,SCT,200,,,,,,,VFR,,,,,,,,,,,,METAR,348.0
K19S 230935Z AUTO 21011KT 10SM CLR 18/10 A2950 RMK AO2 T01780095,K19S,2022-10-23T09:35:00Z,37.48,-100.83,17.8,9.5,210,11,,10.0,29.500984,,,TRUE,TRUE,,,,,,,CLR,,,,,,,,VFR,,,,,,,,,,,,METAR,886.0
K18H 230935Z AUTO 15015KT 10SM CLR 26/14 A2996 RMK A01,K18H,2022-10-23T09:35:00Z,26.13,-92.03,26.0,14.0,150,15,,10.0,29.958662,,,TRUE,TRUE,,,,,,,CLR,,,,,,,,VFR,,,,,,,,,,,,METAR,30.0
K18A 230935Z AUTO 00000KT 10SM CLR 06/04 A3020 RMK AO2 T00620041,K18A,2022-10-23T09:35:00Z,34.35,-83.13,6.2,4.1,0,0,,10.0,30.200787,,,TRUE,TRUE,,,,,,,CLR,,,,,,,,VFR,,,,,,,,,,,,METAR,260.0
K17J 230935Z AUTO 00000KT 10SM CLR 06/04 A3015 RMK AO2 T00630043,K17J,2022-10-23T09:35:00Z,31.0,-84.87,6.3,4.3,0,0,,10.0,30.15059,,,TRUE,TRUE,,,,,,,CLR,,,,,,,,VFR,,,,,,,,,,,,METAR,42.0
K15M 230935Z AUTO 17003KT 10SM SCT060 14/11 A3012 RMK AO2 T01420109 $,K15M,2022-10-23T09:35:00Z,34.77,-88.17,14.2,10.9,170,3,,10.0,30.121063,,,TRUE,TRUE,TRUE,,,,,,SCT,6000,,,,,,,VFR,,,,,,,,,,,,SPECI,192.0
K14Y 230935Z AUTO 14004KT 10SM CLR 11/06 A2957 RMK AO2,K14Y,2022-10-23T09:35:00Z,45.9,-94.87,11.0,6.0,140,4,,10.0,29.568897,,,TRUE,TRUE,,,,,,,CLR,,,,,,,,VFR,,,,,,,,,,,,METAR,404.0
K13K 230935Z AUTO 17016G24KT 10SM CLR 21/13 A2957 RMK AO2 T02100133,K13K,2022-10-23T09:35:00Z,37.85,-96.3,21.0,13.3,170,16,24,10.0,29.568897,,,TRUE,TRUE,,,,,,,CLR,,,,,,,,VFR,,,,,,,,,,,,METAR,367.0
K11R 230935Z AUTO 17003KT 10SM CLR 20/18 A2989 RMK AO2 T01970175,K11R,2022-10-23T09:35:00Z,30.22,-96.37,19.7,17.5,170,3,,10.0,29.890747,,,TRUE,TRUE,,,,,,,CLR,,,,,,,,VFR,,,,,,,,,,,,METAR,87.0
K10G 230935Z AUTO 17005KT 10SM CLR 14/05 A3020 RMK AO2,K10G,2022-10-23T09:35:00Z,,,14.0,5.0,170,5,,10.0,30.200787,,,TRUE,TRUE,,,,,,,CLR,,,,,,,,VFR,,,,,,,,,,,,METAR,
K0VG 230935Z AUTO 00000KT 9SM CLR 04/04 A3022 RMK AO2,K0VG,2022-10-23T09:35:00Z,36.65,-83.22,4.0,4.0,0,0,,9.0,30.221457,,,TRUE,TRUE,,,,,,,CLR,,,,,,,,VFR,,,,,,,,,,,,SPECI,426.0
K0S9 230935Z AUTO 00000KT 4SM BR FEW028 OVC060 05/05 A2994 RMK AO2,K0S9,2022-10-23T09:35:00Z,48.05,-122.82,5.0,5.0,0,0,,4.0,29.940945,,,TRUE,TRUE,,,,,,BR,FEW,2800,OVC,6000,,,,,MVFR,,,,,,,,,,,,METAR,33.0
K0R4 230935Z AUTO 13010KT 10SM CLR 18/14 A3002 RMK AO2 T01800144,K0R4,2022-10-23T09:35:00Z,31.57,-91.5,18.0,14.4,130,10,,10.0,30.02067,,,TRUE,TRUE,,,,,,,CLR,,,,,,,,VFR,,,,,,,,,,,,SPECI,16.0
K0R0 230935Z AUTO 00000KT 10SM -RA CLR 12/11 A3011 RMK AO2,K0R0,2022-10-23T09:35:00Z,31.3,-89.82,12.0,11.0,0,0,,10.0,30.109253,,,TRUE,TRUE,,,,,,-RA,CLR,,,,,,,,VFR,,,,,,,,,,,,METAR,76.0
K0F2 230935Z AUTO 16010G16KT 10SM CLR 20/15 A2975 RMK AO2 T01970145,K0F2,2022-10-23T09:35:00Z,33.6,-97.78,19.7,14.5,160,10,16,10.0,29.749016,,,TRUE,TRUE,,,,,,,CLR,,,,,,,,VFR,,,,,,,,,,,,SPECI,330.0
K0E0 230935Z AUTO 21013KT 10SM SCT070 13/09 A2978 RMK AO2 T01250090 TSNO,K0E0,2022-10-23T09:35:00Z,34.98,-106.0,12.5,9.0,210,13,,10.0,29.778543,,,TRUE,TRUE,,,TRUE,,,,SCT,7000,,,,,,,VFR,,,,,,,,,,,,METAR,1887.0
K0CO 230935Z AUTO 23016G30KT 10SM CLR M02/M07 A2964 RMK AO2,K0CO,2022-10-23T09:35:00Z,39.8,-105.77,-2.0,-7.0,230,16,30,10.0,29.639763,,,TRUE,TRUE,,,,,,,CLR,,,,,,,,VFR,,,,,,,,,,,,METAR,3804.0
K0A9 230935Z AUTO 04004KT 9SM CLR 07/03 A3022 RMK A01,K0A9,2022-10-23T09:35:00Z,36.37,-82.17,7.0,3.0,40,4,,9.0,30.221457,,,TRUE,TRUE,,,,,,,CLR,,,,,,,,VFR,,,,,,,,,,,,METAR,479.0
K0A0 230935Z AUTO 21011G16KT 10SM BKN045 OVC055 19/11 A2976 RMK AO2,K0A0,2022-10-23T09:35:00Z,32.98,-106.97,19.0,11.0,210,11,16,10.0,29.760826,,,TRUE,TRUE,,,,,,,BKN,4500,OVC,5500,,,,,VFR,,,,,,,,,,,,SPECI,1401.0
K08D 230935Z AUTO 06020G26KT 10SM OVC008 05/05 A2953 RMK AO2,K08D,2022-10-23T09:35:00Z,48.3,-102.4,5.0,5.0,60,20,26,10.0,29.530512,,,TRUE,TRUE,,,,,,,OVC,800,,,,,,,IFR,,,,,,,,,,,,METAR,683.0
K06D 230935Z AUTO 02015KT 10SM OVC009 05/05 A2964 RMK AO2,K06D,2022-10-23T09:35:00Z,48.88,-99.62,5.0,5.0,20,15,,10.0,29.639763,,,TRUE,TRUE,,,,,,,OVC,900,,,,,,,IFR,,,,,,,,,,,,SPECI,554.0
K06C 230935Z AUTO 17006KT 10SM CLR 16/13 A2990 RMK AO2 T01630127,K06C,2022-10-23T09:35:00Z,41.98,-88.1,16.3,12.7,170,6,,10.0,29.899607,,,TRUE,TRUE,,,,,,,CLR,,,,,,,,VFR,,,,,,,,,,,,SPECI,243.0
K04W 230935Z AUTO 00000KT 10SM CLR 05/04 A2965 RMK AO2,K04W,2022-10-23T09:35:00Z,46.02,-92.9,5.0,4.0,0,0,,10.0,29.648623,,,TRUE,TRUE,,,,,,,CLR,,,,,,,,VFR,,,,,,,,,,,,SPECI,310.0
K04V 230935Z AUTO 30003KT 10SM 09/M02 A2961 RMK AO2,K04V,2022-10-23T09:35:00Z,38.1,-106.17,9.0,-2.0,300,3,,10.0,29.610237,,,TRUE,TRUE,,,,,,,,,,,,,,,,,,,,,,,,,,,METAR,2389.0
KMMH 230934Z AUTO 31007KT 10SM SCT045 M02/M08 A2984 RMK AO2,KMMH,2022-10-23T09:34:00Z,37.62,-118.83,-2.0,-8.0,310,7,,10.0,29.840551,,,TRUE,TRUE,,,,,,,SCT,4500,,,,,,,VFR,,,,,,,,,,,,SPECI,2167.0
KGED 230934Z AUTO 03009KT 10SM OVC010 14/13 A3019 RMK AO2 CIG 006V012 T01440128,KGED,2022-10-23T09:34:00Z,38.68,-75.37,14.4,12.8,30,9,,10.0,30.188976,,,TRUE,TRUE,,,,,,,OVC,1000,,,,,,,MVFR,,,,,,,,,,,,METAR,15.0
KDUB 230934Z AUTO 28010KT 10SM BKN120 M02/M07 A2949 RMK AO2,KDUB,2022-10-23T09:34:00Z,43.55,-109.68,-2.0,-7.0,280,10,,10.0,29.489174,,,TRUE,TRUE,,,,,,,BKN,12000,,,,,,,VFR,,,,,,,,,,,,METAR,2205.0
KBCE 230934Z AUTO 32004KT 5SM -SN BR OVC021 M01/M02 A2958 RMK AO2 P0003 T10111022,KBCE,2022-10-23T09:34:00Z,37.7,-112.15,-1.1,-2.2,320,4,,5.0,29.58071,,,TRUE,TRUE,,,,,,-SN BR,OVC,2100,,,,,,,MVFR,,,,,,0.03,,,,,,SPECI,2311.0
YSCB 230933Z AUTO 12010KT 9999 // SCT023 OVC065 15/10 Q1015,YSCB,2022-10-23T09:33:00Z,-35.3,149.18,15.0,10.0,120,10,,6.21,29.970472,,,TRUE,,,,,,,,SCT,2300,OVC,6500,,,,,VFR,,,,,,,,,,,,SPECI,577.0
KXVG 230933Z AUTO 00000KT 10SM CLR 08/06 A2959 RMK AO2,KXVG,2022-10-23T09:33:00Z,46.98,-94.2,8.0,6.0,0,0,,10.0,29.589567,,,TRUE,TRUE,,,,,,,CLR,,,,,,,,VFR,,,,,,,,,,,,METAR,407.0
KOWA 230933Z AUTO 14009KT 10SM SCT065 16/09 A2963 RMK AO2,KOWA,2022-10-23T09:33:00Z,44.12,-93.25,16.0,9.0,140,9,,10.0,29.630905,,,TRUE,TRUE,,,,,,,SCT,6500,,,,,,,VFR,,,,,,,,,,,,METAR,345.0
KORB 230933Z AUTO 00000KT 10SM CLR 09/06 A2962 RMK AO2,KORB,2022-10-23T09:33:00Z,48.02,-92.87,9.0,6.0,0,0,,10.0,29.619095,,,TRUE,TRUE,,,,,,,CLR,,,,,,,,VFR,,,,,,,,,,,,METAR,407.0
KFOZ 230933Z AUTO 10003KT 10SM CLR 04/03 A2967 RMK AO2,KFOZ,2022-10-23T09:33:00Z,47.77,-93.65,4.0,3.0,100,3,,10.0,29.66929,,,TRUE,TRUE,,,,,,,CLR,,,,,,,,VFR,,,,,,,,,,,,METAR,412.0
KETH 230933Z AUTO 10006KT 10SM 02/M02 A2949 RMK AO2,KETH,2022-10-23T09:33:00Z,45.78,-96.55,2.0,-2.0,100,6,,10.0,29.489174,,,TRUE,TRUE,,,,,,,,,,,,,,,,,,,,,,,,,,,METAR,309.0
KDVP 230933Z AUTO 14008KT 10SM CLR 09/06 A2952 RMK AO2 T00850062,KDVP,2022-10-23T09:33:00Z,43.98,-95.78,8.5,6.2,140,8,,10.0,29.518702,,,TRUE,TRUE,,,,,,,CLR,,,,,,,,VFR,,,,,,,,,,,,METAR,493.0
KCYD 230933Z AUTO 12010KT 10SM SCT001 SCT022 BKN044 23/14 A3008 RMK A02 T02320138,KCYD,2022-10-23T09:33:00Z,28.17,-89.22,23.2,13.8,120,10,,10.0,30.079725,,,TRUE,TRUE,,,,,,,SCT,100,SCT,2200,BKN,4400,,,VFR,,,,,,,,,,,,METAR,30.0
KCUL 230933Z AUTO 15011KT 10SM BKN065 18/12 A3000 RMK AO2,KCUL,2022-10-23T09:33:00Z,38.08,-88.12,18.0,12.0,150,11,,10.0,30.0,,,TRUE,TRUE,,,,,,,BKN,6500,,,,,,,VFR,,,,,,,,,,,,SPECI,116.0
KCDD 230933Z AUTO 00000KT 10SM CLR 03/02 A2968 RMK AO2,KCDD,2022-10-23T09:33:00Z,48.27,-92.48,3.0,2.0,0,0,,10.0,29.681103,,,TRUE,TRUE,,,,,,,CLR,,,,,,,,VFR,,,,,,,,,,,,SPECI,344.0
KAQP 230933Z AUTO 16009KT 10SM 11/05 A2950 RMK AO2,KAQP,2022-10-23T09:33:00Z,45.22,-96.0,11.0,5.0,160,9,,10.0,29.500984,,,TRUE,TRUE,,,,,,,,,,,,,,,,,,,,,,,,,,,METAR,312.0
CYIN 230933Z AUTO 30002KT 2 1/2SM BR CLR M05/M05 A2989 RMK SLP170,CYIN,2022-10-23T09:33:00Z,51.27,-121.68,-5.0,-5.0,300,2,,2.5,29.890747,1017.0,,TRUE,,,,,,,BR,CLR,,,,,,,,IFR,,,,,,,,,,,,SPECI,1127.0
YGTH 230932Z AUTO 07009KT 9999 TSRA SCT035 BKN046 BKN062 19/18 Q1008,YGTH,2022-10-23T09:32:00Z,-34.25,146.07,19.0,18.0,70,9,,6.21,29.763779,,,TRUE,,,,,,,TSRA,SCT,3500,BKN,4600,BKN,6200,,,VFR,,,,,,,,,,,,SPECI,132.0
LHPP 230932Z AUTO 21003KT 160V270 9999 OVC001 //////TCU 13/13 Q1024,LHPP,2022-10-23T09:32:00Z,45.98,18.23,13.0,13.0,210,3,,6.21,30.236221,,,TRUE,,,,,,,,OVC,100,,,,,,,LIFR,,,,,,,,,,,,SPECI,193.0
KPIH 230932Z AUTO 22012KT 10SM UP OVC015 02/M01 A2964 RMK AO2 UPB19 P0000 T00171011 $,KPIH,2022-10-23T09:32:00Z,42.92,-112.57,1.7,-1.1,220,12,,10.0,29.639763,,,TRUE,TRUE,TRUE,,,,,UP,OVC,1500,,,,,,,MVFR,,,,,,0.005,,,,,,SPECI,1357.0
KFMN 230932Z AUTO 22023G34KT 10SM SCT014 15/00 A2962 RMK AO2 PK WND 24040/0915 T01500000,KFMN,2022-10-23T09:32:00Z,36.75,-108.23,15.0,0.0,220,23,34,10.0,29.619095,,,TRUE,TRUE,,,,,,,SCT,1400,,,,,,,VFR,,,,,,,,,,,,SPECI,1677.0
CYXH 230932Z AUTO 36014G20KT 8SM -RA BKN007 OVC014 03/02 A2971 RMK SLP082,CYXH,2022-10-23T09:32:00Z,50.02,-110.72,3.0,2.0,360,14,20,8.0,29.71063,1008.2,,TRUE,,,,,,,-RA,BKN,700,OVC,1400,,,,,IFR,,,,,,,,,,,,SPECI,717.0
RJSN 230931Z 03010KT 8000 SHRA FEW010 SCT020 BKN030 14/10 Q1014 RMK 1CU010 3CU020 6CU030 A2995,RJSN,2022-10-23T09:31:00Z,37.95,139.12,14.0,10.0,30,10,,4.97,29.940945,,,,,,,,,,SHRA,FEW,1000,SCT,2000,BKN,3000,,,MVFR,,,,,,,,,,,,SPECI,4.0
KOXR 230931Z AUTO 03003KT 10SM SCT019 14/13 A2977 RMK AO2 T01390128,KOXR,2022-10-23T09:31:00Z,34.2,-119.2,13.9,12.8,30,3,,10.0,29.769686,,,TRUE,TRUE,,,,,,,SCT,1900,,,,,,,VFR,,,,,,,,,,,,SPECI,12.0
KEAR 230931Z AUTO 16006KT 1 3/4SM -RA CLR 11/04 A2935 RMK AO2 VIS 3/4V5 P0000,KEAR,2022-10-23T09:31:00Z,40.72,-99.0,11.0,4.0,160,6,,1.75,29.350393,,,TRUE,TRUE,,,,,,-RA,CLR,,,,,,,,IFR,,,,,,0.005,,,,,,SPECI,649.0
KDOV 230931Z 35010KT 10SM BKN012 OVC023 13/11 A3020 RMK AO2A CIG 012V025 BKN V FEW SLP230,KDOV,2022-10-23T09:31:00Z,39.12,-75.47,13.0,11.0,350,10,,10.0,30.200787,1023.0,,,TRUE,,,,,,,BKN,1200,OVC,2300,,,,,MVFR,,,,,,,,,,,,SPECI,6.0
KC99 230931Z AUTO 23007KT 140V290 10SM CLR 01/M07 A2957 RMK AO2,KC99,2022-10-23T09:31:00Z,39.87,-105.55,1.0,-7.0,230,7,,10.0,29.568897,,,TRUE,TRUE,,,,,,,CLR,,,,,,,,VFR,,,,,,,,,,,,METAR,3334.0
KAUG 230931Z AUTO 00000KT 1/4SM FG VV002 07/07 A3034 RMK AO2 T00720067,KAUG,2022-10-23T09:31:00Z,44.32,-69.8,7.2,6.7,0,0,,0.25,30.339567,,,TRUE,TRUE,,,,,,FG,OVX,0,,,,,,,LIFR,,,,,,,,,,,200,SPECI,107.0
ZYTX 230930Z 02002MPS CAVOK 09/M08 Q1024 NOSIG,ZYTX,2022-10-23T09:30:00Z,41.63,123.48,9.0,-8.0,20,4,,6.21,30.236221,,,,,,TRUE,,,,,CAVOK,,,,,,,,VFR,,,,,,,,,,,,METAR,56.0
ZYTL 230930Z 01003MPS 320V040 9999 FEW033 13/M01 Q1023 NOSIG,ZYTL,2022-10-23T09:30:00Z,38.97,121.55,13.0,-1.0,10,6,,6.21,30.206694,,,,,,TRUE,,,,,FEW,3300,,,,,,,VFR,,,,,,,,,,,,METAR,33.0
ZWWW 230930Z 30004MPS CAVOK 16/03 Q1020 NOSIG,ZWWW,2022-10-23T09:30:00Z,43.9,87.47,16.0,3.0,300,8,,6.21,30.11811,,,,,,TRUE,,,,,CAVOK,,,,,,,,VFR,,,,,,,,,,,,METAR,654.0
ZSSS 230930Z 01006MPS CAVOK 19/06 Q1022 NOSIG,ZSSS,2022-10-23T09:30:00Z,31.2,121.33,19.0,6.0,10,12,,6.21,30.177166,,,,,,TRUE,,,,,CAVOK,,,,,,,,VFR,,,,,,,,,,,,METAR,2.0
ZSPD 230930Z 02006MPS CAVOK 18/10 Q1022 NOSIG,ZSPD,2022-10-23T09:30:00Z,31.15,121.8,18.0,10.0,20,12,,6.21,30.177166,,,,,,TRUE,,,,,CAVOK,,,,,,,,VFR,,,,,,,,,,,,METAR,4.0
ZSHC 230930Z 36005MPS 6000 SCT033 21/14 Q1021 NOSIG,ZSHC,2022-10-23T09:30:00Z,30.22,120.43,21.0,14.0,360,10,,3.73,30.147638,,,,,,TRUE,,,,,SCT,3300,,,,,,,MVFR,,,,,,,,,,,,METAR,8.0
ZMCK 230930Z VRB01MPS CAVOK 11/M07 Q1019 NOSIG RMK QFE648.6 28,ZMCK,2022-10-23T09:30:00Z,47.65,106.82,11.0,-7.0,0,2,,6.21,30.088583,,,,,,TRUE,,,,,CAVOK,,,,,,,,VFR,,,,,,,,,,,,METAR,1366.0
ZGGG 230930Z 02004MPS CAVOK 32/15 Q1012 NOSIG,ZGGG,2022-10-23T09:30:00Z,23.4,113.3,32.0,15.0,20,8,,6.21,29.88189,,,,,,TRUE,,,,,CAVOK,,,,,,,,VFR,,,,,,,,,,,,METAR,11.0
ZBYN 230930Z 24002MPS CAVOK 17/M07 Q1023 NOSIG,ZBYN,2022-10-23T09:30:00Z,37.73,112.63,17.0,-7.0,240,4,,6.21,30.206694,,,,,,TRUE,,,,,CAVOK,,,,,,,,VFR,,,,,,,,,,,,METAR,778.0
ZBTJ 230930Z 32002MPS CAVOK 17/M05 Q1023 NOSIG,ZBTJ,2022-10-23T09:30:00Z,39.12,117.35,17.0,-5.0,320,4,,6.21,30.206694,,,,,,TRUE,,,,,CAVOK,,,,,,,,VFR,,,,,,,,,,,,METAR,4.0
ZBAD 230930Z 17001MPS CAVOK 17/M02 Q1022 NOSIG,ZBAD,2022-10-23T09:30:00Z,39.5,116.42,17.0,-2.0,170,2,,6.21,30.177166,,,,,,TRUE,,,,,CAVOK,,,,,,,,VFR,,,,,,,,,,,,METAR,25.0
ZBAA 230930Z 10002MPS CAVOK 14/M01 Q1022 NOSIG,ZBAA,2022-10-23T09:30:00Z,40.07,116.6,14.0,-1.0,100,4,,6.21,30.177166,,,,,,TRUE,,,,,CAVOK,,,,,,,,VFR,,,,,,,,,,,,METAR,31.0
YTRE 230930Z AUTO 12004KT 9999 // OVC012 18/18 Q1013,YTRE,2022-10-23T09:30:00Z,-31.88,152.52,18.0,18.0,120,4,,6.21,29.911417,,,TRUE,,,,,,,,OVC,1200,,,,,,,MVFR,,,,,,,,,,,,SPECI,8.0
YSSY 230930Z 17013KT 9999 VCSH FEW009 BKN015 18/17 Q1014,YSSY,2022-10-23T09:30:00Z,-33.95,151.17,18.0,17.0,170,13,,6.21,29.940945,,,,,,,,,,VCSH,FEW,900,BKN,1500,,,,,MVFR,,,,,,,,,,,,METAR,3.0
YSNW 230930Z AUTO 15006KT 3300 BR OVC004 16/16 Q1015,YSNW,2022-10-23T09:30:00Z,-34.95,150.53,16.0,16.0,150,6,,2.05,29.970472,,,TRUE,,,,,,,BR,OVC,400,,,,,,,LIFR,,,,,,,,,,,,SPECI,109.0
YSNF 230930Z AUTO 08019KT 9999 // SCT024 OVC041 19/14 Q1023,YSNF,2022-10-23T09:30:00Z,-29.03,167.93,19.0,14.0,80,19,,6.21,30.206694,,,TRUE,,,,,,,,SCT,2400,OVC,4100,,,,,VFR,,,,,,,,,,,,METAR,113.0
YPXM 230930Z AUTO 19003KT 9999 // BKN003 BKN006 OVC011 25/24 Q1010,YPXM,2022-10-23T09:30:00Z,-10.45,105.68,25.0,24.0,190,3,,6.21,29.822834,,,TRUE,,,,,,,,BKN,300,BKN,600,OVC,1100,,,LIFR,,,,,,,,,,,,METAR,262.0
YPPH 230930Z 18013KT 9999 -RA FEW012 BKN067 OVC120 16/13 Q1007,YPPH,2022-10-23T09:30:00Z,-31.93,115.98,16.0,13.0,180,13,,6.21,29.734253,,,,,,,,,,-RA,FEW,1200,BKN,6700,OVC,12000,,,VFR,,,,,,,,,,,,METAR,16.0
YPPD 230930Z AUTO 29018KT 9999 // NCD 29/16 Q1006 RF00.0/000.0,YPPD,2022-10-23T09:30:00Z,-20.37,118.62,29.0,16.0,290,18,,6.21,29.704725,,,TRUE,,,,,,,,CLR,,,,,,,,VFR,,,,,,,,,,,,METAR,6.0
YPLM 230930Z AUTO 25017KT 9999 // NCD 25/16 Q1009 RF00.0/000.0,YPLM,2022-10-23T09:30:00Z,-22.23,114.08,25.0,16.0,250,17,,6.21,29.793306,,,TRUE,,,,,,,,CLR,,,,,,,,VFR,,,,,,,,,,,,METAR,5.0
YPKG 230930Z AUTO 07011KT 9999 // SCT088 SCT120 23/05 Q1009,YPKG,2022-10-23T09:30:00Z,-30.78,121.45,23.0,5.0,70,11,,6.21,29.793306,,,TRUE,,,,,,,,SCT,8800,SCT,12000,,,,,VFR,,,,,,,,,,,,METAR,372.0
YPDN 230930Z 29011KT 9999 SCT021 30/26 Q1005,YPDN,2022-10-23T09:30:00Z,-12.42,130.9,30.0,26.0,290,11,,6.21,29.675198,,,,,,,,,,,SCT,2100,,,,,,,VFR,,,,,,,,,,,,METAR,32.0
YPCC 230930Z AUTO 14014KT 9999 // SCT034 28/21 Q1011 RF00.0/000.0,YPCC,2022-10-23T09:30:00Z,-12.18,96.83,28.0,21.0,140,14,,6.21,29.852362,,,TRUE,,,,,,,,SCT,3400,,,,,,,VFR,,,,,,,,,,,,METAR,3.0
YPAD 230930Z 18011KT 9999 -RA BKN016 OVC090 16/13 Q1010,YPAD,2022-10-23T09:30:00Z,-34.95,138.52,16.0,13.0,180,11,,6.21,29.822834,,,,,,,,,,-RA,BKN,1600,OVC,9000,,,,,MVFR,,,,,,,,,,,,METAR,2.0
YMTG 230930Z AUTO 15013KT 9999 -RA OVC007 OVC060 12/12 Q1014,YMTG,2022-10-23T09:30:00Z,-37.75,140.78,12.0,12.0,150,13,,6.21,29.940945,,,TRUE,,,,,,,-RA,OVC,700,OVC,6000,,,,,IFR,,,,,,,,,,,,SPECI,65.0
YMML 230930Z 16010KT 9999 FEW039 SCT065 BKN120 16/12 Q1013,YMML,2022-10-23T09:30:00Z,-37.67,144.82,16.0,12.0,160,10,,6.21,29.911417,,,,,,,,,,,FEW,3900,SCT,6500,BKN,12000,,,VFR,,,,,,,,,,,,METAR,115.0
YMLT 230930Z AUTO 15017KT 9999 // OVC033 10/05 Q1024 RF00.0/000.4,YMLT,2022-10-23T09:30:00Z,-41.53,147.2,10.0,5.0,150,17,,6.21,30.236221,,,TRUE,,,,,,,,OVC,3300,,,,,,,VFR,,,,,,,,,,,,METAR,167.0
YMIA 230930Z AUTO 15006KT 9999 // BKN008 OVC090 17/17 Q1008,YMIA,2022-10-23T09:30:00Z,-34.23,142.08,17.0,17.0,150,6,,6.21,29.763779,,,TRUE,,,,,,,,BKN,800,OVC,9000,,,,,IFR,,,,,,,,,,,,SPECI,53.0
YMHB 230930Z 13011KT 9999 FEW030 BKN058 BKN150 11/04 Q1027 RF00.0/000.2,YMHB,2022-10-23T09:30:00Z,-42.83,147.52,11.0,4.0,130,11,,6.21,30.324802,,,,,,,,,,,FEW,3000,BKN,5800,BKN,15000,,,VFR,,,,,,,,,,,,METAR,2.0
YMER 230930Z AUTO 19005KT 9999 // BKN013 OVC018 16/15 Q1017,YMER,2022-10-23T09:30:00Z,-36.92,149.9,16.0,15.0,190,5,,6.21,30.029528,,,TRUE,,,,,,,,BKN,1300,OVC,1800,,,,,MVFR,,,,,,,,,,,,SPECI,2.0
YMAV 230930Z AUTO 12018KT 9999 // OVC024 16/12 Q1014 RF00.0/000.0,YMAV,2022-10-23T09:30:00Z,-38.03,144.48,16.0,12.0,120,18,,6.21,29.940945,,,TRUE,,,,,,,,OVC,2400,,,,,,,MVFR,,,,,,,,,,,,METAR,11.0
YLIS 230930Z AUTO 19009KT 5000 RA OVC008 OVC012 18/18 Q1008,YLIS,2022-10-23T09:30:00Z,-28.83,153.27,18.0,18.0,190,9,,3.11,29.763779,,,TRUE,,,,,,,RA,OVC,800,OVC,1200,,,,,IFR,,,,,,,,,,,,SPECI,6.0
YLHI 230930Z AUTO 08023KT 6000 // BKN018 20/17 Q1016 RF00.0/000.0,YLHI,2022-10-23T09:30:00Z,-31.53,159.07,20.0,17.0,80,23,,3.73,30.0,,,TRUE,,,,,,,,BKN,1800,,,,,,,MVFR,,,,,,,,,,,,METAR,2.0
YGFN 230930Z AUTO 16007KT 9999 -RA BKN012 OVC017 OVC021 18/18 Q1010,YGFN,2022-10-23T09:30:00Z,-29.77,153.03,18.0,18.0,160,7,,6.21,29.822834,,,TRUE,,,,,,,-RA,BKN,1200,OVC,1700,OVC,2100,,,MVFR,,,,,,,,,,,,SPECI,26.0
YCFS 230930Z AUTO 19009KT 3800 RA BKN011 BKN018 OVC024 18/17 Q1012,YCFS,2022-10-23T09:30:00Z,-30.32,153.12,18.0,17.0,190,9,,2.36,29.88189,,,TRUE,,,,,,,RA,BKN,1100,BKN,1800,OVC,2400,,,IFR,,,,,,,,,,,,SPECI,2.0
YCBA 230930Z AUTO 21005KT 2400 TS BKN042 BKN053 OVC075 17/16 Q1008,YCBA,2022-10-23T09:30:00Z,-31.53,145.8,17.0,16.0,210,5,,1.49,29.763779,,,TRUE,,,,,,,TS,BKN,4200,BKN,5300,OVC,7500,,,IFR,,,,,,,,,,,,SPECI,219.0
YBWW 230930Z AUTO 16009KT 9999 // NCD 18/16 Q1008 RF00.0/000.0,YBWW,2022-10-23T09:30:00Z,-27.55,151.8,18.0,16.0,160,9,,6.21,29.763779,,,TRUE,,,,,,,,CLR,,,,,,,,VFR,,,,,,,,,,,,METAR,460.0
YBRM 230930Z AUTO 27011KT 9999 // NCD 28/22 Q1006 RF00.0/000.0,YBRM,2022-10-23T09:30:00Z,-17.93,122.23,28.0,22.0,270,11,,6.21,29.704725,,,TRUE,,,,,,,,CLR,,,,,,,,VFR,,,,,,,,,,,,METAR,11.0
YBRK 230930Z AUTO 04004KT 9999 // NCD 25/18 Q1006 RF00.0/000.0,YBRK,2022-10-23T09:30:00Z,-23.37,150.47,25.0,18.0,40,4,,6.21,29.704725,,,TRUE,,,,,,,,CLR,,,,,,,,VFR,,,,,,,,,,,,METAR,10.0
YBLN 230930Z AUTO 18009KT 9999 // ////// 18/11 Q1008 RF00.0/000.0,YBLN,2022-10-23T09:30:00Z,-33.68,115.4,18.0,11.0,180,9,,6.21,29.763779,,,TRUE,,,,,,,,,,,,,,,,,,,,,,,,,,,,METAR,17.0
YBCG 230930Z AUTO 21012KT 9999 -SHRA BKN015 OVC021 18/17 Q1006 RESHRA,YBCG,2022-10-23T09:30:00Z,-28.17,153.5,18.0,17.0,210,12,,6.21,29.704725,,,TRUE,,,,,,,-SHRA,BKN,1500,OVC,2100,,,,,MVFR,,,,,,,,,,,,METAR,5.0
YBBN 230930Z AUTO 21011KT 9999 // OVC034 OVC067 20/16 Q1006,YBBN,2022-10-23T09:30:00Z,-27.38,153.13,20.0,16.0,210,11,,6.21,29.704725,,,TRUE,,,,,,,,OVC,3400,OVC,6700,,,,,VFR,,,,,,,,,,,,METAR,3.0
YBAS 230930Z AUTO 15012KT 9999 // NCD 29/10 Q1007 RF00.0/000.0,YBAS,2022-10-23T09:30:00Z,-23.8,133.9,29.0,10.0,150,12,,6.21,29.734253,,,TRUE,,,,,,,,CLR,,,,,,,,VFR,,,,,,,,,,,,METAR,549.0
WSSS 230930Z 36006KT 9999 FEW018 FEW020TCU SCT160 29/24 Q1009 NOSIG,WSSS,2022-10-23T09:30:00Z,1.37,103.97,29.0,24.0,360,6,,6.21,29.793306,,,,,,TRUE,,,,,FEW,1800,FEW,2000,SCT,16000,,,VFR,,,,,,,,,,,,METAR,17.0
WMKP 230930Z 03006KT 360V070 9999 FEW020 31/22 Q1008 NOSIG,WMKP,2022-10-23T09:30:00Z,5.28,100.27,31.0,22.0,30,6,,6.21,29.763779,,,,,,TRUE,,,,,FEW,2000,,,,,,,VFR,,,,,,,,,,,,METAR,4.0
WMKK 230930Z 26005KT 180V340 9999 VCSH FEW018 30/26 Q1008 NOSIG,WMKK,2022-10-23T09:30:00Z,2.75,101.72,30.0,26.0,260,5,,6.21,29.763779,,,,,,TRUE,,,,VCSH,FEW,1800,,,,,,,VFR,,,,,,,,,,,,METAR,21.0
WIPP 230930Z 28004KT 9999 SCT010 28/24 Q1008,WIPP,2022-10-23T09:30:00Z,-2.88,104.7,28.0,24.0,280,4,,6.21,29.763779,,,,,,,,,,,SCT,1000,,,,,,,VFR,,,,,,,,,,,,METAR,7.0
WIOO 230930Z 25006KT 9999 SCT014 29/24 Q1008 NOSIG,WIOO,2022-10-23T09:30:00Z,-0.15,109.4,29.0,24.0,250,6,,6.21,29.763779,,,,,,TRUE,,,,,SCT,1400,,,,,,,VFR,,,,,,,,,,,,METAR,4.0
WIMM 230930Z 00000KT 9999 SCT017 28/24 Q1008 NOSIG,WIMM,2022-10-23T09:30:00Z,3.57,98.67,28.0,24.0,0,0,,6.21,29.763779,,,,,,TRUE,,,,,SCT,1700,,,,,,,VFR,,,,,,,,,,,,METAR,27.0
WIII 230930Z 27009KT 9999 SCT020 31/25 Q1008 NOSIG,WIII,2022-10-23T09:30:00Z,-6.13,106.67,31.0,25.0,270,9,,6.21,29.763779,,,,,,TRUE,,,,,SCT,2000,,,,,,,VFR,,,,,,,,,,,,METAR,9.0
WIEE 230930Z 33003KT 270V360 9999 SCT020 28/25 Q1009,WIEE,2022-10-23T09:30:00Z,-0.78,100.28,28.0,25.0,330,3,,6.21,29.793306,,,,,,,,,,,SCT,2000,,,,,,,VFR,,,,,,,,,,,,METAR,5.0
WIDD 230930Z 35005KT 9999 SCT014 28/25 Q1010 NOSIG,WIDD,2022-10-23T09:30:00Z,1.12,104.12,28.0,25.0,350,5,,6.21,29.822834,,,,,,TRUE,,,,,SCT,1400,,,,,,,VFR,,,,,,,,,,,,METAR,26.0
WIBB 230930Z 28005KT 8000 SCT012 29/24 Q1007,WIBB,2022-10-23T09:30:00Z,0.47,101.45,29.0,24.0,280,5,,4.97,29.734253,,,,,,,,,,,SCT,1200,,,,,,,MVFR,,,,,,,,,,,,METAR,41.0
WBSB 230930Z 30005KT 9999 SCT015 FEW016CB BKN140 28/27 Q1009 NOSIG,WBSB,2022-10-23T09:30:00Z,4.93,114.92,28.0,27.0,300,5,,6.21,29.793306,,,,,,TRUE,,,,,SCT,1500,FEW,1600,BKN,14000,,,VFR,,,,,,,,,,,,METAR,15.0
WBKK 230930Z 07003KT 9999 FEW014 28/25 Q1008 NOSIG,WBKK,2022-10-23T09:30:00Z,5.93,116.05,28.0,25.0,70,3,,6.21,29.763779,,,,,,TRUE,,,,,FEW,1400,,,,,,,VFR,,,,,,,,,,,,METAR,9.0
WBGG 230930Z 28006KT 220V320 9999 -TSRA FEW015CB SCT018 27/25 Q1007 NOSIG,WBGG,2022-10-23T09:30:00Z,1.48,110.35,27.0,25.0,280,6,,6.21,29.734253,,,,,,TRUE,,,,-TSRA,FEW,1500,SCT,1800,,,,,VFR,,,,,,,,,,,,METAR,26.0
WARR 230930Z 30007KT 6000 TSRA SCT020CB 25/24 Q1008 TEMPO TL1000 4000 -TSRA,WARR,2022-10-23T09:30:00Z,-7.37,112.78,25.0,24.0,300,7,,3.73,29.763779,,,,,,,,,,TSRA,SCT,2000,,,,,,,MVFR,,,,,,,,,,,,METAR,3.0
WAQQ 230930Z 07004KT 9999 SCT015 30/24 Q1007 NOSIG,WAQQ,2022-10-23T09:30:00Z,3.33,117.57,30.0,24.0,70,4,,6.21,29.734253,,,,,,TRUE,,,,,SCT,1500,,,,,,,VFR,,,,,,,,,,,,METAR,6.0
WAPP 230930Z 24006KT 9999 FEW018 29/25 Q1007 NOSIG,WAPP,2022-10-23T09:30:00Z,-3.7,128.08,29.0,25.0,240,6,,6.21,29.734253,,,,,,TRUE,,,,,FEW,1800,,,,,,,VFR,,,,,,,,,,,,METAR,20.0
WAOO 230930Z 22004KT 9999 SCT017 29/25 Q1006 NOSIG,WAOO,2022-10-23T09:30:00Z,-3.45,114.77,29.0,25.0,220,4,,6.21,29.704725,,,,,,TRUE,,,,,SCT,1700,,,,,,,VFR,,,,,,,,,,,,METAR,23.0
WAMM 230930Z VRB02KT 5000 -RA FEW017CB SCT018 26/25 Q1009 TEMPO TL1100 3000 RA FEW017CB SCT018,WAMM,2022-10-23T09:30:00Z,1.55,124.92,26.0,25.0,0,2,,3.11,29.793306,,,,,,,,,,-RA,FEW,1700,SCT,1800,,,,,MVFR,,,,,,,,,,,,METAR,86.0
WALL 230930Z 09002KT 9999 FEW020CB FEW020 29/26 Q1007 RMK CB TO NW,WALL,2022-10-23T09:30:00Z,-1.27,116.9,29.0,26.0,90,2,,6.21,29.734253,,,,,,,,,,,FEW,2000,FEW,2000,,,,,VFR,,,,,,,,,,,,METAR,3.0
WAJJ 230930Z 25004KT 9999 VCTS FEW011CB SCT012 28/24 Q1006 NOSIG RMK CB AT SW,WAJJ,2022-10-23T09:30:00Z,-2.58,140.52,28.0,24.0,250,4,,6.21,29.704725,,,,,,TRUE,,,,VCTS,FEW,1100,SCT,1200,,,,,VFR,,,,,,,,,,,,SPECI,93.0
WAHS 230930Z 30005KT 7000 SCT014 28/24 Q1007,WAHS,2022-10-23T09:30:00Z,-6.98,110.38,28.0,24.0,300,5,,4.35,29.734253,,,,,,,,,,,SCT,1400,,,,,,,MVFR,,,,,,,,,,,,METAR,3.0
WADL 230930Z 24003KT 200V260 8000 BKN016 29/25 Q1008 NOSIG,WADL,2022-10-23T09:30:00Z,-8.75,116.28,29.0,25.0,240,3,,4.97,29.763779,,,,,,TRUE,,,,,BKN,1600,,,,,,,MVFR,,,,,,,,,,,,METAR,97.0
WADD 230930Z 26008KT 9999 FEW017 30/26 Q1007 NOSIG,WADD,2022-10-23T09:30:00Z,-8.73,115.17,30.0,26.0,260,8,,6.21,29.734253,,,,,,TRUE,,,,,FEW,1700,,,,,,,VFR,,,,,,,,,,,,METAR,3.0
WAAA 230930Z 12006KT 9000 FEW018CB SCT019 25/24 Q1007 RERA NOSIG RMK CB IN APCH,WAAA,2022-10-23T09:30:00Z,-5.07,119.55,25.0,24.0,120,6,,5.59,29.734253,,,,,,TRUE,,,,,FEW,1800,SCT,1900,,,,,VFR,,,,,,,,,,,,METAR,13.0
VYYY 230930Z 14010KT 7000 BKN018 FEW025CB 33/24 Q1008,VYYY,2022-10-23T09:30:00Z,16.9,96.13,33.0,24.0,140,10,,4.35,29.763779,,,,,,,,,,,BKN,1800,FEW,2500,,,,,MVFR,,,,,,,,,,,,METAR,31.0
VYMD 230930Z 17002KT 8000 BKN020 36/21 Q1008 NOSIG,VYMD,2022-10-23T09:30:00Z,21.7,95.98,36.0,21.0,170,2,,4.97,29.763779,,,,,,TRUE,,,,,BKN,2000,,,,,,,MVFR,,,,,,,,,,,,METAR,87.0
VVTS 230930Z 30004KT 9999 SCT015 FEW017CB 29/25 Q1008 NOSIG RMK CB/N/NW,VVTS,2022-10-23T09:30:00Z,10.82,106.67,29.0,25.0,300,4,,6.21,29.763779,,,,,,TRUE,,,,,SCT,1500,FEW,1700,,,,,VFR,,,,,,,,,,,,METAR,10.0
VVPQ 230930Z 21006KT 9999 SCT015 30/25 Q1008 NOSIG,VVPQ,2022-10-23T09:30:00Z,10.23,103.97,30.0,25.0,210,6,,6.21,29.763779,,,,,,TRUE,,,,,SCT,1500,,,,,,,VFR,,,,,,,,,,,,METAR,8.0
VVPB 230930Z 29006KT 8000 FEW020 BKN050 26/24 Q1013 NOSIG,VVPB,2022-10-23T09:30:00Z,16.38,107.7,26.0,24.0,290,6,,4.97,29.911417,,,,,,TRUE,,,,,FEW,2000,BKN,5000,,,,,MVFR,,,,,,,,,,,,METAR,15.0
VVNB 230930Z 04004KT 350V090 CAVOK 33/20 Q1012 NOSIG,VVNB,2022-10-23T09:30:00Z,21.22,105.8,33.0,20.0,40,4,,6.21,29.88189,,,,,,TRUE,,,,,CAVOK,,,,,,,,VFR,,,,,,,,,,,,METAR,6.0
VVDN 230930Z 36010KT 9999 FEW015 28/21 Q1012 NOSIG,VVDN,2022-10-23T09:30:00Z,16.03,108.2,28.0,21.0,360,10,,6.21,29.88189,,,,,,TRUE,,,,,FEW,1500,,,,,,,VFR,,,,,,,,,,,,METAR,7.0
VVCT 230930Z 01004KT 9999 SCT013 FEW015CB 29/25 Q1007 NOSIG CB/OVER RWY,VVCT,2022-10-23T09:30:00Z,10.08,105.72,29.0,25.0,10,4,,6.21,29.734253,,,,,,TRUE,,,,,SCT,1300,FEW,1500,,,,,VFR,,,,,,,,,,,,METAR,6.0
VVCR 230930Z 04013KT 9999 FEW015 29/21 Q1011 NOSIG,VVCR,2022-10-23T09:30:00Z,12.0,109.22,29.0,21.0,40,13,,6.21,29.852362,,,,,,TRUE,,,,,FEW,1500,,,,,,,VFR,,,,,,,,,,,,METAR,12.0
VVCI 230930Z 14007KT CAVOK 29/21 Q1012 NOSIG,VVCI,2022-10-23T09:30:00Z,20.82,106.73,29.0,21.0,140,7,,6.21,29.88189,,,,,,TRUE,,,,,CAVOK,,,,,,,,VFR,,,,,,,,,,,,METAR,6.0
VTSS 230930Z 06005KT 9999 FEW020 BKN100 30/23 Q1009 NOSIG,VTSS,2022-10-23T09:30:00Z,6.92,100.38,30.0,23.0,60,5,,6.21,29.793306,,,,,,TRUE,,,,,FEW,2000,BKN,10000,,,,,VFR,,,,,,,,,,,,METAR,28.0
VTSP 230930Z 30009KT 9999 FEW020 30/25 Q1009 NOSIG,VTSP,2022-10-23T09:30:00Z,8.12,98.32,30.0,25.0,300,9,,6.21,29.793306,,,,,,TRUE,,,,,FEW,2000,,,,,,,VFR,,,,,,,,,,,,METAR,12.0
VTCC 230930Z 33006KT 9999 BKN035 28/22 Q1012 NOSIG,VTCC,2022-10-23T09:30:00Z,18.77,98.97,28.0,22.0,330,6,,6.21,29.88189,,,,,,TRUE,,,,,BKN,3500,,,,,,,VFR,,,,,,,,,,,,METAR,308.0
VTBU 230930Z 31006KT 7000 FEW020 30/25 Q1009 NOSIG,VTBU,2022-10-23T09:30:00Z,12.68,101.0,30.0,25.0,310,6,,4.35,29.793306,,,,,,TRUE,,,,,FEW,2000,,,,,,,MVFR,,,,,,,,,,,,METAR,12.0
VTBS 230930Z 09006KT 020V130 9999 FEW030 32/22 Q1009 NOSIG,VTBS,2022-10-23T09:30:00Z,13.68,100.75,32.0,22.0,90,6,,6.21,29.793306,,,,,,TRUE,,,,,FEW,3000,,,,,,,VFR,,,,,,,,,,,,METAR,1.0
VTBD 230930Z 33008KT 290V010 9999 FEW020 32/22 Q1009 NOSIG,VTBD,2022-10-23T09:30:00Z,13.92,100.6,32.0,22.0,330,8,,6.21,29.793306,,,,,,TRUE,,,,,FEW,2000,,,,,,,VFR,,,,,,,,,,,,METAR,6.0
VQPR 230930Z 16013KT 9999 SCT040 SCT080 21/03 Q1023,VQPR,2022-10-23T09:30:00Z,27.4,89.43,21.0,3.0,160,13,,6.21,30.206694,,,,,,,,,,,SCT,4000,SCT,8000,,,,,VFR,,,,,,,,,,,,METAR,2227.0
VOVZ 230930Z 02005KT 5000 HZ FEW018 BKN220 31/19 Q1006 NOSIG,VOVZ,2022-10-23T09:30:00Z,17.72,83.22,31.0,19.0,20,5,,3.11,29.704725,,,,,,TRUE,,,,HZ,FEW,1800,BKN,22000,,,,,MVFR,,,,,,,,,,,,METAR,4.0
VOTV 230930Z 27006KT 6000 FEW015 FEW025CB BKN080 30/24 Q1010 TEMPO TS,VOTV,2022-10-23T09:30:00Z,8.48,76.92,30.0,24.0,270,6,,3.73,29.822834,,,,,,,,,,,FEW,1500,FEW,2500,BKN,8000,,,MVFR,,,,,,,,,,,,SPECI,9.0
VOTR 230930Z 27008KT 4000 HZ SCT015 SCT100 32/24 Q1008 NOSIG,VOTR,2022-10-23T09:30:00Z,10.77,78.72,32.0,24.0,270,8,,2.49,29.763779,,,,,,TRUE,,,,HZ,SCT,1500,SCT,10000,,,,,IFR,,,,,,,,,,,,METAR,90.0
VOTP 230930Z 34010KT 6000 FEW020 33/14 Q1008 NOSIG,VOTP,2022-10-23T09:30:00Z,13.63,79.55,33.0,14.0,340,10,,3.73,29.763779,,,,,,TRUE,,,,,FEW,2000,,,,,,,MVFR,,,,,,,,,,,,METAR,103.0
VOTK 230930Z 18002KT 5000 HZ SCT018 FEW030CB BKN100 30/24 Q1009 NOSIG,VOTK,2022-10-23T09:30:00Z,8.72,78.02,30.0,24.0,180,2,,3.11,29.793306,,,,,,TRUE,,,,HZ,SCT,1800,FEW,3000,BKN,10000,,,MVFR,,,,,,,,,,,,METAR,25.0
VORY 230930Z 30005KT 6000 FEW020 BKN090 34/20 Q1007 NOSIG,VORY,2022-10-23T09:30:00Z,17.1,81.82,34.0,20.0,300,5,,3.73,29.734253,,,,,,TRUE,,,,,FEW,2000,BKN,9000,,,,,MVFR,,,,,,,,,,,,METAR,47.0
VOMY 230930Z 31006KT 6000 SCT015 29/18 Q1013,VOMY,2022-10-23T09:30:00Z,12.23,76.65,29.0,18.0,310,6,,3.73,29.911417,,,,,,,,,,,SCT,1500,,,,,,,MVFR,,,,,,,,,,,,METAR,727.0
VOMM 230930Z 33009KT 6000 FEW020 SCT100 33/22 Q1007 NOSIG,VOMM,2022-10-23T09:30:00Z,13.0,80.17,33.0,22.0,330,9,,3.73,29.734253,,,,,,TRUE,,,,,FEW,2000,SCT,10000,,,,,MVFR,,,,,,,,,,,,METAR,7.0
VOML 230930Z 26008KT 5000 HZ SCT015 FEW025TCU 32/23 Q1009 NOSIG,VOML,2022-10-23T09:30:00Z,12.97,74.88,32.0,23.0,260,8,,3.11,29.793306,,,,,,TRUE,,,,HZ,SCT,1500,FEW,2500,,,,,MVFR,,,,,,,,,,,,METAR,100.0
VOMD 230930Z 21005KT 5000 HZ FEW020 33/23 Q1009 NOSIG,VOMD,2022-10-23T09:30:00Z,9.83,78.08,33.0,23.0,210,5,,3.11,29.793306,,,,,,TRUE,,,,HZ,FEW,2000,,,,,,,MVFR,,,,,,,,,,,,METAR,135.0
VOKU 230930Z 32012KT 5000 HZ NSC 30/09 Q1012,VOKU,2022-10-23T09:30:00Z,15.72,78.17,30.0,9.0,320,12,,3.11,29.88189,,,,,,,,,,HZ,CLR,,,,,,,,MVFR,,,,,,,,,,,,METAR,280.0
VOKN 230930Z 29009KT 6000 SCT012 FEW025TCU 32/26 Q1009 NOSIG,VOKN,2022-10-23T09:30:00Z,11.92,75.55,32.0,26.0,290,9,,3.73,29.793306,,,,,,TRUE,,,,,SCT,1200,FEW,2500,,,,,MVFR,,,,,,,,,,,,METAR,105.0
VOHY 230930Z 34006KT 6000 NSC 28/11 Q1013 NOSIG,VOHY,2022-10-23T09:30:00Z,17.45,78.47,28.0,11.0,340,6,,3.73,29.911417,,,,,,TRUE,,,,,CLR,,,,,,,,MVFR,,,,,,,,,,,,METAR,540.0
VOHS 230930Z 01010KT 6000 FEW020 29/14 Q1013 NOSIG,VOHS,2022-10-23T09:30:00Z,17.23,78.43,29.0,14.0,10,10,,3.73,29.911417,,,,,,TRUE,,,,,FEW,2000,,,,,,,MVFR,,,,,,,,,,,,METAR,607.0
VOHB 230930Z 06007KT 8000 NSC 29/14 Q1013,VOHB,2022-10-23T09:30:00Z,15.37,75.08,29.0,14.0,60,7,,4.97,29.911417,,,,,,,,,,,CLR,,,,,,,,MVFR,,,,,,,,,,,,METAR,661.0
VOGB 230930Z 02005KT 8000 NSC 29/14 Q1013,VOGB,2022-10-23T09:30:00Z,17.35,76.85,29.0,14.0,20,5,,4.97,29.911417,,,,,,,,,,,CLR,,,,,,,,MVFR,,,,,,,,,,,,METAR,458.0
VOCP 230930Z 36009KT 6000 FEW020 32/13 Q1009 NOSIG,VOCP,2022-10-23T09:30:00Z,14.5,78.77,32.0,13.0,360,9,,3.73,29.793306,,,,,,TRUE,,,,,FEW,2000,,,,,,,MVFR,,,,,,,,,,,,METAR,134.0
VOCL 230930Z 24008KT 6000 SCT012 SCT018 FEW025CB 28/23 Q1009 NOSIG,VOCL,2022-10-23T09:30:00Z,11.13,75.95,28.0,23.0,240,8,,3.73,29.793306,,,,,,TRUE,,,,,SCT,1200,SCT,1800,FEW,2500,,,MVFR,,,,,,,,,,,,METAR,104.0
VOCI 230930Z 27008KT 6000 SCT015 SCT080 30/25 Q1009 NOSIG,VOCI,2022-10-23T09:30:00Z,10.15,76.4,30.0,25.0,270,8,,3.73,29.793306,,,,,,TRUE,,,,,SCT,1500,SCT,8000,,,,,MVFR,,,,,,,,,,,,METAR,8.0
VOCB 230930Z 20006KT 6000 SCT012 FEW020TCU 32/20 Q1010 NOSIG,VOCB,2022-10-23T09:30:00Z,11.02,77.03,32.0,20.0,200,6,,3.73,29.822834,,,,,,TRUE,,,,,SCT,1200,FEW,2000,,,,,MVFR,,,,,,,,,,,,METAR,394.0
VOBZ 230930Z 30005KT 6000 NSC 33/21 Q1007 NOSIG,VOBZ,2022-10-23T09:30:00Z,16.52,80.78,33.0,21.0,300,5,,3.73,29.734253,,,,,,TRUE,,,,,CLR,,,,,,,,MVFR,,,,,,,,,,,,METAR,26.0
VOBM 230930Z 05008KT CAVOK 28/11 Q1015,VOBM,2022-10-23T09:30:00Z,15.85,74.62,28.0,11.0,50,8,,6.21,29.970472,,,,,,,,,,,CAVOK,,,,,,,,VFR,,,,,,,,,,,,METAR,758.0
VOBL 230930Z 31011KT 8000 FEW012 26/11 Q1015 NOSIG,VOBL,2022-10-23T09:30:00Z,13.2,77.7,26.0,11.0,310,11,,4.97,29.970472,,,,,,TRUE,,,,,FEW,1200,,,,,,,MVFR,,,,,,,,,,,,METAR,908.0
VOBG 230930Z 36006KT 6000 FEW012 28/15 Q1014 NOSIG,VOBG,2022-10-23T09:30:00Z,12.95,77.65,28.0,15.0,360,6,,3.73,29.940945,,,,,,TRUE,,,,,FEW,1200,,,,,,,MVFR,,,,,,,,,,,,METAR,884.0
VOAT 230930Z 00000KT 6000 SCT015 32/24 Q1010 NOSIG,VOAT,2022-10-23T09:30:00Z,10.82,72.18,32.0,24.0,0,0,,3.73,29.822834,,,,,,TRUE,,,,,SCT,1500,,,,,,,MVFR,,,,,,,,,,,,METAR,5.0
VNKT 230930Z 21005KT 9999 FEW025 SCT040 26/06 Q1020 NOSIG,VNKT,2022-10-23T09:30:00Z,27.68,85.37,26.0,6.0,210,5,,6.21,30.11811,,,,,,TRUE,,,,,FEW,2500,SCT,4000,,,,,VFR,,,,,,,,,,,,METAR,1334.0
VMMC 230930Z 12014KT 9999 SCT045 26/23 Q1013 NOSIG,VMMC,2022-10-23T09:30:00Z,22.15,113.58,26.0,23.0,120,14,,6.21,29.911417,,,,,,TRUE,,,,,SCT,4500,,,,,,,VFR,,,,,,,,,,,,METAR,1.0
VLVT 230930Z 12006KT 8000 FEW020 32/21 Q1011 NOSIG,VLVT,2022-10-23T09:30:00Z,17.98,102.57,32.0,21.0,120,6,,4.97,29.852362,,,,,,TRUE,,,,,FEW,2000,,,,,,,MVFR,,,,,,,,,,,,METAR,171.0
VILK 230930Z VRB02KT 5000 HZ FEW020 SCT025 30/21 Q1012 NOSIG,VILK,2022-10-23T09:30:00Z,26.75,80.88,30.0,21.0,0,2,,3.11,29.88189,,,,,,TRUE,,,,HZ,FEW,2000,SCT,2500,,,,,MVFR,,,,,,,,,,,,METAR,121.0
VIJP 230930Z 31006KT 4000 HZ NSC 32/10 Q1015 NOSIG,VIJP,2022-10-23T09:30:00Z,26.82,75.8,32.0,10.0,310,6,,2.49,29.970472,,,,,,TRUE,,,,HZ,CLR,,,,,,,,IFR,,,,,,,,,,,,METAR,383.0
VIDP 230930Z 28003KT 3500 HZ NSC 30/09 Q1015 NOSIG,VIDP,2022-10-23T09:30:00Z,28.57,77.12,30.0,9.0,280,3,,2.17,29.970472,,,,,,TRUE,,,,HZ,CLR,,,,,,,,IFR,,,,,,,,,,,,METAR,236.0
VIAR 230930Z 30006KT 6000 NSC 30/10 Q1015 NOSIG,VIAR,2022-10-23T09:30:00Z,31.7,74.8,30.0,10.0,300,6,,3.73,29.970472,,,,,,TRUE,,,,,CLR,,,,,,,,MVFR,,,,,,,,,,,,METAR,226.0
VHHH 230930Z 11011KT 9999 FEW020 28/21 Q1013 NOSIG,VHHH,2022-10-23T09:30:00Z,22.32,113.92,28.0,21.0,110,11,,6.21,29.911417,,,,,,TRUE,,,,,FEW,2000,,,,,,,VFR,,,,,,,,,,,,METAR,9.0
VGHS 230930Z 22003KT 3500 DZ SCT012 BKN100 30/26 Q1009 NOSIG,VGHS,2022-10-23T09:30:00Z,23.85,90.4,30.0,26.0,220,3,,2.17,29.793306,,,,,,TRUE,,,,DZ,SCT,1200,BKN,10000,,,,,IFR,,,,,,,,,,,,METAR,11.0
VERU 230930Z 08006KT 6000 HZ SCT020 BKN100 30/23 Q1010 NOSIG,VERU,2022-10-23T09:30:00Z,26.13,89.92,30.0,23.0,80,6,,3.73,29.822834,,,,,,TRUE,,,,HZ,SCT,2000,BKN,10000,,,,,MVFR,,,,,,,,,,,,METAR,45.0
VERP 230930Z 01009KT 5000 HZ NSC 31/17 Q1011 NOSIG,VERP,2022-10-23T09:30:00Z,21.18,81.73,31.0,17.0,10,9,,3.11,29.852362,,,,,,TRUE,,,,HZ,CLR,,,,,,,,MVFR,,,,,,,,,,,,METAR,318.0
VERC 230930Z 36006KT 5000 HZ FEW020 SCT100 27/15 Q1013 NOSIG,VERC,2022-10-23T09:30:00Z,23.32,85.32,27.0,15.0,360,6,,3.11,29.911417,,,,,,TRUE,,,,HZ,FEW,2000,SCT,10000,,,,,MVFR,,,,,,,,,,,,METAR,646.0
VEPT 230930Z 32003KT 5000 HZ FEW020 SCT100 33/19 Q1009 NOSIG,VEPT,2022-10-23T09:30:00Z,25.6,85.08,33.0,19.0,320,3,,3.11,29.793306,,,,,,TRUE,,,,HZ,FEW,2000,SCT,10000,,,,,MVFR,,,,,,,,,,,,METAR,53.0
VEMN 230930Z 01003KT 5000 HZ SCT018 BKN100 29/20 Q1011 NOSIG,VEMN,2022-10-23T09:30:00Z,27.47,95.02,29.0,20.0,10,3,,3.11,29.852362,,,,,,TRUE,,,,HZ,SCT,1800,BKN,10000,,,,,MVFR,,,,,,,,,,,,METAR,111.0
VELP 230930Z 11002KT 5000 BR SCT018 SCT025 BKN100 27/24 Q1012 NOSIG,VELP,2022-10-23T09:30:00Z,23.83,92.62,27.0,24.0,110,2,,3.11,29.88189,,,,,,TRUE,,,,BR,SCT,1800,SCT,2500,BKN,10000,,,MVFR,,,,,,,,,,,,METAR,429.0
VEJR 230930Z 05007KT 5000 HZ SCT100 28/15 Q1011,VEJR,2022-10-23T09:30:00Z,19.07,82.03,28.0,15.0,50,7,,3.11,29.852362,,,,,,,,,,HZ,SCT,10000,,,,,,,MVFR,,,,,,,,,,,,METAR,555.0
VEJH 230930Z 36006KT 4000 HZ BKN100 31/19 Q1010,VEJH,2022-10-23T09:30:00Z,21.92,84.03,31.0,19.0,360,6,,2.49,29.822834,,,,,,,,,,HZ,BKN,10000,,,,,,,IFR,,,,,,,,,,,,METAR,231.0
VEIM 230930Z 26004KT 5000 HZ SCT018 BKN100 27/21 Q1015 NOSIG,VEIM,2022-10-23T09:30:00Z,24.77,93.9,27.0,21.0,260,4,,3.11,29.970472,,,,,,TRUE,,,,HZ,SCT,1800,BKN,10000,,,,,MVFR,,,,,,,,,,,,METAR,777.0
VEGY 230930Z 00000KT 4000 HZ FEW100 31/20 Q1011 NOSIG,VEGY,2022-10-23T09:30:00Z,24.75,84.95,31.0,20.0,0,0,,2.49,29.852362,,,,,,TRUE,,,,HZ,FEW,10000,,,,,,,IFR,,,,,,,,,,,,METAR,115.0
VEGT 230930Z 00000KT 3000 BR SCT018 BKN100 27/25 Q1010 NOSIG,VEGT,2022-10-23T09:30:00Z,26.1,91.58,27.0,25.0,0,0,,1.86,29.822834,,,,,,TRUE,,,,BR,SCT,1800,BKN,10000,,,,,IFR,,,,,,,,,,,,METAR,50.0
VEDO 230930Z 36004KT 5000 HZ SCT100 31/12 Q1011 NOSIG,VEDO,2022-10-23T09:30:00Z,,,31.0,12.0,360,4,,3.11,29.852362,,,,,,TRUE,,,,HZ,SCT,10000,,,,,,,MVFR,,,,,,,,,,,,METAR,
VEDG 230930Z 04004KT 5000 HZ SCT020 BKN090 32/20 Q1009 NOSIG,VEDG,2022-10-23T09:30:00Z,23.62,87.25,32.0,20.0,40,4,,3.11,29.793306,,,,,,TRUE,,,,HZ,SCT,2000,BKN,9000,,,,,MVFR,,,,,,,,,,,,METAR,88.0
VECC 230930Z 11004KT 2800 HZ SCT018 BKN090 28/24 Q1008 NOSIG,VECC,2022-10-23T09:30:00Z,22.65,88.43,28.0,24.0,110,4,,1.74,29.763779,,,,,,TRUE,,,,HZ,SCT,1800,BKN,9000,,,,,IFR,,,,,,,,,,,,METAR,11.0
VEBS 230930Z 02007KT 3500 HZ SCT018 SCT100 29/24 Q1008 NOSIG,VEBS,2022-10-23T09:30:00Z,20.25,85.82,29.0,24.0,20,7,,2.17,29.763779,,,,,,TRUE,,,,HZ,SCT,1800,SCT,10000,,,,,IFR,,,,,,,,,,,,METAR,42.0
VEBN 230930Z 32004KT 4000 HZ NSC 34/18 Q1011 NOSIG,VEBN,2022-10-23T09:30:00Z,25.45,82.85,34.0,18.0,320,4,,2.49,29.852362,,,,,,TRUE,,,,HZ,CLR,,,,,,,,IFR,,,,,,,,,,,,METAR,81.0
VEAT 230930Z 00000KT 3000 BR FEW018 BKN100 30/26 Q1009 NOSIG,VEAT,2022-10-23T09:30:00Z,23.88,91.25,30.0,26.0,0,0,,1.86,29.793306,,,,,,TRUE,,,,BR,FEW,1800,BKN,10000,,,,,IFR,,,,,,,,,,,,METAR,20.0
VDSV 230930Z 26007KT 9999 TS SCT015 FEW017CB 30/25 Q1008 RMK CB:N,VDSV,2022-10-23T09:30:00Z,10.58,103.63,30.0,25.0,260,7,,6.21,29.763779,,,,,,,,,,TS,SCT,1500,FEW,1700,,,,,VFR,,,,,,,,,,,,METAR,1.0
VDSR 230930Z 20007KT 170V230 9999 SCT015 30/25 Q1007,VDSR,2022-10-23T09:30:00Z,13.42,103.8,30.0,25.0,200,7,,6.21,29.734253,,,,,,,,,,,SCT,1500,,,,,,,VFR,,,,,,,,,,,,METAR,16.0
VDPP 230930Z 02007KT 330V040 9999 SCT015 FEW017CB 31/24 Q1008 RMK CB:W/S/SE,VDPP,2022-10-23T09:30:00Z,11.55,104.83,31.0,24.0,20,7,,6.21,29.763779,,,,,,,,,,,SCT,1500,FEW,1700,,,,,VFR,,,,,,,,,,,,METAR,10.0
VAUD 230930Z 04002KT 6000 NSC 32/07 Q1016 NOSIG,VAUD,2022-10-23T09:30:00Z,24.62,73.9,32.0,7.0,40,2,,3.73,30.0,,,,,,TRUE,,,,,CLR,,,,,,,,MVFR,,,,,,,,,,,,METAR,506.0
VASU 230930Z 05008KT 6000 NSC 35/13 Q1012 NOSIG,VASU,2022-10-23T09:30:00Z,21.12,72.73,35.0,13.0,50,8,,3.73,29.88189,,,,,,TRUE,,,,,CLR,,,,,,,,MVFR,,,,,,,,,,,,METAR,6.0
VASD 230930Z 09008KT 5000 HZ NSC 29/06 Q1015 NOSIG,VASD,2022-10-23T09:30:00Z,19.68,74.38,29.0,6.0,90,8,,3.11,29.970472,,,,,,TRUE,,,,HZ,CLR,,,,,,,,MVFR,,,,,,,,,,,,METAR,587.0
VANP 230930Z 04004KT 5000 NSC 31/17 Q1013 NOSIG,VANP,2022-10-23T09:30:00Z,21.08,79.05,31.0,17.0,40,4,,3.11,29.911417,,,,,,TRUE,,,,,CLR,,,,,,,,MVFR,,,,,,,,,,,,METAR,309.0
VAKP 230930Z 01007KT 8000 FEW020 29/11 Q1014,VAKP,2022-10-23T09:30:00Z,16.65,74.28,29.0,11.0,10,7,,4.97,29.940945,,,,,,,,,,,FEW,2000,,,,,,,MVFR,,,,,,,,,,,,METAR,612.0
VAJJ 230930Z 04008KT 5000 FU NSC 33/14 Q1011 NOSIG,VAJJ,2022-10-23T09:30:00Z,19.08,72.83,33.0,14.0,40,8,,3.11,29.852362,,,,,,TRUE,,,,FU,CLR,,,,,,,,MVFR,,,,,,,,,,,,METAR,1.0
VAJB 230930Z 36010KT 4000 HZ FEW030 30/15 Q1014 NOSIG,VAJB,2022-10-23T09:30:00Z,23.18,80.05,30.0,15.0,360,10,,2.49,29.940945,,,,,,TRUE,,,,HZ,FEW,3000,,,,,,,IFR,,,,,,,,,,,,METAR,489.0
VAID 230930Z 08005KT 6000 NSC 31/10 Q1015 NOSIG,VAID,2022-10-23T09:30:00Z,22.72,75.8,31.0,10.0,80,5,,3.73,29.970472,,,,,,TRUE,,,,,CLR,,,,,,,,MVFR,,,,,,,,,,,,METAR,564.0
VABV 230930Z 33007KT 6000 NSC 35/09 Q1012,VABV,2022-10-23T09:30:00Z,21.75,72.2,35.0,9.0,330,7,,3.73,29.88189,,,,,,,,,,,CLR,,,,,,,,MVFR,,,,,,,,,,,,METAR,8.0
VABP 230930Z 33010KT 6000 NSC 31/06 Q1014 NOSIG,VABP,2022-10-23T09:30:00Z,23.28,77.33,31.0,6.0,330,10,,3.73,29.940945,,,,,,TRUE,,,,,CLR,,,,,,,,MVFR,,,,,,,,,,,,METAR,520.0
VABO 230930Z 02004KT 6000 NSC 35/14 Q1012 NOSIG,VABO,2022-10-23T09:30:00Z,22.33,73.22,35.0,14.0,20,4,,3.73,29.88189,,,,,,TRUE,,,,,CLR,,,,,,,,MVFR,,,,,,,,,,,,METAR,36.0
VABB 230930Z 03007KT 5000 FU FEW020 33/12 Q1011 NOSIG,VABB,2022-10-23T09:30:00Z,19.1,72.87,33.0,12.0,30,7,,3.11,29.852362,,,,,,TRUE,,,,FU,FEW,2000,,,,,,,MVFR,,,,,,,,,,,,METAR,14.0
VAAH 230930Z 06006KT 6000 NSC 36/14 Q1012 NOSIG,VAAH,2022-10-23T09:30:00Z,23.07,72.63,36.0,14.0,60,6,,3.73,29.88189,,,,,,TRUE,,,,,CLR,,,,,,,,MVFR,,,,,,,,,,,,METAR,52.0
UWWW 230930Z 19004MPS 9999 SCT033 03/M02 Q1024 R15/CLRD60 NOSIG RMK QFE756/1009,UWWW,2022-10-23T09:30:00Z,53.5,50.17,3.0,-2.0,190,8,,6.21,30.236221,,,,,,TRUE,,,,,SCT,3300,,,,,,,VFR,,,,,,,,,,,,SPECI,124.0
UWUU 230930Z 22004MPS 200V260 9999 SCT040 05/M05 Q1026 R14R/0///60 NOSIG,UWUU,2022-10-23T09:30:00Z,54.57,55.87,5.0,-5.0,220,8,,6.21,30.295275,,,,,,TRUE,,,,,SCT,4000,,,,,,,VFR,,,,,,,,,,,,SPECI,137.0
UWSG 230930Z 18003MPS 160V220 CAVOK 08/02 Q1024 R26/CLRD70 NOSIG RMK QFE765/1021,UWSG,2022-10-23T09:30:00Z,51.72,46.17,8.0,2.0,180,6,,6.21,30.236221,,,,,,TRUE,,,,,CAVOK,,,,,,,,VFR,,,,,,,,,,,,METAR,31.0
UWPS 230930Z 20005MPS 9999 OVC020 05/01 Q1021 R20/CLRD60 NOSIG RMK QFE748,UWPS,2022-10-23T09:30:00Z,54.12,45.2,5.0,1.0,200,10,,6.21,30.147638,,,,,,TRUE,,,,,OVC,2000,,,,,,,MVFR,,,,,,,,,,,,METAR,206.0
UWOO 230930Z 19005MPS CAVOK 04/M04 Q1030 R26/65D NOSIG RMK QFE761/1015,UWOO,2022-10-23T09:30:00Z,51.8,55.47,4.0,-4.0,190,10,,6.21,30.413385,,,,,,TRUE,,,,,CAVOK,,,,,,,,VFR,,,,,,,,,,,,METAR,90.0
UWLL 230930Z 20006MPS 9999 BKN015CB 05/02 Q1023 R20/090065 NOSIG RMK QFE757/1009,UWLL,2022-10-23T09:30:00Z,54.27,48.23,5.0,2.0,200,12,,6.21,30.206694,,,,,,TRUE,,,,,BKN,1500,,,,,,,MVFR,,,,,,,,,,,,SPECI,119.0
UWKS 230930Z 21005MPS 9999 BKN046 04/M01 Q1019 R24/010060 NOSIG RMK QFE750,UWKS,2022-10-23T09:30:00Z,56.08,47.35,4.0,-1.0,210,10,,6.21,30.088583,,,,,,TRUE,,,,,BKN,4600,,,,,,,VFR,,,,,,,,,,,,METAR,165.0
UWKE 230930Z 20005MPS 9999 OVC048 01/M03 Q1023 R21/090070 NOSIG RMK QFE750/1000,UWKE,2022-10-23T09:30:00Z,55.57,52.08,1.0,-3.0,200,10,,6.21,30.206694,,,,,,TRUE,,,,,OVC,4800,,,,,,,VFR,,,,,,,,,,,,SPECI,193.0
UWKD 230930Z 19003MPS 160V220 CAVOK 04/01 Q1021 R11/60D NOSIG RMK QFE755/1007,UWKD,2022-10-23T09:30:00Z,55.62,49.28,4.0,1.0,190,6,,6.21,30.147638,,,,,,TRUE,,,,,CAVOK,,,,,,,,VFR,,,,,,,,,,,,METAR,114.0
UWGG 230930Z 18007MPS 9999 OVC046 06/02 Q1017 R18L/090060 NOSIG,UWGG,2022-10-23T09:30:00Z,56.23,43.78,6.0,2.0,180,14,,6.21,30.029528,,,,,,TRUE,,,,,OVC,4600,,,,,,,VFR,,,,,,,,,,,,METAR,73.0
UUYY 230930Z 21006MPS 9999 FEW020CB BKN043 02/M02 Q1005 R18/61D NOSIG RMK QFE745/0994,UUYY,2022-10-23T09:30:00Z,61.65,50.83,2.0,-2.0,210,12,,6.21,29.675198,,,,,,TRUE,,,,,FEW,2000,BKN,4300,,,,,VFR,,,,,,,,,,,,METAR,107.0
UUWW 230930Z 16004MPS 9999 OVC006 05/03 Q1012 R24/000070 NOSIG,UUWW,2022-10-23T09:30:00Z,55.6,37.27,5.0,3.0,160,8,,6.21,29.88189,,,,,,TRUE,,,,,OVC,600,,,,,,,IFR,,,,,,,,,,,,METAR,195.0
UUOO 230930Z 15005MPS 9999 BKN016 09/06 Q1017 R12/010070 NOSIG RMK QFE748,UUOO,2022-10-23T09:30:00Z,51.82,39.23,9.0,6.0,150,10,,6.21,30.029528,,,,,,TRUE,,,,,BKN,1600,,,,,,,MVFR,,,,,,,,,,,,SPECI,154.0
UUOL 230930Z 16005MPS 9999 OVC048 07/05 Q1016 R15/290150 NOSIG,UUOL,2022-10-23T09:30:00Z,52.7,39.53,7.0,5.0,160,10,,6.21,30.0,,,,,,TRUE,,,,,OVC,4800,,,,,,,VFR,,,,,,,,,,,,METAR,176.0
UUOK 230930Z 18004MPS 9000 -RA OVC004 08/07 Q1013 R12/190055 NOSIG RMK QBB140 QFE742/0990,UUOK,2022-10-23T09:30:00Z,51.75,36.28,8.0,7.0,180,8,,5.59,29.911417,,,,,,TRUE,,,,-RA,OVC,400,,,,,,,LIFR,,,,,,,,,,,,METAR,203.0
UUOB 230930Z 17006MPS 9999 -RA BKN012 10/08 Q1015 R11/290060 NOSIG,UUOB,2022-10-23T09:30:00Z,50.65,36.58,10.0,8.0,170,12,,6.21,29.970472,,,,,,TRUE,,,,-RA,BKN,1200,,,,,,,MVFR,,,,,,,,,,,,METAR,218.0
UUMO 230930Z 16003MPS 9000 OVC007 05/05 Q1013 R25/CLRD60 NOSIG RMK QFE744/0992,UUMO,2022-10-23T09:30:00Z,55.52,37.5,5.0,5.0,160,6,,5.59,29.911417,,,,,,TRUE,,,,,OVC,700,,,,,,,IFR,,,,,,,,,,,,METAR,167.0
UUEE 230930Z 17004MPS 9999 OVC011 07/04 Q1012 R24L/CLRD62 R24C/CLRD62 NOSIG,UUEE,2022-10-23T09:30:00Z,55.97,37.42,7.0,4.0,170,8,,6.21,29.88189,,,,,,TRUE,,,,,OVC,1100,,,,,,,MVFR,,,,,,,,,,,,METAR,186.0
UUDL 230930Z 22005MPS 9999 BKN039 07/01 Q1012 R23/010060 NOSIG RMK QFE751,UUDL,2022-10-23T09:30:00Z,57.57,40.17,7.0,1.0,220,10,,6.21,29.88189,,,,,,TRUE,,,,,BKN,3900,,,,,,,VFR,,,,,,,,,,,,METAR,88.0
UUDD 230930Z 17005MPS 8000 OVC008 06/03 Q1013 R88/60D NOSIG,UUDD,2022-10-23T09:30:00Z,55.4,37.9,6.0,3.0,170,10,,4.97,29.911417,,,,,,TRUE,,,,,OVC,800,,,,,,,IFR,,,,,,,,,,,,METAR,165.0
UUBW 230930Z 14003MPS 9999 OVC010 06/04 Q1013 R30/010060 NOSIG,UUBW,2022-10-23T09:30:00Z,55.55,38.15,6.0,4.0,140,6,,6.21,29.911417,,,,,,TRUE,,,,,OVC,1000,,,,,,,MVFR,,,,,,,,,,,,METAR,111.0
UUBP 230930Z 19002MPS 9999 -RA OVC005 08/08 Q1011 R16/////// NOSIG RMK QFE740/0987,UUBP,2022-10-23T09:30:00Z,53.22,34.18,8.0,8.0,190,4,,6.21,29.852362,,,,,,TRUE,,,,-RA,OVC,500,,,,,,,IFR,,,,,,,,,,,,SPECI,197.0
UUBC 230930Z 15003MPS 9000 -RA OVC003 06/06 Q1012 R31/190055 NOSIG RMK QBB100 QFE742/0990,UUBC,2022-10-23T09:30:00Z,54.55,36.37,6.0,6.0,150,6,,5.59,29.88189,,,,,,TRUE,,,,-RA,OVC,300,,,,,,,LIFR,,,,,,,,,,,,METAR,198.0
UTTT 230930Z 31008KT 9999 SCT060CB 12/09 Q1028 R08L/19//60 NOSIG,UTTT,2022-10-23T09:30:00Z,41.27,69.27,12.0,9.0,310,8,,6.21,30.35433,,,,,,TRUE,,,,,SCT,6000,,,,,,,VFR,,,,,,,,,,,,METAR,429.0
UTST 230930Z 24006KT 200V280 8000 NSC 22/05 Q1024 R25/CLRD70 NOSIG,UTST,2022-10-23T09:30:00Z,37.28,67.32,22.0,5.0,240,6,,4.97,30.236221,,,,,,TRUE,,,,,CLR,,,,,,,,MVFR,,,,,,,,,,,,METAR,311.0
UTSS 230930Z VRB02KT 9999 -SHRA BKN012 OVC055CB 12/10 Q1026 R09/290255 NOSIG,UTSS,2022-10-23T09:30:00Z,39.7,66.98,12.0,10.0,0,2,,6.21,30.295275,,,,,,TRUE,,,,-SHRA,BKN,1200,OVC,5500,,,,,MVFR,,,,,,,,,,,,METAR,665.0
UTSK 230930Z 34008KT 9999 FEW050CB 14/11 Q1027 R34/190060,UTSK,2022-10-23T09:30:00Z,38.8,65.77,14.0,11.0,340,8,,6.21,30.324802,,,,,,,,,,,FEW,5000,,,,,,,VFR,,,,,,,,,,,,METAR,399.0
UTSB 230930Z 33006KT 290V020 CAVOK 15/06 Q1027 R01/CLRD70 NOSIG,UTSB,2022-10-23T09:30:00Z,39.77,64.48,15.0,6.0,330,6,,6.21,30.324802,,,,,,TRUE,,,,,CAVOK,,,,,,,,VFR,,,,,,,,,,,,METAR,225.0
UTSA 230930Z 33002KT 9000 NSC 16/06 Q1027 R25/CLRD70 NOSIG,UTSA,2022-10-23T09:30:00Z,40.12,65.17,16.0,6.0,330,2,,5.59,30.324802,,,,,,TRUE,,,,,CLR,,,,,,,,VFR,,,,,,,,,,,,METAR,346.0
UTNU 230930Z 18002KT CAVOK 14/02 Q1029 R31/CLRD70 NOSIG,UTNU,2022-10-23T09:30:00Z,41.58,60.63,14.0,2.0,180,2,,6.21,30.383858,,,,,,TRUE,,,,,CAVOK,,,,,,,,VFR,,,,,,,,,,,,METAR,97.0
UTNN 230930Z VRB02KT CAVOK 12/00 Q1030 R33/CLRD60 NOSIG,UTNN,2022-10-23T09:30:00Z,42.48,59.63,12.0,0.0,0,2,,6.21,30.413385,,,,,,TRUE,,,,,CAVOK,,,,,,,,VFR,,,,,,,,,,,,METAR,76.0
UTFN 230930Z 06006KT 020V080 3500 -SHRA BR OVC050CB 12/09 Q1027 R28/290060 NOSIG,UTFN,2022-10-23T09:30:00Z,40.98,71.57,12.0,9.0,60,6,,2.17,30.324802,,,,,,TRUE,,,,-SHRA BR,OVC,5000,,,,,,,IFR,,,,,,,,,,,,METAR,477.0
UTFF 230930Z 04008KT 010V070 9999 NSC 16/06 Q1026 R18/CLRD70,UTFF,2022-10-23T09:30:00Z,40.37,71.73,16.0,6.0,40,8,,6.21,30.295275,,,,,,,,,,,CLR,,,,,,,,VFR,,,,,,,,,,,,METAR,612.0
UTDT 230930Z 21002MPS 150V290 4900 HZ SCT023 BKN100 23/09 Q1023 R35/CLRD70 RMK QFE727/0970,UTDT,2022-10-23T09:30:00Z,37.87,68.87,23.0,9.0,210,4,,3.04,30.206694,,,,,,,,,,HZ,SCT,2300,BKN,10000,,,,,MVFR,,,,,,,,,,,,METAR,443.0
UTDL 230930Z 24008MPS 9999 SCT045CB OVC086 12/08 Q1027 R26/CLRD70 NOSIG RMK QFE732/0976,UTDL,2022-10-23T09:30:00Z,40.22,69.7,12.0,8.0,240,16,,6.21,30.324802,,,,,,TRUE,,,,,SCT,4500,OVC,8600,,,,,VFR,,,,,,,,,,,,SPECI,436.0
UTDK 230930Z VRB02MPS 4200 HZ BKN027 OVC035 21/09 Q1025 R01/09//70 RMK QFE711/0948,UTDK,2022-10-23T09:30:00Z,37.98,69.8,21.0,9.0,0,4,,2.61,30.265747,,,,,,,,,,HZ,BKN,2700,OVC,3500,,,,,IFR,,,,,,,,,,,,METAR,675.0
UTDD 230930Z 25003MPS 7000 BKN120 22/09 Q1025 R09/D NOSIG RMK QFE700/0933,UTDD,2022-10-23T09:30:00Z,38.53,68.82,22.0,9.0,250,6,,4.35,30.265747,,,,,,TRUE,,,,,BKN,12000,,,,,,,MVFR,,,,,,,,,,,,METAR,785.0
USTR 230930Z 27006MPS 9999 BKN041 02/M08 Q1018 R30/CLRD65 R21/CLRD65 NOSIG,USTR,2022-10-23T09:30:00Z,57.18,65.32,2.0,-8.0,270,12,,6.21,30.059055,,,,,,TRUE,,,,,BKN,4100,,,,,,,VFR,,,,,,,,,,,,SPECI,93.0
USSS 230930Z 27010MPS 9999 SCT043 02/M08 Q1021 R26R/010060 R26L/010060 TEMPO 27010G16MPS RMK QFE745/0993,USSS,2022-10-23T09:30:00Z,56.75,60.78,2.0,-8.0,270,19,,6.21,30.147638,,,,,,,,,,,SCT,4300,,,,,,,VFR,,,,,,,,,,,,SPECI,222.0
USRR 230930Z 27008MPS 9999 SCT015 M00/M03 Q1005 R25/CLRD60 NOSIG RMK QFE748,USRR,2022-10-23T09:30:00Z,61.33,73.42,0.0,-3.0,270,16,,6.21,29.675198,,,,,,TRUE,,,,,SCT,1500,,,,,,,VFR,,,,,,,,,,,,SPECI,52.0
USPP 230930Z 24009MPS 9999 BKN048 04/M05 Q1019 R21/090060 TEMPO 27010G18MPS RMK QFE754,USPP,2022-10-23T09:30:00Z,57.92,56.02,4.0,-5.0,240,17,,6.21,30.088583,,,,,,,,,,,BKN,4800,,,,,,,VFR,,,,,,,,,,,,SPECI,120.0
USNN 230930Z 29004MPS 9999 -SHSN BKN019CB 00/M04 Q1003 R21/0///65 NOSIG RMK QFE747,USNN,2022-10-23T09:30:00Z,60.95,76.48,0.0,-4.0,290,8,,6.21,29.616142,,,,,,TRUE,,,,-SHSN,BKN,1900,,,,,,,MVFR,,,,,,,,,,,,SPECI,52.0
USHH 230930Z 26007G12MPS CAVOK 01/M06 Q1008 R24/010060 NOSIG,USHH,2022-10-23T09:30:00Z,61.03,69.08,1.0,-6.0,260,14,23,6.21,29.763779,,,,,,TRUE,,,,,CAVOK,,,,,,,,VFR,,,,,,,,,,,,METAR,46.0
USDA 230930Z 32005MPS 9999 BKN026CB M01/M02 Q0987 R04/520245 NOSIG RMK QFE739/0985,USDA,2022-10-23T09:30:00Z,71.2,72.05,-1.0,-2.0,320,10,,6.21,29.143702,,,,,,TRUE,,,,,BKN,2600,,,,,,,MVFR,,,,,,,,,,,,METAR,5.0
USCM 230930Z 23006MPS 9999 NSC 03/M09 Q1025 R18/090060 TEMPO 27013MPS RMK QFE731,USCM,2022-10-23T09:30:00Z,53.4,58.75,3.0,-9.0,230,12,,6.21,30.265747,,,,,,,,,,,CLR,,,,,,,,VFR,,,,,,,,,,,,METAR,425.0
USCC 230930Z 27007MPS CAVOK 03/M10 Q1022 R27/000060 NOSIG RMK QFE747,USCC,2022-10-23T09:30:00Z,55.3,61.5,3.0,-10.0,270,14,,6.21,30.177166,,,,,,TRUE,,,,,CAVOK,,,,,,,,VFR,,,,,,,,,,,,SPECI,227.0
URWW 230930Z 19006MPS 160V220 9999 SCT036 11/02 Q1024 R24/010070 NOSIG,URWW,2022-10-23T09:30:00Z,48.78,44.33,11.0,2.0,190,12,,6.21,30.236221,,,,,,TRUE,,,,,SCT,3600,,,,,,,VFR,,,,,,,,,,,,SPECI,131.0
URWI 230930Z 19006MPS 9999 FEW/// 14/01 Q1024 R09/010065 NOSIG,URWI,2022-10-23T09:30:00Z,46.37,44.33,14.0,1.0,190,12,,6.21,30.236221,,,,,,TRUE,,,,,,,,,,,,,,,,,,,,,,,,,SPECI,145.0
URWA 230930Z 21003MPS 170V240 CAVOK 11/00 Q1028 R27/010070 NOSIG RMK QFE773/1030,URWA,2022-10-23T09:30:00Z,46.28,47.98,11.0,0.0,210,6,,6.21,30.35433,,,,,,TRUE,,,,,CAVOK,,,,,,,,VFR,,,,,,,,,,,,SPECI,-19.0
URSS 230930Z 12002MPS 040V170 9999 NSC 18/06 Q1022 R02/010070 R06/010070 NOSIG RMK R06/15003MPS QFE765,URSS,2022-10-23T09:30:00Z,43.45,39.92,18.0,6.0,120,4,,6.21,30.177166,,,,,,TRUE,,,,,CLR,,,,,,,,VFR,,,,,,,,,,,,METAR,4.0
URRP 230930Z 15005MPS CAVOK 14/05 Q1022 R05/CLRD70 NOSIG RMK QFE761/1015,URRP,2022-10-23T09:30:00Z,47.5,39.92,14.0,5.0,150,10,,6.21,30.177166,,,,,,TRUE,,,,,CAVOK,,,,,,,,VFR,,,,,,,,,,,,METAR,73.0
URMT 230930Z 12003MPS CAVOK 14/02 Q1023 R25/010070 NOSIG RMK QFE728,URMT,2022-10-23T09:30:00Z,45.12,42.12,14.0,2.0,120,6,,6.21,30.206694,,,,,,TRUE,,,,,CAVOK,,,,,,,,VFR,,,,,,,,,,,,SPECI,448.0
URMO 230930Z 08003MPS 040V150 9999 NSC 14/01 Q1023 R09/010070 NOSIG RMK QFE723/0964,URMO,2022-10-23T09:30:00Z,43.2,44.6,14.0,1.0,80,6,,6.21,30.206694,,,,,,TRUE,,,,,CLR,,,,,,,,VFR,,,,,,,,,,,,METAR,505.0
URMN 230930Z 09005MPS 9999 NSC 15/01 Q1022 WS R24 R24/010070 NOSIG RMK QFE730,URMN,2022-10-23T09:30:00Z,43.52,43.63,15.0,1.0,90,10,,6.21,30.177166,,,,,,TRUE,,,,,CLR,,,,,,,,VFR,,,,,,,,,,,,SPECI,424.0
URMM 230930Z 11006MPS 9999 NSC 14/02 Q1023 R12/090070 NOSIG RMK QFE739/0985,URMM,2022-10-23T09:30:00Z,44.22,43.07,14.0,2.0,110,12,,6.21,30.206694,,,,,,TRUE,,,,,CLR,,,,,,,,VFR,,,,,,,,,,,,METAR,318.0
URML 230930Z 16009MPS 9999 FEW/// SCT040 15/11 Q1025 R14/01//70 NOSIG RMK QFE769/1025,URML,2022-10-23T09:30:00Z,42.82,47.65,15.0,11.0,160,17,,6.21,30.265747,,,,,,TRUE,,,,,SCT,4000,,,,,,,VFR,,,,,,,,,,,,SPECI,4.0
URMG 230930Z 13004MPS 090V160 CAVOK 14/06 Q1024 R08/090070 NOSIG RMK QFE753/1004,URMG,2022-10-23T09:30:00Z,43.38,45.7,14.0,6.0,130,8,,6.21,30.236221,,,,,,TRUE,,,,,CAVOK,,,,,,,,VFR,,,,,,,,,,,,METAR,160.0
URKK 230930Z 11005MPS CAVOK 16/05 Q1021 R05R/CLRD70 NOSIG RMK QFE762,URKK,2022-10-23T09:30:00Z,45.03,39.15,16.0,5.0,110,10,,6.21,30.147638,,,,,,TRUE,,,,,CAVOK,,,,,,,,VFR,,,,,,,,,,,,SPECI,29.0
URKA 230930Z 20010MPS 9999 BKN032CB 18/10 Q1019 R22/010070 TEMPO 20012G17MPS 2000 TSRA BKN020CB RMK QFE760/1013,URKA,2022-10-23T09:30:00Z,45.0,37.35,18.0,10.0,200,19,,6.21,30.088583,,,,,,,,,,,BKN,3200,,,,,,,VFR,,,1.2,,,,,,,,,METAR,41.0
UNWW 230930Z 23015G23MPS 9999 BKN040CB 09/M01 Q1006 R19/09//60 NOSIG RMK QFE728,UNWW,2022-10-23T09:30:00Z,53.82,86.88,9.0,-1.0,230,29,45,6.21,29.704725,,,,,,TRUE,,,,,BKN,4000,,,,,,,VFR,,,,,,,,,,,,SPECI,307.0
UNTT 230930Z 31006G11MPS 9999 -SHSN SCT011 BKN018CB 00/M01 Q1002 R21/290250 NOSIG RMK QFE736,UNTT,2022-10-23T09:30:00Z,56.38,85.22,0.0,-1.0,310,12,21,6.21,29.586615,,,,,,TRUE,,,,-SHSN,SCT,1100,BKN,1800,,,,,MVFR,,,,,,,,,,,,METAR,179.0
UNOO 230930Z 25007MPS 9999 BKN027CB 01/M02 Q1018 R25/290150 NOSIG RMK QFE755,UNOO,2022-10-23T09:30:00Z,54.97,73.32,1.0,-2.0,250,14,,6.21,30.059055,,,,,,TRUE,,,,,BKN,2700,,,,,,,MVFR,,,,,,,,,,,,SPECI,85.0
UNNT 230930Z 28008MPS 2800 -SHSN SCT008 OVC021CB 00/M00 Q1009 R25/290155 R34/090070 NOSIG RMK QFE747/0996,UNNT,2022-10-23T09:30:00Z,55.02,82.65,0.0,0.0,280,16,,1.74,29.793306,,,,,,TRUE,,,,-SHSN,SCT,800,OVC,2100,,,,,IFR,,,,,,,,,,,,SPECI,106.0
UNKL 230930Z 24007G12MPS 9999 SCT042CB 14/04 Q0997 R29/120065 NOSIG RMK QFE722,UNKL,2022-10-23T09:30:00Z,56.17,92.48,14.0,4.0,240,14,23,6.21,29.438976,,,,,,TRUE,,,,,SCT,4200,,,,,,,VFR,,,,,,,,,,,,SPECI,278.0
UNEE 230930Z 25007G12MPS 9999 BKN024CB 04/01 Q1002 R23/290155 NOSIG RMK QFE729,UNEE,2022-10-23T09:30:00Z,55.27,86.1,4.0,1.0,250,14,23,6.21,29.586615,,,,,,TRUE,,,,,BKN,2400,,,,,,,MVFR,,,,,,,,,,,,SPECI,261.0
UNBB 230930Z 27012MPS 7000 -SHSN BKN016CB 01/M01 Q1011 R24/190057 NOSIG RMK QFE736,UNBB,2022-10-23T09:30:00Z,53.37,83.53,1.0,-1.0,270,23,,4.35,29.852362,,,,,,TRUE,,,,-SHSN,BKN,1600,,,,,,,MVFR,,,,,,,,,,,,SPECI,249.0
UNAA 230930Z 26008MPS 9999 FEW036CB 16/05 Q1003 R02/CLRD65 NOSIG RMK QFE730,UNAA,2022-10-23T09:30:00Z,53.75,91.4,16.0,5.0,260,16,,6.21,29.616142,,,,,,TRUE,,,,,FEW,3600,,,,,,,VFR,,,,,,,,,,,,SPECI,249.0
UMMS 230930Z 27003MPS 9000 OVC005 08/07 Q1012 NOSIG RMK QBB150,UMMS,2022-10-23T09:30:00Z,53.88,28.03,8.0,7.0,270,6,,5.59,29.88189,,,,,,TRUE,,,,,OVC,500,,,,,,,IFR,,,,,,,,,,,,METAR,196.0
UMKK 230930Z 28003MPS 9999 BKN008 OVC018 13/12 Q1015 R24/290095 NOSIG RMK QFE760/1013,UMKK,2022-10-23T09:30:00Z,54.88,20.57,13.0,12.0,280,6,,6.21,29.970472,,,,,,TRUE,,,,,BKN,800,OVC,1800,,,,,IFR,,,,,,,,,,,,METAR,6.0
UMGG 230930Z 29004MPS 9000 BKN008CB 10/08 Q1011 NOSIG,UMGG,2022-10-23T09:30:00Z,52.53,31.02,10.0,8.0,290,8,,5.59,29.852362,,,,,,TRUE,,,,,BKN,800,,,,,,,IFR,,,,,,,,,,,,METAR,135.0
ULWC 230930Z 21004G09MPS 9999 BKN031 07/02 Q1008 R21/010060 NOSIG RMK QFE746/0995,ULWC,2022-10-23T09:30:00Z,59.28,38.02,7.0,2.0,210,8,17,6.21,29.763779,,,,,,TRUE,,,,,BKN,3100,,,,,,,VFR,,,,,,,,,,,,METAR,113.0
ULPB 230930Z 23003MPS 7000 -RA OVC009 06/05 Q1002 R19/120055 NOSIG RMK QBB270 QFE747/0997,ULPB,2022-10-23T09:30:00Z,61.88,34.15,6.0,5.0,230,6,,4.35,29.586615,,,,,,TRUE,,,,-RA,OVC,900,,,,,,,IFR,,,,,,,,,,,,METAR,41.0
ULOO 230930Z VRB01MPS 9999 OVC025 04/03 Q1009 R19/090060 NOSIG RMK QFE752,ULOO,2022-10-23T09:30:00Z,57.78,28.4,4.0,3.0,0,2,,6.21,29.793306,,,,,,TRUE,,,,,OVC,2500,,,,,,,MVFR,,,,,,,,,,,,SPECI,46.0
ULMM 230930Z 26004MPS 9999 -SHRASN BKN015CB 01/01 Q0983 R31/290156 NOSIG RMK QFE730,ULMM,2022-10-23T09:30:00Z,68.78,32.75,1.0,1.0,260,8,,6.21,29.02559,,,,,,TRUE,,,,-SHRA -SHSN,BKN,1500,,,,,,,MVFR,,,,,,,,,,,,SPECI,79.0
ULLI 230930Z 22003MPS 9999 BKN023 07/04 Q1006 R28R/090060 NOSIG,ULLI,2022-10-23T09:30:00Z,59.8,30.27,7.0,4.0,220,6,,6.21,29.704725,,,,,,TRUE,,,,,BKN,2300,,,,,,,MVFR,,,,,,,,,,,,METAR,25.0
ULAA 230930Z 26007MPS 230V300 9999 SCT023 06/00 Q0993 R26/290060 NOSIG RMK QFE743/0991,ULAA,2022-10-23T09:30:00Z,64.6,40.72,6.0,0.0,260,14,,6.21,29.320866,,,,,,TRUE,,,,,SCT,2300,,,,,,,VFR,,,,,,,,,,,,SPECI,10.0
UIUU 230930Z 11002MPS 9999 NSC 05/M03 Q1014 R26/60D NOSIG RMK QFE716/0955,UIUU,2022-10-23T09:30:00Z,51.8,107.45,5.0,-3.0,110,4,,6.21,29.940945,,,,,,TRUE,,,,,CLR,,,,,,,,VFR,,,,,,,,,,,,METAR,508.0
UIII 230930Z 16006MPS CAVOK 09/00 Q1007 R12/60D NOSIG RMK QFE713/0951,UIII,2022-10-23T09:30:00Z,52.27,104.37,9.0,0.0,160,12,,6.21,29.734253,,,,,,TRUE,,,,,CAVOK,,,,,,,,VFR,,,,,,,,,,,,METAR,480.0
UIBB 230930Z 11003MPS 9999 -SHRA SCT050CB 09/02 Q1002 R12/290150 NOSIG RMK QFE709/0945,UIBB,2022-10-23T09:30:00Z,56.37,101.7,9.0,2.0,110,6,,6.21,29.586615,,,,,,TRUE,,,,-SHRA,SCT,5000,,,,,,,VFR,,,,,,,,,,,,METAR,485.0
UIAA 230930Z 07001MPS 9999 NSC 03/M06 Q1017 R29/70D NOSIG RMK QFE704/0939,UIAA,2022-10-23T09:30:00Z,52.02,113.32,3.0,-6.0,70,2,,6.21,30.029528,,,,,,TRUE,,,,,CLR,,,,,,,,VFR,,,,,,,,,,,,METAR,650.0
UHWW 230930Z 29003MPS 9999 BKN040CB 07/M00 Q1018 R25L/0///70 NOSIG RMK QFE762,UHWW,2022-10-23T09:30:00Z,43.4,132.15,7.0,0.0,290,6,,6.21,30.059055,,,,,,TRUE,,,,,BKN,4000,,,,,,,VFR,,,,,,,,,,,,METAR,11.0
UHSS 230930Z 31002MPS 9999 NSC 00/M02 Q1014 R01/70D NOSIG RMK QFE759/1013,UHSS,2022-10-23T09:30:00Z,46.88,142.72,0.0,-2.0,310,4,,6.21,29.940945,,,,,,TRUE,,,,,CLR,,,,,,,,VFR,,,,,,,,,,,,METAR,14.0
UHHH 230930Z 21002MPS CAVOK 02/M04 Q1017 R23R/090060 NOSIG RMK QFE757/1009,UHHH,2022-10-23T09:30:00Z,48.52,135.18,2.0,-4.0,210,4,,6.21,30.029528,,,,,,TRUE,,,,,CAVOK,,,,,,,,VFR,,,,,,,,,,,,METAR,74.0
UHBB 230930Z 00000MPS CAVOK 01/M08 Q1020 R36/090060 NOSIG RMK QFE747/0996,UHBB,2022-10-23T09:30:00Z,50.43,127.42,1.0,-8.0,0,0,,6.21,30.11811,,,,,,TRUE,,,,,CAVOK,,,,,,,,VFR,,,,,,,,,,,,METAR,185.0
UGTB 230930Z VRB03KT CAVOK 16/05 Q1026 NOSIG,UGTB,2022-10-23T09:30:00Z,41.67,44.95,16.0,5.0,0,3,,6.21,30.295275,,,,,,TRUE,,,,,CAVOK,,,,,,,,VFR,,,,,,,,,,,,METAR,468.0
UGSB 230930Z 01006KT 330V040 CAVOK 18/10 Q1022 NOSIG,UGSB,2022-10-23T09:30:00Z,41.62,41.6,18.0,10.0,10,6,,6.21,30.177166,,,,,,TRUE,,,,,CAVOK,,,,,,,,VFR,,,,,,,,,,,,METAR,32.0
UGKO 230930Z 09016KT CAVOK 20/06 Q1021 NOSIG,UGKO,2022-10-23T09:30:00Z,42.18,42.48,20.0,6.0,90,16,,6.21,30.147638,,,,,,TRUE,,,,,CAVOK,,,,,,,,VFR,,,,,,,,,,,,METAR,44.0
UEEE 230930Z 09001MPS 9999 SCT009 BKN020CB M03/M04 Q1015 R23L/490143 NOSIG RMK QFE753,UEEE,2022-10-23T09:30:00Z,62.08,129.77,-3.0,-4.0,90,2,,6.21,29.970472,,,,,,TRUE,,,,,SCT,900,BKN,2000,,,,,MVFR,,,,,,,,,,,,METAR,106.0
UDYZ 230930Z 18003KT 130V230 9999 FEW040 17/06 Q1024 R09/010070 NOSIG,UDYZ,2022-10-23T09:30:00Z,40.15,44.4,17.0,6.0,180,3,,6.21,30.236221,,,,,,TRUE,,,,,FEW,4000,,,,,,,VFR,,,,,,,,,,,,SPECI,851.0
UDSG 230930Z 25002KT 9999 NSC 12/M01 Q1026 R02/CLRD70 NOSIG,UDSG,2022-10-23T09:30:00Z,40.75,43.87,12.0,-1.0,250,2,,6.21,30.295275,,,,,,TRUE,,,,,CLR,,,,,,,,VFR,,,,,,,,,,,,METAR,1515.0
UCFO 230930Z 03002MPS 4900 FU FEW026 14/07 Q1027 R12/0///95 NOSIG,UCFO,2022-10-23T09:30:00Z,40.6,72.8,14.0,7.0,30,4,,3.04,30.324802,,,,,,TRUE,,,,FU,FEW,2600,,,,,,,MVFR,,,,,,,,,,,,METAR,881.0
UCFM 230930Z 10003MPS 9999 -SHRA SCT008 BKN040CB 08/07 Q1029 R26/2///95 NOSIG,UCFM,2022-10-23T09:30:00Z,43.07,74.48,8.0,7.0,100,6,,6.21,30.383858,,,,,,TRUE,,,,-SHRA,SCT,800,BKN,4000,,,,,VFR,,,,,,,,,,,,METAR,632.0
UBBZ 230930Z VRB02KT 9999 SCT006 BKN050 14/08 Q1026 NOSIG RMK MT OBSC,UBBZ,2022-10-23T09:30:00Z,,,14.0,8.0,0,2,,6.21,30.295275,,,,,,TRUE,,,,,SCT,600,BKN,5000,,,,,VFR,,,,,,,,,,,,METAR,
UBBN 230930Z 16004KT 9999 FEW030CB BKN090 14/09 Q1024 NOSIG RMK MT OP QFE693,UBBN,2022-10-23T09:30:00Z,39.18,45.45,14.0,9.0,160,4,,6.21,30.236221,,,,,,TRUE,,,,,FEW,3000,BKN,9000,,,,,VFR,,,,,,,,,,,,SPECI,857.0
UBBG 230930Z VRB02KT 9999 BKN033 15/08 Q1025 NOSIG,UBBG,2022-10-23T09:30:00Z,40.73,46.32,15.0,8.0,0,2,,6.21,30.265747,,,,,,TRUE,,,,,BKN,3300,,,,,,,VFR,,,,,,,,,,,,METAR,333.0
UBBF 230930Z VRB02KT 9999 SCT013 BKN070 13/09 Q1025 NOSIG RMK MT OBSC,UBBF,2022-10-23T09:30:00Z,39.6,47.2,13.0,9.0,0,2,,6.21,30.265747,,,,,,TRUE,,,,,SCT,1300,BKN,7000,,,,,VFR,,,,,,,,,,,,METAR,370.0
UBBB 230930Z 11014KT 9999 FEW032CB OVC032 16/11 Q1025 NOSIG,UBBB,2022-10-23T09:30:00Z,40.47,50.07,16.0,11.0,110,14,,6.21,30.265747,,,,,,TRUE,,,,,FEW,3200,OVC,3200,,,,,VFR,,,,,,,,,,,,METAR,94.0
UAUU 230930Z 21004MPS 190V250 9999 BKN041 00/M04 Q1026 NOSIG RMK QFE753/1004,UAUU,2022-10-23T09:30:00Z,53.2,63.55,0.0,-4.0,210,8,,6.21,30.295275,,,,,,TRUE,,,,,BKN,4100,,,,,,,VFR,,,,,,,,,,,,SPECI,177.0
UASS 230930Z 27011MPS 9999 BKN046 05/M05 Q1024 NOSIG RMK QFE749/0999,UASS,2022-10-23T09:30:00Z,50.35,80.23,5.0,-5.0,270,21,,6.21,30.236221,,,,,,TRUE,,,,,BKN,4600,,,,,,,VFR,,,,,,,,,,,,SPECI,215.0
UASP 230930Z 27007MPS 9999 OVC024CB 01/M02 Q1022 NOSIG RMK QFE755/1007,UASP,2022-10-23T09:30:00Z,52.2,77.07,1.0,-2.0,270,14,,6.21,30.177166,,,,,,TRUE,,,,,OVC,2400,,,,,,,MVFR,,,,,,,,,,,,SPECI,122.0
UASK 230930Z 29010MPS 9999 BKN042 OVC060 05/M03 Q1023 NOSIG RMK QFE742/0989,UASK,2022-10-23T09:30:00Z,50.03,82.5,5.0,-3.0,290,19,,6.21,30.206694,,,,,,TRUE,,,,,BKN,4200,OVC,6000,,,,,VFR,,,,,,,,,,,,METAR,285.0
UARR 230930Z 19004MPS 9999 SCT033 05/M01 Q1027 NOSIG RMK QFE767/1022,UARR,2022-10-23T09:30:00Z,51.15,51.53,5.0,-1.0,190,8,,6.21,30.324802,,,,,,TRUE,,,,,SCT,3300,,,,,,,VFR,,,,,,,,,,,,SPECI,33.0
UAOO 230930Z 06003MPS 040V120 9999 SCT040 10/00 Q1031 NOSIG RMK QFE761/1015,UAOO,2022-10-23T09:30:00Z,44.7,65.6,10.0,0.0,60,6,,6.21,30.442913,,,,,,TRUE,,,,,SCT,4000,,,,,,,VFR,,,,,,,,,,,,SPECI,130.0
UAIT 230930Z 34002MPS 260V050 CAVOK 12/00 Q1029 NOSIG RMK QFE745/0993,UAIT,2022-10-23T09:30:00Z,43.32,68.55,12.0,0.0,340,4,,6.21,30.383858,,,,,,TRUE,,,,,CAVOK,,,,,,,,VFR,,,,,,,,,,,,METAR,301.0
UADD 230930Z 04004MPS 4700 -DZ BR OVC012 07/05 Q1029 NOSIG RMK MT OBSC QFE713/0951,UADD,2022-10-23T09:30:00Z,42.85,71.3,7.0,5.0,40,8,,2.92,30.383858,,,,,,TRUE,,,,-DZ BR,OVC,1200,,,,,,,IFR,,,,,,,,,,,,SPECI,663.0
UACP 230930Z 26008MPS 9999 BKN037CB 01/M02 Q1021 NOSIG RMK QFE753/1004,UACP,2022-10-23T09:30:00Z,54.78,69.18,1.0,-2.0,260,16,,6.21,30.147638,,,,,,TRUE,,,,,BKN,3700,,,,,,,VFR,,,,,,,,,,,,SPECI,134.0
UACK 230930Z 28009MPS 9999 BKN036 M00/M04 Q1024 NOSIG RMK QFE744/0992,UACK,2022-10-23T09:30:00Z,53.32,69.58,0.0,-4.0,280,17,,6.21,30.236221,,,,,,TRUE,,,,,BKN,3600,,,,,,,VFR,,,,,,,,,,,,SPECI,261.0
UAAT 230930Z 23004MPS 9999 -SHRA SCT013 OVC030CB 06/05 Q1029 NOSIG RMK QFE719/0959,UAAT,2022-10-23T09:30:00Z,45.12,78.45,6.0,5.0,230,8,,6.21,30.383858,,,,,,TRUE,,,,-SHRA,SCT,1300,OVC,3000,,,,,MVFR,,,,,,,,,,,,METAR,588.0
UAAH 230930Z 33008MPS 9999 SCT045 07/M06 Q1028 NOSIG RMK QFE732/0976,UAAH,2022-10-23T09:30:00Z,46.9,75.0,7.0,-6.0,330,16,,6.21,30.35433,,,,,,TRUE,,,,,SCT,4500,,,,,,,VFR,,,,,,,,,,,,SPECI,427.0
TFFR 230930Z AUTO 00000KT CAVOK 22/22 Q1011,TFFR,2022-10-23T09:30:00Z,16.27,-61.53,22.0,22.0,0,0,,6.21,29.852362,,,TRUE,,,,,,,,CAVOK,,,,,,,,VFR,,,,,,,,,,,,METAR,6.0
TFFF 230930Z AUTO 12003KT 080V140 CAVOK 24/23 Q1011,TFFF,2022-10-23T09:30:00Z,14.6,-61.0,24.0,23.0,120,3,,6.21,29.852362,,,TRUE,,,,,,,,CAVOK,,,,,,,,VFR,,,,,,,,,,,,METAR,3.0
SOCA 230930Z AUTO 00000KT CAVOK 24/23 Q1010 NOSIG,SOCA,2022-10-23T09:30:00Z,4.82,-52.37,24.0,23.0,0,0,,6.21,29.822834,,,TRUE,,,TRUE,,,,,CAVOK,,,,,,,,VFR,,,,,,,,,,,,METAR,7.0
ROAH 230930Z 01024KT 9999 SCT018 BKN022 26/21 Q1011 RMK 3CU018 6CU022 A2987,ROAH,2022-10-23T09:30:00Z,26.18,127.65,26.0,21.0,10,24,,6.21,29.852362,,,,,,,,,,,SCT,1800,BKN,2200,,,,,MVFR,,,,,,,,,,,,METAR,6.0
RKSI 230930Z 33014KT CAVOK 14/01 Q1020 NOSIG,RKSI,2022-10-23T09:30:00Z,37.47,126.45,14.0,1.0,330,14,,6.21,30.11811,,,,,,TRUE,,,,,CAVOK,,,,,,,,VFR,,,,,,,,,,,,METAR,7.0
RJTT 230930Z 04006KT CAVOK 20/15 Q1008 NOSIG RMK A2977,RJTT,2022-10-23T09:30:00Z,35.55,139.77,20.0,15.0,40,6,,6.21,29.763779,,,,,,TRUE,,,,,CAVOK,,,,,,,,VFR,,,,,,,,,,,,METAR,5.0
RJGG 230930Z 31015KT 9999 FEW030 21/14 Q1010 NOSIG,RJGG,2022-10-23T09:30:00Z,34.87,136.8,21.0,14.0,310,15,,6.21,29.822834,,,,,,TRUE,,,,,FEW,3000,,,,,,,VFR,,,,,,,,,,,,METAR,5.0
RJFF 230930Z 36008KT 320V040 9999 FEW035 20/12 Q1014 NOSIG RMK 1CU035 A2995,RJFF,2022-10-23T09:30:00Z,33.58,130.45,20.0,12.0,360,8,,6.21,29.940945,,,,,,TRUE,,,,,FEW,3500,,,,,,,VFR,,,,,,,,,,,,METAR,7.0
RJCC 230930Z 34005KT 9999 FEW015 SCT040 BKN080 08/07 Q1010 RMK 1ST015 3CU040 7AC080 A2985,RJCC,2022-10-23T09:30:00Z,42.77,141.68,8.0,7.0,340,5,,6.21,29.822834,,,,,,,,,,,FEW,1500,SCT,4000,BKN,8000,,,VFR,,,,,,,,,,,,METAR,19.0
RJBB 230930Z 35012KT 9999 FEW020 22/14 Q1011 NOSIG,RJBB,2022-10-23T09:30:00Z,34.43,135.25,22.0,14.0,350,12,,6.21,29.852362,,,,,,TRUE,,,,,FEW,2000,,,,,,,VFR,,,,,,,,,,,,METAR,8.0
RJAA 230930Z 04005KT 360V070 9999 FEW030 20/14 Q1008 NOSIG RMK 1CU030 A2978,RJAA,2022-10-23T09:30:00Z,35.77,140.38,20.0,14.0,40,5,,6.21,29.763779,,,,,,TRUE,,,,,FEW,3000,,,,,,,VFR,,,,,,,,,,,,METAR,36.0
RCTP 230930Z 05019KT 7000 VCSH FEW012 BKN018 BKN050 23/21 Q1016 NOSIG RMK A3002,RCTP,2022-10-23T09:30:00Z,25.07,121.22,23.0,21.0,50,19,,4.35,30.0,,,,,,TRUE,,,,VCSH,FEW,1200,BKN,1800,BKN,5000,,,MVFR,,,,,,,,,,,,METAR,33.0
RCSS 230930Z 06007KT 010V110 7000 -RA FEW010 BKN025 BKN040 23/20 Q1016 NOSIG RMK A3002,RCSS,2022-10-23T09:30:00Z,25.07,121.55,23.0,20.0,60,7,,4.35,30.0,,,,,,TRUE,,,,-RA,FEW,1000,BKN,2500,BKN,4000,,,MVFR,,,,,,,,,,,,METAR,8.0
RCNN 230930Z 01005KT 9999 FEW012 SCT025 BKN050 26/20 Q1012 NOSIG RMK A2989,RCNN,2022-10-23T09:30:00Z,22.93,120.2,26.0,20.0,10,5,,6.21,29.88189,,,,,,TRUE,,,,,FEW,1200,SCT,2500,BKN,5000,,,VFR,,,,,,,,,,,,METAR,15.0
RCMQ 230930Z 01010KT 7000 -RA FEW008 BKN020 BKN040 20/20 Q1014 NOSIG RMK A2995,RCMQ,2022-10-23T09:30:00Z,24.27,120.62,20.0,20.0,10,10,,4.35,29.940945,,,,,,TRUE,,,,-RA,FEW,800,BKN,2000,BKN,4000,,,MVFR,,,,,,,,,,,,METAR,202.0
RCKH 230930Z 01004KT 330V030 8000 FEW015 SCT030 BKN150 29/22 Q1011 NOSIG RMK A2987,RCKH,2022-10-23T09:30:00Z,22.57,120.33,29.0,22.0,10,4,,4.97,29.852362,,,,,,TRUE,,,,,FEW,1500,SCT,3000,BKN,15000,,,MVFR,,,,,,,,,,,,METAR,6.0
RCFN 230930Z 04004KT 350V100 9000 -RA FEW003 SCT004 BKN010 22/22 Q1015 NOSIG RMK A2998,RCFN,2022-10-23T09:30:00Z,22.77,121.1,22.0,22.0,40,4,,5.59,29.970472,,,,,,TRUE,,,,-RA,FEW,300,SCT,400,BKN,1000,,,MVFR,,,,,,,,,,,,METAR,42.0
OTBD 230930Z 02007KT 350V050 9999 FEW040 35/11 Q1016 NOSIG,OTBD,2022-10-23T09:30:00Z,25.25,51.57,35.0,11.0,20,7,,6.21,30.0,,,,,,TRUE,,,,,FEW,4000,,,,,,,VFR,,,,,,,,,,,,METAR,13.0
OPPS 230930Z 36006KT 7000 HZ NSC 27/10 Q1017,OPPS,2022-10-23T09:30:00Z,33.98,71.52,27.0,10.0,360,6,,4.35,30.029528,,,,,,,,,,HZ,CLR,,,,,,,,MVFR,,,,,,,,,,,,METAR,356.0
OPMT 230930Z 00000KT 3500 HZ NSC 32/12 Q1014 TEMPO 4000,OPMT,2022-10-23T09:30:00Z,30.2,71.42,32.0,12.0,0,0,,2.17,29.940945,,,,,,,,,,HZ,CLR,,,,,,,,IFR,,,,,,,,,,,,SPECI,122.0
OPKC 230930Z 22009KT 6000 NSC 36/07 Q1014 NOSIG,OPKC,2022-10-23T09:30:00Z,24.9,67.13,36.0,7.0,220,9,,3.73,29.940945,,,,,,TRUE,,,,,CLR,,,,,,,,MVFR,,,,,,,,,,,,METAR,20.0
OPIS 230930Z 23004KT 7000 NSC 28/06 Q1017 NOSIG,OPIS,2022-10-23T09:30:00Z,33.55,72.83,28.0,6.0,230,4,,4.35,30.029528,,,,,,TRUE,,,,,CLR,,,,,,,,MVFR,,,,,,,,,,,,METAR,542.0
OIZH 230930Z 06008KT CAVOK 29/M06 Q1023 A3022,OIZH,2022-10-23T09:30:00Z,29.47,60.92,29.0,-6.0,60,8,,6.21,30.206694,,,,,,,,,,,CAVOK,,,,,,,,VFR,,,,,,,,,,,,METAR,1378.0
OIYY 230930Z 12004KT 5000 HZ NSC 28/M01 Q1024,OIYY,2022-10-23T09:30:00Z,31.9,54.28,28.0,-1.0,120,4,,3.11,30.236221,,,,,,,,,,HZ,CLR,,,,,,,,MVFR,,,,,,,,,,,,METAR,1226.0
OITT 230930Z 28008KT 9999 SCT032TCU 16/09 Q1025 A3028,OITT,2022-10-23T09:30:00Z,38.13,46.23,16.0,9.0,280,8,,6.21,30.265747,,,,,,,,,,,SCT,3200,,,,,,,VFR,,,,,,,,,,,,METAR,1353.0
OISS 230930Z 32004KT 6000 NSC 27/M04 Q1025 A3027,OISS,2022-10-23T09:30:00Z,29.53,52.58,27.0,-4.0,320,4,,3.73,30.265747,,,,,,,,,,,CLR,,,,,,,,MVFR,,,,,,,,,,,,METAR,1484.0
OING 230930Z 26004KT 9999 FEW025 BKN100 23/15 Q1024,OING,2022-10-23T09:30:00Z,36.9,54.4,23.0,15.0,260,4,,6.21,30.236221,,,,,,,,,,,FEW,2500,BKN,10000,,,,,VFR,,,,,,,,,,,,METAR,0.0
OIMM 230930Z 15006KT 8000 NSC 20/11 Q1025 A3027,OIMM,2022-10-23T09:30:00Z,36.23,59.63,20.0,11.0,150,6,,4.97,30.265747,,,,,,,,,,,CLR,,,,,,,,MVFR,,,,,,,,,,,,METAR,995.0
OIKB 230930Z 23006KT 6000 NSC 33/23 Q1014 A2997,OIKB,2022-10-23T09:30:00Z,27.22,56.37,33.0,23.0,230,6,,3.73,29.940945,,,,,,,,,,,CLR,,,,,,,,MVFR,,,,,,,,,,,,METAR,6.0
OIII 230930Z 21006KT 9999 SCT040 SCT100 23/04 Q1023 A3024,OIII,2022-10-23T09:30:00Z,35.68,51.3,23.0,4.0,210,6,,6.21,30.206694,,,,,,,,,,,SCT,4000,SCT,10000,,,,,VFR,,,,,,,,,,,,METAR,1182.0
OIGG 230930Z 30006KT 2000 RADZ BKN007 SCT015CB SCT080 17/17 Q1022,OIGG,2022-10-23T09:30:00Z,37.33,49.6,17.0,17.0,300,6,,1.24,30.177166,,,,,,,,,,RA DZ,BKN,700,SCT,1500,SCT,8000,,,IFR,,,,,,,,,,,,METAR,-16.0
OIFM 230930Z VRB02KT 5000 HZ NSC 25/M02 Q1026 A3031,OIFM,2022-10-23T09:30:00Z,32.75,51.87,25.0,-2.0,0,2,,3.11,30.295275,,,,,,,,,,HZ,CLR,,,,,,,,MVFR,,,,,,,,,,,,METAR,1539.0
OICI 230930Z 15008KT CAVOK 27/01 Q1025 A3028,OICI,2022-10-23T09:30:00Z,33.58,46.4,27.0,1.0,150,8,,6.21,30.265747,,,,,,,,,,,CAVOK,,,,,,,,VFR,,,,,,,,,,,,METAR,1323.0
OICC 230930Z 23012KT 9999 FEW045CB SCT050 SCT090 28/M06 Q1023 A3022,OICC,2022-10-23T09:30:00Z,34.35,47.17,28.0,-6.0,230,12,,6.21,30.206694,,,,,,,,,,,FEW,4500,SCT,5000,SCT,9000,,,VFR,,,,,,,,,,,,METAR,1310.0
OIAW 230930Z 09004KT 5000 HZ NSC 34/21 Q1015,OIAW,2022-10-23T09:30:00Z,31.33,48.77,34.0,21.0,90,4,,3.11,29.970472,,,,,,,,,,HZ,CLR,,,,,,,,MVFR,,,,,,,,,,,,METAR,25.0
OBBI 230930Z 09008KT CAVOK 32/19 Q1016 NOSIG,OBBI,2022-10-23T09:30:00Z,26.27,50.63,32.0,19.0,90,8,,6.21,30.0,,,,,,TRUE,,,,,CAVOK,,,,,,,,VFR,,,,,,,,,,,,METAR,6.0
NZWN 230930Z AUTO 36023KT 9999 BKN016/// 14/11 Q1026 NOSIG,NZWN,2022-10-23T09:30:00Z,-41.32,174.8,14.0,11.0,360,23,,6.21,30.295275,,,TRUE,,,TRUE,,,,,BKN,1600,,,,,,,MVFR,,,,,,,,,,,,METAR,12.0
NZCH 230930Z AUTO 29010KT 260V330 9999 NCD 18/M01 Q1019 NOSIG,NZCH,2022-10-23T09:30:00Z,-43.48,172.52,18.0,-1.0,290,10,,6.21,30.088583,,,TRUE,,,TRUE,,,,,CLR,,,,,,,,VFR,,,,,,,,,,,,METAR,36.0
NZAA 230930Z AUTO 20009KT 9999 FEW020/// 15/12 Q1031 NOSIG,NZAA,2022-10-23T09:30:00Z,-37.02,174.8,15.0,12.0,200,9,,6.21,30.442913,,,TRUE,,,TRUE,,,,,FEW,2000,,,,,,,VFR,,,,,,,,,,,,METAR,7.0
NWWW 230930Z AUTO 05008KT 010V090 9999 BKN040 BKN052 BKN066 24/18 Q1013 TEMPO RA FEW020TCU,NWWW,2022-10-23T09:30:00Z,-22.02,166.22,24.0,18.0,50,8,,6.21,29.911417,,,TRUE,,,,,,,,BKN,4000,BKN,5200,BKN,6600,,,VFR,,,,,,,,,,,,SPECI,16.0
NLWW 230930Z AUTO 09004KT 9999 NCD 27/24 Q1011 TEMPO 4000 SHRA BKN014 FEW020CB,NLWW,2022-10-23T09:30:00Z,-13.23,-176.18,27.0,24.0,90,4,,6.21,29.852362,,,TRUE,,,,,,,,CLR,,,,,,,,VFR,,,,,,,,,,,,METAR,24.0
NCRG 230930Z AUTO 07007KT 9999 FEW009/// 25/24 Q1013,NCRG,2022-10-23T09:30:00Z,-21.2,-159.82,25.0,24.0,70,7,,6.21,29.911417,,,TRUE,,,,,,,,FEW,900,,,,,,,VFR,,,,,,,,,,,,METAR,7.0
LZZI 230930Z VRB02KT 8000 OVC011 12/10 Q1022,LZZI,2022-10-23T09:30:00Z,49.23,18.62,12.0,10.0,0,2,,4.97,30.177166,,,,,,,,,,,OVC,1100,,,,,,,MVFR,,,,,,,,,,,,METAR,311.0
LZTT 230930Z 17003KT 130V240 9999 FEW036 15/08 Q1021 NOSIG,LZTT,2022-10-23T09:30:00Z,49.07,20.25,15.0,8.0,170,3,,6.21,30.147638,,,,,,TRUE,,,,,FEW,3600,,,,,,,VFR,,,,,,,,,,,,METAR,693.0
LZPP 230930Z VRB02KT 0300 R01/0400N FG OVC002 10/10 Q1022,LZPP,2022-10-23T09:30:00Z,48.62,17.83,10.0,10.0,0,2,,0.19,30.177166,,,,,,,,,,FG,OVC,200,,,,,,,LIFR,,,,,,,,,,,,METAR,160.0
LZKZ 230930Z 16003KT 130V230 0350 R01/0750U FG VV001 09/09 Q1023 BECMG 0800 FG,LZKZ,2022-10-23T09:30:00Z,48.67,21.23,9.0,9.0,160,3,,0.22,30.206694,,,,,,,,,,FG,OVX,0,,,,,,,LIFR,,,,,,,,,,,100,SPECI,227.0
LZIB 230930Z 09008KT 0350 R31/0500N R22/0650D FG VV002 10/10 Q1022 BECMG 0700 FG OVC003,LZIB,2022-10-23T09:30:00Z,48.17,17.22,10.0,10.0,90,8,,0.22,30.177166,,,,,,,,,,FG,OVX,0,,,,,,,LIFR,,,,,,,,,,,200,SPECI,129.0
LYTV 230930Z 30003KT 280V340 CAVOK 20/14 Q1025 NOSIG,LYTV,2022-10-23T09:30:00Z,42.4,18.72,20.0,14.0,300,3,,6.21,30.265747,,,,,,TRUE,,,,,CAVOK,,,,,,,,VFR,,,,,,,,,,,,SPECI,3.0
LYPG 230930Z VRB02KT CAVOK 20/07 Q1025 NOSIG,LYPG,2022-10-23T09:30:00Z,42.37,19.25,20.0,7.0,0,2,,6.21,30.265747,,,,,,TRUE,,,,,CAVOK,,,,,,,,VFR,,,,,,,,,,,,SPECI,32.0
LYNI 230930Z VRB01KT 9999 FEW037 19/11 Q1025 NOSIG,LYNI,2022-10-23T09:30:00Z,43.33,21.85,19.0,11.0,0,1,,6.21,30.265747,,,,,,TRUE,,,,,FEW,3700,,,,,,,VFR,,,,,,,,,,,,SPECI,197.0
LYBE 230930Z 18004KT 120V240 9999 FEW015 18/14 Q1025 NOSIG,LYBE,2022-10-23T09:30:00Z,44.82,20.28,18.0,14.0,180,4,,6.21,30.265747,,,,,,TRUE,,,,,FEW,1500,,,,,,,VFR,,,,,,,,,,,,SPECI,93.0
LWSK 230930Z 00000KT CAVOK 17/11 Q1025 NOSIG,LWSK,2022-10-23T09:30:00Z,41.97,21.63,17.0,11.0,0,0,,6.21,30.265747,,,,,,TRUE,,,,,CAVOK,,,,,,,,VFR,,,,,,,,,,,,METAR,232.0
LWOH 230930Z 19004KT CAVOK 16/10 Q1026,LWOH,2022-10-23T09:30:00Z,41.18,20.75,16.0,10.0,190,4,,6.21,30.295275,,,,,,,,,,,CAVOK,,,,,,,,VFR,,,,,,,,,,,,METAR,700.0
LUKK 230930Z 32013KT 9999 OVC013 14/11 Q1017 NOSIG,LUKK,2022-10-23T09:30:00Z,46.93,28.93,14.0,11.0,320,13,,6.21,30.029528,,,,,,TRUE,,,,,OVC,1300,,,,,,,MVFR,,,,,,,,,,,,METAR,102.0
LRTR 230930Z 18005KT 9999 FEW009 SCT011 OVC014 14/14 Q1025,LRTR,2022-10-23T09:30:00Z,45.82,21.33,14.0,14.0,180,5,,6.21,30.265747,,,,,,,,,,,FEW,900,SCT,1100,OVC,1400,,,MVFR,,,,,,,,,,,,METAR,104.0
LRTM 230930Z 33004KT 9999 SCT015 BKN031 14/11 Q1023,LRTM,2022-10-23T09:30:00Z,46.47,24.42,14.0,11.0,330,4,,6.21,30.206694,,,,,,,,,,,SCT,1500,BKN,3100,,,,,VFR,,,,,,,,,,,,METAR,289.0
LRTC 230930Z 34015KT CAVOK 20/07 Q1018,LRTC,2022-10-23T09:30:00Z,45.07,28.72,20.0,7.0,340,15,,6.21,30.059055,,,,,,,,,,,CAVOK,,,,,,,,VFR,,,,,,,,,,,,METAR,52.0
LRSV 230930Z 31016KT 9999 FEW019 BKN023 15/12 Q1019,LRSV,2022-10-23T09:30:00Z,47.68,26.35,15.0,12.0,310,16,,6.21,30.088583,,,,,,,,,,,FEW,1900,BKN,2300,,,,,MVFR,,,,,,,,,,,,METAR,406.0
LRSM 230930Z 25006KT 9000 BKN007 13/11 Q1023,LRSM,2022-10-23T09:30:00Z,47.7,22.88,13.0,11.0,250,6,,5.59,30.206694,,,,,,,,,,,BKN,700,,,,,,,IFR,,,,,,,,,,,,METAR,123.0
LRSB 230930Z 29011KT 9999 SCT033 17/10 Q1023,LRSB,2022-10-23T09:30:00Z,45.78,24.08,17.0,10.0,290,11,,6.21,30.206694,,,,,,,,,,,SCT,3300,,,,,,,VFR,,,,,,,,,,,,METAR,442.0
LROP 230930Z 28004KT 170V330 CAVOK 23/09 Q1020 NOSIG,LROP,2022-10-23T09:30:00Z,44.57,26.1,23.0,9.0,280,4,,6.21,30.11811,,,,,,TRUE,,,,,CAVOK,,,,,,,,VFR,,,,,,,,,,,,METAR,92.0
LROD 230930Z 18008KT 9000 OVC008 12/11 Q1024,LROD,2022-10-23T09:30:00Z,47.03,21.88,12.0,11.0,180,8,,5.59,30.236221,,,,,,,,,,,OVC,800,,,,,,,IFR,,,,,,,,,,,,METAR,132.0
LRIA 230930Z 30011KT 9999 SCT017 OVC020 14/12 Q1018,LRIA,2022-10-23T09:30:00Z,47.17,27.62,14.0,12.0,300,11,,6.21,30.059055,,,,,,,,,,,SCT,1700,OVC,2000,,,,,MVFR,,,,,,,,,,,,METAR,71.0
LRCV 230930Z 27013KT CAVOK 20/09 Q1021,LRCV,2022-10-23T09:30:00Z,44.32,23.88,20.0,9.0,270,13,,6.21,30.147638,,,,,,,,,,,CAVOK,,,,,,,,VFR,,,,,,,,,,,,METAR,192.0
LRCL 230930Z 27010KT 9999 SCT042 15/10 Q1023,LRCL,2022-10-23T09:30:00Z,46.78,23.68,15.0,10.0,270,10,,6.21,30.206694,,,,,,,,,,,SCT,4200,,,,,,,VFR,,,,,,,,,,,,METAR,313.0
LRCK 230930Z 30014KT CAVOK 21/09 Q1018 NOSIG,LRCK,2022-10-23T09:30:00Z,44.37,28.48,21.0,9.0,300,14,,6.21,30.059055,,,,,,TRUE,,,,,CAVOK,,,,,,,,VFR,,,,,,,,,,,,METAR,108.0
LRBS 230930Z 22005KT 170V260 CAVOK 23/09 Q1020 NOSIG,LRBS,2022-10-23T09:30:00Z,44.5,26.08,23.0,9.0,220,5,,6.21,30.11811,,,,,,TRUE,,,,,CAVOK,,,,,,,,VFR,,,,,,,,,,,,METAR,91.0
LRBM 230930Z 27005KT 240V310 4400 BR FEW005 BKN010 BKN024 12/11 Q1023,LRBM,2022-10-23T09:30:00Z,47.67,23.47,12.0,11.0,270,5,,2.73,30.206694,,,,,,,,,,BR,FEW,500,BKN,1000,BKN,2400,,,IFR,,,,,,,,,,,,METAR,180.0
LRBC 230930Z 03004KT 330V080 9999 FEW017 BKN065 16/11 Q1019,LRBC,2022-10-23T09:30:00Z,46.52,26.92,16.0,11.0,30,4,,6.21,30.088583,,,,,,,,,,,FEW,1700,BKN,6500,,,,,VFR,,,,,,,,,,,,METAR,183.0
LRAR 230930Z 19004KT 150V220 9999 BKN009 13/11 Q1024,LRAR,2022-10-23T09:30:00Z,46.18,21.27,13.0,11.0,190,4,,6.21,30.236221,,,,,,,,,,,BKN,900,,,,,,,IFR,,,,,,,,,,,,METAR,102.0
LQTZ 230930Z VRB01KT CAVOK 19/14 Q1023,LQTZ,2022-10-23T09:30:00Z,44.47,18.73,19.0,14.0,0,1,,6.21,30.206694,,,,,,,,,,,CAVOK,,,,,,,,VFR,,,,,,,,,,,,SPECI,242.0
LQSA 230930Z VRB01KT CAVOK 17/09 Q1025 NOSIG,LQSA,2022-10-23T09:30:00Z,43.82,18.32,17.0,9.0,0,1,,6.21,30.265747,,,,,,TRUE,,,,,CAVOK,,,,,,,,VFR,,,,,,,,,,,,SPECI,505.0
LQBK 230930Z VRB03KT 9999 FEW005 BKN009 16/16 Q1023 NOSIG,LQBK,2022-10-23T09:30:00Z,44.93,17.3,16.0,16.0,0,3,,6.21,30.206694,,,,,,TRUE,,,,,FEW,500,BKN,900,,,,,IFR,,,,,,,,,,,,SPECI,114.0
LPPT 230930Z 22013KT 9999 FEW025 SCT048 20/15 Q1015,LPPT,2022-10-23T09:30:00Z,38.77,-9.13,20.0,15.0,220,13,,6.21,29.970472,,,,,,,,,,,FEW,2500,SCT,4800,,,,,VFR,,,,,,,,,,,,METAR,98.0
LPPS 230930Z 28008KT 9999 FEW015 21/13 Q1019,LPPS,2022-10-23T09:30:00Z,33.07,-16.35,21.0,13.0,280,8,,6.21,30.088583,,,,,,,,,,,FEW,1500,,,,,,,VFR,,,,,,,,,,,,METAR,89.0
LPPR 230930Z 21016KT 9999 VCSH FEW008 SCT020CB 17/16 Q1010,LPPR,2022-10-23T09:30:00Z,41.23,-8.68,17.0,16.0,210,16,,6.21,29.822834,,,,,,,,,,VCSH,FEW,800,SCT,2000,,,,,VFR,,,,,,,,,,,,METAR,64.0
LPPD 230930Z 27019KT 7000 -RA FEW008 BKN014 18/17 Q1015 RERA,LPPD,2022-10-23T09:30:00Z,37.73,-25.68,18.0,17.0,270,19,,4.35,29.970472,,,,,,,,,,-RA,FEW,800,BKN,1400,,,,,MVFR,,,,,,,,,,,,METAR,62.0
LPMA 230930Z 14004KT 080V210 9999 SCT016 23/15 Q1018,LPMA,2022-10-23T09:30:00Z,32.7,-16.77,23.0,15.0,140,4,,6.21,30.059055,,,,,,,,,,,SCT,1600,,,,,,,VFR,,,,,,,,,,,,METAR,54.0
LPHR 230930Z 30017KT 9999 -RA SCT011 OVC097 19/18 Q1015,LPHR,2022-10-23T09:30:00Z,38.52,-28.72,19.0,18.0,300,17,,6.21,29.970472,,,,,,,,,,-RA,SCT,1100,OVC,9700,,,,,VFR,,,,,,,,,,,,METAR,39.0
LPFR 230930Z 27010KT 9999 -RA SCT012 BKN025 19/17 Q1018,LPFR,2022-10-23T09:30:00Z,37.02,-7.97,19.0,17.0,270,10,,6.21,30.059055,,,,,,,,,,-RA,SCT,1200,BKN,2500,,,,,MVFR,,,,,,,,,,,,METAR,3.0
LPFL 230930Z 33008G20KT 280V010 9999 FEW019 19/14 Q1017,LPFL,2022-10-23T09:30:00Z,39.45,-31.12,19.0,14.0,330,8,20,6.21,30.029528,,,,,,,,,,,FEW,1900,,,,,,,VFR,,,,,,,,,,,,METAR,35.0
LPAZ 230930Z 27013KT 9999 FEW010 SCT020 BKN040 19/16 Q1016,LPAZ,2022-10-23T09:30:00Z,36.97,-25.17,19.0,16.0,270,13,,6.21,30.0,,,,,,,,,,,FEW,1000,SCT,2000,BKN,4000,,,VFR,,,,,,,,,,,,METAR,96.0
LKTB 230930Z VRB02KT 0800 R27/1300U FG OVC003 09/09 Q1022 NOSIG,LKTB,2022-10-23T09:30:00Z,49.15,16.68,9.0,9.0,0,2,,0.5,30.177166,,,,,,TRUE,,,,FG,OVC,300,,,,,,,LIFR,,,,,,,,,,,,SPECI,233.0
LKPR 230930Z 08004KT 040V110 9999 FEW008 15/11 Q1019 NOSIG,LKPR,2022-10-23T09:30:00Z,50.1,14.27,15.0,11.0,80,4,,6.21,30.088583,,,,,,TRUE,,,,,FEW,800,,,,,,,VFR,,,,,,,,,,,,METAR,364.0
LKPD 230930Z VRB01KT 4000 BR FEW002 SCT230 12/12 Q1020 BECMG 9999 NSW RMK GRN GRN BECMG BLU,LKPD,2022-10-23T09:30:00Z,50.02,15.73,12.0,12.0,0,1,,2.49,30.11811,,,,,,,,,,BR,FEW,200,SCT,23000,,,,,IFR,,,,,,,,,,,,METAR,226.0
LKNA 230930Z VRB02KT 0100 R30/0200N FG VV001 08/08 Q1021 NOSIG RMK RED RED,LKNA,2022-10-23T09:30:00Z,49.17,16.12,8.0,8.0,0,2,,0.06,30.147638,,,,,,TRUE,,,,FG,OVX,0,,,,,,,LIFR,,,,,,,,,,,100,SPECI,460.0
LKMT 230930Z 22012KT 9999 BKN015 14/11 Q1022 TEMPO SCT015,LKMT,2022-10-23T09:30:00Z,49.68,18.12,14.0,11.0,220,12,,6.21,30.177166,,,,,,,,,,,BKN,1500,,,,,,,MVFR,,,,,,,,,,,,SPECI,251.0
LKKV 230930Z 12005KT 070V140 CAVOK 14/10 Q1019,LKKV,2022-10-23T09:30:00Z,50.2,12.92,14.0,10.0,120,5,,6.21,30.088583,,,,,,,,,,,CAVOK,,,,,,,,VFR,,,,,,,,,,,,METAR,600.0
LKCV 230930Z 15004KT 110V170 CAVOK 15/11 Q1020 NOSIG RMK BLU BLU,LKCV,2022-10-23T09:30:00Z,49.93,15.38,15.0,11.0,150,4,,6.21,30.11811,,,,,,TRUE,,,,,CAVOK,,,,,,,,VFR,,,,,,,,,,,,SPECI,234.0
LJPZ 230930Z 16004KT 070V210 9999 FEW013 BKN040 22/18 Q1022,LJPZ,2022-10-23T09:30:00Z,45.47,13.62,22.0,18.0,160,4,,6.21,30.177166,,,,,,,,,,,FEW,1300,BKN,4000,,,,,VFR,,,,,,,,,,,,METAR,2.0
LJMB 230930Z 19006KT 9999 FEW008 BKN190 15/12 Q1022,LJMB,2022-10-23T09:30:00Z,46.47,15.67,15.0,12.0,190,6,,6.21,30.177166,,,,,,,,,,,FEW,800,BKN,19000,,,,,VFR,,,,,,,,,,,,METAR,263.0
LJLJ 230930Z 00000KT 9999 FEW003 BKN033 11/11 Q1023 NOSIG,LJLJ,2022-10-23T09:30:00Z,46.22,14.47,11.0,11.0,0,0,,6.21,30.206694,,,,,,TRUE,,,,,FEW,300,BKN,3300,,,,,VFR,,,,,,,,,,,,METAR,363.0
LJCE 230930Z 27004KT 220V310 9999 FEW007 BKN045 16/13 Q1023 RMK BLU,LJCE,2022-10-23T09:30:00Z,45.9,15.52,16.0,13.0,270,4,,6.21,30.206694,,,,,,,,,,,FEW,700,BKN,4500,,,,,VFR,,,,,,,,,,,,METAR,153.0
LFYR 230930Z AUTO 16009KT CAVOK 20/14 Q1006,LFYR,2022-10-23T09:30:00Z,47.32,1.68,20.0,14.0,160,9,,6.21,29.704725,,,TRUE,,,,,,,,CAVOK,,,,,,,,VFR,,,,,,,,,,,,METAR,83.0
LFVP 230930Z AUTO 25015KT CAVOK 12/11 Q1027 NOSIG,LFVP,2022-10-23T09:30:00Z,46.77,-56.18,12.0,11.0,250,15,,6.21,30.324802,,,TRUE,,,TRUE,,,,,CAVOK,,,,,,,,VFR,,,,,,,,,,,,METAR,5.0
LFTW 230930Z AUTO 15007KT 110V200 9999 BKN013 OVC018 21/19 Q1017 BECMG 15015G25KT,LFTW,2022-10-23T09:30:00Z,43.75,4.42,21.0,19.0,150,7,,6.21,30.029528,,,TRUE,,,,,,,,BKN,1300,OVC,1800,,,,,MVFR,,,,,,,,,,,,SPECI,91.0
LFTH 230930Z AUTO 07009KT 040V100 9999 BKN025 23/19 Q1020 TEMPO BKN013,LFTH,2022-10-23T09:30:00Z,43.1,6.15,23.0,19.0,70,9,,6.21,30.11811,,,TRUE,,,,,,,,BKN,2500,,,,,,,MVFR,,,,,,,,,,,,METAR,3.0
LFSX 230930Z AUTO 11008KT CAVOK 17/13 Q1013,LFSX,2022-10-23T09:30:00Z,47.77,6.35,17.0,13.0,110,8,,6.21,29.911417,,,TRUE,,,,,,,,CAVOK,,,,,,,,VFR,,,,,,,,,,,,METAR,266.0
LFST 230930Z AUTO 17004KT 120V220 CAVOK 17/13 Q1014 NOSIG,LFST,2022-10-23T09:30:00Z,48.53,7.63,17.0,13.0,170,4,,6.21,29.940945,,,TRUE,,,TRUE,,,,,CAVOK,,,,,,,,VFR,,,,,,,,,,,,METAR,149.0
LFSO 230930Z AUTO 18014KT 140V200 CAVOK 20/13 Q1011,LFSO,2022-10-23T09:30:00Z,48.57,5.97,20.0,13.0,180,14,,6.21,29.852362,,,TRUE,,,,,,,,CAVOK,,,,,,,,VFR,,,,,,,,,,,,METAR,328.0
LFSN 230930Z AUTO 16005KT 110V200 CAVOK 18/14 Q1012,LFSN,2022-10-23T09:30:00Z,48.68,6.22,18.0,14.0,160,5,,6.21,29.88189,,,TRUE,,,,,,,,CAVOK,,,,,,,,VFR,,,,,,,,,,,,METAR,214.0
LFSM 230930Z AUTO 11004KT 080V140 CAVOK 15/13 Q1014,LFSM,2022-10-23T09:30:00Z,47.48,6.78,15.0,13.0,110,4,,6.21,29.940945,,,TRUE,,,,,,,,CAVOK,,,,,,,,VFR,,,,,,,,,,,,METAR,317.0
LFSL 230930Z AUTO 16007KT 120V190 CAVOK 20/13 Q1010 TEMPO 18020G35KT 4000 TSRA BKN080CB,LFSL,2022-10-23T09:30:00Z,45.03,1.48,20.0,13.0,160,7,,6.21,29.822834,,,TRUE,,,,,,,,CAVOK,,,,,,,,VFR,,,,,,,,,,,,SPECI,300.0
LFSI 230930Z AUTO 16012KT CAVOK 21/14 Q1010,LFSI,2022-10-23T09:30:00Z,48.62,4.9,21.0,14.0,160,12,,6.21,29.822834,,,TRUE,,,,,,,,CAVOK,,,,,,,,VFR,,,,,,,,,,,,METAR,136.0
LFSG 230930Z AUTO 19015KT CAVOK 19/13 Q1012,LFSG,2022-10-23T09:30:00Z,48.33,6.07,19.0,13.0,190,15,,6.21,29.88189,,,TRUE,,,,,,,,CAVOK,,,,,,,,VFR,,,,,,,,,,,,METAR,320.0
LFSD 230930Z AUTO 17002KT 9999 ////// 15/14 Q1012,LFSD,2022-10-23T09:30:00Z,47.27,5.08,15.0,14.0,170,2,,6.21,29.88189,,,TRUE,,,,,,,,,,,,,,,,,,,,,,,,,,,,SPECI,218.0
LFSB 230930Z AUTO 13011KT CAVOK 17/11 Q1014 NOSIG,LFSB,2022-10-23T09:30:00Z,47.6,7.52,17.0,11.0,130,11,,6.21,29.940945,,,TRUE,,,TRUE,,,,,CAVOK,,,,,,,,VFR,,,,,,,,,,,,METAR,262.0
LFRZ 230930Z AUTO 11011KT 7000 NSC 18/15 Q1000 BECMG 20018G38KT 4000 SHRA SCT020 BKN050CB,LFRZ,2022-10-23T09:30:00Z,47.32,-2.17,18.0,15.0,110,11,,4.35,29.52756,,,TRUE,,,,,,,,CLR,,,,,,,,MVFR,,,1.8,,,,,,,,,SPECI,2.0
LFRV 230930Z AUTO 12011KT 9999 BKN046 BKN110 18/12 Q1000,LFRV,2022-10-23T09:30:00Z,47.72,-2.72,18.0,12.0,120,11,,6.21,29.52756,,,TRUE,,,,,,,,BKN,4600,BKN,11000,,,,,VFR,,,,,,,,,,,,METAR,132.0
LFRU 230930Z AUTO 14007KT CAVOK 15/12 Q0998,LFRU,2022-10-23T09:30:00Z,48.6,-3.82,15.0,12.0,140,7,,6.21,29.468504,,,TRUE,,,,,,,,CAVOK,,,,,,,,VFR,,,,,,,,,,,,METAR,85.0
LFRT 230930Z AUTO 13006KT 100V160 CAVOK 16/12 Q1000,LFRT,2022-10-23T09:30:00Z,48.53,-2.85,16.0,12.0,130,6,,6.21,29.52756,,,TRUE,,,,,,,,CAVOK,,,,,,,,VFR,,,,,,,,,,,,METAR,134.0
LFRS 230930Z AUTO 16013KT CAVOK 20/15 Q1001 BECMG 20018G35KT,LFRS,2022-10-23T09:30:00Z,47.17,-1.6,20.0,15.0,160,13,,6.21,29.557087,,,TRUE,,,,,,,,CAVOK,,,,,,,,VFR,,,1.8,,,,,,,,,METAR,26.0
LFRQ 230930Z AUTO 23007KT 200V270 8000 RA FEW009/// BKN049/// BKN056/// //////CB 14/13 Q0999 TEMPO 2000 TSRAGR BKN008 BKN015CB BECMG 21020G40KT,LFRQ,2022-10-23T09:30:00Z,47.97,-4.17,14.0,13.0,230,7,,4.97,29.498032,,,TRUE,,,,,,,RA,FEW,900,BKN,4900,BKN,5600,,,MVFR,,,-2.0,,,,,,,,,METAR,94.0
LFRO 230930Z AUTO 14008KT CAVOK 16/12 Q0999,LFRO,2022-10-23T09:30:00Z,48.75,-3.47,16.0,12.0,140,8,,6.21,29.498032,,,TRUE,,,,,,,,CAVOK,,,,,,,,VFR,,,,,,,,,,,,METAR,86.0
LFRN 230930Z AUTO 13007KT 090V160 9999 FEW015 19/16 Q1001 TEMPO 2000 TSRAGR BKN012CB BECMG 19015G30KT,LFRN,2022-10-23T09:30:00Z,48.07,-1.73,19.0,16.0,130,7,,6.21,29.557087,,,TRUE,,,,,,,,FEW,1500,,,,,,,VFR,,,,,,,,,,,,SPECI,35.0
LFRM 230930Z AUTO 16008KT 120V200 CAVOK 19/14 Q1004 NOSIG,LFRM,2022-10-23T09:30:00Z,47.95,0.2,19.0,14.0,160,8,,6.21,29.64567,,,TRUE,,,TRUE,,,,,CAVOK,,,,,,,,VFR,,,,,,,,,,,,METAR,51.0
LFRL 230930Z AUTO 15010KT 120V190 6000 RA FEW048/// SCT062/// BKN074/// //////CB 13/12 Q0999,LFRL,2022-10-23T09:30:00Z,48.27,-4.43,13.0,12.0,150,10,,3.73,29.498032,,,TRUE,,,,,,,RA,FEW,4800,SCT,6200,BKN,7400,,,MVFR,,,,,,,,,,,,METAR,80.0
LFRK 230930Z AUTO 16006KT 130V190 9999 BKN037 BKN050 BKN062 18/14 Q1002 TEMPO 18015G25KT 3000 SHRA BKN010 BKN035CB,LFRK,2022-10-23T09:30:00Z,49.17,-0.45,18.0,14.0,160,6,,6.21,29.586615,,,TRUE,,,,,,,,BKN,3700,BKN,5000,BKN,6200,,,VFR,,,,,,,,,,,,SPECI,66.0
LFRJ 230930Z AUTO 13007KT 9999 FEW026/// BKN054/// BKN072/// //////CB 14/12 Q0998,LFRJ,2022-10-23T09:30:00Z,48.52,-4.15,14.0,12.0,130,7,,6.21,29.468504,,,TRUE,,,,,,,,FEW,2600,BKN,5400,BKN,7200,,,VFR,,,,,,,,,,,,METAR,109.0
LFRI 230930Z AUTO 16010KT CAVOK 19/15 Q1002 BECMG 20018G35KT,LFRI,2022-10-23T09:30:00Z,46.7,-1.37,19.0,15.0,160,10,,6.21,29.586615,,,TRUE,,,,,,,,CAVOK,,,,,,,,VFR,,,1.8,,,,,,,,,METAR,89.0
LFRH 230930Z AUTO 11010KT 9999 FEW028/// BKN048/// BKN110/// //////CB 16/12 Q0999 TEMPO 2000 TSRA BECMG 20015G30KT,LFRH,2022-10-23T09:30:00Z,47.77,-3.45,16.0,12.0,110,10,,6.21,29.498032,,,TRUE,,,,,,,,FEW,2800,BKN,4800,BKN,11000,,,VFR,,,1.5,,,,,,,,,METAR,46.0
LFRG 230930Z AUTO 16010KT CAVOK 17/15 Q1003 TEMPO 18015G25KT 3000 SHRA BKN010 BKN035CB,LFRG,2022-10-23T09:30:00Z,49.37,0.15,17.0,15.0,160,10,,6.21,29.616142,,,TRUE,,,,,,,,CAVOK,,,,,,,,VFR,,,,,,,,,,,,SPECI,146.0
LFRD 230930Z AUTO 13007KT 080V150 CAVOK 18/14 Q1000 TEMPO 2000 TSRAGR BKN012CB BECMG 19015G30KT,LFRD,2022-10-23T09:30:00Z,48.58,-2.07,18.0,14.0,130,7,,6.21,29.52756,,,TRUE,,,,,,,,CAVOK,,,,,,,,VFR,,,,,,,,,,,,SPECI,56.0
LFRC 230930Z AUTO 15008KT CAVOK 17/14 Q1001 TEMPO VRB20G40KT 2000 TSRAGR BKN008 BKN015CB,LFRC,2022-10-23T09:30:00Z,49.63,-1.47,17.0,14.0,150,8,,6.21,29.557087,,,TRUE,,,,,,,,CAVOK,,,,,,,,VFR,,,,,,,,,,,,METAR,137.0
LFRB 230930Z AUTO 11011KT 9999 -RA FEW021/// SCT062/// BKN080/// ///CB 13/12 Q0998 TEMPO 2000 TSRAGR BKN008 BKN015CB BECMG 15015G30KT,LFRB,2022-10-23T09:30:00Z,48.45,-4.42,13.0,12.0,110,11,,6.21,29.468504,,,TRUE,,,,,,,-RA,FEW,2100,SCT,6200,BKN,8000,,,VFR,,,,,,,,,,,,SPECI,91.0
LFQQ 230930Z AUTO 13010KT CAVOK 16/14 Q1005 NOSIG,LFQQ,2022-10-23T09:30:00Z,50.57,3.1,16.0,14.0,130,10,,6.21,29.675198,,,TRUE,,,TRUE,,,,,CAVOK,,,,,,,,VFR,,,,,,,,,,,,METAR,43.0
LFQG 230930Z AUTO 14010KT CAVOK 18/14 Q1009,LFQG,2022-10-23T09:30:00Z,47.0,3.1,18.0,14.0,140,10,,6.21,29.793306,,,TRUE,,,,,,,,CAVOK,,,,,,,,VFR,,,,,,,,,,,,METAR,172.0
LFQB 230930Z AUTO 18011KT CAVOK 20/15 Q1009,LFQB,2022-10-23T09:30:00Z,48.32,4.02,20.0,15.0,180,11,,6.21,29.793306,,,TRUE,,,,,,,,CAVOK,,,,,,,,VFR,,,,,,,,,,,,METAR,107.0
LFQA 230930Z AUTO 13007KT CAVOK 17/15 Q1008,LFQA,2022-10-23T09:30:00Z,49.2,4.15,17.0,15.0,130,7,,6.21,29.763779,,,TRUE,,,,,,,,CAVOK,,,,,,,,VFR,,,,,,,,,,,,METAR,92.0
LFPV 230930Z AUTO 15008KT 120V180 CAVOK 18/14 Q1006 NOSIG,LFPV,2022-10-23T09:30:00Z,48.77,2.2,18.0,14.0,150,8,,6.21,29.704725,,,TRUE,,,TRUE,,,,,CAVOK,,,,,,,,VFR,,,,,,,,,,,,METAR,171.0
LFPT 230930Z AUTO 18011KT CAVOK 18/14 Q1005,LFPT,2022-10-23T09:30:00Z,49.1,2.03,18.0,14.0,180,11,,6.21,29.675198,,,TRUE,,,,,,,,CAVOK,,,,,,,,VFR,,,,,,,,,,,,METAR,91.0
LFPO 230930Z 17007KT 150V220 CAVOK 19/14 Q1007 NOSIG,LFPO,2022-10-23T09:30:00Z,48.72,2.38,19.0,14.0,170,7,,6.21,29.734253,,,,,,TRUE,,,,,CAVOK,,,,,,,,VFR,,,,,,,,,,,,METAR,88.0
LFPN 230930Z AUTO 17010KT 140V200 CAVOK 19/13 Q1006 NOSIG,LFPN,2022-10-23T09:30:00Z,48.75,2.12,19.0,13.0,170,10,,6.21,29.704725,,,TRUE,,,TRUE,,,,,CAVOK,,,,,,,,VFR,,,,,,,,,,,,METAR,152.0
LFPM 230930Z AUTO 16011KT CAVOK 19/15 Q1007,LFPM,2022-10-23T09:30:00Z,48.62,2.67,19.0,15.0,160,11,,6.21,29.734253,,,TRUE,,,,,,,,CAVOK,,,,,,,,VFR,,,,,,,,,,,,METAR,91.0
LFPG 230930Z 17010KT CAVOK 19/14 Q1007 NOSIG,LFPG,2022-10-23T09:30:00Z,49.02,2.53,19.0,14.0,170,10,,6.21,29.734253,,,,,,TRUE,,,,,CAVOK,,,,,,,,VFR,,,,,,,,,,,,METAR,107.0
LFPB 230930Z AUTO 17013KT CAVOK 19/14 Q1006 NOSIG,LFPB,2022-10-23T09:30:00Z,48.97,2.42,19.0,14.0,170,13,,6.21,29.704725,,,TRUE,,,TRUE,,,,,CAVOK,,,,,,,,VFR,,,,,,,,,,,,METAR,50.0
LFOZ 230930Z AUTO 16010KT CAVOK 20/14 Q1007,LFOZ,2022-10-23T09:30:00Z,47.9,2.17,20.0,14.0,160,10,,6.21,29.734253,,,TRUE,,,,,,,,CAVOK,,,,,,,,VFR,,,,,,,,,,,,METAR,121.0
LFOV 230930Z AUTO 15007KT CAVOK 18/14 Q1003,LFOV,2022-10-23T09:30:00Z,48.03,-0.75,18.0,14.0,150,7,,6.21,29.616142,,,TRUE,,,,,,,,CAVOK,,,,,,,,VFR,,,,,,,,,,,,METAR,99.0
LFOT 230930Z AUTO 16010KT CAVOK 20/14 Q1005 TEMPO 22020G35KT 4000 SHRA SCT030TCU,LFOT,2022-10-23T09:30:00Z,47.43,0.72,20.0,14.0,160,10,,6.21,29.675198,,,TRUE,,,,,,,,CAVOK,,,,,,,,VFR,,,,,,,,,,,,SPECI,107.0
LFOP 230930Z AUTO 15013KT CAVOK 16/14 Q1004 NOSIG,LFOP,2022-10-23T09:30:00Z,49.37,1.17,16.0,14.0,150,13,,6.21,29.64567,,,TRUE,,,TRUE,,,,,CAVOK,,,,,,,,VFR,,,,,,,,,,,,METAR,149.0
LFOK 230930Z AUTO 16015KT CAVOK 18/15 Q1009 NOSIG,LFOK,2022-10-23T09:30:00Z,48.78,4.15,18.0,15.0,160,15,,6.21,29.793306,,,TRUE,,,TRUE,,,,,CAVOK,,,,,,,,VFR,,,,,,,,,,,,METAR,166.0
LFOJ 230930Z AUTO 15011KT CAVOK 19/14 Q1006 TEMPO 21020G30KT 4000 -SHRA SCT050CB,LFOJ,2022-10-23T09:30:00Z,47.98,1.75,19.0,14.0,150,11,,6.21,29.704725,,,TRUE,,,,,,,,CAVOK,,,,,,,,VFR,,,-2.0,,,,,,,,,SPECI,122.0
LFOH 230930Z AUTO 15007KT 9999 BKN033 BKN056 OVC068 17/14 Q1003 NOSIG,LFOH,2022-10-23T09:30:00Z,49.52,0.08,17.0,14.0,150,7,,6.21,29.616142,,,TRUE,,,TRUE,,,,,BKN,3300,BKN,5600,OVC,6800,,,VFR,,,,,,,,,,,,METAR,87.0
LFOE 230930Z AUTO 18011KT CAVOK 17/14 Q1005 BECMG 20020G30KT,LFOE,2022-10-23T09:30:00Z,49.02,1.22,17.0,14.0,180,11,,6.21,29.675198,,,TRUE,,,,,,,,CAVOK,,,,,,,,VFR,,,2.0,,,,,,,,,SPECI,132.0
LFOB 230930Z AUTO 16011KT CAVOK 17/14 Q1006 NOSIG,LFOB,2022-10-23T09:30:00Z,49.47,2.12,17.0,14.0,160,11,,6.21,29.704725,,,TRUE,,,TRUE,,,,,CAVOK,,,,,,,,VFR,,,,,,,,,,,,METAR,99.0
LFOA 230930Z AUTO 15008KT 9999 //////TCU 20/15 Q1008 TEMPO 20015G25KT 4000 SHRA SCT050CB,LFOA,2022-10-23T09:30:00Z,47.05,2.63,20.0,15.0,150,8,,6.21,29.763779,,,TRUE,,,,,,,,,,,,,,,,,,,1.5,,,,,,,,,METAR,174.0
LFMY 230930Z AUTO 10009KT 070V130 CAVOK 23/17 Q1018,LFMY,2022-10-23T09:30:00Z,43.6,5.1,23.0,17.0,100,9,,6.21,30.059055,,,TRUE,,,,,,,,CAVOK,,,,,,,,VFR,,,,,,,,,,,,METAR,57.0
LFMV 230930Z AUTO 17005KT CAVOK 22/17 Q1017 NOSIG,LFMV,2022-10-23T09:30:00Z,43.9,4.9,22.0,17.0,170,5,,6.21,30.029528,,,TRUE,,,TRUE,,,,,CAVOK,,,,,,,,VFR,,,,,,,,,,,,METAR,33.0
LFMU 230930Z AUTO 10008KT 9999 BKN013 21/19 Q1015 TEMPO BKN008,LFMU,2022-10-23T09:30:00Z,43.32,3.35,21.0,19.0,100,8,,6.21,29.970472,,,TRUE,,,,,,,,BKN,1300,,,,,,,MVFR,,,,,,,,,,,,METAR,14.0
LFMT 230930Z AUTO 14015KT 8000 FEW009 OVC022 21/21 Q1017 BECMG 4000 BR BKN007 BKN013,LFMT,2022-10-23T09:30:00Z,43.57,3.97,21.0,21.0,140,15,,4.97,30.029528,,,TRUE,,,,,,,,FEW,900,OVC,2200,,,,,MVFR,,,,,,,,,,,,SPECI,1.0
LFMP 230930Z AUTO VRB03KT CAVOK 23/15 Q1014 TEMPO 22015G25KT,LFMP,2022-10-23T09:30:00Z,42.73,2.87,23.0,15.0,0,3,,6.21,29.940945,,,TRUE,,,,,,,,CAVOK,,,,,,,,VFR,,,,,,,,,,,,SPECI,41.0
LFMO 230930Z AUTO VRB01KT CAVOK 18/17 Q1018 TEMPO 19015G25KT,LFMO,2022-10-23T09:30:00Z,44.13,4.87,18.0,17.0,0,1,,6.21,30.059055,,,TRUE,,,,,,,,CAVOK,,,,,,,,VFR,,,,,,,,,,,,METAR,56.0
LFMN 230930Z 33009KT CAVOK 21/13 Q1021 BECMG 09010KT,LFMN,2022-10-23T09:30:00Z,43.65,7.2,21.0,13.0,330,9,,6.21,30.147638,,,,,,,,,,,CAVOK,,,,,,,,VFR,,,,,,,,,,,,SPECI,4.0
LFML 230930Z AUTO 13015KT CAVOK 25/16 Q1017 BECMG 14015G25KT,LFML,2022-10-23T09:30:00Z,43.45,5.22,25.0,16.0,130,15,,6.21,30.029528,,,TRUE,,,,,,,,CAVOK,,,,,,,,VFR,,,,,,,,,,,,SPECI,20.0
LFMK 230930Z AUTO 08016KT 060V120 9999 FEW001 20/18 Q1014 TEMPO 09015G25KT,LFMK,2022-10-23T09:30:00Z,43.22,2.32,20.0,18.0,80,16,,6.21,29.940945,,,TRUE,,,,,,,,FEW,100,,,,,,,VFR,,,,,,,,,,,,METAR,124.0
LFMI 230930Z AUTO 12012KT CAVOK 24/16 Q1017 BECMG 15015G25KT,LFMI,2022-10-23T09:30:00Z,43.52,4.93,24.0,16.0,120,12,,6.21,30.029528,,,TRUE,,,,,,,,CAVOK,,,,,,,,VFR,,,,,,,,,,,,SPECI,20.0
LFMH 230930Z AUTO 19021KT CAVOK 22/14 Q1012,LFMH,2022-10-23T09:30:00Z,45.52,4.28,22.0,14.0,190,21,,6.21,29.88189,,,TRUE,,,,,,,,CAVOK,,,,,,,,VFR,,,,,,,,,,,,METAR,400.0
LFMD 230930Z AUTO VRB03KT CAVOK 23/17 Q1021 NOSIG,LFMD,2022-10-23T09:30:00Z,43.53,6.95,23.0,17.0,0,3,,6.21,30.147638,,,TRUE,,,TRUE,,,,,CAVOK,,,,,,,,VFR,,,,,,,,,,,,METAR,2.0
LFMC 230930Z AUTO 07008KT 040V100 9999 ////// 23/18 Q1020,LFMC,2022-10-23T09:30:00Z,43.37,6.38,23.0,18.0,70,8,,6.21,30.11811,,,TRUE,,,,,,,,,,,,,,,,,,,,,,,,,,,,METAR,79.0
LFLY 230930Z AUTO 18022G35KT 150V210 CAVOK 22/13 Q1013 BECMG 18015G25KT,LFLY,2022-10-23T09:30:00Z,45.72,4.95,22.0,13.0,180,22,35,6.21,29.911417,,,TRUE,,,,,,,,CAVOK,,,,,,,,VFR,,,,,,,,,,,,SPECI,197.0
LFLX 230930Z AUTO 16009KT 9999 //////CB 19/13 Q1007 BECMG 22015G27KT NSC,LFLX,2022-10-23T09:30:00Z,46.87,1.73,19.0,13.0,160,9,,6.21,29.734253,,,TRUE,,,,,,,,,,,,,,,,,,,,,,,,,,,,SPECI,157.0
LFLW 230930Z AUTO 14016KT CAVOK 19/13 Q1013 TEMPO -TSRA BKN120CB BECMG 14015G25KT,LFLW,2022-10-23T09:30:00Z,44.88,2.42,19.0,13.0,140,16,,6.21,29.911417,,,TRUE,,,,,,,,CAVOK,,,,,,,,VFR,,,,,,,,,,,,METAR,638.0
LFLV 230930Z AUTO 17007KT 150V210 CAVOK 21/14 Q1010,LFLV,2022-10-23T09:30:00Z,46.17,3.38,21.0,14.0,170,7,,6.21,29.822834,,,TRUE,,,,,,,,CAVOK,,,,,,,,VFR,,,,,,,,,,,,METAR,248.0
LFLU 230930Z AUTO 19019KT CAVOK 21/16 Q1015,LFLU,2022-10-23T09:30:00Z,44.92,4.98,21.0,16.0,190,19,,6.21,29.970472,,,TRUE,,,,,,,,CAVOK,,,,,,,,VFR,,,,,,,,,,,,METAR,162.0
LFLS 230930Z AUTO VRB02KT CAVOK 18/15 Q1016 BECMG 21012KT,LFLS,2022-10-23T09:30:00Z,45.37,5.32,18.0,15.0,0,2,,6.21,30.0,,,TRUE,,,,,,,,CAVOK,,,,,,,,VFR,,,-1.2,,,,,,,,,SPECI,386.0
LFLP 230930Z AUTO VRB01KT CAVOK 14/12 Q1017 NOSIG,LFLP,2022-10-23T09:30:00Z,45.92,6.1,14.0,12.0,0,1,,6.21,30.029528,,,TRUE,,,TRUE,,,,,CAVOK,,,,,,,,VFR,,,,,,,,,,,,METAR,460.0
LFLN 230930Z AUTO 16013KT CAVOK 22/15 Q1010 TEMPO 17015G30KT,LFLN,2022-10-23T09:30:00Z,46.42,4.02,22.0,15.0,160,13,,6.21,29.822834,,,TRUE,,,,,,,,CAVOK,,,,,,,,VFR,,,,,,,,,,,,METAR,238.0
LFLL 230930Z 18022KT CAVOK 22/12 Q1012 NOSIG,LFLL,2022-10-23T09:30:00Z,45.72,5.07,22.0,12.0,180,22,,6.21,29.88189,,,,,,TRUE,,,,,CAVOK,,,,,,,,VFR,,,,,,,,,,,,METAR,234.0
LFLH 230930Z AUTO 16006KT CAVOK 18/15 Q1011,LFLH,2022-10-23T09:30:00Z,46.83,4.82,18.0,15.0,160,6,,6.21,29.852362,,,TRUE,,,,,,,,CAVOK,,,,,,,,VFR,,,,,,,,,,,,METAR,190.0
LFLC 230930Z AUTO 17014KT CAVOK 22/14 Q1010 TEMPO 18015G30KT,LFLC,2022-10-23T09:30:00Z,45.78,3.17,22.0,14.0,170,14,,6.21,29.822834,,,TRUE,,,,,,,,CAVOK,,,,,,,,VFR,,,,,,,,,,,,SPECI,325.0
LFLB 230930Z AUTO VRB03KT CAVOK 13/13 Q1016 NOSIG,LFLB,2022-10-23T09:30:00Z,45.63,5.87,13.0,13.0,0,3,,6.21,30.0,,,TRUE,,,TRUE,,,,,CAVOK,,,,,,,,VFR,,,,,,,,,,,,METAR,234.0
LFKS 230930Z AUTO 09006KT CAVOK 24/19 Q1021,LFKS,2022-10-23T09:30:00Z,41.92,9.4,24.0,19.0,90,6,,6.21,30.147638,,,TRUE,,,,,,,,CAVOK,,,,,,,,VFR,,,,,,,,,,,,METAR,22.0
LFKJ 230930Z AUTO 03004KT CAVOK 29/12 Q1021 NOSIG,LFKJ,2022-10-23T09:30:00Z,41.92,8.8,29.0,12.0,30,4,,6.21,30.147638,,,TRUE,,,TRUE,,,,,CAVOK,,,,,,,,VFR,,,,,,,,,,,,METAR,9.0
LFKF 230930Z AUTO 04004KT 020V080 CAVOK 26/18 Q1021 NOSIG,LFKF,2022-10-23T09:30:00Z,41.5,9.08,26.0,18.0,40,4,,6.21,30.147638,,,TRUE,,,TRUE,,,,,CAVOK,,,,,,,,VFR,,,,,,,,,,,,METAR,15.0
LFKC 230930Z AUTO VRB02KT CAVOK 25/13 Q1020 NOSIG,LFKC,2022-10-23T09:30:00Z,42.52,8.8,25.0,13.0,0,2,,6.21,30.11811,,,TRUE,,,TRUE,,,,,CAVOK,,,,,,,,VFR,,,,,,,,,,,,METAR,38.0
LFKB 230930Z AUTO VRB03KT 9999 BKN022 23/19 Q1022 NOSIG,LFKB,2022-10-23T09:30:00Z,42.55,9.48,23.0,19.0,0,3,,6.21,30.177166,,,TRUE,,,TRUE,,,,,BKN,2200,,,,,,,MVFR,,,,,,,,,,,,METAR,7.0
LFJR 230930Z AUTO 15011KT CAVOK 18/14 Q1003,LFJR,2022-10-23T09:30:00Z,47.57,-0.32,18.0,14.0,150,11,,6.21,29.616142,,,TRUE,,,,,,,,CAVOK,,,,,,,,VFR,,,,,,,,,,,,METAR,50.0
LFJL 230930Z AUTO 15015KT CAVOK 17/12 Q1011 NOSIG,LFJL,2022-10-23T09:30:00Z,48.97,6.25,17.0,12.0,150,15,,6.21,29.852362,,,TRUE,,,TRUE,,,,,CAVOK,,,,,,,,VFR,,,,,,,,,,,,METAR,259.0
LFHP 230930Z AUTO 17013G26KT 140V210 CAVOK 19/13 Q1016,LFHP,2022-10-23T09:30:00Z,45.07,3.77,19.0,13.0,170,13,26,6.21,30.0,,,TRUE,,,,,,,,CAVOK,,,,,,,,VFR,,,,,,,,,,,,METAR,829.0
LFGJ 230930Z AUTO 20017KT CAVOK 22/14 Q1012 BECMG 21015G30KT,LFGJ,2022-10-23T09:30:00Z,47.05,5.43,22.0,14.0,200,17,,6.21,29.88189,,,TRUE,,,,,,,,CAVOK,,,,,,,,VFR,,,-1.5,,,,,,,,,METAR,191.0
LFGA 230930Z AUTO 17005KT CAVOK 18/12 Q1013,LFGA,2022-10-23T09:30:00Z,48.1,7.35,18.0,12.0,170,5,,6.21,29.911417,,,TRUE,,,,,,,,CAVOK,,,,,,,,VFR,,,,,,,,,,,,METAR,191.0
LFCR 230930Z AUTO 13013KT CAVOK 20/13 Q1014 BECMG 14016G26KT,LFCR,2022-10-23T09:30:00Z,44.4,2.47,20.0,13.0,130,13,,6.21,29.940945,,,TRUE,,,,,,,,CAVOK,,,,,,,,VFR,,,,,,,,,,,,METAR,576.0
LFCK 230930Z AUTO 12021KT CAVOK 22/15 Q1014 TEMPO 12020G36KT,LFCK,2022-10-23T09:30:00Z,43.55,2.28,22.0,15.0,120,21,,6.21,29.940945,,,TRUE,,,,,,,,CAVOK,,,,,,,,VFR,,,,,,,,,,,,METAR,223.0
LFBZ 230930Z AUTO 19013G31KT 130V250 CAVOK 25/12 Q1007 NOSIG,LFBZ,2022-10-23T09:30:00Z,43.47,-1.53,25.0,12.0,190,13,31,6.21,29.734253,,,TRUE,,,TRUE,,,,,CAVOK,,,,,,,,VFR,,,,,,,,,,,,METAR,70.0
LFBY 230930Z AUTO 20017G33KT 170V240 9999 // ////// 26/10 Q1008,LFBY,2022-10-23T09:30:00Z,43.68,-1.07,26.0,10.0,200,17,33,6.21,29.763779,,,TRUE,,,,,,,,,,,,,,,,,,,,,,,,,,,,METAR,32.0
LFBX 230930Z AUTO 13007KT 080V180 CAVOK 21/13 Q1008,LFBX,2022-10-23T09:30:00Z,45.2,0.82,21.0,13.0,130,7,,6.21,29.763779,,,TRUE,,,,,,,,CAVOK,,,,,,,,VFR,,,,,,,,,,,,METAR,97.0
LFBU 230930Z AUTO 16011KT 130V190 CAVOK 21/13 Q1007 BECMG 20015G25KT,LFBU,2022-10-23T09:30:00Z,45.72,0.22,21.0,13.0,160,11,,6.21,29.734253,,,TRUE,,,,,,,,CAVOK,,,,,,,,VFR,,,1.5,,,,,,,,,METAR,124.0
LFBT 230930Z AUTO 17011KT 9999 BKN094/// BKN110/// BKN180/// //////TCU 23/11 Q1011 TEMPO 20020G35KT FEW060CB BKN110,LFBT,2022-10-23T09:30:00Z,43.18,0.0,23.0,11.0,170,11,,6.21,29.852362,,,TRUE,,,,,,,,BKN,9400,BKN,11000,BKN,18000,,,VFR,,,2.0,,,,,,,,,METAR,359.0
LFBP 230930Z AUTO 16015KT CAVOK 26/09 Q1009 BECMG 20016G26KT,LFBP,2022-10-23T09:30:00Z,43.38,-0.42,26.0,9.0,160,15,,6.21,29.793306,,,TRUE,,,,,,,,CAVOK,,,,,,,,VFR,,,1.6,,,,,,,,,SPECI,182.0
LFBO 230930Z AUTO 13013KT CAVOK 22/16 Q1011 TEMPO 15018G28KT,LFBO,2022-10-23T09:30:00Z,43.62,1.37,22.0,16.0,130,13,,6.21,29.852362,,,TRUE,,,,,,,,CAVOK,,,,,,,,VFR,,,,,,,,,,,,SPECI,150.0
LFBM 230930Z AUTO 21006KT 180V240 9999 // NSC 24/12 Q1008,LFBM,2022-10-23T09:30:00Z,43.92,-0.5,24.0,12.0,210,6,,6.21,29.763779,,,TRUE,,,,,,,,CLR,,,,,,,,VFR,,,,,,,,,,,,SPECI,56.0
LFBL 230930Z AUTO 16012KT 130V190 CAVOK 20/12 Q1009 TEMPO 20020G35KT SCT060TCU,LFBL,2022-10-23T09:30:00Z,45.87,1.17,20.0,12.0,160,12,,6.21,29.793306,,,TRUE,,,,,,,,CAVOK,,,,,,,,VFR,,,2.0,,,,,,,,,SPECI,402.0
LFBI 230930Z AUTO 17012KT 140V200 CAVOK 20/13 Q1005 TEMPO SHRA SCT080CB BECMG 20018G38KT,LFBI,2022-10-23T09:30:00Z,46.58,0.32,20.0,13.0,170,12,,6.21,29.675198,,,TRUE,,,,,,,,CAVOK,,,,,,,,VFR,,,1.8,,,,,,,,,SPECI,117.0
LFBH 230930Z AUTO 17015KT CAVOK 20/15 Q1003 BECMG 20020G42KT,LFBH,2022-10-23T09:30:00Z,46.18,-1.2,20.0,15.0,170,15,,6.21,29.616142,,,TRUE,,,,,,,,CAVOK,,,,,,,,VFR,,,2.0,,,,,,,,,SPECI,18.0
LFBG 230930Z AUTO 18014KT CAVOK 21/13 Q1006,LFBG,2022-10-23T09:30:00Z,45.67,-0.32,21.0,13.0,180,14,,6.21,29.704725,,,TRUE,,,,,,,,CAVOK,,,,,,,,VFR,,,,,,,,,,,,METAR,28.0
LFBF 230930Z AUTO 16009KT CAVOK 23/15 Q1011,LFBF,2022-10-23T09:30:00Z,43.53,1.37,23.0,15.0,160,9,,6.21,29.852362,,,TRUE,,,,,,,,CAVOK,,,,,,,,VFR,,,,,,,,,,,,METAR,159.0
LFBE 230930Z AUTO 16008KT 130V210 CAVOK 21/14 Q1008 TEMPO 16015G25KT,LFBE,2022-10-23T09:30:00Z,44.82,0.52,21.0,14.0,160,8,,6.21,29.763779,,,TRUE,,,,,,,,CAVOK,,,,,,,,VFR,,,,,,,,,,,,METAR,49.0
LFBD 230930Z AUTO 17006KT CAVOK 21/13 Q1007 TEMPO 21020G35KT,LFBD,2022-10-23T09:30:00Z,44.82,-0.7,21.0,13.0,170,6,,6.21,29.734253,,,TRUE,,,,,,,,CAVOK,,,,,,,,VFR,,,-2.0,,,,,,,,,SPECI,48.0
LFBC 230930Z AUTO 20013KT CAVOK 23/14 Q1006,LFBC,2022-10-23T09:30:00Z,44.52,-1.12,23.0,14.0,200,13,,6.21,29.704725,,,TRUE,,,,,,,,CAVOK,,,,,,,,VFR,,,,,,,,,,,,METAR,22.0
LFBA 230930Z AUTO 11006KT 070V130 CAVOK 18/15 Q1009 NOSIG,LFBA,2022-10-23T09:30:00Z,44.17,0.6,18.0,15.0,110,6,,6.21,29.793306,,,TRUE,,,TRUE,,,,,CAVOK,,,,,,,,VFR,,,,,,,,,,,,METAR,68.0
LFAT 230930Z AUTO 15011KT 110V200 9999 ///CB 17/15 Q1004 TEMPO 18020G35KT 2000 TSRA,LFAT,2022-10-23T09:30:00Z,50.52,1.62,17.0,15.0,150,11,,6.21,29.64567,,,TRUE,,,,,,,,,,,,,,,,,,,,,,,,,,,,SPECI,2.0
LFAQ 230930Z AUTO 15012KT CAVOK 16/14 Q1006 NOSIG,LFAQ,2022-10-23T09:30:00Z,49.97,2.7,16.0,14.0,150,12,,6.21,29.704725,,,TRUE,,,TRUE,,,,,CAVOK,,,,,,,,VFR,,,,,,,,,,,,METAR,107.0
LFAC 230930Z AUTO 14008KT 9999 -RA FEW011/// BKN092/// OVC120/// ///CB 16/15 Q1004,LFAC,2022-10-23T09:30:00Z,50.97,1.95,16.0,15.0,140,8,,6.21,29.64567,,,TRUE,,,,,,,-RA,FEW,1100,BKN,9200,OVC,12000,,,VFR,,,,,,,,,,,,METAR,3.0
LEZL 230930Z 21005KT 170V250 9999 FEW015 22/19 Q1018 NOSIG,LEZL,2022-10-23T09:30:00Z,37.42,-5.9,22.0,19.0,210,5,,6.21,30.059055,,,,,,TRUE,,,,,FEW,1500,,,,,,,VFR,,,,,,,,,,,,METAR,26.0
LEZG 230930Z 21018KT 9999 FEW075 26/09 Q1014,LEZG,2022-10-23T09:30:00Z,41.67,-1.02,26.0,9.0,210,18,,6.21,29.940945,,,,,,,,,,,FEW,7500,,,,,,,VFR,,,,,,,,,,,,METAR,245.0
LEXJ 230930Z 22015G28KT 170V280 9999 FEW070 21/08 Q1005,LEXJ,2022-10-23T09:30:00Z,43.42,-3.82,21.0,8.0,220,15,28,6.21,29.675198,,,,,,,,,,,FEW,7000,,,,,,,VFR,,,,,,,,,,,,METAR,1.0
LEVX 230930Z 23020G31KT 190V280 8000 RA BKN013 BKN022TCU 16/14 Q1007 TEMPO BKN010,LEVX,2022-10-23T09:30:00Z,42.23,-8.62,16.0,14.0,230,20,31,4.97,29.734253,,,,,,,,,,RA,BKN,1300,BKN,2200,,,,,MVFR,,,,,,,,,,,,SPECI,253.0
LEVT 230930Z 23022G33KT 200V260 9999 FEW038 SCT060 18/11 Q1011,LEVT,2022-10-23T09:30:00Z,42.87,-2.72,18.0,11.0,230,22,33,6.21,29.852362,,,,,,,,,,,FEW,3800,SCT,6000,,,,,VFR,,,,,,,,,,,,METAR,501.0
LEVS 230930Z 22013KT 190V260 9999 SCT016 BKN034 15/13 Q1017,LEVS,2022-10-23T09:30:00Z,40.37,-3.78,15.0,13.0,220,13,,6.21,30.029528,,,,,,,,,,,SCT,1600,BKN,3400,,,,,VFR,,,,,,,,,,,,METAR,683.0
LEVD 230930Z 20018KT 9999 SCT011 13/10 Q1013,LEVD,2022-10-23T09:30:00Z,41.72,-4.85,13.0,10.0,200,18,,6.21,29.911417,,,,,,,,,,,SCT,1100,,,,,,,VFR,,,,,,,,,,,,METAR,844.0
LEVC 230930Z 28003KT 230V010 CAVOK 22/17 Q1017 NOSIG,LEVC,2022-10-23T09:30:00Z,39.5,-0.47,22.0,17.0,280,3,,6.21,30.029528,,,,,,TRUE,,,,,CAVOK,,,,,,,,VFR,,,,,,,,,,,,METAR,58.0
LETU 230930Z AUTO 21015G25KT 180V250 9999 NSC 24/10 Q1014,LETU,2022-10-23T09:30:00Z,,,24.0,10.0,210,15,25,6.21,29.940945,,,TRUE,,,,,,,,CLR,,,,,,,,VFR,,,,,,,,,,,,METAR,
LETO 230930Z 21015KT 180V250 9999 BKN035 OVC045 18/12 Q1017 NOSIG,LETO,2022-10-23T09:30:00Z,40.48,-3.47,18.0,12.0,210,15,,6.21,30.029528,,,,,,TRUE,,,,,BKN,3500,OVC,4500,,,,,VFR,,,,,,,,,,,,METAR,598.0
LETL 230930Z AUTO 21021KT CAVOK 19/07 Q1019,LETL,2022-10-23T09:30:00Z,40.42,-1.22,19.0,7.0,210,21,,6.21,30.088583,,,TRUE,,,,,,,,CAVOK,,,,,,,,VFR,,,,,,,,,,,,METAR,1024.0
LESU 230930Z VRB01KT 9999 -RA VCFG FEW045 SCT070 OVC092 13/12 Q1020,LESU,2022-10-23T09:30:00Z,42.33,1.4,13.0,12.0,0,1,,6.21,30.11811,,,,,,,,,,-RA VCFG,FEW,4500,SCT,7000,OVC,9200,,,VFR,,,,,,,,,,,,METAR,802.0
LEST 230930Z 24019G43KT 190V280 8000 -SHRA SCT008 BKN010 SCT025TCU 15/13 Q1004 WS ALL RWY TEMPO SHRA,LEST,2022-10-23T09:30:00Z,42.88,-8.42,15.0,13.0,240,19,43,4.97,29.64567,,,,,,,,,,-SHRA,SCT,800,BKN,1000,SCT,2500,,,MVFR,,,,,,,,,,,,SPECI,363.0
LESO 230930Z 19014G27KT 150V240 9999 FEW035 27/12 Q1007,LESO,2022-10-23T09:30:00Z,43.35,-1.8,27.0,12.0,190,14,27,6.21,29.734253,,,,,,,,,,,FEW,3500,,,,,,,VFR,,,,,,,,,,,,METAR,3.0
LESB 230930Z AUTO 19005KT 120V230 CAVOK 27/16 Q1018,LESB,2022-10-23T09:30:00Z,39.6,2.7,27.0,16.0,190,5,,6.21,30.059055,,,TRUE,,,,,,,,CAVOK,,,,,,,,VFR,,,,,,,,,,,,METAR,48.0
LESA 230930Z 22024G34KT 9999 FEW025 14/08 Q1014,LESA,2022-10-23T09:30:00Z,40.95,-5.5,14.0,8.0,220,24,34,6.21,29.940945,,,,,,,,,,,FEW,2500,,,,,,,VFR,,,,,,,,,,,,METAR,788.0
LERT 230930Z 17008KT 140V200 CAVOK 22/19 Q1018 NOSIG,LERT,2022-10-23T09:30:00Z,36.63,-6.33,22.0,19.0,170,8,,6.21,30.059055,,,,,,TRUE,,,,,CAVOK,,,,,,,,VFR,,,,,,,,,,,,METAR,27.0
LERS 230930Z VRB02KT 9999 FEW018 BKN020 22/21 Q1017,LERS,2022-10-23T09:30:00Z,41.13,1.17,22.0,21.0,0,2,,6.21,30.029528,,,,,,,,,,,FEW,1800,BKN,2000,,,,,MVFR,,,,,,,,,,,,METAR,68.0
LERI 230930Z VRB01KT 9000 NSC 23/18 Q1018 NOSIG,LERI,2022-10-23T09:30:00Z,37.95,-1.22,23.0,18.0,0,1,,5.59,30.059055,,,,,,TRUE,,,,,CLR,,,,,,,,VFR,,,,,,,,,,,,METAR,74.0
LEPP 230930Z 18018KT 150V210 9999 SCT058 21/11 Q1012,LEPP,2022-10-23T09:30:00Z,42.77,-1.65,21.0,11.0,180,18,,6.21,29.88189,,,,,,,,,,,SCT,5800,,,,,,,VFR,,,,,,,,,,,,METAR,448.0
LEPA 230930Z 21006KT CAVOK 28/18 Q1018 NOSIG,LEPA,2022-10-23T09:30:00Z,39.55,2.73,28.0,18.0,210,6,,6.21,30.059055,,,,,,TRUE,,,,,CAVOK,,,,,,,,VFR,,,,,,,,,,,,METAR,8.0
LEMO 230930Z 21009KT 180V240 CAVOK 22/18 Q1018 NOSIG,LEMO,2022-10-23T09:30:00Z,37.17,-5.62,22.0,18.0,210,9,,6.21,30.059055,,,,,,TRUE,,,,,CAVOK,,,,,,,,VFR,,,,,,,,,,,,METAR,82.0
LEMI 230930Z 22004KT 170V280 CAVOK 24/14 Q1018,LEMI,2022-10-23T09:30:00Z,37.8,-1.12,24.0,14.0,220,4,,6.21,30.059055,,,,,,,,,,,CAVOK,,,,,,,,VFR,,,,,,,,,,,,METAR,193.0
LEMH 230930Z 23008KT 200V260 CAVOK 25/21 Q1019,LEMH,2022-10-23T09:30:00Z,39.87,4.22,25.0,21.0,230,8,,6.21,30.088583,,,,,,,,,,,CAVOK,,,,,,,,VFR,,,,,,,,,,,,METAR,82.0
LEMG 230930Z 30004KT 270V330 CAVOK 23/13 Q1018 NOSIG,LEMG,2022-10-23T09:30:00Z,36.67,-4.47,23.0,13.0,300,4,,6.21,30.059055,,,,,,TRUE,,,,,CAVOK,,,,,,,,VFR,,,,,,,,,,,,METAR,5.0
LEMD 230930Z 20014G26KT 120V220 9999 FEW030 BKN040 19/13 Q1017 NOSIG,LEMD,2022-10-23T09:30:00Z,40.45,-3.57,19.0,13.0,200,14,26,6.21,30.029528,,,,,,TRUE,,,,,FEW,3000,BKN,4000,,,,,VFR,,,,,,,,,,,,METAR,589.0
LELO 230930Z AUTO 22012KT 190V250 CAVOK 21/09 Q1012,LELO,2022-10-23T09:30:00Z,42.45,-2.32,21.0,9.0,220,12,,6.21,29.88189,,,TRUE,,,,,,,,CAVOK,,,,,,,,VFR,,,,,,,,,,,,METAR,352.0
LELN 230930Z 19018KT 9999 BKN016 BKN030 11/08 Q1010,LELN,2022-10-23T09:30:00Z,42.58,-5.65,11.0,8.0,190,18,,6.21,29.822834,,,,,,,,,,,BKN,1600,BKN,3000,,,,,MVFR,,,,,,,,,,,,METAR,911.0
LELL 230930Z 14004KT 100V190 9999 FEW020 SCT045 21/14 Q1017,LELL,2022-10-23T09:30:00Z,41.52,2.1,21.0,14.0,140,4,,6.21,30.029528,,,,,,,,,,,FEW,2000,SCT,4500,,,,,VFR,,,,,,,,,,,,METAR,136.0
LELC 230930Z 24003KT 190V300 8000 NSC 24/20 Q1018 NOSIG,LELC,2022-10-23T09:30:00Z,37.77,-0.8,24.0,20.0,240,3,,4.97,30.059055,,,,,,TRUE,,,,,CLR,,,,,,,,MVFR,,,,,,,,,,,,METAR,3.0
LEJR 230930Z 19006KT CAVOK 22/19 Q1018,LEJR,2022-10-23T09:30:00Z,36.75,-6.07,22.0,19.0,190,6,,6.21,30.059055,,,,,,,,,,,CAVOK,,,,,,,,VFR,,,,,,,,,,,,METAR,25.0
LEIB 230930Z 22009KT 190V250 CAVOK 25/20 Q1017 NOSIG,LEIB,2022-10-23T09:30:00Z,38.87,1.38,25.0,20.0,220,9,,6.21,30.029528,,,,,,TRUE,,,,,CAVOK,,,,,,,,VFR,,,,,,,,,,,,METAR,4.0
LEHC 230930Z 04004KT 010V080 9999 FEW070 18/14 Q1017,LEHC,2022-10-23T09:30:00Z,42.08,-0.32,18.0,14.0,40,4,,6.21,30.029528,,,,,,,,,,,FEW,7000,,,,,,,VFR,,,,,,,,,,,,METAR,540.0
LEGT 230930Z 25014KT 220V280 9999 FEW027 16/13 Q1017,LEGT,2022-10-23T09:30:00Z,40.28,-3.72,16.0,13.0,250,14,,6.21,30.029528,,,,,,,,,,,FEW,2700,,,,,,,VFR,,,,,,,,,,,,METAR,619.0
LEGR 230930Z VRB01KT CAVOK 21/09 Q1020,LEGR,2022-10-23T09:30:00Z,37.18,-3.78,21.0,9.0,0,1,,6.21,30.11811,,,,,,,,,,,CAVOK,,,,,,,,VFR,,,,,,,,,,,,METAR,560.0
LEGE 230930Z VRB02KT CAVOK 20/16 Q1016,LEGE,2022-10-23T09:30:00Z,41.9,2.77,20.0,16.0,0,2,,6.21,30.0,,,,,,,,,,,CAVOK,,,,,,,,VFR,,,,,,,,,,,,METAR,140.0
LEDA 230930Z 08008KT CAVOK 19/15 Q1016,LEDA,2022-10-23T09:30:00Z,41.73,0.53,19.0,15.0,80,8,,6.21,30.0,,,,,,,,,,,CAVOK,,,,,,,,VFR,,,,,,,,,,,,METAR,352.0
LECV 230930Z 23009KT 9000 BKN007 12/12 Q1018,LECV,2022-10-23T09:30:00Z,40.68,-3.75,12.0,12.0,230,9,,5.59,30.059055,,,,,,,,,,,BKN,700,,,,,,,IFR,,,,,,,,,,,,METAR,995.0
LECO 230930Z 23015G29KT 190V280 9999 FEW020 FEW028TCU SCT031 18/13 Q1002 TEMPO 3000 SHRA,LECO,2022-10-23T09:30:00Z,43.3,-8.37,18.0,13.0,230,15,29,6.21,29.586615,,,,,,,,,,,FEW,2000,FEW,2800,SCT,3100,,,VFR,,,,,,,,,,,,SPECI,80.0
LECH 230930Z AUTO 21003KT 9000 NSC 19/16 Q1018,LECH,2022-10-23T09:30:00Z,40.2,0.07,19.0,16.0,210,3,,5.59,30.059055,,,TRUE,,,,,,,,CLR,,,,,,,,VFR,,,,,,,,,,,,METAR,360.0
LEBZ 230930Z 22009KT 190V250 9999 FEW020 SCT034 19/15 Q1017,LEBZ,2022-10-23T09:30:00Z,38.87,-6.82,19.0,15.0,220,9,,6.21,30.029528,,,,,,,,,,,FEW,2000,SCT,3400,,,,,VFR,,,,,,,,,,,,METAR,183.0
LEBT 230930Z AUTO 25004KT 210V290 CAVOK 22/18 Q1017,LEBT,2022-10-23T09:30:00Z,39.58,-0.45,22.0,18.0,250,4,,6.21,30.029528,,,TRUE,,,,,,,,CAVOK,,,,,,,,VFR,,,,,,,,,,,,METAR,50.0
LEBR 230930Z AUTO 20014KT 9999 BKN067 23/10 Q1014,LEBR,2022-10-23T09:30:00Z,42.2,-1.43,23.0,10.0,200,14,,6.21,29.940945,,,TRUE,,,,,,,,BKN,6700,,,,,,,VFR,,,,,,,,,,,,METAR,347.0
LEBL 230930Z 32003KT 250V360 9999 FEW025 23/16 Q1017 NOSIG,LEBL,2022-10-23T09:30:00Z,41.28,2.07,23.0,16.0,320,3,,6.21,30.029528,,,,,,TRUE,,,,,FEW,2500,,,,,,,VFR,,,,,,,,,,,,METAR,2.0
LEBG 230930Z 19020KT 150V220 9999 FEW016TCU SCT022 13/10 Q1014,LEBG,2022-10-23T09:30:00Z,42.37,-3.62,13.0,10.0,190,20,,6.21,29.940945,,,,,,,,,,,FEW,1600,SCT,2200,,,,,VFR,,,,,,,,,,,,METAR,892.0
LEBB 230930Z 22014KT 160V280 9999 FEW065 24/08 Q1005 NOSIG,LEBB,2022-10-23T09:30:00Z,43.28,-2.92,24.0,8.0,220,14,,6.21,29.675198,,,,,,TRUE,,,,,FEW,6500,,,,,,,VFR,,,,,,,,,,,,METAR,38.0
LEBA 230930Z 25004KT 210V320 9999 FEW018 SCT025 21/17 Q1018,LEBA,2022-10-23T09:30:00Z,37.85,-4.83,21.0,17.0,250,4,,6.21,30.059055,,,,,,,,,,,FEW,1800,SCT,2500,,,,,VFR,,,,,,,,,,,,METAR,88.0
LEAS 230930Z 18005KT 130V220 9999 FEW085 16/12 Q1002 NOSIG,LEAS,2022-10-23T09:30:00Z,43.57,-6.03,16.0,12.0,180,5,,6.21,29.586615,,,,,,TRUE,,,,,FEW,8500,,,,,,,VFR,,,,,,,,,,,,METAR,120.0
LEAO 230930Z 23008KT 170V270 9999 SCT045 20/12 Q1019,LEAO,2022-10-23T09:30:00Z,38.95,-3.73,20.0,12.0,230,8,,6.21,30.088583,,,,,,,,,,,SCT,4500,,,,,,,VFR,,,,,,,,,,,,METAR,621.0
LEAM 230930Z 18005KT 140V210 CAVOK 23/17 Q1018,LEAM,2022-10-23T09:30:00Z,36.85,-2.37,23.0,17.0,180,5,,6.21,30.059055,,,,,,,,,,,CAVOK,,,,,,,,VFR,,,,,,,,,,,,METAR,16.0
LEAL 230930Z 24005KT 200V290 6000 NSC 24/17 Q1017 NOSIG,LEAL,2022-10-23T09:30:00Z,38.27,-0.55,24.0,17.0,240,5,,3.73,30.029528,,,,,,TRUE,,,,,CLR,,,,,,,,MVFR,,,,,,,,,,,,METAR,26.0
LEAG 230930Z AUTO VRB02KT 9999 FEW028 23/18 Q1019,LEAG,2022-10-23T09:30:00Z,36.12,-5.45,23.0,18.0,0,2,,6.21,30.088583,,,TRUE,,,,,,,,FEW,2800,,,,,,,VFR,,,,,,,,,,,,METAR,4.0
LEAB 230930Z VRB02KT CAVOK 19/13 Q1021 NOSIG,LEAB,2022-10-23T09:30:00Z,38.95,-1.85,19.0,13.0,0,2,,6.21,30.147638,,,,,,TRUE,,,,,CAVOK,,,,,,,,VFR,,,,,,,,,,,,METAR,704.0
LDZD 230930Z 15009KT 120V190 9999 FEW060 22/14 Q1024 TEMPO 15012KT,LDZD,2022-10-23T09:30:00Z,44.1,15.33,22.0,14.0,150,9,,6.21,30.236221,,,,,,,,,,,FEW,6000,,,,,,,VFR,,,,,,,,,,,,SPECI,82.0
LDZA 230930Z VRB01KT 6000 OVC004 15/14 Q1023 BECMG 22008KT BKN015,LDZA,2022-10-23T09:30:00Z,45.72,16.07,15.0,14.0,0,1,,3.73,30.206694,,,,,,,,,,,OVC,400,,,,,,,LIFR,,,,,,,,,,,,SPECI,103.0
LDSP 230930Z 11005KT 050V160 CAVOK 22/14 Q1024 NOSIG,LDSP,2022-10-23T09:30:00Z,43.53,16.3,22.0,14.0,110,5,,6.21,30.236221,,,,,,TRUE,,,,,CAVOK,,,,,,,,VFR,,,,,,,,,,,,METAR,16.0
LDRI 230930Z 16009KT 9999 FEW010 SCT033 BKN050 20/17 Q1023,LDRI,2022-10-23T09:30:00Z,45.22,14.57,20.0,17.0,160,9,,6.21,30.206694,,,,,,,,,,,FEW,1000,SCT,3300,BKN,5000,,,VFR,,,,,,,,,,,,METAR,80.0
LDPL 230930Z VRB07KT 9999 BKN008 20/19 Q1023 BECMG BKN010,LDPL,2022-10-23T09:30:00Z,44.88,13.92,20.0,19.0,0,7,,6.21,30.206694,,,,,,,,,,,BKN,800,,,,,,,IFR,,,,,,,,,,,,SPECI,63.0
LDOS 230930Z 15004KT 120V180 1000 BR OVC002 14/14 Q1024,LDOS,2022-10-23T09:30:00Z,45.47,18.82,14.0,14.0,150,4,,0.62,30.236221,,,,,,,,,,BR,OVC,200,,,,,,,LIFR,,,,,,,,,,,,METAR,82.0
LDLO 230930Z 16010KT 9999 BKN015 21/18 Q1023,LDLO,2022-10-23T09:30:00Z,44.57,14.4,21.0,18.0,160,10,,6.21,30.206694,,,,,,,,,,,BKN,1500,,,,,,,MVFR,,,,,,,,,,,,METAR,46.0
LDDU 230930Z 20005KT 150V260 9999 FEW040 21/16 Q1025 NOSIG,LDDU,2022-10-23T09:30:00Z,42.57,18.27,21.0,16.0,200,5,,6.21,30.265747,,,,,,TRUE,,,,,FEW,4000,,,,,,,VFR,,,,,,,,,,,,METAR,156.0
LCPH 230930Z 23006KT 170V260 9999 FEW030 25/13 Q1019,LCPH,2022-10-23T09:30:00Z,34.72,32.47,25.0,13.0,230,6,,6.21,30.088583,,,,,,,,,,,FEW,3000,,,,,,,VFR,,,,,,,,,,,,METAR,8.0
LCLK 230930Z 02009KT 9999 FEW025 27/12 Q1019 NOSIG,LCLK,2022-10-23T09:30:00Z,34.87,33.62,27.0,12.0,20,9,,6.21,30.088583,,,,,,TRUE,,,,,FEW,2500,,,,,,,VFR,,,,,,,,,,,,METAR,2.0
LBWN 230930Z 32017KT CAVOK 23/09 Q1018 NOSIG,LBWN,2022-10-23T09:30:00Z,43.22,27.82,23.0,9.0,320,17,,6.21,30.059055,,,,,,TRUE,,,,,CAVOK,,,,,,,,VFR,,,,,,,,,,,,METAR,74.0
LBSF 230930Z 27018KT CAVOK 19/10 Q1024 NOSIG,LBSF,2022-10-23T09:30:00Z,42.65,23.37,19.0,10.0,270,18,,6.21,30.236221,,,,,,TRUE,,,,,CAVOK,,,,,,,,VFR,,,,,,,,,,,,METAR,592.0
LBPD 230930Z AUTO 29024G35KT 9999 NCD 25/10 Q1021 NOSIG,LBPD,2022-10-23T09:30:00Z,42.05,24.85,25.0,10.0,290,24,35,6.21,30.147638,,,TRUE,,,TRUE,,,,,CLR,,,,,,,,VFR,,,,,,,,,,,,METAR,182.0
LBGO 230930Z AUTO 29022KT 9999 NCD 22/09 Q1022 NOSIG,LBGO,2022-10-23T09:30:00Z,43.15,25.72,22.0,9.0,290,22,,6.21,30.177166,,,TRUE,,,TRUE,,,,,CLR,,,,,,,,VFR,,,,,,,,,,,,METAR,84.0
LBBG 230930Z 29020KT CAVOK 25/10 Q1019 NOSIG,LBBG,2022-10-23T09:30:00Z,42.57,27.52,25.0,10.0,290,20,,6.21,30.088583,,,,,,TRUE,,,,,CAVOK,,,,,,,,VFR,,,,,,,,,,,,METAR,41.0
KWWR 230930Z AUTO 20013G18KT 10SM CLR 22/10 A2957 RMK AO2,KWWR,2022-10-23T09:30:00Z,36.45,-99.52,22.0,10.0,200,13,18,10.0,29.568897,,,TRUE,TRUE,,,,,,,CLR,,,,,,,,VFR,,,,,,,,,,,,METAR,664.0
KUCY 230930Z AUTO 17014KT 10SM OVC055 19/12 A3000 RMK A01,KUCY,2022-10-23T09:30:00Z,36.38,-88.98,19.0,12.0,170,14,,10.0,30.0,,,TRUE,TRUE,,,,,,,OVC,5500,,,,,,,VFR,,,,,,,,,,,,METAR,97.0
KTXW 230930Z AUTO 15007KT 1 1/4SM HZ VV007 23/20 A2984 RMK AO2 VIS 1V2 T02270201,KTXW,2022-10-23T09:30:00Z,26.18,-97.97,22.7,20.1,150,7,,1.25,29.840551,,,TRUE,TRUE,,,,,,HZ,OVX,0,,,,,,,LIFR,,,,,,,,,,,700,METAR,21.0
KTNB 230930Z AUTO 00000KT 7SM CLR M01/M01 A3026 RMK AO2 T10101010,KTNB,2022-10-23T09:30:00Z,36.2,-81.65,-1.0,-1.0,0,0,,7.0,30.259842,,,TRUE,TRUE,,,,,,,CLR,,,,,,,,VFR,,,,,,,,,,,,METAR,958.0
KSNH 230930Z AUTO 16008KT 10SM OVC060 17/11 A3008 RMK A01,KSNH,2022-10-23T09:30:00Z,35.17,-88.22,17.0,11.0,160,8,,10.0,30.079725,,,TRUE,TRUE,,,,,,,OVC,6000,,,,,,,VFR,,,,,,,,,,,,METAR,142.0
KSLR 230930Z AUTO 17010G17KT 10SM SCT034 21/16 A2988 RMK AO2 T02050161,KSLR,2022-10-23T09:30:00Z,33.17,-95.62,20.5,16.1,170,10,17,10.0,29.878937,,,TRUE,TRUE,,,,,,,SCT,3400,,,,,,,VFR,,,,,,,,,,,,METAR,144.0
KSLC 230930Z 36005KT 9SM -RA SCT004 BKN020 OVC030 02/01 A2960 RMK AO2 RAB28SNE28 P0004 T00220011 $,KSLC,2022-10-23T09:30:00Z,40.77,-111.97,2.2,1.1,360,5,,9.0,29.601377,,,,TRUE,TRUE,,,,,-RA,SCT,400,BKN,2000,OVC,3000,,,MVFR,,,,,,0.04,,,,,,SPECI,1286.0
KPVW 230930Z AUTO 21012KT 10SM CLR 16/13 A2970 RMK AO2 T01600125,KPVW,2022-10-23T09:30:00Z,34.17,-101.72,16.0,12.5,210,12,,10.0,29.698818,,,TRUE,TRUE,,,,,,,CLR,,,,,,,,VFR,,,,,,,,,,,,METAR,1029.0
KPHF 230930Z 36009KT 10SM SCT014 BKN019 12/12 A3015 RMK AO2 T01220117,KPHF,2022-10-23T09:30:00Z,37.13,-76.5,12.2,11.7,360,9,,10.0,30.15059,,,,TRUE,,,,,,,SCT,1400,BKN,1900,,,,,MVFR,,,,,,,,,,,,SPECI,12.0
KOSA 230930Z AUTO 16008KT 10SM CLR 20/17 A2989 RMK AO2 T02000171,KOSA,2022-10-23T09:30:00Z,33.1,-94.97,20.0,17.1,160,8,,10.0,29.890747,,,TRUE,TRUE,,,,,,,CLR,,,,,,,,VFR,,,,,,,,,,,,METAR,108.0
KMYZ 230930Z AUTO 16012G17KT 10SM CLR 20/13 A2944 RMK AO2,KMYZ,2022-10-23T09:30:00Z,39.85,-96.63,20.0,13.0,160,12,17,10.0,29.438976,,,TRUE,TRUE,,,,,,,CLR,,,,,,,,VFR,,,,,,,,,,,,METAR,388.0
KMRC 230930Z AUTO 00000KT 10SM OVC060 13/13 A3011 RMK A01,KMRC,2022-10-23T09:30:00Z,35.55,-87.18,13.0,13.0,0,0,,10.0,30.109253,,,TRUE,TRUE,,,,,,,OVC,6000,,,,,,,VFR,,,,,,,,,,,,METAR,205.0
KMPZ 230930Z AUTO 14008KT 10SM CLR 16/14 A2974 RMK AO2,KMPZ,2022-10-23T09:30:00Z,40.95,-91.52,16.0,14.0,140,8,,10.0,29.740158,,,TRUE,TRUE,,,,,,,CLR,,,,,,,,VFR,,,,,,,,,,,,SPECI,222.0
KM54 230930Z AUTO 00000KT 10SM SCT040 SCT050 SCT060 12/09 A3011 RMK A01,KM54,2022-10-23T09:30:00Z,36.18,-86.32,12.0,9.0,0,0,,10.0,30.109253,,,TRUE,TRUE,,,,,,,SCT,4000,SCT,5000,SCT,6000,,,VFR,,,,,,,,,,,,METAR,168.0
KITH 230930Z 08006KT 10SM CLR 05/02 A3029 RMK AO2,KITH,2022-10-23T09:30:00Z,42.48,-76.45,5.0,2.0,80,6,,10.0,30.28937,,,,TRUE,,,,,,,CLR,,,,,,,,VFR,,,,,,,,,,,,SPECI,338.0
KHSG 230930Z AUTO 04004KT 10SM -RA SCT019 BKN027 OVC042 05/03 A2943 RMK AO2 T00510032,KHSG,2022-10-23T09:30:00Z,43.72,-108.38,5.1,3.2,40,4,,10.0,29.430119,,,TRUE,TRUE,,,,,,-RA,SCT,1900,BKN,2700,OVC,4200,,,MVFR,,,,,,,,,,,,METAR,1497.0
KHSD 230930Z AUTO 18016G30KT 10SM CLR 23/12 A2962 RMK A01,KHSD,2022-10-23T09:30:00Z,35.6,-97.72,23.0,12.0,180,16,30,10.0,29.619095,,,TRUE,TRUE,,,,,,,CLR,,,,,,,,VFR,,,,,,,,,,,,METAR,358.0
KHLB 230930Z AUTO 18005KT 10SM CLR 13/09 A3010 RMK A01,KHLB,2022-10-23T09:30:00Z,39.35,-85.27,13.0,9.0,180,5,,10.0,30.100393,,,TRUE,TRUE,,,,,,,CLR,,,,,,,,VFR,,,,,,,,,,,,SPECI,297.0
KHBV 230930Z AUTO 16004KT 10SM CLR 19/18 A2984 RMK AO2 T01860180,KHBV,2022-10-23T09:30:00Z,27.35,-98.73,18.6,18.0,160,4,,10.0,29.840551,,,TRUE,TRUE,,,,,,,CLR,,,,,,,,VFR,,,,,,,,,,,,METAR,200.0
KGVW 230930Z AUTO 13009G17KT 10SM FEW050 25/18 A2994 RMK A01,KGVW,2022-10-23T09:30:00Z,29.13,-94.55,25.0,18.0,130,9,17,10.0,29.940945,,,TRUE,TRUE,,,,,,,FEW,5000,,,,,,,VFR,,,,,,,,,,,,METAR,37.0
KFOT 230930Z AUTO 00000KT 8SM OVC012 08/08 A3002 RMK AO1,KFOT,2022-10-23T09:30:00Z,40.55,-124.13,8.0,8.0,0,0,,8.0,30.02067,,,TRUE,TRUE,,,,,,,OVC,1200,,,,,,,MVFR,,,,,,,,,,,,METAR,118.0
KEAN 230930Z AUTO 26007KT 10SM CLR 13/02 A2935 RMK AO2 T01260020,KEAN,2022-10-23T09:30:00Z,42.05,-104.93,12.6,2.0,260,7,,10.0,29.350393,,,TRUE,TRUE,,,,,,,CLR,,,,,,,,VFR,,,,,,,,,,,,METAR,1452.0
KDWX 230930Z AUTO 00000KT A2950 RMK AO2 PWINO,KDWX,2022-10-23T09:30:00Z,41.03,-107.5,,,0,0,,,29.500984,,,TRUE,TRUE,,,,,TRUE,,,,,,,,,,,,,,,,,,,,,,METAR,1974.0
KDVK 230930Z AUTO 00000KT 10SM CLR 10/07 A3018 RMK AO2,KDVK,2022-10-23T09:30:00Z,37.58,-84.77,10.0,7.0,0,0,,10.0,30.180119,,,TRUE,TRUE,,,,,,,CLR,,,,,,,,VFR,,,,,,,,,,,,METAR,309.0
KCHK 230930Z AUTO 18017G24KT 10SM CLR 22/12 A2962 RMK AO2 T02190123,KCHK,2022-10-23T09:30:00Z,35.1,-97.97,21.9,12.3,180,17,24,10.0,29.619095,,,TRUE,TRUE,,,,,,,CLR,,,,,,,,VFR,,,,,,,,,,,,METAR,346.0
KBMC 230930Z AUTO 10SM SCT060 OVC110 04/01 A2962 RMK AO1 T00350014,KBMC,2022-10-23T09:30:00Z,41.55,-112.07,3.5,1.4,,,,10.0,29.619095,,,TRUE,TRUE,,,,,,,SCT,6000,OVC,11000,,,,,VFR,,,,,,,,,,,,METAR,1289.0
KANK 230930Z AUTO 20016G27KT 10SM CLR 12/M03 A2964 RMK AO1 T01241029,KANK,2022-10-23T09:30:00Z,38.53,-106.05,12.4,-2.9,200,16,27,10.0,29.639763,,,TRUE,TRUE,,,,,,,CLR,,,,,,,,VFR,,,,,,,,,,,,METAR,2293.0
KAFF 230930Z AUTO 17018G23KT 10SM CLR 15/M05 A2939 RMK AO2 WSHFT 27 SLP851,KAFF,2022-10-23T09:30:00Z,38.97,-104.82,15.0,-5.0,170,18,23,10.0,29.388779,985.1,,TRUE,TRUE,,,,,,,CLR,,,,,,,,VFR,,,,,,,,,,,,SPECI,2003.0
K4V1 230930Z AUTO 23013G27KT 10SM CLR 15/02 A2955 RMK AO2 T01540017,K4V1,2022-10-23T09:30:00Z,37.7,-104.78,15.4,1.7,230,13,27,10.0,29.551182,,,TRUE,TRUE,,,,,,,CLR,,,,,,,,VFR,,,,,,,,,,,,METAR,1847.0
K36K 230930Z AUTO 22011KT 10SM CLR 15/07 A2950 RMK AO2,K36K,2022-10-23T09:30:00Z,37.97,-101.25,15.0,7.0,220,11,,10.0,29.500984,,,TRUE,TRUE,,,,,,,CLR,,,,,,,,VFR,,,,,,,,,,,,METAR,938.0
K05U 230930Z AUTO 00000KT 6SM BR M01/M02 A2977 RMK A01,K05U,2022-10-23T09:30:00Z,39.6,-116.0,-1.0,-2.0,0,0,,6.0,29.769686,,,TRUE,TRUE,,,,,,BR,,,,,,,,,,,,,,,,,,,,,SPECI,1813.0
HSSK 230930Z 01012KT CAVOK 36/07 Q1014 NOSIG,HSSK,2022-10-23T09:30:00Z,15.58,32.55,36.0,7.0,10,12,,6.21,29.940945,,,,,,TRUE,,,,,CAVOK,,,,,,,,VFR,,,,,,,,,,,,METAR,380.0
HRYR 230930Z VRB03KT 9999 SCT025 SCT100 27/15 Q1022 NOSIG,HRYR,2022-10-23T09:30:00Z,-1.97,30.13,27.0,15.0,0,3,,6.21,30.177166,,,,,,TRUE,,,,,SCT,2500,SCT,10000,,,,,VFR,,,,,,,,,,,,METAR,1493.0
HKMO 230930Z 13009KT 9999 BKN025 29/22 Q1016 NOSIG,HKMO,2022-10-23T09:30:00Z,-4.02,39.62,29.0,22.0,130,9,,6.21,30.0,,,,,,TRUE,,,,,BKN,2500,,,,,,,MVFR,,,,,,,,,,,,METAR,55.0
HKJK 230930Z 08010KT 9999 BKN027 24/10 Q1024 NOSIG,HKJK,2022-10-23T09:30:00Z,-1.32,36.92,24.0,10.0,80,10,,6.21,30.236221,,,,,,TRUE,,,,,BKN,2700,,,,,,,MVFR,,,,,,,,,,,,METAR,1615.0
HECA 230930Z 28005KT 9999 SCT025 25/14 Q1019 NOSIG,HECA,2022-10-23T09:30:00Z,30.12,31.4,25.0,14.0,280,5,,6.21,30.088583,,,,,,TRUE,,,,,SCT,2500,,,,,,,VFR,,,,,,,,,,,,METAR,68.0
GQNO 230930Z 36011KT CAVOK 27/17 Q1013 NOSIG,GQNO,2022-10-23T09:30:00Z,18.3,-15.97,27.0,17.0,360,11,,6.21,29.911417,,,,,,TRUE,,,,,CAVOK,,,,,,,,VFR,,,,,,,,,,,,METAR,1.0
GOBD 230930Z 33007KT 290V360 8000 FEW015 28/26 Q1014 NOSIG,GOBD,2022-10-23T09:30:00Z,14.67,-17.07,28.0,26.0,330,7,,4.97,29.940945,,,,,,TRUE,,,,,FEW,1500,,,,,,,MVFR,,,,,,,,,,,,METAR,90.0
GMTT 230930Z 20004KT 150V260 9999 FEW011 SCT023 BKN160 23/21 Q1018 NOSIG,GMTT,2022-10-23T09:30:00Z,35.72,-5.9,23.0,21.0,200,4,,6.21,30.059055,,,,,,TRUE,,,,,FEW,1100,SCT,2300,BKN,16000,,,VFR,,,,,,,,,,,,METAR,19.0
GMMX 230930Z VRB01KT CAVOK 24/12 Q1019 NOSIG,GMMX,2022-10-23T09:30:00Z,31.62,-8.03,24.0,12.0,0,1,,6.21,30.088583,,,,,,TRUE,,,,,CAVOK,,,,,,,,VFR,,,,,,,,,,,,METAR,465.0
GMMN 230930Z 04003KT 040V120 CAVOK 23/17 Q1019 NOSIG,GMMN,2022-10-23T09:30:00Z,33.37,-7.58,23.0,17.0,40,3,,6.21,30.088583,,,,,,TRUE,,,,,CAVOK,,,,,,,,VFR,,,,,,,,,,,,METAR,196.0
GMME 230930Z 36004KT 310V040 5000 FEW016 SCT200 22/21 Q1018 NOSIG,GMME,2022-10-23T09:30:00Z,34.05,-6.77,22.0,21.0,360,4,,3.11,30.059055,,,,,,TRUE,,,,,FEW,1600,SCT,20000,,,,,MVFR,,,,,,,,,,,,METAR,84.0
GMFO 230930Z 16016KT CAVOK 26/00 Q1021 NOSIG,GMFO,2022-10-23T09:30:00Z,34.78,-1.92,26.0,0.0,160,16,,6.21,30.147638,,,,,,TRUE,,,,,CAVOK,,,,,,,,VFR,,,,,,,,,,,,METAR,452.0
GMFF 230930Z VRB01KT CAVOK 27/06 Q1021 NOSIG,GMFF,2022-10-23T09:30:00Z,33.92,-4.97,27.0,6.0,0,1,,6.21,30.147638,,,,,,TRUE,,,,,CAVOK,,,,,,,,VFR,,,,,,,,,,,,METAR,575.0
GMAD 230930Z 06012KT CAVOK 31/01 Q1017 NOSIG,GMAD,2022-10-23T09:30:00Z,30.32,-9.42,31.0,1.0,60,12,,6.21,30.029528,,,,,,TRUE,,,,,CAVOK,,,,,,,,VFR,,,,,,,,,,,,METAR,66.0
GLRB 230930Z 00000KT 9999 BKN012 FEW023CB 25/24 Q1015 NOSIG RMK CB-SW,GLRB,2022-10-23T09:30:00Z,6.25,-10.35,25.0,24.0,0,0,,6.21,29.970472,,,,,,TRUE,,,,,BKN,1200,FEW,2300,,,,,MVFR,,,,,,,,,,,,METAR,12.0
GEML 230930Z 31003KT 240V350 CAVOK 25/19 Q1019,GEML,2022-10-23T09:30:00Z,35.27,-2.95,25.0,19.0,310,3,,6.21,30.088583,,,,,,,,,,,CAVOK,,,,,,,,VFR,,,,,,,,,,,,METAR,48.0
GECE 230930Z AUTO 36003KT 320V030 CAVOK 21/18 Q1018,GECE,2022-10-23T09:30:00Z,35.88,-5.3,21.0,18.0,360,3,,6.21,30.059055,,,TRUE,,,,,,,,CAVOK,,,,,,,,VFR,,,,,,,,,,,,METAR,2.0
GCTS 230930Z 08009KT 9999 FEW022 23/18 Q1019 NOSIG,GCTS,2022-10-23T09:30:00Z,28.05,-16.57,23.0,18.0,80,9,,6.21,30.088583,,,,,,TRUE,,,,,FEW,2200,,,,,,,VFR,,,,,,,,,,,,METAR,59.0
GCRR 230930Z 05010KT 9999 FEW020 24/19 Q1018,GCRR,2022-10-23T09:30:00Z,28.95,-13.58,24.0,19.0,50,10,,6.21,30.059055,,,,,,,,,,,FEW,2000,,,,,,,VFR,,,,,,,,,,,,METAR,9.0
GCLP 230930Z 36013KT 9999 FEW025 24/17 Q1019 NOSIG,GCLP,2022-10-23T09:30:00Z,27.92,-15.38,24.0,17.0,360,13,,6.21,30.088583,,,,,,TRUE,,,,,FEW,2500,,,,,,,VFR,,,,,,,,,,,,METAR,16.0
GCLA 230930Z 02005KT 320V070 9999 FEW025 23/18 Q1019,GCLA,2022-10-23T09:30:00Z,28.62,-17.75,23.0,18.0,20,5,,6.21,30.088583,,,,,,,,,,,FEW,2500,,,,,,,VFR,,,,,,,,,,,,METAR,20.0
GCFV 230930Z 04008KT 9999 FEW014 24/20 Q1018,GCFV,2022-10-23T09:30:00Z,28.43,-13.87,24.0,20.0,40,8,,6.21,30.059055,,,,,,,,,,,FEW,1400,,,,,,,VFR,,,,,,,,,,,,METAR,11.0
GABS 230930Z VRB02KT 9999 SCT020 28/20 Q1017 NOSIG,GABS,2022-10-23T09:30:00Z,12.53,-7.95,28.0,20.0,0,2,,6.21,30.029528,,,,,,TRUE,,,,,SCT,2000,,,,,,,VFR,,,,,,,,,,,,METAR,375.0
FMMI 230930Z 16007KT 060V230 9999 BKN023 29/12 Q1021 NOSIG,FMMI,2022-10-23T09:30:00Z,-18.8,47.47,29.0,12.0,160,7,,6.21,30.147638,,,,,,TRUE,,,,,BKN,2300,,,,,,,MVFR,,,,,,,,,,,,METAR,1269.0
FMEP 230930Z AUTO 24008KT 9999 FEW058 26/20 Q1020 NOSIG,FMEP,2022-10-23T09:30:00Z,-21.32,55.42,26.0,20.0,240,8,,6.21,30.11811,,,TRUE,,,TRUE,,,,,FEW,5800,,,,,,,VFR,,,,,,,,,,,,METAR,21.0
FMEE 230930Z AUTO 07011KT 9999 OVC070/// 26/21 Q1020 TEMPO 4500 SHRA,FMEE,2022-10-23T09:30:00Z,-20.88,55.52,26.0,21.0,70,11,,6.21,30.11811,,,TRUE,,,,,,,,OVC,7000,,,,,,,VFR,,,,,,,,,,,,METAR,20.0
FMCZ 230930Z AUTO 19006KT 160V220 CAVOK 29/22 Q1017 NOSIG,FMCZ,2022-10-23T09:30:00Z,-12.8,45.27,29.0,22.0,190,6,,6.21,30.029528,,,TRUE,,,TRUE,,,,,CAVOK,,,,,,,,VFR,,,,,,,,,,,,METAR,7.0
EPZG 230930Z VRB02KT 8000 FEW004 13/13 Q1018,EPZG,2022-10-23T09:30:00Z,52.13,15.77,13.0,13.0,0,2,,4.97,30.059055,,,,,,,,,,,FEW,400,,,,,,,MVFR,,,,,,,,,,,,METAR,59.0
EPWR 230930Z 21007KT 180V250 CAVOK 16/11 Q1019,EPWR,2022-10-23T09:30:00Z,51.1,16.88,16.0,11.0,210,7,,6.21,30.088583,,,,,,,,,,,CAVOK,,,,,,,,VFR,,,,,,,,,,,,METAR,118.0
EPWA 230930Z 23006KT 200V260 9999 BKN011 15/13 Q1018 NOSIG,EPWA,2022-10-23T09:30:00Z,52.17,20.97,15.0,13.0,230,6,,6.21,30.059055,,,,,,TRUE,,,,,BKN,1100,,,,,,,MVFR,,,,,,,,,,,,METAR,107.0
EPSY 230930Z 24009KT 9999 BKN008 13/13 Q1016,EPSY,2022-10-23T09:30:00Z,53.47,20.93,13.0,13.0,240,9,,6.21,30.0,,,,,,,,,,,BKN,800,,,,,,,IFR,,,,,,,,,,,,METAR,136.0
EPSC 230930Z VRB03KT 9999 SCT002 BKN005 13/13 Q1017,EPSC,2022-10-23T09:30:00Z,53.58,14.9,13.0,13.0,0,3,,6.21,30.029528,,,,,,,,,,,SCT,200,BKN,500,,,,,IFR,,,,,,,,,,,,METAR,47.0
EPRZ 230930Z 27010KT 240V300 9999 BKN015 15/11 Q1021,EPRZ,2022-10-23T09:30:00Z,50.1,22.02,15.0,11.0,270,10,,6.21,30.147638,,,,,,,,,,,BKN,1500,,,,,,,MVFR,,,,,,,,,,,,METAR,206.0
EPPO 230930Z 23006KT 0900 R28/1300U FG OVC001 12/12 Q1018,EPPO,2022-10-23T09:30:00Z,52.42,16.83,12.0,12.0,230,6,,0.56,30.059055,,,,,,,,,,FG,OVC,100,,,,,,,LIFR,,,,,,,,,,,,SPECI,87.0
EPMO 230930Z 21007KT 4000 BR BKN005 13/13 Q1017,EPMO,2022-10-23T09:30:00Z,52.45,20.65,13.0,13.0,210,7,,2.49,30.029528,,,,,,,,,,BR,BKN,500,,,,,,,IFR,,,,,,,,,,,,METAR,102.0
EPLL 230930Z 22008KT 9000 OVC007 13/11 Q1018,EPLL,2022-10-23T09:30:00Z,51.72,19.4,13.0,11.0,220,8,,5.59,30.059055,,,,,,,,,,,OVC,700,,,,,,,IFR,,,,,,,,,,,,METAR,176.0
EPLB 230930Z 27012KT 9999 BKN012 14/13 Q1019,EPLB,2022-10-23T09:30:00Z,51.23,22.72,14.0,13.0,270,12,,6.21,30.088583,,,,,,,,,,,BKN,1200,,,,,,,MVFR,,,,,,,,,,,,METAR,206.0
EPKT 230930Z 22012KT 9000 BKN007 13/11 Q1021,EPKT,2022-10-23T09:30:00Z,50.47,19.08,13.0,11.0,220,12,,5.59,30.147638,,,,,,,,,,,BKN,700,,,,,,,IFR,,,,,,,,,,,,METAR,296.0
EPKK 230930Z 23006KT CAVOK 14/11 Q1021,EPKK,2022-10-23T09:30:00Z,50.07,19.8,14.0,11.0,230,6,,6.21,30.147638,,,,,,,,,,,CAVOK,,,,,,,,VFR,,,,,,,,,,,,METAR,237.0
EPGD 230930Z 27010KT 9999 FEW005 BKN010 14/12 Q1015,EPGD,2022-10-23T09:30:00Z,54.37,18.47,14.0,12.0,270,10,,6.21,29.970472,,,,,,,,,,,FEW,500,BKN,1000,,,,,MVFR,,,,,,,,,,,,METAR,136.0
EPBY 230930Z 27008KT 9999 OVC006 14/13 Q1017,EPBY,2022-10-23T09:30:00Z,53.1,18.0,14.0,13.0,270,8,,6.21,30.029528,,,,,,,,,,,OVC,600,,,,,,,IFR,,,,,,,,,,,,METAR,66.0
EIWF 230930Z 19008KT 9000 BKN005 15/14 Q0997,EIWF,2022-10-23T09:30:00Z,52.18,-7.08,15.0,14.0,190,8,,5.59,29.438976,,,,,,,,,,,BKN,500,,,,,,,IFR,,,,,,,,,,,,METAR,26.0
EISG 230930Z 10005KT 9000 FEW010 SCT030 OVC055 12/12 Q0996,EISG,2022-10-23T09:30:00Z,54.28,-8.6,12.0,12.0,100,5,,5.59,29.409449,,,,,,,,,,,FEW,1000,SCT,3000,OVC,5500,,,VFR,,,,,,,,,,,,METAR,1.0
EINN 230930Z 11008KT 9999 FEW008 SCT015 BKN050 14/11 Q0995 RERA NOSIG,EINN,2022-10-23T09:30:00Z,52.7,-8.92,14.0,11.0,110,8,,6.21,29.379921,,,,,,TRUE,,,,,FEW,800,SCT,1500,BKN,5000,,,VFR,,,,,,,,,,,,METAR,20.0
EIKY 230930Z 07004KT 050V120 CAVOK 13/11 Q0995,EIKY,2022-10-23T09:30:00Z,52.18,-9.53,13.0,11.0,70,4,,6.21,29.379921,,,,,,,,,,,CAVOK,,,,,,,,VFR,,,,,,,,,,,,METAR,23.0
EIKN 230930Z 09008KT 060V130 5000 -RA BKN002 BKN023 12/12 Q0996 NOSIG,EIKN,2022-10-23T09:30:00Z,53.92,-8.82,12.0,12.0,90,8,,3.11,29.409449,,,,,,TRUE,,,,-RA,BKN,200,BKN,2300,,,,,LIFR,,,,,,,,,,,,METAR,201.0
EIDW 230930Z 13009KT 090V160 3000 RA FEW006 SCT012 BKN015 14/13 Q0997 TEMPO BKN006,EIDW,2022-10-23T09:30:00Z,53.42,-6.28,14.0,13.0,130,9,,1.86,29.438976,,,,,,,,,,RA,FEW,600,SCT,1200,BKN,1500,,,IFR,,,,,,,,,,,,SPECI,75.0
EIDL 230930Z 08006KT 9999 -RA FEW032 13/12 Q0998,EIDL,2022-10-23T09:30:00Z,55.05,-8.33,13.0,12.0,80,6,,6.21,29.468504,,,,,,,,,,-RA,FEW,3200,,,,,,,VFR,,,,,,,,,,,,METAR,2.0
EICK 230930Z 16005KT 9999 FEW002 BKN005 14/14 Q0995 BECMG SCT005,EICK,2022-10-23T09:30:00Z,51.85,-8.47,14.0,14.0,160,5,,6.21,29.379921,,,,,,,,,,,FEW,200,BKN,500,,,,,IFR,,,,,,,,,,,,SPECI,158.0
EGUL 230930Z AUTO 10009KT 8000 RA OVC031 15/15 A2960 RMK AO2 SLP027 $,EGUL,2022-10-23T09:30:00Z,52.42,0.57,15.0,15.0,100,9,,4.97,29.601377,1002.7,,TRUE,TRUE,TRUE,,,,,RA,OVC,3100,,,,,,,MVFR,,,,,,,,,,,,SPECI,8.0
DTTJ 230930Z 21007KT 190V250 CAVOK 28/09 Q1025 NOSIG,DTTJ,2022-10-23T09:30:00Z,33.87,10.77,28.0,9.0,210,7,,6.21,30.265747,,,,,,TRUE,,,,,CAVOK,,,,,,,,VFR,,,,,,,,,,,,METAR,3.0
DTTA 230930Z 17004KT 120V200 CAVOK 27/12 Q1022,DTTA,2022-10-23T09:30:00Z,36.85,10.22,27.0,12.0,170,4,,6.21,30.177166,,,,,,,,,,,CAVOK,,,,,,,,VFR,,,,,,,,,,,,METAR,4.0
DTNH 230930Z 19007KT 170V230 CAVOK 25/14 Q1023 NOSIG,DTNH,2022-10-23T09:30:00Z,36.07,10.43,25.0,14.0,190,7,,6.21,30.206694,,,,,,TRUE,,,,,CAVOK,,,,,,,,VFR,,,,,,,,,,,,METAR,1.0
DTMB 230930Z 20009KT 170V230 CAVOK 28/12 Q1023,DTMB,2022-10-23T09:30:00Z,35.77,10.75,28.0,12.0,200,9,,6.21,30.206694,,,,,,,,,,,CAVOK,,,,,,,,VFR,,,,,,,,,,,,METAR,1.0
DIAP 230930Z VRB02KT 9999 SCT013 28/25 Q1014 NOSIG,DIAP,2022-10-23T09:30:00Z,5.25,-3.92,28.0,25.0,0,2,,6.21,29.940945,,,,,,TRUE,,,,,SCT,1300,,,,,,,VFR,,,,,,,,,,,,METAR,4.0
DABC 230930Z 17003KT CAV,DABC,2022-10-23T09:30:00Z,36.27,6.62,,,170,3,,,,,,,,,,,,,,,,,,,,,,,,,,,,,,,,,,SPECI,686.0
DABB 230930Z 22007KT 9999 FEW033 30/08 Q1020,DABB,2022-10-23T09:30:00Z,36.82,7.82,30.0,8.0,220,7,,6.21,30.11811,,,,,,,,,,,FEW,3300,,,,,,,VFR,,,,,,,,,,,,METAR,3.0
DAAT 230930Z 08017KT CAVOK 22/01 Q1028,DAAT,2022-10-23T09:30:00Z,22.82,5.47,22.0,1.0,80,17,,6.21,30.35433,,,,,,,,,,,CAVOK,,,,,,,,VFR,,,,,,,,,,,,METAR,1376.0
DAAG 230930Z 18010KT 150V220 CAVOK 32/07 Q1020,DAAG,2022-10-23T09:30:00Z,36.68,3.22,32.0,7.0,180,10,,6.21,30.11811,,,,,,,,,,,CAVOK,,,,,,,,VFR,,,,,,,,,,,,METAR,18.0
CWPX 230930Z AUTO 30018KT ////SM //// SCT003 OVC017 M18/M21 A2987,CWPX,2022-10-23T09:30:00Z,69.03,-107.82,-18.0,-21.0,300,18,,,29.870079,,,TRUE,,,,,,,,SCT,300,OVC,1700,,,,,,,,,,,,,,,,,SPECI,163.0
BKPR 230930Z VRB01KT CAVOK 19/09 Q1026 NOSIG,BKPR,2022-10-23T09:30:00Z,42.58,21.03,19.0,9.0,0,1,,6.21,30.295275,,,,,,TRUE,,,,,CAVOK,,,,,,,,VFR,,,,,,,,,,,,METAR,545.0
BIKF 230930Z 14015KT 9999 BKN016 BKN051 05/03 Q1008,BIKF,2022-10-23T09:30:00Z,63.98,-22.6,5.0,3.0,140,15,,6.21,29.763779,,,,,,,,,,,BKN,1600,BKN,5100,,,,,MVFR,,,,,,,,,,,,METAR,49.0
PAFM 230929Z AUTO 14007KT 10SM SCT020 OVC040 M01/M02 A2999 RMK AO2 FZRANO,PAFM,2022-10-23T09:29:00Z,67.1,-157.85,-1.0,-2.0,140,7,,10.0,29.991142,,,TRUE,TRUE,,,,TRUE,,,SCT,2000,OVC,4000,,,,,VFR,,,,,,,,,,,,SPECI,79.0
CYLL 230929Z AUTO 03005KT 1/8SM +SN VV001 M01/M01 A2989 RMK ICE SLP159,CYLL,2022-10-23T09:29:00Z,53.32,-110.07,-1.0,-1.0,30,5,,0.13,29.890747,1015.9,,TRUE,,,,,,,+SN,OVX,0,,,,,,,LIFR,,,,,,,,,,,100,SPECI,664.0
CYHY 230929Z 23004KT 15SM BKN033 BKN042 M04/M06 A3010 RMK SC5SC2 SLP207,CYHY,2022-10-23T09:29:00Z,60.83,-115.77,-4.0,-6.0,230,4,,15.0,30.100393,1020.7,,,,,,,,,,BKN,3300,BKN,4200,,,,,VFR,,,,,,,,,,,,SPECI,159.0
RJOR 230927Z 01023KT 5000 -SHRA BR FEW010 SCT020 FEW025CB BKN035 16/14 Q1013 RMK 1CU010 3CU020 1CB025 5CU035 A2993 CB 5KM SE MOV SE,RJOR,2022-10-23T09:27:00Z,35.52,134.17,16.0,14.0,10,23,,3.11,29.911417,,,,,,,,,,-SHRA BR,FEW,1000,SCT,2000,FEW,2500,BKN,3500,MVFR,,,,,,,,,,,,SPECI,11.0
PANA 230927Z AUTO 00000KT 3/4SM BR OVC003 M02/M03 A3004 RMK AO2 FZRANO TSNO $,PANA,2022-10-23T09:27:00Z,60.68,-161.98,-2.0,-3.0,0,0,,0.75,30.041338,,,TRUE,TRUE,TRUE,,TRUE,TRUE,,BR,OVC,300,,,,,,,LIFR,,,,,,,,,,,,SPECI,7.0
KWRL 230927Z AUTO 32004KT 10SM BKN017 OVC044 06/04 A2942 RMK AO2 T00610039,KWRL,2022-10-23T09:27:00Z,43.97,-107.95,6.1,3.9,320,4,,10.0,29.421259,,,TRUE,TRUE,,,,,,,BKN,1700,OVC,4400,,,,,MVFR,,,,,,,,,,,,SPECI,1281.0
KVNY 230927Z AUTO 13006KT 7SM -RA SCT011 BKN028 OVC040 17/14 A2977 RMK AO2 RAB19 P0000 T01670139 $,KVNY,2022-10-23T09:27:00Z,34.22,-118.48,16.7,13.9,130,6,,7.0,29.769686,,,TRUE,TRUE,TRUE,,,,,-RA,SCT,1100,BKN,2800,OVC,4000,,,MVFR,,,,,,0.005,,,,,,SPECI,241.0
KSMP 230927Z AUTO VRB04KT 3/4SM BR BKN002 OVC029 00/M01 A2985 RMK AO2 T00001006 $,KSMP,2022-10-23T09:27:00Z,47.28,-121.33,0.0,-0.6,0,4,,0.75,29.84941,,,TRUE,TRUE,TRUE,,,,,BR,BKN,200,OVC,2900,,,,,LIFR,,,,,,,,,,,,SPECI,1206.0
KSAT 230927Z 17009KT 10SM OVC013 21/18 A2987 RMK AO2 T02110183,KSAT,2022-10-23T09:27:00Z,29.53,-98.48,21.1,18.3,170,9,,10.0,29.870079,,,,TRUE,,,,,,,OVC,1300,,,,,,,MVFR,,,,,,,,,,,,SPECI,246.0
CYVM 230927Z AUTO 21004KT 180V240 5SM -SN OVC037 M01/M01 A2924 RMK SLP905,CYVM,2022-10-23T09:27:00Z,67.55,-64.02,-1.0,-1.0,210,4,,5.0,29.241142,990.5,,TRUE,,,,,,,-SN,OVC,3700,,,,,,,MVFR,,,,,,,,,,,,SPECI,3.0
KSNA 230926Z AUTO 21005KT 10SM SCT024 18/11 A2978 RMK AO2 T01780106,KSNA,2022-10-23T09:26:00Z,33.67,-117.87,17.8,10.6,210,5,,10.0,29.778543,,,TRUE,TRUE,,,,,,,SCT,2400,,,,,,,VFR,,,,,,,,,,,,SPECI,14.0
KSDB 230926Z AUTO 33012G25KT 08/03 A2983 RMK AO2 PK WND 32033/0857 T00780028 $,KSDB,2022-10-23T09:26:00Z,34.75,-118.72,7.8,2.8,330,12,25,,29.828741,,,TRUE,TRUE,TRUE,,,,,,,,,,,,,,,,,,,,,,,,,,METAR,1377.0
KOGD 230926Z AUTO 30005KT 10SM -RA SCT008 BKN013 OVC019 04/02 A2959 RMK AO2 RAB05 P0000 T00440022,KOGD,2022-10-23T09:26:00Z,41.2,-112.02,4.4,2.2,300,5,,10.0,29.589567,,,TRUE,TRUE,,,,,,-RA,SCT,800,BKN,1300,OVC,1900,,,MVFR,,,,,,0.005,,,,,,SPECI,1356.0
YSWG 230925Z AUTO 07016KT 9999 // NCD 20/14 Q1010,YSWG,2022-10-23T09:25:00Z,-35.15,147.47,20.0,14.0,70,16,,6.21,29.822834,,,TRUE,,,,,,,,CLR,,,,,,,,VFR,,,,,,,,,,,,SPECI,212.0
YGEL 230925Z AUTO 34011KT 9999 -SHRA SCT006 SCT061 BKN075 18/17 Q1007,YGEL,2022-10-23T09:25:00Z,-28.8,114.7,18.0,17.0,340,11,,6.21,29.734253,,,TRUE,,,,,,,-SHRA,SCT,600,SCT,6100,BKN,7500,,,VFR,,,,,,,,,,,,SPECI,32.0
PACD 230925Z AUTO 28012KT 10SM FEW024 BKN030 05/04 A3018 RMK AO2 T00500039 TSNO,PACD,2022-10-23T09:25:00Z,55.22,-162.72,5.0,3.9,280,12,,10.0,30.180119,,,TRUE,TRUE,,,TRUE,,,,FEW,2400,BKN,3000,,,,,MVFR,,,,,,,,,,,,SPECI,23.0
KTCM 230925Z AUTO 19005KT 3SM BR OVC060 04/04 A2994 RMK AO2 SLP144 $,KTCM,2022-10-23T09:25:00Z,47.13,-122.47,4.0,4.0,190,5,,3.0,29.940945,1014.4,,TRUE,TRUE,TRUE,,,,,BR,OVC,6000,,,,,,,MVFR,,,,,,,,,,,,SPECI,87.0
KRIL 230925Z AUTO 36006KT 6SM -RA BR FEW028 BKN038 OVC055 07/06 A2945 RMK AO2 P0017 T00720056,KRIL,2022-10-23T09:25:00Z,39.53,-107.73,7.2,5.6,360,6,,6.0,29.450787,,,TRUE,TRUE,,,,,,-RA BR,FEW,2800,BKN,3800,OVC,5500,,,VFR,,,,,,0.17,,,,,,SPECI,1683.0
KJAU 230925Z AUTO 00000KT M1/4SM FG BKN001 05/05 A3024 RMK A01,KJAU,2022-10-23T09:25:00Z,36.33,-84.17,5.0,5.0,0,0,,0.25,30.239174,,,TRUE,TRUE,,,,,,FG,BKN,100,,,,,,,LIFR,,,,,,,,,,,,METAR,350.0
KFAF 230925Z AUTO 01006KT 10SM SCT014 13/11 A3013 RMK AO2 SLP207 $,KFAF,2022-10-23T09:25:00Z,37.13,-76.62,13.0,11.0,10,6,,10.0,30.129921,1020.7,,TRUE,TRUE,TRUE,,,,,,SCT,1400,,,,,,,VFR,,,,,,,,,,,,METAR,3.0
K2DP 230925Z AUTO 36013G18KT 10SM OVC010 17/17 A3002 RMK AO2 SLPNO $,K2DP,2022-10-23T09:25:00Z,35.68,-75.9,17.0,17.0,360,13,18,10.0,30.02067,,,TRUE,TRUE,TRUE,,,,,,OVC,1000,,,,,,,MVFR,,,,,,,,,,,,SPECI,1.0
EHWO 230925Z AUTO 12004KT 9999 FEW094 OVC100 15/13 Q1007 BLU,EHWO,2022-10-23T09:25:00Z,51.45,4.33,15.0,13.0,120,4,,6.21,29.734253,,,TRUE,,,,,,,,FEW,9400,OVC,10000,,,,,VFR,,,,,,,,,,,,METAR,15.0
EHVL 230925Z AUTO 12012KT 9999 FEW055 OVC130 13/12 Q1009 BLU,EHVL,2022-10-23T09:25:00Z,53.28,5.08,13.0,12.0,120,12,,6.21,29.793306,,,TRUE,,,,,,,,FEW,5500,OVC,13000,,,,,VFR,,,,,,,,,,,,METAR,2.0
EHVK 230925Z AUTO 11007KT 080V140 9999 OVC120 15/13 Q1009 BLU,EHVK,2022-10-23T09:25:00Z,51.65,5.7,15.0,13.0,110,7,,6.21,29.793306,,,TRUE,,,,,,,,OVC,12000,,,,,,,VFR,,,,,,,,,,,,METAR,20.0
EHSC 230925Z AUTO 14017KT 9999 ///////// 16/14 Q1007 W16/H6,EHSC,2022-10-23T09:25:00Z,51.93,3.67,16.0,14.0,140,17,,6.21,29.734253,,,TRUE,,,,,,,,,,,,,,,,,,,,,,,,,,,,METAR,19.0
EHSA 230925Z AUTO 12018KT 9999 ///////// 16/14 Q1006 W17/H8,EHSA,2022-10-23T09:25:00Z,52.0,3.28,16.0,14.0,120,18,,6.21,29.704725,,,TRUE,,,,,,,,,,,,,,,,,,,,,,,,,,,,METAR,18.0
EHRD 230925Z AUTO 13007KT 100V170 9999 NSC 14/14 Q1008 NOSIG,EHRD,2022-10-23T09:25:00Z,51.95,4.45,14.0,14.0,130,7,,6.21,29.763779,,,TRUE,,,TRUE,,,,,CLR,,,,,,,,VFR,,,,,,,,,,,,METAR,-4.0
EHQE 230925Z AUTO /////KT 9999 NSC 15/13 Q1007,EHQE,2022-10-23T09:25:00Z,52.92,4.15,15.0,13.0,,,,6.21,29.734253,,,TRUE,,,,,,,,CLR,,,,,,,,VFR,,,,,,,,,,,,METAR,41.0
EHPG 230925Z AUTO 13022KT 090V150 9999 -RA NSC 16/14 Q1006,EHPG,2022-10-23T09:25:00Z,52.37,3.35,16.0,14.0,130,22,,6.21,29.704725,,,TRUE,,,,,,,-RA,CLR,,,,,,,,VFR,,,,,,,,,,,,METAR,24.0
EHMG 230925Z AUTO 14017KT 9999 FEW049 14/12 Q1010,EHMG,2022-10-23T09:25:00Z,53.62,4.97,14.0,12.0,140,17,,6.21,29.822834,,,TRUE,,,,,,,,FEW,4900,,,,,,,VFR,,,,,,,,,,,,METAR,30.0
EHMA 230925Z AUTO 11016KT 9999 NSC 13/12 Q1010,EHMA,2022-10-23T09:25:00Z,53.5,5.95,13.0,12.0,110,16,,6.21,29.822834,,,TRUE,,,,,,,,CLR,,,,,,,,VFR,,,,,,,,,,,,METAR,27.0
EHLW 230925Z AUTO 12008KT 090V160 9999 OVC130 14/12 Q1010 BLU,EHLW,2022-10-23T09:25:00Z,53.22,5.75,14.0,12.0,120,8,,6.21,29.822834,,,TRUE,,,,,,,,OVC,13000,,,,,,,VFR,,,,,,,,,,,,METAR,1.0
EHLE 230925Z AUTO 11008KT 080V140 9999 NSC 14/13 Q1009 NOSIG,EHLE,2022-10-23T09:25:00Z,52.45,5.52,14.0,13.0,110,8,,6.21,29.793306,,,TRUE,,,TRUE,,,,,CLR,,,,,,,,VFR,,,,,,,,,,,,METAR,-3.0
EHKV 230925Z AUTO 14020KT 9999 NSC 15/13 Q1007,EHKV,2022-10-23T09:25:00Z,53.27,3.63,15.0,13.0,140,20,,6.21,29.734253,,,TRUE,,,,,,,,CLR,,,,,,,,VFR,,,,,,,,,,,,METAR,28.0
EHKD 230925Z AUTO 12009KT 090V150 9999 OVC140 15/13 Q1008 BLU NOSIG,EHKD,2022-10-23T09:25:00Z,52.92,4.77,15.0,13.0,120,9,,6.21,29.763779,,,TRUE,,,TRUE,,,,,OVC,14000,,,,,,,VFR,,,,,,,,,,,,METAR,1.0
EHJR 230925Z AUTO 13021KT //// // ///////// 16/14 Q1007 RE// W16/H9,EHJR,2022-10-23T09:25:00Z,53.22,3.22,16.0,14.0,130,21,,,29.734253,,,TRUE,,,,,,,,,,,,,,,,,,,,,,,,,,,,METAR,31.0
EHJA 230925Z AUTO 13022KT 9999 NSC 15/14 Q1007,EHJA,2022-10-23T09:25:00Z,53.82,2.95,15.0,14.0,130,22,,6.21,29.734253,,,TRUE,,,,,,,,CLR,,,,,,,,VFR,,,,,,,,,,,,METAR,34.0
EHHW 230925Z AUTO 14013KT 090V200 9999 NSC 14/12 Q1011,EHHW,2022-10-23T09:25:00Z,54.03,6.03,14.0,12.0,140,13,,6.21,29.852362,,,TRUE,,,,,,,,CLR,,,,,,,,VFR,,,,,,,,,,,,METAR,10.0
EHGR 230925Z AUTO 13008KT 9999 FEW099 OVC110 15/13 Q1008 BLU,EHGR,2022-10-23T09:25:00Z,51.55,4.93,15.0,13.0,130,8,,6.21,29.763779,,,TRUE,,,,,,,,FEW,9900,OVC,11000,,,,,VFR,,,,,,,,,,,,METAR,12.0
EHGG 230925Z AUTO 11006KT 080V140 9999 NSC 13/12 Q1011 NOSIG,EHGG,2022-10-23T09:25:00Z,53.12,6.57,13.0,12.0,110,6,,6.21,29.852362,,,TRUE,,,TRUE,,,,,CLR,,,,,,,,VFR,,,,,,,,,,,,METAR,2.0
EHFS 230925Z AUTO 12012KT 9999 NSC 15/14 Q1006 REDZ,EHFS,2022-10-23T09:25:00Z,51.45,3.6,15.0,14.0,120,12,,6.21,29.704725,,,TRUE,,,,,,,,CLR,,,,,,,,VFR,,,,,,,,,,,,METAR,1.0
EHFD 230925Z AUTO 13017KT 9999 NSC 15/14 Q1010,EHFD,2022-10-23T09:25:00Z,54.85,4.7,15.0,14.0,130,17,,6.21,29.822834,,,TRUE,,,,,,,,CLR,,,,,,,,VFR,,,,,,,,,,,,METAR,24.0
EHEH 230925Z AUTO 12005KT 080V200 9999 OVC120 15/13 Q1009 BLU NOSIG,EHEH,2022-10-23T09:25:00Z,51.45,5.38,15.0,13.0,120,5,,6.21,29.793306,,,TRUE,,,TRUE,,,,,OVC,12000,,,,,,,VFR,,,,,,,,,,,,METAR,20.0
EHDV 230925Z AUTO 15023KT 9999 NSC 15/14 Q1007,EHDV,2022-10-23T09:25:00Z,54.32,2.93,15.0,14.0,150,23,,6.21,29.734253,,,TRUE,,,,,,,,CLR,,,,,,,,VFR,,,,,,,,,,,,METAR,36.0
EHDL 230925Z AUTO 13010KT 030V200 9999 SCT079 BKN086 OVC150 15/12 Q1009 BLU,EHDL,2022-10-23T09:25:00Z,52.07,5.88,15.0,12.0,130,10,,6.21,29.793306,,,TRUE,,,,,,,,SCT,7900,BKN,8600,OVC,15000,,,VFR,,,,,,,,,,,,METAR,49.0
EHBK 230925Z AUTO 16009KT 130V200 9999 NSC 18/13 Q1009 NOSIG,EHBK,2022-10-23T09:25:00Z,50.92,5.77,18.0,13.0,160,9,,6.21,29.793306,,,TRUE,,,TRUE,,,,,CLR,,,,,,,,VFR,,,,,,,,,,,,METAR,112.0
EHAM 230925Z 11010KT CAVOK 14/13 Q1008 NOSIG,EHAM,2022-10-23T09:25:00Z,52.32,4.78,14.0,13.0,110,10,,6.21,29.763779,,,,,,TRUE,,,,,CAVOK,,,,,,,,VFR,,,,,,,,,,,,METAR,-2.0
EHAK 230925Z AUTO 16017KT 9999 NSC 14/14 Q1009,EHAK,2022-10-23T09:25:00Z,55.38,3.82,14.0,14.0,160,17,,6.21,29.793306,,,TRUE,,,,,,,,CLR,,,,,,,,VFR,,,,,,,,,,,,METAR,33.0
EEEI 230925Z 24004KT 9999 SCT011 BKN015 09/08 Q1008,EEEI,2022-10-23T09:25:00Z,59.27,24.2,9.0,8.0,240,4,,6.21,29.763779,,,,,,,,,,,SCT,1100,BKN,1500,,,,,MVFR,,,,,,,,,,,,SPECI,19.0
EBLB 230925Z AUTO 17009KT 9999 BKN120/// 15/10 Q1011 BLU,EBLB,2022-10-23T09:25:00Z,50.47,6.17,15.0,10.0,170,9,,6.21,29.852362,,,TRUE,,,,,,,,BKN,12000,,,,,,,VFR,,,,,,,,,,,,METAR,563.0
EBFS 230925Z AUTO 16012KT 9999 BKN095/// BKN110/// 15/12 Q1008 BLU,EBFS,2022-10-23T09:25:00Z,50.23,4.65,15.0,12.0,160,12,,6.21,29.763779,,,TRUE,,,,,,,,BKN,9500,BKN,11000,,,,,VFR,,,,,,,,,,,,METAR,276.0
EBFN 230925Z AUTO 12010KT 9999 FEW120/// BKN170/// 16/14 Q1004 BLU,EBFN,2022-10-23T09:25:00Z,51.08,2.65,16.0,14.0,120,10,,6.21,29.64567,,,TRUE,,,,,,,,FEW,12000,BKN,17000,,,,,VFR,,,,,,,,,,,,METAR,9.0
EBDT 230925Z AUTO 14004KT 9999 OVC120/// 16/13 Q1008 BLU,EBDT,2022-10-23T09:25:00Z,51.02,5.07,16.0,13.0,140,4,,6.21,29.763779,,,TRUE,,,,,,,,OVC,12000,,,,,,,VFR,,,,,,,,,,,,METAR,25.0
EBCV 230925Z AUTO 15007KT 9999 FEW120/// SCT200/// 17/13 Q1007 BLU,EBCV,2022-10-23T09:25:00Z,50.57,3.82,17.0,13.0,150,7,,6.21,29.734253,,,TRUE,,,,,,,,FEW,12000,SCT,20000,,,,,VFR,,,,,,,,,,,,METAR,56.0
EBBL 230925Z AUTO 09003KT 9999 BKN140/// BKN180/// 15/13 Q1009 BLU,EBBL,2022-10-23T09:25:00Z,51.17,5.47,15.0,13.0,90,3,,6.21,29.793306,,,TRUE,,,,,,,,BKN,14000,BKN,18000,,,,,VFR,,,,,,,,,,,,METAR,50.0
EBBE 230925Z AUTO 16007KT 9999 OVC100/// 17/12 Q1008 BLU,EBBE,2022-10-23T09:25:00Z,50.75,4.77,17.0,12.0,160,7,,6.21,29.763779,,,TRUE,,,,,,,,OVC,10000,,,,,,,VFR,,,,,,,,,,,,METAR,127.0
CYHK 230925Z AUTO 31013KT 9SM BKN014 M18/M20 A2975 RMK SLP084,CYHK,2022-10-23T09:25:00Z,68.62,-95.85,-18.0,-20.0,310,13,,9.0,29.749016,1008.4,,TRUE,,,,,,,,BKN,1400,,,,,,,MVFR,,,,,,,,,,,,SPECI,36.0
CYBK 230925Z 32019KT 15SM -SN SCT018 OVC050 M08/M10 A2997 RMK ST3SC5 SLP153,CYBK,2022-10-23T09:25:00Z,64.3,-96.07,-8.0,-10.0,320,19,,15.0,29.970472,1015.3,,,,,,,,,-SN,SCT,1800,OVC,5000,,,,,VFR,,,,,,,,,,,,SPECI,14.0
LIBG 230924Z VRB02KT 9999 SCT020 19/19 Q1024,LIBG,2022-10-23T09:24:00Z,40.52,17.4,19.0,19.0,0,2,,6.21,30.236221,,,,,,,,,,,SCT,2000,,,,,,,VFR,,,,,,,,,,,,SPECI,64.0
KCDC 230924Z AUTO 27004KT 3SM -SN BR OVC002 00/M01 A2963 RMK AO2 T00001006 PNO $,KCDC,2022-10-23T09:24:00Z,37.7,-113.1,0.0,-0.6,270,4,,3.0,29.630905,,,TRUE,TRUE,TRUE,,,,,-SN BR,OVC,200,,,,,,,LIFR,,,,,,,,,,,,SPECI,1703.0
RJEC 230923Z 01005KT 9999 -SHRA FEW003 SCT007 BKN010 05/05 Q1010 RMK 1ST003 4ST007 5ST010 A2983,RJEC,2022-10-23T09:23:00Z,43.67,142.43,5.0,5.0,10,5,,6.21,29.822834,,,,,,,,,,-SHRA,FEW,300,SCT,700,BKN,1000,,,MVFR,,,,,,,,,,,,METAR,209.0
PAWM 230923Z AUTO 27006KT 7SM OVC010 02/02 A2985 RMK AO2 RAE09UPB09E19 CIG 006V013 FZRANO PNO $,PAWM,2022-10-23T09:23:00Z,64.68,-163.42,2.0,2.0,270,6,,7.0,29.84941,,,TRUE,TRUE,TRUE,,,TRUE,,,OVC,1000,,,,,,,MVFR,,,,,,,,,,,,SPECI,80.0
KNFG 230923Z AUTO 22003KT 10SM FEW017 SCT026 17/14 A2980 RMK AO2 T01670144,KNFG,2022-10-23T09:23:00Z,33.3,-117.35,16.7,14.4,220,3,,10.0,29.799213,,,TRUE,TRUE,,,,,,,FEW,1700,SCT,2600,,,,,VFR,,,,,,,,,,,,SPECI,21.0
KBIL 230923Z 31012KT 10SM OVC030 04/02 A2945 RMK AO2 RAE02 P0000 T00390022,KBIL,2022-10-23T09:23:00Z,45.8,-108.55,3.9,2.2,310,12,,10.0,29.450787,,,,TRUE,,,,,,,OVC,3000,,,,,,,MVFR,,,,,,0.005,,,,,,SPECI,1089.0
KAVX 230923Z AUTO 26016KT 8SM OVC011 12/11 A2980 RMK AO2 CIG 007V013 T01220106,KAVX,2022-10-23T09:23:00Z,33.4,-118.42,12.2,10.6,260,16,,8.0,29.799213,,,TRUE,TRUE,,,,,,,OVC,1100,,,,,,,MVFR,,,,,,,,,,,,SPECI,482.0
ETHF 230923Z VRB02KT 2000 VCFG FEW001 BKN170 11/11 Q1014 YLO,ETHF,2022-10-23T09:23:00Z,51.12,9.28,11.0,11.0,0,2,,1.24,29.940945,,,,,,,,,,VCFG,FEW,100,BKN,17000,,,,,IFR,,,,,,,,,,,,SPECI,171.0
CYQF 230923Z AUTO 36004KT 8SM SCT012 OVC055 01/00 A2989 RMK SLP160,CYQF,2022-10-23T09:23:00Z,52.17,-113.9,1.0,0.0,360,4,,8.0,29.890747,1016.0,,TRUE,,,,,,,,SCT,1200,OVC,5500,,,,,VFR,,,,,,,,,,,,SPECI,912.0
RJCO 230922Z 33013KT 9999 -SHRA FEW015 BKN030 BKN050 08/06 Q1012 RMK 1ST015 5CU030 7CU050 A2990,RJCO,2022-10-23T09:22:00Z,43.12,141.37,8.0,6.0,330,13,,6.21,29.88189,,,,,,,,,,-SHRA,FEW,1500,BKN,3000,BKN,5000,,,MVFR,,,,,,,,,,,,METAR,7.0
KLUK 230922Z AUTO 00000KT 1SM R21L/2000VP6000FT BR CLR 09/09 A3014 RMK AO2 T00890089,KLUK,2022-10-23T09:22:00Z,39.1,-84.42,8.9,8.9,0,0,,1.0,30.138779,,,TRUE,TRUE,,,,,,BR,CLR,,,,,,,,IFR,,,,,,,,,,,,SPECI,144.0
FAUT 230922Z AUTO 04003KT //// // ////// 19/14 Q1019,FAUT,2022-10-23T09:22:00Z,-31.53,28.67,19.0,14.0,40,3,,,30.088583,,,TRUE,,,,,,,,,,,,,,,,,,,,,,,,,,,,SPECI,735.0
PAPH 230921Z AUTO 32009KT 10SM BKN027 BKN065 05/02 A3004 RMK AO2,PAPH,2022-10-23T09:21:00Z,56.95,-158.62,5.0,2.0,320,9,,10.0,30.041338,,,TRUE,TRUE,,,,,,,BKN,2700,BKN,6500,,,,,MVFR,,,,,,,,,,,,SPECI,29.0
KEEO 230921Z AUTO 10003KT 5SM -RA BR FEW009 OVC017 02/02 A2945 RMK AO2 P0004 T00220017,KEEO,2022-10-23T09:21:00Z,40.05,-107.88,2.2,1.7,100,3,,5.0,29.450787,,,TRUE,TRUE,,,,,,-RA BR,FEW,900,OVC,1700,,,,,MVFR,,,,,,0.04,,,,,,SPECI,1957.0
LXGB 230920Z 22004KT 9999 FEW022 BKN140 23/18 Q1018 NOSIG RMK BLU BLU,LXGB,2022-10-23T09:20:00Z,36.15,-5.33,23.0,18.0,220,4,,6.21,30.059055,,,,,,TRUE,,,,,FEW,2200,BKN,14000,,,,,VFR,,,,,,,,,,,,SPECI,5.0
LTFM 230920Z 24015KT CAVOK 20/12 Q1021 NOSIG RMK RWY17L 23015KT RWY34L 23015KT RWY16R 23013KT RWY36 24014KT RWY18 23017KT,LTFM,2022-10-23T09:20:00Z,41.27,28.75,20.0,12.0,240,15,,6.21,30.147638,,,,,,TRUE,,,,,CAVOK,,,,,,,,VFR,,,,,,,,,,,,METAR,99.0
LTFJ 230920Z 26015KT CAVOK 19/06 Q1021 NOSIG RMK RWY24 27018KT,LTFJ,2022-10-23T09:20:00Z,40.9,29.3,19.0,6.0,260,15,,6.21,30.147638,,,,,,TRUE,,,,,CAVOK,,,,,,,,VFR,,,,,,,,,,,,SPECI,83.0
LTFE 230920Z 28008KT 250V310 CAVOK 23/M00 Q1022 NOSIG RMK RWY10 27010KT,LTFE,2022-10-23T09:20:00Z,37.25,27.67,23.0,0.0,280,8,,6.21,30.177166,,,,,,TRUE,,,,,CAVOK,,,,,,,,VFR,,,,,,,,,,,,SPECI,6.0
LTFC 230920Z 22004KT 140V270 CAVOK 15/00 Q1024 RMK RWY23 19005KT 140V240,LTFC,2022-10-23T09:20:00Z,37.87,30.38,15.0,0.0,220,4,,6.21,30.236221,,,,,,,,,,,CAVOK,,,,,,,,VFR,,,,,,,,,,,,SPECI,862.0
LTCS 230920Z VRB07KT CAVOK 20/03 Q1023 RMK RWY22 33009KT 280V030 SKC,LTCS,2022-10-23T09:20:00Z,37.45,38.9,20.0,3.0,0,7,,6.21,30.206694,,,,,,,,,,,CAVOK,,,,,,,,VFR,,,,,,,,,,,,METAR,825.0
LTCJ 230920Z 29004KT 240V360 9999 SCT020 15/11 Q1023 NOSIG RMK RWY20 26003KT 170V310 3ST020,LTCJ,2022-10-23T09:20:00Z,37.93,41.12,15.0,11.0,290,4,,6.21,30.206694,,,,,,TRUE,,,,,SCT,2000,,,,,,,VFR,,,,,,,,,,,,SPECI,559.0
LTCG 230920Z 10008KT CAVOK 18/10 Q1021 NOSIG RMK RWY29 09008KT,LTCG,2022-10-23T09:20:00Z,41.0,39.77,18.0,10.0,100,8,,6.21,30.147638,,,,,,TRUE,,,,,CAVOK,,,,,,,,VFR,,,,,,,,,,,,SPECI,28.0
LTCE 230920Z VRB02KT CAVOK 11/M01 Q1025 NOSIG RMK RWY08R VRB03KT RWY26R VRB03KT RWY08L 31003KT 260V010 SKC,LTCE,2022-10-23T09:20:00Z,39.95,41.17,11.0,-1.0,0,2,,6.21,30.265747,,,,,,TRUE,,,,,CAVOK,,,,,,,,VFR,,,,,,,,,,,,SPECI,1758.0
LTCC 230920Z 08003KT 020V160 CAVOK 17/09 Q1023 NOSIG RMK RWY16 13003KT 070V210 SKC,LTCC,2022-10-23T09:20:00Z,37.88,40.2,17.0,9.0,80,3,,6.21,30.206694,,,,,,TRUE,,,,,CAVOK,,,,,,,,VFR,,,,,,,,,,,,SPECI,676.0
LTBU 230920Z 26010KT CAVOK 22/14 Q1021 RMK RWY22 25011KT 230V290,LTBU,2022-10-23T09:20:00Z,41.13,27.92,22.0,14.0,260,10,,6.21,30.147638,,,,,,,,,,,CAVOK,,,,,,,,VFR,,,,,,,,,,,,SPECI,165.0
LTBS 230920Z 26004KT 220V290 CAVOK 24/06 Q1021 NOSIG RMK RWY19 20004KT 110V260 SKC,LTBS,2022-10-23T09:20:00Z,36.7,28.78,24.0,6.0,260,4,,6.21,30.147638,,,,,,TRUE,,,,,CAVOK,,,,,,,,VFR,,,0.4,,,,,,,,,SPECI,2.0
LTBR 230920Z VRB04KT CAVOK 18/04 Q1022 NOSIG RMK RWY07 15004KT 070V170,LTBR,2022-10-23T09:20:00Z,40.25,29.57,18.0,4.0,0,4,,6.21,30.177166,,,,,,TRUE,,,,,CAVOK,,,,,,,,VFR,,,,,,,,,,,,SPECI,233.0
LTBJ 230920Z VRB03KT CAVOK 22/00 Q1022 NOSIG RMK RWY16 17003KT 110V260,LTBJ,2022-10-23T09:20:00Z,38.28,27.15,22.0,0.0,0,3,,6.21,30.177166,,,,,,TRUE,,,,,CAVOK,,,,,,,,VFR,,,,,,,,,,,,SPECI,123.0
LTBA 230920Z 22010KT CAVOK 19/13 Q1021 RMK RWY23 23013KT,LTBA,2022-10-23T09:20:00Z,40.97,28.82,19.0,13.0,220,10,,6.21,30.147638,,,,,,,,,,,CAVOK,,,,,,,,VFR,,,,,,,,,,,,SPECI,33.0
LTAZ 230920Z 29002KT CAVOK 14/M03 Q1025 RMK RWY29 VRB04KT,LTAZ,2022-10-23T09:20:00Z,38.77,34.52,14.0,-3.0,290,2,,6.21,30.265747,,,,,,,,,,,CAVOK,,,,,,,,VFR,,,,,,,,,,,,SPECI,944.0
LTAU 230920Z VRB01KT CAVOK 12/01 Q1025 NOSIG RMK RWY07 23004KT 190V270,LTAU,2022-10-23T09:20:00Z,38.77,35.48,12.0,1.0,0,1,,6.21,30.265747,,,,,,TRUE,,,,,CAVOK,,,,,,,,VFR,,,,,,,,,,,,SPECI,1053.0
LTAT 230920Z 08004KT 020V140 CAVOK 17/01 Q1025 NOSIG RMK RWY03 05004KT 020V110,LTAT,2022-10-23T09:20:00Z,38.43,38.08,17.0,1.0,80,4,,6.21,30.265747,,,,,,TRUE,,,,,CAVOK,,,,,,,,VFR,,,,,,,,,,,,SPECI,850.0
LTAP 230920Z VRB04KT CAVOK 15/03 Q1023 NOSIG RMK RWY23 14005KT 080V200,LTAP,2022-10-23T09:20:00Z,40.83,35.52,15.0,3.0,0,4,,6.21,30.206694,,,,,,TRUE,,,,,CAVOK,,,,,,,,VFR,,,,,,,,,,,,SPECI,536.0
LTAJ 230920Z 04003KT 300V100 9999 SCT040 21/07 Q1022 NOSIG RMK RWY10 05004KT 010V130 3CU040,LTAJ,2022-10-23T09:20:00Z,36.95,37.48,21.0,7.0,40,3,,6.21,30.177166,,,,,,TRUE,,,,,SCT,4000,,,,,,,VFR,,,,,,,,,,,,SPECI,684.0
LTAI 230920Z 03006KT 330V070 CAVOK 24/M03 Q1021 BECMG TL1100 18010KT RMK RWY18C 35005KT 310V040 RWY36R 04005KT 350V100 RWY18L 03006KT 350V080,LTAI,2022-10-23T09:20:00Z,36.9,30.8,24.0,-3.0,30,6,,6.21,30.147638,,,,,,,,,,,CAVOK,,,,,,,,VFR,,,,,,,,,,,,SPECI,50.0
LTAG 230920Z 02006KT CAVOK 26/04 Q1018 NOSIG RMK SKC,LTAG,2022-10-23T09:20:00Z,37.0,35.42,26.0,4.0,20,6,,6.21,30.059055,,,,,,TRUE,,,,,CAVOK,,,,,,,,VFR,,,,,,,,,,,,SPECI,62.0
LTAF 230920Z VRB05KT CAVOK 28/07 Q1019 NOSIG RMK RWY23 02006KT 340V060 SKC,LTAF,2022-10-23T09:20:00Z,36.98,35.28,28.0,7.0,0,5,,6.21,30.088583,,,,,,TRUE,,,,,CAVOK,,,,,,,,VFR,,,,,,,,,,,,SPECI,19.0
LTAC 230920Z 21010KT 180V240 9999 FEW040 SCT100 14/M03 Q1024 NOSIG RMK RWY21L 20009KT 170V240 RWY03L 20008KT RWY21R 20009KT,LTAC,2022-10-23T09:20:00Z,40.12,32.98,14.0,-3.0,210,10,,6.21,30.236221,,,,,,TRUE,,,,,FEW,4000,SCT,10000,,,,,VFR,,,0.9,,,,,,,,,SPECI,952.0
LSZS 230920Z VRB02KT 7000 FEW003 SCT022 BKN070 07/07 Q1025 RMK H TL170,LSZS,2022-10-23T09:20:00Z,46.53,9.88,7.0,7.0,0,2,,4.35,30.265747,,,,,,,,,,,FEW,300,SCT,2200,BKN,7000,,,MVFR,,,,,,,,,,,,SPECI,1708.0
LSZR 230920Z 32003KT 280V350 9999 FEW010 13/12 Q1017 RMK B,LSZR,2022-10-23T09:20:00Z,47.48,9.57,13.0,12.0,320,3,,6.21,30.029528,,,,,,,,,,,FEW,1000,,,,,,,VFR,,,,,,,,,,,,METAR,396.0
LSZL 230920Z AUTO 09004KT 070V150 9999NDV -SHRA FEW030 SCT038 BKN043 15/14 Q1023 RMK,LSZL,2022-10-23T09:20:00Z,46.17,8.88,15.0,14.0,90,4,,,30.206694,,,TRUE,,,,,,,-SHRA,FEW,3000,SCT,3800,BKN,4300,,,,,,,,,,,,,,,SPECI,198.0
LSZH 230920Z VRB02KT 0550 R14/1100D R16/0800U R28/P2000N R34/1400D PRFG VCFG VV002 10/10 Q1017 BECMG 3000 SCT005,LSZH,2022-10-23T09:20:00Z,47.48,8.53,10.0,10.0,0,2,,0.34,30.029528,,,,,,,,,,VCFG PRFG,OVX,0,,,,,,,LIFR,,,,,,,,,,,200,SPECI,424.0
LSZG 230920Z VRB02KT 1100 BR OVC002 11/11 Q1016,LSZG,2022-10-23T09:20:00Z,47.17,7.42,11.0,11.0,0,2,,0.68,30.0,,,,,,,,,,BR,OVC,200,,,,,,,LIFR,,,,,,,,,,,,METAR,428.0
LSZC 230920Z AUTO VRB02KT 9999 SCT120 13/11 Q1017,LSZC,2022-10-23T09:20:00Z,46.97,8.38,13.0,11.0,0,2,,6.21,30.029528,,,TRUE,,,,,,,,SCT,12000,,,,,,,VFR,,,,,,,,,,,,METAR,445.0
LSZB 230920Z VRB01KT CAVOK 12/10 Q1016,LSZB,2022-10-23T09:20:00Z,46.92,7.5,12.0,10.0,0,1,,6.21,30.0,,,,,,,,,,,CAVOK,,,,,,,,VFR,,,,,,,,,,,,METAR,510.0
LSZA 230920Z VRB02KT 9999 -RA FEW006 SCT021 BKN030 15/15 Q1023,LSZA,2022-10-23T09:20:00Z,46.0,8.92,15.0,15.0,0,2,,6.21,30.206694,,,,,,,,,,-RA,FEW,600,SCT,2100,BKN,3000,,,MVFR,,,,,,,,,,,,METAR,276.0
LSMP 230920Z AUTO 00000KT 2900NDV BR OVC002 12/11 Q1017 RMK,LSMP,2022-10-23T09:20:00Z,46.83,6.92,12.0,11.0,0,0,,,30.029528,,,TRUE,,,,,,,BR,OVC,200,,,,,,,,,,,,,,,,,,,METAR,490.0
LSMM 230920Z AUTO 26003KT 200V330 9999NDV SCT110 12/10 Q1016 RMK,LSMM,2022-10-23T09:20:00Z,46.75,8.12,12.0,10.0,260,3,,,30.0,,,TRUE,,,,,,,,SCT,11000,,,,,,,,,,,,,,,,,,,METAR,570.0
LSME 230920Z AUTO 00000KT 0600NDV R04/0800D R22/1000V1400N BR OVC002 10/10 Q1017 RMK,LSME,2022-10-23T09:20:00Z,47.1,8.3,10.0,10.0,0,0,,0.87,30.029528,,,TRUE,,,,,,,BR,OVC,200,,,,,,,LIFR,,,,,,,,,,,,METAR,427.0
LSMD 230920Z AUTO VRB02KT 0750NDV R11/0800VP2000U R29/0800V1800D BCFG SCT002 BKN110 11/10 Q1017 RMK,LSMD,2022-10-23T09:20:00Z,47.4,8.65,11.0,10.0,0,2,,,30.029528,,,TRUE,,,,,,,BCFG,SCT,200,BKN,11000,,,,,,,,,,,,,,,,,METAR,436.0
LSMA 230920Z AUTO 00000KT 9999NDV SCT120 13/10 Q1017 RMK,LSMA,2022-10-23T09:20:00Z,46.95,8.28,13.0,10.0,0,0,,,30.029528,,,TRUE,,,,,,,,SCT,12000,,,,,,,,,,,,,,,,,,,METAR,441.0
LSGS 230920Z 07006KT 9999 BKN120 13/09 Q1019,LSGS,2022-10-23T09:20:00Z,46.22,7.32,13.0,9.0,70,6,,6.21,30.088583,,,,,,,,,,,BKN,12000,,,,,,,VFR,,,,,,,,,,,,METAR,482.0
LSGG 230920Z VRB02KT 9999 3500W BCFG FEW002 13/12 Q1017 NOSIG,LSGG,2022-10-23T09:20:00Z,46.25,6.12,13.0,12.0,0,2,,6.21,30.029528,,,,,,TRUE,,,,BCFG,FEW,200,,,,,,,VFR,,,,,,,,,,,,SPECI,411.0
LSGC 230920Z 22010KT 130V270 CAVOK 18/08 Q1016 WS R24,LSGC,2022-10-23T09:20:00Z,47.08,6.8,18.0,8.0,220,10,,6.21,30.0,,,,,,,,,,,CAVOK,,,,,,,,VFR,,,,,,,,,,,,SPECI,1018.0
LOXZ 230920Z VRB02KT 9999 FEW010 BKN300 10/07 Q1023 NOSIG,LOXZ,2022-10-23T09:20:00Z,47.2,14.75,10.0,7.0,0,2,,6.21,30.206694,,,,,,TRUE,,,,,FEW,1000,BKN,30000,,,,,VFR,,,,,,,,,,,,METAR,678.0
LOWW 230920Z 11009KT 9999 FEW002 BKN003 09/08 Q1021 TEMPO SCT003,LOWW,2022-10-23T09:20:00Z,48.12,16.57,9.0,8.0,110,9,,6.21,30.147638,,,,,,,,,,,FEW,200,BKN,300,,,,,LIFR,,,,,,,,,,,,SPECI,179.0
LOWS 230920Z 15010KT CAVOK 15/09 Q1018 NOSIG,LOWS,2022-10-23T09:20:00Z,47.78,13.02,15.0,9.0,150,10,,6.21,30.059055,,,,,,TRUE,,,,,CAVOK,,,,,,,,VFR,,,,,,,,,,,,METAR,427.0
LOWL 230920Z AUTO 10003KT 050V140 1200 0700W R26/P1500U BCFG FEW000 OVC002 10/10 Q1020 BECMG 8000 NSW FEW004 BKN007,LOWL,2022-10-23T09:20:00Z,48.22,14.18,10.0,10.0,100,3,,0.75,30.11811,,,TRUE,,,,,,,BCFG,FEW,0,OVC,200,,,,,LIFR,,,,,,,,,,,,SPECI,290.0
LOWK 230920Z AUTO 33004KT 9999 FEW010 BKN018 12/10 Q1024 NOSIG,LOWK,2022-10-23T09:20:00Z,46.65,14.32,12.0,10.0,330,4,,6.21,30.236221,,,TRUE,,,TRUE,,,,,FEW,1000,BKN,1800,,,,,MVFR,,,,,,,,,,,,METAR,450.0
LOWI 230920Z 26012KT 9999 FEW070 13/09 Q1021 NOSIG,LOWI,2022-10-23T09:20:00Z,47.27,11.33,13.0,9.0,260,12,,6.21,30.147638,,,,,,TRUE,,,,,FEW,7000,,,,,,,VFR,,,,,,,,,,,,METAR,570.0
LOWG 230920Z VRB02KT 9999 FEW002 12/10 Q1022 NOSIG,LOWG,2022-10-23T09:20:00Z,47.0,15.43,12.0,10.0,0,2,,6.21,30.177166,,,,,,TRUE,,,,,FEW,200,,,,,,,VFR,,,,,,,,,,,,METAR,337.0
LLBG 230920Z VRB03KT CAVOK 28/16 Q1016 NOSIG RMK BKN090,LLBG,2022-10-23T09:20:00Z,32.0,34.88,28.0,16.0,0,3,,6.21,30.0,,,,,,TRUE,,,,,CAVOK,,,,,,,,VFR,,,,,,,,,,,,METAR,35.0
LIRZ 230920Z AUTO VRB01KT 9999 BKN030/// 20/15 Q1025,LIRZ,2022-10-23T09:20:00Z,43.1,12.5,20.0,15.0,0,1,,6.21,30.265747,,,TRUE,,,,,,,,BKN,3000,,,,,,,MVFR,,,,,,,,,,,,METAR,206.0
LIRQ 230920Z 11006KT 9999 BKN038 21/18 Q1023,LIRQ,2022-10-23T09:20:00Z,43.8,11.2,21.0,18.0,110,6,,6.21,30.206694,,,,,,,,,,,BKN,3800,,,,,,,VFR,,,,,,,,,,,,METAR,33.0
LIRN 230920Z VRB02KT 8000 FEW050 22/17 Q1026 NOSIG,LIRN,2022-10-23T09:20:00Z,40.88,14.3,22.0,17.0,0,2,,4.97,30.295275,,,,,,TRUE,,,,,FEW,5000,,,,,,,MVFR,,,,,,,,,,,,METAR,76.0
LIRF 230920Z 15012KT 130V190 9999 SCT020 23/18 Q1024 NOSIG,LIRF,2022-10-23T09:20:00Z,41.78,12.23,23.0,18.0,150,12,,6.21,30.236221,,,,,,TRUE,,,,,SCT,2000,,,,,,,VFR,,,,,,,,,,,,METAR,2.0
LIRA 230920Z 18011KT 160V220 9999 FEW030 23/16 Q1025,LIRA,2022-10-23T09:20:00Z,41.8,12.58,23.0,16.0,180,11,,6.21,30.265747,,,,,,,,,,,FEW,3000,,,,,,,VFR,,,,,,,,,,,,METAR,101.0
LIPZ 230920Z 04004KT 360V090 CAVOK 19/14 Q1022 NOSIG,LIPZ,2022-10-23T09:20:00Z,45.5,12.35,19.0,14.0,40,4,,6.21,30.177166,,,,,,TRUE,,,,,CAVOK,,,,,,,,VFR,,,,,,,,,,,,METAR,3.0
LIPY 230920Z AUTO VRB02KT 9999 BKN140/// 22/16 Q1023,LIPY,2022-10-23T09:20:00Z,43.62,13.37,22.0,16.0,0,2,,6.21,30.206694,,,TRUE,,,,,,,,BKN,14000,,,,,,,VFR,,,,,,,,,,,,METAR,11.0
LIPX 230920Z VRB02KT 9999 FEW090 20/14 Q1022,LIPX,2022-10-23T09:20:00Z,45.38,10.87,20.0,14.0,0,2,,6.21,30.177166,,,,,,,,,,,FEW,9000,,,,,,,VFR,,,,,,,,,,,,METAR,67.0
LIPR 230920Z 20008KT 9999 FEW030 SCT070 23/16 Q1022,LIPR,2022-10-23T09:20:00Z,44.02,12.62,23.0,16.0,200,8,,6.21,30.177166,,,,,,,,,,,FEW,3000,SCT,7000,,,,,VFR,,,,,,,,,,,,METAR,10.0
LIPQ 230920Z AUTO VRB02KT 9999 BKN010/// 19/18 Q1022,LIPQ,2022-10-23T09:20:00Z,45.82,13.47,19.0,18.0,0,2,,6.21,30.177166,,,TRUE,,,,,,,,BKN,1000,,,,,,,MVFR,,,,,,,,,,,,METAR,6.0
LIPO 230920Z AUTO 05008KT 020V090 9999 SCT074/// 21/14 Q1022,LIPO,2022-10-23T09:20:00Z,45.42,10.33,21.0,14.0,50,8,,6.21,30.177166,,,TRUE,,,,,,,,SCT,7400,,,,,,,VFR,,,,,,,,,,,,METAR,104.0
LIPH 230920Z 08003KT 030V120 CAVOK 20/14 Q1022,LIPH,2022-10-23T09:20:00Z,45.63,12.18,20.0,14.0,80,3,,6.21,30.177166,,,,,,,,,,,CAVOK,,,,,,,,VFR,,,,,,,,,,,,METAR,10.0
LIPE 230920Z 27003KT 240V330 4000 BR SCT004 16/16 Q1022,LIPE,2022-10-23T09:20:00Z,44.52,11.3,16.0,16.0,270,3,,2.49,30.177166,,,,,,,,,,BR,SCT,400,,,,,,,IFR,,,,,,,,,,,,METAR,37.0
LIMZ 230920Z AUTO 36003KT 320V040 9000 BKN014/// 17/16 Q1023,LIMZ,2022-10-23T09:20:00Z,44.53,7.62,17.0,16.0,360,3,,5.59,30.206694,,,TRUE,,,,,,,,BKN,1400,,,,,,,MVFR,,,,,,,,,,,,METAR,377.0
LIMW 230920Z AUTO 17003KT 140V230 9999 SCT120/// 15/12 Q1023,LIMW,2022-10-23T09:20:00Z,45.73,7.37,15.0,12.0,170,3,,6.21,30.206694,,,TRUE,,,,,,,,SCT,12000,,,,,,,VFR,,,,,,,,,,,,METAR,554.0
LIML 230920Z 11006KT 070V150 9999 FEW030 BKN050 19/15 Q1022 NOSIG,LIML,2022-10-23T09:20:00Z,45.47,9.27,19.0,15.0,110,6,,6.21,30.177166,,,,,,TRUE,,,,,FEW,3000,BKN,5000,,,,,VFR,,,,,,,,,,,,METAR,109.0
LIMJ 230920Z 13014KT 9999 SCT016 BKN025 22/19 Q1021,LIMJ,2022-10-23T09:20:00Z,44.42,8.83,22.0,19.0,130,14,,6.21,30.147638,,,,,,,,,,,SCT,1600,BKN,2500,,,,,MVFR,,,,,,,,,,,,METAR,3.0
LIMF 230920Z 07005KT 6000 BKN011 BKN025 17/16 Q1023,LIMF,2022-10-23T09:20:00Z,45.22,7.65,17.0,16.0,70,5,,3.73,30.206694,,,,,,,,,,,BKN,1100,BKN,2500,,,,,MVFR,,,,,,,,,,,,METAR,295.0
LIME 230920Z VRB02KT 9999 SCT040 SCT080 19/16 Q1023 NOSIG,LIME,2022-10-23T09:20:00Z,45.67,9.7,19.0,16.0,0,2,,6.21,30.206694,,,,,,TRUE,,,,,SCT,4000,SCT,8000,,,,,VFR,,,,,,,,,,,,METAR,239.0
LIMC 230920Z 03004KT 9999 BKN020 18/16 Q1023 NOSIG,LIMC,2022-10-23T09:20:00Z,45.62,8.72,18.0,16.0,30,4,,6.21,30.206694,,,,,,TRUE,,,,,BKN,2000,,,,,,,MVFR,,,,,,,,,,,,METAR,221.0
LIEO 230920Z VRB02KT CAVOK 24/14 Q1021,LIEO,2022-10-23T09:20:00Z,40.88,9.52,24.0,14.0,0,2,,6.21,30.147638,,,,,,,,,,,CAVOK,,,,,,,,VFR,,,,,,,,,,,,METAR,8.0
LIEE 230920Z 15010KT CAVOK 24/21 Q1022,LIEE,2022-10-23T09:20:00Z,39.25,9.07,24.0,21.0,150,10,,6.21,30.177166,,,,,,,,,,,CAVOK,,,,,,,,VFR,,,,,,,,,,,,METAR,1.0
LIEA 230920Z 17003KT 120V250 CAVOK 25/18 Q1021,LIEA,2022-10-23T09:20:00Z,40.62,8.28,25.0,18.0,170,3,,6.21,30.147638,,,,,,,,,,,CAVOK,,,,,,,,VFR,,,,,,,,,,,,METAR,22.0
LICR 230920Z AUTO 34010KT 9999 NCD 25/16 Q1025,LICR,2022-10-23T09:20:00Z,38.07,15.65,25.0,16.0,340,10,,6.21,30.265747,,,TRUE,,,,,,,,CLR,,,,,,,,VFR,,,,,,,,,,,,METAR,16.0
LICJ 230920Z AUTO 21011KT 9999 NCD 24/16 Q1025,LICJ,2022-10-23T09:20:00Z,38.17,13.08,24.0,16.0,210,11,,6.21,30.265747,,,TRUE,,,,,,,,CLR,,,,,,,,VFR,,,,,,,,,,,,METAR,20.0
LICD 230920Z AUTO 19009KT 9999 NCD 25/18 Q1025,LICD,2022-10-23T09:20:00Z,35.5,12.62,25.0,18.0,190,9,,6.21,30.265747,,,TRUE,,,,,,,,CLR,,,,,,,,VFR,,,,,,,,,,,,METAR,20.0
LICC 230920Z 27010KT CAVOK 24/14 Q1025,LICC,2022-10-23T09:20:00Z,37.47,15.05,24.0,14.0,270,10,,6.21,30.265747,,,,,,,,,,,CAVOK,,,,,,,,VFR,,,,,,,,,,,,METAR,6.0
LICB 230920Z AUTO 31005KT 250V030 9999 NCD 23/16 Q1027,LICB,2022-10-23T09:20:00Z,37.0,14.62,23.0,16.0,310,5,,6.21,30.324802,,,TRUE,,,,,,,,CLR,,,,,,,,VFR,,,,,,,,,,,,METAR,212.0
LICA 230920Z AUTO 25006KT 9999 NCD 22/17 Q1026,LICA,2022-10-23T09:20:00Z,38.9,16.25,22.0,17.0,250,6,,6.21,30.295275,,,TRUE,,,,,,,,CLR,,,,,,,,VFR,,,,,,,,,,,,METAR,7.0
LIBR 230920Z 20005KT 170V230 4000 BR SCT005 BKN010 21/19 Q1024,LIBR,2022-10-23T09:20:00Z,40.65,17.95,21.0,19.0,200,5,,2.49,30.236221,,,,,,,,,,BR,SCT,500,BKN,1000,,,,,IFR,,,,,,,,,,,,METAR,5.0
LIBP 230920Z AUTO 04004KT 020V090 9999 NCD 21/17 Q1023,LIBP,2022-10-23T09:20:00Z,42.42,14.18,21.0,17.0,40,4,,6.21,30.206694,,,TRUE,,,,,,,,CLR,,,,,,,,VFR,,,,,,,,,,,,METAR,10.0
LIBD 230920Z 07004KT CAVOK 24/15 Q1024,LIBD,2022-10-23T09:20:00Z,41.13,16.77,24.0,15.0,70,4,,6.21,30.236221,,,,,,,,,,,CAVOK,,,,,,,,VFR,,,,,,,,,,,,METAR,42.0
LGTS 230920Z 30006KT CAVOK 18/13 Q1022 NOSIG,LGTS,2022-10-23T09:20:00Z,40.52,22.97,18.0,13.0,300,6,,6.21,30.177166,,,,,,TRUE,,,,,CAVOK,,,,,,,,VFR,,,,,,,,,,,,METAR,4.0
LGSR 230920Z 26010KT CAVOK 19/13 Q1023,LGSR,2022-10-23T09:20:00Z,36.4,25.48,19.0,13.0,260,10,,6.21,30.206694,,,,,,,,,,,CAVOK,,,,,,,,VFR,,,,,,,,,,,,METAR,31.0
LGSA 230920Z 26005KT CAVOK 22/12 Q1022,LGSA,2022-10-23T09:20:00Z,35.53,24.13,22.0,12.0,260,5,,6.21,30.177166,,,,,,,,,,,CAVOK,,,,,,,,VFR,,,,,,,,,,,,METAR,122.0
LGRX 230920Z 00000KT CAVOK 22/15 Q1024,LGRX,2022-10-23T09:20:00Z,38.17,21.42,22.0,15.0,0,0,,6.21,30.236221,,,,,,,,,,,CAVOK,,,,,,,,VFR,,,,,,,,,,,,METAR,16.0
LGRP 230920Z 25008KT CAVOK 22/15 Q1021 NOSIG,LGRP,2022-10-23T09:20:00Z,36.4,28.08,22.0,15.0,250,8,,6.21,30.147638,,,,,,TRUE,,,,,CAVOK,,,,,,,,VFR,,,,,,,,,,,,METAR,3.0
LGPZ 230920Z 00000KT CAVOK 22/17 Q1024,LGPZ,2022-10-23T09:20:00Z,38.92,20.77,22.0,17.0,0,0,,6.21,30.236221,,,,,,,,,,,CAVOK,,,,,,,,VFR,,,,,,,,,,,,METAR,3.0
LGMT 230920Z 12008KT CAVOK 18/08 Q1022,LGMT,2022-10-23T09:20:00Z,39.05,26.6,18.0,8.0,120,8,,6.21,30.177166,,,,,,,,,,,CAVOK,,,,,,,,VFR,,,,,,,,,,,,METAR,4.0
LGMK 230920Z 23004KT CAVOK 20/11 Q1022,LGMK,2022-10-23T09:20:00Z,37.43,25.35,20.0,11.0,230,4,,6.21,30.177166,,,,,,,,,,,CAVOK,,,,,,,,VFR,,,,,,,,,,,,METAR,126.0
LGLM 230920Z 17005KT 9999 FEW018 21/14 Q1022,LGLM,2022-10-23T09:20:00Z,39.92,25.23,21.0,14.0,170,5,,6.21,30.177166,,,,,,,,,,,FEW,1800,,,,,,,VFR,,,,,,,,,,,,METAR,4.0
LGKV 230920Z 18006KT CAVOK 20/13 Q1021,LGKV,2022-10-23T09:20:00Z,40.92,24.62,20.0,13.0,180,6,,6.21,30.147638,,,,,,,,,,,CAVOK,,,,,,,,VFR,,,,,,,,,,,,METAR,5.0
LGKP 230920Z 32014KT CAVOK 21/14 Q1022,LGKP,2022-10-23T09:20:00Z,35.42,27.15,21.0,14.0,320,14,,6.21,30.177166,,,,,,,,,,,CAVOK,,,,,,,,VFR,,,,,,,,,,,,METAR,20.0
LGKO 230920Z 30010KT CAVOK 24/12 Q1022,LGKO,2022-10-23T09:20:00Z,36.8,27.08,24.0,12.0,300,10,,6.21,30.177166,,,,,,,,,,,CAVOK,,,,,,,,VFR,,,,,,,,,,,,METAR,130.0
LGKL 230920Z 01010KT CAVOK 25/13 Q1023,LGKL,2022-10-23T09:20:00Z,37.07,22.02,25.0,13.0,10,10,,6.21,30.206694,,,,,,,,,,,CAVOK,,,,,,,,VFR,,,,,,,,,,,,METAR,4.0
LGIR 230920Z 35004KT CAVOK 21/12 Q1023 NOSIG,LGIR,2022-10-23T09:20:00Z,35.33,25.17,21.0,12.0,350,4,,6.21,30.206694,,,,,,TRUE,,,,,CAVOK,,,,,,,,VFR,,,,,,,,,,,,METAR,37.0
LGIO 230920Z 11001KT CAVOK 18/11 Q1026,LGIO,2022-10-23T09:20:00Z,39.7,20.82,18.0,11.0,110,1,,6.21,30.295275,,,,,,,,,,,CAVOK,,,,,,,,VFR,,,,,,,,,,,,METAR,476.0
LGEL 230920Z 00000KT CAVOK 23/12 Q1022,LGEL,2022-10-23T09:20:00Z,38.07,23.55,23.0,12.0,0,0,,6.21,30.177166,,,,,,,,,,,CAVOK,,,,,,,,VFR,,,,,,,,,,,,METAR,21.0
LGBL 230920Z 00000KT CAVOK 23/12 Q1022,LGBL,2022-10-23T09:20:00Z,39.22,22.8,23.0,12.0,0,0,,6.21,30.177166,,,,,,,,,,,CAVOK,,,,,,,,VFR,,,,,,,,,,,,METAR,13.0
LGAV 230920Z VRB03KT CAVOK 23/12 Q1022 NOSIG,LGAV,2022-10-23T09:20:00Z,37.93,23.95,23.0,12.0,0,3,,6.21,30.177166,,,,,,TRUE,,,,,CAVOK,,,,,,,,VFR,,,,,,,,,,,,METAR,83.0
LGAL 230920Z VRB03KT 9999 FEW020 19/15 Q1021,LGAL,2022-10-23T09:20:00Z,40.85,25.95,19.0,15.0,0,3,,6.21,30.147638,,,,,,,,,,,FEW,2000,,,,,,,VFR,,,,,,,,,,,,METAR,5.0
LGAD 230920Z 33006KT 9999 FEW020 23/16 Q1024,LGAD,2022-10-23T09:20:00Z,37.92,21.28,23.0,16.0,330,6,,6.21,30.236221,,,,,,,,,,,FEW,2000,,,,,,,VFR,,,,,,,,,,,,METAR,8.0
LCEN 230920Z 04006KT 330V120 9999 FEW025 26/08 Q1019 NOSIG RMK RWY11 01009KT 330V050,LCEN,2022-10-23T09:20:00Z,35.15,33.5,26.0,8.0,40,6,,6.21,30.088583,,,,,,TRUE,,,,,FEW,2500,,,,,,,VFR,,,,,,,,,,,,SPECI,91.0
KJSL 230920Z AUTO 14009G15KT 10SM FEW043 SCT050 BKN060 A2999 RMK A01,KJSL,2022-10-23T09:20:00Z,26.23,-95.22,,,140,9,15,10.0,29.991142,,,TRUE,TRUE,,,,,,,FEW,4300,SCT,5000,BKN,6000,,,VFR,,,,,,,,,,,,METAR,45.0
KGZN 230920Z AUTO 19010G16KT 10SM CLR 20/12 A2975 RMK AO2,KGZN,2022-10-23T09:20:00Z,32.37,-99.02,20.0,12.0,190,10,16,10.0,29.749016,,,TRUE,TRUE,,,,,,,CLR,,,,,,,,VFR,,,,,,,,,,,,SPECI,522.0
KGCN 230920Z AUTO 22018G29KT 10SM OVC028 08/03 A2966 RMK AO2 PK WND 22029/0914 T00780028,KGCN,2022-10-23T09:20:00Z,35.95,-112.15,7.8,2.8,220,18,29,10.0,29.660433,,,TRUE,TRUE,,,,,,,OVC,2800,,,,,,,MVFR,,,,,,,,,,,,SPECI,1993.0
ETWM 230920Z AUTO 09004KT //// // ////// 13/13 Q1011 ///,ETWM,2022-10-23T09:20:00Z,52.72,7.33,13.0,13.0,90,4,,,29.852362,,,TRUE,,,,,,,,,,,,,,,,,,,,,,,,,,,,SPECI,18.0
ETSN 230920Z 06004KT 8000 FEW002 SCT005 BKN260 12/11 Q1017 BLU+,ETSN,2022-10-23T09:20:00Z,48.72,11.22,12.0,11.0,60,4,,4.97,30.029528,,,,,,,,,,,FEW,200,SCT,500,BKN,26000,,,MVFR,,,,,,,,,,,,METAR,378.0
ETSL 230920Z AUTO 13003KT 9999 // ////// 15/10 Q1017 ///,ETSL,2022-10-23T09:20:00Z,48.18,10.87,15.0,10.0,130,3,,6.21,30.029528,,,TRUE,,,,,,,,,,,,,,,,,,,,,,,,,,,,SPECI,548.0
ETSI 230920Z AUTO 05005KT 0350 // ////// 11/10 Q1018 ///,ETSI,2022-10-23T09:20:00Z,48.72,11.53,11.0,10.0,50,5,,0.22,30.059055,,,TRUE,,,,,,,,,,,,,,,,,,,,,,,,,,,,METAR,366.0
ETSH 230920Z 15006KT 9999 FEW040 SCT170 BKN190 15/12 Q1016 BLU,ETSH,2022-10-23T09:20:00Z,51.77,13.17,15.0,12.0,150,6,,6.21,30.0,,,,,,,,,,,FEW,4000,SCT,17000,BKN,19000,,,VFR,,,,,,,,,,,,METAR,79.0
ETSB 230920Z AUTO 14007KT //// // ////// 13/10 Q1012 ///,ETSB,2022-10-23T09:20:00Z,50.17,7.07,13.0,10.0,140,7,,,29.88189,,,TRUE,,,,,,,,,,,,,,,,,,,,,,,,,,,,SPECI,477.0
ETNW 230920Z 13005KT 9999 FEW150 BKN180 BKN210 14/13 Q1013 BLU,ETNW,2022-10-23T09:20:00Z,52.45,9.42,14.0,13.0,130,5,,6.21,29.911417,,,,,,,,,,,FEW,15000,BKN,18000,BKN,21000,,,VFR,,,,,,,,,,,,METAR,57.0
ETNT 230920Z AUTO ///04KT //// // ////// 12/12 Q1012 ///,ETNT,2022-10-23T09:20:00Z,53.53,7.67,12.0,12.0,,,,,29.88189,,,TRUE,,,,,,,,,,,,,,,,,,,,,,,,,,,,SPECI,5.0
ETNS 230920Z AUTO 14005KT 0700 // ////// 11/10 Q1014 ///,ETNS,2022-10-23T09:20:00Z,54.47,9.52,11.0,10.0,140,5,,0.43,29.940945,,,TRUE,,,,,,,,,,,,,,,,,,,,,,,,,,,,SPECI,22.0
ETNN 230920Z AUTO 09004KT 6000 // ////// 15/12 Q1010 ///,ETNN,2022-10-23T09:20:00Z,50.82,6.67,15.0,12.0,90,4,,3.73,29.822834,,,TRUE,,,,,,,,,,,,,,,,,,,,,,,,,,,,SPECI,108.0
ETNH 230920Z AUTO 12004KT 0100 // ////// 11/11 Q1014 ///,ETNH,2022-10-23T09:20:00Z,54.32,9.55,11.0,11.0,120,4,,0.06,29.940945,,,TRUE,,,,,,,,,,,,,,,,,,,,,,,,,,,,SPECI,6.0
ETMN 230920Z 13006KT 9999 BKN160 BKN240 12/11 Q1013 BLU,ETMN,2022-10-23T09:20:00Z,53.77,8.67,12.0,11.0,130,6,,6.21,29.911417,,,,,,,,,,,BKN,16000,BKN,24000,,,,,VFR,,,,,,,,,,,,METAR,23.0
ETHS 230920Z AUTO 07002KT 6000 // ////// 12/12 Q1014 ///,ETHS,2022-10-23T09:20:00Z,52.92,10.18,12.0,12.0,70,2,,3.73,29.940945,,,TRUE,,,,,,,,,,,,,,,,,,,,,,,,,,,,SPECI,71.0
ETHN 230920Z 15009KT 9999 FEW080 SCT250 BKN380 16/10 Q1016 BLU+,ETHN,2022-10-23T09:20:00Z,49.38,9.97,16.0,10.0,150,9,,6.21,30.0,,,,,,,,,,,FEW,8000,SCT,25000,BKN,38000,,,VFR,,,,,,,,,,,,METAR,466.0
ETHL 230920Z AUTO 34002KT 7000 // ////// 11/10 Q1016 ///,ETHL,2022-10-23T09:20:00Z,48.22,9.92,11.0,10.0,340,2,,4.35,30.0,,,TRUE,,,,,,,,,,,,,,,,,,,,,,,,,,,,SPECI,536.0
ETHC 230920Z 09003KT 9999 FEW130 BKN160 BKN200 14/12 Q1014 BLU,ETHC,2022-10-23T09:20:00Z,52.6,10.02,14.0,12.0,90,3,,6.21,29.940945,,,,,,,,,,,FEW,13000,BKN,16000,BKN,20000,,,VFR,,,,,,,,,,,,METAR,35.0
ETHB 230920Z 17010KT 9999 FEW150 OVC170 15/11 Q1013 BLU,ETHB,2022-10-23T09:20:00Z,52.27,9.07,15.0,11.0,170,10,,6.21,29.911417,,,,,,,,,,,FEW,15000,OVC,17000,,,,,VFR,,,,,,,,,,,,METAR,69.0
ETHA 230920Z AUTO VRB02KT 9999 // ////// 14/09 Q1017 ///,ETHA,2022-10-23T09:20:00Z,47.83,10.87,14.0,9.0,0,2,,6.21,30.029528,,,TRUE,,,,,,,,,,,,,,,,,,,,,,,,,,,,SPECI,738.0
ETGG 230920Z AUTO 18004KT 9999 // ////// 12/12 Q1014 ///,ETGG,2022-10-23T09:20:00Z,54.83,9.5,12.0,12.0,180,4,,6.21,29.940945,,,TRUE,,,,,,,,,,,,,,,,,,,,,,,,,,,,SPECI,33.0
ESUT 230920Z AUTO 30009KT 9999 SCT018/// OVC029/// 01/M02 Q1007,ESUT,2022-10-23T09:20:00Z,65.8,15.08,1.0,-2.0,300,9,,6.21,29.734253,,,TRUE,,,,,,,,SCT,1800,OVC,2900,,,,,MVFR,,,,,,,,,,,,METAR,457.0
ESUP 230920Z AUTO 28018G29KT 250V310 //// // NCD 02/M05 Q0999,ESUP,2022-10-23T09:20:00Z,67.25,23.07,2.0,-5.0,280,18,29,,29.498032,,,TRUE,,,,,,,,CLR,,,,,,,,,,,,,,,,,,,,METAR,164.0
ESTL 230920Z AUTO 25007KT 9999 FEW013/// 14/12 Q1014,ESTL,2022-10-23T09:20:00Z,56.07,13.2,14.0,12.0,250,7,,6.21,29.940945,,,TRUE,,,,,,,,FEW,1300,,,,,,,VFR,,,,,,,,,,,,METAR,39.0
ESTA 230920Z 23006KT 9999 SCT008 BKN011 OVC039 12/11 Q1013,ESTA,2022-10-23T09:20:00Z,56.28,12.83,12.0,11.0,230,6,,6.21,29.911417,,,,,,,,,,,SCT,800,BKN,1100,OVC,3900,,,MVFR,,,,,,,,,,,,METAR,19.0
ESSV 230920Z 28009KT 9999 OVC014 09/07 Q1012,ESSV,2022-10-23T09:20:00Z,57.67,18.35,9.0,7.0,280,9,,6.21,29.88189,,,,,,,,,,,OVC,1400,,,,,,,MVFR,,,,,,,,,,,,METAR,38.0
ESST 230920Z AUTO VRB02KT 8000 OVC002/// M01/M01 Q1012,ESST,2022-10-23T09:20:00Z,60.15,12.98,-1.0,-1.0,0,2,,4.97,29.88189,,,TRUE,,,,,,,,OVC,200,,,,,,,LIFR,,,,,,,,,,,,METAR,110.0
ESSP 230920Z AUTO 28007KT 9999 BKN061/// 09/05 Q1012,ESSP,2022-10-23T09:20:00Z,58.58,16.25,9.0,5.0,280,7,,6.21,29.88189,,,TRUE,,,,,,,,BKN,6100,,,,,,,VFR,,,,,,,,,,,,METAR,3.0
ESSL 230920Z AUTO 24004KT 9999 OVC012/// 09/07 Q1012,ESSL,2022-10-23T09:20:00Z,58.4,15.67,9.0,7.0,240,4,,6.21,29.88189,,,TRUE,,,,,,,,OVC,1200,,,,,,,MVFR,,,,,,,,,,,,METAR,51.0
ESSD 230920Z AUTO VRB01KT 9999 NCD 03/00 Q1011,ESSD,2022-10-23T09:20:00Z,60.42,15.5,3.0,0.0,0,1,,6.21,29.852362,,,TRUE,,,,,,,,CLR,,,,,,,,VFR,,,,,,,,,,,,METAR,151.0
ESSB 230920Z VRB02KT CAVOK 04/02 Q1012,ESSB,2022-10-23T09:20:00Z,59.35,17.93,4.0,2.0,0,2,,6.21,29.88189,,,,,,,,,,,CAVOK,,,,,,,,VFR,,,,,,,,,,,,METAR,14.0
ESSA 230920Z VRB02KT 4400 OVC003 02/02 Q1011 BECMG CAVOK,ESSA,2022-10-23T09:20:00Z,59.65,17.93,2.0,2.0,0,2,,2.73,29.852362,,,,,,,,,,,OVC,300,,,,,,,LIFR,,,,,,,,,,,,METAR,36.0
ESPE 230920Z AUTO 34016KT 200V360 9999 NCD 03/M03 Q1004,ESPE,2022-10-23T09:20:00Z,65.88,20.15,3.0,-3.0,340,16,,6.21,29.64567,,,TRUE,,,,,,,,CLR,,,,,,,,VFR,,,,,,,,,,,,METAR,182.0
ESPA 230920Z 30014KT CAVOK 04/M03 Q1003,ESPA,2022-10-23T09:20:00Z,65.53,22.12,4.0,-3.0,300,14,,6.21,29.616142,,,,,,,,,,,CAVOK,,,,,,,,VFR,,,,,,,,,,,,METAR,12.0
ESOW 230920Z VRB02KT CAVOK 05/01 Q1012,ESOW,2022-10-23T09:20:00Z,59.58,16.63,5.0,1.0,0,2,,6.21,29.88189,,,,,,,,,,,CAVOK,,,,,,,,VFR,,,,,,,,,,,,METAR,7.0
ESOK 230920Z 04004KT 9999 OVC002 T03/// Q1012,ESOK,2022-10-23T09:20:00Z,59.45,13.33,,,40,4,,6.21,29.88189,,,,,,,,,,,OVC,200,,,,,,,LIFR,,,,,,,,,,,,SPECI,101.0
ESOH 230920Z AUTO 36002KT 9999 BKN002/// OVC120/// M01/M01 Q1012,ESOH,2022-10-23T09:20:00Z,60.02,13.58,-1.0,-1.0,360,2,,6.21,29.88189,,,TRUE,,,,,,,,BKN,200,OVC,12000,,,,,LIFR,,,,,,,,,,,,METAR,145.0
ESOE 230920Z AUTO 21002KT 9999 FEW055/// BKN078/// 07/04 Q1012,ESOE,2022-10-23T09:20:00Z,59.22,15.05,7.0,4.0,210,2,,6.21,29.88189,,,TRUE,,,,,,,,FEW,5500,BKN,7800,,,,,VFR,,,,,,,,,,,,METAR,57.0
ESNZ 230920Z AUTO 31009KT 9999 FEW041/// BKN080/// 04/01 Q1010,ESNZ,2022-10-23T09:20:00Z,63.18,14.5,4.0,1.0,310,9,,6.21,29.822834,,,TRUE,,,,,,,,FEW,4100,BKN,8000,,,,,VFR,,,,,,,,,,,,METAR,360.0
ESNX 230920Z AUTO 28017KT 9999 NCD 02/M03 Q1004,ESNX,2022-10-23T09:20:00Z,65.58,19.28,2.0,-3.0,280,17,,6.21,29.64567,,,TRUE,,,,,,,,CLR,,,,,,,,VFR,,,,,,,,,,,,METAR,380.0
ESNV 230920Z AUTO 29006KT 250V310 9999 NCD ///// Q1008,ESNV,2022-10-23T09:20:00Z,64.58,16.83,,,290,6,,6.21,29.763779,,,TRUE,,,,,,,,CLR,,,,,,,,VFR,,,,,,,,,,,,METAR,348.0
ESNU 230920Z 31012KT CAVOK 04/M02 Q1008,ESNU,2022-10-23T09:20:00Z,63.78,20.28,4.0,-2.0,310,12,,6.21,29.763779,,,,,,,,,,,CAVOK,,,,,,,,VFR,,,,,,,,,,,,METAR,8.0
ESNS 230920Z 28013KT CAVOK 04/M03 Q1006,ESNS,2022-10-23T09:20:00Z,64.62,21.07,4.0,-3.0,280,13,,6.21,29.704725,,,,,,,,,,,CAVOK,,,,,,,,VFR,,,,,,,,,,,,METAR,41.0
ESNQ 230920Z AUTO 31023KT 9999 NCD 00/M06 Q0999,ESNQ,2022-10-23T09:20:00Z,67.82,20.33,0.0,-6.0,310,23,,6.21,29.498032,,,TRUE,,,,,,,,CLR,,,,,,,,VFR,,,,,,,,,,,,METAR,447.0
ESNO 230920Z AUTO 31009KT 9999 OVC160/// 04/M01 Q1008,ESNO,2022-10-23T09:20:00Z,63.4,18.97,4.0,-1.0,310,9,,6.21,29.763779,,,TRUE,,,,,,,,OVC,16000,,,,,,,VFR,,,,,,,,,,,,METAR,100.0
ESNN 230920Z AUTO 27004KT 9999 BKN051/// OVC066/// 04/03 Q1011,ESNN,2022-10-23T09:20:00Z,62.52,17.43,4.0,3.0,270,4,,6.21,29.852362,,,TRUE,,,,,,,,BKN,5100,OVC,6600,,,,,VFR,,,,,,,,,,,,METAR,4.0
ESNL 230920Z AUTO 29007KT 260V330 9999 NCD 03/M04 Q1008,ESNL,2022-10-23T09:20:00Z,64.55,18.72,3.0,-4.0,290,7,,6.21,29.763779,,,TRUE,,,,,,,,CLR,,,,,,,,VFR,,,,,,,,,,,,METAR,220.0
ESNK 230920Z AUTO 34005KT 9999 OVC110/// 05/01 Q1010,ESNK,2022-10-23T09:20:00Z,63.03,17.77,5.0,1.0,340,5,,6.21,29.822834,,,TRUE,,,,,,,,OVC,11000,,,,,,,VFR,,,,,,,,,,,,METAR,4.0
ESND 230920Z AUTO 00000KT 9999 NCD 00/M01 Q1011,ESND,2022-10-23T09:20:00Z,62.05,14.42,0.0,-1.0,0,0,,6.21,29.852362,,,TRUE,,,,,,,,CLR,,,,,,,,VFR,,,,,,,,,,,,METAR,352.0
ESMX 230920Z 24005KT 9999 SCT003 OVC005 12/12 Q1012,ESMX,2022-10-23T09:20:00Z,56.92,14.72,12.0,12.0,240,5,,6.21,29.88189,,,,,,,,,,,SCT,300,OVC,500,,,,,IFR,,,,,,,,,,,,METAR,176.0
ESMV 230920Z AUTO 22004KT 180V240 9999 BKN004/// OVC005/// 11/// Q1012,ESMV,2022-10-23T09:20:00Z,57.28,14.13,,,220,4,,6.21,29.88189,,,TRUE,,,,,,,,BKN,400,OVC,500,,,,,LIFR,,0.0,,,,,,,,,,METAR,167.0
ESMT 230920Z AUTO 26008KT 9999 R01///// R19/P2000N FEW007/// BKN008/// OVC011/// 12/12 Q1013,ESMT,2022-10-23T09:20:00Z,56.68,12.82,12.0,12.0,260,8,,6.21,29.911417,,,TRUE,,,,,,,,FEW,700,BKN,800,OVC,1100,,,IFR,,,,,,,,,,,,SPECI,24.0
ESMS 230920Z 25007KT 9999 BKN006 BKN012 13/12 Q1014,ESMS,2022-10-23T09:20:00Z,55.53,13.37,13.0,12.0,250,7,,6.21,29.940945,,,,,,,,,,,BKN,600,BKN,1200,,,,,IFR,,,,,,,,,,,,METAR,68.0
ESMQ 230920Z AUTO 17003KT 9000 OVC006/// 11/10 Q1013,ESMQ,2022-10-23T09:20:00Z,56.68,16.3,11.0,10.0,170,3,,5.59,29.911417,,,TRUE,,,,,,,,OVC,600,,,,,,,IFR,,,,,,,,,,,,METAR,3.0
ESMK 230920Z 26007KT 9999 FEW013 SCT044 14/11 Q1014,ESMK,2022-10-23T09:20:00Z,55.92,14.08,14.0,11.0,260,7,,6.21,29.940945,,,,,,,,,,,FEW,1300,SCT,4400,,,,,VFR,,,,,,,,,,,,METAR,20.0
ESKS 230920Z AUTO VRB01KT 9999 FEW054/// M00/M01 Q1010,ESKS,2022-10-23T09:20:00Z,61.17,12.83,0.0,-1.0,0,1,,6.21,29.822834,,,TRUE,,,,,,,,FEW,5400,,,,,,,VFR,,,,,,,,,,,,METAR,503.0
ESKN 230920Z 31005KT 280V340 CAVOK 07/04 Q1012,ESKN,2022-10-23T09:20:00Z,58.78,16.92,7.0,4.0,310,5,,6.21,29.88189,,,,,,,,,,,CAVOK,,,,,,,,VFR,,,,,,,,,,,,METAR,41.0
ESKM 230920Z AUTO 02002KT 9999 NCD 03/01 Q1012,ESKM,2022-10-23T09:20:00Z,60.97,14.52,3.0,1.0,20,2,,6.21,29.88189,,,TRUE,,,,,,,,CLR,,,,,,,,VFR,,,,,,,,,,,,METAR,184.0
ESIB 230920Z AUTO 09004KT 9999 -DZ OVC003/// 09/09 Q1011 REDZRA,ESIB,2022-10-23T09:20:00Z,58.42,12.7,9.0,9.0,90,4,,6.21,29.852362,,,TRUE,,,,,,,-DZ RA,OVC,300,,,,,,,LIFR,,,,,,,,,,,,METAR,51.0
ESIA 230920Z AUTO VRB01KT 9999 BKN008/// OVC012/// 08/07 Q1012,ESIA,2022-10-23T09:20:00Z,58.52,14.5,8.0,7.0,0,1,,6.21,29.88189,,,TRUE,,,,,,,,BKN,800,OVC,1200,,,,,IFR,,,,,,,,,,,,METAR,94.0
ESGT 230920Z AUTO VRB02KT 6000 OVC002/// 10/09 Q1011 REDZ,ESGT,2022-10-23T09:20:00Z,58.32,12.33,10.0,9.0,0,2,,3.73,29.852362,,,TRUE,,,,,,,,OVC,200,,,,,,,LIFR,,,,,,,,,,,,SPECI,40.0
ESGP 230920Z 23007KT 9000 BKN007 OVC009 13/11 Q1011,ESGP,2022-10-23T09:20:00Z,57.77,11.87,13.0,11.0,230,7,,5.59,29.852362,,,,,,,,,,,BKN,700,OVC,900,,,,,IFR,,,,,,,,,,,,METAR,15.0
ESGJ 230920Z AUTO 22005KT 1700 BR BKN003/// OVC005/// 10/10 Q1011 REDZ,ESGJ,2022-10-23T09:20:00Z,57.77,14.07,10.0,10.0,220,5,,1.06,29.852362,,,TRUE,,,,,,,BR,BKN,300,OVC,500,,,,,LIFR,,,,,,,,,,,,SPECI,224.0
ESGG 230920Z 23007KT 5000 -DZ OVC003 11/11 Q1011 REDZ,ESGG,2022-10-23T09:20:00Z,57.67,12.3,11.0,11.0,230,7,,3.11,29.852362,,,,,,,,,,-DZ,OVC,300,,,,,,,LIFR,,,,,,,,,,,,SPECI,152.0
ESDF 230920Z 25003KT 8000 BKN005 12/12 Q1013,ESDF,2022-10-23T09:20:00Z,56.27,15.27,12.0,12.0,250,3,,4.97,29.911417,,,,,,,,,,,BKN,500,,,,,,,IFR,,,,,,,,,,,,METAR,52.0
ESCM 230920Z AUTO 31003KT 280V340 9999 NCD 04/04 Q1012,ESCM,2022-10-23T09:20:00Z,59.88,17.6,4.0,4.0,310,3,,6.21,29.88189,,,TRUE,,,,,,,,CLR,,,,,,,,VFR,,,,,,,,,,,,METAR,21.0
ESCF 230920Z AUTO 23004KT 210V270 9999 OVC010/// 08/07 Q1012,ESCF,2022-10-23T09:20:00Z,58.38,15.52,8.0,7.0,230,4,,6.21,29.88189,,,TRUE,,,,,,,,OVC,1000,,,,,,,MVFR,,,,,,,,,,,,METAR,86.0
ENWV 230920Z AUTO 16017KT 0200NDV FG NCD 13/13 Q1008 W///S3,ENWV,2022-10-23T09:20:00Z,56.28,3.4,13.0,13.0,160,17,,,29.763779,,,TRUE,,,,,,,FG,CLR,,,,,,,,,,,,,,,,,,,,METAR,30.0
ENVD 230920Z 29011KT 9999 FEW015 BKN110 03/M00 Q0984,ENVD,2022-10-23T09:20:00Z,70.07,29.85,3.0,0.0,290,11,,6.21,29.055119,,,,,,,,,,,FEW,1500,BKN,11000,,,,,VFR,,,,,,,,,,,,METAR,39.0
ENUG 230920Z AUTO 35026KT 9999NDV -SHRA BKN018/// 04/00 Q0991 W///S6,ENUG,2022-10-23T09:20:00Z,71.3,22.25,4.0,0.0,350,26,,,29.26181,,,TRUE,,,,,,,-SHRA,BKN,1800,,,,,,,,,,,,,,,,,,,METAR,30.0
ENSS 230920Z AUTO 31013KT 7000 -RA SCT012 BKN019 BKN025 02/01 Q0982 RMK WIND 0500FT 30013KT,ENSS,2022-10-23T09:20:00Z,70.35,31.05,2.0,1.0,310,13,,4.35,28.996063,,,TRUE,,,,,,,-RA,SCT,1200,BKN,1900,BKN,2500,,,MVFR,,,,,,,,,,,,SPECI,13.0
ENSR 230920Z AUTO 29021G32KT 260V330 9999 -RA FEW005/// SCT012/// BKN018/// 04/00 Q0996 REDZ RMK WIND RWY32 29022G33KT WIND 1118FT 30030G42KT,ENSR,2022-10-23T09:20:00Z,69.78,20.97,4.0,0.0,290,21,32,6.21,29.409449,,,TRUE,,,,,,,-RA,FEW,500,SCT,1200,BKN,1800,,,MVFR,,,,,,,,,,,,SPECI,5.0
ENSL 230920Z AUTO 20016KT 9999NDV NCD 12/12 Q1011 W09/S4,ENSL,2022-10-23T09:20:00Z,58.37,1.9,12.0,12.0,200,16,,,29.852362,,,TRUE,,,,,,,,CLR,,,,,,,,,,,,,,,,,,,,METAR,50.0
ENSK 230920Z 30009KT 270V320 9999 VCSH FEW020 SCT052 02/M03 Q1008,ENSK,2022-10-23T09:20:00Z,68.57,15.02,2.0,-3.0,300,9,,6.21,29.763779,,,,,,,,,,VCSH,FEW,2000,SCT,5200,,,,,VFR,,,,,,,,,,,,METAR,3.0
ENSH 230920Z 31010KT 280V340 6000 -SHSN VV008 02/M01 Q1008 RMK WIND 150FT 31012G23KT 250V030,ENSH,2022-10-23T09:20:00Z,68.25,14.67,2.0,-1.0,310,10,,3.73,29.763779,,,,,,,,,,-SHSN,OVX,0,,,,,,,LIFR,,,,,,,,,,,800,SPECI,9.0
ENSF 230920Z AUTO 05026KT 9999NDV BKN012/// BKN040/// 11/07 Q1009 W///S4,ENSF,2022-10-23T09:20:00Z,61.25,1.85,11.0,7.0,50,26,,,29.793306,,,TRUE,,,,,,,,BKN,1200,BKN,4000,,,,,,,,,,,,,,,,,METAR,15.0
ENSE 230920Z AUTO 06024KT 9999NDV BKN013/// OVC039/// 09/07 Q1009 W///S4,ENSE,2022-10-23T09:20:00Z,61.45,2.15,9.0,7.0,60,24,,,29.793306,,,TRUE,,,,,,,,BKN,1300,OVC,3900,,,,,,,,,,,,,,,,,METAR,10.0
ENSD 230920Z AUTO 00000KT 9999 BKN066/// 05/04 Q1010 RMK WIND RWY26 00000KT WIND 1140FT 00000KT,ENSD,2022-10-23T09:20:00Z,61.82,6.12,5.0,4.0,0,0,,6.21,29.822834,,,TRUE,,,,,,,,BKN,6600,,,,,,,VFR,,,,,,,,,,,,SPECI,61.0
ENRS 230920Z AUTO 35013KT 9999 FEW017 SCT216 04/01 Q1011,ENRS,2022-10-23T09:20:00Z,67.52,12.1,4.0,1.0,350,13,,6.21,29.852362,,,TRUE,,,,,,,,FEW,1700,SCT,21600,,,,,VFR,,,,,,,,,,,,METAR,4.0
ENRM 230920Z AUTO VRB01KT 9999 SCT053 05/03 Q1012,ENRM,2022-10-23T09:20:00Z,64.83,11.13,5.0,3.0,0,1,,6.21,29.88189,,,TRUE,,,,,,,,SCT,5300,,,,,,,VFR,,,,,,,,,,,,METAR,4.0
ENRA 230920Z AUTO 24006KT 200V290 9999 SCT014/// BKN020/// BKN057/// 03/01 Q1010,ENRA,2022-10-23T09:20:00Z,66.37,14.3,3.0,1.0,240,6,,6.21,29.822834,,,TRUE,,,,,,,,SCT,1400,BKN,2000,BKN,5700,,,MVFR,,,,,,,,,,,,METAR,66.0
ENQR 230920Z AUTO 05017KT 9999NDV BKN014/// OVC043/// 10/06 Q1009 W10/S4,ENQR,2022-10-23T09:20:00Z,61.52,2.22,10.0,6.0,50,17,,,29.793306,,,TRUE,,,,,,,,BKN,1400,OVC,4300,,,,,,,,,,,,,,,,,METAR,10.0
ENQA 230920Z AUTO 06011KT 0550NDV -SHRA NCD 10/10 Q1008 W17/S3,ENQA,2022-10-23T09:20:00Z,60.65,3.72,10.0,10.0,60,11,,,29.763779,,,TRUE,,,,,,,-SHRA,CLR,,,,,,,,,,,,,,,,,,,,METAR,90.0
ENOV 230920Z 00000KT 9999 FEW017 BKN039 07/05 Q1010 RMK WIND RWY24 00000KT WIND 2090FT VRB02KT,ENOV,2022-10-23T09:20:00Z,62.17,6.07,7.0,5.0,0,0,,6.21,29.822834,,,,,,,,,,,FEW,1700,BKN,3900,,,,,VFR,,,,,,,,,,,,SPECI,72.0
ENOA 230920Z 09014KT 9000 -SHRA SCT005 BKN015 10/10 Q1007 W///S3,ENOA,2022-10-23T09:20:00Z,60.5,2.83,10.0,10.0,90,14,,5.59,29.734253,,,,,,,,,,-SHRA,SCT,500,BKN,1500,,,,,MVFR,,,,,,,,,,,,SPECI,5.0
ENNM 230920Z AUTO 26003KT 9999 FEW039 BKN061 04/02 Q1013,ENNM,2022-10-23T09:20:00Z,64.47,11.57,4.0,2.0,260,3,,6.21,29.911417,,,TRUE,,,,,,,,FEW,3900,BKN,6100,,,,,VFR,,,,,,,,,,,,METAR,2.0
ENNE 230920Z 33016KT 9999 SCT030 05/M02 Q1012 W///S5,ENNE,2022-10-23T09:20:00Z,66.03,8.08,5.0,-2.0,330,16,,6.21,29.88189,,,,,,,,,,,SCT,3000,,,,,,,VFR,,,,,,,,,,,,METAR,10.0
ENNA 230920Z 31022KT 9999 -RA BKN014 BKN050 03/01 Q0990 RMK WIND 1800FT 30032KT,ENNA,2022-10-23T09:20:00Z,70.07,24.97,3.0,1.0,310,22,,6.21,29.232283,,,,,,,,,,-RA,BKN,1400,BKN,5000,,,,,MVFR,,,,,,,,,,,,SPECI,12.0
ENMS 230920Z AUTO 00000KT 9999 -RA SCT020/// BKN038/// 01/00 Q1011 REDZ RMK WIND 412FT VRB01KT,ENMS,2022-10-23T09:20:00Z,65.78,13.22,1.0,0.0,0,0,,6.21,29.852362,,,TRUE,,,,,,,-RA,SCT,2000,BKN,3800,,,,,VFR,,,,,,,,,,,,SPECI,44.0
ENML 230920Z 08014KT 9999 FEW015 BKN040 07/05 Q1011,ENML,2022-10-23T09:20:00Z,62.75,7.27,7.0,5.0,80,14,,6.21,29.852362,,,,,,,,,,,FEW,1500,BKN,4000,,,,,VFR,,,,,,,,,,,,METAR,3.0
ENMH 230920Z AUTO 34017KT 9999 -RA SCT014 BKN022 BKN029 04/02 Q0986,ENMH,2022-10-23T09:20:00Z,71.02,27.82,4.0,2.0,340,17,,6.21,29.114174,,,TRUE,,,,,,,-RA,SCT,1400,BKN,2200,BKN,2900,,,MVFR,,,,,,,,,,,,METAR,10.0
ENLK 230920Z 35011KT 9999 VCSH FEW025 SCT035CB 03/M04 Q1009,ENLK,2022-10-23T09:20:00Z,68.15,13.62,3.0,-4.0,350,11,,6.21,29.793306,,,,,,,,,,VCSH,FEW,2500,SCT,3500,,,,,VFR,,,,,,,,,,,,METAR,26.0
ENLE 230920Z 15018KT 8000 VCFG FEW003 SCT100 13/12 Q1008 W13/S3,ENLE,2022-10-23T09:20:00Z,56.53,3.22,13.0,12.0,150,18,,4.97,29.763779,,,,,,,,,,VCFG,FEW,300,SCT,10000,,,,,MVFR,,,,,,,,,,,,METAR,10.0
ENLA 230920Z AUTO 15015KT 9999NDV NCD 13/12 Q1007 W///S3,ENLA,2022-10-23T09:20:00Z,57.1,2.83,13.0,12.0,150,15,,,29.734253,,,TRUE,,,,,,,,CLR,,,,,,,,,,,,,,,,,,,,METAR,10.0
ENKR 230920Z 28007KT 9999 FEW012 SCT016 02/M00 Q0984 RMK WIND 731FT 33011KT,ENKR,2022-10-23T09:20:00Z,69.72,29.88,2.0,0.0,280,7,,6.21,29.055119,,,,,,,,,,,FEW,1200,SCT,1600,,,,,VFR,,,,,,,,,,,,SPECI,86.0
ENKB 230920Z 04004KT CAVOK 06/04 Q1012 RMK WIND 745FT 07006KT,ENKB,2022-10-23T09:20:00Z,63.12,7.82,6.0,4.0,40,4,,6.21,29.88189,,,,,,,,,,,CAVOK,,,,,,,,VFR,,,,,,,,,,,,SPECI,62.0
ENHV 230920Z AUTO 31017KT 9999 SCT015/// BKN020/// OVC046/// 04/02 Q0988 REDZ,ENHV,2022-10-23T09:20:00Z,71.02,25.97,4.0,2.0,310,17,,6.21,29.17323,,,TRUE,,,,,,,,SCT,1500,BKN,2000,OVC,4600,,,MVFR,,,,,,,,,,,,SPECI,13.0
ENHM 230920Z AUTO 23007KT 0150NDV FG NCD 11/11 Q1007 W12/S/,ENHM,2022-10-23T09:20:00Z,59.57,2.23,11.0,11.0,230,7,,,29.734253,,,TRUE,,,,,,,FG,CLR,,,,,,,,,,,,,,,,,,,,METAR,10.0
ENHK 230920Z AUTO 33013KT 290V030 9999 -RA FEW013 BKN019 04/01 Q0993,ENHK,2022-10-23T09:20:00Z,70.48,22.13,4.0,1.0,330,13,,6.21,29.320866,,,TRUE,,,,,,,-RA,FEW,1300,BKN,1900,,,,,MVFR,,,,,,,,,,,,METAR,6.0
ENHF 230920Z 36014KT 330V040 9999 -RA SCT011 BKN018 03/01 Q0991 RMK WIND 1254FT 34033KT,ENHF,2022-10-23T09:20:00Z,70.67,23.67,3.0,1.0,360,14,,6.21,29.26181,,,,,,,,,,-RA,SCT,1100,BKN,1800,,,,,MVFR,,,,,,,,,,,,SPECI,79.0
ENHE 230920Z 02009KT 9999 FEW015CB BKN035 05/M01 Q1013 W///S6,ENHE,2022-10-23T09:20:00Z,65.33,2.33,5.0,-1.0,20,9,,6.21,29.911417,,,,,,,,,,,FEW,1500,BKN,3500,,,,,VFR,,,,,,,,,,,,SPECI,10.0
ENGC 230920Z 06024KT 9999 BKN010 BKN040 10/08 Q1009 W09/S4,ENGC,2022-10-23T09:20:00Z,61.02,2.02,10.0,8.0,60,24,,6.21,29.793306,,,,,,,,,,,BKN,1000,BKN,4000,,,,,MVFR,,,,,,,,,,,,SPECI,10.0
ENFL 230920Z AUTO 02003KT 330V050 9999NDV NCD 05/03 Q1009,ENFL,2022-10-23T09:20:00Z,61.57,5.02,5.0,3.0,20,3,,,29.793306,,,TRUE,,,,,,,,CLR,,,,,,,,,,,,,,,,,,,,SPECI,1.0
ENFB 230920Z AUTO 05025KT 9999NDV BKN012/// BKN038/// 09/07 Q1009 W///S4,ENFB,2022-10-23T09:20:00Z,61.2,1.83,9.0,7.0,50,25,,,29.793306,,,TRUE,,,,,,,,BKN,1200,BKN,3800,,,,,,,,,,,,,,,,,SPECI,10.0
ENEV 230920Z 34011KT 300V010 1000 R17/1800D SHSN VV008 01/M00 Q1007 RMK WIND 1400FT 31010KT,ENEV,2022-10-23T09:20:00Z,68.48,16.67,1.0,0.0,340,11,,0.62,29.734253,,,,,,,,,,SHSN,OVX,0,,,,,,,LIFR,,,,,,,,,,,800,SPECI,26.0
ENDR 230920Z AUTO 03011KT 9999NDV FEW035/// 07/01 Q1012 W///S5,ENDR,2022-10-23T09:20:00Z,64.35,7.77,7.0,1.0,30,11,,,29.88189,,,TRUE,,,,,,,,FEW,3500,,,,,,,,,,,,,,,,,,,SPECI,10.0
ENBV 230920Z AUTO 36019KT 9999 DZRA SCT015 BKN023 BKN036 04/02 Q0985,ENBV,2022-10-23T09:20:00Z,70.87,29.02,4.0,2.0,360,19,,6.21,29.084646,,,TRUE,,,,,,,DZ RA,SCT,1500,BKN,2300,BKN,3600,,,MVFR,,,,,,,,,,,,METAR,13.0
ENBS 230920Z AUTO 29017KT 9999 -RA FEW008/// BKN021/// BKN030/// 01/00 Q0983,ENBS,2022-10-23T09:20:00Z,70.62,29.68,1.0,0.0,290,17,,6.21,29.02559,,,TRUE,,,,,,,-RA,FEW,800,BKN,2100,BKN,3000,,,MVFR,,,,,,,,,,,,METAR,144.0
ENBN 230920Z AUTO 22005KT 9999NDV OVC054/// 05/01 Q1012,ENBN,2022-10-23T09:20:00Z,65.47,12.22,5.0,1.0,220,5,,,29.88189,,,TRUE,,,,,,,,OVC,5400,,,,,,,,,,,,,,,,,,,SPECI,3.0
ENBL 230920Z 00000KT 9999 FEW050 BKN075 06/03 Q1008,ENBL,2022-10-23T09:20:00Z,61.4,5.77,6.0,3.0,0,0,,6.21,29.763779,,,,,,,,,,,FEW,5000,BKN,7500,,,,,VFR,,,,,,,,,,,,METAR,313.0
ENAT 230920Z 32021KT 9999 VCSH FEW015 SCT023 BKN040 03/02 Q0992 RMK WIND 700FT 33029G39KT,ENAT,2022-10-23T09:20:00Z,69.97,23.37,3.0,2.0,320,21,,6.21,29.291338,,,,,,,,,,VCSH,FEW,1500,SCT,2300,BKN,4000,,,VFR,,,,,,,,,,,,SPECI,3.0
ELLX 230920Z 14008KT CAVOK 14/12 Q1011 NOSIG,ELLX,2022-10-23T09:20:00Z,49.63,6.2,14.0,12.0,140,8,,6.21,29.852362,,,,,,TRUE,,,,,CAVOK,,,,,,,,VFR,,,,,,,,,,,,METAR,374.0
EKYT 230920Z AUTO 21006KT 9999 OVC035/// 12/11 Q1012,EKYT,2022-10-23T09:20:00Z,57.1,9.87,12.0,11.0,210,6,,6.21,29.88189,,,TRUE,,,,,,,,OVC,3500,,,,,,,VFR,,,,,,,,,,,,METAR,2.0
EKSP 230920Z 19005KT 150V220 9999 BKN003 12/12 Q1014,EKSP,2022-10-23T09:20:00Z,55.22,9.27,12.0,12.0,190,5,,6.21,29.940945,,,,,,,,,,,BKN,300,,,,,,,LIFR,,,,,,,,,,,,METAR,40.0
EKSB 230920Z AUTO 20004KT 150V230 0550 R14/P1500D R32/0800N FG BKN002/// 12/11 Q1014,EKSB,2022-10-23T09:20:00Z,54.97,9.8,12.0,11.0,200,4,,0.34,29.940945,,,TRUE,,,,,,,FG,BKN,200,,,,,,,LIFR,,,,,,,,,,,,SPECI,23.0
EKRN 230920Z AUTO 27009KT 9999 OVC007/// 13/12 Q1015,EKRN,2022-10-23T09:20:00Z,55.07,14.75,13.0,12.0,270,9,,6.21,29.970472,,,TRUE,,,,,,,,OVC,700,,,,,,,IFR,,,,,,,,,,,,METAR,14.0
EKRK 230920Z 22006KT 8000 OVC006 12/11 Q1014,EKRK,2022-10-23T09:20:00Z,55.58,12.13,12.0,11.0,220,6,,4.97,29.940945,,,,,,,,,,,OVC,600,,,,,,,IFR,,,,,,,,,,,,METAR,40.0
EKOD 230920Z 21007KT 9999 FEW009 SCT011 13/13 Q1014,EKOD,2022-10-23T09:20:00Z,55.47,10.32,13.0,13.0,210,7,,6.21,29.940945,,,,,,,,,,,FEW,900,SCT,1100,,,,,VFR,,,,,,,,,,,,METAR,13.0
EKKA 230920Z 21004KT 0400 R09/1500D R27/1400N FG VV002 11/11 Q1012,EKKA,2022-10-23T09:20:00Z,56.3,9.12,11.0,11.0,210,4,,0.25,29.88189,,,,,,,,,,FG,OVX,0,,,,,,,LIFR,,,,,,,,,,,200,SPECI,50.0
EKEB 230920Z AUTO 15005KT 0300 R08/0450N R26/0500N FG VV002 12/12 Q1013,EKEB,2022-10-23T09:20:00Z,55.52,8.55,12.0,12.0,150,5,,0.19,29.911417,,,TRUE,,,,,,,FG,OVX,0,,,,,,,LIFR,,,,,,,,,,,200,METAR,29.0
EKCH 230920Z 24009KT 220V280 9999 BKN006 12/11 Q1015 TEMPO SCT006,EKCH,2022-10-23T09:20:00Z,55.62,12.67,12.0,11.0,240,9,,6.21,29.970472,,,,,,,,,,,BKN,600,,,,,,,IFR,,,,,,,,,,,,SPECI,4.0
EKBI 230920Z AUTO 19005KT 1400 R09/1200U R27/1000U FG VV003 12/12 Q1013,EKBI,2022-10-23T09:20:00Z,55.73,9.15,12.0,12.0,190,5,,0.87,29.911417,,,TRUE,,,,,,,FG,OVX,0,,,,,,,LIFR,,,,,,,,,,,300,SPECI,67.0
EKAH 230920Z AUTO 25006KT 220V280 9999 BKN004/// 12/12 Q1013,EKAH,2022-10-23T09:20:00Z,56.28,10.62,12.0,12.0,250,6,,6.21,29.911417,,,TRUE,,,,,,,,BKN,400,,,,,,,LIFR,,,,,,,,,,,,METAR,25.0
EGYM 230920Z AUTO 12007KT 3800 +RA BKN043/// BKN071/// 15/14 Q1004,EGYM,2022-10-23T09:20:00Z,52.63,0.57,15.0,14.0,120,7,,2.36,29.64567,,,TRUE,,,,,,,+RA,BKN,4300,BKN,7100,,,,,IFR,,,,,,,,,,,,METAR,25.0
EGYH 230920Z AUTO 12010KT 2200 RA FEW054/// SCT069/// BKN085/// 14/14 Q1003,EGYH,2022-10-23T09:20:00Z,52.87,0.15,14.0,14.0,120,10,,1.37,29.616142,,,TRUE,,,,,,,RA,FEW,5400,SCT,6900,BKN,8500,,,IFR,,,,,,,,,,,,METAR,5.0
EGYE 230920Z AUTO 12008KT //// VV/// ///// Q////,EGYE,2022-10-23T09:20:00Z,52.97,-0.57,,,120,8,,,,,,TRUE,,,,,,,,OVX,0,,,,,,,LIFR,,,,,,,,,,,,METAR,105.0
EGYD 230920Z AUTO 11013KT 5000 SCT002/// SCT030/// BKN040/// 14/14 Q1002,EGYD,2022-10-23T09:20:00Z,53.03,-0.5,14.0,14.0,110,13,,3.11,29.586615,,,TRUE,,,,,,,,SCT,200,SCT,3000,BKN,4000,,,MVFR,,,,,,,,,,,,METAR,65.0
EGXZ 230920Z AUTO 09007KT 9999 -RA BKN003/// 13/13 Q1003,EGXZ,2022-10-23T09:20:00Z,54.2,-1.38,13.0,13.0,90,7,,6.21,29.616142,,,TRUE,,,,,,,-RA,BKN,300,,,,,,,LIFR,,,,,,,,,,,,METAR,24.0
EGXV 230920Z AUTO 08005KT 9999 // FEW037/// BKN058/// 14/14 Q1003,EGXV,2022-10-23T09:20:00Z,53.87,-0.45,14.0,14.0,80,5,,6.21,29.616142,,,TRUE,,,,,,,,FEW,3700,BKN,5800,,,,,VFR,,,,,,,,,,,,METAR,6.0
EGXT 230920Z AUTO 13006KT 1300 +RA OVC003/// 14/14 Q1002,EGXT,2022-10-23T09:20:00Z,52.62,-0.47,14.0,14.0,130,6,,0.81,29.586615,,,TRUE,,,,,,,+RA,OVC,300,,,,,,,LIFR,,,,,,,,,,,,METAR,74.0
EGXE 230920Z AUTO 09005KT 9999 -RA OVC004/// 13/13 Q1003,EGXE,2022-10-23T09:20:00Z,54.28,-1.52,13.0,13.0,90,5,,6.21,29.616142,,,TRUE,,,,,,,-RA,OVC,400,,,,,,,LIFR,,,,,,,,,,,,METAR,30.0
EGXC 230920Z AUTO 11009KT 4400 +RA FEW033/// OVC044/// 14/13 Q1003,EGXC,2022-10-23T09:20:00Z,53.1,-0.17,14.0,13.0,110,9,,2.73,29.616142,,,TRUE,,,,,,,+RA,FEW,3300,OVC,4400,,,,,IFR,,,,,,,,,,,,METAR,9.0
EGWU 230920Z 16008KT 6000 RA SCT008 BKN020CB 15/15 Q1002 TEMPO 9999 NSW FEW008 BKN020 RMK GRN TEMPO WHT,EGWU,2022-10-23T09:20:00Z,51.55,-0.42,15.0,15.0,160,8,,3.73,29.586615,,,,,,,,,,RA,SCT,800,BKN,2000,,,,,MVFR,,,,,,,,,,,,METAR,33.0
EGVP 230920Z AUTO 12008KT 9999 // SCT100/// 16/14 Q1000,EGVP,2022-10-23T09:20:00Z,51.13,-1.57,16.0,14.0,120,8,,6.21,29.52756,,,TRUE,,,,,,,,SCT,10000,,,,,,,VFR,,,,,,,,,,,,SPECI,80.0
EGVO 230920Z AUTO 09006KT 9999 -RA FEW003/// BKN100/// 15/15 Q1001,EGVO,2022-10-23T09:20:00Z,51.23,-0.95,15.0,15.0,90,6,,6.21,29.557087,,,TRUE,,,,,,,-RA,FEW,300,BKN,10000,,,,,VFR,,,,,,,,,,,,METAR,118.0
EGVN 230920Z 12005KT 9999 -RA FEW005 SCT007 BKN075 14/14 Q1001 RERA TEMPO FEW007,EGVN,2022-10-23T09:20:00Z,51.77,-1.58,14.0,14.0,120,5,,6.21,29.557087,,,,,,,,,,-RA,FEW,500,SCT,700,BKN,7500,,,VFR,,,,,,,,,,,,SPECI,83.0
EGUB 230920Z AUTO 11008KT 9999 RA FEW048/// OVC069/// 15/14 Q1001,EGUB,2022-10-23T09:20:00Z,51.62,-1.08,15.0,14.0,110,8,,6.21,29.557087,,,TRUE,,,,,,,RA,FEW,4800,OVC,6900,,,,,VFR,,,,,,,,,,,,METAR,56.0
EGTK 230920Z 12006KT 9000 -RA FEW009 SCT027 BKN038 14/14 Q1001,EGTK,2022-10-23T09:20:00Z,51.83,-1.32,14.0,14.0,120,6,,5.59,29.557087,,,,,,,,,,-RA,FEW,900,SCT,2700,BKN,3800,,,VFR,,,,,,,,,,,,METAR,78.0
EGTE 230920Z 20007KT 160V220 9999 FEW015 16/13 Q0999,EGTE,2022-10-23T09:20:00Z,50.73,-3.42,16.0,13.0,200,7,,6.21,29.498032,,,,,,,,,,,FEW,1500,,,,,,,VFR,,,,,,,,,,,,METAR,30.0
EGTC 230920Z 12006KT 8000 -RA FEW006 SCT026 14/14 Q1002,EGTC,2022-10-23T09:20:00Z,52.07,-0.62,14.0,14.0,120,6,,4.97,29.586615,,,,,,,,,,-RA,FEW,600,SCT,2600,,,,,MVFR,,,,,,,,,,,,METAR,110.0
EGSY 230920Z 09006KT 070V130 9999 FEW005 BKN015 15/14 Q0999,EGSY,2022-10-23T09:20:00Z,51.4,-3.43,15.0,14.0,90,6,,6.21,29.498032,,,,,,,,,,,FEW,500,BKN,1500,,,,,MVFR,,,,,,,,,,,,METAR,46.0
EGSS 230920Z AUTO 12009KT 9999 SCT020/// BKN025/// //////CB 15/14 Q1003,EGSS,2022-10-23T09:20:00Z,51.88,0.22,15.0,14.0,120,9,,6.21,29.616142,,,TRUE,,,,,,,,SCT,2000,BKN,2500,,,,,MVFR,,,,,,,,,,,,SPECI,101.0
EGSH 230920Z 12010KT 100V160 8000 -RA FEW007 16/15 Q1004 TEMPO RA,EGSH,2022-10-23T09:20:00Z,52.68,1.28,16.0,15.0,120,10,,4.97,29.64567,,,,,,,,,,-RA,FEW,700,,,,,,,MVFR,,,,,,,,,,,,SPECI,21.0
EGQK 230920Z AUTO 25002KT 9999 FEW039/// OVC063/// 08/08 Q1003,EGQK,2022-10-23T09:20:00Z,57.65,-3.57,8.0,8.0,250,2,,6.21,29.616142,,,TRUE,,,,,,,,FEW,3900,OVC,6300,,,,,VFR,,,,,,,,,,,,METAR,5.0
EGPU 230920Z AUTO 12011KT 9999 BKN018/// 13/12 Q1000,EGPU,2022-10-23T09:20:00Z,56.5,-6.88,13.0,12.0,120,11,,6.21,29.52756,,,TRUE,,,,,,,,BKN,1800,,,,,,,MVFR,,,,,,,,,,,,METAR,12.0
EGPO 230920Z AUTO 09003KT 9999 BKN033/// 12/12 Q1002,EGPO,2022-10-23T09:20:00Z,58.22,-6.32,12.0,12.0,90,3,,6.21,29.586615,,,TRUE,,,,,,,,BKN,3300,,,,,,,VFR,,,,,,,,,,,,METAR,10.0
EGPN 230920Z 07006KT 9000 VCFG FEW003 SCT030 13/11 Q1003,EGPN,2022-10-23T09:20:00Z,56.45,-3.02,13.0,11.0,70,6,,5.59,29.616142,,,,,,,,,,VCFG,FEW,300,SCT,3000,,,,,VFR,,,,,,,,,,,,METAR,4.0
EGPL 230920Z AUTO 15010KT 9999 OVC005/// 13/12 Q1000,EGPL,2022-10-23T09:20:00Z,57.47,-7.37,13.0,12.0,150,10,,6.21,29.52756,,,TRUE,,,,,,,,OVC,500,,,,,,,IFR,,,,,,,,,,,,METAR,3.0
EGPK 230920Z 09009KT 9999 FEW026 14/12 Q1001,EGPK,2022-10-23T09:20:00Z,55.5,-4.58,14.0,12.0,90,9,,6.21,29.557087,,,,,,,,,,,FEW,2600,,,,,,,VFR,,,,,,,,,,,,METAR,14.0
EGPI 230920Z AUTO 12012KT 070V150 9999 FEW007/// BKN009/// BKN016/// 14/13 Q1000 REDZ,EGPI,2022-10-23T09:20:00Z,55.68,-6.25,14.0,13.0,120,12,,6.21,29.52756,,,TRUE,,,,,,,,FEW,700,BKN,900,BKN,1600,,,IFR,,,,,,,,,,,,SPECI,17.0
EGPH 230920Z 07005KT 9999 -RA NSC 13/12 Q1003,EGPH,2022-10-23T09:20:00Z,55.95,-3.35,13.0,12.0,70,5,,6.21,29.616142,,,,,,,,,,-RA,CLR,,,,,,,,VFR,,,,,,,,,,,,METAR,29.0
EGPF 230920Z AUTO 09005KT 9999 BKN038 BKN046 12/11 Q1003,EGPF,2022-10-23T09:20:00Z,55.87,-4.42,12.0,11.0,90,5,,6.21,29.616142,,,TRUE,,,,,,,,BKN,3800,BKN,4600,,,,,VFR,,,,,,,,,,,,METAR,8.0
EGPE 230920Z VRB01KT 0200 R05/0325N FG VV/// 10/09 Q1003,EGPE,2022-10-23T09:20:00Z,57.53,-4.05,10.0,9.0,0,1,,0.12,29.616142,,,,,,,,,,FG,OVX,0,,,,,,,LIFR,,,,,,,,,,,,METAR,7.0
EGPD 230920Z AUTO 15003KT 110V190 9999 NCD 11/11 Q1004,EGPD,2022-10-23T09:20:00Z,57.2,-2.22,11.0,11.0,150,3,,6.21,29.64567,,,TRUE,,,,,,,,CLR,,,,,,,,VFR,,,,,,,,,,,,METAR,65.0
EGPC 230920Z AUTO 09006KT 0200 FG VV/// 11/11 Q1004,EGPC,2022-10-23T09:20:00Z,58.45,-3.08,11.0,11.0,90,6,,0.12,29.64567,,,TRUE,,,,,,,FG,OVX,0,,,,,,,LIFR,,,,,,,,,,,,METAR,38.0
EGPB 230920Z 09015KT 4500 -DZ BKN003 OVC004 10/10 Q1007 TEMPO BKN002,EGPB,2022-10-23T09:20:00Z,59.87,-1.3,10.0,10.0,90,15,,2.8,29.734253,,,,,,,,,,-DZ,BKN,300,OVC,400,,,,,LIFR,,,,,,,,,,,,SPECI,2.0
EGPA 230920Z 11006KT 2500 VCFG BKN001 OVC007 12/11 Q1005,EGPA,2022-10-23T09:20:00Z,58.95,-2.9,12.0,11.0,110,6,,1.55,29.675198,,,,,,,,,,VCFG,BKN,100,OVC,700,,,,,LIFR,,,,,,,,,,,,METAR,15.0
EGOV 230920Z AUTO 06004KT 9999 // OVC060/// 15/12 Q0998,EGOV,2022-10-23T09:20:00Z,53.25,-4.53,15.0,12.0,60,4,,6.21,29.468504,,,TRUE,,,,,,,,OVC,6000,,,,,,,VFR,,,,,,,,,,,,SPECI,11.0
EGOS 230920Z AUTO 11013KT 9999 -RA FEW057/// SCT071/// BKN095/// 13/13 Q0999,EGOS,2022-10-23T09:20:00Z,52.8,-2.67,13.0,13.0,110,13,,6.21,29.498032,,,TRUE,,,,,,,-RA,FEW,5700,SCT,7100,BKN,9500,,,VFR,,,,,,,,,,,,METAR,76.0
EGOP 230920Z AUTO 15010KT 9999 OVC010/// 16/14 Q0998,EGOP,2022-10-23T09:20:00Z,51.72,-4.37,16.0,14.0,150,10,,6.21,29.468504,,,TRUE,,,,,,,,OVC,1000,,,,,,,MVFR,,,,,,,,,,,,METAR,8.0
EGOM 230920Z AUTO 08008KT 4500 REFG OVC001/// 10/10 Q1003,EGOM,2022-10-23T09:20:00Z,55.05,-2.55,10.0,10.0,80,8,,2.8,29.616142,,,TRUE,,,,,,,,OVC,100,,,,,,,LIFR,,,,,,,,,,,,METAR,286.0
EGNX 230920Z 12010KT 8000 -RA SCT004 BKN025 13/13 Q1001 RERA,EGNX,2022-10-23T09:20:00Z,52.82,-1.32,13.0,13.0,120,10,,4.97,29.557087,,,,,,,,,,-RA,SCT,400,BKN,2500,,,,,MVFR,,,,,,,,,,,,METAR,91.0
EGNV 230920Z VRB02KT 6000 -RA SCT010 BKN024 12/11 Q1004,EGNV,2022-10-23T09:20:00Z,54.52,-1.42,12.0,11.0,0,2,,3.73,29.64567,,,,,,,,,,-RA,SCT,1000,BKN,2400,,,,,MVFR,,,,,,,,,,,,METAR,36.0
EGNT 230920Z 15005KT 080V190 3500 BR BKN003 13/12 Q1004,EGNT,2022-10-23T09:20:00Z,55.03,-1.7,13.0,12.0,150,5,,2.17,29.64567,,,,,,,,,,BR,BKN,300,,,,,,,LIFR,,,,,,,,,,,,METAR,77.0
EGNS 230920Z 11017KT 8000 -RA BKN005 OVC008 14/13 Q0999 TEMPO RA,EGNS,2022-10-23T09:20:00Z,54.08,-4.63,14.0,13.0,110,17,,4.97,29.498032,,,,,,,,,,-RA,BKN,500,OVC,800,,,,,IFR,,,,,,,,,,,,SPECI,18.0
EGNR 230920Z 15004KT 9000 VCSH SCT010 BKN023 14/13 Q1000,EGNR,2022-10-23T09:20:00Z,53.17,-2.98,14.0,13.0,150,4,,5.59,29.52756,,,,,,,,,,VCSH,SCT,1000,BKN,2300,,,,,MVFR,,,,,,,,,,,,METAR,11.0
EGNM 230920Z 07007KT 0350 R14/0800N RADZ FG VV/// 12/12 Q1002,EGNM,2022-10-23T09:20:00Z,53.87,-1.65,12.0,12.0,70,7,,0.22,29.586615,,,,,,,,,,RA DZ FG,OVX,0,,,,,,,LIFR,,,,,,,,,,,,METAR,221.0
EGNJ 230920Z 10008KT 8000 -RA FEW005 SCT042 14/14 Q1003,EGNJ,2022-10-23T09:20:00Z,53.57,-0.35,14.0,14.0,100,8,,4.97,29.616142,,,,,,,,,,-RA,FEW,500,SCT,4200,,,,,MVFR,,,,,,,,,,,,METAR,23.0
EGNH 230920Z 12012KT 8000 -SHRA FEW015 BKN033 14/13 Q1000 RESHRA,EGNH,2022-10-23T09:20:00Z,53.77,-3.03,14.0,13.0,120,12,,4.97,29.52756,,,,,,,,,,-SHRA,FEW,1500,BKN,3300,,,,,MVFR,,,,,,,,,,,,METAR,10.0
EGMD 230920Z 17015KT 9999 VCSH FEW012 BKN030 17/15 Q1003,EGMD,2022-10-23T09:20:00Z,50.95,0.93,17.0,15.0,170,15,,6.21,29.616142,,,,,,,,,,VCSH,FEW,1200,BKN,3000,,,,,MVFR,,,,,,,,,,,,METAR,4.0
EGMC 230920Z 11006KT 080V140 9999 FEW015 SCT048 16/14 Q1003,EGMC,2022-10-23T09:20:00Z,51.57,0.7,16.0,14.0,110,6,,6.21,29.616142,,,,,,,,,,,FEW,1500,SCT,4800,,,,,VFR,,,,,,,,,,,,METAR,15.0
EGLL 230920Z 18010KT 6000 2500SE R09R/0325D RA SCT007CB SCT026 BKN037 15/15 Q1002 BECMG 9999 NSW,EGLL,2022-10-23T09:20:00Z,51.48,-0.45,15.0,15.0,180,10,,3.73,29.586615,,,,,,,,,,RA,SCT,700,SCT,2600,BKN,3700,,,MVFR,,,,,,,,,,,,SPECI,26.0
EGLF 230920Z 07006KT 9999 9000N -RA VCTS FEW012CB SCT022 15/14 Q1001 RETSRA RERA,EGLF,2022-10-23T09:20:00Z,51.28,-0.77,15.0,14.0,70,6,,6.21,29.557087,,,,,,,,,,VCTS -RA RA,FEW,1200,SCT,2200,,,,,VFR,,,,,,,,,,,,SPECI,65.0
EGLC 230920Z AUTO 15004KT 110V210 9999 -RA SCT021/// //////CB 16/14 Q1002,EGLC,2022-10-23T09:20:00Z,51.5,0.05,16.0,14.0,150,4,,6.21,29.586615,,,TRUE,,,,,,,-RA,SCT,2100,,,,,,,VFR,,,,,,,,,,,,SPECI,10.0
EGKK 230920Z 22006KT 190V250 9999 -RA FEW008 BKN018 16/15 Q1002,EGKK,2022-10-23T09:20:00Z,51.13,-0.18,16.0,15.0,220,6,,6.21,29.586615,,,,,,,,,,-RA,FEW,800,BKN,1800,,,,,MVFR,,,,,,,,,,,,METAR,58.0
EGKB 230920Z 18012KT 8000 -SHRA BKN008 15/14 Q1002,EGKB,2022-10-23T09:20:00Z,51.32,0.02,15.0,14.0,180,12,,4.97,29.586615,,,,,,,,,,-SHRA,BKN,800,,,,,,,IFR,,,,,,,,,,,,METAR,183.0
EGKA 230920Z 17008KT 9999 3500N VCSH FEW008 SCT012 17/16 Q1002,EGKA,2022-10-23T09:20:00Z,50.83,-0.3,17.0,16.0,170,8,,6.21,29.586615,,,,,,,,,,VCSH,FEW,800,SCT,1200,,,,,VFR,,,,,,,,,,,,SPECI,2.0
EGJJ 230920Z 14013KT 9999 FEW037 18/15 Q1000,EGJJ,2022-10-23T09:20:00Z,49.22,-2.2,18.0,15.0,140,13,,6.21,29.52756,,,,,,,,,,,FEW,3700,,,,,,,VFR,,,,,,,,,,,,METAR,84.0
EGJB 230920Z 15010KT 9999 FEW010 16/14 Q1000,EGJB,2022-10-23T09:20:00Z,49.42,-2.6,16.0,14.0,150,10,,6.21,29.52756,,,,,,,,,,,FEW,1000,,,,,,,VFR,,,,,,,,,,,,METAR,102.0
EGJA 230920Z 16013KT CAVOK 16/15 Q1000,EGJA,2022-10-23T09:20:00Z,49.72,-2.2,16.0,15.0,160,13,,6.21,29.52756,,,,,,,,,,,CAVOK,,,,,,,,VFR,,,,,,,,,,,,METAR,83.0
EGHQ 230920Z 15006KT 9999 SCT025 14/13 Q0998,EGHQ,2022-10-23T09:20:00Z,50.43,-5.0,14.0,13.0,150,6,,6.21,29.468504,,,,,,,,,,,SCT,2500,,,,,,,VFR,,,,,,,,,,,,METAR,101.0
EGHI 230920Z 11003KT 070V150 9999 FEW008 SCT048 15/15 Q1000,EGHI,2022-10-23T09:20:00Z,50.95,-1.35,15.0,15.0,110,3,,6.21,29.52756,,,,,,,,,,,FEW,800,SCT,4800,,,,,VFR,,,,,,,,,,,,METAR,13.0
EGHH 230920Z 14010KT 9999 FEW010 17/14 Q1000,EGHH,2022-10-23T09:20:00Z,50.78,-1.83,17.0,14.0,140,10,,6.21,29.52756,,,,,,,,,,,FEW,1000,,,,,,,VFR,,,,,,,,,,,,METAR,9.0
EGGW 230920Z 13008KT 2500 +SHRA BKN004 BKN012CB BKN036 14/12 Q1002 RESHRA,EGGW,2022-10-23T09:20:00Z,51.87,-0.37,14.0,12.0,130,8,,1.55,29.586615,,,,,,,,,,+SHRA,BKN,400,BKN,1200,BKN,3600,,,LIFR,,,,,,,,,,,,METAR,159.0
EGGP 230920Z 11006KT 080V150 7000 -SHRA SCT008 OVC025 14/13 Q1000,EGGP,2022-10-23T09:20:00Z,53.33,-2.85,14.0,13.0,110,6,,4.35,29.52756,,,,,,,,,,-SHRA,SCT,800,OVC,2500,,,,,MVFR,,,,,,,,,,,,METAR,23.0
EGGD 230920Z AUTO 12008KT 090V170 9999 FEW004 14/13 Q1000,EGGD,2022-10-23T09:20:00Z,51.37,-2.72,14.0,13.0,120,8,,6.21,29.52756,,,TRUE,,,,,,,,FEW,400,,,,,,,VFR,,,,,,,,,,,,METAR,182.0
EGFF 230920Z 11006KT 9999 SCT014 BKN022 15/14 Q0999,EGFF,2022-10-23T09:20:00Z,51.38,-3.35,15.0,14.0,110,6,,6.21,29.498032,,,,,,,,,,,SCT,1400,BKN,2200,,,,,MVFR,,,,,,,,,,,,METAR,65.0
EGDY 230920Z AUTO 15007KT 9999 NCD 16/14 Q0999,EGDY,2022-10-23T09:20:00Z,51.0,-2.63,16.0,14.0,150,7,,6.21,29.498032,,,TRUE,,,,,,,,CLR,,,,,,,,VFR,,,,,,,,,,,,METAR,21.0
EGDR 230920Z AUTO 16010KT 9999 OVC005/// 14/13 Q0997,EGDR,2022-10-23T09:20:00Z,50.08,-5.25,14.0,13.0,160,10,,6.21,29.438976,,,TRUE,,,,,,,,OVC,500,,,,,,,IFR,,,,,,,,,,,,METAR,74.0
EGDM 230920Z AUTO 12011KT 9999 // BKN003/// 16/15 Q1000,EGDM,2022-10-23T09:20:00Z,51.17,-1.75,16.0,15.0,120,11,,6.21,29.52756,,,TRUE,,,,,,,,BKN,300,,,,,,,LIFR,,,,,,,,,,,,SPECI,122.0
EGCN 230920Z 11005KT 070V150 6000 -RA BKN007 BKN037 13/12 Q1004 RERA,EGCN,2022-10-23T09:20:00Z,53.48,-1.0,13.0,12.0,110,5,,3.73,29.64567,,,,,,,,,,-RA,BKN,700,BKN,3700,,,,,IFR,,,,,,,,,,,,METAR,9.0
EGCK 230920Z 13008KT 090V190 9999 FEW029 16/11 Q0998,EGCK,2022-10-23T09:20:00Z,53.1,-4.33,16.0,11.0,130,8,,6.21,29.468504,,,,,,,,,,,FEW,2900,,,,,,,VFR,,,,,,,,,,,,METAR,6.0
EGCC 230920Z 09004KT 020V160 6000 RA FEW022CB SCT048 14/13 Q1001 TEMPO 4000 BKN014,EGCC,2022-10-23T09:20:00Z,53.35,-2.27,14.0,13.0,90,4,,3.73,29.557087,,,,,,,,,,RA,FEW,2200,SCT,4800,,,,,MVFR,,,,,,,,,,,,SPECI,78.0
EGBJ 230920Z 11005KT 050V150 9999 9000N -SHRA BKN011CB 14/13 Q0999,EGBJ,2022-10-23T09:20:00Z,51.9,-2.17,14.0,13.0,110,5,,6.21,29.498032,,,,,,,,,,-SHRA,BKN,1100,,,,,,,MVFR,,,,,,,,,,,,SPECI,27.0
EGBB 230920Z 12010KT 9999 SCT007 BKN032 14/13 Q1001 RERA,EGBB,2022-10-23T09:20:00Z,52.47,-1.75,14.0,13.0,120,10,,6.21,29.557087,,,,,,,,,,,SCT,700,BKN,3200,,,,,VFR,,,,,,,,,,,,METAR,91.0
EGAE 230920Z 06006KT 9999 FEW003 SCT012 BKN028 13/13 Q0999 RESHRA,EGAE,2022-10-23T09:20:00Z,55.03,-7.15,13.0,13.0,60,6,,6.21,29.498032,,,,,,,,,,,FEW,300,SCT,1200,BKN,2800,,,MVFR,,,,,,,,,,,,METAR,9.0
EGAC 230920Z AUTO 11007KT 070V150 9999 BKN009 14/13 Q0999,EGAC,2022-10-23T09:20:00Z,54.62,-5.87,14.0,13.0,110,7,,6.21,29.498032,,,TRUE,,,,,,,,BKN,900,,,,,,,IFR,,,,,,,,,,,,METAR,2.0
EGAA 230920Z AUTO 10008KT 9999 FEW008 14/12 Q0998,EGAA,2022-10-23T09:20:00Z,54.65,-6.22,14.0,12.0,100,8,,6.21,29.468504,,,TRUE,,,,,,,,FEW,800,,,,,,,VFR,,,,,,,,,,,,METAR,65.0
EFUT 230920Z AUTO 28007KT 9999 OVC027 07/04 Q1005,EFUT,2022-10-23T09:20:00Z,60.88,26.93,7.0,4.0,280,7,,6.21,29.675198,,,TRUE,,,,,,,,OVC,2700,,,,,,,MVFR,,,,,,,,,,,,METAR,104.0
EFSI 230920Z AUTO 30006KT CAVOK 03/M00 Q1007,EFSI,2022-10-23T09:20:00Z,62.7,22.83,3.0,0.0,300,6,,6.21,29.734253,,,TRUE,,,,,,,,CAVOK,,,,,,,,VFR,,,,,,,,,,,,METAR,90.0
EFSA 230920Z AUTO 30009KT 260V330 9999 BKN018 06/02 Q1004,EFSA,2022-10-23T09:20:00Z,61.95,28.93,6.0,2.0,300,9,,6.21,29.64567,,,TRUE,,,,,,,,BKN,1800,,,,,,,MVFR,,,,,,,,,,,,METAR,90.0
EFPO 230920Z AUTO 30007KT 9999 FEW023 SCT027 08/03 Q1008,EFPO,2022-10-23T09:20:00Z,61.47,21.8,8.0,3.0,300,7,,6.21,29.763779,,,TRUE,,,,,,,,FEW,2300,SCT,2700,,,,,VFR,,,,,,,,,,,,METAR,10.0
EFMI 230920Z AUTO 29005KT 250V330 9999 OVC015 06/02 Q1005,EFMI,2022-10-23T09:20:00Z,61.68,27.2,6.0,2.0,290,5,,6.21,29.675198,,,TRUE,,,,,,,,OVC,1500,,,,,,,MVFR,,,,,,,,,,,,METAR,99.0
EFLP 230920Z AUTO 28007KT 9999 SCT009 BKN031 07/05 Q1005,EFLP,2022-10-23T09:20:00Z,61.03,28.15,7.0,5.0,280,7,,6.21,29.675198,,,TRUE,,,,,,,,SCT,900,BKN,3100,,,,,VFR,,,,,,,,,,,,METAR,102.0
EFKU 230920Z AUTO 31010KT 9999 SCT020 05/M00 Q1003,EFKU,2022-10-23T09:20:00Z,63.02,27.8,5.0,0.0,310,10,,6.21,29.616142,,,TRUE,,,,,,,,SCT,2000,,,,,,,VFR,,,,,,,,,,,,METAR,92.0
EFKT 230920Z AUTO 29016KT 260V320 9999 NCD 02/M06 Q0994,EFKT,2022-10-23T09:20:00Z,67.7,24.85,2.0,-6.0,290,16,,6.21,29.350393,,,TRUE,,,,,,,,CLR,,,,,,,,VFR,,,,,,,,,,,,METAR,190.0
EFKS 230920Z AUTO 29013KT CAVOK 02/M05 Q0994,EFKS,2022-10-23T09:20:00Z,66.0,29.23,2.0,-5.0,290,13,,6.21,29.350393,,,TRUE,,,,,,,,CAVOK,,,,,,,,VFR,,,,,,,,,,,,METAR,270.0
EFKK 230920Z AUTO 30006KT 260V320 CAVOK 05/M01 Q1006,EFKK,2022-10-23T09:20:00Z,63.72,23.13,5.0,-1.0,300,6,,6.21,29.704725,,,TRUE,,,,,,,,CAVOK,,,,,,,,VFR,,,,,,,,,,,,METAR,25.0
EFKI 230920Z AUTO 28015KT 9999 FEW024 04/M01 Q1001,EFKI,2022-10-23T09:20:00Z,64.27,27.67,4.0,-1.0,280,15,,6.21,29.557087,,,TRUE,,,,,,,,FEW,2400,,,,,,,VFR,,,,,,,,,,,,METAR,132.0
EFKE 230920Z AUTO 31014KT 280V340 CAVOK 04/M05 Q1001,EFKE,2022-10-23T09:20:00Z,65.78,24.57,4.0,-5.0,310,14,,6.21,29.557087,,,TRUE,,,,,,,,CAVOK,,,,,,,,VFR,,,,,,,,,,,,METAR,15.0
EFJY 230920Z AUTO 30009KT 9999 SCT016 05/01 Q1005,EFJY,2022-10-23T09:20:00Z,62.4,25.68,5.0,1.0,300,9,,6.21,29.675198,,,TRUE,,,,,,,,SCT,1600,,,,,,,VFR,,,,,,,,,,,,METAR,139.0
EFJO 230920Z AUTO 30010KT 9999 BKN023 05/01 Q1002,EFJO,2022-10-23T09:20:00Z,62.67,29.62,5.0,1.0,300,10,,6.21,29.586615,,,TRUE,,,,,,,,BKN,2300,,,,,,,MVFR,,,,,,,,,,,,METAR,118.0
EFHA 230920Z AUTO 30006KT 270V350 9999 SCT013 SCT044 05/02 Q1006,EFHA,2022-10-23T09:20:00Z,61.85,24.8,5.0,2.0,300,6,,6.21,29.704725,,,TRUE,,,,,,,,SCT,1300,SCT,4400,,,,,VFR,,,,,,,,,,,,METAR,144.0
EFET 230920Z AUTO 29018G34KT CAVOK 01/M05 Q0994,EFET,2022-10-23T09:20:00Z,68.37,23.43,1.0,-5.0,290,18,34,6.21,29.350393,,,TRUE,,,,,,,,CAVOK,,,,,,,,VFR,,,,,,,,,,,,METAR,300.0
EDXW 230920Z 16008KT 9999 FEW005 13/13 Q1013,EDXW,2022-10-23T09:20:00Z,54.92,8.33,13.0,13.0,160,8,,6.21,29.911417,,,,,,,,,,,FEW,500,,,,,,,VFR,,,,,,,,,,,,METAR,8.0
EDVK 230920Z 15009KT CAVOK 15/11 Q1014,EDVK,2022-10-23T09:20:00Z,51.4,9.37,15.0,11.0,150,9,,6.21,29.940945,,,,,,,,,,,CAVOK,,,,,,,,VFR,,,,,,,,,,,,METAR,277.0
EDVE 230920Z 10004KT CAVOK 13/12 Q1014,EDVE,2022-10-23T09:20:00Z,52.32,10.55,13.0,12.0,100,4,,6.21,29.940945,,,,,,,,,,,CAVOK,,,,,,,,VFR,,,,,,,,,,,,METAR,83.0
EDTY 230920Z 12005KT CAVOK 16/10 Q1015,EDTY,2022-10-23T09:20:00Z,49.12,9.78,16.0,10.0,120,5,,6.21,29.970472,,,,,,,,,,,CAVOK,,,,,,,,VFR,,,,,,,,,,,,METAR,398.0
EDTL 230920Z 21007KT CAVOK 17/13 Q1014,EDTL,2022-10-23T09:20:00Z,48.37,7.83,17.0,13.0,210,7,,6.21,29.940945,,,,,,,,,,,CAVOK,,,,,,,,VFR,,,,,,,,,,,,METAR,152.0
EDSB 230920Z 11003KT 060V150 CAVOK 16/12 Q1014,EDSB,2022-10-23T09:20:00Z,48.78,8.08,16.0,12.0,110,3,,6.21,29.940945,,,,,,,,,,,CAVOK,,,,,,,,VFR,,,,,,,,,,,,METAR,122.0
EDQM 230920Z 16006KT 120V200 9999 FEW010 13/11 Q1018,EDQM,2022-10-23T09:20:00Z,50.3,11.85,13.0,11.0,160,6,,6.21,30.059055,,,,,,,,,,,FEW,1000,,,,,,,VFR,,,,,,,,,,,,METAR,578.0
EDNY 230920Z VRB01KT CAVOK 14/11 Q1016,EDNY,2022-10-23T09:20:00Z,47.67,9.52,14.0,11.0,0,1,,6.21,30.0,,,,,,,,,,,CAVOK,,,,,,,,VFR,,,,,,,,,,,,METAR,411.0
EDMO 230920Z AUTO VRB01KT 9999 // NCD 17/10 Q1017,EDMO,2022-10-23T09:20:00Z,48.07,11.27,17.0,10.0,0,1,,6.21,30.029528,,,TRUE,,,,,,,,CLR,,,,,,,,VFR,,,,,,,,,,,,METAR,587.0
EDMA 230920Z 13005KT CAVOK 13/10 Q1017,EDMA,2022-10-23T09:20:00Z,48.42,10.92,13.0,10.0,130,5,,6.21,30.029528,,,,,,,,,,,CAVOK,,,,,,,,VFR,,,,,,,,,,,,METAR,462.0
EDLW 230920Z VRB02KT CAVOK 18/12 Q1012,EDLW,2022-10-23T09:20:00Z,51.52,7.62,18.0,12.0,0,2,,6.21,29.88189,,,,,,,,,,,CAVOK,,,,,,,,VFR,,,,,,,,,,,,METAR,122.0
EDLV 230920Z 13008KT CAVOK 16/13 Q1010,EDLV,2022-10-23T09:20:00Z,51.6,6.15,16.0,13.0,130,8,,6.21,29.822834,,,,,,,,,,,CAVOK,,,,,,,,VFR,,,,,,,,,,,,METAR,27.0
EDLP 230920Z 11004KT 050V150 CAVOK 17/11 Q1013,EDLP,2022-10-23T09:20:00Z,51.62,8.62,17.0,11.0,110,4,,6.21,29.911417,,,,,,,,,,,CAVOK,,,,,,,,VFR,,,,,,,,,,,,METAR,211.0
EDLN 230920Z 13008KT CAVOK 16/12 Q1010,EDLN,2022-10-23T09:20:00Z,51.23,6.5,16.0,12.0,130,8,,6.21,29.822834,,,,,,,,,,,CAVOK,,,,,,,,VFR,,,,,,,,,,,,METAR,38.0
EDJA 230920Z 17003KT 140V210 CAVOK 16/10 Q1017,EDJA,2022-10-23T09:20:00Z,47.98,10.23,16.0,10.0,170,3,,6.21,30.029528,,,,,,,,,,,CAVOK,,,,,,,,VFR,,,,,,,,,,,,METAR,625.0
EDHL 230920Z 15004KT 120V220 CAVOK 13/12 Q1015,EDHL,2022-10-23T09:20:00Z,53.8,10.72,13.0,12.0,150,4,,6.21,29.970472,,,,,,,,,,,CAVOK,,,,,,,,VFR,,,,,,,,,,,,METAR,13.0
EDHK 230920Z 18004KT 150V210 0900 R26/1300U FG VV/// 10/10 Q1015,EDHK,2022-10-23T09:20:00Z,54.38,10.15,10.0,10.0,180,4,,0.56,29.970472,,,,,,,,,,FG,OVX,0,,,,,,,LIFR,,,,,,,,,,,,METAR,24.0
EDHI 230920Z AUTO 09005KT 060V120 9999 // BKN160/// 13/13 Q1014,EDHI,2022-10-23T09:20:00Z,53.53,9.83,13.0,13.0,90,5,,6.21,29.940945,,,TRUE,,,,,,,,BKN,16000,,,,,,,VFR,,,,,,,,,,,,METAR,5.0
EDGS 230920Z 12010KT 9999 1200NE R13/P2000N BCFG NSC 14/11 Q1014,EDGS,2022-10-23T09:20:00Z,50.7,8.08,14.0,11.0,120,10,,6.21,29.940945,,,,,,,,,,BCFG,CLR,,,,,,,,VFR,,,,,,,,,,,,SPECI,595.0
EDFM 230920Z VRB01KT CAVOK 15/12 Q1014,EDFM,2022-10-23T09:20:00Z,49.47,8.52,15.0,12.0,0,1,,6.21,29.940945,,,,,,,,,,,CAVOK,,,,,,,,VFR,,,,,,,,,,,,METAR,94.0
EDFH 230920Z 14011KT 9999 FEW008 12/11 Q1013,EDFH,2022-10-23T09:20:00Z,49.95,7.27,12.0,11.0,140,11,,6.21,29.911417,,,,,,,,,,,FEW,800,,,,,,,VFR,,,,,,,,,,,,METAR,494.0
EDDW 230920Z AUTO 12005KT 090V150 CAVOK 12/11 Q1013 NOSIG,EDDW,2022-10-23T09:20:00Z,53.03,8.8,12.0,11.0,120,5,,6.21,29.911417,,,TRUE,,,TRUE,,,,,CAVOK,,,,,,,,VFR,,,,,,,,,,,,METAR,5.0
EDDV 230920Z AUTO 12004KT 070V160 CAVOK 14/12 Q1014 NOSIG,EDDV,2022-10-23T09:20:00Z,52.47,9.68,14.0,12.0,120,4,,6.21,29.940945,,,TRUE,,,TRUE,,,,,CAVOK,,,,,,,,VFR,,,,,,,,,,,,METAR,53.0
EDDS 230920Z AUTO VRB02KT CAVOK 16/12 Q1015 NOSIG,EDDS,2022-10-23T09:20:00Z,48.68,9.22,16.0,12.0,0,2,,6.21,29.970472,,,TRUE,,,TRUE,,,,,CAVOK,,,,,,,,VFR,,,,,,,,,,,,METAR,374.0
EDDR 230920Z AUTO 13004KT 070V170 CAVOK 17/13 Q1013 TEMPO SHRA,EDDR,2022-10-23T09:20:00Z,49.22,7.1,17.0,13.0,130,4,,6.21,29.911417,,,TRUE,,,,,,,,CAVOK,,,,,,,,VFR,,,,,,,,,,,,SPECI,317.0
EDDP 230920Z AUTO 17009KT CAVOK 15/12 Q1016 NOSIG,EDDP,2022-10-23T09:20:00Z,51.43,12.23,15.0,12.0,170,9,,6.21,30.0,,,TRUE,,,TRUE,,,,,CAVOK,,,,,,,,VFR,,,,,,,,,,,,METAR,129.0
EDDN 230920Z AUTO 12006KT CAVOK 15/12 Q1017 NOSIG,EDDN,2022-10-23T09:20:00Z,49.5,11.05,15.0,12.0,120,6,,6.21,30.029528,,,TRUE,,,TRUE,,,,,CAVOK,,,,,,,,VFR,,,,,,,,,,,,METAR,312.0
EDDM 230920Z AUTO 09007KT CAVOK 12/10 Q1018 NOSIG,EDDM,2022-10-23T09:20:00Z,48.35,11.82,12.0,10.0,90,7,,6.21,30.059055,,,TRUE,,,TRUE,,,,,CAVOK,,,,,,,,VFR,,,,,,,,,,,,METAR,445.0
EDDL 230920Z AUTO 15015KT CAVOK 17/12 Q1010 NOSIG,EDDL,2022-10-23T09:20:00Z,51.3,6.77,17.0,12.0,150,15,,6.21,29.822834,,,TRUE,,,TRUE,,,,,CAVOK,,,,,,,,VFR,,,,,,,,,,,,METAR,37.0
EDDK 230920Z AUTO 13011KT CAVOK 17/12 Q1011 NOSIG,EDDK,2022-10-23T09:20:00Z,50.87,7.15,17.0,12.0,130,11,,6.21,29.852362,,,TRUE,,,TRUE,,,,,CAVOK,,,,,,,,VFR,,,,,,,,,,,,METAR,92.0
EDDH 230920Z AUTO 14006KT CAVOK 14/12 Q1014 NOSIG,EDDH,2022-10-23T09:20:00Z,53.63,10.0,14.0,12.0,140,6,,6.21,29.940945,,,TRUE,,,TRUE,,,,,CAVOK,,,,,,,,VFR,,,,,,,,,,,,METAR,8.0
EDDG 230920Z AUTO 11003KT 020V180 CAVOK 13/12 Q1012 NOSIG,EDDG,2022-10-23T09:20:00Z,52.13,7.7,13.0,12.0,110,3,,6.21,29.88189,,,TRUE,,,TRUE,,,,,CAVOK,,,,,,,,VFR,,,,,,,,,,,,METAR,46.0
EDDF 230920Z AUTO 01006KT 340V040 CAVOK 13/11 Q1014 NOSIG,EDDF,2022-10-23T09:20:00Z,50.05,8.6,13.0,11.0,10,6,,6.21,29.940945,,,TRUE,,,TRUE,,,,,CAVOK,,,,,,,,VFR,,,,,,,,,,,,METAR,113.0
EDDE 230920Z AUTO 18007KT CAVOK 17/12 Q1016 NOSIG,EDDE,2022-10-23T09:20:00Z,50.98,10.97,17.0,12.0,180,7,,6.21,30.0,,,TRUE,,,TRUE,,,,,CAVOK,,,,,,,,VFR,,,,,,,,,,,,METAR,314.0
EDDC 230920Z AUTO 13005KT CAVOK 15/12 Q1017 NOSIG,EDDC,2022-10-23T09:20:00Z,51.13,13.75,15.0,12.0,130,5,,6.21,30.029528,,,TRUE,,,TRUE,,,,,CAVOK,,,,,,,,VFR,,,,,,,,,,,,METAR,227.0
EDDB 230920Z AUTO 15005KT CAVOK 14/12 Q1017 NOSIG,EDDB,2022-10-23T09:20:00Z,52.38,13.53,14.0,12.0,150,5,,6.21,30.029528,,,TRUE,,,TRUE,,,,,CAVOK,,,,,,,,VFR,,,,,,,,,,,,METAR,48.0
EDBC 230920Z AUTO 16009KT 9999 // SCT200/// 15/12 Q1015,EDBC,2022-10-23T09:20:00Z,51.85,11.42,15.0,12.0,160,9,,6.21,29.970472,,,TRUE,,,,,,,,SCT,20000,,,,,,,VFR,,,,,,,,,,,,METAR,178.0
EDAH 230920Z 20007KT 0550 0350E R28/0550V1100U FG VV/// 12/11 Q1016,EDAH,2022-10-23T09:20:00Z,53.87,14.15,12.0,11.0,200,7,,0.34,30.0,,,,,,,,,,FG,OVX,0,,,,,,,LIFR,,,,,,,,,,,,SPECI,22.0
EDAC 230920Z 19007KT CAVOK 16/11 Q1017,EDAC,2022-10-23T09:20:00Z,50.98,12.5,16.0,11.0,190,7,,6.21,30.029528,,,,,,,,,,,CAVOK,,,,,,,,VFR,,,,,,,,,,,,METAR,193.0
EBOS 230920Z 12012KT 9999 FEW025 15/13 Q1004 NOSIG,EBOS,2022-10-23T09:20:00Z,51.2,2.87,15.0,13.0,120,12,,6.21,29.64567,,,,,,TRUE,,,,,FEW,2500,,,,,,,VFR,,,,,,,,,,,,METAR,5.0
EBLG 230920Z 15010KT 120V180 CAVOK 17/11 Q1009 NOSIG,EBLG,2022-10-23T09:20:00Z,50.63,5.45,17.0,11.0,150,10,,6.21,29.793306,,,,,,TRUE,,,,,CAVOK,,,,,,,,VFR,,,,,,,,,,,,METAR,187.0
EBCI 230920Z 15007KT 120V190 CAVOK 15/12 Q1008 NOSIG,EBCI,2022-10-23T09:20:00Z,50.47,4.45,15.0,12.0,150,7,,6.21,29.763779,,,,,,TRUE,,,,,CAVOK,,,,,,,,VFR,,,,,,,,,,,,METAR,176.0
EBBR 230920Z 15005KT CAVOK 16/12 Q1008 NOSIG,EBBR,2022-10-23T09:20:00Z,50.9,4.52,16.0,12.0,150,5,,6.21,29.763779,,,,,,TRUE,,,,,CAVOK,,,,,,,,VFR,,,,,,,,,,,,METAR,49.0
EBAW 230920Z AUTO 09006KT CAVOK ///// Q1008,EBAW,2022-10-23T09:20:00Z,51.2,4.47,,,90,6,,6.21,29.763779,,,TRUE,,,,,,,,CAVOK,,,,,,,,VFR,,,,,,,,,,,,METAR,7.0
PAOM 230919Z AUTO 25011KT 10SM SCT020 OVC070 03/M01 A2983 RMK AO2 CIG 021 NE T00281006 TSNO,PAOM,2022-10-23T09:19:00Z,64.5,-165.43,2.8,-0.6,250,11,,10.0,29.828741,,,TRUE,TRUE,,,TRUE,,,,SCT,2000,OVC,7000,,,,,VFR,,,,,,,,,,,,SPECI,6.0
KPUW 230919Z AUTO 00000KT 10SM OVC014 02/01 A2979 RMK AO2 T00220011 $,KPUW,2022-10-23T09:19:00Z,46.75,-117.12,2.2,1.1,0,0,,10.0,29.790354,,,TRUE,TRUE,TRUE,,,,,,OVC,1400,,,,,,,MVFR,,,,,,,,,,,,SPECI,774.0
KARB 230919Z AUTO 00000KT 6SM BR CLR 06/04 A3009 RMK AO2 T00560044,KARB,2022-10-23T09:19:00Z,42.22,-83.73,5.6,4.4,0,0,,6.0,30.088583,,,TRUE,TRUE,,,,,,BR,CLR,,,,,,,,VFR,,,,,,,,,,,,SPECI,251.0
CWKP 230919Z AUTO 25016KT ////SM SCT017 BKN023 OVC029 M11/M13 A3002,CWKP,2022-10-23T09:19:00Z,69.67,-121.67,-11.0,-13.0,250,16,,,30.02067,,,TRUE,,,,,,,,SCT,1700,BKN,2300,OVC,2900,,,,,,,,,,,,,,,SPECI,322.0
KLVM 230918Z AUTO 30008KT 3SM -SN BR FEW006 OVC015 01/M01 A2953 RMK AO2 P0001 T00111006 $,KLVM,2022-10-23T09:18:00Z,45.7,-110.43,1.1,-0.6,300,8,,3.0,29.530512,,,TRUE,TRUE,TRUE,,,,,-SN BR,FEW,600,OVC,1500,,,,,MVFR,,,,,,0.01,,,,,,SPECI,1418.0
KDYL 230918Z AUTO 02003KT 10SM BKN032 OVC039 11/07 A3027 RMK AO2 T01060067,KDYL,2022-10-23T09:18:00Z,40.33,-75.12,10.6,6.7,20,3,,10.0,30.268702,,,TRUE,TRUE,,,,,,,BKN,3200,OVC,3900,,,,,VFR,,,,,,,,,,,,SPECI,121.0
CYGW 230918Z AUTO 28009KT 9SM OVC030 04/01 A3010 RMK SLP196,CYGW,2022-10-23T09:18:00Z,55.27,-77.77,4.0,1.0,280,9,,9.0,30.100393,1019.6,,TRUE,,,,,,,,OVC,3000,,,,,,,MVFR,,,,,,,,,,,,SPECI,13.0
CYBX 230918Z 26011KT 3SM BR SCT005 BKN070 BKN110 08/07 A3006 RMK ST4AC1AC1 SLP182,CYBX,2022-10-23T09:18:00Z,51.45,-57.18,8.0,7.0,260,11,,3.0,30.059055,1018.2,,,,,,,,,BR,SCT,500,BKN,7000,BKN,11000,,,MVFR,,,,,,,,,,,,SPECI,32.0
KTIW 230917Z AUTO 00000KT 3SM BR BKN009 OVC065 08/06 A2994 RMK AO2 T00780061,KTIW,2022-10-23T09:17:00Z,47.27,-122.58,7.8,6.1,0,0,,3.0,29.940945,,,TRUE,TRUE,,,,,,BR,BKN,900,OVC,6500,,,,,IFR,,,,,,,,,,,,METAR,89.0
KDIK 230917Z AUTO 06016KT 8SM OVC005 06/04 A2941 RMK AO2 T00610044,KDIK,2022-10-23T09:17:00Z,46.8,-102.8,6.1,4.4,60,16,,8.0,29.409449,,,TRUE,TRUE,,,,,,,OVC,500,,,,,,,IFR,,,,,,,,,,,,METAR,788.0
CYQR 230917Z 06015KT 12SM -RA OVC009 02/01 A2970 RMK SC8 SLP078,CYQR,2022-10-23T09:17:00Z,50.43,-104.67,2.0,1.0,60,15,,12.0,29.698818,1007.8,,,,,,,,,-RA,OVC,900,,,,,,,IFR,,,,,,,,,,,,SPECI,576.0
K40B 230916Z AUTO 00000KT 02/03 A3031 RMK AO1 SLP274 T00220027 53011,K40B,2022-10-23T09:16:00Z,46.62,-69.52,2.2,2.7,0,0,,,30.31004,1027.4,,TRUE,TRUE,,,,,,,,,,,,,,,,1.1,,,,,,,,,,,METAR,344.0
LIRP 230915Z 12007KT 9999 BKN025 23/17 Q1023 NOSIG,LIRP,2022-10-23T09:15:00Z,43.68,10.38,23.0,17.0,120,7,,6.21,30.206694,,,,,,TRUE,,,,,BKN,2500,,,,,,,MVFR,,,,,,,,,,,,METAR,1.0
LHSN 230915Z 23004KT 170V290 6000 BKN005 13/13 Q1023 BECMG 8000 SCT010 RMK YLO,LHSN,2022-10-23T09:15:00Z,47.12,20.23,13.0,13.0,230,4,,3.73,30.206694,,,,,,,,,,,BKN,500,,,,,,,IFR,,,,,,,,,,,,METAR,89.0
LHSM 230915Z AUTO VRB02KT 1400 R16/P1500 BR VV002 12/12 Q1023 BECMG 2000 BR BKN002,LHSM,2022-10-23T09:15:00Z,46.68,17.17,12.0,12.0,0,2,,0.87,30.206694,,,TRUE,,,,,,,BR,OVX,0,,,,,,,LIFR,,,,,,,,,,,200,METAR,119.0
LHPR 230915Z AUTO 12005KT 080V160 CAVOK 17/12 Q1022 NOSIG,LHPR,2022-10-23T09:15:00Z,47.63,17.82,17.0,12.0,120,5,,6.21,30.177166,,,TRUE,,,TRUE,,,,,CAVOK,,,,,,,,VFR,,,,,,,,,,,,METAR,127.0
LHPA 230915Z 21006KT 9999 FEW017 SCT200 17/13 Q1022 NOSIG RMK BLU,LHPA,2022-10-23T09:15:00Z,47.35,17.5,17.0,13.0,210,6,,6.21,30.177166,,,,,,TRUE,,,,,FEW,1700,SCT,20000,,,,,VFR,,,,,,,,,,,,METAR,143.0
LHKE 230915Z 00000KT 9999 FEW017 15/12 Q1023 BECMG CAVOK RMK BLU,LHKE,2022-10-23T09:15:00Z,46.92,19.75,15.0,12.0,0,0,,6.21,30.206694,,,,,,,,,,,FEW,1700,,,,,,,VFR,,,,,,,,,,,,METAR,113.0
LHDC 230915Z AUTO 18008KT 150V210 3200 BR OVC002 11/11 Q1024 BECMG 3000 BR BKN003,LHDC,2022-10-23T09:15:00Z,47.48,21.62,11.0,11.0,180,8,,1.99,30.236221,,,TRUE,,,,,,,BR,OVC,200,,,,,,,LIFR,,,,,,,,,,,,SPECI,105.0
KUBE 230915Z AUTO 12006KT 10SM CLR 12/11 A2970 RMK AO2,KUBE,2022-10-23T09:15:00Z,45.5,-91.98,12.0,11.0,120,6,,10.0,29.698818,,,TRUE,TRUE,,,,,,,CLR,,,,,,,,VFR,,,,,,,,,,,,METAR,376.0
KTFP 230915Z AUTO 19007KT 10SM CLR 25/20 A2985 RMK AO2 T02450196,KTFP,2022-10-23T09:15:00Z,27.92,-97.22,24.5,19.6,190,7,,10.0,29.84941,,,TRUE,TRUE,,,,,,,CLR,,,,,,,,VFR,,,,,,,,,,,,SPECI,5.0
KFWN 230915Z AUTO 00000KT 10SM BKN024 OVC032 04/04 A3031 RMK AO2 T00440039 $,KFWN,2022-10-23T09:15:00Z,41.2,-74.63,4.4,3.9,0,0,,10.0,30.31004,,,TRUE,TRUE,TRUE,,,,,,BKN,2400,OVC,3200,,,,,MVFR,,,,,,,,,,,,SPECI,129.0
KDCM 230915Z AUTO 34005KT 10SM CLR 09/05 A3020 RMK AO2,KDCM,2022-10-23T09:15:00Z,34.78,-81.2,9.0,5.0,340,5,,10.0,30.200787,,,TRUE,TRUE,,,,,,,CLR,,,,,,,,VFR,,,,,,,,,,,,METAR,191.0
CYUS 230915Z AUTO 28009G19KT 230V300 ////SM //// FEW007 OVC015 M11/M13 A2969,CYUS,2022-10-23T09:15:00Z,68.78,-93.42,-11.0,-13.0,280,9,19,,29.68996,,,TRUE,,,,,,,,FEW,700,OVC,1500,,,,,,,,,,,,,,,,,SPECI,30.0
CWOB 230915Z AUTO 30010G17KT 260V320 ////SM FEW019 SCT034 BKN044 M02/M02 A2923,CWOB,2022-10-23T09:15:00Z,63.33,-64.15,-2.0,-2.0,300,10,17,,29.22933,,,TRUE,,,,,,,,FEW,1900,SCT,3400,BKN,4400,,,,,,,,,,,,,,,SPECI,369.0
RJKN 230914Z AUTO 03015G25KT 9999 SCT016 SCT023 BKN030 23/21 Q1012 RMK A2988,RJKN,2022-10-23T09:14:00Z,27.82,128.87,23.0,21.0,30,15,25,6.21,29.88189,,,TRUE,,,,,,,,SCT,1600,SCT,2300,BKN,3000,,,MVFR,,,,,,,,,,,,SPECI,4.0
PFKW 230914Z AUTO 18003KT 3SM BR FEW002 M03/M04 A3004 RMK AO2 FZRANO,PFKW,2022-10-23T09:14:00Z,60.8,-161.43,-3.0,-4.0,180,3,,3.0,30.041338,,,TRUE,TRUE,,,,TRUE,,BR,FEW,200,,,,,,,MVFR,,,,,,,,,,,,METAR,4.0
PASM 230914Z AUTO 18006KT 3SM BR OVC002 M01/M01 A3000 RMK AO2 FZRANO,PASM,2022-10-23T09:14:00Z,62.07,-163.3,-1.0,-1.0,180,6,,3.0,30.0,,,TRUE,TRUE,,,,TRUE,,BR,OVC,200,,,,,,,LIFR,,,,,,,,,,,,METAR,108.0
PAPB 230914Z AUTO 23014KT 10SM BKN022 BKN030 OVC036 06/ A3009 RMK AO2 T0056 TSNO $,PAPB,2022-10-23T09:14:00Z,56.58,-169.67,5.6,,230,14,,10.0,30.088583,,,TRUE,TRUE,TRUE,,TRUE,,,,BKN,2200,BKN,3000,OVC,3600,,,MVFR,,,,,,,,,,,,SPECI,33.0
KMLF 230914Z AUTO 20004KT 10SM SCT008 BKN030 OVC041 01/00 A2964 RMK AO2 SNE08 P0001 T00060000 $,KMLF,2022-10-23T09:14:00Z,38.42,-113.02,0.6,0.0,200,4,,10.0,29.639763,,,TRUE,TRUE,TRUE,,,,,,SCT,800,BKN,3000,OVC,4100,,,MVFR,,,,,,0.01,,,,,,SPECI,1537.0
KLEB 230914Z AUTO 00000KT 10SM SCT001 03/02 A3033 RMK AO2 T00280017,KLEB,2022-10-23T09:14:00Z,43.63,-72.3,2.8,1.7,0,0,,10.0,30.33071,,,TRUE,TRUE,,,,,,,SCT,100,,,,,,,VFR,,,,,,,,,,,,SPECI,169.0
KELY 230914Z AUTO 29009KT 9SM -SN OVC036 M02/M03 A2966 RMK AO2 P0000 T10171028,KELY,2022-10-23T09:14:00Z,39.3,-114.85,-1.7,-2.8,290,9,,9.0,29.660433,,,TRUE,TRUE,,,,,,-SN,OVC,3600,,,,,,,VFR,,,,,,0.005,,,,,,METAR,1906.0
PAGY 230913Z AUTO 00000KT 10SM SCT027 OVC070 03/03 A2984 RMK AO2 T00330028 TSNO $,PAGY,2022-10-23T09:13:00Z,59.47,-135.32,3.3,2.8,0,0,,10.0,29.840551,,,TRUE,TRUE,TRUE,,TRUE,,,,SCT,2700,OVC,7000,,,,,VFR,,,,,,,,,,,,METAR,7.0
KIDA 230913Z AUTO 22010KT 10SM BKN004 OVC028 01/M01 A2961 RMK AO2 T00111006,KIDA,2022-10-23T09:13:00Z,43.52,-112.07,1.1,-0.6,220,10,,10.0,29.610237,,,TRUE,TRUE,,,,,,,BKN,400,OVC,2800,,,,,LIFR,,,,,,,,,,,,METAR,1444.0
CYEN 230913Z AUTO 07025G33KT 9SM -RA BKN014 BKN081 OVC095 04/03 A2961 RMK SLP048,CYEN,2022-10-23T09:13:00Z,49.22,-102.97,4.0,3.0,70,25,33,9.0,29.610237,1004.8,,TRUE,,,,,,,-RA,BKN,1400,BKN,8100,OVC,9500,,,MVFR,,,,,,,,,,,,SPECI,580.0
KTKI 230912Z AUTO 17012KT 10SM BKN025 21/16 A2981 RMK AO2 T02110161,KTKI,2022-10-23T09:12:00Z,33.18,-96.58,21.1,16.1,170,12,,10.0,29.811024,,,TRUE,TRUE,,,,,,,BKN,2500,,,,,,,MVFR,,,,,,,,,,,,METAR,173.0
CYSJ 230912Z 00000KT 1/2SM R05/2800V3000FT/N FG VV002 04/04 A3035 RMK FG8 SLP283,CYSJ,2022-10-23T09:12:00Z,45.32,-65.88,4.0,4.0,0,0,,0.5,30.351377,1028.3,,,,,,,,,FG,OVX,0,,,,,,,LIFR,,,,,,,,,,,200,SPECI,89.0
PMDY 230911Z AUTO 03003KT 10SM 23/18 A3012 RMK AO2 TSNO,PMDY,2022-10-23T09:11:00Z,28.22,-177.37,23.0,18.0,30,3,,10.0,30.121063,,,TRUE,TRUE,,,TRUE,,,,,,,,,,,,,,,,,,,,,,,,SPECI,6.0
PARC 230911Z AUTO 00000KT 10SM OVC029 M12/M13 A2987 RMK AO2 FZRANO,PARC,2022-10-23T09:11:00Z,68.12,-145.58,-12.0,-13.0,0,0,,10.0,29.870079,,,TRUE,TRUE,,,,TRUE,,,OVC,2900,,,,,,,MVFR,,,,,,,,,,,,METAR,626.0
KXWA 230911Z AUTO 07023G32KT 10SM OVC009 06/04 A2948 RMK AO2 PK WND 07032/0909 RAE0856 P0000 T00560039,KXWA,2022-10-23T09:11:00Z,48.27,-103.75,5.6,3.9,70,23,32,10.0,29.480314,,,TRUE,TRUE,,,,,,,OVC,900,,,,,,,IFR,,,,,,0.005,,,,,,METAR,717.0
KOCH 230911Z AUTO 13005KT 10SM SCT029 SCT045 19/17 A2994 RMK AO2,KOCH,2022-10-23T09:11:00Z,31.57,-94.72,19.0,17.0,130,5,,10.0,29.940945,,,TRUE,TRUE,,,,,,,SCT,2900,SCT,4500,,,,,VFR,,,,,,,,,,,,METAR,105.0
VCRI 230910Z 25012KT 9000 TS SCT018 FEW020CB BKN080 30/26 Q1009 NOSIG RMK N,VCRI,2022-10-23T09:10:00Z,6.28,81.13,30.0,26.0,250,12,,5.59,29.793306,,,,,,TRUE,,,,TS,SCT,1800,FEW,2000,BKN,8000,,,VFR,,,,,,,,,,,,METAR,50.0
VCBI 230910Z 25004KT 220V310 9999 SCT018 FEW020CB 28/23 Q1010 NOSIG RMK CB S/SW,VCBI,2022-10-23T09:10:00Z,7.17,79.88,28.0,23.0,250,4,,6.21,29.822834,,,,,,TRUE,,,,,SCT,1800,FEW,2000,,,,,VFR,,,,,,,,,,,,SPECI,10.0
KONP 230910Z AUTO 00000KT 7SM SCT037 06/06 A3003 RMK AO2,KONP,2022-10-23T09:10:00Z,44.57,-124.05,6.0,6.0,0,0,,7.0,30.029528,,,TRUE,TRUE,,,,,,,SCT,3700,,,,,,,VFR,,,,,,,,,,,,METAR,43.0
KDLH 230910Z 13010KT 6SM BR FEW002 08/07 A2968 RMK AO2 T00830072,KDLH,2022-10-23T09:10:00Z,46.85,-92.2,8.3,7.2,130,10,,6.0,29.681103,,,,TRUE,,,,,,BR,FEW,200,,,,,,,VFR,,,,,,,,,,,,METAR,434.0
KDEQ 230910Z AUTO 14003KT 10SM BKN029 21/16 A2988 RMK AO2 T02060156 $,KDEQ,2022-10-23T09:10:00Z,34.05,-94.4,20.6,15.6,140,3,,10.0,29.878937,,,TRUE,TRUE,TRUE,,,,,,BKN,2900,,,,,,,MVFR,,,,,,,,,,,,METAR,107.0
CZPC 230910Z AUTO 33006KT 1 1/4SM -SN SCT006 BKN014 OVC019 M01/M01 A2979 RMK ICE MISG SLP130,CZPC,2022-10-23T09:10:00Z,49.52,-114.0,-1.0,-1.0,330,6,,1.25,29.790354,1013.0,,TRUE,,,,,,,-SN,SCT,600,BKN,1400,OVC,1900,,,IFR,,,,,,,,,,,,SPECI,1187.0
PATC 230909Z AUTO 27019KT BKN008 01/00 A2972 RMK AO2 SLP068 PWINO FZRANO $,PATC,2022-10-23T09:09:00Z,65.57,-167.92,1.0,0.0,270,19,,,29.719488,1006.8,,TRUE,TRUE,TRUE,,,TRUE,TRUE,,BKN,800,,,,,,,,,,,,,,,,,,,METAR,77.0
PAHN 230909Z AUTO 10005KT 10SM SCT020 SCT030 OVC055 06/02 A2982 RMK AO2 T00560022 TSNO,PAHN,2022-10-23T09:09:00Z,59.25,-135.52,5.6,2.2,100,5,,10.0,29.819881,,,TRUE,TRUE,,,TRUE,,,,SCT,2000,SCT,3000,OVC,5500,,,VFR,,,,,,,,,,,,SPECI,15.0
CYPX 230909Z AUTO 26019G25KT 9SM FEW022 OVC034 01/M01 A2978 RMK SLP088,CYPX,2022-10-23T09:09:00Z,60.03,-77.27,1.0,-1.0,260,19,25,9.0,29.778543,1008.8,,TRUE,,,,,,,,FEW,2200,OVC,3400,,,,,VFR,,,,,,,,,,,,SPECI,10.0
KORF 230908Z AUTO 01014G20KT 10SM BKN008 OVC014 16/14 A3011 RMK AO2 T01560144,KORF,2022-10-23T09:08:00Z,36.9,-76.2,15.6,14.4,10,14,20,10.0,30.109253,,,TRUE,TRUE,,,,,,,BKN,800,OVC,1400,,,,,IFR,,,,,,,,,,,,SPECI,5.0
CYCB 230907Z 31014G19KT 12SM -SN DRSN OVC019 M15/M18 A2988 RMK SC8 SLP124,CYCB,2022-10-23T09:07:00Z,69.1,-105.12,-15.0,-18.0,310,14,19,12.0,29.878937,1012.4,,,,,,,,,-SN DRSN,OVC,1900,,,,,,,MVFR,,,,,,,,,,,,SPECI,19.0
LIVC 230906Z AUTO 23020G31KT ///// 09/06 Q1029,LIVC,2022-10-23T09:06:00Z,44.2,10.68,9.0,6.0,230,20,31,,30.383858,,,TRUE,,,,,,,,,,,,,,,,,,,,,,,,,,,,SPECI,2139.0
PWAK 230905Z AUTO 06016G22KT 9999 SCT021 BKN065 28/24 A2994 RMK AO2 SLP145 $,PWAK,2022-10-23T09:05:00Z,19.28,166.62,28.0,24.0,60,16,22,6.21,29.940945,1014.5,,TRUE,TRUE,TRUE,,,,,,SCT,2100,BKN,6500,,,,,VFR,,,,,,,,,,,,METAR,7.0
PAPG 230905Z AUTO 00000KT 3SM BR SCT003 BKN048 00/00 A2988 RMK AO2 FZRANO,PAPG,2022-10-23T09:05:00Z,56.82,-132.93,0.0,0.0,0,0,,3.0,29.878937,,,TRUE,TRUE,,,,TRUE,,BR,SCT,300,BKN,4800,,,,,MVFR,,,,,,,,,,,,SPECI,24.0
KWVL 230905Z AUTO 00000KT 1/4SM FG OVC001 07/07 A3032 RMK AO2,KWVL,2022-10-23T09:05:00Z,44.52,-69.67,7.0,7.0,0,0,,0.25,30.318897,,,TRUE,TRUE,,,,,,FG,OVC,100,,,,,,,LIFR,,,,,,,,,,,,SPECI,87.0
KRND 230905Z AUTO 17004KT 10SM BKN019 20/19 A2984 RMK AO2 BKN V SCT CIG 018 RWY15L CIG 016 RWY15R SLP097,KRND,2022-10-23T09:05:00Z,29.53,-98.27,20.0,19.0,170,4,,10.0,29.840551,1009.7,,TRUE,TRUE,,,,,,,BKN,1900,,,,,,,MVFR,,,,,,,,,,,,SPECI,224.0
KNTU 230905Z 36011G19KT 10SM BKN007 OVC012 16/14 A3010 RMK AO2 T01560139,KNTU,2022-10-23T09:05:00Z,36.82,-76.02,15.6,13.9,360,11,19,10.0,30.100393,,,,TRUE,,,,,,,BKN,700,OVC,1200,,,,,IFR,,,,,,,,,,,,SPECI,6.0
KMIB 230905Z AUTO 08014KT 10SM OVC014 07/04 A2955 RMK AO2 PRESFR SLP019 $,KMIB,2022-10-23T09:05:00Z,48.42,-101.35,7.0,4.0,80,14,,10.0,29.551182,1001.9,,TRUE,TRUE,TRUE,,,,,,OVC,1400,,,,,,,MVFR,,,,,,,,,,,,SPECI,505.0
KMEI 230905Z AUTO 00000KT 4SM BR CLR 10/09 A3011 RMK AO2 T01000094,KMEI,2022-10-23T09:05:00Z,32.33,-88.75,10.0,9.4,0,0,,4.0,30.109253,,,TRUE,TRUE,,,,,,BR,CLR,,,,,,,,MVFR,,,,,,,,,,,,SPECI,90.0
KGRF 230905Z AUTO 00000KT 4SM BR BKN065 04/03 A2992 RMK AO2 SLP137 $,KGRF,2022-10-23T09:05:00Z,47.07,-122.57,4.0,3.0,0,0,,4.0,29.920275,1013.7,,TRUE,TRUE,TRUE,,,,,BR,BKN,6500,,,,,,,MVFR,,,,,,,,,,,,SPECI,91.0
KWAL 230904Z AUTO 01007KT 8SM BKN007 OVC011 14/12 A3016 RMK AO2 CIG 006V010 T01390122,KWAL,2022-10-23T09:04:00Z,37.93,-75.47,13.9,12.2,10,7,,8.0,30.159449,,,TRUE,TRUE,,,,,,,BKN,700,OVC,1100,,,,,IFR,,,,,,,,,,,,SPECI,10.0
SVVA 230903Z AUTO 00000KT NCD 26/22 Q1011,SVVA,2022-10-23T09:03:00Z,10.15,-67.92,26.0,22.0,0,0,,,29.852362,,,TRUE,,,,,,,,CLR,,,,,,,,,,,,,,,,,,,,METAR,428.0
SVSR 230903Z AUTO NIL,SVSR,2022-10-23T09:03:00Z,7.87,-67.43,,,,,,,,,,TRUE,,,,,,,,,,,,,,,,,,,,,,,,,,,,METAR,49.0
SVPR 230903Z AUTO 10003KT NCD 24/21 Q1011,SVPR,2022-10-23T09:03:00Z,8.3,-62.77,24.0,21.0,100,3,,,29.852362,,,TRUE,,,,,,,,CLR,,,,,,,,,,,,,,,,,,,,METAR,140.0
SVPA 230903Z AUTO NIL,SVPA,2022-10-23T09:03:00Z,5.62,-67.6,,,,,,,,,,TRUE,,,,,,,,,,,,,,,,,,,,,,,,,,,,METAR,77.0
SVMT 230903Z AUTO 04003KT NCD 24/24 Q1010,SVMT,2022-10-23T09:03:00Z,9.75,-63.17,24.0,24.0,40,3,,,29.822834,,,TRUE,,,,,,,,CLR,,,,,,,,,,,,,,,,,,,,METAR,67.0
SVMI 230903Z AUTO 09003KT NCD ///// Q1010,SVMI,2022-10-23T09:03:00Z,10.6,-67.0,,,90,3,,,29.822834,,,TRUE,,,,,,,,CLR,,,,,,,,,,,,,,,,,,,,METAR,48.0
SVMG 230903Z AUTO 10011KT NCD 27/25 Q1010,SVMG,2022-10-23T09:03:00Z,10.92,-63.97,27.0,25.0,100,11,,,29.822834,,,TRUE,,,,,,,,CLR,,,,,,,,,,,,,,,,,,,,METAR,16.0
SVMC 230903Z AUTO NIL,SVMC,2022-10-23T09:03:00Z,10.57,-71.72,,,,,,,,,,TRUE,,,,,,,,,,,,,,,,,,,,,,,,,,,,METAR,76.0
SVLO 230903Z AUTO NIL,SVLO,2022-10-23T09:03:00Z,11.8,-66.18,,,,,,,,,,TRUE,,,,,,,,,,,,,,,,,,,,,,,,,,,,SPECI,3.0
SVJM 230903Z AUTO 02002KT NCD 21/21 Q1010,SVJM,2022-10-23T09:03:00Z,9.92,-67.38,21.0,21.0,20,2,,,29.822834,,,TRUE,,,,,,,,CLR,,,,,,,,,,,,,,,,,,,,METAR,448.0
SVGU 230903Z AUTO NIL,SVGU,2022-10-23T09:03:00Z,9.03,-69.75,,,,,,,,,,TRUE,,,,,,,,,,,,,,,,,,,,,,,,,,,,METAR,165.0
SVGD 230903Z AUTO 25003KT NCD 24/24 Q1010,SVGD,2022-10-23T09:03:00Z,7.22,-70.75,24.0,24.0,250,3,,,29.822834,,,TRUE,,,,,,,,CLR,,,,,,,,,,,,,,,,,,,,METAR,129.0
SVFM 230903Z AUTO 00000KT NCD 20/18 Q1013,SVFM,2022-10-23T09:03:00Z,10.48,-66.83,20.0,18.0,0,0,,,29.911417,,,TRUE,,,,,,,,CLR,,,,,,,,,,,,,,,,,,,,METAR,852.0
SVCS 230903Z AUTO 07004KT NCD 45/43 Q1014,SVCS,2022-10-23T09:03:00Z,10.3,-66.82,45.0,43.0,70,4,,,29.940945,,,TRUE,,,,,,,,CLR,,,,,,,,,,,,,,,,,,,,METAR,656.0
SVCJ 230903Z AUTO NIL,SVCJ,2022-10-23T09:03:00Z,9.65,-68.58,,,,,,,,,,TRUE,,,,,,,,,,,,,,,,,,,,,,,,,,,,METAR,156.0
SVCB 230903Z AUTO 29003KT NCD 24/22 Q1008,SVCB,2022-10-23T09:03:00Z,8.12,-63.53,24.0,22.0,290,3,,,29.763779,,,TRUE,,,,,,,,CLR,,,,,,,,,,,,,,,,,,,,METAR,47.0
SVBS 230903Z AUTO 00001KT NCD 23/// Q1012,SVBS,2022-10-23T09:03:00Z,10.25,-67.65,,,0,1,,,29.88189,,,TRUE,,,,,,,,CLR,,,,,,,,,,,,,,,,,,,,METAR,435.0
SVBM 230903Z AUTO NIL,SVBM,2022-10-23T09:03:00Z,10.05,-69.37,,,,,,,,,,TRUE,,,,,,,,,,,,,,,,,,,,,,,,,,,,METAR,624.0
SVBI 230903Z AUTO 29002KT NCD 30/24 Q1013,SVBI,2022-10-23T09:03:00Z,8.62,-70.22,30.0,24.0,290,2,,,29.911417,,,TRUE,,,,,,,,CLR,,,,,,,,,,,,,,,,,,,,METAR,185.0
SVBC 230903Z AUTO 13004KT NCD 25/25 Q1010,SVBC,2022-10-23T09:03:00Z,10.12,-64.68,25.0,25.0,130,4,,,29.822834,,,TRUE,,,,,,,,CLR,,,,,,,,,,,,,,,,,,,,METAR,7.0
PASY 230903Z AUTO M 7SM OVC015 M M RMK AO2 SLPNO $,PASY,2022-10-23T09:03:00Z,52.72,174.12,,,,,,7.0,,,,TRUE,TRUE,TRUE,,,,,,OVC,1500,,,,,,,MVFR,,,,,,,,,,,,METAR,6.0
KRBD 230903Z AUTO 18013G24KT 10SM BKN022 21/17 A2981 RMK AO2 T02060167,KRBD,2022-10-23T09:03:00Z,32.68,-96.87,20.6,16.7,180,13,24,10.0,29.811024,,,TRUE,TRUE,,,,,,,BKN,2200,,,,,,,MVFR,,,,,,,,,,,,METAR,200.0
KNBG 230902Z AUTO 12003KT 3SM BR CLR 14/14 A3006 RMK AO2 T01440139 $,KNBG,2022-10-23T09:02:00Z,29.83,-90.02,14.4,13.9,120,3,,3.0,30.059055,,,TRUE,TRUE,TRUE,,,,,BR,CLR,,,,,,,,MVFR,,,,,,,,,,,,SPECI,0.0
PAFS 230901Z AUTO 03004KT 10SM OVC021 M03/M03 A2998 RMK AO2 SLP162 T10281028 410281028 53010 FZRANO,PAFS,2022-10-23T09:01:00Z,63.02,-154.35,-2.8,-2.8,30,4,,10.0,29.97933,1016.2,,TRUE,TRUE,,,,TRUE,,,OVC,2100,,,,,,,MVFR,1.0,,,-2.8,-2.8,,,,,,,METAR,131.0
ZYHB 230900Z 33005MPS CAVOK 05/M05 Q1022 NOSIG,ZYHB,2022-10-23T09:00:00Z,45.62,126.25,5.0,-5.0,330,10,,6.21,30.177166,,,,,,TRUE,,,,,CAVOK,,,,,,,,VFR,,,,,,,,,,,,METAR,134.0
ZYCC 230900Z 34004MPS 9999 BKN033 05/M06 Q1022 NOSIG,ZYCC,2022-10-23T09:00:00Z,43.98,125.68,5.0,-6.0,340,8,,6.21,30.177166,,,,,,TRUE,,,,,BKN,3300,,,,,,,VFR,,,,,,,,,,,,METAR,211.0
ZWSH 230900Z VRB02MPS 8000 FEW040 18/M06 Q1021 NOSIG,ZWSH,2022-10-23T09:00:00Z,39.55,76.02,18.0,-6.0,0,4,,4.97,30.147638,,,,,,TRUE,,,,,FEW,4000,,,,,,,MVFR,,,,,,,,,,,,METAR,1374.0
ZUUU 230900Z 16004MPS 9999 FEW030TCU SCT030 25/15 Q1018 NOSIG,ZUUU,2022-10-23T09:00:00Z,30.58,103.95,25.0,15.0,160,8,,6.21,30.059055,,,,,,TRUE,,,,,FEW,3000,SCT,3000,,,,,VFR,,,,,,,,,,,,METAR,494.0
ZUTF 230900Z 17002MPS 150V210 CAVOK 25/15 Q1018 NOSIG,ZUTF,2022-10-23T09:00:00Z,30.3,104.43,25.0,15.0,170,4,,6.21,30.059055,,,,,,TRUE,,,,,CAVOK,,,,,,,,VFR,,,,,,,,,,,,METAR,443.0
ZUGY 230900Z 08003MPS CAVOK 23/09 Q1021 NOSIG,ZUGY,2022-10-23T09:00:00Z,26.53,106.8,23.0,9.0,80,6,,6.21,30.147638,,,,,,TRUE,,,,,CAVOK,,,,,,,,VFR,,,,,,,,,,,,METAR,1130.0
ZUCK 230900Z 03003MPS 5000 HZ NSC 21/15 Q1019 NOSIG,ZUCK,2022-10-23T09:00:00Z,29.72,106.63,21.0,15.0,30,6,,3.11,30.088583,,,,,,TRUE,,,,HZ,CLR,,,,,,,,MVFR,,,,,,,,,,,,METAR,416.0
ZSQD 230900Z 01002MPS CAVOK 18/02 Q1022 NOSIG,ZSQD,2022-10-23T09:00:00Z,36.27,120.38,18.0,2.0,10,4,,6.21,30.177166,,,,,,TRUE,,,,,CAVOK,,,,,,,,VFR,,,,,,,,,,,,METAR,8.0
ZSOF 230900Z 05002MPS CAVOK 22/09 Q1022 NOSIG,ZSOF,2022-10-23T09:00:00Z,31.98,116.97,22.0,9.0,50,4,,6.21,30.177166,,,,,,TRUE,,,,,CAVOK,,,,,,,,VFR,,,,,,,,,,,,METAR,23.0
ZSNJ 230900Z 09004MPS CAVOK 21/07 Q1022 NOSIG,ZSNJ,2022-10-23T09:00:00Z,31.75,118.87,21.0,7.0,90,8,,6.21,30.177166,,,,,,TRUE,,,,,CAVOK,,,,,,,,VFR,,,,,,,,,,,,METAR,27.0
ZSNB 230900Z 03004MPS 350V060 9999 FEW040 21/15 Q1021 NOSIG,ZSNB,2022-10-23T09:00:00Z,29.83,121.47,21.0,15.0,30,8,,6.21,30.147638,,,,,,TRUE,,,,,FEW,4000,,,,,,,VFR,,,,,,,,,,,,METAR,5.0
ZSFZ 230900Z 05007MPS CAVOK 23/17 Q1017 NOSIG,ZSFZ,2022-10-23T09:00:00Z,25.93,119.67,23.0,17.0,50,14,,6.21,30.029528,,,,,,TRUE,,,,,CAVOK,,,,,,,,VFR,,,,,,,,,,,,METAR,14.0
ZSAM 230900Z 09006MPS CAVOK 26/16 Q1015 NOSIG,ZSAM,2022-10-23T09:00:00Z,24.53,118.13,26.0,16.0,90,12,,6.21,29.970472,,,,,,TRUE,,,,,CAVOK,,,,,,,,VFR,,,,,,,,,,,,METAR,13.0
ZPPP 230900Z 17004MPS 9999 SCT023 BKN040 18/13 Q1026 NOSIG,ZPPP,2022-10-23T09:00:00Z,25.0,102.65,18.0,13.0,170,8,,6.21,30.295275,,,,,,TRUE,,,,,SCT,2300,BKN,4000,,,,,VFR,,,,,,,,,,,,METAR,1885.0
ZMUB 230900Z VRB02MPS CAVOK 12/M08 Q1019 NOSIG RMK QFE656.7 24,ZMUB,2022-10-23T09:00:00Z,47.83,106.75,12.0,-8.0,0,4,,6.21,30.088583,,,,,,TRUE,,,,,CAVOK,,,,,,,,VFR,,,,,,,,,,,,SPECI,1300.0
ZLXY 230900Z 06002MPS 8000 NSC 19/06 Q1022 NOSIG,ZLXY,2022-10-23T09:00:00Z,34.43,108.75,19.0,6.0,60,4,,4.97,30.177166,,,,,,TRUE,,,,,CLR,,,,,,,,MVFR,,,,,,,,,,,,METAR,478.0
ZLLL 230900Z 10003MPS CAVOK 17/M01 Q1024 NOSIG,ZLLL,2022-10-23T09:00:00Z,36.52,103.62,17.0,-1.0,100,6,,6.21,30.236221,,,,,,TRUE,,,,,CAVOK,,,,,,,,VFR,,,,,,,,,,,,METAR,1939.0
ZJSY 230900Z VRB01MPS CAVOK 29/21 Q1011 NOSIG,ZJSY,2022-10-23T09:00:00Z,18.3,109.42,29.0,21.0,0,2,,6.21,29.852362,,,,,,TRUE,,,,,CAVOK,,,,,,,,VFR,,,,,,,,,,,,METAR,27.0
ZJHK 230900Z 36003MPS 330V030 CAVOK 27/20 Q1012 NOSIG,ZJHK,2022-10-23T09:00:00Z,19.93,110.43,27.0,20.0,360,6,,6.21,29.88189,,,,,,TRUE,,,,,CAVOK,,,,,,,,VFR,,,,,,,,,,,,METAR,21.0
ZHHH 230900Z 01002MPS 330V040 CAVOK 27/09 Q1020 NOSIG,ZHHH,2022-10-23T09:00:00Z,30.78,114.22,27.0,9.0,10,4,,6.21,30.11811,,,,,,TRUE,,,,,CAVOK,,,,,,,,VFR,,,,,,,,,,,,METAR,33.0
ZHCC 230900Z 11002MPS 5000 HZ NSC 21/05 Q1023 NOSIG,ZHCC,2022-10-23T09:00:00Z,34.52,113.83,21.0,5.0,110,4,,3.11,30.206694,,,,,,TRUE,,,,HZ,CLR,,,,,,,,MVFR,,,,,,,,,,,,METAR,149.0
ZGSZ 230900Z 23004MPS 200V260 CAVOK 28/20 Q1012 NOSIG,ZGSZ,2022-10-23T09:00:00Z,22.63,113.8,28.0,20.0,230,8,,6.21,29.88189,,,,,,TRUE,,,,,CAVOK,,,,,,,,VFR,,,,,,,,,,,,METAR,18.0
ZGOW 230900Z 11005MPS 080V140 CAVOK 26/18 Q1014 NOSIG,ZGOW,2022-10-23T09:00:00Z,23.55,116.5,26.0,18.0,110,10,,6.21,29.940945,,,,,,TRUE,,,,,CAVOK,,,,,,,,VFR,,,,,,,,,,,,METAR,4.0
ZGNN 230900Z 33003MPS 300V020 CAVOK 33/18 Q1013 NOSIG,ZGNN,2022-10-23T09:00:00Z,22.62,108.17,33.0,18.0,330,6,,6.21,29.911417,,,,,,TRUE,,,,,CAVOK,,,,,,,,VFR,,,,,,,,,,,,METAR,128.0
ZGKL 230900Z 07005MPS CAVOK 32/08 Q1014 NOSIG,ZGKL,2022-10-23T09:00:00Z,25.22,110.03,32.0,8.0,70,10,,6.21,29.940945,,,,,,TRUE,,,,,CAVOK,,,,,,,,VFR,,,,,,,,,,,,METAR,151.0
ZGHA 230900Z 35004MPS CAVOK 29/08 Q1017 NOSIG,ZGHA,2022-10-23T09:00:00Z,28.18,113.22,29.0,8.0,350,8,,6.21,30.029528,,,,,,TRUE,,,,,CAVOK,,,,,,,,VFR,,,,,,,,,,,,METAR,61.0
ZBSJ 230900Z 12002MPS CAVOK 22/M02 Q1021 NOSIG,ZBSJ,2022-10-23T09:00:00Z,38.28,114.7,22.0,-2.0,120,4,,6.21,30.147638,,,,,,TRUE,,,,,CAVOK,,,,,,,,VFR,,,,,,,,,,,,METAR,70.0
ZBHH 230900Z 23003MPS CAVOK 14/M08 Q1025 NOSIG,ZBHH,2022-10-23T09:00:00Z,40.85,111.82,14.0,-8.0,230,6,,6.21,30.265747,,,,,,TRUE,,,,,CAVOK,,,,,,,,VFR,,,,,,,,,,,,METAR,1081.0
WSSL 230900Z 34005KT 280V010 9999 FEW020 BKN160 29/23 Q1009,WSSL,2022-10-23T09:00:00Z,1.42,103.87,29.0,23.0,340,5,,6.21,29.793306,,,,,,,,,,,FEW,2000,BKN,16000,,,,,VFR,,,,,,,,,,,,METAR,11.0
WSAP 230900Z 30004KT 9999 FEW020 BKN160 30/22 Q1009,WSAP,2022-10-23T09:00:00Z,1.37,103.92,30.0,22.0,300,4,,6.21,29.793306,,,,,,,,,,,FEW,2000,BKN,16000,,,,,VFR,,,,,,,,,,,,METAR,20.0
WMSA 230900Z 29007KT 9999 FEW023 30/25 Q1008,WMSA,2022-10-23T09:00:00Z,3.13,101.55,30.0,25.0,290,7,,6.21,29.763779,,,,,,,,,,,FEW,2300,,,,,,,VFR,,,,,,,,,,,,METAR,19.0
WMKN 230900Z 34009KT 260V020 9999 FEW018 29/24 Q1009,WMKN,2022-10-23T09:00:00Z,5.37,103.1,29.0,24.0,340,9,,6.21,29.793306,,,,,,,,,,,FEW,1800,,,,,,,VFR,,,,,,,,,,,,METAR,12.0
WMKM 230900Z 25004KT 190V330 9999 FEW017CB 29/25 Q1009,WMKM,2022-10-23T09:00:00Z,2.27,102.25,29.0,25.0,250,4,,6.21,29.793306,,,,,,,,,,,FEW,1700,,,,,,,VFR,,,,,,,,,,,,METAR,9.0
WMKL 230900Z VRB03KT 9999 FEW020 30/25 Q1009,WMKL,2022-10-23T09:00:00Z,6.32,99.72,30.0,25.0,0,3,,6.21,29.793306,,,,,,,,,,,FEW,2000,,,,,,,VFR,,,,,,,,,,,,METAR,4.0
WMKJ 230900Z 03005KT 330V060 9999 FEW018 29/25 Q1008,WMKJ,2022-10-23T09:00:00Z,1.63,103.67,29.0,25.0,30,5,,6.21,29.763779,,,,,,,,,,,FEW,1800,,,,,,,VFR,,,,,,,,,,,,METAR,38.0
WMKI 230900Z 01004KT 330V040 9999 FEW017CB 32/24 Q1008,WMKI,2022-10-23T09:00:00Z,4.57,101.08,32.0,24.0,10,4,,6.21,29.763779,,,,,,,,,,,FEW,1700,,,,,,,VFR,,,,,,,,,,,,METAR,37.0
WMKE 230900Z 34005KT 300V030 9999 FEW014CB SCT022 29/24 Q1008,WMKE,2022-10-23T09:00:00Z,4.53,103.43,29.0,24.0,340,5,,6.21,29.763779,,,,,,,,,,,FEW,1400,SCT,2200,,,,,VFR,,,,,,,,,,,,METAR,5.0
WMKD 230900Z VRB02KT 9999 -RA FEW024 28/24 Q1008 NOSIG,WMKD,2022-10-23T09:00:00Z,3.77,103.22,28.0,24.0,0,2,,6.21,29.763779,,,,,,TRUE,,,,-RA,FEW,2400,,,,,,,VFR,,,,,,,,,,,,METAR,18.0
WMKC 230900Z 34003KT 290V020 9999 FEW018 29/24 Q1009,WMKC,2022-10-23T09:00:00Z,6.17,102.28,29.0,24.0,340,3,,6.21,29.793306,,,,,,,,,,,FEW,1800,,,,,,,VFR,,,,,,,,,,,,METAR,7.0
WMKB 230900Z 32006KT 250V360 9999 FEW020 30/24 Q1008 NOSIG,WMKB,2022-10-23T09:00:00Z,5.47,100.38,30.0,24.0,320,6,,6.21,29.763779,,,,,,TRUE,,,,,FEW,2000,,,,,,,VFR,,,,,,,,,,,,METAR,4.0
WMKA 230900Z 01003KT 280V080 9999 FEW020 30/23 Q1009,WMKA,2022-10-23T09:00:00Z,6.2,100.4,30.0,23.0,10,3,,6.21,29.793306,,,,,,,,,,,FEW,2000,,,,,,,VFR,,,,,,,,,,,,METAR,5.0
WMBA 230900Z 29005KT 250V320 9000 -RA SCT029 30/26 Q1008,WMBA,2022-10-23T09:00:00Z,4.22,100.7,30.0,26.0,290,5,,5.59,29.763779,,,,,,,,,,-RA,SCT,2900,,,,,,,VFR,,,,,,,,,,,,METAR,9.0
WMAU 230900Z 31004KT 230V040 9999 SCT020 29/25 Q1009,WMAU,2022-10-23T09:00:00Z,2.38,103.88,29.0,25.0,310,4,,6.21,29.793306,,,,,,,,,,,SCT,2000,,,,,,,VFR,,,,,,,,,,,,METAR,5.0
WBKW 230900Z VRB02KT 9999 FEW016 25/24 Q1008 RETSRA,WBKW,2022-10-23T09:00:00Z,4.32,118.12,25.0,24.0,0,2,,6.21,29.763779,,,,,,,,,,,FEW,1600,,,,,,,VFR,,,,,,,,,,,,METAR,17.0
WBKT 230900Z 26003KT 9999 FEW014 27/26 Q1008,WBKT,2022-10-23T09:00:00Z,6.92,116.83,27.0,26.0,260,3,,6.21,29.763779,,,,,,,,,,,FEW,1400,,,,,,,VFR,,,,,,,,,,,,METAR,11.0
WBKS 230900Z 32005KT 290V350 9999 SCT015 28/25 Q1008,WBKS,2022-10-23T09:00:00Z,5.9,118.07,28.0,25.0,320,5,,6.21,29.763779,,,,,,,,,,,SCT,1500,,,,,,,VFR,,,,,,,,,,,,METAR,13.0
WBKL 230900Z VRB02KT 9999 FEW015 29/25 Q1008,WBKL,2022-10-23T09:00:00Z,5.3,115.25,29.0,25.0,0,2,,6.21,29.763779,,,,,,,,,,,FEW,1500,,,,,,,VFR,,,,,,,,,,,,METAR,29.0
WBGY 230900Z VRB02KT 9999 FEW015CB SCT022 32/25 Q1005,WBGY,2022-10-23T09:00:00Z,1.22,111.45,32.0,25.0,0,2,,6.21,29.675198,,,,,,,,,,,FEW,1500,SCT,2200,,,,,VFR,,,,,,,,,,,,METAR,13.0
WBGS 230900Z 33005KT 290V360 9999 -TSRA FEW015CB SCT018 27/26 Q1007,WBGS,2022-10-23T09:00:00Z,2.27,111.98,27.0,26.0,330,5,,6.21,29.734253,,,,,,,,,,-TSRA,FEW,1500,SCT,1800,,,,,VFR,,,,,,,,,,,,METAR,26.0
WBGR 230900Z 30007KT 240V350 9999 SCT016 29/25 Q1008,WBGR,2022-10-23T09:00:00Z,4.32,113.98,29.0,25.0,300,7,,6.21,29.763779,,,,,,,,,,,SCT,1600,,,,,,,VFR,,,,,,,,,,,,METAR,18.0
WBGB 230900Z 12006KT 080V190 9999 TS FEW015CB BKN016 26/24 Q1008,WBGB,2022-10-23T09:00:00Z,3.12,113.02,26.0,24.0,120,6,,6.21,29.763779,,,,,,,,,,TS,FEW,1500,BKN,1600,,,,,MVFR,,,,,,,,,,,,METAR,34.0
VTUW 230900Z 12006KT CAVOK 32/17 Q1011 NOSIG,VTUW,2022-10-23T09:00:00Z,17.38,104.63,32.0,17.0,120,6,,6.21,29.852362,,,,,,TRUE,,,,,CAVOK,,,,,,,,VFR,,,,,,,,,,,,METAR,167.0
VTUV 230900Z 06006KT 020V090 9000 NSC 31/20 Q1010 NOSIG,VTUV,2022-10-23T09:00:00Z,16.12,103.78,31.0,20.0,60,6,,5.59,29.822834,,,,,,TRUE,,,,,CLR,,,,,,,,VFR,,,,,,,,,,,,METAR,136.0
VTUU 230900Z 04007KT 350V080 9999 FEW030 32/24 Q1010 NOSIG,VTUU,2022-10-23T09:00:00Z,15.25,104.87,32.0,24.0,40,7,,6.21,29.822834,,,,,,TRUE,,,,,FEW,3000,,,,,,,VFR,,,,,,,,,,,,METAR,119.0
VTUQ 230900Z 35004KT 320V020 9999 SCT040 30/24 Q1011 NOSIG,VTUQ,2022-10-23T09:00:00Z,14.95,102.32,30.0,24.0,350,4,,6.21,29.852362,,,,,,TRUE,,,,,SCT,4000,,,,,,,VFR,,,,,,,,,,,,METAR,225.0
VTUO 230900Z 06007KT 030V090 9999 FEW040 30/23 Q1010 NOSIG,VTUO,2022-10-23T09:00:00Z,15.23,103.25,30.0,23.0,60,7,,6.21,29.822834,,,,,,TRUE,,,,,FEW,4000,,,,,,,VFR,,,,,,,,,,,,METAR,182.0
VTUL 230900Z VRB02KT 9999 SCT030 31/20 Q1012 NOSIG,VTUL,2022-10-23T09:00:00Z,17.43,101.72,31.0,20.0,0,2,,6.21,29.88189,,,,,,TRUE,,,,,SCT,3000,,,,,,,VFR,,,,,,,,,,,,METAR,257.0
VTUK 230900Z 09003KT 030V150 9999 FEW030 31/17 Q1011 NOSIG,VTUK,2022-10-23T09:00:00Z,16.47,102.78,31.0,17.0,90,3,,6.21,29.852362,,,,,,TRUE,,,,,FEW,3000,,,,,,,VFR,,,,,,,,,,,,METAR,190.0
VTUI 230900Z 12003KT CAVOK 31/18 Q1011 NOSIG,VTUI,2022-10-23T09:00:00Z,17.2,104.12,31.0,18.0,120,3,,6.21,29.852362,,,,,,TRUE,,,,,CAVOK,,,,,,,,VFR,,,,,,,,,,,,METAR,162.0
VTUD 230900Z 05004KT 350V140 CAVOK 32/17 Q1011 NOSIG,VTUD,2022-10-23T09:00:00Z,17.37,102.78,32.0,17.0,50,4,,6.21,29.852362,,,,,,TRUE,,,,,CAVOK,,,,,,,,VFR,,,,,,,,,,,,METAR,177.0
VTST 230900Z 34003KT 260V030 9999 VCSH SCT030 32/25 Q1008 NOSIG,VTST,2022-10-23T09:00:00Z,7.52,99.62,32.0,25.0,340,3,,6.21,29.763779,,,,,,TRUE,,,,VCSH,SCT,3000,,,,,,,VFR,,,,,,,,,,,,METAR,17.0
VTSR 230900Z 24003KT 190V300 9999 SCT020 30/22 Q1010 NOSIG,VTSR,2022-10-23T09:00:00Z,9.78,98.58,30.0,22.0,240,3,,6.21,29.822834,,,,,,TRUE,,,,,SCT,2000,,,,,,,VFR,,,,,,,,,,,,METAR,23.0
VTSM 230900Z 31004KT 270V340 9999 FEW020 31/25 Q1010 NOSIG,VTSM,2022-10-23T09:00:00Z,9.55,100.07,31.0,25.0,310,4,,6.21,29.822834,,,,,,TRUE,,,,,FEW,2000,,,,,,,VFR,,,,,,,,,,,,METAR,12.0
VTSG 230900Z VRB02KT 9999 -RA SCT030 BKN080 26/25 Q1009 NOSIG,VTSG,2022-10-23T09:00:00Z,8.1,98.98,26.0,25.0,0,2,,6.21,29.793306,,,,,,TRUE,,,,-RA,SCT,3000,BKN,8000,,,,,VFR,,,,,,,,,,,,METAR,32.0
VTSF 230900Z 06006KT 020V100 9999 FEW018 32/24 Q1009 NOSIG,VTSF,2022-10-23T09:00:00Z,8.53,99.95,32.0,24.0,60,6,,6.21,29.793306,,,,,,TRUE,,,,,FEW,1800,,,,,,,VFR,,,,,,,,,,,,METAR,6.0
VTSE 230900Z VRB02KT 9999 VCSH FEW018TCU SCT080 30/25 Q1009 NOSIG,VTSE,2022-10-23T09:00:00Z,10.72,99.37,30.0,25.0,0,2,,6.21,29.793306,,,,,,TRUE,,,,VCSH,FEW,1800,SCT,8000,,,,,VFR,,,,,,,,,,,,METAR,8.0
VTSC 230900Z 28004KT 9999 FEW018 27/24 Q1009 NOSIG,VTSC,2022-10-23T09:00:00Z,6.52,101.75,27.0,24.0,280,4,,6.21,29.793306,,,,,,TRUE,,,,,FEW,1800,,,,,,,VFR,,,,,,,,,,,,METAR,5.0
VTSB 230900Z 30004KT 260V340 9999 VCSH FEW018CB SCT020 27/23 Q1010 NOSIG,VTSB,2022-10-23T09:00:00Z,9.12,99.15,27.0,23.0,300,4,,6.21,29.822834,,,,,,TRUE,,,,VCSH,FEW,1800,SCT,2000,,,,,VFR,,,,,,,,,,,,METAR,10.0
VTPP 230900Z 23004KT 150V260 CAVOK 32/18 Q1010 NOSIG,VTPP,2022-10-23T09:00:00Z,16.78,100.28,32.0,18.0,230,4,,6.21,29.822834,,,,,,TRUE,,,,,CAVOK,,,,,,,,VFR,,,,,,,,,,,,METAR,45.0
VTPO 230900Z VRB02KT 9999 FEW025 33/21 Q1010 NOSIG,VTPO,2022-10-23T09:00:00Z,17.23,99.82,33.0,21.0,0,2,,6.21,29.822834,,,,,,TRUE,,,,,FEW,2500,,,,,,,VFR,,,,,,,,,,,,METAR,58.0
VTPM 230900Z 06008KT 040V100 9999 FEW048 31/19 Q1010 NOSIG,VTPM,2022-10-23T09:00:00Z,16.7,98.53,31.0,19.0,60,8,,6.21,29.822834,,,,,,TRUE,,,,,FEW,4800,,,,,,,VFR,,,,,,,,,,,,METAR,211.0
VTPH 230900Z 03004KT 350V070 9999 FEW030 30/22 Q1009 NOSIG,VTPH,2022-10-23T09:00:00Z,12.63,99.95,30.0,22.0,30,4,,6.21,29.793306,,,,,,TRUE,,,,,FEW,3000,,,,,,,VFR,,,,,,,,,,,,METAR,12.0
VTPB 230900Z VRB02KT 9999 FEW030 33/19 Q1010 NOSIG,VTPB,2022-10-23T09:00:00Z,16.67,101.2,33.0,19.0,0,2,,6.21,29.822834,,,,,,TRUE,,,,,FEW,3000,,,,,,,VFR,,,,,,,,,,,,METAR,134.0
VTCT 230900Z 09004KT 9999 FEW040 30/20 Q1013 NOSIG,VTCT,2022-10-23T09:00:00Z,19.95,99.88,30.0,20.0,90,4,,6.21,29.911417,,,,,,TRUE,,,,,FEW,4000,,,,,,,VFR,,,,,,,,,,,,METAR,389.0
VTCP 230900Z VRB02KT 9999 SCT047 31/21 Q1011 NOSIG,VTCP,2022-10-23T09:00:00Z,18.13,100.17,31.0,21.0,0,2,,6.21,29.852362,,,,,,TRUE,,,,,SCT,4700,,,,,,,VFR,,,,,,,,,,,,METAR,166.0
VTCN 230900Z VRB02KT 9999 FEW025 30/23 Q1011 NOSIG,VTCN,2022-10-23T09:00:00Z,18.82,100.78,30.0,23.0,0,2,,6.21,29.852362,,,,,,TRUE,,,,,FEW,2500,,,,,,,VFR,,,,,,,,,,,,METAR,211.0
VTCL 230900Z VRB02KT 9999 SCT025 33/20 Q1012 NOSIG,VTCL,2022-10-23T09:00:00Z,18.27,99.52,33.0,20.0,0,2,,6.21,29.88189,,,,,,TRUE,,,,,SCT,2500,,,,,,,VFR,,,,,,,,,,,,METAR,240.0
VTCH 230900Z VRB02KT 9999 FEW020TCU SCT025 31/23 Q1011 NOSIG,VTCH,2022-10-23T09:00:00Z,19.3,97.98,31.0,23.0,0,2,,6.21,29.852362,,,,,,TRUE,,,,,FEW,2000,SCT,2500,,,,,VFR,,,,,,,,,,,,METAR,266.0
VTBO 230900Z VRB02KT 9999 FEW025 31/24 Q1008,VTBO,2022-10-23T09:00:00Z,12.28,102.32,31.0,24.0,0,2,,6.21,29.763779,,,,,,,,,,,FEW,2500,,,,,,,VFR,,,,,,,,,,,,METAR,25.0
"VRMM 230900Z 25017KT 9999 FEW016 FEW017CB BKN021 27/24 Q1011 CB N,NE,NW TEMPO 4000 SHRA",VRMM,2022-10-23T09:00:00Z,4.2,73.52,27.0,24.0,250,17,,6.21,29.852362,,,,,,,,,,,FEW,1600,FEW,1700,BKN,2100,,,MVFR,,,,,,,,,,,,METAR,2.0
VRMH 230900Z 24008KT 9999 FEW018TCU 30/27 Q1011,VRMH,2022-10-23T09:00:00Z,6.75,73.17,30.0,27.0,240,8,,6.21,29.852362,,,,,,,,,,,FEW,1800,,,,,,,VFR,,,,,,,,,,,,METAR,1.0
VRMG 230900Z 23006KT 9999 FEW018 FEW019CB BKN270 30/25 Q1011 CB S NOSIG,VRMG,2022-10-23T09:00:00Z,-0.7,73.15,30.0,25.0,230,6,,6.21,29.852362,,,,,,TRUE,,,,,FEW,1800,FEW,1900,BKN,27000,,,VFR,,,,,,,,,,,,METAR,3.0
VOPB 230900Z VRB02KT 4500 DZ SCT012 BKN080 27/25 Q1006 BECMG 3500 -RA,VOPB,2022-10-23T09:00:00Z,11.63,92.73,27.0,25.0,0,2,,2.8,29.704725,,,,,,,,,,DZ,SCT,1200,BKN,8000,,,,,IFR,,,,,,,,,,,,METAR,1.0
VOJV 230900Z 34008KT 7000 NSC 29/18 Q1014,VOJV,2022-10-23T09:00:00Z,15.17,76.63,29.0,18.0,340,8,,4.35,29.940945,,,,,,,,,,,CLR,,,,,,,,MVFR,,,,,,,,,,,,METAR,508.0
VOGO 230900Z 26007KT 6000 FEW030 SCT090 32/19 Q1010 NOSIG,VOGO,2022-10-23T09:00:00Z,15.38,73.83,32.0,19.0,260,7,,3.73,29.822834,,,,,,TRUE,,,,,FEW,3000,SCT,9000,,,,,MVFR,,,,,,,,,,,,METAR,56.0
VODX 230900Z 17007G12KT 5000 BR FEW010 SCT018 FEW025TCU SE OVC070 27/25 Q1006 TEMPO 3000 RA,VODX,2022-10-23T09:00:00Z,,,27.0,25.0,170,7,12,3.11,29.704725,,,,,,,,,,BR,FEW,1000,SCT,1800,FEW,2500,OVC,7000,MVFR,,,,,,,,,,,,METAR,
VLSK 230900Z 36006KT 9999 FEW020 33/17 Q1012 NOSIG,VLSK,2022-10-23T09:00:00Z,16.55,104.75,33.0,17.0,360,6,,6.21,29.88189,,,,,,TRUE,,,,,FEW,2000,,,,,,,VFR,,,,,,,,,,,,METAR,148.0
VLPS 230900Z 36002KT 9999 FEW023 FEW050 BKN100 32/23 Q1010 NOSIG,VLPS,2022-10-23T09:00:00Z,15.13,105.78,32.0,23.0,360,2,,6.21,29.822834,,,,,,TRUE,,,,,FEW,2300,FEW,5000,BKN,10000,,,VFR,,,,,,,,,,,,METAR,102.0
VLLN 230900Z 14004KT 9999 FEW020 FEW100 31/19 Q1013 NOSIG,VLLN,2022-10-23T09:00:00Z,20.97,101.4,31.0,19.0,140,4,,6.21,29.911417,,,,,,TRUE,,,,,FEW,2000,FEW,10000,,,,,VFR,,,,,,,,,,,,METAR,548.0
VLLB 230900Z 36006KT 9999 FEW027 FEW060 33/18 Q1011 NOSIG,VLLB,2022-10-23T09:00:00Z,19.9,102.17,33.0,18.0,360,6,,6.21,29.852362,,,,,,TRUE,,,,,FEW,2700,FEW,6000,,,,,VFR,,,,,,,,,,,,METAR,297.0
VIBR 230900Z 16009KT 6000 FEW030 27/08 Q1018,VIBR,2022-10-23T09:00:00Z,31.82,77.15,27.0,8.0,160,9,,3.73,30.059055,,,,,,,,,,,FEW,3000,,,,,,,MVFR,,,,,,,,,,,,METAR,1089.0
VGEG 230900Z 32008KT 4000 RA SCT014 FEW028CB OVC100 28/26 Q1008 NOSIG,VGEG,2022-10-23T09:00:00Z,22.23,91.82,28.0,26.0,320,8,,2.49,29.763779,,,,,,TRUE,,,,RA,SCT,1400,FEW,2800,OVC,10000,,,IFR,,,,,,,,,,,,METAR,7.0
VEPY 230900Z 20003KT 5000 HZ FEW020 27/08 Q1019 NOSIG,VEPY,2022-10-23T09:00:00Z,27.22,88.58,27.0,8.0,200,3,,3.11,30.088583,,,,,,TRUE,,,,HZ,FEW,2000,,,,,,,MVFR,,,,,,,,,,,,METAR,1399.0
VELR 230900Z 02003KT 6000 FEW010 SCT020 OVC080 27/23 Q1012,VELR,2022-10-23T09:00:00Z,27.3,94.1,27.0,23.0,20,3,,3.73,29.88189,,,,,,,,,,,FEW,1000,SCT,2000,OVC,8000,,,MVFR,,,,,,,,,,,,METAR,101.0
VEKO 230900Z 36004KT 5000 HZ NSC 31/18 Q1012,VEKO,2022-10-23T09:00:00Z,24.82,79.92,31.0,18.0,360,4,,3.11,29.88189,,,,,,,,,,HZ,CLR,,,,,,,,MVFR,,,,,,,,,,,,METAR,222.0
VEKI 230900Z 26007KT 5000 HZ NSC 31/16 Q1011 NOSIG,VEKI,2022-10-23T09:00:00Z,,,31.0,16.0,260,7,,3.11,29.852362,,,,,,TRUE,,,,HZ,CLR,,,,,,,,MVFR,,,,,,,,,,,,METAR,
VEJS 230900Z 09004KT 5000 HZ FEW020 32/16 Q1010,VEJS,2022-10-23T09:00:00Z,22.82,86.17,32.0,16.0,90,4,,3.11,29.822834,,,,,,,,,,HZ,FEW,2000,,,,,,,MVFR,,,,,,,,,,,,METAR,151.0
VECO 230900Z 00000KT 6000 FEW025 32/23 Q1010,VECO,2022-10-23T09:00:00Z,26.33,89.47,32.0,23.0,0,0,,3.73,29.822834,,,,,,,,,,,FEW,2500,,,,,,,MVFR,,,,,,,,,,,,METAR,48.0
VEBU 230900Z 36012KT 6000 NSC 31/15 Q1011 NOSIG,VEBU,2022-10-23T09:00:00Z,21.98,82.12,31.0,15.0,360,12,,3.73,29.852362,,,,,,TRUE,,,,,CLR,,,,,,,,MVFR,,,,,,,,,,,,METAR,274.0
VEBI 230900Z 27006KT 3000 BR FEW008 SCT020 FEW025CB OVC080 23/19 Q1016 TEMPO 2000 -RA,VEBI,2022-10-23T09:00:00Z,25.7,91.98,23.0,19.0,270,6,,1.86,30.0,,,,,,,,,,BR,FEW,800,SCT,2000,FEW,2500,OVC,8000,IFR,,,,,,,,,,,,METAR,892.0
VARK 230900Z 05006KT 6000 NSC 36/10 Q1013 NOSIG,VARK,2022-10-23T09:00:00Z,22.3,70.77,36.0,10.0,50,6,,3.73,29.911417,,,,,,TRUE,,,,,CLR,,,,,,,,MVFR,,,,,,,,,,,,METAR,125.0
VAPR 230900Z 05010KT 6000 NSC 36/08 Q1013 NOSIG,VAPR,2022-10-23T09:00:00Z,21.63,69.67,36.0,8.0,50,10,,3.73,29.911417,,,,,,TRUE,,,,,CLR,,,,,,,,MVFR,,,,,,,,,,,,METAR,8.0
VAOZ 230900Z 03006KT 6000 NSC 29/07 Q1016 NOSIG,VAOZ,2022-10-23T09:00:00Z,20.12,73.92,29.0,7.0,30,6,,3.73,30.0,,,,,,TRUE,,,,,CLR,,,,,,,,MVFR,,,,,,,,,,,,METAR,598.0
VAKS 230900Z 07006KT 5000 FU NSC 36/08 Q1012 NOSIG,VAKS,2022-10-23T09:00:00Z,21.32,70.32,36.0,8.0,70,6,,3.11,29.88189,,,,,,TRUE,,,,FU,CLR,,,,,,,,MVFR,,,,,,,,,,,,METAR,51.0
VAKE 230900Z 12006KT 5000 FU NSC 36/11 Q1013 NOSIG,VAKE,2022-10-23T09:00:00Z,23.13,70.12,36.0,11.0,120,6,,3.11,29.911417,,,,,,TRUE,,,,FU,CLR,,,,,,,,MVFR,,,,,,,,,,,,METAR,29.0
VAAU 230900Z 02006KT 6000 NSC 30/11 Q1014 NOSIG,VAAU,2022-10-23T09:00:00Z,19.85,75.4,30.0,11.0,20,6,,3.73,29.940945,,,,,,TRUE,,,,,CLR,,,,,,,,MVFR,,,,,,,,,,,,METAR,578.0
UWOR 230900Z 23004MPS CAVOK 02/M04 Q1030 R25/150060 NOSIG RMK QFE748/0998,UWOR,2022-10-23T09:00:00Z,51.07,58.6,2.0,-4.0,230,8,,6.21,30.413385,,,,,,TRUE,,,,,CAVOK,,,,,,,,VFR,,,,,,,,,,,,METAR,270.0
UWLW 230900Z 21007MPS CAVOK 06/01 Q1023 R20/CLRD60 NOSIG RMK QFE761/1015,UWLW,2022-10-23T09:00:00Z,54.4,48.8,6.0,1.0,210,14,,6.21,30.206694,,,,,,TRUE,,,,,CAVOK,,,,,,,,VFR,,,,,,,,,,,,METAR,67.0
UTAT 230900Z 10004KT 350V150 CAVOK 14/03 Q1029 R08/CLRD70 NOSIG,UTAT,2022-10-23T09:00:00Z,41.77,59.83,14.0,3.0,100,4,,6.21,30.383858,,,,,,TRUE,,,,,CAVOK,,,,,,,,VFR,,,,,,,,,,,,SPECI,84.0
UTAM 230900Z 05010KT CAVOK 19/08 Q1027 R88/CLRD7 NOSIG,UTAM,2022-10-23T09:00:00Z,37.62,61.9,19.0,8.0,50,10,,6.21,30.324802,,,,,,TRUE,,,,,CAVOK,,,,,,,,VFR,,,,,,,,,,,,SPECI,218.0
UTAK 230900Z 08012KT 9999 -RA SCT033 OVC100 13/06 Q1025 R16R/CLRD70 NOSIG,UTAK,2022-10-23T09:00:00Z,40.05,53.0,13.0,6.0,80,12,,6.21,30.265747,,,,,,TRUE,,,,-RA,SCT,3300,OVC,10000,,,,,VFR,,,,,,,,,,,,SPECI,83.0
UTAA 230900Z 10008KT 060V130 9999 FEW022CB OVC033 15/10 Q1025 R88/70D NOSIG,UTAA,2022-10-23T09:00:00Z,37.98,58.37,15.0,10.0,100,8,,6.21,30.265747,,,,,,TRUE,,,,,FEW,2200,OVC,3300,,,,,VFR,,,,,,,,,,,,METAR,207.0
UOOO 230900Z 17003MPS 9999 -SHSN BKN015CB M04/M04 Q0986 R19/39//42 NOSIG RMK QFE724/0965,UOOO,2022-10-23T09:00:00Z,69.32,87.33,-4.0,-4.0,170,6,,6.21,29.114174,,,,,,TRUE,,,,-SHSN,BKN,1500,,,,,,,MVFR,,,,,,,,,,,,SPECI,177.0
UMOO 230900Z 29004MPS 5000 BR OVC005 06/06 Q1012 NOSIG RMK QBB150,UMOO,2022-10-23T09:00:00Z,53.95,30.1,6.0,6.0,290,8,,3.11,29.88189,,,,,,TRUE,,,,BR,OVC,500,,,,,,,IFR,,,,,,,,,,,,METAR,188.0
UMMG 230900Z 27004MPS 9000 BKN012 OVC066 12/11 Q1014 NOSIG,UMMG,2022-10-23T09:00:00Z,53.6,24.05,12.0,11.0,270,8,,5.59,29.940945,,,,,,TRUE,,,,,BKN,1200,OVC,6600,,,,,MVFR,,,,,,,,,,,,METAR,125.0
UMII 230900Z 26002MPS 3100 BR OVC003 05/05 Q1010 TEMPO 2000 RMK QBB100,UMII,2022-10-23T09:00:00Z,55.13,30.35,5.0,5.0,260,4,,1.93,29.822834,,,,,,,,,,BR,OVC,300,,,,,,,LIFR,,,,,,,,,,,,SPECI,208.0
UMBB 230900Z 30005G08MPS 7000 OVC012CB 14/12 Q1016 NOSIG,UMBB,2022-10-23T09:00:00Z,52.12,23.9,14.0,12.0,300,10,16,4.35,30.0,,,,,,TRUE,,,,,OVC,1200,,,,,,,MVFR,,,,,,,,,,,,METAR,138.0
UHPP 230900Z 34002MPS CAVOK M02/M07 Q1009 R34L/CLRD65 NOSIG RMK QFE753/1005,UHPP,2022-10-23T09:00:00Z,53.17,158.45,-2.0,-7.0,340,4,,6.21,29.793306,,,,,,TRUE,,,,,CAVOK,,,,,,,,VFR,,,,,,,,,,,,METAR,33.0
UHMM 230900Z 00000MPS 9999 FEW040 M11/M16 Q1010 R10/82//55 NOSIG RMK QFE743 R28/05001MPS,UHMM,2022-10-23T09:00:00Z,59.92,150.72,-11.0,-16.0,0,0,,6.21,29.822834,,,,,,TRUE,,,,,FEW,4000,,,,,,,VFR,,,,,,,,,,,,METAR,175.0
UHMA 230900Z 27004MPS 9999 SCT006 OVC017 M04/M06 Q1006 R01/////// NOSIG RMK TDZ R01/27004G05MPS END R01/30004G06MPS QBB200 QFE751/1001,UHMA,2022-10-23T09:00:00Z,64.73,177.73,-4.0,-6.0,270,8,,6.21,29.704725,,,,,,TRUE,,,,,SCT,600,OVC,1700,,,,,MVFR,,,,,,,,,,,,METAR,53.0
UERR 230900Z 18008MPS 9999 SCT017CB 01/M02 Q1001 R25/910050 NOSIG RMK QFE720/0960,UERR,2022-10-23T09:00:00Z,62.53,114.05,1.0,-2.0,180,16,,6.21,29.557087,,,,,,TRUE,,,,,SCT,1700,,,,,,,VFR,,,,,,,,,,,,METAR,352.0
UERP 230900Z 19003MPS 6000 -SN BKN008 OVC100 M02/M03 Q0994 RMK QFE702,UERP,2022-10-23T09:00:00Z,66.4,112.03,-2.0,-3.0,190,6,,3.73,29.350393,,,,,,,,,,-SN,BKN,800,OVC,10000,,,,,IFR,,,,,,,,,,,,METAR,514.0
UCFL 230900Z 24003MPS 9999 BKN030CB 11/01 Q1023 R07/CLRD95,UCFL,2022-10-23T09:00:00Z,42.58,76.7,11.0,1.0,240,6,,6.21,30.206694,,,,,,,,,,,BKN,3000,,,,,,,MVFR,,,,,,,,,,,,METAR,1654.0
UBEE 230900Z 34005KT 9999 SCT020 BKN083 17/10 Q1026 NOSIG,UBEE,2022-10-23T09:00:00Z,40.63,47.13,17.0,10.0,340,5,,6.21,30.295275,,,,,,TRUE,,,,,SCT,2000,BKN,8300,,,,,VFR,,,,,,,,,,,,METAR,14.0
UBBY 230900Z 33006KT 9999 SCT100 15/06 Q1029 NOSIG RMK MT OP,UBBY,2022-10-23T09:00:00Z,41.57,46.67,15.0,6.0,330,6,,6.21,30.383858,,,,,,TRUE,,,,,SCT,10000,,,,,,,VFR,,,,,,,,,,,,METAR,383.0
UBBQ 230900Z 26004KT 9999 BKN070 14/07 Q1025 NOSIG RMK MT OBSC,UBBQ,2022-10-23T09:00:00Z,40.82,47.72,14.0,7.0,260,4,,6.21,30.265747,,,,,,TRUE,,,,,BKN,7000,,,,,,,VFR,,,,,,,,,,,,METAR,339.0
UBBL 230900Z 34013KT 9999 -RA OVC020 13/13 Q1025 NOSIG RMK MT OBSC,UBBL,2022-10-23T09:00:00Z,38.75,48.82,13.0,13.0,340,13,,6.21,30.265747,,,,,,TRUE,,,,-RA,OVC,2000,,,,,,,MVFR,,,,,,,,,,,,METAR,-11.0
UAKD 230900Z 28002MPS 220V010 CAVOK 06/M10 Q1031 NOSIG RMK QFE739/0986,UAKD,2022-10-23T09:00:00Z,47.7,67.73,6.0,-10.0,280,4,,6.21,30.442913,,,,,,TRUE,,,,,CAVOK,,,,,,,,VFR,,,,,,,,,,,,METAR,379.0
TTPP 230900Z 00000KT 9999 FEW014 24/23 Q1010 NOSIG,TTPP,2022-10-23T09:00:00Z,10.58,-61.35,24.0,23.0,0,0,,6.21,29.822834,,,,,,TRUE,,,,,FEW,1400,,,,,,,VFR,,,,,,,,,,,,METAR,11.0
TTCP 230900Z 00000KT 9999 VCSH SCT016 25/24 Q1010 NOSIG RMK VCSH E,TTCP,2022-10-23T09:00:00Z,11.15,-60.85,25.0,24.0,0,0,,6.21,29.822834,,,,,,TRUE,,,,VCSH,SCT,1600,,,,,,,VFR,,,,,,,,,,,,SPECI,13.0
TNCM 230900Z 03003KT 9999 FEW020 26/24 Q1013 ,TNCM,2022-10-23T09:00:00Z,18.05,-63.12,26.0,24.0,30,3,,6.21,29.911417,,,,,,,,,,,FEW,2000,,,,,,,VFR,,,,,,,,,,,,METAR,9.0
TNCC 230900Z 10009KT 9999 VCSH FEW016TCU 28/24 Q1010 NOSIG,TNCC,2022-10-23T09:00:00Z,12.2,-68.97,28.0,24.0,100,9,,6.21,29.822834,,,,,,TRUE,,,,VCSH,FEW,1600,,,,,,,VFR,,,,,,,,,,,,METAR,10.0
TLPL 230900Z 05006KT 9999 FEW025 26/23 Q1011 NOSIG,TLPL,2022-10-23T09:00:00Z,13.75,-60.95,26.0,23.0,50,6,,6.21,29.852362,,,,,,TRUE,,,,,FEW,2500,,,,,,,VFR,,,,,,,,,,,,METAR,13.0
TGPY 230900Z 08005KT 9999 FEW017 27/25 Q1010 TEMPO SHRA RMK VCSH-S,TGPY,2022-10-23T09:00:00Z,12.0,-61.78,27.0,25.0,80,5,,6.21,29.822834,,,,,,,,,,,FEW,1700,,,,,,,VFR,,,,,,,,,,,,SPECI,12.0
TBPB 230900Z 11009KT 9999 SCT018 27/24 Q1010 NOSIG,TBPB,2022-10-23T09:00:00Z,13.07,-59.48,27.0,24.0,110,9,,6.21,29.822834,,,,,,TRUE,,,,,SCT,1800,,,,,,,VFR,,,,,,,,,,,,METAR,55.0
TAPA 230900Z VRB01KT 9999 FEW018 24/22 Q1012 NOSIG,TAPA,2022-10-23T09:00:00Z,17.13,-61.78,24.0,22.0,0,1,,6.21,29.88189,,,,,,TRUE,,,,,FEW,1800,,,,,,,VFR,,,,,,,,,,,,METAR,15.0
SYCJ 230900Z VRB02KT 9999 FEW015 25/25 Q1010 NOSIG,SYCJ,2022-10-23T09:00:00Z,6.5,-58.25,25.0,25.0,0,2,,6.21,29.822834,,,,,,TRUE,,,,,FEW,1500,,,,,,,VFR,,,,,,,,,,,,METAR,30.0
SUMU 230900Z 14008KT 9999 BKN020 13/09 Q1022 NOSIG,SUMU,2022-10-23T09:00:00Z,-34.83,-56.02,13.0,9.0,140,8,,6.21,30.177166,,,,,,TRUE,,,,,BKN,2000,,,,,,,MVFR,,,,,,,,,,,,METAR,32.0
SULS 230900Z 15010KT 9999 SCT015 12/08 Q1021,SULS,2022-10-23T09:00:00Z,-34.87,-55.1,12.0,8.0,150,10,,6.21,30.147638,,,,,,,,,,,SCT,1500,,,,,,,VFR,,,,,,,,,,,,METAR,22.0
SPSO 230900Z VRB02KT 5000 BR OVC007 15/13 Q1014 RMK PP000,SPSO,2022-10-23T09:00:00Z,-13.73,-76.22,15.0,13.0,0,2,,3.11,29.940945,,,,,,,,,,BR,OVC,700,,,,,,,IFR,,,,,,,,,,,,METAR,8.0
SPRU 230900Z 15007KT 5000 BR OVC011 15/13 Q1014 RMK PP000,SPRU,2022-10-23T09:00:00Z,-8.08,-79.12,15.0,13.0,150,7,,3.11,29.940945,,,,,,,,,,BR,OVC,1100,,,,,,,MVFR,,,,,,,,,,,,SPECI,23.0
SPQT 230900Z VRB02KT 8000 -RA SCT005 OVC100 24/23 Q1009 NOSIG RMK PP038,SPQT,2022-10-23T09:00:00Z,-3.78,-73.32,24.0,23.0,0,2,,4.97,29.793306,,,,,,TRUE,,,,-RA,SCT,500,OVC,10000,,,,,MVFR,,,,,,,,,,,,METAR,92.0
SPJC 230900Z 16007KT 9999 OVC012 15/12 Q1014 NOSIG RMK PP000,SPJC,2022-10-23T09:00:00Z,-12.02,-77.12,15.0,12.0,160,7,,6.21,29.940945,,,,,,TRUE,,,,,OVC,1200,,,,,,,MVFR,,,,,,,,,,,,METAR,26.0
SMZO 230900Z 00000KT 9999 FEW010 26/25 Q1010 NOSIG,SMZO,2022-10-23T09:00:00Z,5.82,-55.18,26.0,25.0,0,0,,6.21,29.822834,,,,,,TRUE,,,,,FEW,1000,,,,,,,VFR,,,,,,,,,,,,METAR,7.0
SMJP 230900Z 10004KT 9999 FEW002 25/25 Q1010 NOSIG,SMJP,2022-10-23T09:00:00Z,5.45,-55.18,25.0,25.0,100,4,,6.21,29.822834,,,,,,TRUE,,,,,FEW,200,,,,,,,VFR,,,,,,,,,,,,METAR,14.0
SLVR 230900Z 25004KT 9999 FEW017 SCT070 21/18 Q1013,SLVR,2022-10-23T09:00:00Z,-17.63,-63.13,21.0,18.0,250,4,,6.21,29.911417,,,,,,,,,,,FEW,1700,SCT,7000,,,,,VFR,,,,,,,,,,,,METAR,377.0
SLLP 230900Z 10003KT 4000E VCFG FEW002 SCT200 01/M00 Q1037,SLLP,2022-10-23T09:00:00Z,-16.52,-68.17,1.0,0.0,100,3,,2.49,30.620079,,,,,,,,,,VCFG,FEW,200,SCT,20000,,,,,IFR,,,,,,,,,,,,METAR,4061.0
SLET 230900Z VRB02KT 9999 SCT070 22/19 Q1013,SLET,2022-10-23T09:00:00Z,-17.8,-63.17,22.0,19.0,0,2,,6.21,29.911417,,,,,,,,,,,SCT,7000,,,,,,,VFR,,,,,,,,,,,,METAR,421.0
SLCB 230900Z 15008KT 090V200 9999 FEW033 BKN200 16/07 Q1026,SLCB,2022-10-23T09:00:00Z,-17.42,-66.18,16.0,7.0,150,8,,6.21,30.295275,,,,,,,,,,,FEW,3300,BKN,20000,,,,,VFR,,,,,,,,,,,,METAR,2560.0
SKSP 230900Z 06008KT 9999 FEW016 28/25 Q1009 RMK A2982,SKSP,2022-10-23T09:00:00Z,12.58,-81.72,28.0,25.0,60,8,,6.21,29.793306,,,,,,,,,,,FEW,1600,,,,,,,VFR,,,,,,,,,,,,METAR,6.0
SKRG 230900Z 23005KT 6000 VCFG BKN006 SCT010 13/13 Q1024 TEMPO FM1015 3000 BCFG BKN004 RMK A3025,SKRG,2022-10-23T09:00:00Z,6.17,-75.42,13.0,13.0,230,5,,3.73,30.236221,,,,,,,,,,VCFG,BKN,600,SCT,1000,,,,,IFR,,,,,,,,,,,,METAR,2132.0
SKLT 230900Z 00000KT 9999 -RA SCT010 OVC080 24/23 Q1009 RMK A2981,SKLT,2022-10-23T09:00:00Z,-4.2,-69.93,24.0,23.0,0,0,,6.21,29.793306,,,,,,,,,,-RA,SCT,1000,OVC,8000,,,,,VFR,,,,,,,,,,,,METAR,78.0
SKCL 230900Z 00000KT 5000 BR BKN004 20/20 Q1015 NOSIG RMK A2998,SKCL,2022-10-23T09:00:00Z,3.53,-76.37,20.0,20.0,0,0,,3.11,29.970472,,,,,,TRUE,,,,BR,BKN,400,,,,,,,LIFR,,,,,,,,,,,,METAR,967.0
SKCG 230900Z 05007KT 010V080 9999 FEW017TCU BKN039 25/24 Q1010 REDZ RMK TCU/NW A2982,SKCG,2022-10-23T09:00:00Z,10.43,-75.52,25.0,24.0,50,7,,6.21,29.822834,,,,,,,,,,,FEW,1700,BKN,3900,,,,,VFR,,,,,,,,,,,,METAR,6.0
SKBQ 230900Z VRB03KT 8000 -RA SCT010 SCT200 23/22 Q1009 NOSIG RMK CB LTNG/W A2982,SKBQ,2022-10-23T09:00:00Z,10.87,-74.77,23.0,22.0,0,3,,4.97,29.793306,,,,,,TRUE,,,,-RA,SCT,1000,SCT,20000,,,,,MVFR,,,,,,,,,,,,METAR,23.0
SKBO 230900Z 00000KT 9999 FEW015 OVC070 12/11 Q1025 NOSIG RMK A3028,SKBO,2022-10-23T09:00:00Z,4.7,-74.15,12.0,11.0,0,0,,6.21,30.265747,,,,,,TRUE,,,,,FEW,1500,OVC,7000,,,,,VFR,,,,,,,,,,,,METAR,2547.0
SGVR 230900Z 00000KT CAVOK 16/14 Q1015,SGVR,2022-10-23T09:00:00Z,-25.75,-56.43,16.0,14.0,0,0,,6.21,29.970472,,,,,,,,,,,CAVOK,,,,,,,,VFR,,,,,,,,,,,,METAR,161.0
SGSP 230900Z 00000KT CAVOK 19/18 Q1012,SGSP,2022-10-23T09:00:00Z,-24.03,-57.02,19.0,18.0,0,0,,6.21,29.88189,,,,,,,,,,,CAVOK,,,,,,,,VFR,,,,,,,,,,,,METAR,81.0
SGSJ 230900Z 14002KT CAVOK 17/14 Q1015,SGSJ,2022-10-23T09:00:00Z,-26.67,-57.13,17.0,14.0,140,2,,6.21,29.970472,,,,,,,,,,,CAVOK,,,,,,,,VFR,,,,,,,,,,,,METAR,131.0
SGPC 230900Z 13006KT CAVOK 16/14 Q1014,SGPC,2022-10-23T09:00:00Z,-23.5,-58.78,16.0,14.0,130,6,,6.21,29.940945,,,,,,,,,,,CAVOK,,,,,,,,VFR,,,,,,,,,,,,METAR,98.0
SGME 230900Z 00000KT CAVOK 20/15 Q1013,SGME,2022-10-23T09:00:00Z,-22.03,-60.62,20.0,15.0,0,0,,6.21,29.911417,,,,,,,,,,,CAVOK,,,,,,,,VFR,,,,,,,,,,,,METAR,166.0
SGLV 230900Z 14002KT CAVOK 19/15 Q1014,SGLV,2022-10-23T09:00:00Z,-22.28,-57.93,19.0,15.0,140,2,,6.21,29.940945,,,,,,,,,,,CAVOK,,,,,,,,VFR,,,,,,,,,,,,METAR,78.0
SGGR 230900Z 00000KT CAVOK 16/16 Q1015,SGGR,2022-10-23T09:00:00Z,-24.03,-54.35,16.0,16.0,0,0,,6.21,29.970472,,,,,,,,,,,CAVOK,,,,,,,,VFR,,,,,,,,,,,,METAR,297.0
SGCO 230900Z 11003KT CAVOK 18/16 Q1015,SGCO,2022-10-23T09:00:00Z,-23.43,-57.42,18.0,16.0,110,3,,6.21,29.970472,,,,,,,,,,,CAVOK,,,,,,,,VFR,,,,,,,,,,,,METAR,74.0
SEMT 230900Z 21006KT 9999 OVC020 22/19 Q1012,SEMT,2022-10-23T09:00:00Z,-0.95,-80.67,22.0,19.0,210,6,,6.21,29.88189,,,,,,,,,,,OVC,2000,,,,,,,MVFR,,,,,,,,,,,,SPECI,13.0
SELT 230900Z 19002KT 9999 SCT010 SCT030 BKN100 10/10 Q1028,SELT,2022-10-23T09:00:00Z,-0.92,-78.62,10.0,10.0,190,2,,6.21,30.35433,,,,,,,,,,,SCT,1000,SCT,3000,BKN,10000,,,VFR,,,,,,,,,,,,METAR,2779.0
SEGU 230900Z 22010KT 9999 SCT013 BKN026 BKN100 22/19 Q1011 NOSIG RMK A2987,SEGU,2022-10-23T09:00:00Z,-2.15,-79.88,22.0,19.0,220,10,,6.21,29.852362,,,,,,TRUE,,,,,SCT,1300,BKN,2600,BKN,10000,,,MVFR,,,,,,,,,,,,SPECI,6.0
SECU 230900Z AUTO 17002KT ////NDV ////// 13/12 Q1025 A3026,SECU,2022-10-23T09:00:00Z,-2.88,-78.98,13.0,12.0,170,2,,,30.265747,,,TRUE,,,,,,,,,,,,,,,,,,,,,,,,,,,,METAR,2516.0
SCVM 230900Z VRB02KT 6000 OVC008 10/08 Q1018,SCVM,2022-10-23T09:00:00Z,-32.95,-71.48,10.0,8.0,0,2,,3.73,30.059055,,,,,,,,,,,OVC,800,,,,,,,IFR,,,,,,,,,,,,METAR,136.0
SCVD 230900Z AUTO VRB02KT 9999 OVC030 06/06 Q1017,SCVD,2022-10-23T09:00:00Z,-39.65,-73.08,6.0,6.0,0,2,,6.21,30.029528,,,TRUE,,,,,,,,OVC,3000,,,,,,,MVFR,,,,,,,,,,,,METAR,19.0
SCTN 230900Z AUTO 34010KT 9999 OVC026 08/05 Q1015,SCTN,2022-10-23T09:00:00Z,-42.92,-72.7,8.0,5.0,340,10,,6.21,29.970472,,,TRUE,,,,,,,,OVC,2600,,,,,,,MVFR,,,,,,,,,,,,METAR,8.0
SCTE 230900Z VRB02KT 9999 SCT030 03/02 Q1016 NOSIG,SCTE,2022-10-23T09:00:00Z,-41.43,-73.08,3.0,2.0,0,2,,6.21,30.0,,,,,,TRUE,,,,,SCT,3000,,,,,,,VFR,,,,,,,,,,,,METAR,85.0
SCSN 230900Z AUTO 24005KT 210V270 //// R/////// // OVC010 10/09 Q1018,SCSN,2022-10-23T09:00:00Z,-33.65,-71.62,10.0,9.0,240,5,,,30.059055,,,TRUE,,,,,,,,OVC,1000,,,,,,,,,,,,,,,,,,,METAR,73.0
SCSE 230900Z AUTO 22006KT 9999 OVC007/// 11/10 Q1017,SCSE,2022-10-23T09:00:00Z,-29.92,-71.2,11.0,10.0,220,6,,6.21,30.029528,,,TRUE,,,,,,,,OVC,700,,,,,,,IFR,,,,,,,,,,,,METAR,141.0
SCRM 230900Z 28020KT 8000 VCFG SCT030 M03/M06 Q0990 NOSIG,SCRM,2022-10-23T09:00:00Z,-62.18,-58.98,-3.0,-6.0,280,20,,4.97,29.232283,,,,,,TRUE,,,,VCFG,SCT,3000,,,,,,,MVFR,,,,,,,,,,,,METAR,45.0
SCQP 230900Z AUTO 33003KT 1100 0600 R01/0800VP2000D FG FEW003 BKN007 BKN023 03/03 Q1017,SCQP,2022-10-23T09:00:00Z,-38.92,-72.65,3.0,3.0,330,3,,0.68,30.029528,,,TRUE,,,,,,,FG,FEW,300,BKN,700,BKN,2300,,,LIFR,,,,,,,,,,,,METAR,97.0
SCPQ 230900Z AUTO 33005KT 300V360 9999 OVC023 05/03 Q1014,SCPQ,2022-10-23T09:00:00Z,-42.33,-73.72,5.0,3.0,330,5,,6.21,29.940945,,,TRUE,,,,,,,,OVC,2300,,,,,,,MVFR,,,,,,,,,,,,METAR,166.0
SCPD 230900Z AUTO 15002KT //// ///////// 08/03 Q1017,SCPD,2022-10-23T09:00:00Z,,,8.0,3.0,150,2,,,30.029528,,,TRUE,,,,,,,,,,,,,,,,,,,,,,,,,,,,METAR,
SCON 230900Z AUTO 01004KT 9999 BKN034/// BKN110/// 06/04 Q1015,SCON,2022-10-23T09:00:00Z,-43.13,-73.62,6.0,4.0,10,4,,6.21,29.970472,,,TRUE,,,,,,,,BKN,3400,BKN,11000,,,,,VFR,,,,,,,,,,,,METAR,11.0
SCMK 230900Z AUTO 35010KT //// // BKN033/// 08/05 Q1013,SCMK,2022-10-23T09:00:00Z,-43.9,-73.73,8.0,5.0,350,10,,,29.911417,,,TRUE,,,,,,,,BKN,3300,,,,,,,,,,,,,,,,,,,METAR,22.0
SCJO 230900Z AUTO VRB01KT CAVOK 01/01 Q1016,SCJO,2022-10-23T09:00:00Z,-40.6,-73.05,1.0,1.0,0,1,,6.21,30.0,,,TRUE,,,,,,,,CAVOK,,,,,,,,VFR,,,,,,,,,,,,METAR,61.0
SCIP 230900Z 19004KT 9999 SCT035 BKN045 17/13 Q1020 NOSIG,SCIP,2022-10-23T09:00:00Z,-27.17,-109.43,17.0,13.0,190,4,,6.21,30.11811,,,,,,TRUE,,,,,SCT,3500,BKN,4500,,,,,VFR,,,,,,,,,,,,METAR,48.0
SCIE 230900Z 25003KT 9999 BKN025 09/07 Q1018,SCIE,2022-10-23T09:00:00Z,-36.77,-73.07,9.0,7.0,250,3,,6.21,30.059055,,,,,,,,,,,BKN,2500,,,,,,,MVFR,,,,,,,,,,,,METAR,8.0
SCIC 230900Z AUTO 00000KT //// R/////// // VV002 07/04 Q1017,SCIC,2022-10-23T09:00:00Z,-34.97,-71.22,7.0,4.0,0,0,,,30.029528,,,TRUE,,,,,,,,OVX,0,,,,,,,LIFR,,,,,,,,,,,200,METAR,230.0
SCFT 230900Z AUTO VRB03KT 9999 FEW066/// 04/02 Q1011,SCFT,2022-10-23T09:00:00Z,-43.18,-71.85,4.0,2.0,0,3,,6.21,29.852362,,,TRUE,,,,,,,,FEW,6600,,,,,,,VFR,,,,,,,,,,,,METAR,345.0
SCFA 230900Z 19009KT 9999 OVC018 14/09 Q1016 NOSIG,SCFA,2022-10-23T09:00:00Z,-23.43,-70.43,14.0,9.0,190,9,,6.21,30.0,,,,,,TRUE,,,,,OVC,1800,,,,,,,MVFR,,,,,,,,,,,,METAR,113.0
SCEL 230900Z 17004KT CAVOK 09/06 Q1017 NOSIG,SCEL,2022-10-23T09:00:00Z,-33.38,-70.78,9.0,6.0,170,4,,6.21,30.029528,,,,,,TRUE,,,,,CAVOK,,,,,,,,VFR,,,,,,,,,,,,METAR,478.0
SCDA 230900Z 15006KT 9999 SCT017 14/10 Q1015,SCDA,2022-10-23T09:00:00Z,-20.53,-70.17,14.0,10.0,150,6,,6.21,29.970472,,,,,,,,,,,SCT,1700,,,,,,,VFR,,,,,,,,,,,,METAR,41.0
SCCY 230900Z AUTO 03003KT 300V090 CAVOK 04/M02 Q1008,SCCY,2022-10-23T09:00:00Z,-45.58,-72.1,4.0,-2.0,30,3,,6.21,29.763779,,,TRUE,,,,,,,,CAVOK,,,,,,,,VFR,,,,,,,,,,,,METAR,301.0
SCCI 230900Z 32011KT 9999 SCT0023 BKN080 06/04 Q0991 NOSIG,SCCI,2022-10-23T09:00:00Z,-53.0,-70.85,6.0,4.0,320,11,,6.21,29.26181,,,,,,TRUE,,,,,BKN,8000,,,,,,,VFR,,,,,,,,,,,,METAR,37.0
SCCH 230900Z AUTO 10005KT CAVOK 03/02 Q1017,SCCH,2022-10-23T09:00:00Z,-36.57,-72.02,3.0,2.0,100,5,,6.21,30.029528,,,TRUE,,,,,,,,CAVOK,,,,,,,,VFR,,,,,,,,,,,,METAR,148.0
SCCF 230900Z 11017KT CAVOK 08/M18 Q1026,SCCF,2022-10-23T09:00:00Z,-22.5,-68.9,8.0,-18.0,110,17,,6.21,30.295275,,,,,,,,,,,CAVOK,,,,,,,,VFR,,,,,,,,,,,,METAR,2290.0
SCBA 230900Z AUTO 31016KT 9999 SCT190/// 06/M06 Q1006,SCBA,2022-10-23T09:00:00Z,-45.92,-71.68,6.0,-6.0,310,16,,6.21,29.704725,,,TRUE,,,,,,,,SCT,19000,,,,,,,VFR,,,,,,,,,,,,METAR,516.0
SCAT 230900Z AUTO 29005KT 9999 OVC010/// 12/10 Q1017,SCAT,2022-10-23T09:00:00Z,-27.27,-70.77,12.0,10.0,290,5,,6.21,30.029528,,,TRUE,,,,,,,,OVC,1000,,,,,,,MVFR,,,,,,,,,,,,METAR,209.0
SCAR 230900Z 09003KT 9999 SCT014 13/09 Q1015,SCAR,2022-10-23T09:00:00Z,-18.35,-70.33,13.0,9.0,90,3,,6.21,29.970472,,,,,,,,,,,SCT,1400,,,,,,,VFR,,,,,,,,,,,,METAR,57.0
SCAP 230900Z AUTO /////KT ///V/// //// // ////// ///// Q////,SCAP,2022-10-23T09:00:00Z,-43.62,-71.8,,,,,,,,,,TRUE,,,,,,,,,,,,,,,,,,,,,,,,,,,,METAR,252.0
SBYS 230900Z 16007KT CAVOK 16/14 Q1017,SBYS,2022-10-23T09:00:00Z,-21.97,-47.33,16.0,14.0,160,7,,6.21,30.029528,,,,,,,,,,,CAVOK,,,,,,,,VFR,,,,,,,,,,,,METAR,600.0
SBVT 230900Z 29004KT 6000 -RA FEW008 BKN011 OVC024 21/20 Q1016 RERA,SBVT,2022-10-23T09:00:00Z,-20.25,-40.28,21.0,20.0,290,4,,3.73,30.0,,,,,,,,,,-RA,FEW,800,BKN,1100,OVC,2400,,,MVFR,,,,,,,,,,,,METAR,4.0
SBUR 230900Z 31006KT 9000 SCT020 SCT100 20/18 Q1016,SBUR,2022-10-23T09:00:00Z,-19.77,-47.97,20.0,18.0,310,6,,5.59,30.0,,,,,,,,,,,SCT,2000,SCT,10000,,,,,VFR,,,,,,,,,,,,METAR,807.0
SBUL 230900Z 15004KT 9999 FEW049 BKN080 20/15 Q1017,SBUL,2022-10-23T09:00:00Z,-18.87,-48.22,20.0,15.0,150,4,,6.21,30.029528,,,,,,,,,,,FEW,4900,BKN,8000,,,,,VFR,,,,,,,,,,,,METAR,945.0
SBTU 230900Z AUTO 22002KT //// // NCD 24/23 Q1012,SBTU,2022-10-23T09:00:00Z,-3.78,-49.72,24.0,23.0,220,2,,,29.88189,,,TRUE,,,,,,,,CLR,,,,,,,,,,,,,,,,,,,,SPECI,250.0
SBTE 230900Z 00000KT CAVOK 26/22 Q1012,SBTE,2022-10-23T09:00:00Z,-5.05,-42.82,26.0,22.0,0,0,,6.21,29.88189,,,,,,,,,,,CAVOK,,,,,,,,VFR,,,,,,,,,,,,METAR,60.0
SBTA 230900Z 30001KT CAVOK 15/14 Q1018,SBTA,2022-10-23T09:00:00Z,-23.03,-45.5,15.0,14.0,300,1,,6.21,30.059055,,,,,,,,,,,CAVOK,,,,,,,,VFR,,,,,,,,,,,,METAR,578.0
SBSV 230900Z 07012KT 9999 SCT016 26/23 Q1014,SBSV,2022-10-23T09:00:00Z,-12.9,-38.32,26.0,23.0,70,12,,6.21,29.940945,,,,,,,,,,,SCT,1600,,,,,,,VFR,,,,,,,,,,,,METAR,9.0
SBSR 230900Z 16005KT CAVOK 18/16 Q1015,SBSR,2022-10-23T09:00:00Z,-20.8,-49.4,18.0,16.0,160,5,,6.21,29.970472,,,,,,,,,,,CAVOK,,,,,,,,VFR,,,,,,,,,,,,METAR,537.0
SBSP 230900Z 08004KT 050V110 9999 FEW023 17/13 Q1019,SBSP,2022-10-23T09:00:00Z,-23.62,-46.65,17.0,13.0,80,4,,6.21,30.088583,,,,,,,,,,,FEW,2300,,,,,,,VFR,,,,,,,,,,,,METAR,802.0
SBSN 230900Z 18003KT 9999 FEW017 24/24 Q1010,SBSN,2022-10-23T09:00:00Z,-2.42,-54.78,24.0,24.0,180,3,,6.21,29.822834,,,,,,,,,,,FEW,1700,,,,,,,VFR,,,,,,,,,,,,METAR,57.0
SBSM 230900Z 26004KT 9999 FEW010 BKN030 15/13 Q1018,SBSM,2022-10-23T09:00:00Z,-29.72,-53.7,15.0,13.0,260,4,,6.21,30.059055,,,,,,,,,,,FEW,1000,BKN,3000,,,,,MVFR,,,,,,,,,,,,METAR,86.0
SBSL 230900Z 07009KT 9999 SCT017 BKN090 28/23 Q1011,SBSL,2022-10-23T09:00:00Z,-2.58,-44.23,28.0,23.0,70,9,,6.21,29.852362,,,,,,,,,,,SCT,1700,BKN,9000,,,,,VFR,,,,,,,,,,,,METAR,53.0
SBSJ 230900Z 00000KT CAVOK 15/13 Q1019,SBSJ,2022-10-23T09:00:00Z,-23.22,-45.87,15.0,13.0,0,0,,6.21,30.088583,,,,,,,,,,,CAVOK,,,,,,,,VFR,,,,,,,,,,,,METAR,640.0
SBSC 230900Z 31002KT 9999 SCT015 BKN035 21/20 Q1016,SBSC,2022-10-23T09:00:00Z,-22.92,-43.72,21.0,20.0,310,2,,6.21,30.0,,,,,,,,,,,SCT,1500,BKN,3500,,,,,VFR,,,,,,,,,,,,METAR,6.0
SBRP 230900Z 12006KT CAVOK 17/16 Q1015,SBRP,2022-10-23T09:00:00Z,-21.13,-47.77,17.0,16.0,120,6,,6.21,29.970472,,,,,,,,,,,CAVOK,,,,,,,,VFR,,,,,,,,,,,,METAR,550.0
SBRJ 230900Z 21004KT 9999 SCT012 SCT035 BKN050 22/20 Q1015,SBRJ,2022-10-23T09:00:00Z,-22.9,-43.17,22.0,20.0,210,4,,6.21,29.970472,,,,,,,,,,,SCT,1200,SCT,3500,BKN,5000,,,VFR,,,,,,,,,,,,METAR,6.0
SBRF 230900Z 06005KT 030V100 9999 SCT021 BKN070 27/21 Q1014,SBRF,2022-10-23T09:00:00Z,-8.13,-34.92,27.0,21.0,60,5,,6.21,29.940945,,,,,,,,,,,SCT,2100,BKN,7000,,,,,VFR,,,,,,,,,,,,METAR,10.0
SBRB 230900Z 14003KT 9999 FEW015 SCT050 23/22 Q1012,SBRB,2022-10-23T09:00:00Z,-9.87,-67.88,23.0,22.0,140,3,,6.21,29.88189,,,,,,,,,,,FEW,1500,SCT,5000,,,,,VFR,,,,,,,,,,,,METAR,190.0
SBPV 230900Z /////KT CAVOK 24/23 Q1010,SBPV,2022-10-23T09:00:00Z,-8.72,-63.9,24.0,23.0,,,,6.21,29.822834,,,,,,,,,,,CAVOK,,,,,,,,VFR,,,,,,,,,,,,SPECI,89.0
SBPS 230900Z 01004KT 9999 FEW020 SCT100 23/22 Q1014,SBPS,2022-10-23T09:00:00Z,-16.43,-39.07,23.0,22.0,10,4,,6.21,29.940945,,,,,,,,,,,FEW,2000,SCT,10000,,,,,VFR,,,,,,,,,,,,METAR,44.0
SBPR 230900Z 12004KT 9999 BKN030 20/17 Q1019,SBPR,2022-10-23T09:00:00Z,-19.9,-43.98,20.0,17.0,120,4,,6.21,30.088583,,,,,,,,,,,BKN,3000,,,,,,,MVFR,,,,,,,,,,,,METAR,936.0
SBPL 230900Z 15008KT 9999 BKN027 25/19 Q1015,SBPL,2022-10-23T09:00:00Z,-9.37,-40.57,25.0,19.0,150,8,,6.21,29.970472,,,,,,,,,,,BKN,2700,,,,,,,MVFR,,,,,,,,,,,,METAR,386.0
SBPJ 230900Z 13005KT 9999 FEW011 BKN100 23/22 Q1012,SBPJ,2022-10-23T09:00:00Z,-10.28,-48.37,23.0,22.0,130,5,,6.21,29.88189,,,,,,,,,,,FEW,1100,BKN,10000,,,,,VFR,,,,,,,,,,,,METAR,226.0
SBPA 230900Z 26004KT 9000 SCT004 BKN090 16/16 Q1016,SBPA,2022-10-23T09:00:00Z,-30.0,-51.17,16.0,16.0,260,4,,5.59,30.0,,,,,,,,,,,SCT,400,BKN,9000,,,,,VFR,,,,,,,,,,,,METAR,3.0
SBNT 230900Z 09006KT 9999 -RA BKN020 24/22 Q1014,SBNT,2022-10-23T09:00:00Z,-5.92,-35.25,24.0,22.0,90,6,,6.21,29.940945,,,,,,,,,,-RA,BKN,2000,,,,,,,MVFR,,,,,,,,,,,,METAR,51.0
SBNF 230900Z 24005KT 9999 FEW030 BKN060 19/17 Q1017,SBNF,2022-10-23T09:00:00Z,-26.88,-48.65,19.0,17.0,240,5,,6.21,30.029528,,,,,,,,,,,FEW,3000,BKN,6000,,,,,VFR,,,,,,,,,,,,METAR,5.0
SBMT 230900Z 07005KT CAVOK 16/14 Q1018,SBMT,2022-10-23T09:00:00Z,-23.52,-46.63,16.0,14.0,70,5,,6.21,30.059055,,,,,,,,,,,CAVOK,,,,,,,,VFR,,,,,,,,,,,,METAR,722.0
SBMQ 230900Z 08010KT 9999 SCT021 28/25 Q1010,SBMQ,2022-10-23T09:00:00Z,0.05,-51.07,28.0,25.0,80,10,,6.21,29.822834,,,,,,,,,,,SCT,2100,,,,,,,VFR,,,,,,,,,,,,METAR,15.0
SBMO 230900Z 01005KT CAVOK 23/22 Q1014,SBMO,2022-10-23T09:00:00Z,-9.52,-35.78,23.0,22.0,10,5,,6.21,29.940945,,,,,,,,,,,CAVOK,,,,,,,,VFR,,,,,,,,,,,,METAR,116.0
SBMN 230900Z 16002KT 9999 BKN003 25/24 Q1010,SBMN,2022-10-23T09:00:00Z,-3.13,-59.98,25.0,24.0,160,2,,6.21,29.822834,,,,,,,,,,,BKN,300,,,,,,,LIFR,,,,,,,,,,,,METAR,71.0
SBMK 230900Z 22007KT 9999 4000W -RA FEW050TCU BKN060 OVC100 22/18 Q1017,SBMK,2022-10-23T09:00:00Z,-16.7,-43.82,22.0,18.0,220,7,,6.21,30.029528,,,,,,,,,,-RA,FEW,5000,BKN,6000,OVC,10000,,,VFR,,,,,,,,,,,,METAR,665.0
SBMG 230900Z 12004KT CAVOK 19/16 Q1015,SBMG,2022-10-23T09:00:00Z,-23.48,-52.02,19.0,16.0,120,4,,6.21,29.970472,,,,,,,,,,,CAVOK,,,,,,,,VFR,,,,,,,,,,,,METAR,543.0
SBME 230900Z 24002KT CAVOK 22/20 Q1016,SBME,2022-10-23T09:00:00Z,-22.35,-41.77,22.0,20.0,240,2,,6.21,30.0,,,,,,,,,,,CAVOK,,,,,,,,VFR,,,,,,,,,,,,METAR,2.0
SBMA 230900Z 00000KT 5000 FU NSC 24/24 Q1011,SBMA,2022-10-23T09:00:00Z,-5.37,-49.13,24.0,24.0,0,0,,3.11,29.852362,,,,,,,,,,FU,CLR,,,,,,,,MVFR,,,,,,,,,,,,METAR,110.0
SBLS 230900Z 15009KT 9999 BKN043 19/18 Q1018,SBLS,2022-10-23T09:00:00Z,-19.67,-43.88,19.0,18.0,150,9,,6.21,30.059055,,,,,,,,,,,BKN,4300,,,,,,,VFR,,,,,,,,,,,,METAR,850.0
SBLO 230900Z 10004KT 9999 BKN012 18/17 Q1017,SBLO,2022-10-23T09:00:00Z,-23.33,-51.12,18.0,17.0,100,4,,6.21,30.029528,,,,,,,,,,,BKN,1200,,,,,,,MVFR,,,,,,,,,,,,METAR,563.0
SBLE 230900Z AUTO 05005KT 9999 -RA ///////// 20/19 Q1017,SBLE,2022-10-23T09:00:00Z,-12.48,-41.28,20.0,19.0,50,5,,6.21,30.029528,,,TRUE,,,,,,,-RA,,,,,,,,,,,,,,,,,,,,,METAR,495.0
SBKP 230900Z 13013KT CAVOK 17/13 Q1017,SBKP,2022-10-23T09:00:00Z,-23.0,-47.13,17.0,13.0,130,13,,6.21,30.029528,,,,,,,,,,,CAVOK,,,,,,,,VFR,,,,,,,,,,,,METAR,659.0
SBKG 230900Z 07009KT 9999 BKN010 21/20 Q1016,SBKG,2022-10-23T09:00:00Z,-7.27,-35.88,21.0,20.0,70,9,,6.21,30.0,,,,,,,,,,,BKN,1000,,,,,,,MVFR,,,,,,,,,,,,METAR,499.0
SBJV 230900Z 15001KT 9999 FEW010 OVC030 18/18 Q1017,SBJV,2022-10-23T09:00:00Z,-26.22,-48.8,18.0,18.0,150,1,,6.21,30.029528,,,,,,,,,,,FEW,1000,OVC,3000,,,,,MVFR,,,,,,,,,,,,METAR,3.0
SBJU 230900Z 08004KT 9999 FEW010 BKN018 23/22 Q1017,SBJU,2022-10-23T09:00:00Z,-7.22,-39.27,23.0,22.0,80,4,,6.21,30.029528,,,,,,,,,,,FEW,1000,BKN,1800,,,,,MVFR,,,,,,,,,,,,METAR,407.0
SBJP 230900Z 34003KT 9999 BKN020 24/22 Q1014,SBJP,2022-10-23T09:00:00Z,-7.15,-34.95,24.0,22.0,340,3,,6.21,29.940945,,,,,,,,,,,BKN,2000,,,,,,,MVFR,,,,,,,,,,,,METAR,66.0
SBIZ 230900Z 04004KT CAVOK 28/23 Q1011,SBIZ,2022-10-23T09:00:00Z,-5.52,-47.45,28.0,23.0,40,4,,6.21,29.852362,,,,,,,,,,,CAVOK,,,,,,,,VFR,,,,,,,,,,,,METAR,131.0
SBIP 230900Z AUTO 25004KT 9999 FEW023 BKN034 OVC039 21/19 Q1016,SBIP,2022-10-23T09:00:00Z,-19.47,-42.48,21.0,19.0,250,4,,6.21,30.0,,,TRUE,,,,,,,,FEW,2300,BKN,3400,OVC,3900,,,VFR,,,,,,,,,,,,METAR,240.0
SBGW 230900Z VRB02KT 8000 BKN020 17/17 Q1019,SBGW,2022-10-23T09:00:00Z,-22.78,-45.2,17.0,17.0,0,2,,4.97,30.088583,,,,,,,,,,,BKN,2000,,,,,,,MVFR,,,,,,,,,,,,METAR,539.0
SBGR 230900Z 07004KT CAVOK 15/14 Q1019,SBGR,2022-10-23T09:00:00Z,-23.42,-46.47,15.0,14.0,70,4,,6.21,30.088583,,,,,,,,,,,CAVOK,,,,,,,,VFR,,,,,,,,,,,,METAR,745.0
SBGO 230900Z 06005G16KT 4000 -RA FEW004 SCT040 OVC070 20/19 Q1017,SBGO,2022-10-23T09:00:00Z,-16.62,-49.22,20.0,19.0,60,5,16,2.49,30.029528,,,,,,,,,,-RA,FEW,400,SCT,4000,OVC,7000,,,IFR,,,,,,,,,,,,METAR,740.0
SBGL 230900Z 30002KT 9999 FEW008 21/19 Q1016,SBGL,2022-10-23T09:00:00Z,-22.82,-43.25,21.0,19.0,300,2,,6.21,30.0,,,,,,,,,,,FEW,800,,,,,,,VFR,,,,,,,,,,,,METAR,3.0
SBFZ 230900Z 11009KT 9999 BKN023 BKN070 26/23 Q1013,SBFZ,2022-10-23T09:00:00Z,-3.77,-38.52,26.0,23.0,110,9,,6.21,29.911417,,,,,,,,,,,BKN,2300,BKN,7000,,,,,MVFR,,,,,,,,,,,,METAR,32.0
SBFN 230900Z AUTO 12007KT 090V150 9999 FEW019 26/22 Q1014,SBFN,2022-10-23T09:00:00Z,-3.85,-32.42,26.0,22.0,120,7,,6.21,29.940945,,,TRUE,,,,,,,,FEW,1900,,,,,,,VFR,,,,,,,,,,,,METAR,52.0
SBFL 230900Z VRB02KT 9999 SCT035 17/16 Q1017,SBFL,2022-10-23T09:00:00Z,-27.67,-48.53,17.0,16.0,0,2,,6.21,30.029528,,,,,,,,,,,SCT,3500,,,,,,,VFR,,,,,,,,,,,,METAR,5.0
SBFI 230900Z 34001KT CAVOK 15/14 Q1016,SBFI,2022-10-23T09:00:00Z,-25.6,-54.48,15.0,14.0,340,1,,6.21,30.0,,,,,,,,,,,CAVOK,,,,,,,,VFR,,,,,,,,,,,,METAR,233.0
SBES 230900Z 26005KT 190V310 9999 FEW013 BKN020 22/20 Q1016,SBES,2022-10-23T09:00:00Z,-22.82,-42.1,22.0,20.0,260,5,,6.21,30.0,,,,,,,,,,,FEW,1300,BKN,2000,,,,,MVFR,,,,,,,,,,,,METAR,16.0
SBEG 230900Z 09003KT 9999 BKN009 25/24 Q1010,SBEG,2022-10-23T09:00:00Z,-3.03,-60.03,25.0,24.0,90,3,,6.21,29.822834,,,,,,,,,,,BKN,900,,,,,,,IFR,,,,,,,,,,,,METAR,69.0
SBDN 230900Z 12005KT CAVOK 17/16 Q1015,SBDN,2022-10-23T09:00:00Z,-22.18,-51.43,17.0,16.0,120,5,,6.21,29.970472,,,,,,,,,,,CAVOK,,,,,,,,VFR,,,,,,,,,,,,METAR,438.0
SBCY 230900Z 34002KT 9999 FEW020 SCT100 24/23 Q1012,SBCY,2022-10-23T09:00:00Z,-15.65,-56.12,24.0,23.0,340,2,,6.21,29.88189,,,,,,,,,,,FEW,2000,SCT,10000,,,,,VFR,,,,,,,,,,,,METAR,182.0
SBCT 230900Z 07004KT 9999 BKN010 13/13 Q1019,SBCT,2022-10-23T09:00:00Z,-25.52,-49.17,13.0,13.0,70,4,,6.21,30.088583,,,,,,,,,,,BKN,1000,,,,,,,MVFR,,,,,,,,,,,,METAR,914.0
SBCO 230900Z 29004KT 8000 FEW011 BKN045 BKN080 16/15 Q1016,SBCO,2022-10-23T09:00:00Z,-29.95,-51.15,16.0,15.0,290,4,,4.97,30.0,,,,,,,,,,,FEW,1100,BKN,4500,BKN,8000,,,MVFR,,,,,,,,,,,,METAR,8.0
SBCH 230900Z 05002KT CAVOK 14/13 Q1018,SBCH,2022-10-23T09:00:00Z,-27.13,-52.67,14.0,13.0,50,2,,6.21,30.059055,,,,,,,,,,,CAVOK,,,,,,,,VFR,,,,,,,,,,,,METAR,639.0
SBCG 230900Z 15007KT CAVOK 17/15 Q1015,SBCG,2022-10-23T09:00:00Z,-20.47,-54.67,17.0,15.0,150,7,,6.21,29.970472,,,,,,,,,,,CAVOK,,,,,,,,VFR,,,,,,,,,,,,METAR,556.0
SBCF 230900Z 12004KT 9999 SCT045 BKN100 19/17 Q1018,SBCF,2022-10-23T09:00:00Z,-19.63,-43.97,19.0,17.0,120,4,,6.21,30.059055,,,,,,,,,,,SCT,4500,BKN,10000,,,,,VFR,,,,,,,,,,,,METAR,825.0
SBCB 230900Z 25010KT 9999 BKN020 23/21 Q1016,SBCB,2022-10-23T09:00:00Z,-22.92,-42.08,23.0,21.0,250,10,,6.21,30.0,,,,,,,,,,,BKN,2000,,,,,,,MVFR,,,,,,,,,,,,METAR,3.0
SBBV 230900Z 09002KT CAVOK 26/23 Q1009,SBBV,2022-10-23T09:00:00Z,2.85,-60.7,26.0,23.0,90,2,,6.21,29.793306,,,,,,,,,,,CAVOK,,,,,,,,VFR,,,,,,,,,,,,METAR,80.0
SBBU 230900Z 14012KT CAVOK 17/15 Q1016,SBBU,2022-10-23T09:00:00Z,-22.33,-49.07,17.0,15.0,140,12,,6.21,30.0,,,,,,,,,,,CAVOK,,,,,,,,VFR,,,,,,,,,,,,METAR,616.0
SBBR 230900Z 19004KT 9999 -RA FEW017 BKN080 19/18 Q1018,SBBR,2022-10-23T09:00:00Z,-15.87,-47.92,19.0,18.0,190,4,,6.21,30.059055,,,,,,,,,,-RA,FEW,1700,BKN,8000,,,,,VFR,,,,,,,,,,,,METAR,1051.0
SBBH 230900Z 07005KT 9999 SCT040 BKN100 20/16 Q1018,SBBH,2022-10-23T09:00:00Z,-19.85,-43.95,20.0,16.0,70,5,,6.21,30.059055,,,,,,,,,,,SCT,4000,BKN,10000,,,,,VFR,,,,,,,,,,,,METAR,799.0
SBBG 230900Z AUTO 22007KT 9999 OVC016 11/09 Q1019,SBBG,2022-10-23T09:00:00Z,-31.38,-54.12,11.0,9.0,220,7,,6.21,30.088583,,,TRUE,,,,,,,,OVC,1600,,,,,,,MVFR,,,,,,,,,,,,METAR,182.0
SBBE 230900Z 11006KT 9000 NSC 24/23 Q1011,SBBE,2022-10-23T09:00:00Z,-1.37,-48.47,24.0,23.0,110,6,,5.59,29.852362,,,,,,,,,,,CLR,,,,,,,,VFR,,,,,,,,,,,,METAR,16.0
SBAX 230900Z AUTO 22003KT CAVOK 20/16 Q1018,SBAX,2022-10-23T09:00:00Z,-19.57,-46.97,20.0,16.0,220,3,,6.21,30.059055,,,TRUE,,,,,,,,CAVOK,,,,,,,,VFR,,,,,,,,,,,,METAR,989.0
SBAR 230900Z 03005KT 350V070 9999 BKN035 BKN080 25/21 Q1014,SBAR,2022-10-23T09:00:00Z,-10.98,-37.07,25.0,21.0,30,5,,6.21,29.940945,,,,,,,,,,,BKN,3500,BKN,8000,,,,,VFR,,,,,,,,,,,,METAR,4.0
SBAN 230900Z 21007KT CAVOK 19/18 Q1019,SBAN,2022-10-23T09:00:00Z,-16.22,-48.97,19.0,18.0,210,7,,6.21,30.088583,,,,,,,,,,,CAVOK,,,,,,,,VFR,,,,,,,,,,,,METAR,1131.0
SAZS 230900Z 31012KT 9999 FEW100 SCT200 10/03 Q1012 RMK PP///,SAZS,2022-10-23T09:00:00Z,-41.15,-71.17,10.0,3.0,310,12,,6.21,29.88189,,,,,,,,,,,FEW,10000,SCT,20000,,,,,VFR,,,,,,,,,,,,SPECI,843.0
SAZN 230900Z 11003KT CAVOK 12/05 Q1013,SAZN,2022-10-23T09:00:00Z,-38.95,-68.15,12.0,5.0,110,3,,6.21,29.911417,,,,,,,,,,,CAVOK,,,,,,,,VFR,,,,,,,,,,,,METAR,273.0
SAZM 230900Z 00000KT CAVOK M01/M01 Q1024 RMK PP///,SAZM,2022-10-23T09:00:00Z,-37.92,-57.57,-1.0,-1.0,0,0,,6.21,30.236221,,,,,,,,,,,CAVOK,,,,,,,,VFR,,,,,,,,,,,,SPECI,17.0
SAWH 230900Z 10004KT 030V150 CAVOK 07/02 Q0990 RMK PP000,SAWH,2022-10-23T09:00:00Z,-54.85,-68.3,7.0,2.0,100,4,,6.21,29.232283,,,,,,,,,,,CAVOK,,,,,,,,VFR,,,,,,,,,,,,METAR,22.0
SAWG 230900Z 33004KT 9999 SCT045 SCT058 BKN200 07/01 Q0995,SAWG,2022-10-23T09:00:00Z,-51.62,-69.27,7.0,1.0,330,4,,6.21,29.379921,,,,,,,,,,,SCT,4500,SCT,5800,BKN,20000,,,VFR,,,,,,,,,,,,METAR,15.0
SAWE 230900Z 31011KT 9999 -RA SCT040 OVC070 07/06 Q0993 RMK PP000,SAWE,2022-10-23T09:00:00Z,-53.78,-67.75,7.0,6.0,310,11,,6.21,29.320866,,,,,,,,,,-RA,SCT,4000,OVC,7000,,,,,VFR,,,,,,,,,,,,SPECI,22.0
SAVC 230900Z 32011KT CAVOK 13/M08 Q1007 RMK PP000,SAVC,2022-10-23T09:00:00Z,-45.78,-67.47,13.0,-8.0,320,11,,6.21,29.734253,,,,,,,,,,,CAVOK,,,,,,,,VFR,,,,,,,,,,,,SPECI,58.0
SASJ 230900Z 17006KT 9999 BKN060 19/10 Q1019 RMK PP000,SASJ,2022-10-23T09:00:00Z,-24.38,-65.1,19.0,10.0,170,6,,6.21,30.088583,,,,,,,,,,,BKN,6000,,,,,,,VFR,,,,,,,,,,,,SPECI,913.0
SASA 230900Z VRB02KT 9999 BKN050 17/10 Q1020 RMK PP000,SASA,2022-10-23T09:00:00Z,-24.85,-65.48,17.0,10.0,0,2,,6.21,30.11811,,,,,,,,,,,BKN,5000,,,,,,,VFR,,,,,,,,,,,,SPECI,1235.0
SARP 230900Z 18003KT CAVOK 17/15 Q1016,SARP,2022-10-23T09:00:00Z,-27.38,-55.97,17.0,15.0,180,3,,6.21,30.0,,,,,,,,,,,CAVOK,,,,,,,,VFR,,,,,,,,,,,,METAR,123.0
SARL 230900Z 18008KT CAVOK 13/12 Q1019,SARL,2022-10-23T09:00:00Z,-29.68,-57.15,13.0,12.0,180,8,,6.21,30.088583,,,,,,,,,,,CAVOK,,,,,,,,VFR,,,,,,,,,,,,METAR,70.0
SARI 230900Z VRB02KT 9000 NSC 15/15 Q1016 RMK PP000,SARI,2022-10-23T09:00:00Z,-25.73,-54.47,15.0,15.0,0,2,,5.59,30.0,,,,,,,,,,,CLR,,,,,,,,VFR,,,,,,,,,,,,SPECI,268.0
SARF 230900Z 180007KT CAVOK 17/17 Q1016,SARF,2022-10-23T09:00:00Z,-26.22,-58.22,17.0,17.0,180,7,,6.21,30.0,,,,,,,,,,,CAVOK,,,,,,,,VFR,,,,,,,,,,,,METAR,65.0
SARE 230900Z 14008KT 9999 FEW012 17/15 Q1017 RMK PP///,SARE,2022-10-23T09:00:00Z,-27.43,-59.05,17.0,15.0,140,8,,6.21,30.029528,,,,,,,,,,,FEW,1200,,,,,,,VFR,,,,,,,,,,,,SPECI,52.0
SARC 230900Z 16008KT 9999 FEW013 16/15 Q1017,SARC,2022-10-23T09:00:00Z,-27.43,-58.77,16.0,15.0,160,8,,6.21,30.029528,,,,,,,,,,,FEW,1300,,,,,,,VFR,,,,,,,,,,,,METAR,60.0
SAOC 230900Z 02013KT CAVOK 08/05 Q1019,SAOC,2022-10-23T09:00:00Z,-33.08,-64.27,8.0,5.0,20,13,,6.21,30.088583,,,,,,,,,,,CAVOK,,,,,,,,VFR,,,,,,,,,,,,METAR,422.0
SANT 230900Z 10005KT 8000 OVC065 16/11 Q1019 RMK PP000,SANT,2022-10-23T09:00:00Z,-26.85,-65.1,16.0,11.0,100,5,,4.97,30.088583,,,,,,,,,,,OVC,6500,,,,,,,MVFR,,,,,,,,,,,,SPECI,446.0
SAME 230900Z 00000KT CAVOK 10/07 Q1016,SAME,2022-10-23T09:00:00Z,-32.82,-68.78,10.0,7.0,0,0,,6.21,30.0,,,,,,,,,,,CAVOK,,,,,,,,VFR,,,,,,,,,,,,METAR,709.0
SAEZ 230900Z 18003KT 9999 SCT035 06/05 Q1023 NOSIG RMK PP000,SAEZ,2022-10-23T09:00:00Z,-34.82,-58.53,6.0,5.0,180,3,,6.21,30.206694,,,,,,TRUE,,,,,SCT,3500,,,,,,,VFR,,,,,,,,,,,,SPECI,16.0
SADF 230900Z 20004KT 9999 SCT039 09/07 Q1022 RMK PP000,SADF,2022-10-23T09:00:00Z,-34.45,-58.58,9.0,7.0,200,4,,6.21,30.177166,,,,,,,,,,,SCT,3900,,,,,,,VFR,,,,,,,,,,,,METAR,4.0
SACO 230900Z 36007KT CAVOK 06/04 Q1020 NOSIG RMK PP000,SACO,2022-10-23T09:00:00Z,-31.32,-64.22,6.0,4.0,360,7,,6.21,30.11811,,,,,,TRUE,,,,,CAVOK,,,,,,,,VFR,,,,,,,,,,,,SPECI,474.0
SABE 230900Z 17005KT 140V200 9999 BKN038 12/07 Q1023 NOSIG RMK PP000,SABE,2022-10-23T09:00:00Z,-34.57,-58.42,12.0,7.0,170,5,,6.21,30.206694,,,,,,TRUE,,,,,BKN,3800,,,,,,,VFR,,,,,,,,,,,,SPECI,3.0
SAAR 230900Z 20004KT 7000 NSC 04/04 Q1022 RMK PP000,SAAR,2022-10-23T09:00:00Z,-32.92,-60.77,4.0,4.0,200,4,,4.35,30.177166,,,,,,,,,,,CLR,,,,,,,,MVFR,,,,,,,,,,,,SPECI,24.0
RPVM 230900Z VRB02KT 9999 FEW018CB BKN300 30/26 Q1008 RMK A2977 CB NW,RPVM,2022-10-23T09:00:00Z,10.32,123.98,30.0,26.0,0,2,,6.21,29.763779,,,,,,,,,,,FEW,1800,BKN,30000,,,,,VFR,,,,,,,,,,,,SPECI,9.0
RPMZ 230900Z 27009KT 9999 FEW016CB BKN090 27/25 Q1007 RMK A2974 CB W-NW,RPMZ,2022-10-23T09:00:00Z,6.92,122.07,27.0,25.0,270,9,,6.21,29.734253,,,,,,,,,,,FEW,1600,BKN,9000,,,,,VFR,,,,,,,,,,,,METAR,8.0
RPMD 230900Z 28003KT 9999 FEW015CB SCT090 BKN260 29/23 Q1007 RMK A2974 CB W-NW,RPMD,2022-10-23T09:00:00Z,7.12,125.65,29.0,23.0,280,3,,6.21,29.734253,,,,,,,,,,,FEW,1500,SCT,9000,BKN,26000,,,VFR,,,,,,,,,,,,SPECI,19.0
RPLL 230900Z 12006KT 080V160 9999 -RA SCT023 BKN100 28/25 Q1008 NOSIG RMK A2977,RPLL,2022-10-23T09:00:00Z,14.52,121.0,28.0,25.0,120,6,,6.21,29.763779,,,,,,TRUE,,,,-RA,SCT,2300,BKN,10000,,,,,VFR,,,,,,,,,,,,SPECI,15.0
RPLI 230900Z 11005KT 8000 TS VCSH FEW017CB BKN280 30/25 Q1008 NOSIG RMK A2977 CB/VCSH E-S,RPLI,2022-10-23T09:00:00Z,18.17,120.52,30.0,25.0,110,5,,4.97,29.763779,,,,,,TRUE,,,,TS VCSH,FEW,1700,BKN,28000,,,,,MVFR,,,,,,,,,,,,SPECI,5.0
RPLB 230900Z 36004KT 300V070 9999 FEW018CB SCT020 BKN300 28/25 Q1009 NOSIG RMK A2980 CB NW,RPLB,2022-10-23T09:00:00Z,14.8,120.27,28.0,25.0,360,4,,6.21,29.793306,,,,,,TRUE,,,,,FEW,1800,SCT,2000,BKN,30000,,,VFR,,,,,,,,,,,,SPECI,19.0
ROYN 230900Z AUTO 01024KT 9999 -RA FEW017 SCT027 BKN032 24/24 Q1014,ROYN,2022-10-23T09:00:00Z,24.47,122.97,24.0,24.0,10,24,,6.21,29.940945,,,TRUE,,,,,,,-RA,FEW,1700,SCT,2700,BKN,3200,,,VFR,,,,,,,,,,,,METAR,21.0
RORY 230900Z AUTO 02019KT 9999 FEW020 SCT034 OVC037 25/21 Q1011,RORY,2022-10-23T09:00:00Z,27.05,128.4,25.0,21.0,20,19,,6.21,29.852362,,,TRUE,,,,,,,,FEW,2000,SCT,3400,OVC,3700,,,VFR,,,,,,,,,,,,METAR,13.0
RORS 230900Z 02022KT 8000 -RA SCT010 SCT015 BKN070 25/23 Q1012,RORS,2022-10-23T09:00:00Z,24.82,125.15,25.0,23.0,20,22,,4.97,29.88189,,,,,,,,,,-RA,SCT,1000,SCT,1500,BKN,7000,,,MVFR,,,,,,,,,,,,METAR,13.0
RORK 230900Z AUTO 24006KT 9999 NSC 27/25 Q1008,RORK,2022-10-23T09:00:00Z,25.93,131.32,27.0,25.0,240,6,,6.21,29.763779,,,TRUE,,,,,,,,CLR,,,,,,,,VFR,,,,,,,,,,,,METAR,11.0
ROMY 230900Z 02019G29KT 9999 -SHRA FEW007 SCT010 BKN017 24/22 Q1012,ROMY,2022-10-23T09:00:00Z,24.78,125.27,24.0,22.0,20,19,29,6.21,29.88189,,,,,,,,,,-SHRA,FEW,700,SCT,1000,BKN,1700,,,MVFR,,,,,,,,,,,,METAR,38.0
ROMD 230900Z AUTO 23004KT 9999 FEW007 SCT140 BKN150 26/26 Q1008,ROMD,2022-10-23T09:00:00Z,25.83,131.25,26.0,26.0,230,4,,6.21,29.763779,,,TRUE,,,,,,,,FEW,700,SCT,14000,BKN,15000,,,VFR,,,,,,,,,,,,METAR,45.0
ROIG 230900Z 02013KT 9999 -SHRA FEW011 SCT018 BKN043 24/23 Q1013,ROIG,2022-10-23T09:00:00Z,24.38,124.23,24.0,23.0,20,13,,6.21,29.911417,,,,,,,,,,-SHRA,FEW,1100,SCT,1800,BKN,4300,,,VFR,,,,,,,,,,,,METAR,37.0
RKTU 230900Z 27004KT 9999 FEW040 13/06 Q1017,RKTU,2022-10-23T09:00:00Z,36.7,127.5,13.0,6.0,270,4,,6.21,30.029528,,,,,,,,,,,FEW,4000,,,,,,,VFR,,,,,,,,,,,,METAR,46.0
RKTN 230900Z 34005KT CAVOK 18/09 Q1016,RKTN,2022-10-23T09:00:00Z,35.88,128.65,18.0,9.0,340,5,,6.21,30.0,,,,,,,,,,,CAVOK,,,,,,,,VFR,,,,,,,,,,,,METAR,25.0
RKSS 230900Z 33014KT CAVOK 14/M02 Q1019 NOSIG,RKSS,2022-10-23T09:00:00Z,37.55,126.78,14.0,-2.0,330,14,,6.21,30.088583,,,,,,TRUE,,,,,CAVOK,,,,,,,,VFR,,,,,,,,,,,,METAR,18.0
RKSM 230900Z 32009KT 9999 SKC 16/M04 A3007,RKSM,2022-10-23T09:00:00Z,37.43,127.12,16.0,-4.0,320,9,,6.21,30.070866,,,,,,,,,,,SKC,,,,,,,,VFR,,,,,,,,,,,,METAR,18.0
RKPK 230900Z 04010KT CAVOK 19/09 Q1015,RKPK,2022-10-23T09:00:00Z,35.17,128.93,19.0,9.0,40,10,,6.21,29.970472,,,,,,,,,,,CAVOK,,,,,,,,VFR,,,,,,,,,,,,METAR,3.0
RKPC 230900Z 33008KT 300V030 9999 SCT030 16/10 Q1019 NOSIG,RKPC,2022-10-23T09:00:00Z,33.5,126.48,16.0,10.0,330,8,,6.21,30.088583,,,,,,TRUE,,,,,SCT,3000,,,,,,,VFR,,,,,,,,,,,,METAR,23.0
RKNY 230900Z 22005KT 9999 BKN025 11/10 Q1018 NOSIG,RKNY,2022-10-23T09:00:00Z,38.07,128.67,11.0,10.0,220,5,,6.21,30.059055,,,,,,TRUE,,,,,BKN,2500,,,,,,,MVFR,,,,,,,,,,,,METAR,76.0
RKJB 230900Z 36012KT CAVOK 14/05 Q1019 NOSIG,RKJB,2022-10-23T09:00:00Z,34.98,126.38,14.0,5.0,360,12,,6.21,30.088583,,,,,,TRUE,,,,,CAVOK,,,,,,,,VFR,,,,,,,,,,,,METAR,16.0
RJSY 230900Z 34007KT 300V030 9999 FEW010 BKN030 BKN040 13/07 Q1013,RJSY,2022-10-23T09:00:00Z,38.82,139.78,13.0,7.0,340,7,,6.21,29.911417,,,,,,,,,,,FEW,1000,BKN,3000,BKN,4000,,,MVFR,,,,,,,,,,,,METAR,17.0
RJSS 230900Z 01007KT 340V050 9999 -SHRA FEW020 SCT050 BKN100 15/11 Q1010,RJSS,2022-10-23T09:00:00Z,38.13,140.92,15.0,11.0,10,7,,6.21,29.822834,,,,,,,,,,-SHRA,FEW,2000,SCT,5000,BKN,10000,,,VFR,,,,,,,,,,,,METAR,5.0
RJSR 230900Z 23004KT 9999 FEW005 SCT035 BKN050 09/08 Q1013,RJSR,2022-10-23T09:00:00Z,40.18,140.37,9.0,8.0,230,4,,6.21,29.911417,,,,,,,,,,,FEW,500,SCT,3500,BKN,5000,,,VFR,,,,,,,,,,,,METAR,83.0
RJSM 230900Z 28008KT 9999 FEW015 BKN030 10/05 Q1012,RJSM,2022-10-23T09:00:00Z,40.7,141.37,10.0,5.0,280,8,,6.21,29.88189,,,,,,,,,,,FEW,1500,BKN,3000,,,,,MVFR,,,,,,,,,,,,METAR,31.0
RJSK 230900Z 33003KT 9999 FEW008 BKN045 BKN130 09/08 Q1013,RJSK,2022-10-23T09:00:00Z,39.62,140.22,9.0,8.0,330,3,,6.21,29.911417,,,,,,,,,,,FEW,800,BKN,4500,BKN,13000,,,VFR,,,,,,,,,,,,METAR,95.0
RJSI 230900Z VRB02KT 9999 FEW030 BKN050 11/08 Q1011,RJSI,2022-10-23T09:00:00Z,39.42,141.13,11.0,8.0,0,2,,6.21,29.852362,,,,,,,,,,,FEW,3000,BKN,5000,,,,,VFR,,,,,,,,,,,,METAR,89.0
RJSF 230900Z 34010KT 9999 FEW015 SCT060 BKN090 14/11 Q1010,RJSF,2022-10-23T09:00:00Z,37.22,140.42,14.0,11.0,340,10,,6.21,29.822834,,,,,,,,,,,FEW,1500,SCT,6000,BKN,9000,,,VFR,,,,,,,,,,,,METAR,373.0
RJSC 230900Z 01011KT 9999 FEW030 SCT050 BKN070 12/09 Q1012,RJSC,2022-10-23T09:00:00Z,38.42,140.37,12.0,9.0,10,11,,6.21,29.88189,,,,,,,,,,,FEW,3000,SCT,5000,BKN,7000,,,VFR,,,,,,,,,,,,METAR,104.0
RJSA 230900Z 27004KT 9999 FEW010 SCT040 BKN060 08/05 Q1012,RJSA,2022-10-23T09:00:00Z,40.72,140.68,8.0,5.0,270,4,,6.21,29.88189,,,,,,,,,,,FEW,1000,SCT,4000,BKN,6000,,,VFR,,,,,,,,,,,,METAR,196.0
RJOY 230900Z 36006KT 320V030 9999 FEW030 22/11 Q1011,RJOY,2022-10-23T09:00:00Z,34.6,135.6,22.0,11.0,360,6,,6.21,29.852362,,,,,,,,,,,FEW,3000,,,,,,,VFR,,,,,,,,,,,,METAR,10.0
RJOW 230900Z VRB01KT 9999 FEW030 SCT035 17/12 Q1013,RJOW,2022-10-23T09:00:00Z,34.67,131.8,17.0,12.0,0,1,,6.21,29.911417,,,,,,,,,,,FEW,3000,SCT,3500,,,,,VFR,,,,,,,,,,,,METAR,54.0
RJOT 230900Z 14008KT 9999 FEW030 16/12 Q1012,RJOT,2022-10-23T09:00:00Z,34.22,134.02,16.0,12.0,140,8,,6.21,29.88189,,,,,,,,,,,FEW,3000,,,,,,,VFR,,,,,,,,,,,,METAR,181.0
RJOS 230900Z 29005KT 9999 FEW030 21/07 Q1011,RJOS,2022-10-23T09:00:00Z,34.12,134.62,21.0,7.0,290,5,,6.21,29.852362,,,,,,,,,,,FEW,3000,,,,,,,VFR,,,,,,,,,,,,METAR,3.0
RJOO 230900Z 34011KT 9999 FEW030 20/10 Q1011 RMK 1CU030 A2986,RJOO,2022-10-23T09:00:00Z,34.78,135.43,20.0,10.0,340,11,,6.21,29.852362,,,,,,,,,,,FEW,3000,,,,,,,VFR,,,,,,,,,,,,METAR,11.0
RJOM 230900Z 22005KT 9999 FEW030 21/15 Q1011,RJOM,2022-10-23T09:00:00Z,33.82,132.68,21.0,15.0,220,5,,6.21,29.852362,,,,,,,,,,,FEW,3000,,,,,,,VFR,,,,,,,,,,,,METAR,3.0
RJOK 230900Z 01006KT 9999 FEW030 22/15 Q1010,RJOK,2022-10-23T09:00:00Z,33.53,133.67,22.0,15.0,10,6,,6.21,29.822834,,,,,,,,,,,FEW,3000,,,,,,,VFR,,,,,,,,,,,,METAR,7.0
RJOH 230900Z 03014KT 8000 -SHRA FEW008 SCT015 BKN030 17/15 Q1013 RETS,RJOH,2022-10-23T09:00:00Z,35.48,133.25,17.0,15.0,30,14,,4.97,29.911417,,,,,,,,,,-SHRA,FEW,800,SCT,1500,BKN,3000,,,MVFR,,,,,,,,,,,,METAR,6.0
RJOC 230900Z 06018KT 9999 -SHRA FEW015 SCT025TCU BKN035 17/14 Q1013,RJOC,2022-10-23T09:00:00Z,35.42,132.88,17.0,14.0,60,18,,6.21,29.911417,,,,,,,,,,-SHRA,FEW,1500,SCT,2500,BKN,3500,,,VFR,,,,,,,,,,,,METAR,2.0
RJOB 230900Z 01003KT 340V050 9999 FEW025 SCT050 17/10 Q1012,RJOB,2022-10-23T09:00:00Z,34.75,133.85,17.0,10.0,10,3,,6.21,29.88189,,,,,,,,,,,FEW,2500,SCT,5000,,,,,VFR,,,,,,,,,,,,METAR,242.0
RJOA 230900Z 34009KT 300V360 9999 FEW025 18/11 Q1012,RJOA,2022-10-23T09:00:00Z,34.43,132.92,18.0,11.0,340,9,,6.21,29.88189,,,,,,,,,,,FEW,2500,,,,,,,VFR,,,,,,,,,,,,METAR,318.0
RJNW 230900Z 01003KT 320V090 9999 FEW010 SCT030 BKN070 11/09 Q1014,RJNW,2022-10-23T09:00:00Z,37.3,136.97,11.0,9.0,10,3,,6.21,29.940945,,,,,,,,,,,FEW,1000,SCT,3000,BKN,7000,,,VFR,,,,,,,,,,,,METAR,222.0
RJNT 230900Z 01012KT 9999 -SHRA FEW005 SCT010 BKN015 14/12 Q1014,RJNT,2022-10-23T09:00:00Z,36.63,137.18,14.0,12.0,10,12,,6.21,29.940945,,,,,,,,,,-SHRA,FEW,500,SCT,1000,BKN,1500,,,MVFR,,,,,,,,,,,,METAR,30.0
RJNS 230900Z 26014KT 9999 FEW030 SCT/// 20/08 Q1007,RJNS,2022-10-23T09:00:00Z,34.8,138.18,20.0,8.0,260,14,,6.21,29.734253,,,,,,,,,,,FEW,3000,,,,,,,VFR,,,,,,,,,,,,METAR,133.0
RJNK 230900Z 05013KT 9999 -SHRA FEW010 BKN020 BKN030 15/13 Q1013,RJNK,2022-10-23T09:00:00Z,36.38,136.42,15.0,13.0,50,13,,6.21,29.911417,,,,,,,,,,-SHRA,FEW,1000,BKN,2000,BKN,3000,,,MVFR,,,,,,,,,,,,METAR,7.0
RJKI 230900Z AUTO 02018KT 9999 SCT022 OVC044 24/20 Q1011,RJKI,2022-10-23T09:00:00Z,28.32,129.92,24.0,20.0,20,18,,6.21,29.852362,,,TRUE,,,,,,,,SCT,2200,OVC,4400,,,,,VFR,,,,,,,,,,,,METAR,6.0
RJKA 230900Z 01012KT 9999 FEW015 SCT020 BKN050 24/20 Q1011,RJKA,2022-10-23T09:00:00Z,28.42,129.72,24.0,20.0,10,12,,6.21,29.852362,,,,,,,,,,,FEW,1500,SCT,2000,BKN,5000,,,VFR,,,,,,,,,,,,METAR,7.0
RJFU 230900Z 34015KT 9999 FEW045 20/13 Q1013,RJFU,2022-10-23T09:00:00Z,32.92,129.92,20.0,13.0,340,15,,6.21,29.911417,,,,,,,,,,,FEW,4500,,,,,,,VFR,,,,,,,,,,,,METAR,2.0
RJFT 230900Z 31008KT 9999 FEW035 20/13 Q1013,RJFT,2022-10-23T09:00:00Z,32.83,130.85,20.0,13.0,310,8,,6.21,29.911417,,,,,,,,,,,FEW,3500,,,,,,,VFR,,,,,,,,,,,,METAR,188.0
RJFS 230900Z 34008KT 9999 FEW030 19/14 Q1013,RJFS,2022-10-23T09:00:00Z,33.15,130.3,19.0,14.0,340,8,,6.21,29.911417,,,,,,,,,,,FEW,3000,,,,,,,VFR,,,,,,,,,,,,METAR,2.0
RJFR 230900Z 33010KT 9999 FEW020 19/12 Q1013,RJFR,2022-10-23T09:00:00Z,33.83,131.03,19.0,12.0,330,10,,6.21,29.911417,,,,,,,,,,,FEW,2000,,,,,,,VFR,,,,,,,,,,,,METAR,9.0
RJFO 230900Z 32007KT 290V360 9999 FEW035 20/13 Q1012,RJFO,2022-10-23T09:00:00Z,33.47,131.73,20.0,13.0,320,7,,6.21,29.88189,,,,,,,,,,,FEW,3500,,,,,,,VFR,,,,,,,,,,,,METAR,3.0
RJFM 230900Z 08006KT 9999 FEW015 BKN024 23/18 Q1011,RJFM,2022-10-23T09:00:00Z,31.87,131.43,23.0,18.0,80,6,,6.21,29.852362,,,,,,,,,,,FEW,1500,BKN,2400,,,,,MVFR,,,,,,,,,,,,METAR,10.0
RJFK 230900Z 31006KT 9999 FEW030 19/13 Q1013 RMK 1CU030 A2992 VOLCANIC ASH CLOUD S,RJFK,2022-10-23T09:00:00Z,31.8,130.72,19.0,13.0,310,6,,6.21,29.911417,,,,,,,,,,,FEW,3000,,,,,,,VFR,,,,,,,,,,,,SPECI,271.0
RJFG 230900Z 31011KT 9999 FEW015 21/17 Q1012,RJFG,2022-10-23T09:00:00Z,30.62,130.98,21.0,17.0,310,11,,6.21,29.88189,,,,,,,,,,,FEW,1500,,,,,,,VFR,,,,,,,,,,,,METAR,234.0
RJFE 230900Z 35010KT 9999 FEW030 17/11 Q1014,RJFE,2022-10-23T09:00:00Z,32.67,128.82,17.0,11.0,350,10,,6.21,29.940945,,,,,,,,,,,FEW,3000,,,,,,,VFR,,,,,,,,,,,,METAR,80.0
RJDT 230900Z 33005KT 9999 FEW030 18/09 Q1014,RJDT,2022-10-23T09:00:00Z,34.28,129.32,18.0,9.0,330,5,,6.21,29.940945,,,,,,,,,,,FEW,3000,,,,,,,VFR,,,,,,,,,,,,METAR,61.0
RJDC 230900Z 34005KT 270V060 9999 FEW035 20/13 Q1013,RJDC,2022-10-23T09:00:00Z,33.92,131.27,20.0,13.0,340,5,,6.21,29.911417,,,,,,,,,,,FEW,3500,,,,,,,VFR,,,,,,,,,,,,METAR,5.0
RJDB 230900Z AUTO 36008KT 320V020 9999 FEW038 SCT047 BKN050 19/12 Q1014,RJDB,2022-10-23T09:00:00Z,33.75,129.78,19.0,12.0,360,8,,6.21,29.940945,,,TRUE,,,,,,,,FEW,3800,SCT,4700,BKN,5000,,,VFR,,,,,,,,,,,,METAR,13.0
RJCW 230900Z 07005KT 9999 FEW030 SCT080 03/01 Q1012,RJCW,2022-10-23T09:00:00Z,45.4,141.8,3.0,1.0,70,5,,6.21,29.88189,,,,,,,,,,,FEW,3000,SCT,8000,,,,,VFR,,,,,,,,,,,,METAR,11.0
RJCN 230900Z 22004KT 9999 -SHRA FEW015 BKN045 07/06 Q1009,RJCN,2022-10-23T09:00:00Z,43.57,144.97,7.0,6.0,220,4,,6.21,29.793306,,,,,,,,,,-SHRA,FEW,1500,BKN,4500,,,,,VFR,,,,,,,,,,,,METAR,62.0
RJCM 230900Z VRB02KT 9999 -SHRA FEW010 SCT030 BKN040 08/06 Q1010,RJCM,2022-10-23T09:00:00Z,43.88,144.17,8.0,6.0,0,2,,6.21,29.822834,,,,,,,,,,-SHRA,FEW,1000,SCT,3000,BKN,4000,,,VFR,,,,,,,,,,,,METAR,30.0
RJCH 230900Z 30010KT 9999 FEW030 09/03 Q1011,RJCH,2022-10-23T09:00:00Z,41.77,140.82,9.0,3.0,300,10,,6.21,29.852362,,,,,,,,,,,FEW,3000,,,,,,,VFR,,,,,,,,,,,,METAR,36.0
RJCB 230900Z 35005KT 9999 FEW030 BKN040 08/05 Q1009,RJCB,2022-10-23T09:00:00Z,42.72,143.22,8.0,5.0,350,5,,6.21,29.793306,,,,,,,,,,,FEW,3000,BKN,4000,,,,,VFR,,,,,,,,,,,,METAR,149.0
RJBT 230900Z 01004KT 330V050 9999 VCSH FEW010 SCT020CB 15/14 Q1012,RJBT,2022-10-23T09:00:00Z,35.5,134.8,15.0,14.0,10,4,,6.21,29.88189,,,,,,,,,,VCSH,FEW,1000,SCT,2000,,,,,VFR,,,,,,,,,,,,METAR,172.0
RJBE 230900Z 04006KT 9999 FEW030 21/11 Q1011,RJBE,2022-10-23T09:00:00Z,34.63,135.23,21.0,11.0,40,6,,6.21,29.852362,,,,,,,,,,,FEW,3000,,,,,,,VFR,,,,,,,,,,,,METAR,5.0
RJBD 230900Z 32006KT 9999 FEW030 20/08 Q1010,RJBD,2022-10-23T09:00:00Z,33.67,135.37,20.0,8.0,320,6,,6.21,29.822834,,,,,,,,,,,FEW,3000,,,,,,,VFR,,,,,,,,,,,,METAR,91.0
RJAW 230900Z VRB01KT 9999 SCT015 26/24 Q1011 RMK 3CU015 A2986,RJAW,2022-10-23T09:00:00Z,24.78,141.32,26.0,24.0,0,1,,6.21,29.852362,,,,,,,,,,,SCT,1500,,,,,,,VFR,,,,,,,,,,,,SPECI,116.0
RJAH 230900Z 00000KT 9999 FEW030 SCT080 BKN/// 18/18 Q1008,RJAH,2022-10-23T09:00:00Z,36.17,140.42,18.0,18.0,0,0,,6.21,29.763779,,,,,,,,,,,FEW,3000,SCT,8000,,,,,VFR,,,,,,,,,,,,SPECI,31.0
RJAF 230900Z 34012KT 9999 FEW030 SCT050 BKN070 14/08 Q1011,RJAF,2022-10-23T09:00:00Z,36.17,137.92,14.0,8.0,340,12,,6.21,29.852362,,,,,,,,,,,FEW,3000,SCT,5000,BKN,7000,,,VFR,,,,,,,,,,,,METAR,652.0
PLCH 230900Z 10003KT 9999 SCT020 BKN040 25/23 Q1009,PLCH,2022-10-23T09:00:00Z,1.98,-157.35,25.0,23.0,100,3,,6.21,29.793306,,,,,,,,,,,SCT,2000,BKN,4000,,,,,VFR,,,,,,,,,,,,METAR,5.0
OTHH 230900Z 02007KT 9999 FEW040 34/15 Q1016 NOSIG,OTHH,2022-10-23T09:00:00Z,25.27,51.6,34.0,15.0,20,7,,6.21,30.0,,,,,,TRUE,,,,,FEW,4000,,,,,,,VFR,,,,,,,,,,,,METAR,3.0
OSAP 230900Z 13002KT CAVOK 21/13 Q1023,OSAP,2022-10-23T09:00:00Z,36.17,37.22,21.0,13.0,130,2,,6.21,30.206694,,,,,,,,,,,CAVOK,,,,,,,,VFR,,,,,,,,,,,,METAR,390.0
ORSU 230900Z 16006KT 8000 SCT045 SCT080 26/15 Q1023,ORSU,2022-10-23T09:00:00Z,35.57,45.32,26.0,15.0,160,6,,4.97,30.206694,,,,,,,,,,,SCT,4500,SCT,8000,,,,,MVFR,,,,,,,,,,,,METAR,760.0
ORNI 230900Z 03050KT 5000 DU NSC 3011 Q1015,ORNI,2022-10-23T09:00:00Z,31.98,44.4,,,30,50,,3.11,29.970472,,,,,,,,,,DU,CLR,,,,,,,,MVFR,,,,,,,,,,,,METAR,33.0
ORMM 230900Z 19004KT CAVOK 37/07 Q1016 NOSIG,ORMM,2022-10-23T09:00:00Z,30.53,47.67,37.0,7.0,190,4,,6.21,30.0,,,,,,TRUE,,,,,CAVOK,,,,,,,,VFR,,,,,,,,,,,,METAR,2.0
ORER 230900Z 33007KT 9000 NSC 27/09 Q1021,ORER,2022-10-23T09:00:00Z,36.23,43.97,27.0,9.0,330,7,,5.59,30.147638,,,,,,,,,,,CLR,,,,,,,,VFR,,,,,,,,,,,,METAR,399.0
ORBI 230900Z 36005KT 4000 DU NSC 30/15 Q1016 NOSIG,ORBI,2022-10-23T09:00:00Z,33.27,44.23,30.0,15.0,360,5,,2.49,30.0,,,,,,TRUE,,,,DU,CLR,,,,,,,,IFR,,,,,,,,,,,,METAR,37.0
OPST 230900Z 27004KT 4000 HZ NSC 28/12 Q1016 NOSIG 36%,OPST,2022-10-23T09:00:00Z,32.53,74.37,28.0,12.0,270,4,,2.49,30.0,,,,,,TRUE,,,,HZ,CLR,,,,,,,,IFR,,,,,,,,,,,,METAR,234.0
OPSK 230900Z 23004KT 5000 HZ NSC 35/15 Q1013 NOSIG,OPSK,2022-10-23T09:00:00Z,27.72,68.8,35.0,15.0,230,4,,3.11,29.911417,,,,,,TRUE,,,,HZ,CLR,,,,,,,,MVFR,,,,,,,,,,,,METAR,62.0
OMSJ 230900Z 24008KT 190V280 CAVOK 36/06 Q1016 BECMG 34012KT,OMSJ,2022-10-23T09:00:00Z,25.32,55.52,36.0,6.0,240,8,,6.21,30.0,,,,,,,,,,,CAVOK,,,,,,,,VFR,,,,,,,,,,,,METAR,33.0
OMRK 230900Z 26006KT CAVOK 37/10 Q1016 A3001,OMRK,2022-10-23T09:00:00Z,25.62,55.93,37.0,10.0,260,6,,6.21,30.0,,,,,,,,,,,CAVOK,,,,,,,,VFR,,,,,,,,,,,,METAR,18.0
OMFJ 230900Z 08007KT 7000 FEW030 32/20 Q1016 A3000,OMFJ,2022-10-23T09:00:00Z,25.1,56.32,32.0,20.0,80,7,,4.35,30.0,,,,,,,,,,,FEW,3000,,,,,,,MVFR,,,,,,,,,,,,METAR,27.0
OMDW 230900Z 21005KT 150V250 CAVOK 36/10 Q1016 BECMG 34014KT,OMDW,2022-10-23T09:00:00Z,24.9,55.17,36.0,10.0,210,5,,6.21,30.0,,,,,,,,,,,CAVOK,,,,,,,,VFR,,,,,,,,,,,,METAR,34.0
OMDB 230900Z 27008KT 220V310 CAVOK 35/09 Q1015 BECMG 34012KT,OMDB,2022-10-23T09:00:00Z,25.25,55.37,35.0,9.0,270,8,,6.21,29.970472,,,,,,,,,,,CAVOK,,,,,,,,VFR,,,,,,,,,,,,METAR,5.0
OMAL 230900Z 17011KT CAVOK 34/07 Q1017 NOSIG,OMAL,2022-10-23T09:00:00Z,24.25,55.6,34.0,7.0,170,11,,6.21,30.029528,,,,,,TRUE,,,,,CAVOK,,,,,,,,VFR,,,,,,,,,,,,METAR,247.0
OMAD 230900Z 33005KT 280V040 CAVOK 35/17 Q1015 NOSIG,OMAD,2022-10-23T09:00:00Z,24.42,54.47,35.0,17.0,330,5,,6.21,29.970472,,,,,,TRUE,,,,,CAVOK,,,,,,,,VFR,,,,,,,,,,,,METAR,9.0
OMAA 230900Z 19006KT 120V240 CAVOK 35/13 Q1015 BECMG 30010KT,OMAA,2022-10-23T09:00:00Z,24.42,54.65,35.0,13.0,190,6,,6.21,29.970472,,,,,,,,,,,CAVOK,,,,,,,,VFR,,,,,,,,,,,,METAR,13.0
OLBA 230900Z 29004KT 260V350 8000 NSC 26/17 Q1019 NOSIG,OLBA,2022-10-23T09:00:00Z,33.82,35.48,26.0,17.0,290,4,,4.97,30.088583,,,,,,TRUE,,,,,CLR,,,,,,,,MVFR,,,,,,,,,,,,METAR,29.0
OKBK 230900Z 02004KT CAVOK 37/05 Q1016 NOSIG,OKBK,2022-10-23T09:00:00Z,29.22,47.97,37.0,5.0,20,4,,6.21,30.0,,,,,,TRUE,,,,,CAVOK,,,,,,,,VFR,,,,,,,,,,,,METAR,55.0
OJAQ 230900Z 02005KT 5000 HZ 27/18 Q1017 NOSIG,OJAQ,2022-10-23T09:00:00Z,29.62,35.02,27.0,18.0,20,5,,3.11,30.029528,,,,,,TRUE,,,,HZ,,,,,,,,,,,,,,,,,,,,,METAR,45.0
OJAM 230900Z VRB02KT 4000 HZ NSC 24/11 Q1021 NOSIG,OJAM,2022-10-23T09:00:00Z,31.98,35.98,24.0,11.0,0,2,,2.49,30.147638,,,,,,TRUE,,,,HZ,CLR,,,,,,,,IFR,,,,,,,,,,,,METAR,765.0
OIZJ 230900Z 24006KT 8000 NSC 29/26 Q1015,OIZJ,2022-10-23T09:00:00Z,25.65,57.8,29.0,26.0,240,6,,4.97,29.970472,,,,,,,,,,,CLR,,,,,,,,MVFR,,,,,,,,,,,,METAR,6.0
OIZI 230900Z 22004KT CAVOK 34/08 Q1018,OIZI,2022-10-23T09:00:00Z,27.23,60.72,34.0,8.0,220,4,,6.21,30.059055,,,,,,,,,,,CAVOK,,,,,,,,VFR,,,,,,,,,,,,METAR,622.0
OIZC 230900Z 24014KT 5000 SA NSC 32/20 Q1013,OIZC,2022-10-23T09:00:00Z,25.45,60.38,32.0,20.0,240,14,,3.11,29.911417,,,,,,,,,,SA,CLR,,,,,,,,MVFR,,,,,,,,,,,,METAR,13.0
OIZB 230900Z 35019KT 6000 NSC 30/08 Q1018,OIZB,2022-10-23T09:00:00Z,31.1,61.55,30.0,8.0,350,19,,3.73,30.059055,,,,,,,,,,,CLR,,,,,,,,MVFR,,,,,,,,,,,,METAR,483.0
OITZ 230900Z 15008KT 9000 TS FEW015 SCT025CB BKN080 16/09 Q1022 A3020,OITZ,2022-10-23T09:00:00Z,36.77,48.37,16.0,9.0,150,8,,5.59,30.177166,,,,,,,,,,TS,FEW,1500,SCT,2500,BKN,8000,,,VFR,,,,,,,,,,,,METAR,1630.0
OITR 230900Z 10004KT 9999 SCT035CB SCT040 15/09 Q1024,OITR,2022-10-23T09:00:00Z,37.67,45.07,15.0,9.0,100,4,,6.21,30.236221,,,,,,,,,,,SCT,3500,SCT,4000,,,,,VFR,,,,,,,,,,,,METAR,1312.0
OITP 230900Z 25008KT 4000 RADZ BR BKN020 OVC060 12/12 Q1027,OITP,2022-10-23T09:00:00Z,39.6,47.88,12.0,12.0,250,8,,2.49,30.324802,,,,,,,,,,RA DZ BR,BKN,2000,OVC,6000,,,,,IFR,,,,,,,,,,,,METAR,72.0
OITM 230900Z 27004KT 7000 FEW035 17/10 Q1023,OITM,2022-10-23T09:00:00Z,37.35,46.15,17.0,10.0,270,4,,4.35,30.206694,,,,,,,,,,,FEW,3500,,,,,,,MVFR,,,,,,,,,,,,METAR,1340.0
OITL 230900Z 34016KT 9999 FEW010 BKN025 09/06 Q1024 NOSIG,OITL,2022-10-23T09:00:00Z,38.33,48.42,9.0,6.0,340,16,,6.21,30.236221,,,,,,TRUE,,,,,FEW,1000,BKN,2500,,,,,MVFR,,,,,,,,,,,,METAR,1314.0
OISY 230900Z 00000KT CAVOK 24/M06 Q1029,OISY,2022-10-23T09:00:00Z,30.7,51.55,24.0,-6.0,0,0,,6.21,30.383858,,,,,,,,,,,CAVOK,,,,,,,,VFR,,,,,,,,,,,,METAR,1800.0
OISR 230900Z 00000KT CAVOK 35/11 Q1018 A3008 NOSIG,OISR,2022-10-23T09:00:00Z,27.37,53.2,35.0,11.0,0,0,,6.21,30.059055,,,,,,TRUE,,,,,CAVOK,,,,,,,,VFR,,,,,,,,,,,,METAR,402.0
OISL 230900Z 33006KT CAVOK 32/05 Q1019 A3010 NOSIG,OISL,2022-10-23T09:00:00Z,27.67,54.37,32.0,5.0,330,6,,6.21,30.088583,,,,,,TRUE,,,,,CAVOK,,,,,,,,VFR,,,,,,,,,,,,METAR,804.0
OISF 230900Z 00000KT CAVOK 29/M03 Q1024 A3024,OISF,2022-10-23T09:00:00Z,28.9,53.72,29.0,-3.0,0,0,,6.21,30.236221,,,,,,,,,,,CAVOK,,,,,,,,VFR,,,,,,,,,,,,METAR,1305.0
OINZ 230900Z 02006KT 9999 FEW025 SCT090 22/17 Q1023,OINZ,2022-10-23T09:00:00Z,36.63,53.2,22.0,17.0,20,6,,6.21,30.206694,,,,,,,,,,,FEW,2500,SCT,9000,,,,,VFR,,,,,,,,,,,,METAR,8.0
OINR 230900Z 35014KT 9999 FEW023TCU SCT027 BKN090 20/15 Q1020,OINR,2022-10-23T09:00:00Z,36.9,50.67,20.0,15.0,350,14,,6.21,30.11811,,,,,,,,,,,FEW,2300,SCT,2700,BKN,9000,,,VFR,,,,,,,,,,,,METAR,-19.0
OINN 230900Z 09014KT 9999 FEW023CB SCT026 21/16 Q1019,OINN,2022-10-23T09:00:00Z,36.67,51.47,21.0,16.0,90,14,,6.21,30.088583,,,,,,,,,,,FEW,2300,SCT,2600,,,,,VFR,,,,,,,,,,,,METAR,-25.0
OINE 230900Z 30004KT 9999 FEW025 SCT080 23/15 Q1022,OINE,2022-10-23T09:00:00Z,37.38,55.45,23.0,15.0,300,4,,6.21,30.177166,,,,,,,,,,,FEW,2500,SCT,8000,,,,,VFR,,,,,,,,,,,,METAR,125.0
OIMT 230900Z AUTO 33002KT //// // ////// 31/M01 Q1019,OIMT,2022-10-23T09:00:00Z,33.67,56.88,31.0,-1.0,330,2,,,30.088583,,,TRUE,,,,,,,,,,,,,,,,,,,,,,,,,,,,METAR,693.0
OIMS 230900Z 06010KT 8000 NSC 23/09 Q1024,OIMS,2022-10-23T09:00:00Z,36.17,57.6,23.0,9.0,60,10,,4.97,30.236221,,,,,,,,,,,CLR,,,,,,,,MVFR,,,,,,,,,,,,METAR,920.0
OIMN 230900Z 15006KT 9999 FEW025 19/11 Q1025,OIMN,2022-10-23T09:00:00Z,37.48,57.3,19.0,11.0,150,6,,6.21,30.265747,,,,,,,,,,,FEW,2500,,,,,,,VFR,,,,,,,,,,,,METAR,1065.0
OIMJ 230900Z 06012KT 9999 FEW030TCU 20/07 Q1025,OIMJ,2022-10-23T09:00:00Z,36.43,55.1,20.0,7.0,60,12,,6.21,30.265747,,,,,,,,,,,FEW,3000,,,,,,,VFR,,,,,,,,,,,,METAR,1285.0
OIMB 230900Z 26006KT 9999 FEW040 30/M08 Q1024 A3024,OIMB,2022-10-23T09:00:00Z,32.9,59.28,30.0,-8.0,260,6,,6.21,30.236221,,,,,,,,,,,FEW,4000,,,,,,,VFR,,,,,,,,,,,,METAR,1512.0
OIKQ 230900Z 15012KT 5000 HZ NSC 32/27 Q1015 NOSIG,OIKQ,2022-10-23T09:00:00Z,26.75,55.9,32.0,27.0,150,12,,3.11,29.970472,,,,,,TRUE,,,,HZ,CLR,,,,,,,,MVFR,,,,,,,,,,,,METAR,9.0
OIKK 230900Z 30004KT CAVOK 27/M04 Q1026 A3031,OIKK,2022-10-23T09:00:00Z,30.25,56.97,27.0,-4.0,300,4,,6.21,30.295275,,,,,,,,,,,CAVOK,,,,,,,,VFR,,,,,,,,,,,,METAR,1749.0
OIIP 230900Z 34014KT 7000 FEW030CB SCT040 BKN100 18/07 Q1024 A3025,OIIP,2022-10-23T09:00:00Z,35.78,50.83,18.0,7.0,340,14,,4.35,30.236221,,,,,,,,,,,FEW,3000,SCT,4000,BKN,10000,,,MVFR,,,,,,,,,,,,METAR,1270.0
OIIK 230900Z 07006KT 9999 FEW040 BKN090 19/08 Q1024,OIIK,2022-10-23T09:00:00Z,36.25,50.05,19.0,8.0,70,6,,6.21,30.236221,,,,,,,,,,,FEW,4000,BKN,9000,,,,,VFR,,,,,,,,,,,,METAR,1278.0
OIIE 230900Z 15008KT 9999 FEW040 BKN100 23/03 Q1023,OIIE,2022-10-23T09:00:00Z,35.42,51.15,23.0,3.0,150,8,,6.21,30.206694,,,,,,,,,,,FEW,4000,BKN,10000,,,,,VFR,,,,,,,,,,,,METAR,993.0
OIHR 230900Z 26012KT 8000 SCT035 26/03 Q1025,OIHR,2022-10-23T09:00:00Z,34.13,49.85,26.0,3.0,260,12,,4.97,30.265747,,,,,,,,,,,SCT,3500,,,,,,,MVFR,,,,,,,,,,,,METAR,1658.0
OIHM 230900Z AUTO 22013KT //// // ////// 24/M03 Q1026,OIHM,2022-10-23T09:00:00Z,34.28,48.82,24.0,-3.0,220,13,,,30.295275,,,TRUE,,,,,,,,,,,,,,,,,,,,,,,,,,,,METAR,1744.0
OIHH 230900Z 26010KT 9999 SCT040 24/M01 Q1025 A3029,OIHH,2022-10-23T09:00:00Z,34.87,48.55,24.0,-1.0,260,10,,6.21,30.265747,,,,,,,,,,,SCT,4000,,,,,,,VFR,,,,,,,,,,,,METAR,1742.0
OIFS 230900Z 19006KT CAVOK 23/M08 Q1029,OIFS,2022-10-23T09:00:00Z,32.28,50.85,23.0,-8.0,190,6,,6.21,30.383858,,,,,,,,,,,CAVOK,,,,,,,,VFR,,,,,,,,,,,,METAR,2042.0
OICS 230900Z 22010KT 9999 FEW040 24/03 Q1023 A3024 NOSIG,OICS,2022-10-23T09:00:00Z,35.25,47.02,24.0,3.0,220,10,,6.21,30.206694,,,,,,TRUE,,,,,FEW,4000,,,,,,,VFR,,,,,,,,,,,,METAR,1369.0
OICK 230900Z 28010KT CAVOK 28/M02 Q1023,OICK,2022-10-23T09:00:00Z,33.43,48.28,28.0,-2.0,280,10,,6.21,30.206694,,,,,,,,,,,CAVOK,,,,,,,,VFR,,,,,,,,,,,,METAR,1156.0
OIBV 230900Z 31010KT 7000 NSC 34/22 Q1015,OIBV,2022-10-23T09:00:00Z,26.82,53.35,34.0,22.0,310,10,,4.35,29.970472,,,,,,,,,,,CLR,,,,,,,,MVFR,,,,,,,,,,,,METAR,23.0
OIBS 230900Z 09004KT 3500 HZ NSC 33/25 Q1016,OIBS,2022-10-23T09:00:00Z,25.9,54.55,33.0,25.0,90,4,,2.17,30.0,,,,,,,,,,HZ,CLR,,,,,,,,IFR,,,,,,,,,,,,METAR,4.0
OIBQ 230900Z 13006KT 6000 NSC 31/23 Q1016 A3002,OIBQ,2022-10-23T09:00:00Z,29.27,50.32,31.0,23.0,130,6,,3.73,30.0,,,,,,,,,,,CLR,,,,,,,,MVFR,,,,,,,,,,,,METAR,3.0
OIBP 230900Z 30006KT 6000 FEW035 35/19 Q1015 A2998,OIBP,2022-10-23T09:00:00Z,27.38,52.73,35.0,19.0,300,6,,3.73,29.970472,,,,,,,,,,,FEW,3500,,,,,,,MVFR,,,,,,,,,,,,METAR,13.0
OIBL 230900Z 18008KT 5000 HZ NSC 32/23 Q1016,OIBL,2022-10-23T09:00:00Z,26.53,54.82,32.0,23.0,180,8,,3.11,30.0,,,,,,,,,,HZ,CLR,,,,,,,,MVFR,,,,,,,,,,,,METAR,25.0
OIBK 230900Z 20010KT CAVOK 33/23 Q1016 NOSIG,OIBK,2022-10-23T09:00:00Z,26.53,53.98,33.0,23.0,200,10,,6.21,30.0,,,,,,TRUE,,,,,CAVOK,,,,,,,,VFR,,,,,,,,,,,,METAR,27.0
OIBJ 230900Z AUTO 21005KT //// // ////// 32/08 Q1020,OIBJ,2022-10-23T09:00:00Z,27.82,52.35,32.0,8.0,210,5,,,30.11811,,,TRUE,,,,,,,,,,,,,,,,,,,,,,,,,,,,METAR,647.0
OIBH 230900Z 24010KT 5000 HZ NSC 32/24 Q1015 A3000,OIBH,2022-10-23T09:00:00Z,27.2,54.32,32.0,24.0,240,10,,3.11,29.970472,,,,,,,,,,HZ,CLR,,,,,,,,MVFR,,,,,,,,,,,,METAR,412.0
OIBB 230900Z 30006KT 4000 HZ NSC 30/23 Q1016 A3001 NOSIG,OIBB,2022-10-23T09:00:00Z,28.93,50.83,30.0,23.0,300,6,,2.49,30.0,,,,,,TRUE,,,,HZ,CLR,,,,,,,,IFR,,,,,,,,,,,,METAR,15.0
OIBA 230900Z 20006KT CAVOK 33/21 Q1015,OIBA,2022-10-23T09:00:00Z,25.88,55.03,33.0,21.0,200,6,,6.21,29.970472,,,,,,,,,,,CAVOK,,,,,,,,VFR,,,,,,,,,,,,METAR,7.0
OIAM 230900Z 00000KT CAVOK 35/16 Q1016,OIAM,2022-10-23T09:00:00Z,30.55,49.15,35.0,16.0,0,0,,6.21,30.0,,,,,,,,,,,CAVOK,,,,,,,,VFR,,,,,,,,,,,,METAR,7.0
OIAH 230900Z 30006KT CAVOK 32/05 Q1021,OIAH,2022-10-23T09:00:00Z,30.33,50.83,32.0,5.0,300,6,,6.21,30.147638,,,,,,,,,,,CAVOK,,,,,,,,VFR,,,,,,,,,,,,METAR,730.0
OIAG 230900Z 24004KT 7000 NSC 35/18 Q1017,OIAG,2022-10-23T09:00:00Z,30.73,49.68,35.0,18.0,240,4,,4.35,30.029528,,,,,,,,,,,CLR,,,,,,,,MVFR,,,,,,,,,,,,METAR,17.0
OIAA 230900Z 16006KT CAVOK 37/15 Q1015,OIAA,2022-10-23T09:00:00Z,30.35,48.22,37.0,15.0,160,6,,6.21,29.970472,,,,,,,,,,,CAVOK,,,,,,,,VFR,,,,,,,,,,,,METAR,4.0
OEYN 230900Z 28004KT CAVOK 34/21 Q1012 NOSIG,OEYN,2022-10-23T09:00:00Z,24.13,38.07,34.0,21.0,280,4,,6.21,29.88189,,,,,,TRUE,,,,,CAVOK,,,,,,,,VFR,,,,,,,,,,,,METAR,20.0
OEWJ 230900Z 30014KT CAVOK 30/20 Q1015 NOSIG,OEWJ,2022-10-23T09:00:00Z,26.18,36.47,30.0,20.0,300,14,,6.21,29.970472,,,,,,TRUE,,,,,CAVOK,,,,,,,,VFR,,,,,,,,,,,,METAR,8.0
OEWD 230900Z 12010KT CAVOK 32/14 Q1019 NOSIG,OEWD,2022-10-23T09:00:00Z,20.5,45.2,32.0,14.0,120,10,,6.21,30.088583,,,,,,TRUE,,,,,CAVOK,,,,,,,,VFR,,,,,,,,,,,,METAR,629.0
OETR 230900Z 09011KT 6000 NSC 28/13 Q1020 NOSIG,OETR,2022-10-23T09:00:00Z,31.7,38.73,28.0,13.0,90,11,,3.73,30.11811,,,,,,TRUE,,,,,CLR,,,,,,,,MVFR,,,,,,,,,,,,METAR,854.0
OETF 230900Z 14009KT 9999 FEW030 28/M07 Q1025 NOSIG,OETF,2022-10-23T09:00:00Z,21.47,40.53,28.0,-7.0,140,9,,6.21,30.265747,,,,,,TRUE,,,,,FEW,3000,,,,,,,VFR,,,,,,,,,,,,METAR,1460.0
OETB 230900Z 08003KT CAVOK 27/08 Q1018 NOSIG,OETB,2022-10-23T09:00:00Z,28.37,36.62,27.0,8.0,80,3,,6.21,30.059055,,,,,,TRUE,,,,,CAVOK,,,,,,,,VFR,,,,,,,,,,,,METAR,770.0
OESK 230900Z 07008KT CAVOK 28/09 Q1021 NOSIG,OESK,2022-10-23T09:00:00Z,29.78,40.1,28.0,9.0,70,8,,6.21,30.147638,,,,,,TRUE,,,,,CAVOK,,,,,,,,VFR,,,,,,,,,,,,METAR,671.0
OESH 230900Z 09008KT CAVOK 33/06 Q1018 NOSIG,OESH,2022-10-23T09:00:00Z,17.47,47.12,33.0,6.0,90,8,,6.21,30.059055,,,,,,TRUE,,,,,CAVOK,,,,,,,,VFR,,,,,,,,,,,,METAR,720.0
OERR 230900Z 05012KT CAVOK 27/09 Q1018 NOSIG,OERR,2022-10-23T09:00:00Z,30.9,41.13,27.0,9.0,50,12,,6.21,30.059055,,,,,,TRUE,,,,,CAVOK,,,,,,,,VFR,,,,,,,,,,,,METAR,554.0
OERK 230900Z 16005KT CAVOK 34/04 Q1020 NOSIG,OERK,2022-10-23T09:00:00Z,24.95,46.72,34.0,4.0,160,5,,6.21,30.11811,,,,,,TRUE,,,,,CAVOK,,,,,,,,VFR,,,,,,,,,,,,METAR,618.0
OERF 230900Z 20015KT CAVOK 36/M05 Q1017 NOSIG,OERF,2022-10-23T09:00:00Z,29.62,43.48,36.0,-5.0,200,15,,6.21,30.029528,,,,,,TRUE,,,,,CAVOK,,,,,,,,VFR,,,,,,,,,,,,METAR,441.0
OEPA 230900Z 21008KT CAVOK 36/09 Q1018 NOSIG,OEPA,2022-10-23T09:00:00Z,28.33,46.12,36.0,9.0,210,8,,6.21,30.059055,,,,,,TRUE,,,,,CAVOK,,,,,,,,VFR,,,,,,,,,,,,METAR,361.0
OENG 230900Z 09008KT CAVOK 29/04 Q1022 NOSIG,OENG,2022-10-23T09:00:00Z,17.62,44.42,29.0,4.0,90,8,,6.21,30.177166,,,,,,TRUE,,,,,CAVOK,,,,,,,,VFR,,,,,,,,,,,,METAR,1210.0
OEMN 230900Z 21004KT CAVOK 36/19 Q1016,OEMN,2022-10-23T09:00:00Z,,,36.0,19.0,210,4,,6.21,30.0,,,,,,,,,,,CAVOK,,,,,,,,VFR,,,,,,,,,,,,METAR,
OEMA 230900Z 13014KT CAVOK 36/M06 Q1019 NOSIG,OEMA,2022-10-23T09:00:00Z,24.55,39.7,36.0,-6.0,130,14,,6.21,30.088583,,,,,,TRUE,,,,,CAVOK,,,,,,,,VFR,,,,,,,,,,,,METAR,639.0
OEKM 230900Z 06012KT CAVOK 24/02 Q1028 NOSIG,OEKM,2022-10-23T09:00:00Z,18.3,42.78,24.0,2.0,60,12,,6.21,30.35433,,,,,,TRUE,,,,,CAVOK,,,,,,,,VFR,,,,,,,,,,,,METAR,2038.0
OEKJ 230900Z 19006KT CAVOK 34/M02 Q1022,OEKJ,2022-10-23T09:00:00Z,24.07,47.58,34.0,-2.0,190,6,,6.21,30.177166,,,,,,,,,,,CAVOK,,,,,,,,VFR,,,,,,,,,,,,METAR,487.0
OEJN 230900Z 27009KT CAVOK 34/23 Q1013 NOSIG,OEJN,2022-10-23T09:00:00Z,21.68,39.15,34.0,23.0,270,9,,6.21,29.911417,,,,,,TRUE,,,,,CAVOK,,,,,,,,VFR,,,,,,,,,,,,METAR,8.0
OEJB 230900Z AUTO 26006KT CAVOK 37/M01 Q1016 NOSIG,OEJB,2022-10-23T09:00:00Z,27.05,49.4,37.0,-1.0,260,6,,6.21,30.0,,,TRUE,,,TRUE,,,,,CAVOK,,,,,,,,VFR,,,,,,,,,,,,METAR,6.0
OEHL 230900Z 19012KT CAVOK 32/01 Q1021,OEHL,2022-10-23T09:00:00Z,27.43,41.68,32.0,1.0,190,12,,6.21,30.147638,,,,,,,,,,,CAVOK,,,,,,,,VFR,,,,,,,,,,,,METAR,1002.0
OEGT 230900Z 00000KT CAVOK 27/09 Q1018 NOSIG,OEGT,2022-10-23T09:00:00Z,31.42,37.27,27.0,9.0,0,0,,6.21,30.059055,,,,,,TRUE,,,,,CAVOK,,,,,,,,VFR,,,,,,,,,,,,METAR,512.0
OEGS 230900Z 22010KT CAVOK 32/07 Q1019,OEGS,2022-10-23T09:00:00Z,26.3,43.77,32.0,7.0,220,10,,6.21,30.088583,,,,,,,,,,,CAVOK,,,,,,,,VFR,,,,,,,,,,,,METAR,647.0
OEGN 230900Z 22008KT 9999 FEW030 35/25 Q1014 NOSIG,OEGN,2022-10-23T09:00:00Z,16.9,42.58,35.0,25.0,220,8,,6.21,29.940945,,,,,,TRUE,,,,,FEW,3000,,,,,,,VFR,,,,,,,,,,,,METAR,5.0
OEDR 230900Z 06008KT CAVOK 38/01 Q1015,OEDR,2022-10-23T09:00:00Z,26.27,50.17,38.0,1.0,60,8,,6.21,29.970472,,,,,,,,,,,CAVOK,,,,,,,,VFR,,,,,,,,,,,,METAR,17.0
OEDM 230900Z 15014KT CAVOK 32/M04 Q1021,OEDM,2022-10-23T09:00:00Z,24.45,44.12,32.0,-4.0,150,14,,6.21,30.147638,,,,,,,,,,,CAVOK,,,,,,,,VFR,,,,,,,,,,,,METAR,922.0
OEDF 230900Z 29006KT CAVOK 37/01 Q1016 NOSIG,OEDF,2022-10-23T09:00:00Z,26.43,49.82,37.0,1.0,290,6,,6.21,30.0,,,,,,TRUE,,,,,CAVOK,,,,,,,,VFR,,,,,,,,,,,,METAR,15.0
OEBH 230900Z 10010KT CAVOK 29/10 Q1021 NOSIG,OEBH,2022-10-23T09:00:00Z,19.98,42.62,29.0,10.0,100,10,,6.21,30.147638,,,,,,TRUE,,,,,CAVOK,,,,,,,,VFR,,,,,,,,,,,,METAR,1167.0
OEBA 230900Z 13008KT CAVOK 26/08 Q1025 NOSIG,OEBA,2022-10-23T09:00:00Z,20.3,41.63,26.0,8.0,130,8,,6.21,30.265747,,,,,,TRUE,,,,,CAVOK,,,,,,,,VFR,,,,,,,,,,,,METAR,1659.0
OEAO 230900Z 24004KT CAVOK 33/06 Q1018 NOSIG,OEAO,2022-10-23T09:00:00Z,26.48,38.12,33.0,6.0,240,4,,6.21,30.059055,,,,,,TRUE,,,,,CAVOK,,,,,,,,VFR,,,,,,,,,,,,METAR,615.0
OEAH 230900Z 27008KT CAVOK 37/M02 Q1016 NOSIG,OEAH,2022-10-23T09:00:00Z,25.28,49.48,37.0,-2.0,270,8,,6.21,30.0,,,,,,TRUE,,,,,CAVOK,,,,,,,,VFR,,,,,,,,,,,,METAR,180.0
OEAB 230900Z 22003KT CAVOK 23/M02 Q1028 NOSIG,OEAB,2022-10-23T09:00:00Z,18.23,42.65,23.0,-2.0,220,3,,6.21,30.35433,,,,,,TRUE,,,,,CAVOK,,,,,,,,VFR,,,,,,,,,,,,METAR,2092.0
NVVW 230900Z AUTO 09010KT //// // NCD 24/18 Q1013,NVVW,2022-10-23T09:00:00Z,-19.45,169.22,24.0,18.0,90,10,,,29.911417,,,TRUE,,,,,,,,CLR,,,,,,,,,,,,,,,,,,,,METAR,5.0
NVVV 230900Z 07011KT 7000 RA FEW010 BKN018 OVC090 23/22 Q1012,NVVV,2022-10-23T09:00:00Z,-17.68,168.3,23.0,22.0,70,11,,4.35,29.88189,,,,,,,,,,RA,FEW,1000,BKN,1800,OVC,9000,,,MVFR,,,,,,,,,,,,METAR,23.0
NVVA 230900Z 09010KT 9999 BKN020 24/17 Q1014,NVVA,2022-10-23T09:00:00Z,-20.25,169.77,24.0,17.0,90,10,,6.21,29.940945,,,,,,,,,,,BKN,2000,,,,,,,MVFR,,,,,,,,,,,,METAR,7.0
NVSS 230900Z 360069KT 9999 -RA SCT018 OVC100 23/23 Q1010,NVSS,2022-10-23T09:00:00Z,-15.52,167.22,23.0,23.0,360,69,,6.21,29.822834,,,,,,,,,,-RA,SCT,1800,OVC,10000,,,,,VFR,,,,,,,,,,,,METAR,47.0
NVSL 230900Z AUTO 08010KT //// // NCD 24/24 Q1011,NVSL,2022-10-23T09:00:00Z,-16.45,167.83,24.0,24.0,80,10,,,29.852362,,,TRUE,,,,,,,,CLR,,,,,,,,,,,,,,,,,,,,METAR,9.0
NVSG 230900Z AUTO 00000KT //// // NCD 25/25 Q1011,NVSG,2022-10-23T09:00:00Z,-15.3,167.97,25.0,25.0,0,0,,,29.852362,,,TRUE,,,,,,,,CLR,,,,,,,,,,,,,,,,,,,,METAR,31.0
NVSC 230900Z 00000KT 9999 BKN020 OVC100 23/23 Q1011 RESHRA,NVSC,2022-10-23T09:00:00Z,-13.85,167.55,23.0,23.0,0,0,,6.21,29.852362,,,,,,,,,,,BKN,2000,OVC,10000,,,,,MVFR,,,,,,,,,,,,METAR,11.0
NSFA 230900Z 06007KT 360V110 9999 FEW023 SCT250 27/23 Q1012,NSFA,2022-10-23T09:00:00Z,-13.83,-172.0,27.0,23.0,60,7,,6.21,29.88189,,,,,,,,,,,FEW,2300,SCT,25000,,,,,VFR,,,,,,,,,,,,METAR,6.0
NIUE 230900Z AUTO 08001KT 24/23 Q1012,NIUE,2022-10-23T09:00:00Z,-19.07,-169.92,24.0,23.0,80,1,,,29.88189,,,TRUE,,,,,,,,,,,,,,,,,,,,,,,,,,,,METAR,22.0
NGTA 230900Z 08005KT 9999 FEW020 27/22 Q1009,NGTA,2022-10-23T09:00:00Z,1.37,173.13,27.0,22.0,80,5,,6.21,29.793306,,,,,,,,,,,FEW,2000,,,,,,,VFR,,,,,,,,,,,,METAR,8.0
NGFU 230900Z 06004KT 9999 FEW018TCU BKN300 29/24 Q1010,NGFU,2022-10-23T09:00:00Z,-8.52,179.18,29.0,24.0,60,4,,6.21,29.822834,,,,,,,,,,,FEW,1800,BKN,30000,,,,,VFR,,,,,,,,,,,,METAR,2.0
NFTF 230900Z 14010KT 9999 -DZ FEW010 BKN015 22/19 Q1016,NFTF,2022-10-23T09:00:00Z,-21.23,-175.15,22.0,19.0,140,10,,6.21,30.0,,,,,,,,,,-DZ,FEW,1000,BKN,1500,,,,,MVFR,,,,,,,,,,,,METAR,38.0
NFNA 230900Z 14009KT 9999 SCT020 BKN048 25/21 Q1013,NFNA,2022-10-23T09:00:00Z,-18.05,178.57,25.0,21.0,140,9,,6.21,29.911417,,,,,,,,,,,SCT,2000,BKN,4800,,,,,VFR,,,,,,,,,,,,METAR,6.0
NFFN 230900Z 13008KT 9999 FEW030 SCT048 25/20 Q1013 NOSIG,NFFN,2022-10-23T09:00:00Z,-17.75,177.45,25.0,20.0,130,8,,6.21,29.911417,,,,,,TRUE,,,,,FEW,3000,SCT,4800,,,,,VFR,,,,,,,,,,,,METAR,14.0
NCSW 230900Z AUTO 07001KT //// ////// 27/24 Q1013,NCSW,2022-10-23T09:00:00Z,,,27.0,24.0,70,1,,,29.911417,,,TRUE,,,,,,,,,,,,,,,,,,,,,,,,,,,,METAR,
NCRK 230900Z AUTO 03003KT //// ////// 27/21 Q1012,NCRK,2022-10-23T09:00:00Z,-10.02,-161.1,27.0,21.0,30,3,,,29.88189,,,TRUE,,,,,,,,,,,,,,,,,,,,,,,,,,,,METAR,7.0
NCPY 230900Z AUTO 05009KT //// ////// 27/21 Q1012,NCPY,2022-10-23T09:00:00Z,-9.02,-158.03,27.0,21.0,50,9,,,29.88189,,,TRUE,,,,,,,,,,,,,,,,,,,,,,,,,,,,METAR,2.0
NCPL 230900Z AUTO 34002KT //// ///// 26/24 Q1013,NCPL,2022-10-23T09:00:00Z,1.98,-157.48,26.0,24.0,340,2,,,29.911417,,,TRUE,,,,,,,,,,,,,,,,,,,,,,,,,,,,METAR,3.0
NCPK 230900Z AUTO NIL,NCPK,2022-10-23T09:00:00Z,-10.9,-165.83,,,,,,,,,,TRUE,,,,,,,,,,,,,,,,,,,,,,,,,,,,METAR,5.0
NCNS 230900Z AUTO 03003KT //// ////// 28/23 Q1012,NCNS,2022-10-23T09:00:00Z,,,28.0,23.0,30,3,,,29.88189,,,TRUE,,,,,,,,,,,,,,,,,,,,,,,,,,,,METAR,
NCMR 230900Z AUTO 06002KT //// ////// ///// Q1013,NCMR,2022-10-23T09:00:00Z,-19.85,-157.7,,,60,2,,,29.911417,,,TRUE,,,,,,,,,,,,,,,,,,,,,,,,,,,,METAR,8.0
NCMK 230900Z AUTO NIL,NCMK,2022-10-23T09:00:00Z,-20.15,-157.33,,,,,,,,,,TRUE,,,,,,,,,,,,,,,,,,,,,,,,,,,,METAR,13.0
NCMH 230900Z AUTO 01003KT //// ////// ///// Q1012,NCMH,2022-10-23T09:00:00Z,-10.38,-161.0,,,10,3,,,29.88189,,,TRUE,,,,,,,,,,,,,,,,,,,,,,,,,,,,METAR,1.0
NCMG 230900Z AUTO 04003KT //// ////// ///// Q////,NCMG,2022-10-23T09:00:00Z,-21.88,-157.9,,,40,3,,,,,,TRUE,,,,,,,,,,,,,,,,,,,,,,,,,,,,METAR,14.0
NCAT 230900Z AUTO 01002KT //// ////// ///// Q////,NCAT,2022-10-23T09:00:00Z,-19.97,-158.12,,,10,2,,,,,,TRUE,,,,,,,,,,,,,,,,,,,,,,,,,,,,METAR,11.0
NCAI 230900Z AUTO 07003KT //// ////// 26/23 Q1013,NCAI,2022-10-23T09:00:00Z,-18.82,-159.77,26.0,23.0,70,3,,,29.911417,,,TRUE,,,,,,,,,,,,,,,,,,,,,,,,,,,,METAR,7.0
MYNN 230900Z 03005KT 9999 FEW030 26/20 A2997,MYNN,2022-10-23T09:00:00Z,25.03,-77.47,26.0,20.0,30,5,,6.21,29.970472,,,,,,,,,,,FEW,3000,,,,,,,VFR,,,,,,,,,,,,METAR,5.0
MROC 230900Z 05005KT 030V090 CAVOK 20/17 A2999 NOSIG,MROC,2022-10-23T09:00:00Z,10.0,-84.22,20.0,17.0,50,5,,6.21,29.991142,,,,,,TRUE,,,,,CAVOK,,,,,,,,VFR,,,,,,,,,,,,METAR,900.0
MPTO 230900Z VRB02KT 9999 SCT018CB 23/22 Q1009 NOSIG,MPTO,2022-10-23T09:00:00Z,9.05,-79.38,23.0,22.0,0,2,,6.21,29.793306,,,,,,TRUE,,,,,SCT,1800,,,,,,,VFR,,,,,,,,,,,,METAR,7.0
MNMG 230900Z 00000KT 9999 FEW020CB 24/22 Q1010 A2983 CB/SW/NW NOSIG,MNMG,2022-10-23T09:00:00Z,12.15,-86.17,24.0,22.0,0,0,,6.21,29.822834,,,,,,TRUE,,,,,FEW,2000,,,,,,,VFR,,,,,,,,,,,,METAR,59.0
MKJS 230900Z VRB01KT 9999 FEW022CB 26/24 Q1011,MKJS,2022-10-23T09:00:00Z,18.5,-77.92,26.0,24.0,0,1,,6.21,29.852362,,,,,,,,,,,FEW,2200,,,,,,,VFR,,,,,,,,,,,,METAR,3.0
MKJP 230900Z 31007KT 9999 VCTS FEW020 FEW022CB 27/23 Q1011,MKJP,2022-10-23T09:00:00Z,17.93,-76.78,27.0,23.0,310,7,,6.21,29.852362,,,,,,,,,,VCTS,FEW,2000,FEW,2200,,,,,VFR,,,,,,,,,,,,METAR,3.0
MHTG 230900Z 03006KT 9999 FEW008 SCT026 OVC080 19/18 Q1017 A3003 NOSIG,MHTG,2022-10-23T09:00:00Z,14.07,-87.22,19.0,18.0,30,6,,6.21,30.029528,,,,,,TRUE,,,,,FEW,800,SCT,2600,OVC,8000,,,VFR,,,,,,,,,,,,METAR,1001.0
MHLM 230900Z 20002KT 9999 SCT022 OVC070 23/22 Q1013 A2992 NOSIG,MHLM,2022-10-23T09:00:00Z,15.45,-87.93,23.0,22.0,200,2,,6.21,29.911417,,,,,,TRUE,,,,,SCT,2200,OVC,7000,,,,,VFR,,,,,,,,,,,,METAR,32.0
MGPB 230900Z 00000KT 9999 SCT016 BKN090 23/23 Q1012 A2988,MGPB,2022-10-23T09:00:00Z,15.73,-88.58,23.0,23.0,0,0,,6.21,29.88189,,,,,,,,,,,SCT,1600,BKN,9000,,,,,VFR,,,,,,,,,,,,METAR,6.0
MGGT 230900Z 36010KT 9999 FEW004 BKN014 16/15 Q1020 A3012,MGGT,2022-10-23T09:00:00Z,14.58,-90.53,16.0,15.0,360,10,,6.21,30.11811,,,,,,,,,,,FEW,400,BKN,1400,,,,,MVFR,,,,,,,,,,,,METAR,1497.0
MDST 230900Z 00000KT 9999 SCT016 BKN300 23/23 Q1013,MDST,2022-10-23T09:00:00Z,19.4,-70.6,23.0,23.0,0,0,,6.21,29.911417,,,,,,,,,,,SCT,1600,BKN,30000,,,,,VFR,,,,,,,,,,,,METAR,175.0
MDSD 230900Z 00000KT 9999 FEW016 23/23 Q1013,MDSD,2022-10-23T09:00:00Z,18.42,-69.67,23.0,23.0,0,0,,6.21,29.911417,,,,,,,,,,,FEW,1600,,,,,,,VFR,,,,,,,,,,,,METAR,18.0
MDPP 230900Z 00000KT 9999 BKN018 BKN300 23/22 Q1012,MDPP,2022-10-23T09:00:00Z,19.75,-70.57,23.0,22.0,0,0,,6.21,29.88189,,,,,,,,,,,BKN,1800,BKN,30000,,,,,MVFR,,,,,,,,,,,,METAR,9.0
MDPC 230900Z 01003KT 9999 FEW017CB SCT018 24/23 Q1012 CB/SW/W/N,MDPC,2022-10-23T09:00:00Z,18.57,-68.37,24.0,23.0,10,3,,6.21,29.88189,,,,,,,,,,,FEW,1700,SCT,1800,,,,,VFR,,,,,,,,,,,,SPECI,10.0
LRTZ 230900Z 30018KT 9999 FEW150 21/08 Q1018 BLU BLU,LRTZ,2022-10-23T09:00:00Z,43.98,28.62,21.0,8.0,300,18,,6.21,30.059055,,,,,,,,,,,FEW,15000,,,,,,,VFR,,,,,,,,,,,,METAR,45.0
LRFT 230900Z 30010KT 9999 FEW100 21/09 Q1019 BLU BLU,LRFT,2022-10-23T09:00:00Z,44.38,27.72,21.0,9.0,300,10,,6.21,30.088583,,,,,,,,,,,FEW,10000,,,,,,,VFR,,,,,,,,,,,,METAR,54.0
LRCT 230900Z 31008KT 9999 FEW026 OVC033 16/10 Q1022 BLU BLU,LRCT,2022-10-23T09:00:00Z,46.5,23.88,16.0,10.0,310,8,,6.21,30.177166,,,,,,,,,,,FEW,2600,OVC,3300,,,,,VFR,,,,,,,,,,,,METAR,324.0
LRBO 230900Z 30018KT 9999 FEW060 SCT150 21/09 Q1019 BLU BLU,LRBO,2022-10-23T09:00:00Z,45.22,26.97,21.0,9.0,300,18,,6.21,30.088583,,,,,,,,,,,FEW,6000,SCT,15000,,,,,VFR,,,,,,,,,,,,METAR,104.0
LQMO 230900Z VRB02KT CAVOK 18/11 Q1024,LQMO,2022-10-23T09:00:00Z,43.28,17.83,18.0,11.0,0,2,,6.21,30.236221,,,,,,,,,,,CAVOK,,,,,,,,VFR,,,,,,,,,,,,METAR,49.0
LPMT 230900Z 21010KT 190V250 9999 FEW028 20/17 Q1015,LPMT,2022-10-23T09:00:00Z,38.7,-9.05,20.0,17.0,210,10,,6.21,29.970472,,,,,,,,,,,FEW,2800,,,,,,,VFR,,,,,,,,,,,,SPECI,4.0
LPMR 230900Z 19009KT 9999 BKN025 17/15 Q1013,LPMR,2022-10-23T09:00:00Z,39.82,-8.88,17.0,15.0,190,9,,6.21,29.911417,,,,,,,,,,,BKN,2500,,,,,,,MVFR,,,,,,,,,,,,SPECI,50.0
LPBJ 230900Z 21007KT 9999 FEW025 SCT045 17/15 Q1017,LPBJ,2022-10-23T09:00:00Z,38.08,-7.93,17.0,15.0,210,7,,6.21,30.029528,,,,,,,,,,,FEW,2500,SCT,4500,,,,,VFR,,,,,,,,,,,,SPECI,196.0
LOAV 230900Z 15005KT CAVOK 13/09,LOAV,2022-10-23T09:00:00Z,47.97,16.27,13.0,9.0,150,5,,6.21,,,,,,,,,,,,CAVOK,,,,,,,,VFR,,,,,,,,,,,,METAR,232.0
LOAN 230900Z 09005KT 0300 FG VV002,LOAN,2022-10-23T09:00:00Z,47.85,16.25,,,90,5,,0.19,,,,,,,,,,,FG,OVX,0,,,,,,,LIFR,,,,,,,,,,,200,METAR,266.0
LKLN 230900Z AUTO VRB02KT 0200 FG VV002 08/08 Q1019,LKLN,2022-10-23T09:00:00Z,49.68,13.27,8.0,8.0,0,2,,0.12,30.088583,,,TRUE,,,,,,,FG,OVX,0,,,,,,,LIFR,,,,,,,,,,,200,METAR,353.0
LKKU 230900Z 27001KT 0900 FG BKN004 11/11 Q1022,LKKU,2022-10-23T09:00:00Z,49.05,17.45,11.0,11.0,270,1,,0.56,30.177166,,,,,,,,,,FG,BKN,400,,,,,,,LIFR,,,,,,,,,,,,METAR,176.0
LKKB 230900Z 04004KT CAVOK 10/09 Q1020 NOSIG,LKKB,2022-10-23T09:00:00Z,50.12,14.53,10.0,9.0,40,4,,6.21,30.11811,,,,,,TRUE,,,,,CAVOK,,,,,,,,VFR,,,,,,,,,,,,METAR,281.0
KNEL 230900Z AUTO 00000KT 10SM OVC035 13/11 A3023 RMK AO2 SLP235 T01280106 58005 $,KNEL,2022-10-23T09:00:00Z,40.03,-74.33,12.8,10.6,0,0,,10.0,30.230314,1023.5,,TRUE,TRUE,TRUE,,,,,,OVC,3500,,,,,,,VFR,-0.5,,,,,,,,,,,SPECI,26.0
KCWN 230900Z AUTO 16013G30KT 10SM SCT230 14/M03 A2922 RMK AO2 WSHFT 00 LTG DSNT S SLP708 $,KCWN,2022-10-23T09:00:00Z,38.75,-104.85,14.0,-3.0,160,13,30,10.0,29.220472,970.8,,TRUE,TRUE,TRUE,,,,,,SCT,23000,,,,,,,VFR,,,,,,,,,,,,SPECI,2040.0
HUAR 230900Z 09006KT 9999 BKN022 FEW024CB 25/17 Q1020,HUAR,2022-10-23T09:00:00Z,3.03,30.92,25.0,17.0,90,6,,6.21,30.11811,,,,,,,,,,,BKN,2200,FEW,2400,,,,,MVFR,,,,,,,,,,,,METAR,1211.0
HTZA 230900Z 18012KT 9999 SCT018 BKN080 27/23 Q1017 RERA NOSIG,HTZA,2022-10-23T09:00:00Z,-6.22,39.22,27.0,23.0,180,12,,6.21,30.029528,,,,,,TRUE,,,,,SCT,1800,BKN,8000,,,,,VFR,,,,,,,,,,,,METAR,19.0
HTTB 230900Z 13015KT 9999 FEW025 30/11 Q1021 NOSIG,HTTB,2022-10-23T09:00:00Z,-5.07,32.82,30.0,11.0,130,15,,6.21,30.147638,,,,,,TRUE,,,,,FEW,2500,,,,,,,VFR,,,,,,,,,,,,METAR,1185.0
HTSU 230900Z 09003KT 9999 FEW024 25/08 Q1026,HTSU,2022-10-23T09:00:00Z,-7.95,31.6,25.0,8.0,90,3,,6.21,30.295275,,,,,,,,,,,FEW,2400,,,,,,,VFR,,,,,,,,,,,,METAR,1820.0
HTSO 230900Z 03010KT 9999 BKN022 26/14 Q1023,HTSO,2022-10-23T09:00:00Z,-10.67,35.58,26.0,14.0,30,10,,6.21,30.206694,,,,,,,,,,,BKN,2200,,,,,,,MVFR,,,,,,,,,,,,METAR,1058.0
HTMW 230900Z 06015KT 9999 FEW027 FEW028CB SCT100 30/10 Q1019 NOSIG,HTMW,2022-10-23T09:00:00Z,-2.43,32.92,30.0,10.0,60,15,,6.21,30.088583,,,,,,TRUE,,,,,FEW,2700,FEW,2800,SCT,10000,,,VFR,,,,,,,,,,,,METAR,1144.0
HTMU 230900Z 36005KT 9999 FEW032 27/17 Q1021,HTMU,2022-10-23T09:00:00Z,-1.5,33.8,27.0,17.0,360,5,,6.21,30.147638,,,,,,,,,,,FEW,3200,,,,,,,VFR,,,,,,,,,,,,METAR,1154.0
HTMT 230900Z 05013KT 9999 SCT027 30/18 Q1019 NOSIG,HTMT,2022-10-23T09:00:00Z,-10.33,40.18,30.0,18.0,50,13,,6.21,30.088583,,,,,,TRUE,,,,,SCT,2700,,,,,,,VFR,,,,,,,,,,,,METAR,114.0
HTMP 230900Z 09005KT 9999 FEW026 31/10 Q1021,HTMP,2022-10-23T09:00:00Z,-6.35,31.08,31.0,10.0,90,5,,6.21,30.147638,,,,,,,,,,,FEW,2600,,,,,,,VFR,,,,,,,,,,,,METAR,1073.0
HTMG 230900Z 00000KT 9999 BKN025 28/18 Q1019,HTMG,2022-10-23T09:00:00Z,-6.78,37.65,28.0,18.0,0,0,,6.21,30.088583,,,,,,,,,,,BKN,2500,,,,,,,MVFR,,,,,,,,,,,,METAR,512.0
HTKJ 230900Z 16010KT 9999 PO BKN036 29/15 Q1021 NOSIG,HTKJ,2022-10-23T09:00:00Z,-3.42,37.07,29.0,15.0,160,10,,6.21,30.147638,,,,,,TRUE,,,,PO,BKN,3600,,,,,,,VFR,,,,,,,,,,,,METAR,893.0
HTKA 230900Z 20012KT CAVOK 29/20 Q1017 NOSIG,HTKA,2022-10-23T09:00:00Z,-4.88,29.67,29.0,20.0,200,12,,6.21,30.029528,,,,,,TRUE,,,,,CAVOK,,,,,,,,VFR,,,,,,,,,,,,METAR,819.0
HTJN 230900Z AUTO 02709KT 352V073 //// 25/14 Q1023,HTJN,2022-10-23T09:00:00Z,,,25.0,14.0,27,9,,,30.206694,,,TRUE,,,,,,,,,,,,,,,,,,,,,,,,,,,,METAR,
HTIR 230900Z 04010KT 9999 FEW030 28/10 Q1024,HTIR,2022-10-23T09:00:00Z,-7.67,35.75,28.0,10.0,40,10,,6.21,30.236221,,,,,,,,,,,FEW,3000,,,,,,,VFR,,,,,,,,,,,,METAR,1432.0
HTIB 230900Z 09012KT 9999 FEW028 30/11 Q1018,HTIB,2022-10-23T09:00:00Z,,,30.0,11.0,90,12,,6.21,30.059055,,,,,,,,,,,FEW,2800,,,,,,,VFR,,,,,,,,,,,,METAR,
HTDO 230900Z 09015KT 9999 FEW028 NOSIG,HTDO,2022-10-23T09:00:00Z,-6.17,35.77,,,90,15,,6.21,,,,,,,TRUE,,,,,FEW,2800,,,,,,,VFR,,,,,,,,,,,,METAR,1119.0
HTDA 230900Z 05008KT 9999 FEW020 SCT023 29/22 Q1018 NOSIG,HTDA,2022-10-23T09:00:00Z,-6.88,39.2,29.0,22.0,50,8,,6.21,30.059055,,,,,,TRUE,,,,,FEW,2000,SCT,2300,,,,,VFR,,,,,,,,,,,,METAR,53.0
HTBU 230900Z 07010KT 9999 FEW019 FEW021CB 26/20 Q1019,HTBU,2022-10-23T09:00:00Z,-1.32,31.82,26.0,20.0,70,10,,6.21,30.088583,,,,,,,,,,,FEW,1900,FEW,2100,,,,,VFR,,,,,,,,,,,,METAR,1144.0
HTAR 230900Z 12015KT 9999 BKN032 25/14 Q1025 NOSIG,HTAR,2022-10-23T09:00:00Z,-3.37,36.63,25.0,14.0,120,15,,6.21,30.265747,,,,,,TRUE,,,,,BKN,3200,,,,,,,VFR,,,,,,,,,,,,METAR,1386.0
HRZA 230900Z 28006KT 9999 SCT025 24/16 Q1022 NOSIG,HRZA,2022-10-23T09:00:00Z,-2.47,28.92,24.0,16.0,280,6,,6.21,30.177166,,,,,,TRUE,,,,,SCT,2500,,,,,,,VFR,,,,,,,,,,,,METAR,1591.0
HKWJ 230900Z 00000KT 9999 BKN033 29/18 Q1015,HKWJ,2022-10-23T09:00:00Z,1.75,40.08,29.0,18.0,0,0,,6.21,29.970472,,,,,,,,,,,BKN,3300,,,,,,,VFR,,,,,,,,,,,,METAR,254.0
HKNW 230900Z 07007KT 9999 BKN026 24/10 Q1025,HKNW,2022-10-23T09:00:00Z,-1.32,36.82,24.0,10.0,70,7,,6.21,30.265747,,,,,,,,,,,BKN,2600,,,,,,,MVFR,,,,,,,,,,,,METAR,1666.0
HKNK 230900Z 22007KT 9999 FEW022 BKN230 24/10,HKNK,2022-10-23T09:00:00Z,-0.3,36.17,24.0,10.0,220,7,,6.21,,,,,,,,,,,,FEW,2200,BKN,23000,,,,,VFR,,,,,,,,,,,,METAR,1900.0
HKNI 230900Z 16004KT 9999 SCT026 25/10,HKNI,2022-10-23T09:00:00Z,-0.33,36.92,25.0,10.0,160,4,,6.21,,,,,,,,,,,,SCT,2600,,,,,,,VFR,,,,,,,,,,,,METAR,1769.0
HKML 230900Z 11008KT 9999 SCT022 29/23 Q1016,HKML,2022-10-23T09:00:00Z,-3.22,40.1,29.0,23.0,110,8,,6.21,30.0,,,,,,,,,,,SCT,2200,,,,,,,VFR,,,,,,,,,,,,METAR,20.0
HKME 230900Z 15007KT 9999 SCT023 24/13,HKME,2022-10-23T09:00:00Z,0.07,37.65,24.0,13.0,150,7,,6.21,,,,,,,,,,,,SCT,2300,,,,,,,VFR,,,,,,,,,,,,METAR,1609.0
HKLU 230900Z 18007KT 9999 BKN026 30/21 Q1015,HKLU,2022-10-23T09:00:00Z,-2.25,40.92,30.0,21.0,180,7,,6.21,29.970472,,,,,,,,,,,BKN,2600,,,,,,,MVFR,,,,,,,,,,,,METAR,6.0
HKLO 230900Z 09010KT 9999 FEW032 34/14 Q1011,HKLO,2022-10-23T09:00:00Z,3.12,35.62,34.0,14.0,90,10,,6.21,29.852362,,,,,,,,,,,FEW,3200,,,,,,,VFR,,,,,,,,,,,,METAR,503.0
HKKT 230900Z 00000KT 9999 FEW023 24/12,HKKT,2022-10-23T09:00:00Z,0.97,34.97,24.0,12.0,0,0,,6.21,,,,,,,,,,,,FEW,2300,,,,,,,VFR,,,,,,,,,,,,METAR,1829.0
HKGA 230900Z 16008KT 9999 BKN027 32/19 Q1015,HKGA,2022-10-23T09:00:00Z,-0.47,39.65,32.0,19.0,160,8,,6.21,29.970472,,,,,,,,,,,BKN,2700,,,,,,,MVFR,,,,,,,,,,,,METAR,147.0
HKEM 230900Z 12004KT 9999 BKN023TCU 26/13,HKEM,2022-10-23T09:00:00Z,-0.57,37.48,26.0,13.0,120,4,,6.21,,,,,,,,,,,,BKN,2300,,,,,,,MVFR,,,,,,,,,,,,METAR,1265.0
HKEL 230900Z 13012KT 9999 FEW023 23/08 Q1027,HKEL,2022-10-23T09:00:00Z,0.4,35.23,23.0,8.0,130,12,,6.21,30.324802,,,,,,,,,,,FEW,2300,,,,,,,VFR,,,,,,,,,,,,METAR,2116.0
HETR 230900Z 30026KT 6000 FEW025 26/20 Q1017,HETR,2022-10-23T09:00:00Z,28.22,33.65,26.0,20.0,300,26,,3.73,30.029528,,,,,,,,,,,FEW,2500,,,,,,,MVFR,,,,,,,,,,,,METAR,35.0
HESW 230900Z 33008KT CAVOK 23/08 Q1024,HESW,2022-10-23T09:00:00Z,29.35,25.5,23.0,8.0,330,8,,6.21,30.236221,,,,,,,,,,,CAVOK,,,,,,,,VFR,,,,,,,,,,,,METAR,101.0
HESN 230900Z 36009KT CAVOK 29/09 Q1019 NOSIG,HESN,2022-10-23T09:00:00Z,23.97,32.82,29.0,9.0,360,9,,6.21,30.088583,,,,,,TRUE,,,,,CAVOK,,,,,,,,VFR,,,,,,,,,,,,METAR,197.0
HESH 230900Z 06009KT CAVOK 29/18 Q1017 NOSIG,HESH,2022-10-23T09:00:00Z,27.97,34.38,29.0,18.0,60,9,,6.21,30.029528,,,,,,TRUE,,,,,CAVOK,,,,,,,,VFR,,,,,,,,,,,,METAR,50.0
HESG 230900Z 34007KT 8000 NSC 26/13 Q1019 NOSIG,HESG,2022-10-23T09:00:00Z,26.33,31.75,26.0,13.0,340,7,,4.97,30.088583,,,,,,TRUE,,,,,CLR,,,,,,,,MVFR,,,,,,,,,,,,METAR,70.0
HEPS 230900Z 06008KT 9999 SCT025 23/18 Q1020 NOSIG,HEPS,2022-10-23T09:00:00Z,31.28,32.25,23.0,18.0,60,8,,6.21,30.11811,,,,,,TRUE,,,,,SCT,2500,,,,,,,VFR,,,,,,,,,,,,METAR,2.0
HEMM 230900Z 36011KT 9999 SCT020 SCT022 27/12 Q1020 NOSIG,HEMM,2022-10-23T09:00:00Z,31.32,27.22,27.0,12.0,360,11,,6.21,30.11811,,,,,,TRUE,,,,,SCT,2000,SCT,2200,,,,,VFR,,,,,,,,,,,,METAR,26.0
HEMA 230900Z 01015KT CAVOK 28/14 Q1017 NOSIG,HEMA,2022-10-23T09:00:00Z,25.55,34.58,28.0,14.0,10,15,,6.21,30.029528,,,,,,TRUE,,,,,CAVOK,,,,,,,,VFR,,,,,,,,,,,,METAR,77.0
HELX 230900Z 35004KT 6000 NSC 29/12 Q1019 NOSIG,HELX,2022-10-23T09:00:00Z,25.67,32.7,29.0,12.0,350,4,,3.73,30.088583,,,,,,TRUE,,,,,CLR,,,,,,,,MVFR,,,,,,,,,,,,METAR,86.0
HEIS 230900Z 28007KT CAVOK 25/16 Q1018,HEIS,2022-10-23T09:00:00Z,30.58,32.25,25.0,16.0,280,7,,6.21,30.059055,,,,,,,,,,,CAVOK,,,,,,,,VFR,,,,,,,,,,,,METAR,14.0
HEGN 230900Z 01011KT CAVOK 29/13 Q1017 NOSIG,HEGN,2022-10-23T09:00:00Z,27.18,33.8,29.0,13.0,10,11,,6.21,30.029528,,,,,,TRUE,,,,,CAVOK,,,,,,,,VFR,,,,,,,,,,,,METAR,14.0
HECP 230900Z 28008KT 9999 SCT025 24/17 Q1020 NOSIG,HECP,2022-10-23T09:00:00Z,30.07,31.83,24.0,17.0,280,8,,6.21,30.11811,,,,,,TRUE,,,,,SCT,2500,,,,,,,VFR,,,,,,,,,,,,METAR,240.0
HEBL 230900Z 34011KT CAVOK 29/08 Q1019 NOSIG,HEBL,2022-10-23T09:00:00Z,22.38,31.62,29.0,8.0,340,11,,6.21,30.088583,,,,,,TRUE,,,,,CAVOK,,,,,,,,VFR,,,,,,,,,,,,METAR,184.0
HEBA 230900Z 33012KT 9999 SCT020 25/16 Q1023 NOSIG,HEBA,2022-10-23T09:00:00Z,30.92,29.7,25.0,16.0,330,12,,6.21,30.206694,,,,,,TRUE,,,,,SCT,2000,,,,,,,VFR,,,,,,,,,,,,METAR,41.0
HEAX 230900Z 35011KT 9999 SCT020 SCT022 23/16 Q1022 NOSIG,HEAX,2022-10-23T09:00:00Z,31.18,29.93,23.0,16.0,350,11,,6.21,30.177166,,,,,,TRUE,,,,,SCT,2000,SCT,2200,,,,,VFR,,,,,,,,,,,,METAR,-2.0
HEAT 230900Z 30015KT CAVOK 25/13 Q1023 NOSIG,HEAT,2022-10-23T09:00:00Z,27.05,31.02,25.0,13.0,300,15,,6.21,30.206694,,,,,,TRUE,,,,,CAVOK,,,,,,,,VFR,,,,,,,,,,,,METAR,229.0
HCMM 230900Z 16011KT 9999 SCT023 29/24 Q1015,HCMM,2022-10-23T09:00:00Z,2.02,45.3,29.0,24.0,160,11,,6.21,29.970472,,,,,,,,,,,SCT,2300,,,,,,,VFR,,,,,,,,,,,,METAR,6.0
HCMF 230900Z 01016KT 9999 FEW042 28/24 Q1013,HCMF,2022-10-23T09:00:00Z,11.27,49.13,28.0,24.0,10,16,,6.21,29.911417,,,,,,,,,,,FEW,4200,,,,,,,VFR,,,,,,,,,,,,METAR,8.0
HBBA 230900Z 18006KT 8000 FEW025TCU30/19 Q1016 NOSIG,HBBA,2022-10-23T09:00:00Z,-3.32,29.32,30.0,19.0,180,6,,4.97,30.0,,,,,,TRUE,,,,,,,,,,,,,,,,,,,,,,,,,SPECI,777.0
GVSV 230900Z 05026KT 9999 FEW018 26/21 Q1015 NOSIG,GVSV,2022-10-23T09:00:00Z,16.83,-25.07,26.0,21.0,50,26,,6.21,29.970472,,,,,,TRUE,,,,,FEW,1800,,,,,,,VFR,,,,,,,,,,,,METAR,16.0
GVNP 230900Z 03013KT 9999 SCT016 25/21 Q1015 NOSIG,GVNP,2022-10-23T09:00:00Z,14.95,-23.48,25.0,21.0,30,13,,6.21,29.970472,,,,,,TRUE,,,,,SCT,1600,,,,,,,VFR,,,,,,,,,,,,METAR,70.0
GVBA 230900Z 04016KT 9999 SCT014 26/22 Q1015 NOSIG,GVBA,2022-10-23T09:00:00Z,16.13,-22.88,26.0,22.0,40,16,,6.21,29.970472,,,,,,TRUE,,,,,SCT,1400,,,,,,,VFR,,,,,,,,,,,,METAR,23.0
GVAC 230900Z 03013KT 9999 FEW014 25/21 Q1015 NOSIG,GVAC,2022-10-23T09:00:00Z,16.73,-22.93,25.0,21.0,30,13,,6.21,29.970472,,,,,,TRUE,,,,,FEW,1400,,,,,,,VFR,,,,,,,,,,,,METAR,54.0
GQPP 230900Z 36013KT 6000 SCT006 20/19 Q1015 NOSIG,GQPP,2022-10-23T09:00:00Z,20.92,-17.02,20.0,19.0,360,13,,3.73,29.970472,,,,,,TRUE,,,,,SCT,600,,,,,,,MVFR,,,,,,,,,,,,METAR,5.0
GQPA 230900Z 02008KT 8000 NSC 29/06 Q1017,GQPA,2022-10-23T09:00:00Z,20.52,-13.03,29.0,6.0,20,8,,4.97,30.029528,,,,,,,,,,,CLR,,,,,,,,MVFR,,,,,,,,,,,,METAR,228.0
GOTT 230900Z 26004KT 9999 SCT013 28/24 Q1014,GOTT,2022-10-23T09:00:00Z,13.73,-13.65,28.0,24.0,260,4,,6.21,29.940945,,,,,,,,,,,SCT,1300,,,,,,,VFR,,,,,,,,,,,,METAR,53.0
GOTK 230900Z 00000KT 9999 SCT013 27/24 Q1014,GOTK,2022-10-23T09:00:00Z,12.57,-12.22,27.0,24.0,0,0,,6.21,29.940945,,,,,,,,,,,SCT,1300,,,,,,,VFR,,,,,,,,,,,,METAR,165.0
GOSS 230900Z 34004KT 260V020 9999 SCT010 29/26 Q1014,GOSS,2022-10-23T09:00:00Z,16.05,-16.45,29.0,26.0,340,4,,6.21,29.940945,,,,,,,,,,,SCT,1000,,,,,,,VFR,,,,,,,,,,,,METAR,3.0
GOSP 230900Z 28002KT CAVOK 28/24 Q1013,GOSP,2022-10-23T09:00:00Z,16.68,-14.97,28.0,24.0,280,2,,6.21,29.911417,,,,,,,,,,,CAVOK,,,,,,,,VFR,,,,,,,,,,,,METAR,10.0
GOSM 230900Z 26004KT CAVOK 29/25 Q1013,GOSM,2022-10-23T09:00:00Z,15.6,-13.33,29.0,25.0,260,4,,6.21,29.911417,,,,,,,,,,,CAVOK,,,,,,,,VFR,,,,,,,,,,,,METAR,28.0
GOOY 230900Z 32004KT 9999 FEW015 27/25 Q1014,GOOY,2022-10-23T09:00:00Z,14.73,-17.5,27.0,25.0,320,4,,6.21,29.940945,,,,,,,,,,,FEW,1500,,,,,,,VFR,,,,,,,,,,,,METAR,21.0
GOOK 230900Z 28006KT 9999 SCT015 29/27 Q1014,GOOK,2022-10-23T09:00:00Z,14.15,-16.07,29.0,27.0,280,6,,6.21,29.940945,,,,,,,,,,,SCT,1500,,,,,,,VFR,,,,,,,,,,,,METAR,8.0
GOOG 230900Z 28004KT CAVOK 29/26 Q1011,GOOG,2022-10-23T09:00:00Z,15.4,-15.08,29.0,26.0,280,4,,6.21,29.852362,,,,,,,,,,,CAVOK,,,,,,,,VFR,,,,,,,,,,,,METAR,38.0
GOOD 230900Z 00000KT 9999 FEW013 28/27 Q1014,GOOD,2022-10-23T09:00:00Z,14.65,-16.22,28.0,27.0,0,0,,6.21,29.940945,,,,,,,,,,,FEW,1300,,,,,,,VFR,,,,,,,,,,,,METAR,9.0
GOGS 230900Z VRB02KT 9999 FEW015 28/26 Q1014,GOGS,2022-10-23T09:00:00Z,12.4,-16.75,28.0,26.0,0,2,,6.21,29.940945,,,,,,,,,,,FEW,1500,,,,,,,VFR,,,,,,,,,,,,METAR,13.0
GOGK 230900Z 00000KT CAVOK 28/26 Q1012,GOGK,2022-10-23T09:00:00Z,12.9,-14.97,28.0,26.0,0,0,,6.21,29.88189,,,,,,,,,,,CAVOK,,,,,,,,VFR,,,,,,,,,,,,METAR,37.0
GOGG 230900Z 30004KT CAVOK 27/26 Q1014,GOGG,2022-10-23T09:00:00Z,12.55,-16.27,27.0,26.0,300,4,,6.21,29.940945,,,,,,,,,,,CAVOK,,,,,,,,VFR,,,,,,,,,,,,METAR,24.0
GMTN 230900Z VRB02KT 8000 FEW016 BKN140 23/17 Q1018 NOSIG,GMTN,2022-10-23T09:00:00Z,35.58,-5.32,23.0,17.0,0,2,,4.97,30.059055,,,,,,TRUE,,,,,FEW,1600,BKN,14000,,,,,MVFR,,,,,,,,,,,,METAR,10.0
GMTA 230900Z 16004KT 140V210 CAVOK 23/17 Q1018 NOSIG,GMTA,2022-10-23T09:00:00Z,35.17,-3.85,23.0,17.0,160,4,,6.21,30.059055,,,,,,TRUE,,,,,CAVOK,,,,,,,,VFR,,,,,,,,,,,,METAR,14.0
GMMZ 230900Z VRB01KT CAVOK 18/M02 Q1026 NOSIG,GMMZ,2022-10-23T09:00:00Z,30.93,-6.9,18.0,-2.0,0,1,,6.21,30.295275,,,,,,TRUE,,,,,CAVOK,,,,,,,,VFR,,,,,,,,,,,,METAR,1139.0
GMMW 230900Z 28003KT 220V330 6000 NSC 24/15 Q1019 NOSIG,GMMW,2022-10-23T09:00:00Z,34.98,-3.02,24.0,15.0,280,3,,3.73,30.088583,,,,,,TRUE,,,,,CLR,,,,,,,,MVFR,,,,,,,,,,,,METAR,174.0
GMMI 230900Z VRB03KT 6000 NSC 20/14 Q1018 NOSIG,GMMI,2022-10-23T09:00:00Z,31.4,-9.68,20.0,14.0,0,3,,3.73,30.059055,,,,,,TRUE,,,,,CLR,,,,,,,,MVFR,,,,,,,,,,,,METAR,102.0
GMFK 230900Z 14003KT CAVOK 20/M01 Q1028 NOSIG,GMFK,2022-10-23T09:00:00Z,31.95,-4.4,20.0,-1.0,140,3,,6.21,30.35433,,,,,,TRUE,,,,,CAVOK,,,,,,,,VFR,,,,,,,,,,,,METAR,1033.0
GMAT 230900Z 05004KT 6000 FEW006 18/18 Q1018 NOSIG,GMAT,2022-10-23T09:00:00Z,28.43,-11.15,18.0,18.0,50,4,,3.73,30.059055,,,,,,TRUE,,,,,FEW,600,,,,,,,MVFR,,,,,,,,,,,,METAR,192.0
GGOV 230900Z VRB03KT 8000 NSC 28/24 Q1014 NOSIG,GGOV,2022-10-23T09:00:00Z,11.88,-15.65,28.0,24.0,0,3,,4.97,29.940945,,,,,,TRUE,,,,,CLR,,,,,,,,MVFR,,,,,,,,,,,,METAR,31.0
GBYD 230900Z 00000KT 9999 FEW011 SCT110 28/26 Q1014,GBYD,2022-10-23T09:00:00Z,13.33,-16.65,28.0,26.0,0,0,,6.21,29.940945,,,,,,,,,,,FEW,1100,SCT,11000,,,,,VFR,,,,,,,,,,,,METAR,29.0
GANR 230900Z 26006KT CAVOK 29/23 Q1016,GANR,2022-10-23T09:00:00Z,15.23,-9.58,29.0,23.0,260,6,,6.21,30.0,,,,,,,,,,,CAVOK,,,,,,,,VFR,,,,,,,,,,,,METAR,237.0
GAMB 230900Z 00000KT 8000 NSC 31/22 Q1015,GAMB,2022-10-23T09:00:00Z,14.52,-4.08,31.0,22.0,0,0,,4.97,29.970472,,,,,,,,,,,CLR,,,,,,,,MVFR,,,,,,,,,,,,METAR,271.0
GAKD 230900Z 30010KT CAVOK 29/24 Q1015,GAKD,2022-10-23T09:00:00Z,14.48,-11.4,29.0,24.0,300,10,,6.21,29.970472,,,,,,,,,,,CAVOK,,,,,,,,VFR,,,,,,,,,,,,METAR,53.0
FZAA 230900Z 00000KT 7000 SCT020 BKN080 28/23 Q1015 NOSIG,FZAA,2022-10-23T09:00:00Z,-4.38,15.45,28.0,23.0,0,0,,4.35,29.970472,,,,,,TRUE,,,,,SCT,2000,BKN,8000,,,,,MVFR,,,,,,,,,,,,METAR,309.0
FYWW 230900Z 02004KT 9999 FEW040 29/08 Q1024,FYWW,2022-10-23T09:00:00Z,-22.57,17.1,29.0,8.0,20,4,,6.21,30.236221,,,,,,,,,,,FEW,4000,,,,,,,VFR,,,,,,,,,,,,METAR,1672.0
FYWH 230900Z 11005KT CAVOK 27/10 Q1025 BECMG SCT050,FYWH,2022-10-23T09:00:00Z,-22.47,17.47,27.0,10.0,110,5,,6.21,30.265747,,,,,,,,,,,CAVOK,,,,,,,,VFR,,,,,,,,,,,,SPECI,1699.0
FYWE 230900Z 01006KT 310V060 CAVOK 29/05 Q1025,FYWE,2022-10-23T09:00:00Z,-22.62,17.08,29.0,5.0,10,6,,6.21,30.265747,,,,,,,,,,,CAVOK,,,,,,,,VFR,,,,,,,,,,,,METAR,1700.0
FYRU 230900Z 01003KT CAVOK 31/11 Q1021,FYRU,2022-10-23T09:00:00Z,-17.95,19.72,31.0,11.0,10,3,,6.21,30.147638,,,,,,,,,,,CAVOK,,,,,,,,VFR,,,,,,,,,,,,METAR,1104.0
FYLZ 230900Z AUTO 20015KT //// // ////// 21/13 Q1014,FYLZ,2022-10-23T09:00:00Z,-26.68,15.25,21.0,13.0,200,15,,,29.940945,,,TRUE,,,,,,,,,,,,,,,,,,,,,,,,,,,,METAR,129.0
FYKM 230900Z 27005KT CAVOK 30/09 Q1018,FYKM,2022-10-23T09:00:00Z,-17.63,24.18,30.0,9.0,270,5,,6.21,30.059055,,,,,,,,,,,CAVOK,,,,,,,,VFR,,,,,,,,,,,,METAR,959.0
FYGF 230900Z 01007KT 9999 FEW030 BKN100 28/10 Q1023,FYGF,2022-10-23T09:00:00Z,-19.6,18.12,28.0,10.0,10,7,,6.21,30.206694,,,,,,,,,,,FEW,3000,BKN,10000,,,,,VFR,,,,,,,,,,,,METAR,1407.0
FWKI 230900Z 07015KT CAVOK 27/14 Q1022 NOSIG,FWKI,2022-10-23T09:00:00Z,-13.78,33.78,27.0,14.0,70,15,,6.21,30.177166,,,,,,TRUE,,,,,CAVOK,,,,,,,,VFR,,,,,,,,,,,,METAR,1225.0
FWCL 230900Z 06013KT 9999 FEW030 31/10 Q1019 NOSIG,FWCL,2022-10-23T09:00:00Z,-15.67,34.97,31.0,10.0,60,13,,6.21,30.088583,,,,,,TRUE,,,,,FEW,3000,,,,,,,VFR,,,,,,,,,,,,METAR,774.0
FTTJ 230900Z 12005KT 120V180 6000 NSC 33/20 Q1014 NOSIG,FTTJ,2022-10-23T09:00:00Z,12.13,15.03,33.0,20.0,120,5,,3.73,29.940945,,,,,,TRUE,,,,,CLR,,,,,,,,MVFR,,,,,,,,,,,,METAR,295.0
FTTA 230900Z 20002KT CAVOK 30/24 Q1016,FTTA,2022-10-23T09:00:00Z,9.15,18.37,30.0,24.0,200,2,,6.21,30.0,,,,,,,,,,,CAVOK,,,,,,,,VFR,,,,,,,,,,,,METAR,361.0
FSIA 230900Z 12014KT 9999 FEW023 29/24 Q1014 NOSIG,FSIA,2022-10-23T09:00:00Z,-4.67,55.52,29.0,24.0,120,14,,6.21,29.940945,,,,,,TRUE,,,,,FEW,2300,,,,,,,VFR,,,,,,,,,,,,METAR,3.0
FQXA 230900Z VRB02KT 9999 BKN020 OVC025 26/19 Q1020,FQXA,2022-10-23T09:00:00Z,-25.05,33.62,26.0,19.0,0,2,,6.21,30.11811,,,,,,,,,,,BKN,2000,OVC,2500,,,,,MVFR,,,,,,,,,,,,METAR,3.0
FQVL 230900Z 10007KT 9999 FEW020 30/23 Q1018,FQVL,2022-10-23T09:00:00Z,-22.0,35.32,30.0,23.0,100,7,,6.21,30.059055,,,,,,,,,,,FEW,2000,,,,,,,VFR,,,,,,,,,,,,METAR,15.0
FQTT 230900Z 14010KT CAVOK 36/15 Q1015,FQTT,2022-10-23T09:00:00Z,-16.1,33.63,36.0,15.0,140,10,,6.21,29.970472,,,,,,,,,,,CAVOK,,,,,,,,VFR,,,,,,,,,,,,METAR,146.0
FQQL 230900Z 12011KT CAVOK 33/23 Q1016,FQQL,2022-10-23T09:00:00Z,-17.87,36.87,33.0,23.0,120,11,,6.21,30.0,,,,,,,,,,,CAVOK,,,,,,,,VFR,,,,,,,,,,,,METAR,5.0
FQPB 230900Z 06028KT 9999 FEW020 29/22 Q1018,FQPB,2022-10-23T09:00:00Z,-12.98,40.52,29.0,22.0,60,28,,6.21,30.059055,,,,,,,,,,,FEW,2000,,,,,,,VFR,,,,,,,,,,,,METAR,101.0
FQNP 230900Z 05013KT 350V100 CAVOK 32/10 Q1019,FQNP,2022-10-23T09:00:00Z,-15.1,39.27,32.0,10.0,50,13,,6.21,30.088583,,,,,,,,,,,CAVOK,,,,,,,,VFR,,,,,,,,,,,,METAR,434.0
FQNC 230900Z /////KT 9999 FEW020 28/// Q1018,FQNC,2022-10-23T09:00:00Z,-14.48,40.72,,,,,,6.21,30.059055,,,,,,,,,,,FEW,2000,,,,,,,VFR,,,,,,,,,,,,METAR,112.0
FQMA 230900Z 15005KT 9999 BKN020 27/20 Q1019 NOSIG,FQMA,2022-10-23T09:00:00Z,-25.92,32.57,27.0,20.0,150,5,,6.21,30.088583,,,,,,TRUE,,,,,BKN,2000,,,,,,,MVFR,,,,,,,,,,,,METAR,34.0
FQLC 230900Z 07009KT 9999 FEW015 25/13 Q1024,FQLC,2022-10-23T09:00:00Z,-13.27,35.25,25.0,13.0,70,9,,6.21,30.236221,,,,,,,,,,,FEW,1500,,,,,,,VFR,,,,,,,,,,,,METAR,1362.0
FQIN 230900Z 00000KT 9999 SCT020 BKN025 28/20 Q1019,FQIN,2022-10-23T09:00:00Z,-23.87,35.38,28.0,20.0,0,0,,6.21,30.088583,,,,,,,,,,,SCT,2000,BKN,2500,,,,,MVFR,,,,,,,,,,,,METAR,10.0
FQCH 230900Z /////KT 9999 FEW020 29/17 Q1022,FQCH,2022-10-23T09:00:00Z,-19.15,33.43,29.0,17.0,,,,6.21,30.177166,,,,,,,,,,,FEW,2000,,,,,,,VFR,,,,,,,,,,,,METAR,695.0
FQBR 230900Z 12012KT 9999 BKN018 31/23 Q1017,FQBR,2022-10-23T09:00:00Z,-19.8,34.9,31.0,23.0,120,12,,6.21,30.029528,,,,,,,,,,,BKN,1800,,,,,,,MVFR,,,,,,,,,,,,METAR,14.0
FOON 230900Z /////KT 9999 BKN012 27/23 Q1015,FOON,2022-10-23T09:00:00Z,-1.65,13.43,27.0,23.0,,,,6.21,29.970472,,,,,,,,,,,BKN,1200,,,,,,,MVFR,,,,,,,,,,,,METAR,440.0
FOOL 230900Z 21004KT 150V250 9999 SCT010 SCT040 27/24 Q1014 NOSIG,FOOL,2022-10-23T09:00:00Z,0.45,9.42,27.0,24.0,210,4,,6.21,29.940945,,,,,,TRUE,,,,,SCT,1000,SCT,4000,,,,,VFR,,,,,,,,,,,,METAR,9.0
FOOG 230900Z 19008KT 9000 SCT008 FEW016CB BKN040 26/25 Q1014,FOOG,2022-10-23T09:00:00Z,-0.7,8.75,26.0,25.0,190,8,,5.59,29.940945,,,,,,,,,,,SCT,800,FEW,1600,BKN,4000,,,VFR,,,,,,,,,,,,METAR,4.0
FOOB 230900Z /////KT 9999 SCT011 BKN025 24/22 Q1014,FOOB,2022-10-23T09:00:00Z,2.07,11.48,24.0,22.0,,,,6.21,29.940945,,,,,,,,,,,SCT,1100,BKN,2500,,,,,MVFR,,,,,,,,,,,,METAR,599.0
FOGR 230900Z /////KT 9999 SCT008 BKN026 26/23 Q////,FOGR,2022-10-23T09:00:00Z,-0.7,10.25,26.0,23.0,,,,6.21,,,,,,,,,,,,SCT,800,BKN,2600,,,,,MVFR,,,,,,,,,,,,METAR,25.0
FOGM 230900Z /////KT 9999 SCT011 BKN026 27/23 Q////,FOGM,2022-10-23T09:00:00Z,-1.83,11.05,27.0,23.0,,,,6.21,,,,,,,,,,,,SCT,1100,BKN,2600,,,,,MVFR,,,,,,,,,,,,METAR,90.0
FNUG 230900Z 18006KT 9999 BKN021 24/20 Q1017,FNUG,2022-10-23T09:00:00Z,-7.6,15.02,24.0,20.0,180,6,,6.21,30.029528,,,,,,,,,,,BKN,2100,,,,,,,MVFR,,,,,,,,,,,,METAR,829.0
FNUE 230900Z VRB03KT CAVOK 26/22 Q1023,FNUE,2022-10-23T09:00:00Z,-11.77,19.9,26.0,22.0,0,3,,6.21,30.206694,,,,,,,,,,,CAVOK,,,,,,,,VFR,,,,,,,,,,,,METAR,1354.0
FNUB 230900Z VRB02KT 9999 BKN025 23/12 Q1026,FNUB,2022-10-23T09:00:00Z,-14.93,13.57,23.0,12.0,0,2,,6.21,30.295275,,,,,,,,,,,BKN,2500,,,,,,,MVFR,,,,,,,,,,,,METAR,1749.0
FNSO 230900Z 25006KT 7000 VCSH SCT009 BKN050 26/24 Q////,FNSO,2022-10-23T09:00:00Z,-6.13,12.37,26.0,24.0,250,6,,4.35,,,,,,,,,,,VCSH,SCT,900,BKN,5000,,,,,MVFR,,,,,,,,,,,,METAR,7.0
FNSA 230900Z 00000KT CAVOK 26/17 Q1016,FNSA,2022-10-23T09:00:00Z,-9.68,20.43,26.0,17.0,0,0,,6.21,30.0,,,,,,,,,,,CAVOK,,,,,,,,VFR,,,,,,,,,,,,METAR,1096.0
FNLU 230900Z 13007KT 9000 BKN020 28/22 Q1014,FNLU,2022-10-23T09:00:00Z,-8.85,13.22,28.0,22.0,130,7,,5.59,29.940945,,,,,,,,,,,BKN,2000,,,,,,,MVFR,,,,,,,,,,,,METAR,75.0
FNHU 230900Z 12004KT 9999 BKN012 SCT060 22/18 Q1025,FNHU,2022-10-23T09:00:00Z,-12.82,15.77,22.0,18.0,120,4,,6.21,30.265747,,,,,,,,,,,BKN,1200,SCT,6000,,,,,MVFR,,,,,,,,,,,,METAR,1697.0
FNDU 230900Z 00000KT CAVOK ///// Q////,FNDU,2022-10-23T09:00:00Z,-7.4,20.82,,,0,0,,6.21,,,,,,,,,,,,CAVOK,,,,,,,,VFR,,,,,,,,,,,,METAR,749.0
FNCA 230900Z 18006KT 9999 SCT010 BKN015 26/24 Q1014,FNCA,2022-10-23T09:00:00Z,-5.58,12.18,26.0,24.0,180,6,,6.21,29.940945,,,,,,,,,,,SCT,1000,BKN,1500,,,,,MVFR,,,,,,,,,,,,METAR,14.0
FMSD 230900Z 08021KT 9999 FEW020 30/20 Q1016,FMSD,2022-10-23T09:00:00Z,-25.03,46.95,30.0,20.0,80,21,,6.21,30.0,,,,,,,,,,,FEW,2000,,,,,,,VFR,,,,,,,,,,,,METAR,7.0
FMNN 230900Z 04006KT 9999 SCT020 32/// Q1016,FMNN,2022-10-23T09:00:00Z,-13.32,48.32,,,40,6,,6.21,30.0,,,,,,,,,,,SCT,2000,,,,,,,VFR,,,,,,,,,,,,METAR,10.0
FMNM 230900Z 33011KT 300V360 9999 FEW023 31/20 Q1016 NOSIG,FMNM,2022-10-23T09:00:00Z,-15.67,46.35,31.0,20.0,330,11,,6.21,30.0,,,,,,TRUE,,,,,FEW,2300,,,,,,,VFR,,,,,,,,,,,,METAR,18.0
FMNA 230900Z 14010KT 9999 FEW020 31/17 Q1016,FMNA,2022-10-23T09:00:00Z,-12.33,49.28,31.0,17.0,140,10,,6.21,30.0,,,,,,,,,,,FEW,2000,,,,,,,VFR,,,,,,,,,,,,METAR,108.0
FMMT 230900Z 05011KT 010V100 9999 FEW017 SCT033 28/21 Q1018 NOSIG,FMMT,2022-10-23T09:00:00Z,-18.12,49.38,28.0,21.0,50,11,,6.21,30.059055,,,,,,TRUE,,,,,FEW,1700,SCT,3300,,,,,VFR,,,,,,,,,,,,METAR,13.0
FMCH 230900Z 09014KT 9999 FEW020 31/20 Q1018 NOSIG,FMCH,2022-10-23T09:00:00Z,-11.53,43.27,31.0,20.0,90,14,,6.21,30.059055,,,,,,TRUE,,,,,FEW,2000,,,,,,,VFR,,,,,,,,,,,,METAR,30.0
FKYS 230900Z 04006KT 9999 TS BKN007 FEW016CB 23/22 Q1020 BECMG TEMPO 4000 TSRA,FKYS,2022-10-23T09:00:00Z,3.82,11.52,23.0,22.0,40,6,,6.21,30.11811,,,,,,,,,,TS,BKN,700,FEW,1600,,,,,IFR,,,,,,,,,,,,METAR,694.0
FKKR 230900Z 13010KT 100V170 9999 BKN015 28/22 Q1017 NOSIG,FKKR,2022-10-23T09:00:00Z,9.33,13.37,28.0,22.0,130,10,,6.21,30.029528,,,,,,TRUE,,,,,BKN,1500,,,,,,,MVFR,,,,,,,,,,,,METAR,223.0
FKKN 230900Z 06003KT 9999 BKN010 21/20 Q1022,FKKN,2022-10-23T09:00:00Z,7.35,13.57,21.0,20.0,60,3,,6.21,30.177166,,,,,,,,,,,BKN,1000,,,,,,,MVFR,,,,,,,,,,,,METAR,1108.0
FKKL 230900Z /////KT 9999 FEW030 32/23 Q1017,FKKL,2022-10-23T09:00:00Z,10.45,14.25,32.0,23.0,,,,6.21,30.029528,,,,,,,,,,,FEW,3000,,,,,,,VFR,,,,,,,,,,,,SPECI,422.0
FKKD 230900Z 10004KT 070V130 9999 TS SCT004 BKN010 FEW013CB 26/23 Q1014 TEMPO 3500 TSRADZ,FKKD,2022-10-23T09:00:00Z,4.0,9.72,26.0,23.0,100,4,,6.21,29.940945,,,,,,,,,,TS,SCT,400,BKN,1000,FEW,1300,,,MVFR,,,,,,,,,,,,METAR,10.0
FIMP 230900Z 04014KT 9999 SCT017 SCT050 27/20 Q1021,FIMP,2022-10-23T09:00:00Z,-20.43,57.68,27.0,20.0,40,14,,6.21,30.147638,,,,,,,,,,,SCT,1700,SCT,5000,,,,,VFR,,,,,,,,,,,,METAR,57.0
FGSL 230900Z VRB02KT 9999 SCT010 29/25 Q1014 NOSIG,FGSL,2022-10-23T09:00:00Z,3.75,8.72,29.0,25.0,0,2,,6.21,29.940945,,,,,,TRUE,,,,,SCT,1000,,,,,,,VFR,,,,,,,,,,,,METAR,23.0
FGBT 230900Z 12006KT 9999 SCT010 29/25 Q1014,FGBT,2022-10-23T09:00:00Z,1.9,9.8,29.0,25.0,120,6,,6.21,29.940945,,,,,,,,,,,SCT,1000,,,,,,,VFR,,,,,,,,,,,,METAR,2.0
FEFF 230900Z 30004KT 9999 SCT016 FEW033CB 30/23 Q1014 TEMPO TS,FEFF,2022-10-23T09:00:00Z,4.4,18.52,30.0,23.0,300,4,,6.21,29.940945,,,,,,,,,,,SCT,1600,FEW,3300,,,,,VFR,,,,,,,,,,,,SPECI,364.0
FDST 230900Z AUTO 11004KT //// // ////// 21/16 Q1020,FDST,2022-10-23T09:00:00Z,-26.43,31.95,21.0,16.0,110,4,,,30.11811,,,TRUE,,,,,,,,,,,,,,,,,,,,,,,,,,,,METAR,642.0
FDSK 230900Z 20004KT 9999 BKN035 24/14 Q1021 NOSIG,FDSK,2022-10-23T09:00:00Z,-26.35,31.72,24.0,14.0,200,4,,6.21,30.147638,,,,,,TRUE,,,,,BKN,3500,,,,,,,VFR,,,,,,,,,,,,METAR,323.0
FDPP 230900Z AUTO /////KT //// // ////// 19/M01 Q1020,FDPP,2022-10-23T09:00:00Z,-25.97,31.25,19.0,-1.0,,,,,30.11811,,,TRUE,,,,,,,,,,,,,,,,,,,,,,,,,,,,METAR,1023.0
FDMY 230900Z AUTO 32003KT //// // ////// 24/17 Q1031,FDMY,2022-10-23T09:00:00Z,-25.88,31.52,24.0,17.0,320,3,,,30.442913,,,TRUE,,,,,,,,,,,,,,,,,,,,,,,,,,,,METAR,401.0
FDBB 230900Z AUTO 07004KT //// // ////// 29/17 Q1017,FDBB,2022-10-23T09:00:00Z,-26.8,31.93,29.0,17.0,70,4,,,30.029528,,,TRUE,,,,,,,,,,,,,,,,,,,,,,,,,,,,METAR,106.0
FCPP 230900Z 19012KT 9999 SCT009 BKN021 27/24 Q1014 NOSIG,FCPP,2022-10-23T09:00:00Z,-4.82,11.9,27.0,24.0,190,12,,6.21,29.940945,,,,,,TRUE,,,,,SCT,900,BKN,2100,,,,,MVFR,,,,,,,,,,,,METAR,18.0
FCBB 230900Z VRB02KT 9000 SCT020 FEW023TCU 28/22 Q1016 NOSIG,FCBB,2022-10-23T09:00:00Z,-4.25,15.25,28.0,22.0,0,2,,5.59,30.0,,,,,,TRUE,,,,,SCT,2000,FEW,2300,,,,,VFR,,,,,,,,,,,,METAR,316.0
FBSK 230900Z 34008KT 300V020 CAVOK 26/15 Q1021 NOSIG,FBSK,2022-10-23T09:00:00Z,-24.55,25.92,26.0,15.0,340,8,,6.21,30.147638,,,,,,TRUE,,,,,CAVOK,,,,,,,,VFR,,,,,,,,,,,,METAR,1007.0
FBPM 230900Z 06010KT 020V120 CAVOK 28/15 Q1021,FBPM,2022-10-23T09:00:00Z,-21.17,27.48,28.0,15.0,60,10,,6.21,30.147638,,,,,,,,,,,CAVOK,,,,,,,,VFR,,,,,,,,,,,,METAR,1009.0
FBMN 230900Z VRB02KT CAVOK 29/14 Q1018,FBMN,2022-10-23T09:00:00Z,-19.97,23.42,29.0,14.0,0,2,,6.21,30.059055,,,,,,,,,,,CAVOK,,,,,,,,VFR,,,,,,,,,,,,METAR,946.0
FBKE 230900Z 04008KT 360V100 CAVOK 35/08 Q1018,FBKE,2022-10-23T09:00:00Z,-17.82,25.17,35.0,8.0,40,8,,6.21,30.059055,,,,,,,,,,,CAVOK,,,,,,,,VFR,,,,,,,,,,,,METAR,999.0
FAUP 230900Z 36014KT 9999 FEW050CB 33/10 Q1015 NOSIG,FAUP,2022-10-23T09:00:00Z,-28.38,21.27,33.0,10.0,360,14,,6.21,29.970472,,,,,,TRUE,,,,,FEW,5000,,,,,,,VFR,,,,,,,,,,,,METAR,845.0
FAPP 230900Z 36009KT 9999 SCT030 22/15 Q1026 NOSIG,FAPP,2022-10-23T09:00:00Z,-23.83,29.45,22.0,15.0,360,9,,6.21,30.295275,,,,,,TRUE,,,,,SCT,3000,,,,,,,VFR,,,,,,,,,,,,METAR,1238.0
FAPE 230900Z 09006KT 050V130 9999 FEW035 22/16 Q1017 NOSIG,FAPE,2022-10-23T09:00:00Z,-33.98,25.6,22.0,16.0,90,6,,6.21,30.029528,,,,,,TRUE,,,,,FEW,3500,,,,,,,VFR,,,,,,,,,,,,METAR,58.0
FAOR 230900Z 33010KT CAVOK 23/12 Q1026 NOSIG,FAOR,2022-10-23T09:00:00Z,-26.13,28.23,23.0,12.0,330,10,,6.21,30.295275,,,,,,TRUE,,,,,CAVOK,,,,,,,,VFR,,,,,,,,,,,,METAR,1684.0
FAMM 230900Z 01014KT 9999 FEW035 SCT080 28/12 Q1023 NOSIG,FAMM,2022-10-23T09:00:00Z,-25.8,25.53,28.0,12.0,10,14,,6.21,30.206694,,,,,,TRUE,,,,,FEW,3500,SCT,8000,,,,,VFR,,,,,,,,,,,,METAR,1280.0
FALW 230900Z AUTO 12003KT //// // ////// 29/13 Q1014,FALW,2022-10-23T09:00:00Z,-32.97,18.17,29.0,13.0,120,3,,,29.940945,,,TRUE,,,,,,,,,,,,,,,,,,,,,,,,,,,,METAR,31.0
FALE 230900Z 09007KT 030V160 9999 FEW028 23/16 Q1019 NOSIG,FALE,2022-10-23T09:00:00Z,-29.62,31.12,23.0,16.0,90,7,,6.21,30.088583,,,,,,TRUE,,,,,FEW,2800,,,,,,,VFR,,,,,,,,,,,,METAR,109.0
FALA 230900Z VRB04KT 9999 FEW025 25/13 Q1025 NOSIG,FALA,2022-10-23T09:00:00Z,-25.93,27.92,25.0,13.0,0,4,,6.21,30.265747,,,,,,TRUE,,,,,FEW,2500,,,,,,,VFR,,,,,,,,,,,,METAR,1365.0
FAKN 230900Z 02003KT 9999 BKN020 21/16 Q1023 NOSIG,FAKN,2022-10-23T09:00:00Z,-25.38,31.1,21.0,16.0,20,3,,6.21,30.206694,,,,,,TRUE,,,,,BKN,2000,,,,,,,MVFR,,,,,,,,,,,,METAR,864.0
FAGG 230900Z 16007KT 090V200 9999 FEW019 SCT025 21/16 Q1018,FAGG,2022-10-23T09:00:00Z,-34.0,22.37,21.0,16.0,160,7,,6.21,30.059055,,,,,,,,,,,FEW,1900,SCT,2500,,,,,VFR,,,,,,,,,,,,METAR,196.0
FAEL 230900Z 07016KT CAVOK 24/16 Q1018,FAEL,2022-10-23T09:00:00Z,-33.03,27.82,24.0,16.0,70,16,,6.21,30.059055,,,,,,,,,,,CAVOK,,,,,,,,VFR,,,,,,,,,,,,METAR,127.0
FACT 230900Z 17012KT 140V200 CAVOK 25/15 Q1015 NOSIG,FACT,2022-10-23T09:00:00Z,-33.97,18.6,25.0,15.0,170,12,,6.21,29.970472,,,,,,TRUE,,,,,CAVOK,,,,,,,,VFR,,,,,,,,,,,,METAR,48.0
FABL 230900Z 01012KT 340V050 9999 FEW015 24/14 Q1022 NOSIG,FABL,2022-10-23T09:00:00Z,-29.1,26.3,24.0,14.0,10,12,,6.21,30.177166,,,,,,TRUE,,,,,FEW,1500,,,,,,,VFR,,,,,,,,,,,,METAR,1348.0
EIME 230900Z 09010KT 7000 -RADZ SCT013 FEW018CB SCT022 14/13 Q0996,EIME,2022-10-23T09:00:00Z,53.3,-6.45,14.0,13.0,90,10,,4.35,29.409449,,,,,,,,,,-RA -DZ,SCT,1300,FEW,1800,SCT,2200,,,MVFR,,,,,,,,,,,,METAR,90.0
DXXX 230900Z 24007KT 200V280 9999 FEW014 30/24 Q1014 NOSIG,DXXX,2022-10-23T09:00:00Z,6.17,1.25,30.0,24.0,240,7,,6.21,29.940945,,,,,,TRUE,,,,,FEW,1400,,,,,,,VFR,,,,,,,,,,,,METAR,22.0
DXSK 230900Z 28002KT 9999 FEW013 FEW120 BKN260 27/24 Q////,DXSK,2022-10-23T09:00:00Z,9.0,1.15,27.0,24.0,280,2,,6.21,,,,,,,,,,,,FEW,1300,FEW,12000,BKN,26000,,,VFR,,,,,,,,,,,,METAR,381.0
DXNG 230900Z 08003KT 030V130 CAVOK 30/17 Q1018,DXNG,2022-10-23T09:00:00Z,9.77,1.1,30.0,17.0,80,3,,6.21,30.059055,,,,,,,,,,,CAVOK,,,,,,,,VFR,,,,,,,,,,,,METAR,343.0
DTTZ 230900Z 12006KT CAVOK 24/08 Q1025,DTTZ,2022-10-23T09:00:00Z,33.93,8.1,24.0,8.0,120,6,,6.21,30.265747,,,,,,,,,,,CAVOK,,,,,,,,VFR,,,,,,,,,,,,METAR,87.0
DTTX 230900Z 22007KT 180V240 CAVOK 27/10 Q1024,DTTX,2022-10-23T09:00:00Z,34.72,10.68,27.0,10.0,220,7,,6.21,30.236221,,,,,,,,,,,CAVOK,,,,,,,,VFR,,,,,,,,,,,,METAR,17.0
DTTR 230900Z 13007KT CAVOK 22/05 Q1027,DTTR,2022-10-23T09:00:00Z,31.7,9.27,22.0,5.0,130,7,,6.21,30.324802,,,,,,,,,,,CAVOK,,,,,,,,VFR,,,,,,,,,,,,METAR,253.0
DTTN 230900Z VRB02KT CAVOK 22/05 Q1022,DTTN,2022-10-23T09:00:00Z,36.47,8.8,22.0,5.0,0,2,,6.21,30.177166,,,,,,,,,,,CAVOK,,,,,,,,VFR,,,,,,,,,,,,METAR,145.0
DTTL 230900Z 16008KT 9999 FEW020 26/21 Q1024,DTTL,2022-10-23T09:00:00Z,36.85,11.07,26.0,21.0,160,8,,6.21,30.236221,,,,,,,,,,,FEW,2000,,,,,,,VFR,,,,,,,,,,,,METAR,18.0
DTTK 230900Z 20003KT 150V290 CAVOK 23/08 Q1023,DTTK,2022-10-23T09:00:00Z,35.67,10.08,23.0,8.0,200,3,,6.21,30.206694,,,,,,,,,,,CAVOK,,,,,,,,VFR,,,,,,,,,,,,METAR,65.0
DTTG 230900Z VRB08KT CAVOK 26/07 Q1025 NOSIG,DTTG,2022-10-23T09:00:00Z,33.73,9.92,26.0,7.0,0,8,,6.21,30.265747,,,,,,TRUE,,,,,CAVOK,,,,,,,,VFR,,,,,,,,,,,,METAR,120.0
DTTF 230900Z 22008KT CAVOK 24/08 Q1026 NOSIG,DTTF,2022-10-23T09:00:00Z,34.42,8.82,24.0,8.0,220,8,,6.21,30.295275,,,,,,TRUE,,,,,CAVOK,,,,,,,,VFR,,,,,,,,,,,,METAR,314.0
DTTD 230900Z 20002KT CAVOK 27/06 Q1027,DTTD,2022-10-23T09:00:00Z,32.32,10.4,27.0,6.0,200,2,,6.21,30.324802,,,,,,,,,,,CAVOK,,,,,,,,VFR,,,,,,,,,,,,METAR,306.0
DTTB 230900Z 13008KT CAVOK 26/12 Q1021,DTTB,2022-10-23T09:00:00Z,37.25,9.8,26.0,12.0,130,8,,6.21,30.147638,,,,,,,,,,,CAVOK,,,,,,,,VFR,,,,,,,,,,,,METAR,4.0
DTKA 230900Z 08007KT CAVOK 27/08 Q1021 NOSIG,DTKA,2022-10-23T09:00:00Z,36.98,8.88,27.0,8.0,80,7,,6.21,30.147638,,,,,,TRUE,,,,,CAVOK,,,,,,,,VFR,,,,,,,,,,,,METAR,70.0
DRZR 230900Z 33011KT CAVOK 31/03 Q1018,DRZR,2022-10-23T09:00:00Z,13.77,8.98,31.0,3.0,330,11,,6.21,30.059055,,,,,,,,,,,CAVOK,,,,,,,,VFR,,,,,,,,,,,,METAR,457.0
DRZA 230900Z 08017KT CAVOK 32/09 Q1019,DRZA,2022-10-23T09:00:00Z,16.97,8.0,32.0,9.0,80,17,,6.21,30.088583,,,,,,,,,,,CAVOK,,,,,,,,VFR,,,,,,,,,,,,METAR,506.0
DRRT 230900Z 10012KT CAVOK 32/00 Q1017,DRRT,2022-10-23T09:00:00Z,14.87,5.27,32.0,0.0,100,12,,6.21,30.029528,,,,,,,,,,,CAVOK,,,,,,,,VFR,,,,,,,,,,,,METAR,387.0
DRRN 230900Z 08013KT CAVOK 32/02 Q1015 NOSIG,DRRN,2022-10-23T09:00:00Z,13.47,2.17,32.0,2.0,80,13,,6.21,29.970472,,,,,,TRUE,,,,,CAVOK,,,,,,,,VFR,,,,,,,,,,,,METAR,223.0
DRRM 230900Z 08016KT CAVOK 30/07 Q1016,DRRM,2022-10-23T09:00:00Z,13.5,7.12,30.0,7.0,80,16,,6.21,30.0,,,,,,,,,,,CAVOK,,,,,,,,VFR,,,,,,,,,,,,METAR,374.0
DNMN 230900Z 06006KT CAVOK 30/16 Q1015,DNMN,2022-10-23T09:00:00Z,9.65,6.47,30.0,16.0,60,6,,6.21,29.970472,,,,,,,,,,,CAVOK,,,,,,,,VFR,,,,,,,,,,,,METAR,268.0
DNMM 230900Z 15004KT 9999 SCT013 29/24 Q1015 NOSIG,DNMM,2022-10-23T09:00:00Z,6.57,3.32,29.0,24.0,150,4,,6.21,29.970472,,,,,,TRUE,,,,,SCT,1300,,,,,,,VFR,,,,,,,,,,,,METAR,27.0
DNIL 230900Z 26003KT CAVOK 28/22 Q1015,DNIL,2022-10-23T09:00:00Z,8.43,4.48,28.0,22.0,260,3,,6.21,29.970472,,,,,,,,,,,CAVOK,,,,,,,,VFR,,,,,,,,,,,,METAR,341.0
DNIB 230900Z 23004KT 9999 FEW012 29/25 Q1015,DNIB,2022-10-23T09:00:00Z,7.37,3.98,29.0,25.0,230,4,,6.21,29.970472,,,,,,,,,,,FEW,1200,,,,,,,VFR,,,,,,,,,,,,METAR,220.0
DNAA 230900Z 05003KT FEW0012 31/23 Q1016 NOSIG,DNAA,2022-10-23T09:00:00Z,9.0,7.27,31.0,23.0,50,3,,0.01,30.0,,,,,,TRUE,,,,,,,,,,,,,,,,,,,,,,,,,SPECI,338.0
DIYO 230900Z 24006KT 9999 BKN013 27/23 Q1015 NOSIG,DIYO,2022-10-23T09:00:00Z,6.9,-5.35,27.0,23.0,240,6,,6.21,29.970472,,,,,,TRUE,,,,,BKN,1300,,,,,,,MVFR,,,,,,,,,,,,METAR,202.0
DIBK 230900Z 24004KT 8000 BKN011 26/25 Q1016 NOSIG,DIBK,2022-10-23T09:00:00Z,7.73,-5.07,26.0,25.0,240,4,,4.97,30.0,,,,,,TRUE,,,,,BKN,1100,,,,,,,MVFR,,,,,,,,,,,,METAR,363.0
DFOO 230900Z VRB02KT CAVOK 30/20 Q1016,DFOO,2022-10-23T09:00:00Z,11.17,-4.32,30.0,20.0,0,2,,6.21,30.0,,,,,,,,,,,CAVOK,,,,,,,,VFR,,,,,,,,,,,,METAR,461.0
DFFD 230900Z VRB02KT 8000 NSC 34/17 Q1015 NOSIG,DFFD,2022-10-23T09:00:00Z,12.35,-1.52,34.0,17.0,0,2,,4.97,29.970472,,,,,,TRUE,,,,,CLR,,,,,,,,MVFR,,,,,,,,,,,,METAR,309.0
DBBB 230900Z 24007KT 200V260 9999 SCT013 29/25 Q1014 NOSIG,DBBB,2022-10-23T09:00:00Z,6.35,2.38,29.0,25.0,240,7,,6.21,29.940945,,,,,,TRUE,,,,,SCT,1300,,,,,,,VFR,,,,,,,,,,,,METAR,4.0
DAUU 230900Z 00000KT CAVOK 25/04 Q1024,DAUU,2022-10-23T09:00:00Z,31.92,5.4,25.0,4.0,0,0,,6.21,30.236221,,,,,,,,,,,CAVOK,,,,,,,,VFR,,,,,,,,,,,,METAR,147.0
DAUT 230900Z 09016KT CAVOK 24/03 Q1023,DAUT,2022-10-23T09:00:00Z,29.25,0.27,24.0,3.0,90,16,,6.21,30.206694,,,,,,,,,,,CAVOK,,,,,,,,VFR,,,,,,,,,,,,METAR,307.0
DAUO 230900Z 21003KT 160V250 CAVOK 25/07 Q1025,DAUO,2022-10-23T09:00:00Z,33.5,6.78,25.0,7.0,210,3,,6.21,30.265747,,,,,,,,,,,CAVOK,,,,,,,,VFR,,,,,,,,,,,,METAR,55.0
DAUK 230900Z 21003KT CAVOK 25/06 Q1025,DAUK,2022-10-23T09:00:00Z,33.08,6.08,25.0,6.0,210,3,,6.21,30.265747,,,,,,,,,,,CAVOK,,,,,,,,VFR,,,,,,,,,,,,METAR,83.0
DAUI 230900Z 08018KT CAVOK 25/05 Q1021,DAUI,2022-10-23T09:00:00Z,27.25,2.52,25.0,5.0,80,18,,6.21,30.147638,,,,,,,,,,,CAVOK,,,,,,,,VFR,,,,,,,,,,,,METAR,271.0
DAUH 230900Z 14004KT CAVOK 25/05 Q1025,DAUH,2022-10-23T09:00:00Z,31.67,6.15,25.0,5.0,140,4,,6.21,30.265747,,,,,,,,,,,CAVOK,,,,,,,,VFR,,,,,,,,,,,,METAR,141.0
DAUG 230900Z VRB01KT CAVOK 24/03 Q1027,DAUG,2022-10-23T09:00:00Z,32.38,3.78,24.0,3.0,0,1,,6.21,30.324802,,,,,,,,,,,CAVOK,,,,,,,,VFR,,,,,,,,,,,,METAR,444.0
DAUE 230900Z 09004KT CAVOK 24/04 Q1026,DAUE,2022-10-23T09:00:00Z,30.57,2.87,24.0,4.0,90,4,,6.21,30.295275,,,,,,,,,,,CAVOK,,,,,,,,VFR,,,,,,,,,,,,METAR,396.0
DAUB 230900Z 11004KT CAVOK 23/07 Q1025,DAUB,2022-10-23T09:00:00Z,34.78,5.73,23.0,7.0,110,4,,6.21,30.265747,,,,,,,,,,,CAVOK,,,,,,,,VFR,,,,,,,,,,,,METAR,75.0
DAUA 230900Z 08014KT CAVOK 26/04 Q1021,DAUA,2022-10-23T09:00:00Z,27.83,-0.18,26.0,4.0,80,14,,6.21,30.147638,,,,,,,,,,,CAVOK,,,,,,,,VFR,,,,,,,,,,,,METAR,278.0
DAOR 230900Z 13005KT CAVOK 22/01 Q1026,DAOR,2022-10-23T09:00:00Z,31.65,-2.27,22.0,1.0,130,5,,6.21,30.295275,,,,,,,,,,,CAVOK,,,,,,,,VFR,,,,,,,,,,,,METAR,809.0
DAOO 230900Z 19010KT CAVOK 29/04 Q1019,DAOO,2022-10-23T09:00:00Z,35.62,-0.62,29.0,4.0,190,10,,6.21,30.088583,,,,,,,,,,,CAVOK,,,,,,,,VFR,,,,,,,,,,,,METAR,87.0
DAON 230900Z 20010KT 9999 FEW030 SCT233 29/01 Q1020,DAON,2022-10-23T09:00:00Z,35.02,-1.47,29.0,1.0,200,10,,6.21,30.11811,,,,,,,,,,,FEW,3000,SCT,23300,,,,,VFR,,,,,,,,,,,,METAR,245.0
DAOF 230900Z 09008KT CAVOK 22/M03 Q1020,DAOF,2022-10-23T09:00:00Z,27.7,-8.17,22.0,-3.0,90,8,,6.21,30.11811,,,,,,,,,,,CAVOK,,,,,,,,VFR,,,,,,,,,,,,METAR,441.0
DAOB 230900Z 19015KT CAVOK 22/01 Q1026,DAOB,2022-10-23T09:00:00Z,35.33,1.47,22.0,1.0,190,15,,6.21,30.295275,,,,,,,,,,,CAVOK,,,,,,,,VFR,,,,,,,,,,,,METAR,976.0
DABT 230900Z 00000KT CAVOK 22/04 Q1028,DABT,2022-10-23T09:00:00Z,35.75,6.32,22.0,4.0,0,0,,6.21,30.35433,,,,,,,,,,,CAVOK,,,,,,,,VFR,,,,,,,,,,,,METAR,813.0
DAAY 230900Z 22012KT CAVOK 19/01 Q1028,DAAY,2022-10-23T09:00:00Z,33.53,-0.25,19.0,1.0,220,12,,6.21,30.35433,,,,,,,,,,,CAVOK,,,,,,,,VFR,,,,,,,,,,,,METAR,1116.0
DAAV 230900Z 32004KT 280V010 CAVOK 29/13 Q1020,DAAV,2022-10-23T09:00:00Z,36.8,5.88,29.0,13.0,320,4,,6.21,30.11811,,,,,,,,,,,CAVOK,,,,,,,,VFR,,,,,,,,,,,,METAR,11.0
DAAP 230900Z 15009KT CAVOK 25/07 Q1026,DAAP,2022-10-23T09:00:00Z,26.72,8.62,25.0,7.0,150,9,,6.21,30.295275,,,,,,,,,,,CAVOK,,,,,,,,VFR,,,,,,,,,,,,METAR,542.0
DAAJ 230900Z 11009KT CAVOK 21/06 Q1028,DAAJ,2022-10-23T09:00:00Z,24.28,9.47,21.0,6.0,110,9,,6.21,30.35433,,,,,,,,,,,CAVOK,,,,,,,,VFR,,,,,,,,,,,,METAR,962.0
DAAE 230900Z 26017KT CAVOK 27/08 Q1020,DAAE,2022-10-23T09:00:00Z,36.72,5.07,27.0,8.0,260,17,,6.21,30.11811,,,,,,,,,,,CAVOK,,,,,,,,VFR,,,,,,,,,,,,METAR,1.0
CZZJ 230900Z AUTO 33002KT M01/M01 RMK AO1 SLP165 T10091011 51011,CZZJ,2022-10-23T09:00:00Z,53.58,-116.47,-0.9,-1.1,330,2,,,,1016.5,,TRUE,TRUE,,,,,,,,,,,,,,,,1.1,,,,,,,,,,,METAR,927.0
CZUM 230900Z AUTO 27009G19KT 230V310 9SM CLR 05/02 A3001 RMK SLP182,CZUM,2022-10-23T09:00:00Z,53.55,-64.1,5.0,2.0,270,9,19,9.0,30.008858,1018.2,,TRUE,,,,,,,,CLR,,,,,,,,VFR,,,,,,,,,,,,SPECI,431.0
CZTB 230900Z AUTO 09007KT 09/07 RMK AO1 SLP091 T00860072 53002,CZTB,2022-10-23T09:00:00Z,48.37,-89.32,8.6,7.2,90,7,,,,1009.1,,TRUE,TRUE,,,,,,,,,,,,,,,,0.2,,,,,,,,,,,METAR,197.0
CZSP 230900Z AUTO 21008KT 09/07 RMK AO1 SLP266 T00940072 53002,CZSP,2022-10-23T09:00:00Z,46.45,-62.58,9.4,7.2,210,8,,,,1026.6,,TRUE,TRUE,,,,,,,,,,,,,,,,0.2,,,,,,,,,,,METAR,31.0
CZSM 230900Z AUTO 21001KT M04/M08 RMK AO1 SLP203 T10401075 51009,CZSM,2022-10-23T09:00:00Z,60.03,-111.93,-4.0,-7.5,210,1,,,,1020.3,,TRUE,TRUE,,,,,,,,,,,,,,,,0.9,,,,,,,,,,,METAR,203.0
CZSJ 230900Z AUTO 04005KT 9SM OVC140 M01/M01 A2994 RMK SLP156,CZSJ,2022-10-23T09:00:00Z,53.07,-93.35,-1.0,-1.0,40,5,,9.0,29.940945,1015.6,,TRUE,,,,,,,,OVC,14000,,,,,,,VFR,,,,,,,,,,,,METAR,286.0
CZRP 230900Z AUTO 33021KT M19/M20 RMK AO1 SOG 53 1005 PK WND 33024/0824 SLP068 T11861203,CZRP,2022-10-23T09:00:00Z,75.37,-105.72,-18.6,-20.3,330,21,,,,1006.8,,TRUE,TRUE,,,,,,,,,,,,,,,,,,,,,,,,,,,METAR,6.0
CZPS 230900Z AUTO 34003KT M00/M01 RMK AO1 T10041011,CZPS,2022-10-23T09:00:00Z,52.43,-113.6,-0.4,-1.1,340,3,,,,,,TRUE,TRUE,,,,,,,,,,,,,,,,,,,,,,,,,,,METAR,953.0
CZOL 230900Z AUTO 35002KT M00/M00 RMK AO1 T10041003,CZOL,2022-10-23T09:00:00Z,53.65,-113.35,-0.4,-0.3,350,2,,,,,,TRUE,TRUE,,,,,,,,,,,,,,,,,,,,,,,,,,,METAR,645.0
CZMJ 230900Z AUTO 05012G18KT 03/02 RMK AO1 5PAST HR 8002 PK WND 06019/0808 SLP084 P0002 T00290016 50009,CZMJ,2022-10-23T09:00:00Z,50.33,-105.53,2.9,1.6,50,12,18,,,1008.4,,TRUE,TRUE,,,,,,,,,,,,,,,,0.9,,,,,0.02,,,,,,METAR,571.0
CZMD 230900Z AUTO 04004KT 9SM FEW045 BKN230 BKN250 M01/M01 A2998 RMK SLP170,CZMD,2022-10-23T09:00:00Z,53.43,-91.77,-1.0,-1.0,40,4,,9.0,29.97933,1017.0,,TRUE,,,,,,,,FEW,4500,BKN,23000,BKN,25000,,,VFR,,,,,,,,,,,,METAR,276.0
CZKD 230900Z AUTO 07002KT M02/M03 RMK AO1 SLP193 T10191027 51026,CZKD,2022-10-23T09:00:00Z,56.03,-96.52,-1.9,-2.7,70,2,,,,1019.3,,TRUE,TRUE,,,,,,,,,,,,,,,,2.6,,,,,,,,,,,METAR,190.0
CZHY 230900Z AUTO 24004KT M03/M05 RMK AO1 2PAST HR 1005 SLP203 P0001 T10301047 50002,CZHY,2022-10-23T09:00:00Z,60.83,-115.78,-3.0,-4.7,240,4,,,,1020.3,,TRUE,TRUE,,,,,,,,,,,,,,,,0.2,,,,,0.01,,,,,,METAR,159.0
CZFS 230900Z AUTO 10002KT M05/M06 RMK AO1 SOG 01 8002 SLP201 T10521060,CZFS,2022-10-23T09:00:00Z,61.77,-121.23,-5.2,-6.0,100,2,,,,1020.1,,TRUE,TRUE,,,,,,,,,,,,,,,,,,,,,,,,,,,METAR,174.0
CZFA 230900Z 09002KT 20SM -SN FEW050 OVC069 M01/M02 A2977 RMK SC1AS7 SLP121,CZFA,2022-10-23T09:00:00Z,62.2,-133.38,-1.0,-2.0,90,2,,20.0,29.769686,1012.1,,,,,,,,,-SN,FEW,5000,OVC,6900,,,,,VFR,,,,,,,,,,,,SPECI,702.0
CZEV 230900Z AUTO 08007KT M12/M14 RMK AO1 SOG 07 0002 SLP198 T11151141,CZEV,2022-10-23T09:00:00Z,68.32,-133.48,-11.5,-14.1,80,7,,,,1019.8,,TRUE,TRUE,,,,,,,,,,,,,,,,,,,,,,,,,,,METAR,92.0
CZEL 230900Z AUTO 10003KT 08/05 RMK AO1 SLP222 T00760050 53008,CZEL,2022-10-23T09:00:00Z,43.65,-80.42,7.6,5.0,100,3,,,,1022.2,,TRUE,TRUE,,,,,,,,,,,,,,,,0.8,,,,,,,,,,,METAR,370.0
CZDB 230900Z AUTO 05002KT 03/ RMK AO1 SLP288 T0033 53005,CZDB,2022-10-23T09:00:00Z,45.42,-63.47,3.3,,50,2,,,,1028.8,,TRUE,TRUE,,,,,,,,,,,,,,,,0.5,,,,,,,,,,,METAR,38.0
CZCR 230900Z AUTO 00000KT 06/04 RMK AO1 SLP251 T00640039 52014,CZCR,2022-10-23T09:00:00Z,47.98,-66.33,6.4,3.9,0,0,,,,1025.1,,TRUE,TRUE,,,,,,,,,,,,,,,,1.4,,,,,,,,,,,METAR,39.0
CZBF 230900Z AUTO 22003KT 9SM CLR 03/02 A3028 RMK SLP259,CZBF,2022-10-23T09:00:00Z,47.62,-65.75,3.0,2.0,220,3,,9.0,30.280512,1025.9,,TRUE,,,,,,,,CLR,,,,,,,,VFR,,,,,,,,,,,,METAR,60.0
CYZY 230900Z AUTO 16003KT 9SM SCT096 M04/M05 A2993 RMK SLP170,CYZY,2022-10-23T09:00:00Z,55.3,-123.13,-4.0,-5.0,160,3,,9.0,29.929134,1017.0,,TRUE,,,,,,,,SCT,9600,,,,,,,VFR,,,,,,,,,,,,METAR,694.0
CYZX 230900Z 00000KT 10SM FEW250 02/01 A3038 RMK CI2 SLP290,CYZX,2022-10-23T09:00:00Z,44.98,-64.92,2.0,1.0,0,0,,10.0,30.380905,1029.0,,,,,,,,,,FEW,25000,,,,,,,VFR,,,,,,,,,,,,METAR,28.0
CYZV 230900Z 05002KT 15SM SKC M01/M01 A3020 RMK SLP232,CYZV,2022-10-23T09:00:00Z,50.22,-66.27,-1.0,-1.0,50,2,,15.0,30.200787,1023.2,,,,,,,,,,SKC,,,,,,,,VFR,,,,,,,,,,,,METAR,43.0
CYZT 230900Z 23006KT 15SM SKC 03/03 A2998 RMK SLP153,CYZT,2022-10-23T09:00:00Z,50.68,-127.37,3.0,3.0,230,6,,15.0,29.97933,1015.3,,,,,,,,,,SKC,,,,,,,,VFR,,,,,,,,,,,,SPECI,13.0
CYZS 230900Z 32016G21KT 8SM -SN SCT016 BKN033 OVC100 M02/M03 A2959 RMK SC3SC2AC3 SLP028,CYZS,2022-10-23T09:00:00Z,64.2,-83.35,-2.0,-3.0,320,16,21,8.0,29.589567,1002.8,,,,,,,,,-SN,SCT,1600,BKN,3300,OVC,10000,,,VFR,,,,,,,,,,,,SPECI,60.0
CYZR 230900Z AUTO 17005KT 9SM CLR 12/09 A3011 RMK SLP199,CYZR,2022-10-23T09:00:00Z,43.0,-82.3,12.0,9.0,170,5,,9.0,30.109253,1019.9,,TRUE,,,,,,,,CLR,,,,,,,,VFR,,,,,,,,,,,,SPECI,181.0
CYZP 230900Z AUTO VRB02KT 9SM OVC130 07/03 A2991 RMK SLP132,CYZP,2022-10-23T09:00:00Z,53.25,-131.82,7.0,3.0,0,2,,9.0,29.911417,1013.2,,TRUE,,,,,,,,OVC,13000,,,,,,,VFR,,,,,,,,,,,,SPECI,7.0
CYZF 230900Z 34005KT 15SM SKC M08/M09 A3010 RMK SLP214,CYZF,2022-10-23T09:00:00Z,62.47,-114.45,-8.0,-9.0,340,5,,15.0,30.100393,1021.4,,,,,,,,,,SKC,,,,,,,,VFR,,,,,,,,,,,,METAR,202.0
CYZE 230900Z AUTO 16012KT 9SM CLR 12/09 A3003 RMK SLP175,CYZE,2022-10-23T09:00:00Z,45.88,-82.57,12.0,9.0,160,12,,9.0,30.029528,1017.5,,TRUE,,,,,,,,CLR,,,,,,,,VFR,,,,,,,,,,,,SPECI,189.0
CYYZ 230900Z 36002KT 15SM SKC 09/07 A3018 RMK SLP223,CYYZ,2022-10-23T09:00:00Z,43.67,-79.62,9.0,7.0,360,2,,15.0,30.180119,1022.3,,,,,,,,,,SKC,,,,,,,,VFR,,,,,,,,,,,,METAR,171.0
CYYY 230900Z 20009KT 30SM SKC 14/04 A3023 RMK SLP240,CYYY,2022-10-23T09:00:00Z,48.6,-68.22,14.0,4.0,200,9,,30.0,30.230314,1024.0,,,,,,,,,,SKC,,,,,,,,VFR,,,,,,,,,,,,SPECI,43.0
CYYW 230900Z AUTO VRB02KT 9SM BKN220 OVC240 03/ A2984 RMK DP MISG ICE MISG SLP113,CYYW,2022-10-23T09:00:00Z,50.3,-88.9,3.0,,0,2,,9.0,29.840551,1011.3,,TRUE,,,,,,,,BKN,22000,OVC,24000,,,,,VFR,,,,,,,,,,,,METAR,320.0
CYYU 230900Z 10004KT 15SM SKC 04/04 A2997 RMK SLP159,CYYU,2022-10-23T09:00:00Z,49.42,-82.47,4.0,4.0,100,4,,15.0,29.970472,1015.9,,,,,,,,,,SKC,,,,,,,,VFR,,,,,,,,,,,,SPECI,228.0
CYYT 230900Z 27012G18KT 15SM SCT010 09/08 A3028 RMK SC3 SLP259,CYYT,2022-10-23T09:00:00Z,47.62,-52.73,9.0,8.0,270,12,18,15.0,30.280512,1025.9,,,,,,,,,,SCT,1000,,,,,,,VFR,,,,,,,,,,,,METAR,128.0
CYYR 230900Z 25012G17KT 15SM FEW080 FEW270 10/04 A2997 RMK AC1CI1 SLP152,CYYR,2022-10-23T09:00:00Z,53.32,-60.42,10.0,4.0,250,12,17,15.0,29.970472,1015.2,,,,,,,,,,FEW,8000,FEW,27000,,,,,VFR,,,,,,,,,,,,METAR,42.0
CYYQ 230900Z 29010KT 15SM BKN070 M03/M05 A3003 RMK AC6 SLP175,CYYQ,2022-10-23T09:00:00Z,58.75,-94.07,-3.0,-5.0,290,10,,15.0,30.029528,1017.5,,,,,,,,,,BKN,7000,,,,,,,VFR,,,,,,,,,,,,METAR,20.0
CYYL 230900Z AUTO 36006KT 9SM CLR M04/M05 A3007 RMK SLP207,CYYL,2022-10-23T09:00:00Z,56.87,-101.07,-4.0,-5.0,360,6,,9.0,30.070866,1020.7,,TRUE,,,,,,,,CLR,,,,,,,,VFR,,,,,,,,,,,,SPECI,351.0
CYYJ 230900Z 25005KT 30SM BKN035 06/06 A2994 RMK SC5 SLP141,CYYJ,2022-10-23T09:00:00Z,48.63,-123.42,6.0,6.0,250,5,,30.0,29.940945,1014.1,,,,,,,,,,BKN,3500,,,,,,,VFR,,,,,,,,,,,,METAR,16.0
CYYH 230900Z 29006KT 12SM -SN OVC018 M14/M16 A2968 RMK SC8 SLP057,CYYH,2022-10-23T09:00:00Z,69.53,-93.57,-14.0,-16.0,290,6,,12.0,29.681103,1005.7,,,,,,,,,-SN,OVC,1800,,,,,,,MVFR,,,,,,,,,,,,SPECI,19.0
CYYG 230900Z 23007KT 15SM SKC 11/09 A3031 RMK SLP266,CYYG,2022-10-23T09:00:00Z,46.28,-63.12,11.0,9.0,230,7,,15.0,30.31004,1026.6,,,,,,,,,,SKC,,,,,,,,VFR,,,,,,,,,,,,SPECI,48.0
CYYF 230900Z 03005KT 15SM SCT068 05/M02 A2986 RMK AC3 SLP119,CYYF,2022-10-23T09:00:00Z,49.47,-119.6,5.0,-2.0,30,5,,15.0,29.861221,1011.9,,,,,,,,,,SCT,6800,,,,,,,VFR,,,,,,,,,,,,SPECI,342.0
CYYE 230900Z 10004KT 15SM OVC031 M02/M05 A3002 RMK SC8 SLP191,CYYE,2022-10-23T09:00:00Z,58.83,-122.58,-2.0,-5.0,100,4,,15.0,30.02067,1019.1,,,,,,,,,,OVC,3100,,,,,,,VFR,,,,,,,,,,,,SPECI,379.0
CYYD 230900Z AUTO 00000KT 9SM CLR M05/M05 A2993 RMK SLP158,CYYD,2022-10-23T09:00:00Z,54.82,-127.18,-5.0,-5.0,0,0,,9.0,29.929134,1015.8,,TRUE,,,,,,,,CLR,,,,,,,,VFR,,,,,,,,,,,,SPECI,527.0
CYYC 230900Z 36009KT 2SM -SN BR OVC005 M00/M01 A2984 RMK CF8 SLP150,CYYC,2022-10-23T09:00:00Z,51.12,-114.02,0.0,-1.0,360,9,,2.0,29.840551,1015.0,,,,,,,,,-SN BR,OVC,500,,,,,,,IFR,,,,,,,,,,,,METAR,1085.0
CYYB 230900Z AUTO 15007KT 9SM CLR 11/08 A3013 RMK SLP207,CYYB,2022-10-23T09:00:00Z,46.35,-79.42,11.0,8.0,150,7,,9.0,30.129921,1020.7,,TRUE,,,,,,,,CLR,,,,,,,,VFR,,,,,,,,,,,,SPECI,360.0
CYXY 230900Z 15007KT 15SM FEW025 OVC056 01/M01 A2972 RMK ST1SC7 SLP101,CYXY,2022-10-23T09:00:00Z,60.72,-135.07,1.0,-1.0,150,7,,15.0,29.719488,1010.1,,,,,,,,,,FEW,2500,OVC,5600,,,,,VFR,,,,,,,,,,,,METAR,677.0
CYXX 230900Z 00000KT 10SM FEW030 SCT110 02/01 A2993 RMK SC2AC1 SLP140,CYXX,2022-10-23T09:00:00Z,49.03,-122.38,2.0,1.0,0,0,,10.0,29.929134,1014.0,,,,,,,,,,FEW,3000,SCT,11000,,,,,VFR,,,,,,,,,,,,METAR,54.0
CYXU 230900Z 10004KT 15SM SKC 09/07 A3015 RMK SLP215,CYXU,2022-10-23T09:00:00Z,43.03,-81.15,9.0,7.0,100,4,,15.0,30.15059,1021.5,,,,,,,,,,SKC,,,,,,,,VFR,,,,,,,,,,,,METAR,278.0
CYXT 230900Z 00000KT 15SM FEW004 BKN020 M00/M01 A2995 RMK SF1SC5 SLP153,CYXT,2022-10-23T09:00:00Z,54.47,-128.57,0.0,-1.0,0,0,,15.0,29.949802,1015.3,,,,,,,,,,FEW,400,BKN,2000,,,,,MVFR,,,,,,,,,,,,SPECI,213.0
CYXR 230900Z AUTO 20012G17KT 9SM CLR 12/09 A3005 RMK SLP182,CYXR,2022-10-23T09:00:00Z,47.7,-79.85,12.0,9.0,200,12,17,9.0,30.050198,1018.2,,TRUE,,,,,,,,CLR,,,,,,,,VFR,,,,,,,,,,,,SPECI,244.0
CYXL 230900Z 07005KT 030V130 15SM SCT180 07/05 A2975 RMK AC4 SLP090,CYXL,2022-10-23T09:00:00Z,50.12,-91.9,7.0,5.0,70,5,,15.0,29.749016,1009.0,,,,,,,,,,SCT,18000,,,,,,,VFR,,,,,,,,,,,,SPECI,381.0
CYXJ 230900Z 31005KT 15SM SKC M05/M06 A3000 RMK SLP197,CYXJ,2022-10-23T09:00:00Z,56.25,-120.73,-5.0,-6.0,310,5,,15.0,30.0,1019.7,,,,,,,,,,SKC,,,,,,,,VFR,,,,,,,,,,,,SPECI,700.0
CYXE 230900Z 04008KT 15SM FEW050 OVC110 02/M03 A2983 RMK SC2AC6 SLP121,CYXE,2022-10-23T09:00:00Z,52.17,-106.7,2.0,-3.0,40,8,,15.0,29.828741,1012.1,,,,,,,,,,FEW,5000,OVC,11000,,,,,VFR,,,,,,,,,,,,SPECI,504.0
CYXC 230900Z 31004KT 20SM FEW015 SCT070 OVC100 02/M00 A2978 RMK SF1AC2AC5 SLP110,CYXC,2022-10-23T09:00:00Z,49.6,-115.78,2.0,0.0,310,4,,20.0,29.778543,1011.0,,,,,,,,,,FEW,1500,SCT,7000,OVC,10000,,,VFR,,,,,,,,,,,,SPECI,928.0
CYWL 230900Z 31003KT 300V010 1/2SM FZFG VV003 M01/M02 A2989 RMK FG8 SLP160,CYWL,2022-10-23T09:00:00Z,52.18,-122.07,-1.0,-2.0,310,3,,0.5,29.890747,1016.0,,,,,,,,,FZFG,OVX,0,,,,,,,LIFR,,,,,,,,,,,300,SPECI,942.0
CYWK 230900Z AUTO 24006KT 9SM SCT022 SCT032 05/03 A3007 RMK SLP206,CYWK,2022-10-23T09:00:00Z,52.92,-66.87,5.0,3.0,240,6,,9.0,30.070866,1020.6,,TRUE,,,,,,,,SCT,2200,SCT,3200,,,,,VFR,,,,,,,,,,,,METAR,547.0
CYWG 230900Z 03012G18KT 15SM BKN140 08/05 A2969 RMK AC7 SLP065,CYWG,2022-10-23T09:00:00Z,49.9,-97.23,8.0,5.0,30,12,18,15.0,29.68996,1006.5,,,,,,,,,,BKN,14000,,,,,,,VFR,,,,,,,,,,,,METAR,238.0
CYWE 230900Z AUTO 19003KT 170V270 9SM OVC027 M07/M12 A3004 RMK ICE MISG SLP209,CYWE,2022-10-23T09:00:00Z,64.18,-114.08,-7.0,-12.0,190,3,,9.0,30.041338,1020.9,,TRUE,,,,,,,,OVC,2700,,,,,,,MVFR,,,,,,,,,,,,METAR,374.0
CYVV 230900Z 17008KT 15SM SKC 14/09 A3011 RMK SLP199,CYVV,2022-10-23T09:00:00Z,44.75,-81.1,14.0,9.0,170,8,,15.0,30.109253,1019.9,,,,,,,,,,SKC,,,,,,,,VFR,,,,,,,,,,,,SPECI,221.0
CYVT 230900Z AUTO 09006KT 9SM OVC081 01/M01 A2998 RMK SLP176,CYVT,2022-10-23T09:00:00Z,55.83,-108.42,1.0,-1.0,90,6,,9.0,29.97933,1017.6,,TRUE,,,,,,,,OVC,8100,,,,,,,VFR,,,,,,,,,,,,SPECI,438.0
CYVR 230900Z 08004KT 12SM FEW037 FEW220 06/06 A2994 RMK SC1CI1 SLP140,CYVR,2022-10-23T09:00:00Z,49.17,-123.17,6.0,6.0,80,4,,12.0,29.940945,1014.0,,,,,,,,,,FEW,3700,FEW,22000,,,,,VFR,,,,,,,,,,,,METAR,2.0
CYVQ 230900Z 09004KT 20SM FEW025 BKN075 M04/M07 A3004 RMK SC2AC5 SLP181,CYVQ,2022-10-23T09:00:00Z,65.27,-126.78,-4.0,-7.0,90,4,,20.0,30.041338,1018.1,,,,,,,,,,FEW,2500,BKN,7500,,,,,VFR,,,,,,,,,,,,SPECI,63.0
CYVP 230900Z 26010G20KT 15SM FEW017 BKN037 OVC100 02/M02 A2983 RMK CU2SC5AC1 INTMT -SN SLP106,CYVP,2022-10-23T09:00:00Z,58.12,-68.42,2.0,-2.0,260,10,20,15.0,29.828741,1010.6,,,,,,,,,,FEW,1700,BKN,3700,OVC,10000,,,VFR,,,,,,,,,,,,METAR,28.0
CYVO 230900Z AUTO 18006KT 9SM CLR 08/07 A3010 RMK SLP204,CYVO,2022-10-23T09:00:00Z,48.07,-77.77,8.0,7.0,180,6,,9.0,30.100393,1020.4,,TRUE,,,,,,,,CLR,,,,,,,,VFR,,,,,,,,,,,,SPECI,329.0
CYVC 230900Z 06004KT 15SM SKC 00/M01 A3000 RMK SLP178,CYVC,2022-10-23T09:00:00Z,55.15,-105.27,0.0,-1.0,60,4,,15.0,30.0,1017.8,,,,,,,,,,SKC,,,,,,,,VFR,,,,,,,,,,,,SPECI,378.0
CYUY 230900Z 17003KT 15SM FEW240 09/07 A3007 RMK CI2 SLP191,CYUY,2022-10-23T09:00:00Z,48.2,-78.82,9.0,7.0,170,3,,15.0,30.070866,1019.1,,,,,,,,,,FEW,24000,,,,,,,VFR,,,,,,,,,,,,METAR,304.0
CYUX 230900Z AUTO 30012KT 9SM BKN170 OVC200 M07/M07 A2947 RMK SLP982,CYUX,2022-10-23T09:00:00Z,68.77,-81.22,-7.0,-7.0,300,12,,9.0,29.471457,998.2,,TRUE,,,,,,,,BKN,17000,OVC,20000,,,,,VFR,,,,,,,,,,,,SPECI,8.0
CYUL 230900Z 11003KT 15SM SKC 08/04 A3027 RMK SLP254,CYUL,2022-10-23T09:00:00Z,45.47,-73.73,8.0,4.0,110,3,,15.0,30.268702,1025.4,,,,,,,,,,SKC,,,,,,,,VFR,,,,,,,,,,,,METAR,31.0
CYTZ 230900Z AUTO 07011G16KT 9SM CLR 10/06 A3018 RMK SLP223,CYTZ,2022-10-23T09:00:00Z,43.63,-79.4,10.0,6.0,70,11,16,9.0,30.180119,1022.3,,TRUE,,,,,,,,CLR,,,,,,,,VFR,,,,,,,,,,,,SPECI,76.0
CYTS 230900Z 16003KT 15SM SKC 07/06 A3001 RMK SLP172,CYTS,2022-10-23T09:00:00Z,48.57,-81.37,7.0,6.0,160,3,,15.0,30.008858,1017.2,,,,,,,,,,SKC,,,,,,,,VFR,,,,,,,,,,,,SPECI,290.0
CYTR 230900Z 05005KT 15SM SKC 04/04 A3022 RMK DENSITY ALT -1186FT SLP235,CYTR,2022-10-23T09:00:00Z,44.12,-77.52,4.0,4.0,50,5,,15.0,30.221457,1023.5,,,,,,,,,,SKC,,,,,,,,VFR,,,,,,,,,,,,METAR,80.0
CYTL 230900Z AUTO 05002KT 9SM CLR M03/M03 A3002 RMK SLP180,CYTL,2022-10-23T09:00:00Z,53.82,-89.88,-3.0,-3.0,50,2,,9.0,30.02067,1018.0,,TRUE,,,,,,,,CLR,,,,,,,,VFR,,,,,,,,,,,,METAR,218.0
CYTH 230900Z 03003KT 15SM SCT033 BKN056 M01/M02 A3004 RMK SC3SC4 SLP189,CYTH,2022-10-23T09:00:00Z,55.8,-97.83,-1.0,-2.0,30,3,,15.0,30.041338,1018.9,,,,,,,,,,SCT,3300,BKN,5600,,,,,VFR,,,,,,,,,,,,SPECI,212.0
CYSM 230900Z 23002KT 15SM BKN034 M03/M08 A3009 RMK SC7 SLP206,CYSM,2022-10-23T09:00:00Z,60.03,-111.92,-3.0,-8.0,230,2,,15.0,30.088583,1020.6,,,,,,,,,,BKN,3400,,,,,,,VFR,,,,,,,,,,,,SPECI,203.0
CYSC 230900Z AUTO 11004KT CLR A3031 RMK WX MISG VIS MISG PCPN MISG T MISG DP MISG DENSITY ALT MISG,CYSC,2022-10-23T09:00:00Z,45.43,-71.68,,,110,4,,,30.31004,,,TRUE,,,,,,,,CLR,,,,,,,,,,,,,,,,,,,,SPECI,236.0
CYSB 230900Z 17012KT 15SM SKC 11/09 A3008 RMK SLP195,CYSB,2022-10-23T09:00:00Z,46.63,-80.8,11.0,9.0,170,12,,15.0,30.079725,1019.5,,,,,,,,,,SKC,,,,,,,,VFR,,,,,,,,,,,,SPECI,349.0
CYRV 230900Z AUTO 00000KT 9SM BKN081 OVC090 05/02 A2984 RMK SLP117,CYRV,2022-10-23T09:00:00Z,50.97,-118.17,5.0,2.0,0,0,,9.0,29.840551,1011.7,,TRUE,,,,,,,,BKN,8100,OVC,9000,,,,,VFR,,,,,,,,,,,,SPECI,456.0
CYRT 230900Z 33012KT 15SM FEW012 BKN110 M08/M09 A2993 RMK SC1AC6 SLP140,CYRT,2022-10-23T09:00:00Z,62.82,-92.12,-8.0,-9.0,330,12,,15.0,29.929134,1014.0,,,,,,,,,,FEW,1200,BKN,11000,,,,,VFR,,,,,,,,,,,,SPECI,29.0
CYRQ 230900Z AUTO 01002KT 9SM CLR 02/02 A3028 RMK SLP257,CYRQ,2022-10-23T09:00:00Z,46.35,-72.68,2.0,2.0,10,2,,9.0,30.280512,1025.7,,TRUE,,,,,,,,CLR,,,,,,,,VFR,,,,,,,,,,,,METAR,58.0
CYRL 230900Z 04007KT 020V090 12SM FEW006 OVC050 06/05 A2979 RMK SF1SC7 BR SLP103,CYRL,2022-10-23T09:00:00Z,51.07,-93.78,6.0,5.0,40,7,,12.0,29.790354,1010.3,,,,,,,,,,FEW,600,OVC,5000,,,,,VFR,,,,,,,,,,,,SPECI,370.0
CYRJ 230900Z 23007KT 200V260 25SM SKC 12/05 A3018 RMK SLP227,CYRJ,2022-10-23T09:00:00Z,48.52,-72.27,12.0,5.0,230,7,,25.0,30.180119,1022.7,,,,,,,,,,SKC,,,,,,,,VFR,,,,,,,,,,,,SPECI,173.0
CYRB 230900Z 03020KT 15SM DRSN SKC M20/M23 A2956 RMK SLP022,CYRB,2022-10-23T09:00:00Z,74.72,-94.97,-20.0,-23.0,30,20,,15.0,29.56004,1002.2,,,,,,,,,DRSN,SKC,,,,,,,,VFR,,,,,,,,,,,,METAR,59.0
CYQY 230900Z 22006KT 15SM FEW020 BKN240 10/10 A3034 RMK SC2CI3 SLP278,CYQY,2022-10-23T09:00:00Z,46.17,-60.03,10.0,10.0,220,6,,15.0,30.339567,1027.8,,,,,,,,,,FEW,2000,BKN,24000,,,,,VFR,,,,,,,,,,,,METAR,58.0
CYQX 230900Z 23014G20KT 20SM FEW210 08/06 A3020 RMK CI1 CI TR SLP231,CYQX,2022-10-23T09:00:00Z,48.95,-54.58,8.0,6.0,230,14,20,20.0,30.200787,1023.1,,,,,,,,,,FEW,21000,,,,,,,VFR,,,,,,,,,,,,METAR,144.0
CYQW 230900Z AUTO 05006KT 9SM BKN042 OVC076 02/M02 A2988 RMK SLP139,CYQW,2022-10-23T09:00:00Z,52.77,-108.25,2.0,-2.0,50,6,,9.0,29.878937,1013.9,,TRUE,,,,,,,,BKN,4200,OVC,7600,,,,,VFR,,,,,,,,,,,,SPECI,545.0
CYQU 230900Z 31009KT 25SM OVC020 M00/M04 A2999 RMK ST8 SLP185,CYQU,2022-10-23T09:00:00Z,55.18,-118.88,0.0,-4.0,310,9,,25.0,29.991142,1018.5,,,,,,,,,,OVC,2000,,,,,,,MVFR,,,,,,,,,,,,SPECI,668.0
CYQT 230900Z AUTO 08009KT 9SM CLR 08/07 A2977 RMK SLP088,CYQT,2022-10-23T09:00:00Z,48.37,-89.32,8.0,7.0,80,9,,9.0,29.769686,1008.8,,TRUE,,,,,,,,CLR,,,,,,,,VFR,,,,,,,,,,,,SPECI,197.0
CYQQ 230900Z 31008KT 20SM SKC 08/00 A2995 RMK SLP142,CYQQ,2022-10-23T09:00:00Z,49.72,-124.9,8.0,0.0,310,8,,20.0,29.949802,1014.2,,,,,,,,,,SKC,,,,,,,,VFR,,,,,,,,,,,,METAR,24.0
CYQM 230900Z 22007KT 15SM SKC 06/04 A3032 RMK SLP270,CYQM,2022-10-23T09:00:00Z,46.12,-64.67,6.0,4.0,220,7,,15.0,30.318897,1027.0,,,,,,,,,,SKC,,,,,,,,VFR,,,,,,,,,,,,METAR,67.0
CYQL 230900Z AUTO 35013G19KT 1 1/4SM -SN OVC003 00/00 A2976 RMK ICE PCPN 0.8MM PAST HR SLP110,CYQL,2022-10-23T09:00:00Z,49.63,-112.8,0.0,0.0,350,13,19,1.25,29.760826,1011.0,,TRUE,,,,,,,-SN,OVC,300,,,,,,,LIFR,,,,,,,,,,,,SPECI,923.0
CYQK 230900Z 06009G15KT 20SM BKN150 07/05 A2968 RMK AC7 SLP064,CYQK,2022-10-23T09:00:00Z,49.78,-94.37,7.0,5.0,60,9,15,20.0,29.681103,1006.4,,,,,,,,,,BKN,15000,,,,,,,VFR,,,,,,,,,,,,SPECI,413.0
CYQH 230900Z 11012G20KT 10SM -SN OVC070 M01/M05 A2984 RMK AC8 SLP140,CYQH,2022-10-23T09:00:00Z,60.12,-128.82,-1.0,-5.0,110,12,20,10.0,29.840551,1014.0,,,,,,,,,-SN,OVC,7000,,,,,,,VFR,,,,,,,,,,,,SPECI,692.0
CYQG 230900Z AUTO 17004KT 9SM CLR 10/08 A3011 RMK SLP199,CYQG,2022-10-23T09:00:00Z,42.27,-82.97,10.0,8.0,170,4,,9.0,30.109253,1019.9,,TRUE,,,,,,,,CLR,,,,,,,,VFR,,,,,,,,,,,,METAR,189.0
CYQD 230900Z AUTO 06004KT 9SM BKN180 BKN200 OVC220 00/M03 A2998 RMK SLP167,CYQD,2022-10-23T09:00:00Z,53.97,-101.08,0.0,-3.0,60,4,,9.0,29.97933,1016.7,,TRUE,,,,,,,,BKN,18000,BKN,20000,OVC,22000,,,VFR,,,,,,,,,,,,SPECI,268.0
CYQB 230900Z 00000KT 15SM SKC 04/03 A3030 RMK SLP264,CYQB,2022-10-23T09:00:00Z,46.78,-71.38,4.0,3.0,0,0,,15.0,30.301182,1026.4,,,,,,,,,,SKC,,,,,,,,VFR,,,,,,,,,,,,METAR,73.0
CYQA 230900Z AUTO 15006KT 9SM CLR 09/06 A3016 RMK SLP219,CYQA,2022-10-23T09:00:00Z,44.97,-79.3,9.0,6.0,150,6,,9.0,30.159449,1021.9,,TRUE,,,,,,,,CLR,,,,,,,,VFR,,,,,,,,,,,,SPECI,277.0
CYPR 230900Z AUTO 09005KT 9SM OVC160 04/03 A2993 RMK SLP139,CYPR,2022-10-23T09:00:00Z,54.28,-130.45,4.0,3.0,90,5,,9.0,29.929134,1013.9,,TRUE,,,,,,,,OVC,16000,,,,,,,VFR,,,,,,,,,,,,SPECI,30.0
CYPQ 230900Z AUTO 00000KT 9SM CLR 01/01 A3020 RMK SLP233,CYPQ,2022-10-23T09:00:00Z,44.22,-78.37,1.0,1.0,0,0,,9.0,30.200787,1023.3,,TRUE,,,,,,,,CLR,,,,,,,,VFR,,,,,,,,,,,,SPECI,190.0
CYPO 230900Z AUTO 25003KT 9SM OVC034 M02/M03 A3007 RMK SLP187,CYPO,2022-10-23T09:00:00Z,54.98,-85.43,-2.0,-3.0,250,3,,9.0,30.070866,1018.7,,TRUE,,,,,,,,OVC,3400,,,,,,,VFR,,,,,,,,,,,,METAR,49.0
CYPL 230900Z AUTO 07008KT 9SM SCT071 OVC140 03/03 A2988 RMK SLP137,CYPL,2022-10-23T09:00:00Z,51.43,-90.22,3.0,3.0,70,8,,9.0,29.878937,1013.7,,TRUE,,,,,,,,SCT,7100,OVC,14000,,,,,VFR,,,,,,,,,,,,METAR,390.0
CYPE 230900Z 35004KT 310V020 15SM BKN010 OVC050 M01/M02 A2999 RMK SC7SC1 SLP185,CYPE,2022-10-23T09:00:00Z,56.22,-117.45,-1.0,-2.0,350,4,,15.0,29.991142,1018.5,,,,,,,,,,BKN,1000,OVC,5000,,,,,MVFR,,,,,,,,,,,,SPECI,572.0
CYPD 230900Z AUTO 00000KT 9SM CLR 08/08 A3035 RMK SLP282,CYPD,2022-10-23T09:00:00Z,45.67,-61.37,8.0,8.0,0,0,,9.0,30.351377,1028.2,,TRUE,,,,,,,,CLR,,,,,,,,VFR,,,,,,,,,,,,METAR,106.0
CYPA 230900Z 07009KT 15SM OVC150 00/M04 A2993 RMK AC8 SLP156,CYPA,2022-10-23T09:00:00Z,53.22,-105.67,0.0,-4.0,70,9,,15.0,29.929134,1015.6,,,,,,,,,,OVC,15000,,,,,,,VFR,,,,,,,,,,,,SPECI,428.0
CYOW 230900Z 15005KT 15SM SKC 08/03 A3024 RMK SLP245,CYOW,2022-10-23T09:00:00Z,45.32,-75.67,8.0,3.0,150,5,,15.0,30.239174,1024.5,,,,,,,,,,SKC,,,,,,,,VFR,,,,,,,,,,,,METAR,111.0
CYOO 230900Z AUTO 01003KT 360V130 9SM CLR 05/04 A3019 RMK SLP227,CYOO,2022-10-23T09:00:00Z,43.92,-78.9,5.0,4.0,10,3,,9.0,30.188976,1022.7,,TRUE,,,,,,,,CLR,,,,,,,,VFR,,,,,,,,,,,,METAR,136.0
CYOD 230900Z 34004KT 12SM BKN065 M02/M03 A2995 RMK SC7 DENSITY ALT 8FT PTCHY BR E SLP167,CYOD,2022-10-23T09:00:00Z,54.4,-110.28,-2.0,-3.0,340,4,,12.0,29.949802,1016.7,,,,,,,,,,BKN,6500,,,,,,,VFR,,,,,,,,,,,,SPECI,540.0
CYNM 230900Z AUTO 16005KT 9SM CLR 02/01 A3006 RMK SLP191,CYNM,2022-10-23T09:00:00Z,49.77,-77.78,2.0,1.0,160,5,,9.0,30.059055,1019.1,,TRUE,,,,,,,,CLR,,,,,,,,VFR,,,,,,,,,,,,SPECI,276.0
CYNE 230900Z AUTO 03002KT 9SM BKN180 M03/M03 A3000 RMK SLP173,CYNE,2022-10-23T09:00:00Z,53.97,-97.83,-3.0,-3.0,30,2,,9.0,30.0,1017.3,,TRUE,,,,,,,,BKN,18000,,,,,,,VFR,,,,,,,,,,,,SPECI,220.0
CYMX 230900Z VRB02KT 25SM SKC 04/04 A3028 RMK SLP256,CYMX,2022-10-23T09:00:00Z,45.67,-74.03,4.0,4.0,0,2,,25.0,30.280512,1025.6,,,,,,,,,,SKC,,,,,,,,VFR,,,,,,,,,,,,METAR,78.0
CYMT 230900Z AUTO 13003KT 9SM BKN110 06/05 A3012 RMK SLP213,CYMT,2022-10-23T09:00:00Z,49.77,-74.52,6.0,5.0,130,3,,9.0,30.121063,1021.3,,TRUE,,,,,,,,BKN,11000,,,,,,,VFR,,,,,,,,,,,,SPECI,388.0
CYMO 230900Z AUTO 05003KT 9SM SCT130 BKN150 07/05 A3005 RMK SLP179,CYMO,2022-10-23T09:00:00Z,51.28,-80.62,7.0,5.0,50,3,,9.0,30.050198,1017.9,,TRUE,,,,,,,,SCT,13000,BKN,15000,,,,,VFR,,,,,,,,,,,,SPECI,8.0
CYMH 230900Z AUTO 24010KT 9SM OVC120 09/05 A2999 RMK SLP157,CYMH,2022-10-23T09:00:00Z,52.3,-55.82,9.0,5.0,240,10,,9.0,29.991142,1015.7,,TRUE,,,,,,,,OVC,12000,,,,,,,VFR,,,,,,,,,,,,METAR,18.0
CYMA 230900Z 36005KT 20SM -SN OVC034 M02/M03 A2981 RMK SC8 SLP129,CYMA,2022-10-23T09:00:00Z,63.62,-135.87,-2.0,-3.0,360,5,,20.0,29.811024,1012.9,,,,,,,,,-SN,OVC,3400,,,,,,,VFR,,,,,,,,,,,,SPECI,519.0
CYLW 230900Z AUTO 05003KT 9SM 00/M01 A2986 RMK CLD MISG SLP125,CYLW,2022-10-23T09:00:00Z,49.95,-119.37,0.0,-1.0,50,3,,9.0,29.861221,1012.5,,TRUE,,,,,,,,,,,,,,,,,,,,,,,,,,,,SPECI,420.0
CYKY 230900Z 05010KT 15SM OVC100 02/M02 A2979 RMK AC8 SLP107,CYKY,2022-10-23T09:00:00Z,51.52,-109.17,2.0,-2.0,50,10,,15.0,29.790354,1010.7,,,,,,,,,,OVC,10000,,,,,,,VFR,,,,,,,,,,,,SPECI,692.0
CYKJ 230900Z AUTO 10005KT 9SM OVC027 M02/M04 A3003 RMK SLP203,CYKJ,2022-10-23T09:00:00Z,57.25,-105.62,-2.0,-4.0,100,5,,9.0,30.029528,1020.3,,TRUE,,,,,,,,OVC,2700,,,,,,,MVFR,,,,,,,,,,,,SPECI,519.0
CYKF 230900Z AUTO 14004KT 9SM CLR 09/06 A3017 RMK SLP220,CYKF,2022-10-23T09:00:00Z,43.47,-80.38,9.0,6.0,140,4,,9.0,30.171259,1022.0,,TRUE,,,,,,,,CLR,,,,,,,,VFR,,,,,,,,,,,,SPECI,312.0
CYKA 230900Z 28008KT 40SM SCT080 05/M02 A2990 RMK AC3 SLP136,CYKA,2022-10-23T09:00:00Z,50.7,-120.45,5.0,-2.0,280,8,,40.0,29.899607,1013.6,,,,,,,,,,SCT,8000,,,,,,,VFR,,,,,,,,,,,,SPECI,344.0
CYJT 230900Z 23011KT 15SM SKC 11/09 A3025 RMK SLP248,CYJT,2022-10-23T09:00:00Z,48.55,-58.57,11.0,9.0,230,11,,15.0,30.250984,1024.8,,,,,,,,,,SKC,,,,,,,,VFR,,,,,,,,,,,,METAR,7.0
CYIV 230900Z AUTO 04005KT 020V090 9SM CLR 01/M00 A2999 RMK SLP171,CYIV,2022-10-23T09:00:00Z,53.85,-94.65,1.0,0.0,40,5,,9.0,29.991142,1017.1,,TRUE,,,,,,,,CLR,,,,,,,,VFR,,,,,,,,,,,,SPECI,234.0
CYIO 230900Z AUTO 15006KT 9SM -SN BKN048 BKN071 OVC087 M09/M11 A2945 RMK SLP981,CYIO,2022-10-23T09:00:00Z,72.68,-77.97,-9.0,-11.0,150,6,,9.0,29.450787,998.1,,TRUE,,,,,,,-SN,BKN,4800,BKN,7100,OVC,8700,,,VFR,,,,,,,,,,,,SPECI,61.0
CYHZ 230900Z VRB02KT 15SM FEW260 07/07 A3036 RMK CI2 SLP287,CYHZ,2022-10-23T09:00:00Z,44.87,-63.5,7.0,7.0,0,2,,15.0,30.360237,1028.7,,,,,,,,,,FEW,26000,,,,,,,VFR,,,,,,,,,,,,METAR,136.0
CYHU 230900Z AUTO 09002KT 9SM CLR 06/04 A3028 RMK SLP256,CYHU,2022-10-23T09:00:00Z,45.52,-73.42,6.0,4.0,90,2,,9.0,30.280512,1025.6,,TRUE,,,,,,,,CLR,,,,,,,,VFR,,,,,,,,,,,,SPECI,26.0
CYHM 230900Z 16005KT 15SM SKC 10/07 A3018 RMK SLP223,CYHM,2022-10-23T09:00:00Z,43.17,-79.93,10.0,7.0,160,5,,15.0,30.180119,1022.3,,,,,,,,,,SKC,,,,,,,,VFR,,,,,,,,,,,,SPECI,237.0
CYHE 230900Z AUTO 07002KT 9SM BKN038 05/04 A2996 RMK SLP147,CYHE,2022-10-23T09:00:00Z,49.37,-121.5,5.0,4.0,70,2,,9.0,29.958662,1014.7,,TRUE,,,,,,,,BKN,3800,,,,,,,VFR,,,,,,,,,,,,SPECI,43.0
CYHD 230900Z AUTO 06012KT 9SM CLR 07/05 A2969 RMK SLP070,CYHD,2022-10-23T09:00:00Z,49.82,-92.75,7.0,5.0,60,12,,9.0,29.68996,1007.0,,TRUE,,,,,,,,CLR,,,,,,,,VFR,,,,,,,,,,,,SPECI,414.0
CYGX 230900Z 01008KT 15SM OVC018 M01/M03 A3007 RMK SC8 SLP195,CYGX,2022-10-23T09:00:00Z,56.35,-94.7,-1.0,-3.0,10,8,,15.0,30.070866,1019.5,,,,,,,,,,OVC,1800,,,,,,,MVFR,,,,,,,,,,,,SPECI,145.0
CYGV 230900Z AUTO 31002KT 9SM CLR 01/01 A3018 RMK SLP223,CYGV,2022-10-23T09:00:00Z,50.28,-63.62,1.0,1.0,310,2,,9.0,30.180119,1022.3,,TRUE,,,,,,,,CLR,,,,,,,,VFR,,,,,,,,,,,,SPECI,32.0
CYGR 230900Z 25012KT 15SM SKC 11/08 A3028 RMK SLP255,CYGR,2022-10-23T09:00:00Z,47.42,-61.77,11.0,8.0,250,12,,15.0,30.280512,1025.5,,,,,,,,,,SKC,,,,,,,,VFR,,,,,,,,,,,,SPECI,4.0
CYGL 230900Z 10003KT 15SM FEW025 00/M00 A3010 RMK SC2 SLP207,CYGL,2022-10-23T09:00:00Z,53.62,-77.7,0.0,0.0,100,3,,15.0,30.100393,1020.7,,,,,,,,,,FEW,2500,,,,,,,VFR,,,,,,,,,,,,METAR,192.0
CYFT 230900Z 26017G26KT 15SM SCT090 09/04 A2982 RMK AC3 SLP103,CYFT,2022-10-23T09:00:00Z,55.07,-59.18,9.0,4.0,260,17,26,15.0,29.819881,1010.3,,,,,,,,,,SCT,9000,,,,,,,VFR,,,,,,,,,,,,METAR,65.0
CYFB 230900Z 30012KT 15SM -SN OVC016 00/M02 A2936 RMK SC8 SLP946,CYFB,2022-10-23T09:00:00Z,63.75,-68.55,0.0,-2.0,300,12,,15.0,29.359253,994.6,,,,,,,,,-SN,OVC,1600,,,,,,,MVFR,,,,,,,,,,,,METAR,23.0
CYEV 230900Z 08008KT 15SM SCT055 M12/M14 A3008 RMK SC4 SLP196,CYEV,2022-10-23T09:00:00Z,68.32,-133.5,-12.0,-14.0,80,8,,15.0,30.079725,1019.6,,,,,,,,,,SCT,5500,,,,,,,VFR,,,,,,,,,,,,SPECI,74.0
CYER 230900Z AUTO 22004KT 9SM OVC071 M02/M03 A3004 RMK SLP176,CYER,2022-10-23T09:00:00Z,56.02,-87.68,-2.0,-3.0,220,4,,9.0,30.041338,1017.6,,TRUE,,,,,,,,OVC,7100,,,,,,,VFR,,,,,,,,,,,,METAR,11.0
CYEK 230900Z AUTO /////KT RMK WIND MISG CLD MISG WX MISG VIS MISG PCPN MISG PRES MISG T MISG DP MISG ICE MISG DENSITY ALT MISG,CYEK,2022-10-23T09:00:00Z,61.1,-94.07,,,,,,,,,,TRUE,,,,,,,,,,,,,,,,,,,,,,,,,,,,SPECI,7.0
CYEG 230900Z 35003KT 20SM FEW022 OVC054 02/01 A2990 RMK SC2SC6 SLP156,CYEG,2022-10-23T09:00:00Z,53.3,-113.58,2.0,1.0,350,3,,20.0,29.899607,1015.6,,,,,,,,,,FEW,2200,OVC,5400,,,,,VFR,,,,,,,,,,,,METAR,710.0
CYDQ 230900Z AUTO 25003KT 9SM CLR M04/M07 A3000 RMK SLP197,CYDQ,2022-10-23T09:00:00Z,55.75,-120.18,-4.0,-7.0,250,3,,9.0,30.0,1019.7,,TRUE,,,,,,,,CLR,,,,,,,,VFR,,,,,,,,,,,,METAR,658.0
CYDP 230900Z 28010KT 15SM FEW110 06/01 A2979 RMK AC1 SLP090,CYDP,2022-10-23T09:00:00Z,56.53,-61.68,6.0,1.0,280,10,,15.0,29.790354,1009.0,,,,,,,,,,FEW,11000,,,,,,,VFR,,,,,,,,,,,,SPECI,14.0
CYDN 230900Z AUTO 04009KT 9SM OVC076 04/M00 A2984 RMK SLP117,CYDN,2022-10-23T09:00:00Z,51.1,-100.05,4.0,0.0,40,9,,9.0,29.840551,1011.7,,TRUE,,,,,,,,OVC,7600,,,,,,,VFR,,,,,,,,,,,,SPECI,302.0
CYDL 230900Z AUTO 00000KT 9SM OVC055 M01/M01 A2980 RMK SLP117,CYDL,2022-10-23T09:00:00Z,58.42,-130.02,-1.0,-1.0,0,0,,9.0,29.799213,1011.7,,TRUE,,,,,,,,OVC,5500,,,,,,,VFR,,,,,,,,,,,,METAR,804.0
CYDF 230900Z 05003KT 15SM SKC 02/02 A3020 RMK SLP229,CYDF,2022-10-23T09:00:00Z,49.22,-57.4,2.0,2.0,50,3,,15.0,30.200787,1022.9,,,,,,,,,,SKC,,,,,,,,VFR,,,,,,,,,,,,SPECI,15.0
CYCY 230900Z AUTO 31014KT 9SM OVC018 M05/M06 A2945 RMK SLP978,CYCY,2022-10-23T09:00:00Z,70.48,-68.52,-5.0,-6.0,310,14,,9.0,29.450787,997.8,,TRUE,,,,,,,,OVC,1800,,,,,,,MVFR,,,,,,,,,,,,SPECI,73.0
CYCO 230900Z 26013KT 12SM -SN OVC038 M09/M12 A3011 RMK SC8 SLP200,CYCO,2022-10-23T09:00:00Z,67.82,-115.15,-9.0,-12.0,260,13,,12.0,30.109253,1020.0,,,,,,,,,-SN,OVC,3800,,,,,,,VFR,,,,,,,,,,,,SPECI,20.0
CYCK 230900Z AUTO 20009KT 9SM CLR 13/10 A3013 RMK SLP204,CYCK,2022-10-23T09:00:00Z,42.3,-82.08,13.0,10.0,200,9,,9.0,30.129921,1020.4,,TRUE,,,,,,,,CLR,,,,,,,,VFR,,,,,,,,,,,,METAR,196.0
CYCA 230900Z AUTO 22009G16KT 9SM BKN120 OVC190 09/04 A2989 RMK SLP125,CYCA,2022-10-23T09:00:00Z,53.68,-57.03,9.0,4.0,220,9,16,9.0,29.890747,1012.5,,TRUE,,,,,,,,BKN,12000,OVC,19000,,,,,VFR,,,,,,,,,,,,METAR,12.0
CYBW 230900Z AUTO 33006KT 3SM -SN BKN010 BKN014 OVC037 M01/M01 A2984 RMK SLP152,CYBW,2022-10-23T09:00:00Z,51.1,-114.37,-1.0,-1.0,330,6,,3.0,29.840551,1015.2,,TRUE,,,,,,,-SN,BKN,1000,BKN,1400,OVC,3700,,,MVFR,,,,,,,,,,,,SPECI,1197.0
CYBU 230900Z AUTO 36008KT 8SM CLR M00/M04 A2993 RMK ICE SLP156,CYBU,2022-10-23T09:00:00Z,53.32,-104.0,0.0,-4.0,360,8,,8.0,29.929134,1015.6,,TRUE,,,,,,,,CLR,,,,,,,,VFR,,,,,,,,,,,,SPECI,369.0
CYBR 230900Z 05021G31KT 15SM BKN100 OVC250 04/M00 A2970 RMK AC6CI2 SLP073,CYBR,2022-10-23T09:00:00Z,49.92,-99.95,4.0,0.0,50,21,31,15.0,29.698818,1007.3,,,,,,,,,,BKN,10000,OVC,25000,,,,,VFR,,,,,,,,,,,,METAR,405.0
CYBQ 230900Z AUTO /////KT 9SM CLR M07/M07 A3005 RMK WIND MISG SLP202,CYBQ,2022-10-23T09:00:00Z,58.7,-98.5,-7.0,-7.0,,,,9.0,30.050198,1020.2,,TRUE,,,,,,,,CLR,,,,,,,,VFR,,,,,,,,,,,,METAR,272.0
CYBG 230900Z 13004KT 25SM SKC 05/03 A3023 RMK SLP242,CYBG,2022-10-23T09:00:00Z,48.33,-70.98,5.0,3.0,130,4,,25.0,30.230314,1024.2,,,,,,,,,,SKC,,,,,,,,VFR,,,,,,,,,,,,METAR,151.0
CYBC 230900Z AUTO 00000KT 9SM CLR 02/02 A3023 RMK SLP238,CYBC,2022-10-23T09:00:00Z,49.13,-68.2,2.0,2.0,0,0,,9.0,30.230314,1023.8,,TRUE,,,,,,,,CLR,,,,,,,,VFR,,,,,,,,,,,,SPECI,20.0
CYAY 230900Z AUTO 23015G22KT 9SM SCT016 09/07 A3005 RMK SLP178,CYAY,2022-10-23T09:00:00Z,51.38,-56.07,9.0,7.0,230,15,22,9.0,30.050198,1017.8,,TRUE,,,,,,,,SCT,1600,,,,,,,VFR,,,,,,,,,,,,SPECI,23.0
CYAT 230900Z AUTO 00000KT 9SM OVC170 M02/M02 A3009 RMK SLP191,CYAT,2022-10-23T09:00:00Z,52.93,-82.43,-2.0,-2.0,0,0,,9.0,30.088583,1019.1,,TRUE,,,,,,,,OVC,17000,,,,,,,VFR,,,,,,,,,,,,METAR,4.0
CYAM 230900Z VRB02KT 20SM SKC 10/09 A2997 RMK SLP155,CYAM,2022-10-23T09:00:00Z,46.48,-84.52,10.0,9.0,0,2,,20.0,29.970472,1015.5,,,,,,,,,,SKC,,,,,,,,VFR,,,,,,,,,,,,SPECI,186.0
CYAH 230900Z AUTO 23004KT 9SM OVC034 03/00 A3010 RMK SLP211,CYAH,2022-10-23T09:00:00Z,53.75,-73.67,3.0,0.0,230,4,,9.0,30.100393,1021.1,,TRUE,,,,,,,,OVC,3400,,,,,,,VFR,,,,,,,,,,,,SPECI,298.0
CXZV 230900Z AUTO 04002KT M00/01 RMK AO1 SLP227 T10010005 53015,CXZV,2022-10-23T09:00:00Z,50.22,-66.25,-0.1,0.5,40,2,,,,1022.7,,TRUE,TRUE,,,,,,,,,,,,,,,,1.5,,,,,,,,,,,METAR,43.0
CXZC 230900Z AUTO 01002KT 07/05 RMK AO1 SLP180 T00650052 51013,CXZC,2022-10-23T09:00:00Z,51.3,-80.62,6.5,5.2,10,2,,,,1018.0,,TRUE,TRUE,,,,,,,,,,,,,,,,1.3,,,,,,,,,,,METAR,8.0
CXYH 230900Z AUTO 21002KT M04/M06 RMK AO1 SLP163 T10361058 58003,CXYH,2022-10-23T09:00:00Z,61.25,-123.75,-3.6,-5.8,210,2,,,,1016.3,,TRUE,TRUE,,,,,,,,,,,,,,,,-0.3,,,,,,,,,,,METAR,197.0
CXWN 230900Z AUTO 03006KT 08/05 RMK AO1 SLP063 T00800049 51001,CXWN,2022-10-23T09:00:00Z,49.88,-97.13,8.0,4.9,30,6,,,,1006.3,,TRUE,TRUE,,,,,,,,,,,,,,,,0.1,,,,,,,,,,,METAR,232.0
CXWM 230900Z AUTO 36018KT M00/M00 RMK AO1 0PAST HR M PK WND 00025/0848 P0004 T10041003 50016,CXWM,2022-10-23T09:00:00Z,49.5,-112.12,-0.4,-0.3,360,18,,,,,,TRUE,TRUE,,,,,,,,,,,,,,,,1.6,,,,,0.04,,,,,,METAR,947.0
CXVW 230900Z AUTO 35006KT M01/M02 RMK AO1 SLP169 T10091016 52014,CXVW,2022-10-23T09:00:00Z,55.1,-117.2,-0.9,-1.6,350,6,,,,1016.9,,TRUE,TRUE,,,,,,,,,,,,,,,,1.4,,,,,,,,,,,METAR,696.0
CXVN 230900Z AUTO 19006KT 14/05 RMK AO1 SLP215 T01430053 53005,CXVN,2022-10-23T09:00:00Z,43.18,-79.4,14.3,5.3,190,6,,,,1021.5,,TRUE,TRUE,,,,,,,,,,,,,,,,0.5,,,,,,,,,,,METAR,86.0
CXVM 230900Z AUTO 32003KT M00/00 RMK AO1 T10010000,CXVM,2022-10-23T09:00:00Z,53.35,-110.88,-0.1,0.0,320,3,,,,,,TRUE,TRUE,,,,,,,,,,,,,,,,,,,,,,,,,,,METAR,622.0
CXTV 230900Z AUTO 07001KT M15/M17 RMK AO1 SOG 07 0001 SLP200 T11491168,CXTV,2022-10-23T09:00:00Z,68.75,-133.5,-14.9,-16.8,70,1,,,,1020.0,,TRUE,TRUE,,,,,,,,,,,,,,,,,,,,,,,,,,,METAR,91.0
CXTP 230900Z AUTO 24010KT 07/07 RMK AO1 PK WND 25018/0835 SLP232 T00700066 58003,CXTP,2022-10-23T09:00:00Z,48.55,-53.97,7.0,6.6,240,10,,,,1023.2,,TRUE,TRUE,,,,,,,,,,,,,,,,-0.3,,,,,,,,,,,METAR,104.0
CXTO 230900Z AUTO 10/06 RMK AO1 SLP222 T00990062 53007,CXTO,2022-10-23T09:00:00Z,43.67,-79.4,9.9,6.2,,,,,,1022.2,,TRUE,TRUE,,,,,,,,,,,,,,,,0.7,,,,,,,,,,,METAR,115.0
CXTN 230900Z AUTO 24004KT M13/M15 RMK AO1 SOG 22 0000 SLP216 T11341151,CXTN,2022-10-23T09:00:00Z,69.2,-122.35,-13.4,-15.1,240,4,,,,1021.6,,TRUE,TRUE,,,,,,,,,,,,,,,,,,,,,,,,,,,METAR,564.0
CXTH 230900Z AUTO 06004KT M02/M02 RMK AO1 T10201021,CXTH,2022-10-23T09:00:00Z,53.63,-111.68,-2.0,-2.1,60,4,,,,,,TRUE,TRUE,,,,,,,,,,,,,,,,,,,,,,,,,,,METAR,679.0
CXTD 230900Z AUTO 36001KT 09/08 RMK AO1 SLP294 T00890079 55001,CXTD,2022-10-23T09:00:00Z,45.62,-61.68,8.9,7.9,360,1,,,,1029.4,,TRUE,TRUE,,,,,,,,,,,,,,,,-0.1,,,,,,,,,,,METAR,58.0
CXSP 230900Z AUTO 03003KT M01/M01 RMK AO1 T10081010 50004,CXSP,2022-10-23T09:00:00Z,54.02,-111.27,-0.8,-1.0,30,3,,,,,,TRUE,TRUE,,,,,,,,,,,,,,,,0.4,,,,,,,,,,,METAR,652.0
CXSL 230900Z AUTO 12004KT M00/M01 RMK AO1 T10021013,CXSL,2022-10-23T09:00:00Z,54.28,-112.5,-0.2,-1.3,120,4,,,,,,TRUE,TRUE,,,,,,,,,,,,,,,,,,,,,,,,,,,METAR,680.0
CXSH 230900Z AUTO 34002KT 03/02 RMK AO1 SLP258 T00320015 53014,CXSH,2022-10-23T09:00:00Z,46.55,-72.73,3.2,1.5,340,2,,,,1025.8,,TRUE,TRUE,,,,,,,,,,,,,,,,1.4,,,,,,,,,,,METAR,106.0
CXSE 230900Z AUTO 33018KT M16/M18 RMK AO1 SOG 05 1002 PK WND 34022/0842 SLP071 T11591182,CXSE,2022-10-23T09:00:00Z,73.77,-105.28,-15.9,-18.2,330,18,,,,1007.1,,TRUE,TRUE,,,,,,,,,,,,,,,,,,,,,,,,,,,METAR,11.0
CXSC 230900Z AUTO 02013KT 02/02 RMK AO1 5PAST HR M PK WND 02018/0842 P0002 T00230016 50011,CXSC,2022-10-23T09:00:00Z,50.3,-110.08,2.3,1.6,20,13,,,,,,TRUE,TRUE,,,,,,,,,,,,,,,,1.1,,,,,0.02,,,,,,METAR,809.0
CXRL 230900Z AUTO 00000KT M05/M05 RMK AO1 T10521053,CXRL,2022-10-23T09:00:00Z,54.5,-111.7,-5.2,-5.3,0,0,,,,,,TRUE,TRUE,,,,,,,,,,,,,,,,,,,,,,,,,,,METAR,585.0
CXRH 230900Z AUTO 23011G19KT 11/08 RMK AO1 PK WND 22020/0850 SLP217 T01080079 53003,CXRH,2022-10-23T09:00:00Z,49.57,-57.88,10.8,7.9,230,11,19,,,1021.7,,TRUE,TRUE,,,,,,,,,,,,,,,,0.3,,,,,,,,,,,METAR,68.0
CXRB 230900Z AUTO 04015KT M20/M23 RMK AO1 SOG 04 1007 PK WND 04020/0817 SLP018 T12021231,CXRB,2022-10-23T09:00:00Z,74.72,-94.98,-20.2,-23.1,40,15,,,,1001.8,,TRUE,TRUE,,,,,,,,,,,,,,,,,,,,,,,,,,,METAR,30.0
CXPL 230900Z AUTO 36009KT 02/02 RMK AO1 T00160016,CXPL,2022-10-23T09:00:00Z,51.13,-111.7,1.6,1.6,360,9,,,,,,TRUE,TRUE,,,,,,,,,,,,,,,,,,,,,,,,,,,METAR,735.0
CXPC 230900Z AUTO 12/08 RMK AO1 SLP207 T01160075 51007,CXPC,2022-10-23T09:00:00Z,45.35,-80.05,11.6,7.5,,,,,,1020.7,,TRUE,TRUE,,,,,,,,,,,,,,,,0.7,,,,,,,,,,,METAR,176.0
CXPA 230900Z AUTO 33005KT M01/M02 RMK AO1 T10071023,CXPA,2022-10-23T09:00:00Z,55.62,-118.3,-0.7,-2.3,330,5,,,,,,TRUE,TRUE,,,,,,,,,,,,,,,,,,,,,,,,,,,METAR,628.0
CXOY 230900Z AUTO 04009KT 01/M02 RMK AO1 T00121019,CXOY,2022-10-23T09:00:00Z,51.35,-110.35,1.2,-1.9,40,9,,,,,,TRUE,TRUE,,,,,,,,,,,,,,,,,,,,,,,,,,,METAR,784.0
CXOX 230900Z AUTO 07004KT M00/M01 RMK AO1 SLP170 T10021007 51011,CXOX,2022-10-23T09:00:00Z,55.15,-105.27,-0.2,-0.7,70,4,,,,1017.0,,TRUE,TRUE,,,,,,,,,,,,,,,,1.1,,,,,,,,,,,METAR,381.0
CXOL 230900Z AUTO 34005KT M00/M00 RMK AO1 T10021002 50004,CXOL,2022-10-23T09:00:00Z,51.77,-114.08,-0.2,-0.2,340,5,,,,,,TRUE,TRUE,,,,,,,,,,,,,,,,0.4,,,,,,,,,,,METAR,1026.0
CXNP 230900Z AUTO 19008KT 09/07 RMK AO1 SLP271 T00880073 53001,CXNP,2022-10-23T09:00:00Z,45.75,-64.23,8.8,7.3,190,8,,,,1027.1,,TRUE,TRUE,,,,,,,,,,,,,,,,0.1,,,,,,,,,,,METAR,19.0
CXNM 230900Z AUTO 28010G15KT 10/03 RMK AO1 PK WND 27022/0811 T00970031,CXNM,2022-10-23T09:00:00Z,46.82,-60.67,9.7,3.1,280,10,15,,,,,TRUE,TRUE,,,,,,,,,,,,,,,,,,,,,,,,,,,METAR,452.0
CXMY 230900Z AUTO 08/08 RMK AO1 T00780078,CXMY,2022-10-23T09:00:00Z,44.98,-62.48,7.8,7.8,,,,,,,,TRUE,TRUE,,,,,,,,,,,,,,,,,,,,,,,,,,,METAR,37.0
CXMO 230900Z AUTO 36008KT 01/01 RMK AO1 T00100009,CXMO,2022-10-23T09:00:00Z,51.67,-112.68,1.0,0.9,360,8,,,,,,TRUE,TRUE,,,,,,,,,,,,,,,,,,,,,,,,,,,METAR,837.0
CXMM 230900Z AUTO 12002KT 01/01 RMK AO1 1013 SLP178 T00070005 50002,CXMM,2022-10-23T09:00:00Z,56.65,-111.22,0.7,0.5,120,2,,,,1017.8,,TRUE,TRUE,,,,,,,,,,,,,,,,0.2,,,,,,,,,,,METAR,372.0
CXMI 230900Z AUTO 36003KT 11/11 RMK AO1 SLP280 T01120107 55002,CXMI,2022-10-23T09:00:00Z,44.6,-63.53,11.2,10.7,360,3,,,,1028.0,,TRUE,TRUE,,,,,,,,,,,,,,,,-0.2,,,,,,,,,,,METAR,15.0
CXMG 230900Z AUTO 33005KT M02/M03 RMK AO1 T10201032,CXMG,2022-10-23T09:00:00Z,56.97,-117.45,-2.0,-3.2,330,5,,,,,,TRUE,TRUE,,,,,,,,,,,,,,,,,,,,,,,,,,,METAR,467.0
CXMD 230900Z AUTO 01008KT 06/05 RMK AO1 SLP057 T00640051 50002,CXMD,2022-10-23T09:00:00Z,49.18,-98.08,6.4,5.1,10,8,,,,1005.7,,TRUE,TRUE,,,,,,,,,,,,,,,,0.2,,,,,,,,,,,METAR,297.0
CXLL 230900Z AUTO 09001KT M08/M10 RMK AO1 SOG 03 8002 SLP194 T10751096,CXLL,2022-10-23T09:00:00Z,61.12,-122.85,-7.5,-9.6,90,1,,,,1019.4,,TRUE,TRUE,,,,,,,,,,,,,,,,,,,,,,,,,,,METAR,180.0
CXLB 230900Z AUTO 32002KT 09/09 RMK AO1 SLP285 T00940087 53004,CXLB,2022-10-23T09:00:00Z,44.37,-64.3,9.4,8.7,320,2,,,,1028.5,,TRUE,TRUE,,,,,,,,,,,,,,,,0.4,,,,,,,,,,,METAR,4.0
CXKT 230900Z AUTO 19003KT 04/03 RMK AO1 SLP285 T00350031 53006,CXKT,2022-10-23T09:00:00Z,45.07,-64.48,3.5,3.1,190,3,,,,1028.5,,TRUE,TRUE,,,,,,,,,,,,,,,,0.6,,,,,,,,,,,METAR,48.0
CXKM 230900Z AUTO 01006KT M01/M01 RMK AO1 T10061012,CXKM,2022-10-23T09:00:00Z,52.83,-111.87,-0.6,-1.2,10,6,,,,,,TRUE,TRUE,,,,,,,,,,,,,,,,,,,,,,,,,,,METAR,679.0
CXKI 230900Z AUTO 00014KT 03/02 RMK AO1 SLP180 T00250024 52010,CXKI,2022-10-23T09:00:00Z,48.13,-80.0,2.5,2.4,0,14,,,,1018.0,,TRUE,TRUE,,,,,,,,,,,,,,,,1.0,,,,,,,,,,,METAR,328.0
CXKE 230900Z AUTO 19002KT 07/03 RMK AO1 SLP246 T00680030 52011,CXKE,2022-10-23T09:00:00Z,45.0,-75.63,6.8,3.0,190,2,,,,1024.6,,TRUE,TRUE,,,,,,,,,,,,,,,,1.1,,,,,,,,,,,METAR,99.0
CXKA 230900Z AUTO 11002KT 04/04 RMK AO1 SLP160 T00410039 53005,CXKA,2022-10-23T09:00:00Z,49.4,-82.45,4.1,3.9,110,2,,,,1016.0,,TRUE,TRUE,,,,,,,,,,,,,,,,0.5,,,,,,,,,,,METAR,221.0
CXIB 230900Z AUTO 23004KT 12/05 RMK AO1 PK WND 23018/0825 SLP258 T01190048 53002,CXIB,2022-10-23T09:00:00Z,46.67,-60.4,11.9,4.8,230,4,,,,1025.8,,TRUE,TRUE,,,,,,,,,,,,,,,,0.2,,,,,,,,,,,METAR,6.0
CXHR 230900Z AUTO 32011KT M01/M01 RMK AO1 T10061006 50004,CXHR,2022-10-23T09:00:00Z,51.18,-112.5,-0.6,-0.6,320,11,,,,,,TRUE,TRUE,,,,,,,,,,,,,,,,0.4,,,,,,,,,,,METAR,975.0
CXHP 230900Z AUTO 28004KT 01/M00 RMK AO1 T00051001,CXHP,2022-10-23T09:00:00Z,55.4,-116.48,0.5,-0.1,280,4,,,,,,TRUE,TRUE,,,,,,,,,,,,,,,,,,,,,,,,,,,METAR,601.0
CXHM 230900Z AUTO 26001KT 11/06 RMK AO1 SLP222 T01090059 53007,CXHM,2022-10-23T09:00:00Z,43.28,-79.9,10.9,5.9,260,1,,,,1022.2,,TRUE,TRUE,,,,,,,,,,,,,,,,0.7,,,,,,,,,,,METAR,105.0
CXHD 230900Z AUTO 02003KT M03/M04 RMK AO1 T10341035,CXHD,2022-10-23T09:00:00Z,53.18,-112.25,-3.4,-3.5,20,3,,,,,,TRUE,TRUE,,,,,,,,,,,,,,,,,,,,,,,,,,,METAR,688.0
CXHA 230900Z AUTO 19005KT 13/09 RMK AO1 SLP197 T01310086 52009,CXHA,2022-10-23T09:00:00Z,42.03,-82.9,13.1,8.6,190,5,,,,1019.7,,TRUE,TRUE,,,,,,,,,,,,,,,,0.9,,,,,,,,,,,METAR,193.0
CXGH 230900Z AUTO 02019KT 07/05 RMK AO1 PK WND 02023/0826 SLP084 T00730046 58004,CXGH,2022-10-23T09:00:00Z,50.63,-97.0,7.3,4.6,20,19,,,,1008.4,,TRUE,TRUE,,,,,,,,,,,,,,,,-0.4,,,,,,,,,,,METAR,217.0
CXFR 230900Z AUTO 33002KT M03/M03 RMK AO1 T10261028,CXFR,2022-10-23T09:00:00Z,56.08,-118.43,-2.6,-2.8,330,2,,,,,,TRUE,TRUE,,,,,,,,,,,,,,,,,,,,,,,,,,,METAR,657.0
CXFM 230900Z AUTO 35013KT 00/M00 RMK AO1 7PAST HR M PK WND 33018/0842 P0003 T00001002 50021,CXFM,2022-10-23T09:00:00Z,49.48,-111.48,0.0,-0.2,350,13,,,,,,TRUE,TRUE,,,,,,,,,,,,,,,,2.1,,,,,0.03,,,,,,METAR,884.0
CXET 230900Z AUTO 15004KT 11/07 RMK AO1 SLP222 T01080067 52014,CXET,2022-10-23T09:00:00Z,44.23,-79.78,10.8,6.7,150,4,,,,1022.2,,TRUE,TRUE,,,,,,,,,,,,,,,,1.4,,,,,,,,,,,METAR,250.0
CXEG 230900Z AUTO 35003KT 02/01 RMK AO1 SLP152 T00200006 53010,CXEG,2022-10-23T09:00:00Z,53.3,-113.6,2.0,0.6,350,3,,,,1015.2,,TRUE,TRUE,,,,,,,,,,,,,,,,1.0,,,,,,,,,,,METAR,706.0
CXEC 230900Z AUTO 04002KT 02/M00 RMK AO1 SLP152 T00231001 51010,CXEC,2022-10-23T09:00:00Z,53.57,-113.52,2.3,-0.1,40,2,,,,1015.2,,TRUE,TRUE,,,,,,,,,,,,,,,,1.0,,,,,,,,,,,METAR,666.0
CXEA 230900Z AUTO 08006KT 07/05 RMK AO1 SLP077 T00660048 58008,CXEA,2022-10-23T09:00:00Z,50.63,-93.22,6.6,4.8,80,6,,,,1007.7,,TRUE,TRUE,,,,,,,,,,,,,,,,-0.8,,,,,,,,,,,METAR,351.0
CXDW 230900Z AUTO 03010KT 06/05 RMK AO1 SLP067 T00640048 53005,CXDW,2022-10-23T09:00:00Z,49.4,-98.32,6.4,4.8,30,10,,,,1006.7,,TRUE,TRUE,,,,,,,,,,,,,,,,0.5,,,,,,,,,,,METAR,341.0
CXDK 230900Z AUTO 00000KT M03/M05 RMK AO1 SLP169 T10321050 58004,CXDK,2022-10-23T09:00:00Z,61.27,-124.47,-3.2,-5.0,0,0,,,,1016.9,,TRUE,TRUE,,,,,,,,,,,,,,,,-0.4,,,,,,,,,,,METAR,269.0
CXDI 230900Z AUTO 00000KT 07/06 RMK AO1 SLP219 T00740059 53008,CXDI,2022-10-23T09:00:00Z,42.87,-80.55,7.4,5.9,0,0,,,,1021.9,,TRUE,TRUE,,,,,,,,,,,,,,,,0.8,,,,,,,,,,,METAR,234.0
CXDE 230900Z AUTO 07007KT M04/M06 RMK AO1 SOG 02 8003 SLP186 T10411061,CXDE,2022-10-23T09:00:00Z,65.22,-123.43,-4.1,-6.1,70,7,,,,1018.6,,TRUE,TRUE,,,,,,,,,,,,,,,,,,,,,,,,,,,METAR,208.0
CXDB 230900Z AUTO 34019KT M02/M02 RMK AO1 5PAST HR M PK WND 34022/0851 P0002 T10171020 50005,CXDB,2022-10-23T09:00:00Z,49.05,-112.82,-1.7,-2.0,340,19,,,,,,TRUE,TRUE,,,,,,,,,,,,,,,,0.5,,,,,0.02,,,,,,METAR,1311.0
CXCS 230900Z AUTO 02010KT 01/M01 RMK AO1 T00071010,CXCS,2022-10-23T09:00:00Z,51.93,-110.72,0.7,-1.0,20,10,,,,,,TRUE,TRUE,,,,,,,,,,,,,,,,,,,,,,,,,,,METAR,771.0
CXCP 230900Z AUTO 35013KT 00/M00 RMK AO1 T00001004 50004,CXCP,2022-10-23T09:00:00Z,50.28,-113.35,0.0,-0.4,350,13,,,,,,TRUE,TRUE,,,,,,,,,,,,,,,,0.4,,,,,,,,,,,METAR,999.0
CXCK 230900Z AUTO 00000KT M01/M02 RMK AO1 SLP110 T10141019 58007,CXCK,2022-10-23T09:00:00Z,62.12,-136.2,-1.4,-1.9,0,0,,,,1011.0,,TRUE,TRUE,,,,,,,,,,,,,,,,-0.7,,,,,,,,,,,METAR,526.0
CXCD 230900Z AUTO 25002KT M03/M05 RMK AO1 T10261051,CXCD,2022-10-23T09:00:00Z,56.32,-119.75,-2.6,-5.1,250,2,,,,,,TRUE,TRUE,,,,,,,,,,,,,,,,,,,,,,,,,,,METAR,628.0
CXCA 230900Z AUTO 00000KT 05/05 RMK AO1 SLP097 T00530049 58004,CXCA,2022-10-23T09:00:00Z,49.15,-88.35,5.3,4.9,0,0,,,,1009.7,,TRUE,TRUE,,,,,,,,,,,,,,,,-0.4,,,,,,,,,,,METAR,228.0
CXBW 230900Z AUTO 35014KT M00/M00 RMK AO1 5PAST HR M PK WND 35020/0829 P0002 T10041003 50016,CXBW,2022-10-23T09:00:00Z,49.8,-112.3,-0.4,-0.3,350,14,,,,,,TRUE,TRUE,,,,,,,,,,,,,,,,1.6,,,,,0.02,,,,,,METAR,823.0
CXBR 230900Z AUTO 01015KT RMK AO1 PK WND 02022/0802 50005,CXBR,2022-10-23T09:00:00Z,49.62,-113.82,,,10,15,,,,,,TRUE,TRUE,,,,,,,,,,,,,,,,0.5,,,,,,,,,,,METAR,1137.0
CXBO 230900Z AUTO 22005KT 08/04 RMK AO1 T00750035,CXBO,2022-10-23T09:00:00Z,46.83,-71.2,7.5,3.5,220,5,,,,,,TRUE,TRUE,,,,,,,,,,,,,,,,,,,,,,,,,,,METAR,8.0
CXBK 230900Z AUTO 06016KT 02/02 RMK AO1 2PAST HR SOG 01 5011 PK WND 07023/0845 SLP067 P0001 T00150015 50009,CXBK,2022-10-23T09:00:00Z,50.2,-104.7,1.5,1.5,60,16,,,,1006.7,,TRUE,TRUE,,,,,,,,,,,,,,,,0.9,,,,,0.01,,,,,,METAR,585.0
CXBI 230900Z AUTO 00000KT 04/03 RMK AO1 SLP232 T00410030 51012,CXBI,2022-10-23T09:00:00Z,44.48,-79.55,4.1,3.0,0,0,,,,1023.2,,TRUE,TRUE,,,,,,,,,,,,,,,,1.2,,,,,,,,,,,METAR,287.0
CXBA 230900Z AUTO 03008KT 01/M02 RMK AO1 T00061018,CXBA,2022-10-23T09:00:00Z,52.12,-110.1,0.6,-1.8,30,8,,,,,,TRUE,TRUE,,,,,,,,,,,,,,,,,,,,,,,,,,,METAR,696.0
CXAT 230900Z AUTO 06008KT M08/M12 RMK AO1 SOG 04 1007 SLP981 T10781124,CXAT,2022-10-23T09:00:00Z,73.0,-85.03,-7.8,-12.4,60,8,,,,998.1,,TRUE,TRUE,,,,,,,,,,,,,,,,,,,,,,,,,,,METAR,10.0
CXAK 230900Z AUTO 35005KT M00/M00 RMK AO1 T10041003,CXAK,2022-10-23T09:00:00Z,52.35,-112.6,-0.4,-0.3,350,5,,,,,,TRUE,TRUE,,,,,,,,,,,,,,,,,,,,,,,,,,,METAR,799.0
CXAJ 230900Z AUTO 05001KT M01/M01 RMK AO1 T10071008,CXAJ,2022-10-23T09:00:00Z,54.78,-112.82,-0.7,-0.8,50,1,,,,,,TRUE,TRUE,,,,,,,,,,,,,,,,,,,,,,,,,,,METAR,586.0
CXAG 230900Z AUTO 02004KT M01/M02 RMK AO1 T10131018,CXAG,2022-10-23T09:00:00Z,53.92,-112.28,-1.3,-1.8,20,4,,,,,,TRUE,TRUE,,,,,,,,,,,,,,,,,,,,,,,,,,,METAR,632.0
CXAF 230900Z AUTO 04001KT M01/M01 RMK AO1 T10091013,CXAF,2022-10-23T09:00:00Z,54.28,-112.97,-0.9,-1.3,40,1,,,,,,TRUE,TRUE,,,,,,,,,,,,,,,,,,,,,,,,,,,METAR,667.0
CWZW 230900Z AUTO 07003KT M00/M01 RMK AO1 SLP117 T10041010 58008,CWZW,2022-10-23T09:00:00Z,60.17,-132.73,-0.4,-1.0,70,3,,,,1011.7,,TRUE,TRUE,,,,,,,,,,,,,,,,-0.8,,,,,,,,,,,METAR,683.0
CWZQ 230900Z AUTO 16009KT 12/08 RMK AO1 SLP274 T01150079 52002,CWZQ,2022-10-23T09:00:00Z,46.53,-61.05,11.5,7.9,160,9,,,,1027.4,,TRUE,TRUE,,,,,,,,,,,,,,,,0.2,,,,,,,,,,,METAR,13.0
CWZO 230900Z AUTO 36005KT RMK AO1,CWZO,2022-10-23T09:00:00Z,48.57,-123.25,,,360,5,,,,,,TRUE,TRUE,,,,,,,,,,,,,,,,,,,,,,,,,,,METAR,5.0
CWZN 230900Z AUTO 26016KT 12/10 RMK AO1 PK WND 25020/0856 SLP256 T01160102 56007,CWZN,2022-10-23T09:00:00Z,47.37,-55.8,11.6,10.2,260,16,,,,1025.6,,TRUE,TRUE,,,,,,,,,,,,,,,,-0.7,,,,,,,,,,,METAR,63.0
CWZL 230900Z AUTO 24003KT 09/06 RMK AO1 SLP142 T00860057 56006,CWZL,2022-10-23T09:00:00Z,53.03,-131.6,8.6,5.7,240,3,,,,1014.2,,TRUE,TRUE,,,,,,,,,,,,,,,,-0.6,,,,,,,,,,,METAR,17.0
CWZG 230900Z AUTO 03001KT M02/M02 RMK AO1 4PAST HR SOG 07 2010 SLP135 P0002 T10171023 50013,CWZG,2022-10-23T09:00:00Z,51.2,-115.55,-1.7,-2.3,30,1,,,,1013.5,,TRUE,TRUE,,,,,,,,,,,,,,,,1.3,,,,,0.02,,,,,,METAR,1402.0
CWZA 230900Z AUTO 31001KT 04/04 RMK AO1 SLP143 T00390035 52017,CWZA,2022-10-23T09:00:00Z,49.25,-121.77,3.9,3.5,310,1,,,,1014.3,,TRUE,TRUE,,,,,,,,,,,,,,,,1.7,,,,,,,,,,,METAR,18.0
CWYY 230900Z AUTO 32006KT 09/02 RMK AO1 SLP104 T00870017 53014,CWYY,2022-10-23T09:00:00Z,49.03,-119.43,8.7,1.7,320,6,,,,1010.4,,TRUE,TRUE,,,,,,,,,,,,,,,,1.4,,,,,,,,,,,METAR,284.0
CWYL 230900Z AUTO 07003KT M03/M05 RMK AO1 SLP129 T10301053 51011,CWYL,2022-10-23T09:00:00Z,51.45,-116.33,-3.0,-5.3,70,3,,,,1012.9,,TRUE,TRUE,,,,,,,,,,,,,,,,1.1,,,,,,,,,,,METAR,1602.0
CWYJ 230900Z AUTO 36002KT 05/04 RMK AO1 SLP141 T00470040 51018,CWYJ,2022-10-23T09:00:00Z,48.45,-123.3,4.7,4.0,360,2,,,,1014.1,,TRUE,TRUE,,,,,,,,,,,,,,,,1.8,,,,,,,,,,,METAR,59.0
CWXL 230900Z AUTO 01012G18KT 01/01 RMK AO1 6PAST HR 3002 PK WND 03019/0842 SLP087 P0002 T00140007 50022,CWXL,2022-10-23T09:00:00Z,49.73,-111.45,1.4,0.7,10,12,18,,,1008.7,,TRUE,TRUE,,,,,,,,,,,,,,,,2.2,,,,,0.02,,,,,,METAR,815.0
CWXI 230900Z AUTO 24016G21KT 10/09 RMK AO1 PK WND 23025/0828 SLP176 T00980090 53008,CWXI,2022-10-23T09:00:00Z,51.02,-57.1,9.8,9.0,240,16,21,,,1017.6,,TRUE,TRUE,,,,,,,,,,,,,,,,0.8,,,,,,,,,,,METAR,15.0
CWXC 230900Z AUTO 00000KT 04/03 RMK AO1 SLP241 T00360031 53009,CWXC,2022-10-23T09:00:00Z,48.88,-71.03,3.6,3.1,0,0,,,,1024.1,,TRUE,TRUE,,,,,,,,,,,,,,,,0.9,,,,,,,,,,,METAR,306.0
CWXA 230900Z AUTO 00011KT M02/M02 RMK AO1 SLP166 T10151021 51010,CWXA,2022-10-23T09:00:00Z,51.07,-115.07,-1.5,-2.1,0,11,,,,1016.6,,TRUE,TRUE,,,,,,,,,,,,,,,,1.0,,,,,,,,,,,METAR,1303.0
CWWZ 230900Z AUTO 07002KT 13/08 RMK AO1 SLP218 T01330075 53008,CWWZ,2022-10-23T09:00:00Z,43.25,-79.22,13.3,7.5,70,2,,,,1021.8,,TRUE,TRUE,,,,,,,,,,,,,,,,0.8,,,,,,,,,,,METAR,75.0
CWWS 230900Z AUTO 04019KT 04/01 RMK AO1 PK WND 04021/0858 SLP149 T00370014 51002,CWWS,2022-10-23T09:00:00Z,52.82,-97.62,3.7,1.4,40,19,,,,1014.9,,TRUE,TRUE,,,,,,,,,,,,,,,,0.2,,,,,,,,,,,METAR,220.0
CWWL 230900Z AUTO 14005KT 08/04 RMK AO1 SLP137 T00790040 55002,CWWL,2022-10-23T09:00:00Z,53.5,-130.63,7.9,4.0,140,5,,,,1013.7,,TRUE,TRUE,,,,,,,,,,,,,,,,-0.2,,,,,,,,,,,METAR,8.0
CWWK 230900Z AUTO 03002KT 06/05 RMK AO1 SLP143 T00560048 51017,CWWK,2022-10-23T09:00:00Z,49.02,-122.78,5.6,4.8,30,2,,,,1014.3,,TRUE,TRUE,,,,,,,,,,,,,,,,1.7,,,,,,,,,,,METAR,10.0
CWWF 230900Z AUTO 09018G24KT 04/02 RMK AO1 SOG 01 8006 PK WND 09026/0831 SLP049 T00380020,CWWF,2022-10-23T09:00:00Z,49.7,-103.8,3.8,2.0,90,18,24,,,1004.9,,TRUE,TRUE,,,,,,,,,,,,,,,,,,,,,,,,,,,METAR,583.0
CWWE 230900Z AUTO 35004KT 08/08 RMK AO1 SLP284 T00840083 53002,CWWE,2022-10-23T09:00:00Z,43.98,-64.67,8.4,8.3,350,4,,,,1028.4,,TRUE,TRUE,,,,,,,,,,,,,,,,0.2,,,,,,,,,,,METAR,4.0
CWWB 230900Z AUTO 31001KT 11/08 RMK AO1 SLP222 T01100080 53008,CWWB,2022-10-23T09:00:00Z,43.3,-79.78,11.0,8.0,310,1,,,,1022.2,,TRUE,TRUE,,,,,,,,,,,,,,,,0.8,,,,,,,,,,,METAR,77.0
CWWA 230900Z AUTO 36002KT 06/03 RMK AO1 SLP140 T00580030 51017,CWWA,2022-10-23T09:00:00Z,49.35,-123.18,5.8,3.0,360,2,,,,1014.0,,TRUE,TRUE,,,,,,,,,,,,,,,,1.7,,,,,,,,,,,METAR,172.0
CWVU 230900Z AUTO 14007KT 10/10 RMK AO1 SLP280 T01040104 53004,CWVU,2022-10-23T09:00:00Z,44.28,-66.33,10.4,10.4,140,7,,,,1028.0,,TRUE,TRUE,,,,,,,,,,,,,,,,0.4,,,,,,,,,,,METAR,4.0
CWVT 230900Z AUTO 07004KT 01/M01 RMK AO1 SLP189 T00051009 50013,CWVT,2022-10-23T09:00:00Z,55.83,-108.42,0.5,-0.9,70,4,,,,1018.9,,TRUE,TRUE,,,,,,,,,,,,,,,,1.3,,,,,,,,,,,METAR,431.0
CWVQ 230900Z AUTO 33001KT 05/05 RMK AO1 SLP253 T00510046 51013,CWVQ,2022-10-23T09:00:00Z,45.42,-73.92,5.1,4.6,330,1,,,,1025.3,,TRUE,TRUE,,,,,,,,,,,,,,,,1.3,,,,,,,,,,,METAR,38.0
CWVP 230900Z AUTO 04007G16KT M01/M01 RMK AO1 5PAST HR SOG 10 8006 SLP044 P0002 T10061011 50018,CWVP,2022-10-23T09:00:00Z,49.63,-109.52,-0.6,-1.1,40,7,16,,,1004.4,,TRUE,TRUE,,,,,,,,,,,,,,,,1.8,,,,,0.02,,,,,,METAR,1269.0
CWVN 230900Z AUTO 05015KT 02/M00 RMK AO1 2PAST HR 6008 PK WND 06022/0806 SLP029 P0005 T00161002 50033,CWVN,2022-10-23T09:00:00Z,49.07,-107.58,1.6,-0.2,50,15,,,,1002.9,,TRUE,TRUE,,,,,,,,,,,,,,,,3.3,,,,,0.05,,,,,,METAR,792.0
CWVI 230900Z AUTO 36004KT M06/M06 RMK AO1 SLP162 T10581063 52009,CWVI,2022-10-23T09:00:00Z,53.52,-112.1,-5.8,-6.3,360,4,,,,1016.2,,TRUE,TRUE,,,,,,,,,,,,,,,,0.9,,,,,,,,,,,METAR,640.0
CWVH 230900Z AUTO 11004G16KT 060V160 ////SM OVC002 ///// A////,CWVH,2022-10-23T09:00:00Z,68.9,-133.93,,,110,4,16,,,,,TRUE,,,,,,,,OVC,200,,,,,,,,,,,,,,,,,,,SPECI,246.0
CWVF 230900Z AUTO 09007KT 09/07 RMK AO1 T00880074,CWVF,2022-10-23T09:00:00Z,49.1,-123.3,8.8,7.4,90,7,,,,,,TRUE,TRUE,,,,,,,,,,,,,,,,,,,,,,,,,,,METAR,13.0
CWUX 230900Z AUTO 00000KT 04/03 RMK AO1 SLP245 T00360026 53009,CWUX,2022-10-23T09:00:00Z,48.3,-70.93,3.6,2.6,0,0,,,,1024.5,,TRUE,TRUE,,,,,,,,,,,,,,,,0.9,,,,,,,,,,,METAR,150.0
CWUW 230900Z AUTO VRB03KT ////SM NCD M06/M07 A2928,CWUW,2022-10-23T09:00:00Z,68.62,-71.12,-6.0,-7.0,0,3,,,29.279528,,,TRUE,,,,,,,,CLR,,,,,,,,,,,,,,,,,,,,SPECI,173.0
CWUS 230900Z AUTO 27006KT 05/M03 RMK AO1 SLP124 T00491028 53018,CWUS,2022-10-23T09:00:00Z,49.57,-119.65,4.9,-2.8,270,6,,,,1012.4,,TRUE,TRUE,,,,,,,,,,,,,,,,1.8,,,,,,,,,,,METAR,455.0
CWTY 230900Z AUTO 34001KT 07/06 RMK AO1 SLP259 T00720061 53014,CWTY,2022-10-23T09:00:00Z,46.35,-72.52,7.2,6.1,340,1,,,,1025.9,,TRUE,TRUE,,,,,,,,,,,,,,,,1.4,,,,,,,,,,,METAR,8.0
CWTT 230900Z AUTO 00000KT 05/04 RMK AO1 T00500041,CWTT,2022-10-23T09:00:00Z,45.27,-72.17,5.0,4.1,0,0,,,,,,TRUE,TRUE,,,,,,,,,,,,,,,,,,,,,,,,,,,METAR,210.0
CWTN 230900Z AUTO 30002KT 06/05 RMK AO1 SLP257 T00610053 53019,CWTN,2022-10-23T09:00:00Z,47.07,-70.78,6.1,5.3,300,2,,,,1025.7,,TRUE,TRUE,,,,,,,,,,,,,,,,1.9,,,,,,,,,,,METAR,5.0
CWTG 230900Z AUTO 27007KT 06/05 RMK AO1 SLP235 T00600051 53014,CWTG,2022-10-23T09:00:00Z,49.32,-67.37,6.0,5.1,270,7,,,,1023.5,,TRUE,TRUE,,,,,,,,,,,,,,,,1.4,,,,,,,,,,,METAR,6.0
CWTA 230900Z AUTO 19003KT 11/04 RMK AO1 SLP254 T01130035 53013,CWTA,2022-10-23T09:00:00Z,45.5,-73.58,11.3,3.5,190,3,,,,1025.4,,TRUE,TRUE,,,,,,,,,,,,,,,,1.3,,,,,,,,,,,METAR,71.0
CWST 230900Z AUTO 12002KT 07/04 RMK AO1 SLP246 T00700039 53016,CWST,2022-10-23T09:00:00Z,47.35,-70.02,7.0,3.9,120,2,,,,1024.6,,TRUE,TRUE,,,,,,,,,,,,,,,,1.6,,,,,,,,,,,METAR,31.0
CWSS 230900Z AUTO 00000KT 05/05 RMK AO1 SLP274 T00480046 53002,CWSS,2022-10-23T09:00:00Z,45.2,-67.25,4.8,4.6,0,0,,,,1027.4,,TRUE,TRUE,,,,,,,,,,,,,,,,0.2,,,,,,,,,,,METAR,27.0
CWSR 230900Z AUTO 04006KT 01/M02 RMK AO1 SLP146 T00071019 51004,CWSR,2022-10-23T09:00:00Z,53.37,-107.55,0.7,-1.9,40,6,,,,1014.6,,TRUE,TRUE,,,,,,,,,,,,,,,,0.4,,,,,,,,,,,METAR,589.0
CWSP 230900Z AUTO 07003KT 09/04 RMK AO1 SLP140 T00860040 51015,CWSP,2022-10-23T09:00:00Z,48.38,-123.92,8.6,4.0,70,3,,,,1014.0,,TRUE,TRUE,,,,,,,,,,,,,,,,1.5,,,,,,,,,,,METAR,2.0
CWSL 230900Z AUTO 18003KT M01/M03 RMK AO1 SLP128 T10071028 53021,CWSL,2022-10-23T09:00:00Z,50.7,-119.28,-0.7,-2.8,180,3,,,,1012.8,,TRUE,TRUE,,,,,,,,,,,,,,,,2.1,,,,,,,,,,,METAR,353.0
CWSK 230900Z AUTO 00000KT 02/01 RMK AO1 SLP145 T00210012 51019,CWSK,2022-10-23T09:00:00Z,49.78,-123.17,2.1,1.2,0,0,,,,1014.5,,TRUE,TRUE,,,,,,,,,,,,,,,,1.9,,,,,,,,,,,METAR,59.0
CWSG 230900Z AUTO 11/04 RMK AO1 SLP236 T01080043 53012,CWSG,2022-10-23T09:00:00Z,49.12,-66.65,10.8,4.3,,,,,,1023.6,,TRUE,TRUE,,,,,,,,,,,,,,,,1.2,,,,,,,,,,,METAR,5.0
CWSF 230900Z AUTO 13002KT 10/05 RMK AO1 SLP230 T01040046 53018,CWSF,2022-10-23T09:00:00Z,49.25,-65.32,10.4,4.6,130,2,,,,1023.0,,TRUE,TRUE,,,,,,,,,,,,,,,,1.8,,,,,,,,,,,METAR,15.0
CWSD 230900Z AUTO 24008KT 10/07 RMK AO1 SLP266 T01030074 53004,CWSD,2022-10-23T09:00:00Z,46.43,-63.85,10.3,7.4,240,8,,,,1026.6,,TRUE,TRUE,,,,,,,,,,,,,,,,0.4,,,,,,,,,,,METAR,12.0
CWSA 230900Z AUTO 11006KT 3SM BR CLR 13/13 A3037 RMK SLP287,CWSA,2022-10-23T09:00:00Z,43.93,-60.0,13.0,13.0,110,6,,3.0,30.369095,1028.7,,TRUE,,,,,,,BR,CLR,,,,,,,,MVFR,,,,,,,,,,,,SPECI,4.0
CWRZ 230900Z AUTO 26008KT 09/05 RMK AO1 SLP241 T00870046 52019,CWRZ,2022-10-23T09:00:00Z,48.42,-64.32,8.7,4.6,260,8,,,,1024.1,,TRUE,TRUE,,,,,,,,,,,,,,,,1.9,,,,,,,,,,,METAR,16.0
CWRY 230900Z AUTO 36017KT M00/M00 RMK AO1 6PAST HR 1004 PK WND 35022/0835 SLP078 P0002 T10011003 50011,CWRY,2022-10-23T09:00:00Z,49.12,-112.05,-0.1,-0.3,360,17,,,,1007.8,,TRUE,TRUE,,,,,,,,,,,,,,,,1.1,,,,,0.02,,,,,,METAR,1048.0
CWRX 230900Z AUTO ///// ////SM BKN007 BKN022 OVC031 M03/M03 A2940,CWRX,2022-10-23T09:00:00Z,69.07,-79.07,-3.0,-3.0,,,,,29.40059,,,TRUE,,,,,,,,BKN,700,BKN,2200,OVC,3100,,,,,,,,,,,,,,,SPECI,39.0
CWRU 230900Z AUTO 36015KT 09/ RMK AO1 PK WND 35019/0829 SLP148 T0088 53004,CWRU,2022-10-23T09:00:00Z,50.12,-127.93,8.8,,360,15,,,,1014.8,,TRUE,TRUE,,,,,,,,,,,,,,,,0.4,,,,,,,,,,,METAR,76.0
CWRT 230900Z AUTO 12003KT M01/M02 RMK AO1 SLP119 T10141018 53009,CWRT,2022-10-23T09:00:00Z,49.62,-114.47,-1.4,-1.8,120,3,,,,1011.9,,TRUE,TRUE,,,,,,,,,,,,,,,,0.9,,,,,,,,,,,METAR,1311.0
CWRO 230900Z AUTO 19005KT 06/ RMK AO1 SLP124 T0064 58007,CWRO,2022-10-23T09:00:00Z,54.17,-131.67,6.4,,190,5,,,,1012.4,,TRUE,TRUE,,,,,,,,,,,,,,,,-0.7,,,,,,,,,,,METAR,7.0
CWRN 230900Z AUTO 22007KT 13/13 RMK AO1 SLP280 T01270126 50000,CWRN,2022-10-23T09:00:00Z,45.35,-60.98,12.7,12.6,220,7,,,,1028.0,,TRUE,TRUE,,,,,,,,,,,,,,,,0.0,,,,,,,,,,,METAR,8.0
CWRM 230900Z AUTO 33003KT M00/00 RMK AO1 SLP133 T10010000 53011,CWRM,2022-10-23T09:00:00Z,52.42,-114.92,-0.1,0.0,330,3,,,,1013.3,,TRUE,TRUE,,,,,,,,,,,,,,,,1.1,,,,,,,,,,,METAR,986.0
CWRK 230900Z AUTO 30001KT 01/01 RMK AO1 SLP234 T00110011 51005,CWRK,2022-10-23T09:00:00Z,45.07,-77.87,1.1,1.1,300,1,,,,1023.4,,TRUE,TRUE,,,,,,,,,,,,,,,,0.5,,,,,,,,,,,METAR,328.0
CWRJ 230900Z AUTO 04011KT 02/M03 RMK AO1 SLP105 T00231026 53008,CWRJ,2022-10-23T09:00:00Z,51.57,-107.92,2.3,-2.6,40,11,,,,1010.5,,TRUE,TRUE,,,,,,,,,,,,,,,,0.8,,,,,,,,,,,METAR,586.0
CWRH 230900Z AUTO 25043G51KT ////SM ////// ///// A2933,CWRH,2022-10-23T09:00:00Z,61.58,-64.65,,,250,43,51,,29.329725,,,TRUE,,,,,,,,,,,,,,,,,,,,,,,,,,,,SPECI,343.0
CWRA 230900Z AUTO 00023KT 11/10 RMK AO1 SLP269 T01070100 58001,CWRA,2022-10-23T09:00:00Z,46.65,-53.07,10.7,10.0,0,23,,,,1026.9,,TRUE,TRUE,,,,,,,,,,,,,,,,-0.1,,,,,,,,,,,METAR,4.0
CWQV 230900Z AUTO 09001KT 06/05 RMK AO1 T00630050,CWQV,2022-10-23T09:00:00Z,48.27,-70.12,6.3,5.0,90,1,,,,,,TRUE,TRUE,,,,,,,,,,,,,,,,,,,,,,,,,,,METAR,4.0
CWQS 230900Z AUTO 14014KT 10/05 RMK AO1 PK WND 15017/0858 SLP118 T01010051 58016,CWQS,2022-10-23T09:00:00Z,53.32,-132.77,10.1,5.1,140,14,,,,1011.8,,TRUE,TRUE,,,,,,,,,,,,,,,,-1.6,,,,,,,,,,,METAR,10.0
CWQR 230900Z AUTO 30006KT 07/04 RMK AO1 T00690041,CWQR,2022-10-23T09:00:00Z,50.22,-64.22,6.9,4.1,300,6,,,,,,TRUE,TRUE,,,,,,,,,,,,,,,,,,,,,,,,,,,METAR,9.0
CWQP 230900Z AUTO 13001KT 13/10 RMK AO1 SLP238 T01260095 52010,CWQP,2022-10-23T09:00:00Z,43.83,-77.15,12.6,9.5,130,1,,,,1023.8,,TRUE,TRUE,,,,,,,,,,,,,,,,1.0,,,,,,,,,,,METAR,77.0
CWQO 230900Z AUTO 22010KT 09/05 RMK AO1 T00880054,CWQO,2022-10-23T09:00:00Z,48.42,-68.9,8.8,5.4,220,10,,,,,,TRUE,TRUE,,,,,,,,,,,,,,,,,,,,,,,,,,,METAR,7.0
CWQK 230900Z AUTO 01001KT 10/ RMK AO1 SLP140 T0098 52017,CWQK,2022-10-23T09:00:00Z,48.3,-123.53,9.8,,10,1,,,,1014.0,,TRUE,TRUE,,,,,,,,,,,,,,,,1.7,,,,,,,,,,,METAR,5.0
CWQH 230900Z AUTO 09003KT 04/03 RMK AO1 SLP272 T00430028 53012,CWQH,2022-10-23T09:00:00Z,45.37,-71.82,4.3,2.8,90,3,,,,1027.2,,TRUE,TRUE,,,,,,,,,,,,,,,,1.2,,,,,,,,,,,METAR,181.0
CWPZ 230900Z AUTO 00000KT M07/M08 RMK AO1 SLP164 T10701079 51006,CWPZ,2022-10-23T09:00:00Z,54.38,-125.97,-7.0,-7.9,0,0,,,,1016.4,,TRUE,TRUE,,,,,,,,,,,,,,,,0.6,,,,,,,,,,,METAR,715.0
CWPR 230900Z AUTO 33002KT M00/00 RMK AO1 SOG 01 1018 SLP141 T10010000,CWPR,2022-10-23T09:00:00Z,49.47,-120.52,-0.1,0.0,330,2,,,,1014.1,,TRUE,TRUE,,,,,,,,,,,,,,,,,,,,,,,,,,,METAR,703.0
CWPO 230900Z AUTO 05014G20KT 06/05 RMK AO1 PK WND 05022/0806 SLP066 T00640051 53001,CWPO,2022-10-23T09:00:00Z,49.2,-98.9,6.4,5.1,50,14,20,,,1006.6,,TRUE,TRUE,,,,,,,,,,,,,,,,0.1,,,,,,,,,,,METAR,471.0
CWPK 230900Z AUTO 00000KT 07/04 RMK AO1 SLP234 T00660041 53008,CWPK,2022-10-23T09:00:00Z,47.92,-74.62,6.6,4.1,0,0,,,,1023.4,,TRUE,TRUE,,,,,,,,,,,,,,,,0.8,,,,,,,,,,,METAR,443.0
CWPE 230900Z AUTO 27002KT 08/08 RMK AO1 SLP275 T00810076 53002,CWPE,2022-10-23T09:00:00Z,45.07,-66.47,8.1,7.6,270,2,,,,1027.5,,TRUE,TRUE,,,,,,,,,,,,,,,,0.2,,,,,,,,,,,METAR,9.0
CWPD 230900Z AUTO 20003KT 01/01 RMK AO1 SLP254 T00070007 53013,CWPD,2022-10-23T09:00:00Z,47.57,-71.22,0.7,0.7,200,3,,,,1025.4,,TRUE,TRUE,,,,,,,,,,,,,,,,1.3,,,,,,,,,,,METAR,795.0
CWPC 230900Z AUTO 14005KT 14/07 RMK AO1 SLP237 T01370070 53007,CWPC,2022-10-23T09:00:00Z,42.87,-79.25,13.7,7.0,140,5,,,,1023.7,,TRUE,TRUE,,,,,,,,,,,,,,,,0.7,,,,,,,,,,,METAR,174.0
CWOY 230900Z AUTO 07008KT 02/M03 RMK AO1 SLP119 T00221031 50001,CWOY,2022-10-23T09:00:00Z,51.77,-104.2,2.2,-3.1,70,8,,,,1011.9,,TRUE,TRUE,,,,,,,,,,,,,,,,0.1,,,,,,,,,,,METAR,557.0
CWOE 230900Z AUTO 01016KT 01/M00 RMK AO1 1PAST HR SOG 03 8001 PK WND 02023/0829 SLP047 P0004 T00081001 50036,CWOE,2022-10-23T09:00:00Z,49.12,-110.47,0.8,-0.1,10,16,,,,1004.7,,TRUE,TRUE,,,,,,,,,,,,,,,,3.6,,,,,0.04,,,,,,METAR,931.0
CWOD 230900Z AUTO 32003KT 04/03 RMK AO1 SLP231 T00360028 53005,CWOD,2022-10-23T09:00:00Z,48.85,-72.55,3.6,2.8,320,3,,,,1023.1,,TRUE,TRUE,,,,,,,,,,,,,,,,0.5,,,,,,,,,,,METAR,150.0
CWOC 230900Z AUTO 33005KT 08/06 RMK AO1 SLP246 T00840056 52013,CWOC,2022-10-23T09:00:00Z,48.02,-65.32,8.4,5.6,330,5,,,,1024.6,,TRUE,TRUE,,,,,,,,,,,,,,,,1.3,,,,,,,,,,,METAR,42.0
CWNZ 230900Z AUTO 13005KT 02/02 RMK AO1 SLP144 T00190019 58001,CWNZ,2022-10-23T09:00:00Z,49.75,-84.17,1.9,1.9,130,5,,,,1014.4,,TRUE,TRUE,,,,,,,,,,,,,,,,-0.1,,,,,,,,,,,METAR,261.0
CWNQ 230900Z AUTO 09002KT 06/04 RMK AO1 SLP255 T00570044 53014,CWNQ,2022-10-23T09:00:00Z,46.22,-72.65,5.7,4.4,90,2,,,,1025.5,,TRUE,TRUE,,,,,,,,,,,,,,,,1.4,,,,,,,,,,,METAR,9.0
CWNP 230900Z AUTO 10003KT 05/02 RMK AO1 SLP105 T00530022 52017,CWNP,2022-10-23T09:00:00Z,50.27,-117.82,5.3,2.2,100,3,,,,1010.5,,TRUE,TRUE,,,,,,,,,,,,,,,,1.7,,,,,,,,,,,METAR,517.0
CWNM 230900Z AUTO 26003KT 05/05 RMK AO1 SLP103 T00500050 52016,CWNM,2022-10-23T09:00:00Z,49.5,-117.3,5.0,5.0,260,3,,,,1010.3,,TRUE,TRUE,,,,,,,,,,,,,,,,1.6,,,,,,,,,,,METAR,533.0
CWNK 230900Z AUTO 03009KT 07/05 RMK AO1 PK WND 06018/0849 SLP068 T00710050 53007,CWNK,2022-10-23T09:00:00Z,49.5,-98.03,7.1,5.0,30,9,,,,1006.8,,TRUE,TRUE,,,,,,,,,,,,,,,,0.7,,,,,,,,,,,METAR,271.0
CWNH 230900Z AUTO 17004KT 10/04 RMK AO1 SLP247 T01040037 51012,CWNH,2022-10-23T09:00:00Z,47.8,-69.53,10.4,3.7,170,4,,,,1024.7,,TRUE,TRUE,,,,,,,,,,,,,,,,1.2,,,,,,,,,,,METAR,147.0
CWNE 230900Z AUTO 23017KT 12/09 RMK AO1 PK WND 24023/0806 SLP255 T01170093 53012,CWNE,2022-10-23T09:00:00Z,47.07,-64.0,11.7,9.3,230,17,,,,1025.5,,TRUE,TRUE,,,,,,,,,,,,,,,,1.2,,,,,,,,,,,METAR,5.0
CWND 230900Z AUTO 11016KT M08/M10 RMK AO1 PK WND 11019/0846 SLP170 T10761096 51001,CWND,2022-10-23T09:00:00Z,69.63,-135.43,-7.6,-9.6,110,16,,,,1017.0,,TRUE,TRUE,,,,,,,,,,,,,,,,0.1,,,,,,,,,,,METAR,14.0
CWNC 230900Z AUTO 07003KT 07/05 RMK AO1 SLP229 T00740047 53006,CWNC,2022-10-23T09:00:00Z,43.95,-78.17,7.4,4.7,70,3,,,,1022.9,,TRUE,TRUE,,,,,,,,,,,,,,,,0.6,,,,,,,,,,,METAR,71.0
CWMZ 230900Z AUTO 13013KT 14/11 RMK AO1 SLP209 T01390111 51008,CWMZ,2022-10-23T09:00:00Z,45.02,-80.37,13.9,11.1,130,13,,,,1020.9,,TRUE,TRUE,,,,,,,,,,,,,,,,0.8,,,,,,,,,,,METAR,175.0
CWMT 230900Z AUTO 19004KT M06/M08 RMK AO1 SLP206 T10601077 51001,CWMT,2022-10-23T09:00:00Z,63.13,-117.25,-6.0,-7.7,190,4,,,,1020.6,,TRUE,TRUE,,,,,,,,,,,,,,,,0.1,,,,,,,,,,,METAR,274.0
CWMQ 230900Z AUTO 06012G17KT 03/02 RMK AO1 9PAST HR 5001 PK WND 05022/0844 SLP069 P0004 T00320021 50024,CWMQ,2022-10-23T09:00:00Z,49.9,-109.47,3.2,2.1,60,12,17,,,1006.9,,TRUE,TRUE,,,,,,,,,,,,,,,,2.4,,,,,0.04,,,,,,METAR,767.0
CWMM 230900Z AUTO 08001KT 04/04 RMK AO1 SLP144 T00400035 51016,CWMM,2022-10-23T09:00:00Z,49.22,-122.68,4.0,3.5,80,1,,,,1014.4,,TRUE,TRUE,,,,,,,,,,,,,,,,1.6,,,,,,,,,,,METAR,2.0
CWMJ 230900Z AUTO 20003KT 05/03 RMK AO1 SLP236 T00520032 53008,CWMJ,2022-10-23T09:00:00Z,46.27,-76.0,5.2,3.2,200,3,,,,1023.6,,TRUE,TRUE,,,,,,,,,,,,,,,,0.8,,,,,,,,,,,METAR,198.0
CWME 230900Z AUTO 07004KT 07/05 RMK AO1 SLP150 T00720053 53002,CWME,2022-10-23T09:00:00Z,52.18,-127.47,7.2,5.3,70,4,,,,1015.0,,TRUE,TRUE,,,,,,,,,,,,,,,,0.2,,,,,,,,,,,METAR,23.0
CWLY 230900Z AUTO 00000KT 1/8SM FG VV002 03/03 A2995 RMK SLP151,CWLY,2022-10-23T09:00:00Z,50.22,-121.58,3.0,3.0,0,0,,0.13,29.949802,1015.1,,TRUE,,,,,,,FG,OVX,0,,,,,,,LIFR,,,,,,,,,,,200,SPECI,228.0
CWLX 230900Z AUTO ///// ////SM ////// M07/M10 A2940,CWLX,2022-10-23T09:00:00Z,68.9,-75.15,-7.0,-10.0,,,,,29.40059,,,TRUE,,,,,,,,,,,,,,,,,,,,,,,,,,,,SPECI,129.0
CWLS 230900Z AUTO 19006KT 13/08 RMK AO1 SLP211 T01310075 53005,CWLS,2022-10-23T09:00:00Z,43.97,-80.75,13.1,7.5,190,6,,,,1021.1,,TRUE,TRUE,,,,,,,,,,,,,,,,0.5,,,,,,,,,,,METAR,413.0
CWLM 230900Z AUTO 01004KT 07/04 RMK AO1 SLP139 T00700043 52019,CWLM,2022-10-23T09:00:00Z,48.42,-123.32,7.0,4.3,10,4,,,,1013.9,,TRUE,TRUE,,,,,,,,,,,,,,,,1.9,,,,,,,,,,,METAR,62.0
CWLI 230900Z AUTO 12007KT ////SM OVC030 M09/M11 A3015,CWLI,2022-10-23T09:00:00Z,69.6,-130.9,-9.0,-11.0,120,7,,,30.15059,,,TRUE,,,,,,,,OVC,3000,,,,,,,,,,,,,,,,,,,SPECI,92.0
CWLE 230900Z AUTO 08013KT 03/02 RMK AO1 3PAST HR 3006 PK WND 09018/0847 SLP096 P0005 T00250015 50021,CWLE,2022-10-23T09:00:00Z,50.95,-107.15,2.5,1.5,80,13,,,,1009.6,,TRUE,TRUE,,,,,,,,,,,,,,,,2.1,,,,,0.05,,,,,,METAR,666.0
CWLC 230900Z AUTO 13013KT 07/04 RMK AO1 T00710035,CWLC,2022-10-23T09:00:00Z,54.3,-130.62,7.1,3.5,130,13,,,,,,TRUE,TRUE,,,,,,,,,,,,,,,,,,,,,,,,,,,METAR,27.0
CWKX 230900Z AUTO 00000KT M01/M01 RMK AO1 SLP132 T10091012 57010,CWKX,2022-10-23T09:00:00Z,58.43,-130.02,-0.9,-1.2,0,0,,,,1013.2,,TRUE,TRUE,,,,,,,,,,,,,,,,-1.0,,,,,,,,,,,METAR,807.0
CWKO 230900Z AUTO 06006KT 02/02 RMK AO1 6PAST HR 8003 SLP035 P0010 T00150015 50032,CWKO,2022-10-23T09:00:00Z,49.17,-105.97,1.5,1.5,60,6,,,,1003.5,,TRUE,TRUE,,,,,,,,,,,,,,,,3.2,,,,,0.1,,,,,,METAR,914.0
CWKM 230900Z AUTO 10013G20KT ////SM OVC003 M06/M06 A3005,CWKM,2022-10-23T09:00:00Z,69.6,-140.17,-6.0,-6.0,100,13,20,,30.050198,,,TRUE,,,,,,,,OVC,300,,,,,,,,,,,,,,,,,,,SPECI,8.0
CWKK 230900Z AUTO 11010KT 09/ RMK AO1 SLP112 T0089 56005,CWKK,2022-10-23T09:00:00Z,49.72,-88.33,8.9,,110,10,,,,1011.2,,TRUE,TRUE,,,,,,,,,,,,,,,,-0.5,,,,,,,,,,,METAR,259.0
CWKH 230900Z AUTO 05/03 RMK AO1 SLP129 T00540032 51016,CWKH,2022-10-23T09:00:00Z,48.57,-123.55,5.4,3.2,,,,,,1012.9,,TRUE,TRUE,,,,,,,,,,,,,,,,1.6,,,,,,,,,,,METAR,327.0
CWKG 230900Z AUTO 02001KT 03/03 RMK AO1 SLP288 T00320028 53002,CWKG,2022-10-23T09:00:00Z,44.43,-65.2,3.2,2.8,20,1,,,,1028.8,,TRUE,TRUE,,,,,,,,,,,,,,,,0.2,,,,,,,,,,,METAR,154.0
CWKD 230900Z AUTO 04/03 RMK AO1 SLP234 T00430034 53014,CWKD,2022-10-23T09:00:00Z,50.73,-71.02,4.3,3.4,,,,,,1023.4,,TRUE,TRUE,,,,,,,,,,,,,,,,1.4,,,,,,,,,,,METAR,496.0
CWJX 230900Z AUTO 03010KT 03/01 RMK AO1 8PAST HR 1003 SLP087 P0003 T00290010 50013,CWJX,2022-10-23T09:00:00Z,50.88,-109.5,2.9,1.0,30,10,,,,1008.7,,TRUE,TRUE,,,,,,,,,,,,,,,,1.3,,,,,0.03,,,,,,METAR,671.0
CWJW 230900Z AUTO 35004KT 01/M02 RMK AO1 SLP142 T00131024 52012,CWJW,2022-10-23T09:00:00Z,52.93,-118.03,1.3,-2.4,350,4,,,,1014.2,,TRUE,TRUE,,,,,,,,,,,,,,,,1.2,,,,,,,,,,,METAR,1022.0
CWJV 230900Z AUTO 05001KT 02/M01 RMK AO1 SLP121 T00161006 52020,CWJV,2022-10-23T09:00:00Z,50.22,-119.18,1.6,-0.6,50,1,,,,1012.1,,TRUE,TRUE,,,,,,,,,,,,,,,,2.0,,,,,,,,,,,METAR,487.0
CWJU 230900Z AUTO 14006KT 08/05 RMK AO1 SLP111 T00790053 58021,CWJU,2022-10-23T09:00:00Z,54.25,-133.07,7.9,5.3,140,6,,,,1011.1,,TRUE,TRUE,,,,,,,,,,,,,,,,-2.1,,,,,,,,,,,METAR,47.0
CWJR 230900Z AUTO 00000KT 04/03 RMK AO1 SLP102 T00400030 52016,CWJR,2022-10-23T09:00:00Z,49.03,-116.5,4.0,3.0,0,0,,,,1010.2,,TRUE,TRUE,,,,,,,,,,,,,,,,1.6,,,,,,,,,,,METAR,642.0
CWJO 230900Z AUTO 11003KT 06/04 RMK AO1 SLP237 T00580035 53008,CWJO,2022-10-23T09:00:00Z,48.43,-71.15,5.8,3.5,110,3,,,,1023.7,,TRUE,TRUE,,,,,,,,,,,,,,,,0.8,,,,,,,,,,,METAR,113.0
CWJI 230900Z AUTO 06017KT 02/01 RMK AO1 8PAST HR 5002 PK WND 06021/0821 SLP053 P0007 T00220007 50052,CWJI,2022-10-23T09:00:00Z,49.72,-105.93,2.2,0.7,60,17,,,,1005.3,,TRUE,TRUE,,,,,,,,,,,,,,,,5.2,,,,,0.07,,,,,,METAR,724.0
CWJH 230900Z AUTO 07003KT 01/M01 RMK AO1 SLP190 T00101011 51021,CWJH,2022-10-23T09:00:00Z,56.32,-103.27,1.0,-1.1,70,3,,,,1019.0,,TRUE,TRUE,,,,,,,,,,,,,,,,2.1,,,,,,,,,,,METAR,345.0
CWJD 230900Z AUTO 05006KT 05/M01 RMK AO1 SLP153 T00481014 51003,CWJD,2022-10-23T09:00:00Z,53.18,-99.27,4.8,-1.4,50,6,,,,1015.3,,TRUE,TRUE,,,,,,,,,,,,,,,,0.3,,,,,,,,,,,METAR,222.0
CWJC 230900Z AUTO 32010KT M09/M11 RMK AO1 SOG 09 1020 SLP213 T10921109,CWJC,2022-10-23T09:00:00Z,61.13,-100.9,-9.2,-10.9,320,10,,,,1021.3,,TRUE,TRUE,,,,,,,,,,,,,,,,,,,,,,,,,,,METAR,340.0
CWJB 230900Z AUTO 26003KT 06/04 RMK AO1 T00610043,CWJB,2022-10-23T09:00:00Z,46.78,-71.28,6.1,4.3,260,3,,,,,,TRUE,TRUE,,,,,,,,,,,,,,,,,,,,,,,,,,,METAR,90.0
CWIZ 230900Z AUTO 17006KT 09/05 RMK AO1 T00870048,CWIZ,2022-10-23T09:00:00Z,45.28,-73.33,8.7,4.8,170,6,,,,,,TRUE,TRUE,,,,,,,,,,,,,,,,,,,,,,,,,,,METAR,45.0
CWIX 230900Z AUTO 02002KT 05/05 RMK AO1 SLP227 T00540051 53005,CWIX,2022-10-23T09:00:00Z,48.6,-71.72,5.4,5.1,20,2,,,,1022.7,,TRUE,TRUE,,,,,,,,,,,,,,,,0.5,,,,,,,,,,,METAR,109.0
CWIW 230900Z AUTO 07013KT 03/M01 RMK AO1 PK WND 07017/0842 SLP110 T00261013 58002,CWIW,2022-10-23T09:00:00Z,51.67,-105.4,2.6,-1.3,70,13,,,,1011.0,,TRUE,TRUE,,,,,,,,,,,,,,,,-0.2,,,,,,,,,,,METAR,524.0
CWIT 230900Z AUTO 00000KT 05/02 RMK AO1 SLP250 T00480015 53011,CWIT,2022-10-23T09:00:00Z,45.17,-73.67,4.8,1.5,0,0,,,,1025.0,,TRUE,TRUE,,,,,,,,,,,,,,,,1.1,,,,,,,,,,,METAR,53.0
CWIS 230900Z AUTO 26001KT 08/03 RMK AO1 SLP263 T00810028 53014,CWIS,2022-10-23T09:00:00Z,47.28,-70.63,8.1,2.8,260,1,,,,1026.3,,TRUE,TRUE,,,,,,,,,,,,,,,,1.4,,,,,,,,,,,METAR,720.0
CWIP 230900Z AUTO 31003KT 04/04 RMK AO1 T00430040,CWIP,2022-10-23T09:00:00Z,50.17,-66.43,4.3,4.0,310,3,,,,,,TRUE,TRUE,,,,,,,,,,,,,,,,,,,,,,,,,,,METAR,27.0
CWIK 230900Z AUTO 06015G21KT 02/01 RMK AO1 8PAST HR 8007 PK WND 05021/0856 SLP081 P0007 T00200008 50028,CWIK,2022-10-23T09:00:00Z,50.37,-102.58,2.0,0.8,60,15,21,,,1008.1,,TRUE,TRUE,,,,,,,,,,,,,,,,2.8,,,,,0.07,,,,,,METAR,597.0
CWIJ 230900Z AUTO 34008KT M13/M15 RMK AO1 SOG 07 2006 SLP213 T11341154,CWIJ,2022-10-23T09:00:00Z,65.77,-111.23,-13.4,-15.4,340,8,,,,1021.3,,TRUE,TRUE,,,,,,,,,,,,,,,,,,,,,,,,,,,METAR,490.0
CWIG 230900Z AUTO 19012KT RMK AO1 PK WND 18018/0811,CWIG,2022-10-23T09:00:00Z,47.07,-70.53,,,190,12,,,,,,TRUE,TRUE,,,,,,,,,,,,,,,,,,,,,,,,,,,METAR,12.0
CWID 230900Z AUTO 26002KT M07/M08 RMK AO1 SLP210 T10721082 50002,CWID,2022-10-23T09:00:00Z,61.32,-117.6,-7.2,-8.2,260,2,,,,1021.0,,TRUE,TRUE,,,,,,,,,,,,,,,,0.2,,,,,,,,,,,METAR,160.0
CWHV 230900Z AUTO 17004KT 04/03 RMK AO1 SLP268 T00410028 53014,CWHV,2022-10-23T09:00:00Z,46.2,-70.78,4.1,2.8,170,4,,,,1026.8,,TRUE,TRUE,,,,,,,,,,,,,,,,1.4,,,,,,,,,,,METAR,227.0
CWHT 230900Z AUTO 26001KT M01/M06 RMK AO1 SLP107 T10071062 58005,CWHT,2022-10-23T09:00:00Z,60.77,-137.58,-0.7,-6.2,260,1,,,,1010.7,,TRUE,TRUE,,,,,,,,,,,,,,,,-0.5,,,,,,,,,,,METAR,601.0
CWHQ 230900Z AUTO 34001KT 01/01 RMK AO1 T00120008,CWHQ,2022-10-23T09:00:00Z,46.68,-71.97,1.2,0.8,340,1,,,,,,TRUE,TRUE,,,,,,,,,,,,,,,,,,,,,,,,,,,METAR,56.0
CWHP 230900Z AUTO 24012KT 08/07 RMK AO1 SLP225 T00760069 53015,CWHP,2022-10-23T09:00:00Z,49.08,-61.7,7.6,6.9,240,12,,,,1022.5,,TRUE,TRUE,,,,,,,,,,,,,,,,1.5,,,,,,,,,,,METAR,7.0
CWHO 230900Z AUTO 00027KT 08/02 RMK AO1 SLP107 T00830015 53025,CWHO,2022-10-23T09:00:00Z,55.45,-60.22,8.3,1.5,0,27,,,,1010.7,,TRUE,TRUE,,,,,,,,,,,,,,,,2.5,,,,,,,,,,,METAR,16.0
CWHL 230900Z AUTO 14009KT 07/04 RMK AO1 SLP133 T00680042 55002,CWHL,2022-10-23T09:00:00Z,54.17,-130.35,6.8,4.2,140,9,,,,1013.3,,TRUE,TRUE,,,,,,,,,,,,,,,,-0.2,,,,,,,,,,,METAR,5.0
CWHI 230900Z AUTO 32008KT 01/M00 RMK AO1 T00061003 50005,CWHI,2022-10-23T09:00:00Z,51.7,-113.22,0.6,-0.3,320,8,,,,,,TRUE,TRUE,,,,,,,,,,,,,,,,0.5,,,,,,,,,,,METAR,906.0
CWGY 230900Z AUTO 03003KT 01/M02 RMK AO1 SLP119 T00121021 53008,CWGY,2022-10-23T09:00:00Z,51.67,-110.2,1.2,-2.1,30,3,,,,1011.9,,TRUE,TRUE,,,,,,,,,,,,,,,,0.8,,,,,,,,,,,METAR,709.0
CWGW 230900Z AUTO 01001KT M00/M02 RMK AO1 SLP114 T10041021 53008,CWGW,2022-10-23T09:00:00Z,49.75,-114.9,-0.4,-2.1,10,1,,,,1011.4,,TRUE,TRUE,,,,,,,,,,,,,,,,0.8,,,,,,,,,,,METAR,1137.0
CWGT 230900Z AUTO 32017KT 10/04 RMK AO1 PK WND 31020/0857 SLP142 T00970039 53014,CWGT,2022-10-23T09:00:00Z,49.48,-124.43,9.7,3.9,320,17,,,,1014.2,,TRUE,TRUE,,,,,,,,,,,,,,,,1.4,,,,,,,,,,,METAR,5.0
CWGR 230900Z AUTO 24011KT 11/08 RMK AO1 PK WND 23018/0807 SLP254 T01100083 53007,CWGR,2022-10-23T09:00:00Z,47.42,-61.77,11.0,8.3,240,11,,,,1025.4,,TRUE,TRUE,,,,,,,,,,,,,,,,0.7,,,,,,,,,,,METAR,4.0
CWGM 230900Z AUTO 02010KT M01/M02 RMK AO1 8PAST HR SOG 30 3009 SLP113 P0003 T10131021 50020,CWGM,2022-10-23T09:00:00Z,49.13,-113.8,-1.3,-2.1,20,10,,,,1011.3,,TRUE,TRUE,,,,,,,,,,,,,,,,2.0,,,,,0.03,,,,,,METAR,1292.0
CWGL 230900Z AUTO 13005KT 12/06 RMK AO1 SLP206 T01160057 51007,CWGL,2022-10-23T09:00:00Z,44.53,-79.22,11.6,5.7,130,5,,,,1020.6,,TRUE,TRUE,,,,,,,,,,,,,,,,0.7,,,,,,,,,,,METAR,220.0
CWGH 230900Z AUTO 00000KT 10/06 RMK AO1 SLP243 T01000063 51008,CWGH,2022-10-23T09:00:00Z,44.42,-75.85,10.0,6.3,0,0,,,,1024.3,,TRUE,TRUE,,,,,,,,,,,,,,,,0.8,,,,,,,,,,,METAR,76.0
CWGD 230900Z AUTO 15006KT 14/09 RMK AO1 SLP198 T01400087 53009,CWGD,2022-10-23T09:00:00Z,43.77,-81.72,14.0,8.7,150,6,,,,1019.8,,TRUE,TRUE,,,,,,,,,,,,,,,,0.9,,,,,,,,,,,METAR,214.0
CWGB 230900Z AUTO 23012KT 09/ RMK AO1 PK WND 26017/0805 SLP138 T0090 52018,CWGB,2022-10-23T09:00:00Z,49.35,-124.13,9.0,,230,12,,,,1013.8,,TRUE,TRUE,,,,,,,,,,,,,,,,1.8,,,,,,,,,,,METAR,6.0
CWFQ 230900Z AUTO 17003KT 12/02 RMK AO1 SLP258 T01210016 53008,CWFQ,2022-10-23T09:00:00Z,45.03,-72.85,12.1,1.6,170,3,,,,1025.8,,TRUE,TRUE,,,,,,,,,,,,,,,,0.8,,,,,,,,,,,METAR,190.0
CWFJ 230900Z AUTO 35012G17KT M01/M01 RMK AO1 2PAST HR M PK WND 35017/0858 P0001 T10071009 50011,CWFJ,2022-10-23T09:00:00Z,49.2,-113.27,-0.7,-0.9,350,12,17,,,,,TRUE,TRUE,,,,,,,,,,,,,,,,1.1,,,,,0.01,,,,,,METAR,1142.0
CWFF 230900Z AUTO 05004KT M01/M05 RMK AO1 SLP141 T10111051 51002,CWFF,2022-10-23T09:00:00Z,52.82,-104.6,-1.1,-5.1,50,4,,,,1014.1,,TRUE,TRUE,,,,,,,,,,,,,,,,0.2,,,,,,,,,,,METAR,482.0
CWFD 230900Z AUTO ///// ////SM OVC003 M03/M04 A2910,CWFD,2022-10-23T09:00:00Z,66.58,-61.58,-3.0,-4.0,,,,,29.09941,,,TRUE,,,,,,,,OVC,300,,,,,,,,,,,,,,,,,,,SPECI,375.0
CWEZ 230900Z AUTO 00000KT 08/07 RMK AO1 SLP135 T00790066 51018,CWEZ,2022-10-23T09:00:00Z,48.78,-123.05,7.9,6.6,0,0,,,,1013.5,,TRUE,TRUE,,,,,,,,,,,,,,,,1.8,,,,,,,,,,,METAR,23.0
CWEW 230900Z AUTO 01001KT 05/04 RMK AO1 SLP261 T00460039 53013,CWEW,2022-10-23T09:00:00Z,45.82,-73.43,4.6,3.9,10,1,,,,1026.1,,TRUE,TRUE,,,,,,,,,,,,,,,,1.3,,,,,,,,,,,METAR,17.0
CWEU 230900Z 36008KT 15SM IC SKC M20/M26 A2966 RMK SLP061,CWEU,2022-10-23T09:00:00Z,80.0,-85.93,-20.0,-26.0,360,8,,15.0,29.660433,1006.1,,,,,,,,,IC,SKC,,,,,,,,VFR,,,,,,,,,,,,SPECI,2.0
CWER 230900Z AUTO 23010KT RMK AO1 PK WND 22019/0810,CWER,2022-10-23T09:00:00Z,47.0,-70.82,,,230,10,,,,,,TRUE,TRUE,,,,,,,,,,,,,,,,,,,,,,,,,,,METAR,4.0
CWEQ 230900Z AUTO 04009KT 02/M01 RMK AO1 SLP140 T00191013 55000,CWEQ,2022-10-23T09:00:00Z,52.12,-101.22,1.9,-1.3,40,9,,,,1014.0,,TRUE,TRUE,,,,,,,,,,,,,,,,0.0,,,,,,,,,,,METAR,331.0
CWEP 230900Z AUTO 20009KT 11/07 RMK AO1 SLP271 T01060073 53002,CWEP,2022-10-23T09:00:00Z,46.45,-61.98,10.6,7.3,200,9,,,,1027.1,,TRUE,TRUE,,,,,,,,,,,,,,,,0.2,,,,,,,,,,,METAR,9.0
CWEL 230900Z AUTO 26011KT 10/05 RMK AO1 PK WND 28017/0828 SLP139 T01010048 51021,CWEL,2022-10-23T09:00:00Z,49.22,-123.8,10.1,4.8,260,11,,,,1013.9,,TRUE,TRUE,,,,,,,,,,,,,,,,2.1,,,,,,,,,,,METAR,0.0
CWEK 230900Z AUTO 08011KT 07/ RMK AO1 SLP111 T0065 57002,CWEK,2022-10-23T09:00:00Z,54.58,-130.7,6.5,,80,11,,,,1011.1,,TRUE,TRUE,,,,,,,,,,,,,,,,-0.2,,,,,,,,,,,METAR,8.0
CWEH 230900Z AUTO 05018KT 00/M01 RMK AO1 3PAST HR SOG 04 8005 PK WND 05023/0821 SLP039 P0001 T00001009 50047,CWEH,2022-10-23T09:00:00Z,49.43,-108.98,0.0,-0.9,50,18,,,,1003.9,,TRUE,TRUE,,,,,,,,,,,,,,,,4.7,,,,,0.01,,,,,,METAR,1077.0
CWEF 230900Z AUTO 25026KT 13/09 RMK AO1 PK WND 25030/0845 SLP240 T01310086 57002,CWEF,2022-10-23T09:00:00Z,47.22,-60.13,13.1,8.6,250,26,,,,1024.0,,TRUE,TRUE,,,,,,,,,,,,,,,,-0.2,,,,,,,,,,,METAR,27.0
CWEE 230900Z AUTO 02/02 RMK AO1 SLP215 T00230020 52005,CWEE,2022-10-23T09:00:00Z,49.27,-73.35,2.3,2.0,,,,,,1021.5,,TRUE,TRUE,,,,,,,,,,,,,,,,0.5,,,,,,,,,,,METAR,302.0
CWEB 230900Z AUTO 00035KT 07/04 RMK AO1 SLP139 T00660036 53009,CWEB,2022-10-23T09:00:00Z,49.38,-126.55,6.6,3.6,0,35,,,,1013.9,,TRUE,TRUE,,,,,,,,,,,,,,,,0.9,,,,,,,,,,,METAR,1.0
CWDZ 230900Z AUTO 33006KT 02/01 RMK AO1 2005 SLP129 T00200005 50003,CWDZ,2022-10-23T09:00:00Z,51.43,-112.67,2.0,0.5,330,6,,,,1012.9,,TRUE,TRUE,,,,,,,,,,,,,,,,0.3,,,,,,,,,,,METAR,689.0
CWDV 230900Z AUTO 09002KT 06/05 RMK AO1 SLP078 T00550049 57002,CWDV,2022-10-23T09:00:00Z,49.02,-90.47,5.5,4.9,90,2,,,,1007.8,,TRUE,TRUE,,,,,,,,,,,,,,,,-0.2,,,,,,,,,,,METAR,487.0
CWDT 230900Z AUTO 36001KT RMK AO1 51010,CWDT,2022-10-23T09:00:00Z,49.83,-71.17,,,360,1,,,,,,TRUE,TRUE,,,,,,,,,,,,,,,,1.0,,,,,,,,,,,METAR,389.0
CWDQ 230900Z AUTO 00000KT 03/02 RMK AO1 SLP253 T00300015 53011,CWDQ,2022-10-23T09:00:00Z,47.42,-72.78,3.0,1.5,0,0,,,,1025.3,,TRUE,TRUE,,,,,,,,,,,,,,,,1.1,,,,,,,,,,,METAR,174.0
CWDO 230900Z AUTO 22015G22KT 08/06 RMK AO1 PK WND 23024/0815 SLP196 T00840056 57008,CWDO,2022-10-23T09:00:00Z,49.68,-54.78,8.4,5.6,220,15,22,,,1019.6,,TRUE,TRUE,,,,,,,,,,,,,,,,-0.8,,,,,,,,,,,METAR,89.0
CWDM 230900Z AUTO 22007KT 07/06 RMK AO1 SLP198 T00720062 52011,CWDM,2022-10-23T09:00:00Z,50.47,-59.63,7.2,6.2,220,7,,,,1019.8,,TRUE,TRUE,,,,,,,,,,,,,,,,1.1,,,,,,,,,,,METAR,2.0
CWDK 230900Z AUTO 36010KT 00/M01 RMK AO1 1PAST HR SOG 16 1006 SLP127 P0000 T00001006 50006,CWDK,2022-10-23T09:00:00Z,50.02,-113.62,0.0,-0.6,360,10,,,,1012.7,,TRUE,TRUE,,,,,,,,,,,,,,,,0.6,,,,,0.005,,,,,,METAR,1014.0
CWDJ 230900Z AUTO 07015G22KT 02/00 RMK AO1 2PAST HR 6008 PK WND 07025/0834 SLP074 P0001 T00150000 50009,CWDJ,2022-10-23T09:00:00Z,50.4,-104.58,1.5,0.0,70,15,22,,,1007.4,,TRUE,TRUE,,,,,,,,,,,,,,,,0.9,,,,,0.01,,,,,,METAR,576.0
CWDC 230900Z AUTO 08005KT M02/M06 RMK AO1 SOG 01 2011 SLP201 T10231064,CWDC,2022-10-23T09:00:00Z,59.57,-108.48,-2.3,-6.4,80,5,,,,1020.1,,TRUE,TRUE,,,,,,,,,,,,,,,,,,,,,,,,,,,METAR,311.0
CWDA 230900Z AUTO 25010KT 10/ RMK AO1 PK WND 26024/0801 T0104,CWDA,2022-10-23T09:00:00Z,50.72,-56.12,10.4,,250,10,,,,,,TRUE,TRUE,,,,,,,,,,,,,,,,,,,,,,,,,,,METAR,30.0
CWCT 230900Z AUTO 02007KT 01/M00 RMK AO1 SLP136 T00071001 51005,CWCT,2022-10-23T09:00:00Z,52.07,-111.43,0.7,-0.1,20,7,,,,1013.6,,TRUE,TRUE,,,,,,,,,,,,,,,,0.5,,,,,,,,,,,METAR,793.0
CWCO 230900Z AUTO 17006KT 12/08 RMK AO1 SLP209 T01190075 51013,CWCO,2022-10-23T09:00:00Z,44.5,-80.22,11.9,7.5,170,6,,,,1020.9,,TRUE,TRUE,,,,,,,,,,,,,,,,1.3,,,,,,,,,,,METAR,182.0
CWCJ 230900Z AUTO 05006KT 06/05 RMK AO1 SLP118 T00620050 53002,CWCJ,2022-10-23T09:00:00Z,48.6,-86.28,6.2,5.0,50,6,,,,1011.8,,TRUE,TRUE,,,,,,,,,,,,,,,,0.2,,,,,,,,,,,METAR,207.0
CWCI 230900Z AUTO 16014KT 10/08 RMK AO1 SLP119 T00960079 53001,CWCI,2022-10-23T09:00:00Z,47.33,-85.82,9.6,7.9,160,14,,,,1011.9,,TRUE,TRUE,,,,,,,,,,,,,,,,0.1,,,,,,,,,,,METAR,167.0
CWCF 230900Z AUTO 04005KT 00/M02 RMK AO1 SLP138 T00001019 58003,CWCF,2022-10-23T09:00:00Z,52.35,-97.03,0.0,-1.9,40,5,,,,1013.8,,TRUE,TRUE,,,,,,,,,,,,,,,,-0.3,,,,,,,,,,,METAR,219.0
CWBZ 230900Z AUTO 03002KT 03/02 RMK AO1 SLP246 T00280016 51012,CWBZ,2022-10-23T09:00:00Z,45.12,-74.28,2.8,1.6,30,2,,,,1024.6,,TRUE,TRUE,,,,,,,,,,,,,,,,1.2,,,,,,,,,,,METAR,49.0
CWBY 230900Z AUTO 08002KT 02/02 RMK AO1 SLP229 T00150018 53016,CWBY,2022-10-23T09:00:00Z,49.83,-64.28,1.5,1.8,80,2,,,,1022.9,,TRUE,TRUE,,,,,,,,,,,,,,,,1.6,,,,,,,,,,,METAR,56.0
CWBV 230900Z AUTO 00000KT 12/12 RMK AO1 SLP275 T01190116 53005,CWBV,2022-10-23T09:00:00Z,44.82,-62.33,11.9,11.6,0,0,,,,1027.5,,TRUE,TRUE,,,,,,,,,,,,,,,,0.5,,,,,,,,,,,METAR,16.0
CWBU 230900Z AUTO 03007KT M01/M05 RMK AO1 SLP150 T10051051 51004,CWBU,2022-10-23T09:00:00Z,53.33,-104.02,-0.5,-5.1,30,7,,,,1015.0,,TRUE,TRUE,,,,,,,,,,,,,,,,0.4,,,,,,,,,,,METAR,369.0
CWBT 230900Z AUTO 32002KT M00/M00 RMK AO1 SLP223 T10011001 52015,CWBT,2022-10-23T09:00:00Z,50.27,-64.23,-0.1,-0.1,320,2,,,,1022.3,,TRUE,TRUE,,,,,,,,,,,,,,,,1.5,,,,,,,,,,,METAR,12.0
CWBS 230900Z AUTO 01002KT 10/08 RMK AO1 T00990081,CWBS,2022-10-23T09:00:00Z,46.18,-72.92,9.9,8.1,10,2,,,,,,TRUE,TRUE,,,,,,,,,,,,,,,,,,,,,,,,,,,METAR,3.0
CWBO 230900Z AUTO 01008KT 02/01 RMK AO1 2PAST HR 3005 SLP110 P0001 T00170007 50005,CWBO,2022-10-23T09:00:00Z,50.53,-111.83,1.7,0.7,10,8,,,,1011.0,,TRUE,TRUE,,,,,,,,,,,,,,,,0.5,,,,,0.01,,,,,,METAR,752.0
CWBK 230900Z AUTO 19007KT 09/08 RMK AO1 SLP280 T00910080 53004,CWBK,2022-10-23T09:00:00Z,45.77,-62.67,9.1,8.0,190,7,,,,1028.0,,TRUE,TRUE,,,,,,,,,,,,,,,,0.4,,,,,,,,,,,METAR,2.0
CWBA 230900Z AUTO 17004KT 08/08 RMK AO1 T00750078,CWBA,2022-10-23T09:00:00Z,46.72,-79.1,7.5,7.8,170,4,,,,,,TRUE,TRUE,,,,,,,,,,,,,,,,,,,,,,,,,,,METAR,181.0
CWAV 230900Z AUTO 03001KT M00/M01 RMK AO1 SLP150 T10031006 52010,CWAV,2022-10-23T09:00:00Z,51.77,-114.67,-0.3,-0.6,30,1,,,,1015.0,,TRUE,TRUE,,,,,,,,,,,,,,,,1.0,,,,,,,,,,,METAR,1115.0
CWAR 230900Z AUTO 20017KT 12/10 RMK AO1 PK WND 20021/0838 SLP263 T01240102 56005,CWAR,2022-10-23T09:00:00Z,47.28,-54.0,12.4,10.2,200,17,,,,1026.3,,TRUE,TRUE,,,,,,,,,,,,,,,,-0.5,,,,,,,,,,,METAR,6.0
CWAQ 230900Z AUTO 07015G23KT 04/03 RMK AO1 2PAST HR 6007 PK WND 06024/0812 SLP031 P0001 T00400026 50002,CWAQ,2022-10-23T09:00:00Z,49.05,-105.48,4.0,2.6,70,15,23,,,1003.1,,TRUE,TRUE,,,,,,,,,,,,,,,,0.2,,,,,0.01,,,,,,METAR,761.0
CWAJ 230900Z AUTO 16006KT RMK AO1 53009,CWAJ,2022-10-23T09:00:00Z,42.25,-81.9,,,160,6,,,,,,TRUE,TRUE,,,,,,,,,,,,,,,,0.9,,,,,,,,,,,METAR,177.0
CWAF 230900Z AUTO 21005KT 08/05 RMK AO1 T00820054,CWAF,2022-10-23T09:00:00Z,48.07,-69.55,8.2,5.4,210,5,,,,,,TRUE,TRUE,,,,,,,,,,,,,,,,,,,,,,,,,,,METAR,6.0
CTRA 230900Z AUTO 07004KT 06/05 RMK AO1 SLP062 T00640048 58003,CTRA,2022-10-23T09:00:00Z,49.67,-93.73,6.4,4.8,70,4,,,,1006.2,,TRUE,TRUE,,,,,,,,,,,,,,,,-0.3,,,,,,,,,,,METAR,432.0
CTNK 230900Z AUTO 00000KT 02/02 RMK AO1 SLP231 T00220020 53005,CTNK,2022-10-23T09:00:00Z,45.53,-78.27,2.2,2.0,0,0,,,,1023.1,,TRUE,TRUE,,,,,,,,,,,,,,,,0.5,,,,,,,,,,,METAR,405.0
CTCK 230900Z AUTO 00000KT 03/01 RMK AO1 SLP244 T00300012 52011,CTCK,2022-10-23T09:00:00Z,45.25,-74.97,3.0,1.2,0,0,,,,1024.4,,TRUE,TRUE,,,,,,,,,,,,,,,,1.1,,,,,,,,,,,METAR,84.0
CPSV 230900Z AUTO 01018KT 02/02 RMK AO1 6PAST HR M PK WND 01024/0841 P0006 T00150019 50042,CPSV,2022-10-23T09:00:00Z,49.92,-110.92,1.5,1.9,10,18,,,,,,TRUE,TRUE,,,,,,,,,,,,,,,,4.2,,,,,0.06,,,,,,METAR,766.0
CPST 230900Z AUTO 01009KT M00/M00 RMK AO1 5PAST HR M P0002 T10021002 50005,CPST,2022-10-23T09:00:00Z,51.03,-113.28,-0.2,-0.2,10,9,,,,,,TRUE,TRUE,,,,,,,,,,,,,,,,0.5,,,,,0.02,,,,,,METAR,1005.0
CPRY 230900Z AUTO 36015KT M00/M00 RMK AO1 PK WND 00019/0859 T10011001 50005,CPRY,2022-10-23T09:00:00Z,49.48,-112.68,-0.1,-0.1,360,15,,,,,,TRUE,TRUE,,,,,,,,,,,,,,,,0.5,,,,,,,,,,,METAR,947.0
CPRO 230900Z AUTO 35007KT 02/01 RMK AO1 T00180006,CPRO,2022-10-23T09:00:00Z,50.83,-112.05,1.8,0.6,350,7,,,,,,TRUE,TRUE,,,,,,,,,,,,,,,,,,,,,,,,,,,METAR,733.0
CPIR 230900Z AUTO 36010KT M00/M00 RMK AO1 7PAST HR M PK WND 35017/0814 P0003 T10021002 50012,CPIR,2022-10-23T09:00:00Z,49.9,-112.73,-0.2,-0.2,360,10,,,,,,TRUE,TRUE,,,,,,,,,,,,,,,,1.2,,,,,0.03,,,,,,METAR,895.0
CPIN 230900Z AUTO 24006KT ////SM FEW021 FEW032 OVC037 ///// A////,CPIN,2022-10-23T09:00:00Z,,,,,240,6,,,,,,TRUE,,,,,,,,FEW,2100,FEW,3200,OVC,3700,,,,,,,,,,,,,,,METAR,
CPFI 230900Z AUTO 01013KT 01/01 RMK AO1 8PAST HR M PK WND 02021/0804 P0003 T00100005 50021,CPFI,2022-10-23T09:00:00Z,49.8,-112.03,1.0,0.5,10,13,,,,,,TRUE,TRUE,,,,,,,,,,,,,,,,2.1,,,,,0.03,,,,,,METAR,804.0
CPEH 230900Z AUTO 00000KT 00/M00 RMK AO1 T00001003 50010,CPEH,2022-10-23T09:00:00Z,50.18,-112.43,0.0,-0.3,0,0,,,,,,TRUE,TRUE,,,,,,,,,,,,,,,,1.0,,,,,,,,,,,METAR,814.0
CPBT 230900Z AUTO 36016KT 00/00 RMK AO1 PK WND 02019/0807 T00000000,CPBT,2022-10-23T09:00:00Z,49.53,-113.05,0.0,0.0,360,16,,,,,,TRUE,TRUE,,,,,,,,,,,,,,,,,,,,,,,,,,,METAR,998.0
CMGB 230900Z AUTO 00000KT 06/04 RMK AO1 SLP261 T00610037 53015,CMGB,2022-10-23T09:00:00Z,45.37,-72.77,6.1,3.7,0,0,,,,1026.1,,TRUE,TRUE,,,,,,,,,,,,,,,,1.5,,,,,,,,,,,METAR,87.0
CMFM 230900Z AUTO 31002KT 02/01 RMK AO1 SLP268 T00170014 53011,CMFM,2022-10-23T09:00:00Z,47.32,-71.15,1.7,1.4,310,2,,,,1026.8,,TRUE,TRUE,,,,,,,,,,,,,,,,1.1,,,,,,,,,,,METAR,663.0
CFOX 230900Z AUTO ///// ////SM OVC040 M04/M05 A2940,CFOX,2022-10-23T09:00:00Z,,,-4.0,-5.0,,,,,29.40059,,,TRUE,,,,,,,,OVC,4000,,,,,,,,,,,,,,,,,,,METAR,
CERM 230900Z AUTO 32001KT M00/M00 RMK AO1 SLP269 T10011002 53015,CERM,2022-10-23T09:00:00Z,47.42,-68.32,-0.1,-0.2,320,1,,,,1026.9,,TRUE,TRUE,,,,,,,,,,,,,,,,1.5,,,,,,,,,,,METAR,151.0
CBBC 230900Z AUTO 00000KT 9SM OVC006 02/01 A2996 RMK SLP149,CBBC,2022-10-23T09:00:00Z,52.18,-128.15,2.0,1.0,0,0,,9.0,29.958662,1014.9,,TRUE,,,,,,,,OVC,600,,,,,,,IFR,,,,,,,,,,,,METAR,36.0
CBAR 230900Z AUTO 19006KT ////SM OVC037 M09/M11 A3016,CBAR,2022-10-23T09:00:00Z,,,-9.0,-11.0,190,6,,,30.159449,,,TRUE,,,,,,,,OVC,3700,,,,,,,,,,,,,,,,,,,METAR,
CAHR 230900Z AUTO 20004KT 10/08 RMK AO1 SLP266 T01020081 53003,CAHR,2022-10-23T09:00:00Z,46.35,-63.17,10.2,8.1,200,4,,,,1026.6,,TRUE,TRUE,,,,,,,,,,,,,,,,0.3,,,,,,,,,,,METAR,52.0
BIVM 230900Z 12016KT 9999 SCT035 05/02 Q1010,BIVM,2022-10-23T09:00:00Z,63.42,-20.28,5.0,2.0,120,16,,6.21,29.822834,,,,,,,,,,,SCT,3500,,,,,,,VFR,,,,,,,,,,,,METAR,93.0
BIRK 230900Z 10011KT 060V130 9999 FEW024 BKN044 BKN140 05/00 Q1009,BIRK,2022-10-23T09:00:00Z,64.13,-21.93,5.0,0.0,100,11,,6.21,29.793306,,,,,,,,,,,FEW,2400,BKN,4400,BKN,14000,,,VFR,,,,,,,,,,,,METAR,12.0
BIIS 230900Z 00000KT 9999 BKN030 02/// Q1007,BIIS,2022-10-23T09:00:00Z,66.05,-23.13,,,0,0,,6.21,29.734253,,,,,,,,,,,BKN,3000,,,,,,,MVFR,,,,,,,,,,,,METAR,3.0
BIEG 230900Z 21010KT CAVOK 00/M02 Q1011,BIEG,2022-10-23T09:00:00Z,65.27,-14.4,0.0,-2.0,210,10,,6.21,29.852362,,,,,,,,,,,CAVOK,,,,,,,,VFR,,,,,,,,,,,,METAR,20.0
BIAR 230900Z 20003KT 150V230 CAVOK M04/M06 Q1010,BIAR,2022-10-23T09:00:00Z,65.67,-18.07,-4.0,-6.0,200,3,,6.21,29.822834,,,,,,,,,,,CAVOK,,,,,,,,VFR,,,,,,,,,,,,METAR,1.0
AYPY 230900Z 19005KT 9999 FEW020 SCT030 28/24 Q1007,AYPY,2022-10-23T09:00:00Z,-9.43,147.22,28.0,24.0,190,5,,6.21,29.734253,,,,,,,,,,,FEW,2000,SCT,3000,,,,,VFR,,,,,,,,,,,,METAR,44.0
AYNZ 230900Z 05010G20KT 9999 SCT050 28/22 Q1007,AYNZ,2022-10-23T09:00:00Z,-6.57,146.72,28.0,22.0,50,10,20,6.21,29.734253,,,,,,,,,,,SCT,5000,,,,,,,VFR,,,,,,,,,,,,METAR,74.0
AYMH 230900Z 27015KT 9999 FEW020 SCT060 18/16 Q1019,AYMH,2022-10-23T09:00:00Z,-5.83,144.3,18.0,16.0,270,15,,6.21,30.088583,,,,,,,,,,,FEW,2000,SCT,6000,,,,,VFR,,,,,,,,,,,,METAR,1634.0
ANYN 230900Z 09004KT 9999 FEW020 27/24 Q1011,ANYN,2022-10-23T09:00:00Z,-0.55,166.92,27.0,24.0,90,4,,6.21,29.852362,,,,,,,,,,,FEW,2000,,,,,,,VFR,,,,,,,,,,,,METAR,7.0
AGGH 230900Z 20003KT 9999 -DZ FEW015 FEW016CB BKN029 OVC100 25/25 Q1009,AGGH,2022-10-23T09:00:00Z,-9.42,160.05,25.0,25.0,200,3,,6.21,29.793306,,,,,,,,,,-DZ,FEW,1500,FEW,1600,BKN,2900,OVC,10000,MVFR,,,,,,,,,,,,METAR,6.0
PAFA 230859Z 00000KT 6SM BR FEW002 SCT008 OVC055 M01/M02 A2994 RMK AO2 SNE59 P0000 T10061022,PAFA,2022-10-23T08:59:00Z,64.8,-147.87,-0.6,-2.2,0,0,,6.0,29.940945,,,,TRUE,,,,,,BR,FEW,200,SCT,800,OVC,5500,,,VFR,,,,,,0.005,,,,,,METAR,130.0
MUCF 230859Z AUTO 07003KT 21/21 Q1014,MUCF,2022-10-23T08:59:00Z,22.15,-80.4,21.0,21.0,70,3,,,29.940945,,,TRUE,,,,,,,,,,,,,,,,,,,,,,,,,,,,METAR,35.0
MTPP 230859Z AUTO 11004KT 9000 ////// 23/22 Q1011 A2986 NOSIG,MTPP,2022-10-23T08:59:00Z,18.57,-72.3,23.0,22.0,110,4,,5.59,29.852362,,,TRUE,,,TRUE,,,,,,,,,,,,,,,,,,,,,,,,,SPECI,36.0
KNOZ 230859Z AUTO 35009KT 10SM CLR 18/09 A2972 RMK AO2 SLP015 T01830089 53008,KNOZ,2022-10-23T08:59:00Z,32.53,-114.5,18.3,8.9,350,9,,10.0,29.719488,1001.5,,TRUE,TRUE,,,,,,,CLR,,,,,,,,VFR,0.8,,,,,,,,,,,SPECI,78.0
KNGU 230859Z 02012KT 10SM BKN010 OVC015 16/13 A3015 RMK AO2 SLP210 T01610133 55010 $,KNGU,2022-10-23T08:59:00Z,36.93,-76.27,16.1,13.3,20,12,,10.0,30.15059,1021.0,,,TRUE,TRUE,,,,,,BKN,1000,OVC,1500,,,,,MVFR,-1.0,,,,,,,,,,,SPECI,3.0
KBML 230859Z AUTO 00000KT 6SM BR SCT002 M01/M02 A3035 RMK AO2 T10061017,KBML,2022-10-23T08:59:00Z,44.58,-71.18,-0.6,-1.7,0,0,,6.0,30.351377,,,TRUE,TRUE,,,,,,BR,SCT,200,,,,,,,VFR,,,,,,,,,,,,METAR,344.0
PHSF 230858Z AUTO M M M M M M RMK AO2 SLPNO PWINO PNO FZRANO TSNO $,PHSF,2022-10-23T08:58:00Z,19.77,-155.55,,,,,,,,,,TRUE,TRUE,TRUE,,TRUE,TRUE,TRUE,,,,,,,,,,,,,,,,,,,,,,METAR,1863.0
PARS 230858Z AUTO 00000KT 3SM BR BKN003 A3002 RMK AO2 FZRANO $,PARS,2022-10-23T08:58:00Z,61.77,-161.32,,,0,0,,3.0,30.02067,,,TRUE,TRUE,TRUE,,,TRUE,,BR,BKN,300,,,,,,,LIFR,,,,,,,,,,,,METAR,15.0
KROG 230858Z 10SM CLR 21/13 A2979 RMK AO2 SLP071 T02060133 50002 $,KROG,2022-10-23T08:58:00Z,36.37,-94.1,20.6,13.3,,,,10.0,29.790354,1007.1,,,TRUE,TRUE,,,,,,CLR,,,,,,,,VFR,0.2,,,,,,,,,,,METAR,407.0
KPRN 230858Z AUTO 00000KT 10SM CLR 06/05 A3014 RMK AO2 SLP154 T00560050 52005,KPRN,2022-10-23T08:58:00Z,31.85,-86.62,5.6,5.0,0,0,,10.0,30.138779,1015.4,,TRUE,TRUE,,,,,,,CLR,,,,,,,,VFR,0.5,,,,,,,,,,,METAR,137.0
KMRH 230858Z AUTO 35008KT 10SM SCT085 15/13 A3004 RMK AO2 SLP173 60000 T01500128 55014,KMRH,2022-10-23T08:58:00Z,34.73,-76.65,15.0,12.8,350,8,,10.0,30.041338,1017.3,,TRUE,TRUE,,,,,,,SCT,8500,,,,,,,VFR,-1.4,,,,,,0.005,,,,,METAR,2.0
KGOV 230858Z AUTO 00000KT 9SM CLR 06/05 A3000 RMK AO2 SLP166 T00610050 50004 $,KGOV,2022-10-23T08:58:00Z,44.68,-84.73,6.1,5.0,0,0,,9.0,30.0,1016.6,,TRUE,TRUE,TRUE,,,,,,CLR,,,,,,,,VFR,0.4,,,,,,,,,,,SPECI,350.0
KEUF 230858Z AUTO 00000KT 10SM CLR 06/04 A3017 RMK AO2 SLP214 T00560044 51005,KEUF,2022-10-23T08:58:00Z,31.95,-85.13,5.6,4.4,0,0,,10.0,30.171259,1021.4,,TRUE,TRUE,,,,,,,CLR,,,,,,,,VFR,0.5,,,,,,,,,,,SPECI,87.0
KCMY 230858Z AUTO 15009KT 7SM R29/5500FT CLR 18/11 A2976 RMK AO2 SLP077 T01760110 52004 $,KCMY,2022-10-23T08:58:00Z,43.97,-90.73,17.6,11.0,150,9,,7.0,29.760826,1007.7,,TRUE,TRUE,TRUE,,,,,,CLR,,,,,,,,VFR,0.4,,,,,,,,,,,METAR,253.0
KBKF 230858Z 14008KT 10SM FEW220 14/M03 A2938 RMK AO2A SLP874 T01401033 57017,KBKF,2022-10-23T08:58:00Z,39.72,-104.75,14.0,-3.3,140,8,,10.0,29.379921,987.4,,,TRUE,,,,,,,FEW,22000,,,,,,,VFR,-1.7,,,,,,,,,,,SPECI,1703.0
KBCR 230858Z AUTO 00000KT 9SM CLR 06/04 A3014 RMK AO2 SLP164 T00610044 51002 $,KBCR,2022-10-23T08:58:00Z,30.85,-85.6,6.1,4.4,0,0,,9.0,30.138779,1016.4,,TRUE,TRUE,TRUE,,,,,,CLR,,,,,,,,VFR,0.2,,,,,,,,,,,SPECI,26.0
PHNG 230857Z AUTO 09010G16KT 10SM CLR A3003 RMK AO2 SLP166 52003,PHNG,2022-10-23T08:57:00Z,21.43,-157.77,,,90,10,16,10.0,30.029528,1016.6,,TRUE,TRUE,,,,,,,CLR,,,,,,,,VFR,0.3,,,,,,,,,,,SPECI,1.0
PAJC 230857Z AUTO 24013G25KT 10SM -RA FEW020 SCT029 BKN038 05/02 A3004 RMK AO2 RAB0759 SLP173 6//// T00500017 51024 PNO $,PAJC,2022-10-23T08:57:00Z,56.32,-158.37,5.0,1.7,240,13,25,10.0,30.041338,1017.3,,TRUE,TRUE,TRUE,,,,,-RA,FEW,2000,SCT,2900,BKN,3800,,,VFR,2.4,,,,,,,,,,,METAR,10.0
KNYL 230857Z AUTO 31012G20KT 10SM CLR 21/09 A2970 RMK AO2 SLP054 T02060094 52012,KNYL,2022-10-23T08:57:00Z,32.65,-114.62,20.6,9.4,310,12,20,10.0,29.698818,1005.4,,TRUE,TRUE,,,,,,,CLR,,,,,,,,VFR,1.2,,,,,,,,,,,SPECI,58.0
KNJW 230857Z AUTO 14004KT 10SM CLR 13/11 A3013 RMK AO2 SLP117 T01330111 53003,KNJW,2022-10-23T08:57:00Z,32.78,-88.82,13.3,11.1,140,4,,10.0,30.129921,1011.7,,TRUE,TRUE,,,,,,,CLR,,,,,,,,VFR,0.3,,,,,,,,,,,METAR,165.0
KNJM 230857Z AUTO 02008G17KT 10SM FEW055 SCT075 OVC095 17/12 A3006 RMK AO2 SLP184 T01720117 55012,KNJM,2022-10-23T08:57:00Z,34.68,-77.02,17.2,11.7,20,8,17,10.0,30.059055,1018.4,,TRUE,TRUE,,,,,,,FEW,5500,SCT,7500,OVC,9500,,,VFR,-1.2,,,,,,,,,,,METAR,5.0
KFLG 230857Z AUTO 23026G47KT 10SM SCT043 BKN055 BKN070 09/03 A2970 RMK AO2 PK WND 21047/0848 SLP971 T00890033 58007,KFLG,2022-10-23T08:57:00Z,35.13,-111.67,8.9,3.3,230,26,47,10.0,29.698818,997.1,,TRUE,TRUE,,,,,,,SCT,4300,BKN,5500,BKN,7000,,,VFR,-0.7,,,,,,,,,,,METAR,2134.0
KAQV 230857Z AUTO 00000KT 7SM CLR 16/14 A2996 RMK AO2 SLP142 T01610139 58001,KAQV,2022-10-23T08:57:00Z,31.4,-93.3,16.1,13.9,0,0,,7.0,29.958662,1014.2,,TRUE,TRUE,,,,,,,CLR,,,,,,,,VFR,-0.1,,,,,,,,,,,METAR,123.0
TJSJ 230856Z 00000KT 10SM FEW025 26/24 A2990 RMK AO2 SLP123 60000 T02560239 55006 $,TJSJ,2022-10-23T08:56:00Z,18.43,-66.02,25.6,23.9,0,0,,10.0,29.899607,1012.3,,,TRUE,TRUE,,,,,,FEW,2500,,,,,,,VFR,-0.6,,,,,,,,,,,SPECI,3.0
ROTM 230856Z 02011G23KT 9999 BKN010 OVC030 23/23 A2982 RMK SLP099 WND WRNG T02330233 56003,ROTM,2022-10-23T08:56:00Z,26.27,127.75,23.3,23.3,20,11,23,6.21,29.819881,1009.9,,,,,,,,,,BKN,1000,OVC,3000,,,,,MVFR,-0.3,,,,,,,,,,,METAR,80.0
RJTY 230856Z 35005KT 7SM BKN060 BKN080 19/12 A2980 RMK AO2A SLP094 T01880118 53008 $,RJTY,2022-10-23T08:56:00Z,35.75,139.33,18.8,11.8,350,5,,7.0,29.799213,1009.4,,,TRUE,TRUE,,,,,,BKN,6000,BKN,8000,,,,,VFR,0.8,,,,,,,,,,,METAR,136.0
RJOI 230856Z 33006KT 9999 FEW020 22/08 A2989 RMK AO2 SLP120 T02170078 53003,RJOI,2022-10-23T08:56:00Z,34.13,132.23,21.7,7.8,330,6,,6.21,29.890747,1012.0,,,TRUE,,,,,,,FEW,2000,,,,,,,VFR,0.3,,,,,,,,,,,METAR,2.0
PPIZ 230856Z AUTO 11004KT 10SM OVC055 M08/M09 A2983 RMK AO2 SLP105 T10831094 410611133 52003 FZRANO,PPIZ,2022-10-23T08:56:00Z,69.73,-163.0,-8.3,-9.4,110,4,,10.0,29.828741,1010.5,,TRUE,TRUE,,,,TRUE,,,OVC,5500,,,,,,,VFR,0.3,,,-6.1,-13.3,,,,,,,METAR,5.0
PHNY 230856Z AUTO 06006KT 10SM CLR 19/17 A3009 RMK AO2 SLP170 T01890167 50001 $,PHNY,2022-10-23T08:56:00Z,20.77,-156.95,18.9,16.7,60,6,,10.0,30.088583,1017.0,,TRUE,TRUE,TRUE,,,,,,CLR,,,,,,,,VFR,0.1,,,,,,,,,,,METAR,395.0
PFYU 230856Z AUTO 00000KT 10SM OVC055 M07/M08 A2999 RMK AO2 SLP173 T10671078 410391078 52003 FZRANO,PFYU,2022-10-23T08:56:00Z,66.57,-145.23,-6.7,-7.8,0,0,,10.0,29.991142,1017.3,,TRUE,TRUE,,,,TRUE,,,OVC,5500,,,,,,,VFR,0.3,,,-3.9,-7.8,,,,,,,METAR,130.0
PFWS 230856Z AUTO 34012KT 10SM CLR 01/M01 A2998 RMK AO2 SLP196 T00061011 400281006 51023 FZRANO,PFWS,2022-10-23T08:56:00Z,58.7,-157.0,0.6,-1.1,340,12,,10.0,29.97933,1019.6,,TRUE,TRUE,,,,TRUE,,,CLR,,,,,,,,VFR,2.3,,,2.8,-0.6,,,,,,,METAR,40.0
PFKT 230856Z AUTO 25022KT 10SM OVC011 02/00 A2977 RMK AO2 PK WND 26031/0818 SLP080 60000 T00220000 400280000 53023 FZRANO,PFKT,2022-10-23T08:56:00Z,65.33,-166.47,2.2,0.0,250,22,,10.0,29.769686,1008.0,,TRUE,TRUE,,,,TRUE,,,OVC,1100,,,,,,,MVFR,2.3,,,2.8,,,0.005,,,,,METAR,8.0
PFEL 230856Z AUTO 20014G20KT 10SM -RA BKN007 OVC011 02/01 A2987 RMK AO2 PK WND 19026/0831 CIG 006V010 SLP118 P0001 60004 T00170006 400280000 55000 FZRANO,PFEL,2022-10-23T08:56:00Z,64.62,-162.27,1.7,0.6,200,14,20,10.0,29.870079,1011.8,,TRUE,TRUE,,,,TRUE,,-RA,BKN,700,OVC,1100,,,,,IFR,0.0,,,2.8,,0.01,0.04,,,,,METAR,50.0
PFCL 230856Z AUTO 33006KT 10SM CLR A3001 RMK AO2 SLPNO 53020 FZRANO TSNO $,PFCL,2022-10-23T08:56:00Z,58.83,-158.53,,,330,6,,10.0,30.008858,,,TRUE,TRUE,TRUE,,TRUE,TRUE,,,CLR,,,,,,,,VFR,2.0,,,,,,,,,,,METAR,23.0
PAZK 230856Z AUTO 35003KT 10SM OVC022 M07/M09 A2972 RMK AO2 SLP119 T10671089 400111100 50000 FZRANO,PAZK,2022-10-23T08:56:00Z,61.93,-147.17,-6.7,-8.9,350,3,,10.0,29.719488,1011.9,,TRUE,TRUE,,,,TRUE,,,OVC,2200,,,,,,,MVFR,0.0,,,1.1,-10.0,,,,,,,METAR,1002.0
PAWS 230856Z AUTO 06009KT 10SM CLR 02/M07 A2980 RMK AO2 SLP098 T00171067 400441044 53002 FZRANO,PAWS,2022-10-23T08:56:00Z,61.57,-149.53,1.7,-6.7,60,9,,10.0,29.799213,1009.8,,TRUE,TRUE,,,,TRUE,,,CLR,,,,,,,,VFR,0.2,,,4.4,-4.4,,,,,,,METAR,102.0
PAVD 230856Z AUTO 30004KT SCT075 A2982 RMK AO2 SLPNO 6//// 58007 FZRANO TSNO PNO $,PAVD,2022-10-23T08:56:00Z,61.13,-146.25,,,300,4,,,29.819881,,,TRUE,TRUE,TRUE,,TRUE,TRUE,,,SCT,7500,,,,,,,,-0.7,,,,,,,,,,,METAR,21.0
PAVC 230856Z AUTO 26011KT 10SM BKN026 OVC030 05/03 A3017 RMK AO2 RAE51 SLP219 6//// T00500028 400610028 51014 PNO $,PAVC,2022-10-23T08:56:00Z,55.12,-162.27,5.0,2.8,260,11,,10.0,30.171259,1021.9,,TRUE,TRUE,TRUE,,,,,,BKN,2600,OVC,3000,,,,,MVFR,1.4,,,6.1,2.8,,,,,,,METAR,48.0
PAVA 230856Z AUTO 18009KT 10SM FEW085 SCT110 00/M01 A2995 RMK AO2 SLP147 T00001006 53002 FZRANO,PAVA,2022-10-23T08:56:00Z,61.53,-165.6,0.0,-0.6,180,9,,10.0,29.949802,1014.7,,TRUE,TRUE,,,,TRUE,,,FEW,8500,SCT,11000,,,,,VFR,0.2,,,,,,,,,,,METAR,14.0
PAUN 230856Z AUTO 11006KT 10SM FEW033 OVC050 00/M02 A2997 RMK AO2 SLP154 T00001022 400390000 53007 FZRANO,PAUN,2022-10-23T08:56:00Z,63.88,-160.8,0.0,-2.2,110,6,,10.0,29.970472,1015.4,,TRUE,TRUE,,,,TRUE,,,FEW,3300,OVC,5000,,,,,VFR,0.7,,,3.9,,,,,,,,METAR,4.0
PATQ 230856Z AUTO 11007KT 10SM CLR M11/M13 A2992 RMK AO2 SLP137 T11111128 410501111 53005 FZRANO TSNO,PATQ,2022-10-23T08:56:00Z,70.47,-157.43,-11.1,-12.8,110,7,,10.0,29.920275,1013.7,,TRUE,TRUE,,,TRUE,TRUE,,,CLR,,,,,,,,VFR,0.5,,,-5.0,-11.1,,,,,,,METAR,28.0
PATG 230856Z AUTO 33003KT 10SM CLR M01/M01 A3003 RMK AO2 SLP170 T10061011 400561011 51019 FZRANO,PATG,2022-10-23T08:56:00Z,59.05,-160.38,-0.6,-1.1,330,3,,10.0,30.029528,1017.0,,TRUE,TRUE,,,,TRUE,,,CLR,,,,,,,,VFR,1.9,,,5.6,-1.1,,,,,,,METAR,1.0
PASX 230856Z AUTO 00000KT 10SM CLR M03/M03 A2983 RMK AO2 SLP108 T10331033 400171056 53008 FZRANO,PASX,2022-10-23T08:56:00Z,60.48,-151.05,-3.3,-3.3,0,0,,10.0,29.828741,1010.8,,TRUE,TRUE,,,,TRUE,,,CLR,,,,,,,,VFR,0.8,,,1.7,-5.6,,,,,,,METAR,28.0
PASK 230856Z AUTO 13009KT 10SM CLR M01/M02 A2992 RMK AO2 SLP127 T10111022 400061011 53004 FZRANO,PASK,2022-10-23T08:56:00Z,66.6,-160.0,-1.1,-2.2,130,9,,10.0,29.920275,1012.7,,TRUE,TRUE,,,,TRUE,,,CLR,,,,,,,,VFR,0.4,,,0.6,-1.1,,,,,,,METAR,3.0
PASD 230856Z AUTO 34010KT 10SM CLR 05/02 A3013 RMK AO2 RAB10E20 SLP205 6//// T00500017 51019 PNO $,PASD,2022-10-23T08:56:00Z,55.33,-160.52,5.0,1.7,340,10,,10.0,30.129921,1020.5,,TRUE,TRUE,TRUE,,,,,,CLR,,,,,,,,VFR,1.9,,,,,,,,,,,METAR,6.0
PASA 230856Z AUTO 16006KT 10SM OVC065 01/M02 A2979 RMK AO2 SLP089 T00061017 400391011 50001 FZRANO,PASA,2022-10-23T08:56:00Z,63.68,-170.5,0.6,-1.7,160,6,,10.0,29.790354,1008.9,,TRUE,TRUE,,,,TRUE,,,OVC,6500,,,,,,,VFR,0.1,,,3.9,-1.1,,,,,,,METAR,9.0
PARY 230856Z AUTO 00000KT 10SM OVC017 M03/M04 A2996 RMK AO2 SLP162 T10281039 53010 FZRANO,PARY,2022-10-23T08:56:00Z,64.73,-155.47,-2.8,-3.9,0,0,,10.0,29.958662,1016.2,,TRUE,TRUE,,,,TRUE,,,OVC,1700,,,,,,,MVFR,1.0,,,,,,,,,,,METAR,185.0
PAPN 230856Z AUTO 35005KT 10SM SCT022 02/01 A2999 RMK AO2 SLP157 6//// T00220006 52024 FZRANO PNO $,PAPN,2022-10-23T08:56:00Z,57.58,-157.57,2.2,0.6,350,5,,10.0,29.991142,1015.7,,TRUE,TRUE,TRUE,,,TRUE,,,SCT,2200,,,,,,,VFR,2.4,,,,,,,,,,,METAR,19.0
PAPM 230856Z AUTO 34003KT 10SM CLR 01/01 A3005 RMK AO2 SLP179 T00060006 400500000 53016 FZRANO,PAPM,2022-10-23T08:56:00Z,59.02,-161.82,0.6,0.6,340,3,,10.0,30.050198,1017.9,,TRUE,TRUE,,,,TRUE,,,CLR,,,,,,,,VFR,1.6,,,5.0,,,,,,,,METAR,4.0
PAOU 230856Z AUTO 29018KT 10SM SCT025 BKN043 BKN070 06/02 A3013 RMK AO2 SLP201 6//// T00560022 400610039 52006 PNO $,PAOU,2022-10-23T08:56:00Z,56.0,-161.17,5.6,2.2,290,18,,10.0,30.129921,1020.1,,TRUE,TRUE,TRUE,,,,,,SCT,2500,BKN,4300,BKN,7000,,,VFR,0.6,,,6.1,3.9,,,,,,,METAR,3.0
PAOO 230856Z AUTO 00000KT FEW020 M01/M01 A3002 RMK AO2 SLP170 T10061006 400441028 51006 PWINO FZRANO TSNO $,PAOO,2022-10-23T08:56:00Z,60.53,-165.08,-0.6,-0.6,0,0,,,30.02067,1017.0,,TRUE,TRUE,TRUE,,TRUE,TRUE,TRUE,,FEW,2000,,,,,,,,0.6,,,4.4,-2.8,,,,,,,METAR,15.0
PAOH 230856Z AUTO 07007KT 10SM OVC042 04/03 A2980 RMK AO2 RAB08E30 SLP092 P0000 60000 T00440033 400830006 58016,PAOH,2022-10-23T08:56:00Z,58.1,-135.45,4.4,3.3,70,7,,10.0,29.799213,1009.2,,TRUE,TRUE,,,,,,,OVC,4200,,,,,,,VFR,-1.6,,,8.3,0.6,0.005,0.005,,,,,METAR,0.0
PANW 230856Z AUTO 35008KT 10SM CLR M01/M02 A2998 RMK AO2 SLP161 T10111022 400171044 53021 FZRANO,PANW,2022-10-23T08:56:00Z,59.45,-157.32,-1.1,-2.2,350,8,,10.0,29.97933,1016.1,,TRUE,TRUE,,,,TRUE,,,CLR,,,,,,,,VFR,2.1,,,1.7,-4.4,,,,,,,METAR,100.0
PANV 230856Z AUTO 20003KT 10SM CLR M02/M03 A2998 RMK AO2 SLP254 T10171028 400171017 52010 FZRANO TSNO,PANV,2022-10-23T08:56:00Z,62.65,-160.18,-1.7,-2.8,200,3,,10.0,29.97933,1025.4,,TRUE,TRUE,,,TRUE,TRUE,,,CLR,,,,,,,,VFR,1.0,,,1.7,-1.7,,,,,,,METAR,91.0
PAMK 230856Z AUTO 19011KT 10SM SCT049 OVC070 00/M02 A2995 RMK AO2 SLP143 T00001017 400391011 53004 FZRANO,PAMK,2022-10-23T08:56:00Z,63.48,-162.12,0.0,-1.7,190,11,,10.0,29.949802,1014.3,,TRUE,TRUE,,,,TRUE,,,SCT,4900,OVC,7000,,,,,VFR,0.4,,,3.9,-1.1,,,,,,,METAR,31.0
PAMH 230856Z AUTO 00000KT 10SM OVC021 M02/M04 A2995 RMK AO2 SLP148 T10171039 400221033 53013 FZRANO,PAMH,2022-10-23T08:56:00Z,63.9,-152.28,-1.7,-3.9,0,0,,10.0,29.949802,1014.8,,TRUE,TRUE,,,,TRUE,,,OVC,2100,,,,,,,MVFR,1.3,,,2.2,-3.3,,,,,,,METAR,200.0
PAMB 230856Z AUTO 27003KT 10SM CLR M01/M02 A3001 RMK AO2 SLP166 T10061017 400391011 51019 FZRANO $,PAMB,2022-10-23T08:56:00Z,58.98,-159.05,-0.6,-1.7,270,3,,10.0,30.008858,1016.6,,TRUE,TRUE,TRUE,,,TRUE,,,CLR,,,,,,,,VFR,1.9,,,3.9,-1.1,,,,,,,METAR,28.0
PAKP 230856Z AUTO 17008KT 9SM -SN FEW024 SCT065 OVC095 M08/M09 A2987 RMK AO2 SLP168 P0000 60000 T10781089 410611128 53006 FZRANO,PAKP,2022-10-23T08:56:00Z,68.13,-151.73,-7.8,-8.9,170,8,,9.0,29.870079,1016.8,,TRUE,TRUE,,,,TRUE,,-SN,FEW,2400,SCT,6500,OVC,9500,,,VFR,0.6,,,-6.1,-12.8,0.005,0.005,,,,,METAR,649.0
PAKI 230856Z AUTO 19007KT 10SM CLR 01/01 A3003 RMK AO2 SLP172 6//// T00110011 400441006 53009 FZRANO PNO $,PAKI,2022-10-23T08:56:00Z,59.93,-164.03,1.1,1.1,190,7,,10.0,30.029528,1017.2,,TRUE,TRUE,TRUE,,,TRUE,,,CLR,,,,,,,,VFR,0.9,,,4.4,-0.6,,,,,,,METAR,4.0
PAKH 230856Z AUTO 10SM FEW030 SCT036 BKN044 A2984 RMK AO2 RAB16E30UPB30E48 SLPNO P0000 60000 51037 FZRANO TSNO $,PAKH,2022-10-23T08:56:00Z,56.93,-154.18,,,,,,10.0,29.840551,,,TRUE,TRUE,TRUE,,TRUE,TRUE,,,FEW,3000,SCT,3600,BKN,4400,,,VFR,3.7,,,,,0.005,0.005,,,,,METAR,15.0
PAKF 230856Z AUTO 27007G16KT 10SM OVC025 A3020 RMK AO2 UPB17E36RAB36E56 SLPNO P0000 60001 52017 FZRANO $,PAKF,2022-10-23T08:56:00Z,54.85,-163.42,,,270,7,16,10.0,30.200787,,,TRUE,TRUE,TRUE,,,TRUE,,,OVC,2500,,,,,,,MVFR,1.7,,,,,0.005,0.01,,,,,METAR,2.0
PAJZ 230856Z AUTO 32007KT 8SM CLR M01/M02 A3002 RMK AO2 SLP172 T10061022 53020 FZRANO $,PAJZ,2022-10-23T08:56:00Z,59.73,-157.27,-0.6,-2.2,320,7,,8.0,30.02067,1017.2,,TRUE,TRUE,TRUE,,,TRUE,,,CLR,,,,,,,,VFR,2.0,,,,,,,,,,,METAR,80.0
PAIN 230856Z AUTO 00000KT 10SM OVC021 M07/M09 A2988 RMK AO2 SLP156 T10721094 53008 FZRANO $,PAIN,2022-10-23T08:56:00Z,63.73,-148.92,-7.2,-9.4,0,0,,10.0,29.878937,1015.6,,TRUE,TRUE,TRUE,,,TRUE,,,OVC,2100,,,,,,,MVFR,0.8,,,,,,,,,,,METAR,525.0
PAIK 230856Z AUTO 11007KT 10SM BKN033 OVC041 M01/M02 A2991 RMK AO2 SLP132 T10061017 400061006 53003 FZRANO,PAIK,2022-10-23T08:56:00Z,66.98,-160.43,-0.6,-1.7,110,7,,10.0,29.911417,1013.2,,TRUE,TRUE,,,,TRUE,,,BKN,3300,OVC,4100,,,,,VFR,0.3,,,0.6,-0.6,,,,,,,METAR,49.0
PAIG 230856Z AUTO 18004KT 10SM CLR M02/M02 A2993 RMK AO2 SLP145 T10221022 400501022 53024 FZRANO $,PAIG,2022-10-23T08:56:00Z,59.32,-155.9,-2.2,-2.2,180,4,,10.0,29.929134,1014.5,,TRUE,TRUE,TRUE,,,TRUE,,,CLR,,,,,,,,VFR,2.4,,,5.0,-2.2,,,,,,,METAR,24.0
PAHY 230856Z AUTO 11008G14KT 10SM BKN039 08/04 A2986 RMK AO2 RAB39E51 SLP108 P0000 60000 T00830044 401000028 58016 $,PAHY,2022-10-23T08:56:00Z,55.2,-132.83,8.3,4.4,110,8,14,10.0,29.861221,1010.8,,TRUE,TRUE,TRUE,,,,,,BKN,3900,,,,,,,VFR,-1.6,,,10.0,2.8,0.005,0.005,,,,,METAR,0.0
PAHL 230856Z AUTO 00000KT 10SM BKN019 OVC027 M02/M03 A2998 RMK AO2 SLP157 T10221028 400331022 53010 FZRANO,PAHL,2022-10-23T08:56:00Z,65.7,-156.35,-2.2,-2.8,0,0,,10.0,29.97933,1015.7,,TRUE,TRUE,,,,TRUE,,,BKN,1900,OVC,2700,,,,,MVFR,1.0,,,3.3,-2.2,,,,,,,METAR,49.0
PAGS 230856Z AUTO 34003KT 10SM OVC042 02/02 A2982 RMK AO2 SLP097 T00170017 400721022 58015 FZRANO,PAGS,2022-10-23T08:56:00Z,58.42,-135.7,1.7,1.7,340,3,,10.0,29.819881,1009.7,,TRUE,TRUE,,,,TRUE,,,OVC,4200,,,,,,,VFR,-1.5,,,7.2,-2.2,,,,,,,METAR,9.0
PAGN 230856Z AUTO 07007KT 10SM SCT035 OVC055 05/04 A2984 RMK AO2 SLP093 T00500039 400720033 58016,PAGN,2022-10-23T08:56:00Z,57.5,-134.58,5.0,3.9,70,7,,10.0,29.840551,1009.3,,TRUE,TRUE,,,,,,,SCT,3500,OVC,5500,,,,,VFR,-1.6,,,7.2,3.3,,,,,,,METAR,2.0
PAGM 230856Z AUTO 10SM FEW008 SCT050 00/M02 A2978 RMK AO2 SLP090 60000 T00001017 400280000 53001 FZRANO $,PAGM,2022-10-23T08:56:00Z,63.77,-171.73,0.0,-1.7,,,,10.0,29.778543,1009.0,,TRUE,TRUE,TRUE,,,TRUE,,,FEW,800,SCT,5000,,,,,VFR,0.1,,,2.8,,,0.005,,,,,METAR,6.0
PAGL 230856Z AUTO 19017KT 10SM FEW009 BKN014 OVC021 03/02 A2987 RMK AO2 PK WND 18028/0820 SLP110 60002 T00280017 52007 PWINO $,PAGL,2022-10-23T08:56:00Z,64.55,-163.0,2.8,1.7,190,17,,10.0,29.870079,1011.0,,TRUE,TRUE,TRUE,,,,TRUE,,FEW,900,BKN,1400,OVC,2100,,,MVFR,0.7,,,,,,0.02,,,,,METAR,20.0
PAFE 230856Z AUTO 09006KT 10SM BKN043 OVC050 05/02 A2985 RMK AO2 SLP120 T00500022 400720000 58018,PAFE,2022-10-23T08:56:00Z,56.97,-133.92,5.0,2.2,90,6,,10.0,29.84941,1012.0,,TRUE,TRUE,,,,,,,BKN,4300,OVC,5000,,,,,VFR,-1.8,,,7.2,,,,,,,,METAR,1.0
PADU 230856Z AUTO 24010KT 10SM FEW036 07/02 A3026 RMK AO2 SLP251 60001 T00720022 53010,PADU,2022-10-23T08:56:00Z,53.9,-166.53,7.2,2.2,240,10,,10.0,30.259842,1025.1,,TRUE,TRUE,,,,,,,FEW,3600,,,,,,,VFR,1.0,,,,,,0.01,,,,,METAR,4.0
PADL 230856Z AUTO 00000KT 10SM CLR M02/M03 A3001 RMK AO2 SLP164 T10171033 400281022 53018 FZRANO,PADL,2022-10-23T08:56:00Z,59.05,-158.5,-1.7,-3.3,0,0,,10.0,30.008858,1016.4,,TRUE,TRUE,,,,TRUE,,,CLR,,,,,,,,VFR,1.8,,,2.8,-2.2,,,,,,,METAR,20.0
PADK 230856Z AUTO 20021G27KT OVC025 08/07 A3018 RMK AO2 PK WND 20029/0807 SLP220 P0005 60006 T00830067 58024 PWINO $,PADK,2022-10-23T08:56:00Z,51.88,-176.65,8.3,6.7,200,21,27,,30.180119,1022.0,,TRUE,TRUE,TRUE,,,,TRUE,,OVC,2500,,,,,,,,-2.4,,,,,0.05,0.06,,,,,METAR,3.0
PABV 230856Z AUTO 18003KT 10SM CLR M03/M04 A2981 RMK AO2 SLP100 T10331044 400221050 53002 FZRANO,PABV,2022-10-23T08:56:00Z,61.42,-149.52,-3.3,-4.4,180,3,,10.0,29.811024,1010.0,,TRUE,TRUE,,,,TRUE,,,CLR,,,,,,,,VFR,0.2,,,2.2,-5.0,,,,,,,METAR,21.0
OEPS 230856Z VRB06KT 9999 CLR 33/01 A3021 RMK A02A SLPNO WND DATA ESTMD T03300010 53010 $,OEPS,2022-10-23T08:56:00Z,24.07,47.58,33.0,1.0,0,6,,6.21,30.209646,,,,TRUE,TRUE,,,,,,CLR,,,,,,,,VFR,1.0,,,,,,,,,,,METAR,503.0
KYKN 230856Z AUTO 09007KT 10SM CLR 11/08 A2942 RMK AO2 SLP968 T01110078 58014,KYKN,2022-10-23T08:56:00Z,42.92,-97.37,11.1,7.8,90,7,,10.0,29.421259,996.8,,TRUE,TRUE,,,,,,,CLR,,,,,,,,VFR,-1.4,,,,,,,,,,,METAR,388.0
KY50 230856Z AUTO 15004KT 10SM CLR 14/11 A2984 RMK AO2 SLP097 T01390111 51005 $,KY50,2022-10-23T08:56:00Z,44.03,-89.3,13.9,11.1,150,4,,10.0,29.840551,1009.7,,TRUE,TRUE,TRUE,,,,,,CLR,,,,,,,,VFR,0.5,,,,,,,,,,,METAR,261.0
KWWD 230856Z AUTO 02009KT 7SM -RA 14/13 A3020 RMK AO2 RAB30 SLP229 P0000 60000 T01390133 56006 $,KWWD,2022-10-23T08:56:00Z,39.02,-74.92,13.9,13.3,20,9,,7.0,30.200787,1022.9,,TRUE,TRUE,TRUE,,,,,-RA,,,,,,,,,,-0.6,,,,,0.005,0.005,,,,,METAR,4.0
KWMC 230856Z AUTO A2982 RMK AO2 SLPNO 53012 PWINO FZRANO $,KWMC,2022-10-23T08:56:00Z,40.9,-117.8,,,,,,,29.819881,,,TRUE,TRUE,TRUE,,,TRUE,TRUE,,,,,,,,,,,1.2,,,,,,,,,,,METAR,1311.0
KWJF 230856Z AUTO 26016KT 10SM CLR 13/05 A2977 RMK AO2 PK WND 25029/0821 SLP072 T01330050 53010,KWJF,2022-10-23T08:56:00Z,34.73,-118.22,13.3,5.0,260,16,,10.0,29.769686,1007.2,,TRUE,TRUE,,,,,,,CLR,,,,,,,,VFR,1.0,,,,,,,,,,,METAR,712.0
KVPZ 230856Z AUTO 16005KT 10SM CLR 16/11 A2997 RMK AO2 SLP144 T01560106 58008 $,KVPZ,2022-10-23T08:56:00Z,41.45,-87.0,15.6,10.6,160,5,,10.0,29.970472,1014.4,,TRUE,TRUE,TRUE,,,,,,CLR,,,,,,,,VFR,-0.8,,,,,,,,,,,SPECI,235.0
KVIS 230856Z AUTO 34005KT 10SM CLR 12/05 A2982 RMK AO2 SLP104 T01220050 52021,KVIS,2022-10-23T08:56:00Z,36.32,-119.4,12.2,5.0,340,5,,10.0,29.819881,1010.4,,TRUE,TRUE,,,,,,,CLR,,,,,,,,VFR,2.1,,,,,,,,,,,METAR,92.0
KVBT 230856Z AUTO 19011G20KT 10SM CLR 21/13 A2979 RMK AO2 SLP079 T02060133 53002,KVBT,2022-10-23T08:56:00Z,36.35,-94.22,20.6,13.3,190,11,20,10.0,29.790354,1007.9,,TRUE,TRUE,,,,,,,CLR,,,,,,,,VFR,0.2,,,,,,,,,,,METAR,390.0
KUKI 230856Z AUTO 36008KT 10SM CLR 11/02 A2994 RMK AO2 SLP132 T01110017 51009,KUKI,2022-10-23T08:56:00Z,39.12,-123.2,11.1,1.7,360,8,,10.0,29.940945,1013.2,,TRUE,TRUE,,,,,,,CLR,,,,,,,,VFR,0.9,,,,,,,,,,,METAR,183.0
KUDG 230856Z AUTO 34005KT 10SM CLR 10/09 A3016 RMK AO2 SLP214 T01000089 53002,KUDG,2022-10-23T08:56:00Z,34.45,-79.88,10.0,8.9,340,5,,10.0,30.159449,1021.4,,TRUE,TRUE,,,,,,,CLR,,,,,,,,VFR,0.2,,,,,,,,,,,METAR,57.0
KUCP 230856Z AUTO 00000KT 10SM CLR 06/04 A3022 RMK AO2 SLP247 T00560039 53008,KUCP,2022-10-23T08:56:00Z,41.03,-80.42,5.6,3.9,0,0,,10.0,30.221457,1024.7,,TRUE,TRUE,,,,,,,CLR,,,,,,,,VFR,0.8,,,,,,,,,,,METAR,313.0
KTVF 230856Z AUTO 05009KT 10SM CLR 07/04 A2957 RMK AO2 SLP018 6//// T00670044 50007,KTVF,2022-10-23T08:56:00Z,48.07,-96.17,6.7,4.4,50,9,,10.0,29.568897,1001.8,,TRUE,TRUE,,,,,,,CLR,,,,,,,,VFR,0.7,,,,,,,,,,,METAR,339.0
KTPH 230856Z AUTO 31011KT 10SM CLR 01/M04 A2980 RMK AO2 SLP074 T00061044 51015,KTPH,2022-10-23T08:56:00Z,38.05,-117.08,0.6,-4.4,310,11,,10.0,29.799213,1007.4,,TRUE,TRUE,,,,,,,CLR,,,,,,,,VFR,1.5,,,,,,,,,,,METAR,1647.0
KSUE 230856Z AUTO 18008KT 10SM CLR 13/11 A2989 RMK AO2 SLP121 6//// T01280111 51009,KSUE,2022-10-23T08:56:00Z,44.85,-87.42,12.8,11.1,180,8,,10.0,29.890747,1012.1,,TRUE,TRUE,,,,,,,CLR,,,,,,,,VFR,0.9,,,,,,,,,,,METAR,215.0
KSRC 230856Z AUTO 17010KT 10SM FEW035 19/14 A2993 RMK AO2 SLP134 T01890144 50001,KSRC,2022-10-23T08:56:00Z,35.22,-91.73,18.9,14.4,170,10,,10.0,29.929134,1013.4,,TRUE,TRUE,,,,,,,FEW,3500,,,,,,,VFR,0.1,,,,,,,,,,,METAR,80.0
KSQI 230856Z AUTO VRB05KT 10SM CLR 16/13 A2983 RMK AO2 SLP967 T01560128 56007,KSQI,2022-10-23T08:56:00Z,41.75,-89.67,15.6,12.8,0,5,,10.0,29.828741,996.7,,TRUE,TRUE,,,,,,,CLR,,,,,,,,VFR,-0.7,,,,,,,,,,,METAR,196.0
KSPD 230856Z AUTO 21017G27KT 18/08 A2950 RMK AO1 PK WND 20027/0855 SLP923 T01780078 58014,KSPD,2022-10-23T08:56:00Z,37.28,-102.62,17.8,7.8,210,17,27,,29.500984,992.3,,TRUE,TRUE,,,,,,,,,,,,,,,,-1.4,,,,,,,,,,,METAR,1340.0
KSOP 230856Z AUTO 32003KT 8SM CLR 07/07 A3018 RMK AO2 SLP224 T00720072 55001 TSNO,KSOP,2022-10-23T08:56:00Z,35.23,-79.4,7.2,7.2,320,3,,8.0,30.180119,1022.4,,TRUE,TRUE,,,TRUE,,,,CLR,,,,,,,,VFR,-0.1,,,,,,,,,,,METAR,135.0
KSMN 230856Z AUTO 00000KT 10SM BKN060 01/M04 A2968 RMK AO2 SLP757 T00111039 53008 FZRANO,KSMN,2022-10-23T08:56:00Z,45.12,-113.87,1.1,-3.9,0,0,,10.0,29.681103,975.7,,TRUE,TRUE,,,,TRUE,,,BKN,6000,,,,,,,VFR,0.8,,,,,,,,,,,METAR,1228.0
KSLG 230856Z AUTO 18020G25KT 10SM CLR 21/14 A2978 RMK AO2 PK WND 18029/0817 SLP072 T02060139 53002,KSLG,2022-10-23T08:56:00Z,36.2,-94.48,20.6,13.9,180,20,25,10.0,29.778543,1007.2,,TRUE,TRUE,,,,,,,CLR,,,,,,,,VFR,0.2,,,,,,,,,,,METAR,361.0
KSLE 230856Z AUTO 11003KT 10SM BKN039 BKN060 08/06 A2997 RMK AO2 RAE39 SLP147 P0001 60001 T00780061 51013,KSLE,2022-10-23T08:56:00Z,44.9,-123.0,7.8,6.1,110,3,,10.0,29.970472,1014.7,,TRUE,TRUE,,,,,,,BKN,3900,BKN,6000,,,,,VFR,1.3,,,,,0.01,,,,,,SPECI,63.0
KSKX 230856Z AUTO 23013KT 10SM FEW080 BKN095 11/06 A2976 RMK AO2 LTG DSNT E AND NW TSB33E52 SLP018 T01110056 56016,KSKX,2022-10-23T08:56:00Z,36.45,-105.67,11.1,5.6,230,13,,10.0,29.760826,1001.8,,TRUE,TRUE,,,,,,,FEW,8000,BKN,9500,,,,,VFR,-1.6,,,,,,,,,,,METAR,2163.0
KSHV 230856Z 16008KT 10SM SCT032 BKN044 19/16 A2994 RMK SLPNO,KSHV,2022-10-23T08:56:00Z,32.45,-93.83,19.0,16.0,160,8,,10.0,29.940945,,,,,,,,,,,SCT,3200,BKN,4400,,,,,VFR,,,,,,,,,,,,METAR,70.0
KSGU 230856Z AUTO 18005KT 10SM -RA BKN046 OVC055 08/07 A2965 RMK AO2 SLP018 P0002 60017 T00830067 51020,KSGU,2022-10-23T08:56:00Z,37.03,-113.52,8.3,6.7,180,5,,10.0,29.648623,1001.8,,TRUE,TRUE,,,,,,-RA,BKN,4600,OVC,5500,,,,,VFR,2.0,,,,,0.02,0.17,,,,,METAR,877.0
KSGT 230856Z AUTO 17013KT 10SM CLR 19/13 A2997 RMK AO2 SLP148 T01940133 51008,KSGT,2022-10-23T08:56:00Z,34.6,-91.57,19.4,13.3,170,13,,10.0,29.970472,1014.8,,TRUE,TRUE,,,,,,,CLR,,,,,,,,VFR,0.8,,,,,,,,,,,METAR,67.0
KSGJ 230856Z AUTO 32006KT 10SM CLR 14/14 A3010 RMK AO2 SLP192 T01440144 53002,KSGJ,2022-10-23T08:56:00Z,29.97,-81.33,14.4,14.4,320,6,,10.0,30.100393,1019.2,,TRUE,TRUE,,,,,,,CLR,,,,,,,,VFR,0.2,,,,,,,,,,,METAR,2.0
KSGH 230856Z AUTO 16004KT 10SM CLR 13/08 A3014 RMK AO2 SLP203 T01330083 53008,KSGH,2022-10-23T08:56:00Z,39.83,-83.83,13.3,8.3,160,4,,10.0,30.138779,1020.3,,TRUE,TRUE,,,,,,,CLR,,,,,,,,VFR,0.8,,,,,,,,,,,METAR,318.0
KSFZ 230856Z AUTO 05003KT 10SM CLR 08/07 A3031 RMK AO2 SLP265 T00780072 55003,KSFZ,2022-10-23T08:56:00Z,41.92,-71.5,7.8,7.2,50,3,,10.0,30.31004,1026.5,,TRUE,TRUE,,,,,,,CLR,,,,,,,,VFR,-0.3,,,,,,,,,,,METAR,129.0
KSFO 230856Z 28009KT 10SM CLR 12/07 A2988 RMK AO2 SLP118 T01220072 53012 $,KSFO,2022-10-23T08:56:00Z,37.62,-122.37,12.2,7.2,280,9,,10.0,29.878937,1011.8,,,TRUE,TRUE,,,,,,CLR,,,,,,,,VFR,1.2,,,,,,,,,,,METAR,2.0
KSFM 230856Z AUTO 00000KT 9SM CLR 03/02 A3032 RMK AO2 SLP272 T00280022 53003,KSFM,2022-10-23T08:56:00Z,43.38,-70.72,2.8,2.2,0,0,,9.0,30.318897,1027.2,,TRUE,TRUE,,,,,,,CLR,,,,,,,,VFR,0.3,,,,,,,,,,,METAR,70.0
KSDY 230856Z AUTO 07013KT 10SM OVC011 07/06 A2948 RMK AO2 RAE26 SLP995 6//// T00720056 55010 PNO $,KSDY,2022-10-23T08:56:00Z,47.7,-104.2,7.2,5.6,70,13,,10.0,29.480314,999.5,,TRUE,TRUE,TRUE,,,,,,OVC,1100,,,,,,,MVFR,-1.0,,,,,,,,,,,METAR,600.0
KSDF 230856Z 12005KT 10SM SCT170 BKN200 BKN250 16/11 A3010 RMK AO2 SLP188 T01560106 53007,KSDF,2022-10-23T08:56:00Z,38.18,-85.73,15.6,10.6,120,5,,10.0,30.100393,1018.8,,,TRUE,,,,,,,SCT,17000,BKN,20000,BKN,25000,,,VFR,0.7,,,,,,,,,,,METAR,146.0
KSBP 230856Z AUTO 00000KT 9SM CLR 09/07 A2984 RMK AO2 SLP105 T00890072 51008,KSBP,2022-10-23T08:56:00Z,35.23,-120.63,8.9,7.2,0,0,,9.0,29.840551,1010.5,,TRUE,TRUE,,,,,,,CLR,,,,,,,,VFR,0.8,,,,,,,,,,,METAR,52.0
KRUT 230856Z AUTO 14006KT 10SM CLR 06/03 A3032 RMK AO2 SLP263 T00560028 55002 $,KRUT,2022-10-23T08:56:00Z,43.53,-72.95,5.6,2.8,140,6,,10.0,30.318897,1026.3,,TRUE,TRUE,TRUE,,,,,,CLR,,,,,,,,VFR,-0.2,,,,,,,,,,,METAR,238.0
KRDM 230856Z AUTO 00000KT 10SM BKN055 BKN080 02/01 A2988 RMK AO2 SLP124 60001 T00220006 51015,KRDM,2022-10-23T08:56:00Z,44.25,-121.15,2.2,0.6,0,0,,10.0,29.878937,1012.4,,TRUE,TRUE,,,,,,,BKN,5500,BKN,8000,,,,,VFR,1.5,,,,,,,,,,,SPECI,930.0
KPWT 230856Z AUTO 00000KT 10SM OVC060 04/04 A2994 RMK AO2 SLP144 T00440044 53010,KPWT,2022-10-23T08:56:00Z,47.5,-122.77,4.4,4.4,0,0,,10.0,29.940945,1014.4,,TRUE,TRUE,,,,,,,OVC,6000,,,,,,,VFR,1.0,,,,,,,,,,,METAR,143.0
KPVU 230856Z AUTO 13005KT 10SM OVC017 03/02 A2959 RMK AO2 SLP002 60001 T00330022 58004,KPVU,2022-10-23T08:56:00Z,40.22,-111.72,3.3,2.2,130,5,,10.0,29.589567,1000.2,,TRUE,TRUE,,,,,,,OVC,1700,,,,,,,MVFR,-0.4,,,,,,0.01,,,,,METAR,1370.0
KPVC 230856Z AUTO 07003KT 10SM CLR 12/12 A3032 RMK AO2 SLP265 T01220117 56010,KPVC,2022-10-23T08:56:00Z,42.07,-70.22,12.2,11.7,70,3,,10.0,30.318897,1026.5,,TRUE,TRUE,,,,,,,CLR,,,,,,,,VFR,-1.0,,,,,,,,,,,METAR,1.0
KPTV 230856Z AUTO 00000KT 10SM CLR 12/06 A2982 RMK AO2 SLP099 T01170056 51021,KPTV,2022-10-23T08:56:00Z,36.02,-119.07,11.7,5.6,0,0,,10.0,29.819881,1009.9,,TRUE,TRUE,,,,,,,CLR,,,,,,,,VFR,2.1,,,,,,,,,,,METAR,132.0
KPTN 230856Z AUTO 11005KT 10SM BKN044 18/16 A3003 RMK AO2 SLP170 T01830161 56006 $,KPTN,2022-10-23T08:56:00Z,29.72,-91.33,18.3,16.1,110,5,,10.0,30.029528,1017.0,,TRUE,TRUE,TRUE,,,,,,BKN,4400,,,,,,,VFR,-0.6,,,,,,,,,,,METAR,2.0
KPRX 230856Z AUTO 17013KT 10SM CLR 20/15 A2985 RMK AO2 SLP103 T02000150 53006,KPRX,2022-10-23T08:56:00Z,33.63,-95.45,20.0,15.0,170,13,,10.0,29.84941,1010.3,,TRUE,TRUE,,,,,,,CLR,,,,,,,,VFR,0.6,,,,,,,,,,,METAR,165.0
KPQI 230856Z AUTO 19003KT 10SM CLR 06/05 A3032 RMK AO2 SLP295 T00560050 53010,KPQI,2022-10-23T08:56:00Z,46.68,-68.05,5.6,5.0,190,3,,10.0,30.318897,1029.5,,TRUE,TRUE,,,,,,,CLR,,,,,,,,VFR,1.0,,,,,,,,,,,METAR,154.0
KP60 230856Z AUTO 00000KT M03/M04 A2950 RMK AO1 SLP985 P0001 60002 T10281044 58008 $,KP60,2022-10-23T08:56:00Z,44.55,-110.42,-2.8,-4.4,0,0,,,29.500984,998.5,,TRUE,TRUE,TRUE,,,,,,,,,,,,,,,-0.8,,,,,0.01,0.02,,,,,METAR,2377.0
KP53 230856Z AUTO 19008KT 14/11 A2987 RMK AO1 SLP115 T01440106 53009,KP53,2022-10-23T08:56:00Z,46.42,-86.65,14.4,10.6,190,8,,,29.870079,1011.5,,TRUE,TRUE,,,,,,,,,,,,,,,,0.9,,,,,,,,,,,METAR,185.0
KP28 230856Z AUTO 16009KT 19/10 A2950 RMK AO1 SLP971 T01940100 56001 $,KP28,2022-10-23T08:56:00Z,37.28,-98.55,19.4,10.0,160,9,,,29.500984,997.1,,TRUE,TRUE,TRUE,,,,,,,,,,,,,,,-0.1,,,,,,,,,,,METAR,469.0
KOWB 230856Z AUTO 17008KT 10SM OVC070 18/12 A3006 RMK AO2 SLP177 T01780117 51005,KOWB,2022-10-23T08:56:00Z,37.72,-87.17,17.8,11.7,170,8,,10.0,30.059055,1017.7,,TRUE,TRUE,,,,,,,OVC,7000,,,,,,,VFR,0.5,,,,,,,,,,,METAR,121.0
KOTG 230856Z AUTO 15009KT 10SM CLR 13/09 A2953 RMK AO2 SLP994 T01330089 58010,KOTG,2022-10-23T08:56:00Z,43.65,-95.57,13.3,8.9,150,9,,10.0,29.530512,999.4,,TRUE,TRUE,,,,,,,CLR,,,,,,,,VFR,-1.0,,,,,,,,,,,METAR,478.0
KOLU 230856Z AUTO 09007KT 10SM CLR 12/11 A2942 RMK AO2 SLP955 T01220106 56017,KOLU,2022-10-23T08:56:00Z,41.45,-97.33,12.2,10.6,90,7,,10.0,29.421259,995.5,,TRUE,TRUE,,,,,,,CLR,,,,,,,,VFR,-1.7,,,,,,,,,,,METAR,438.0
KOKK 230856Z AUTO 16010KT 10SM CLR 14/12 A3004 RMK AO2 SLP169 6//// T01440122 58002 PNO $,KOKK,2022-10-23T08:56:00Z,40.53,-86.07,14.4,12.2,160,10,,10.0,30.041338,1016.9,,TRUE,TRUE,TRUE,,,,,,CLR,,,,,,,,VFR,-0.2,,,,,,,,,,,METAR,251.0
KOFK 230856Z AUTO 12010KT 10SM CLR 13/09 A2941 RMK AO2 SLP948 T01330094 57017,KOFK,2022-10-23T08:56:00Z,41.98,-97.43,13.3,9.4,120,10,,10.0,29.409449,994.8,,TRUE,TRUE,,,,,,,CLR,,,,,,,,VFR,-1.7,,,,,,,,,,,METAR,476.0
KOAJ 230856Z AUTO 36006KT 10SM CLR 14/09 A3010 RMK AO2 SLP193 T01440089 56013,KOAJ,2022-10-23T08:56:00Z,34.82,-77.62,14.4,8.9,360,6,,10.0,30.100393,1019.3,,TRUE,TRUE,,,,,,,CLR,,,,,,,,VFR,-1.3,,,,,,,,,,,METAR,26.0
KNYG 230856Z AUTO 29008KT 8SM CLR 08/ A3025 RMK AO2 SLP243 T0078 58003 $,KNYG,2022-10-23T08:56:00Z,38.5,-77.3,7.8,,290,8,,8.0,30.250984,1024.3,,TRUE,TRUE,TRUE,,,,,,CLR,,,,,,,,VFR,-0.3,,,,,,,,,,,SPECI,2.0
KNXP 230856Z AUTO 24017KT 10SM CLR 15/08 A2979 RMK AO2 SLP054 T01500083 53014 $,KNXP,2022-10-23T08:56:00Z,34.28,-116.13,15.0,8.3,240,17,,10.0,29.790354,1005.4,,TRUE,TRUE,TRUE,,,,,,CLR,,,,,,,,VFR,1.4,,,,,,,,,,,SPECI,610.0
KNXF 230856Z AUTO 10SM 17/13 A2980 RMK AO2 SLP175 T01720128 53001 PWINO $,KNXF,2022-10-23T08:56:00Z,33.28,-117.45,17.2,12.8,,,,10.0,29.799213,1017.5,,TRUE,TRUE,TRUE,,,,TRUE,,,,,,,,,,,0.1,,,,,,,,,,,METAR,28.0
KNUC 230856Z AUTO 29016KT 10SM BKN024 15/ A2983 RMK AO2 PK WND 28026/0811 SLP098 T0150 51001 $,KNUC,2022-10-23T08:56:00Z,33.02,-118.57,15.0,,290,16,,10.0,29.828741,1009.8,,TRUE,TRUE,TRUE,,,,,,BKN,2400,,,,,,,MVFR,0.1,,,,,,,,,,,SPECI,52.0
KNQI 230856Z AUTO 15005KT 10SM CLR 20/19 A2985 RMK AO2 SLP105 T02000189 56012 $,KNQI,2022-10-23T08:56:00Z,27.5,-97.82,20.0,18.9,150,5,,10.0,29.84941,1010.5,,TRUE,TRUE,TRUE,,,,,,CLR,,,,,,,,VFR,-1.2,,,,,,,,,,,SPECI,15.0
KNPA 230856Z AUTO 36003KT 10SM CLR 11/ A3010 RMK AO2 SLP195 T0111 51001 $,KNPA,2022-10-23T08:56:00Z,30.35,-87.32,11.1,,360,3,,10.0,30.100393,1019.5,,TRUE,TRUE,TRUE,,,,,,CLR,,,,,,,,VFR,0.1,,,,,,,,,,,SPECI,6.0
KNOG 230856Z AUTO 15006KT 10SM CLR 19/18 A2986 RMK AO2 SLP091 6//// T01940178 56009 PNO $,KNOG,2022-10-23T08:56:00Z,27.9,-98.05,19.4,17.8,150,6,,10.0,29.861221,1009.1,,TRUE,TRUE,TRUE,,,,,,CLR,,,,,,,,VFR,-0.9,,,,,,,,,,,METAR,72.0
KNMM 230856Z AUTO 00000KT 6SM BR CLR 10/09 A3011 RMK AO2 VIS 1/4 SOUTH SLP206 T01000094 53002 $,KNMM,2022-10-23T08:56:00Z,32.53,-88.53,10.0,9.4,0,0,,6.0,30.109253,1020.6,,TRUE,TRUE,TRUE,,,,,BR,CLR,,,,,,,,VFR,0.2,,,,,,,,,,,SPECI,94.0
KNLC 230856Z AUTO 33009KT 10SM CLR 09/03 A2981 RMK AO2 SLP095 T00890033 53019,KNLC,2022-10-23T08:56:00Z,36.32,-119.95,8.9,3.3,330,9,,10.0,29.811024,1009.5,,TRUE,TRUE,,,,,,,CLR,,,,,,,,VFR,1.9,,,,,,,,,,,METAR,69.0
KNKT 230856Z 35008KT 10SM FEW090 16/12 A3007 RMK AO2 SLP178 T01560122 56017,KNKT,2022-10-23T08:56:00Z,34.9,-76.88,15.6,12.2,350,8,,10.0,30.070866,1017.8,,,TRUE,,,,,,,FEW,9000,,,,,,,VFR,-1.7,,,,,,,,,,,SPECI,8.0
KNJK 230856Z AUTO 26026G37KT 10SM SCT070 22/11 A2973 RMK AO2 PK WND 25040/0839 SLP082 T02220106 53017 $,KNJK,2022-10-23T08:56:00Z,32.82,-115.67,22.2,10.6,260,26,37,10.0,29.731298,1008.2,,TRUE,TRUE,TRUE,,,,,,SCT,7000,,,,,,,VFR,1.7,,,,,,,,,,,METAR,-15.0
KNID 230856Z AUTO 28010KT 10SM CLR 15/M04 A2969 RMK AO2 SLP040 T01501044 51026 $,KNID,2022-10-23T08:56:00Z,35.68,-117.68,15.0,-4.4,280,10,,10.0,29.68996,1004.0,,TRUE,TRUE,TRUE,,,,,,CLR,,,,,,,,VFR,2.6,,,,,,,,,,,SPECI,682.0
KNGP 230856Z AUTO 18011KT 10SM CLR 26/21 A2986 RMK AO2 SLP110 T02610206 56009,KNGP,2022-10-23T08:56:00Z,27.68,-97.28,26.1,20.6,180,11,,10.0,29.861221,1011.0,,TRUE,TRUE,,,,,,,CLR,,,,,,,,VFR,-0.9,,,,,,,,,,,SPECI,5.0
KNFL 230856Z AUTO 30009KT 10SM CLR 03/M06 A2984 RMK AO2 SLP081 T00331061 53009,KNFL,2022-10-23T08:56:00Z,39.42,-118.7,3.3,-6.1,300,9,,10.0,29.840551,1008.1,,TRUE,TRUE,,,,,,,CLR,,,,,,,,VFR,0.9,,,,,,,,,,,SPECI,1199.0
KNDZ 230856Z AUTO 05004KT CLR 08/07 A3012 RMK AO2 SLP187 T00830067 53003 $,KNDZ,2022-10-23T08:56:00Z,30.7,-87.02,8.3,6.7,50,4,,,30.121063,1018.7,,TRUE,TRUE,TRUE,,,,,,CLR,,,,,,,,,0.3,,,,,,,,,,,SPECI,51.0
KNCA 230856Z AUTO 35008KT 10SM SCT065 14/11 A3007 RMK AO2 SLP186 T01440106 55013 $,KNCA,2022-10-23T08:56:00Z,34.72,-77.45,14.4,10.6,350,8,,10.0,30.070866,1018.6,,TRUE,TRUE,TRUE,,,,,,SCT,6500,,,,,,,VFR,-1.3,,,,,,,,,,,METAR,9.0
KNBC 230856Z AUTO 33003KT 10SM CLR 12/ A3013 RMK AO2 SLP203 T0122 53004 $,KNBC,2022-10-23T08:56:00Z,32.47,-80.72,12.2,,330,3,,10.0,30.129921,1020.3,,TRUE,TRUE,TRUE,,,,,,CLR,,,,,,,,VFR,0.4,,,,,,,,,,,SPECI,9.0
KMYR 230856Z AUTO 34006KT 10SM CLR 13/11 A3011 RMK AO2 SLP197 T01280111 50001,KMYR,2022-10-23T08:56:00Z,33.68,-78.92,12.8,11.1,340,6,,10.0,30.109253,1019.7,,TRUE,TRUE,,,,,,,CLR,,,,,,,,VFR,0.1,,,,,,,,,,,METAR,7.0
KMVN 230856Z AUTO 17009KT 10SM CLR 18/11 A2996 RMK AO2 SLP145 T01780111 55001,KMVN,2022-10-23T08:56:00Z,38.32,-88.87,17.8,11.1,170,9,,10.0,29.958662,1014.5,,TRUE,TRUE,,,,,,,CLR,,,,,,,,VFR,-0.1,,,,,,,,,,,METAR,145.0
KMUO 230856Z AUTO 28015KT 10SM CLR 02/M01 A2970 RMK AO2 SLP062 T00241010 52011 $,KMUO,2022-10-23T08:56:00Z,43.03,-115.87,2.4,-1.0,280,15,,10.0,29.698818,1006.2,,TRUE,TRUE,TRUE,,,,,,CLR,,,,,,,,VFR,1.1,,,,,,,,,,,SPECI,915.0
KMTW 230856Z AUTO 16007KT 10SM CLR 12/11 A2990 RMK AO2 SLP125 T01170111 51008,KMTW,2022-10-23T08:56:00Z,44.12,-87.67,11.7,11.1,160,7,,10.0,29.899607,1012.5,,TRUE,TRUE,,,,,,,CLR,,,,,,,,VFR,0.8,,,,,,,,,,,METAR,197.0
KMSV 230856Z AUTO 33003KT 10SM CLR 04/03 A3031 RMK AO2 SLP268 T00440028 53006,KMSV,2022-10-23T08:56:00Z,41.7,-74.78,4.4,2.8,330,3,,10.0,30.31004,1026.8,,TRUE,TRUE,,,,,,,CLR,,,,,,,,VFR,0.6,,,,,,,,,,,METAR,427.0
KMRF 230856Z AUTO 11006KT 10SM CLR 11/07 A2993 RMK AO2 SLP074 T01110067 58004,KMRF,2022-10-23T08:56:00Z,30.37,-104.02,11.1,6.7,110,6,,10.0,29.929134,1007.4,,TRUE,TRUE,,,,,,,CLR,,,,,,,,VFR,-0.4,,,,,,,,,,,METAR,1476.0
KMQY 230856Z 14003KT 9SM CLR 09/09 A3013 RMK AO2 SLP210 T00940089 51007,KMQY,2022-10-23T08:56:00Z,36.02,-86.52,9.4,8.9,140,3,,9.0,30.129921,1021.0,,,TRUE,,,,,,,CLR,,,,,,,,VFR,0.7,,,,,,,,,,,METAR,156.0
KMOB 230856Z AUTO 00000KT 10SM CLR 12/11 A3011 RMK AO2 SLP194 T01220106 50001,KMOB,2022-10-23T08:56:00Z,30.68,-88.25,12.2,10.6,0,0,,10.0,30.109253,1019.4,,TRUE,TRUE,,,,,,,CLR,,,,,,,,VFR,0.1,,,,,,,,,,,METAR,67.0
KMNM 230856Z AUTO VRB03KT 10SM CLR 12/11 A2989 RMK AO2 SLP119 6//// T01220111 51011 PNO $,KMNM,2022-10-23T08:56:00Z,45.12,-87.63,12.2,11.1,0,3,,10.0,29.890747,1011.9,,TRUE,TRUE,TRUE,,,,,,CLR,,,,,,,,VFR,1.1,,,,,,,,,,,METAR,188.0
KMML 230856Z AUTO 15010KT 10SM CLR 13/08 A2951 RMK AO2 SLP989 T01330083 56006,KMML,2022-10-23T08:56:00Z,44.45,-95.82,13.3,8.3,150,10,,10.0,29.509842,998.9,,TRUE,TRUE,,,,,,,CLR,,,,,,,,VFR,-0.6,,,,,,,,,,,METAR,358.0
KMKY 230856Z AUTO 02006KT 10SM CLR 19/18 A3003 RMK AO2 SLP169 T01890178 55006 TSNO $,KMKY,2022-10-23T08:56:00Z,26.0,-81.67,18.9,17.8,20,6,,10.0,30.029528,1016.9,,TRUE,TRUE,TRUE,,TRUE,,,,CLR,,,,,,,,VFR,-0.6,,,,,,,,,,,METAR,2.0
KMKT 230856Z AUTO 15014KT 10SM CLR 16/08 A2960 RMK AO2 SLP020 T01560078 58001,KMKT,2022-10-23T08:56:00Z,44.22,-93.92,15.6,7.8,150,14,,10.0,29.601377,1002.0,,TRUE,TRUE,,,,,,,CLR,,,,,,,,VFR,-0.1,,,,,,,,,,,METAR,309.0
KMHS 230856Z AUTO VRB05KT 10SM BKN030 OVC035 03/01 A2992 RMK AO2 SLP150 60001 T00330006 53008,KMHS,2022-10-23T08:56:00Z,41.32,-122.32,3.3,0.6,0,5,,10.0,29.920275,1015.0,,TRUE,TRUE,,,,,,,BKN,3000,OVC,3500,,,,,MVFR,0.8,,,,,,0.01,,,,,METAR,1080.0
KMDT 230856Z 00000KT 7SM BKN060 06/03 A3028 RMK AO2 SLP253 T00560033 53006 $,KMDT,2022-10-23T08:56:00Z,40.2,-76.77,5.6,3.3,0,0,,7.0,30.280512,1025.3,,,TRUE,TRUE,,,,,,BKN,6000,,,,,,,VFR,0.6,,,,,,,,,,,SPECI,91.0
KMBL 230856Z AUTO 09006KT 4SM BR CLR 12/10 A2995 RMK AO2 SLP142 T01170100 50005,KMBL,2022-10-23T08:56:00Z,44.27,-86.25,11.7,10.0,90,6,,4.0,29.949802,1014.2,,TRUE,TRUE,,,,,,BR,CLR,,,,,,,,MVFR,0.5,,,,,,,,,,,METAR,187.0
KM19 230856Z AUTO 18018KT 10SM CLR 18/12 A2992 RMK AO2 SLP130 6//// T01830122 53002 PNO $,KM19,2022-10-23T08:56:00Z,35.65,-91.17,18.3,12.2,180,18,,10.0,29.920275,1013.0,,TRUE,TRUE,TRUE,,,,,,CLR,,,,,,,,VFR,0.2,,,,,,,,,,,METAR,72.0
KLZU 230856Z AUTO 00000KT 10SM CLR 05/04 A3019 RMK AO2 SLP233 T00500039 51004,KLZU,2022-10-23T08:56:00Z,33.98,-83.97,5.0,3.9,0,0,,10.0,30.188976,1023.3,,TRUE,TRUE,,,,,,,CLR,,,,,,,,VFR,0.4,,,,,,,,,,,METAR,316.0
KLWS 230856Z AUTO 16006KT 10SM OVC044 05/02 A2979 RMK AO2 SLP092 60000 T00500017 52011,KLWS,2022-10-23T08:56:00Z,46.37,-117.02,5.0,1.7,160,6,,10.0,29.790354,1009.2,,TRUE,TRUE,,,,,,,OVC,4400,,,,,,,VFR,1.1,,,,,,0.005,,,,,METAR,435.0
KLRF 230856Z AUTO 19005KT 10SM OVC032 21/15 A2991 RMK AO2 SLP129 T02080147 51006,KLRF,2022-10-23T08:56:00Z,34.92,-92.12,20.8,14.7,190,5,,10.0,29.911417,1012.9,,TRUE,TRUE,,,,,,,OVC,3200,,,,,,,VFR,0.6,,,,,,,,,,,METAR,85.0
KLRD 230856Z AUTO 15014KT 10SM CLR 22/19 A2981 RMK AO2 SLP089 T02170189 58016,KLRD,2022-10-23T08:56:00Z,27.55,-99.47,21.7,18.9,150,14,,10.0,29.811024,1008.9,,TRUE,TRUE,,,,,,,CLR,,,,,,,,VFR,-1.6,,,,,,,,,,,METAR,150.0
KLPC 230856Z AUTO 00000KT 10SM CLR 09/08 A2984 RMK AO2 SLP107 T00940083 53006,KLPC,2022-10-23T08:56:00Z,34.67,-120.47,9.4,8.3,0,0,,10.0,29.840551,1010.7,,TRUE,TRUE,,,,,,,CLR,,,,,,,,VFR,0.6,,,,,,,,,,,METAR,26.0
KLNR 230856Z AUTO 12004KT 10SM CLR 19/12 A2979 RMK AO2 SLP080 T01890117 51000,KLNR,2022-10-23T08:56:00Z,43.22,-90.18,18.9,11.7,120,4,,10.0,29.790354,1008.0,,TRUE,TRUE,,,,,,,CLR,,,,,,,,VFR,0.0,,,,,,,,,,,METAR,218.0
KLGD 230856Z AUTO 33006KT 10SM OVC033 03/02 A2983 RMK AO2 RAE01 SLP111 P0000 60004 T00330017 53017,KLGD,2022-10-23T08:56:00Z,45.28,-118.0,3.3,1.7,330,6,,10.0,29.828741,1011.1,,TRUE,TRUE,,,,,,,OVC,3300,,,,,,,VFR,1.7,,,,,0.005,0.04,,,,,METAR,827.0
KLEW 230856Z AUTO 00000KT 8SM CLR 03/03 A3033 RMK AO2 SLP280 T00330033 53005,KLEW,2022-10-23T08:56:00Z,44.03,-70.28,3.3,3.3,0,0,,8.0,30.33071,1028.0,,TRUE,TRUE,,,,,,,CLR,,,,,,,,VFR,0.5,,,,,,,,,,,METAR,81.0
KLCI 230856Z AUTO 00000KT 10SM CLR 06/06 A3032 RMK AO2 SLP269 T00560056 55001,KLCI,2022-10-23T08:56:00Z,43.57,-71.42,5.6,5.6,0,0,,10.0,30.318897,1026.9,,TRUE,TRUE,,,,,,,CLR,,,,,,,,VFR,-0.1,,,,,,,,,,,METAR,166.0
KLBT 230856Z AUTO 35004KT 10SM CLR 12/11 A3014 RMK AO2 SLP205 T01220106 56001 TSNO,KLBT,2022-10-23T08:56:00Z,34.6,-79.07,12.2,10.6,350,4,,10.0,30.138779,1020.5,,TRUE,TRUE,,,TRUE,,,,CLR,,,,,,,,VFR,-0.1,,,,,,,,,,,METAR,37.0
KLBL 230856Z AUTO 20009KT 10SM CLR 16/09 A2954 RMK AO2 SLP968 T01560089 56006,KLBL,2022-10-23T08:56:00Z,37.03,-100.97,15.6,8.9,200,9,,10.0,29.53937,996.8,,TRUE,TRUE,,,,,,,CLR,,,,,,,,VFR,-0.6,,,,,,,,,,,METAR,877.0
KLAS 230856Z 06015KT 10SM OVC060 14/04 A2966 RMK AO2 PK WND 33030/0802 WSHFT 0831 SLP026 T01440044 51022,KLAS,2022-10-23T08:56:00Z,36.07,-115.17,14.4,4.4,60,15,,10.0,29.660433,1002.6,,,TRUE,,,,,,,OVC,6000,,,,,,,VFR,2.2,,,,,,,,,,,METAR,662.0
KJXN 230856Z AUTO 13004KT 10SM CLR 13/09 A3007 RMK AO2 SLP180 T01280089 51004,KJXN,2022-10-23T08:56:00Z,42.27,-84.47,12.8,8.9,130,4,,10.0,30.070866,1018.0,,TRUE,TRUE,,,,,,,CLR,,,,,,,,VFR,0.4,,,,,,,,,,,METAR,303.0
KJRB 230856Z AUTO 04006KT 10SM OVC045 A3028 RMK AO2 SLPNO 54000 FZRANO $,KJRB,2022-10-23T08:56:00Z,40.7,-74.02,,,40,6,,10.0,30.280512,,,TRUE,TRUE,TRUE,,,TRUE,,,OVC,4500,,,,,,,VFR,,,,,,,,,,,,METAR,2.0
KJMS 230856Z AUTO 05007KT 10SM CLR 05/02 A2950 RMK AO2 SLP994 T00500022 55008,KJMS,2022-10-23T08:56:00Z,46.93,-98.67,5.0,2.2,50,7,,10.0,29.500984,999.4,,TRUE,TRUE,,,,,,,CLR,,,,,,,,VFR,-0.8,,,,,,,,,,,SPECI,455.0
KJHW 230856Z AUTO 18005KT 10SM CLR 09/02 A3023 RMK AO2 SLP241 T00940017 53003,KJHW,2022-10-23T08:56:00Z,42.15,-79.27,9.4,1.7,180,5,,10.0,30.230314,1024.1,,TRUE,TRUE,,,,,,,CLR,,,,,,,,VFR,0.3,,,,,,,,,,,METAR,520.0
KJAX 230856Z 00000KT 10SM CLR 12/09 A3010 RMK AO2 SLP193 T01170094 53002,KJAX,2022-10-23T08:56:00Z,30.5,-81.68,11.7,9.4,0,0,,10.0,30.100393,1019.3,,,TRUE,,,,,,,CLR,,,,,,,,VFR,0.2,,,,,,,,,,,METAR,8.0
KJAC 230856Z AUTO 17007KT 6SM -SN BR FEW026 OVC041 M01/M02 A2952 RMK AO2 UPB39E41SNB41 SLP002 6//// T10061022 55008 FZRANO PNO $,KJAC,2022-10-23T08:56:00Z,43.62,-110.73,-0.6,-2.2,170,7,,6.0,29.518702,1000.2,,TRUE,TRUE,TRUE,,,TRUE,,-SN BR,FEW,2600,OVC,4100,,,,,VFR,-0.8,,,,,,,,,,,METAR,1967.0
KIWD 230856Z AUTO 17012G25KT 10SM CLR 17/ A2973 RMK AO2 SLP066 T0167 51013,KIWD,2022-10-23T08:56:00Z,46.52,-90.12,16.7,,170,12,25,10.0,29.731298,1006.6,,TRUE,TRUE,,,,,,,CLR,,,,,,,,VFR,1.3,,,,,,,,,,,METAR,373.0
KISP 230856Z AUTO 03005KT 10SM OVC043 14/12 A3027 RMK AO2 SLP249 T01390122 55002,KISP,2022-10-23T08:56:00Z,40.8,-73.1,13.9,12.2,30,5,,10.0,30.268702,1024.9,,TRUE,TRUE,,,,,,,OVC,4300,,,,,,,VFR,-0.2,,,,,,,,,,,METAR,25.0
KISM 230856Z AUTO 34004KT 10SM CLR 17/15 A3008 RMK AO2 SLP185 6//// T01670150 52001 PNO $,KISM,2022-10-23T08:56:00Z,28.28,-81.43,16.7,15.0,340,4,,10.0,30.079725,1018.5,,TRUE,TRUE,TRUE,,,,,,CLR,,,,,,,,VFR,0.1,,,,,,,,,,,METAR,25.0
KINW 230856Z AUTO 21017G31KT 10SM CLR 14/05 A2968 RMK AO2 PK WND 21041/0830 SLP988 T01390050 52008,KINW,2022-10-23T08:56:00Z,35.03,-110.72,13.9,5.0,210,17,31,10.0,29.681103,998.8,,TRUE,TRUE,,,,,,,CLR,,,,,,,,VFR,0.8,,,,,,,,,,,METAR,1492.0
KILE 230856Z AUTO 19017G23KT 10SM OVC020 22/18 A2984 RMK AO2 PK WND 20026/0820 SLP094 T02170178 55002,KILE,2022-10-23T08:56:00Z,31.08,-97.68,21.7,17.8,190,17,23,10.0,29.840551,1009.4,,TRUE,TRUE,,,,,,,OVC,2000,,,,,,,MVFR,-0.2,,,,,,,,,,,METAR,256.0
KHYS 230856Z AUTO 00000KT 10SM CLR 13/01 A2942 RMK AO2 SLP946 6//// T01280011 58001 $,KHYS,2022-10-23T08:56:00Z,38.85,-99.27,12.8,1.1,0,0,,10.0,29.421259,994.6,,TRUE,TRUE,TRUE,,,,,,CLR,,,,,,,,VFR,-0.1,,,,,,,,,,,METAR,607.0
KHYI 230856Z AUTO 20004KT 10SM CLR RMK AO2 SLPNO FZRANO $,KHYI,2022-10-23T08:56:00Z,29.88,-97.87,,,200,4,,10.0,,,,TRUE,TRUE,TRUE,,,TRUE,,,CLR,,,,,,,,VFR,,,,,,,,,,,,METAR,180.0
KHYA 230856Z AUTO 05003KT 10SM 12/12 A3028 RMK AO2 SLP256 T01170117 58008 $,KHYA,2022-10-23T08:56:00Z,41.67,-70.27,11.7,11.7,50,3,,10.0,30.280512,1025.6,,TRUE,TRUE,TRUE,,,,,,,,,,,,,,,-0.8,,,,,,,,,,,SPECI,11.0
KHWV 230856Z AUTO 00000KT 10SM BKN045 13/11 A3028 RMK AO2 SLP252 T01280106 55002,KHWV,2022-10-23T08:56:00Z,40.82,-72.87,12.8,10.6,0,0,,10.0,30.280512,1025.2,,TRUE,TRUE,,,,,,,BKN,4500,,,,,,,VFR,-0.2,,,,,,,,,,,METAR,20.0
KHPN 230856Z 03005KT 10SM BKN040 13/09 A3027 RMK AO2 SLP249 T01280089 56003 $,KHPN,2022-10-23T08:56:00Z,41.07,-73.7,12.8,8.9,30,5,,10.0,30.268702,1024.9,,,TRUE,TRUE,,,,,,BKN,4000,,,,,,,VFR,-0.3,,,,,,,,,,,METAR,113.0
KHND 230856Z AUTO 05012KT 10SM OVC065 14/04 A2968 RMK AO2 SLP047 T01390044 51033,KHND,2022-10-23T08:56:00Z,35.98,-115.13,13.9,4.4,50,12,,10.0,29.681103,1004.7,,TRUE,TRUE,,,,,,,OVC,6500,,,,,,,VFR,3.3,,,,,,,,,,,METAR,740.0
KHNB 230856Z AUTO 19011KT 10SM OVC070 19/12 A3006 RMK AO2 SLP176 T01890117 51005,KHNB,2022-10-23T08:56:00Z,38.25,-86.95,18.9,11.7,190,11,,10.0,30.059055,1017.6,,TRUE,TRUE,,,,,,,OVC,7000,,,,,,,VFR,0.5,,,,,,,,,,,METAR,159.0
KHEZ 230856Z AUTO 13010KT 10SM CLR 16/14 A3004 RMK AO2 SLP172 T01610144 55002,KHEZ,2022-10-23T08:56:00Z,31.62,-91.3,16.1,14.4,130,10,,10.0,30.041338,1017.2,,TRUE,TRUE,,,,,,,CLR,,,,,,,,VFR,-0.2,,,,,,,,,,,METAR,82.0
KHEF 230856Z AUTO 00000KT 10SM CLR 03/02 A3026 RMK AO2 SLP253 T00280022 51004,KHEF,2022-10-23T08:56:00Z,38.72,-77.52,2.8,2.2,0,0,,10.0,30.259842,1025.3,,TRUE,TRUE,,,,,,,CLR,,,,,,,,VFR,0.4,,,,,,,,,,,METAR,53.0
KGXY 230856Z 36006KT 10SM CLR 05/M05 A2933 RMK AO2 SLP908 T00501050 58017 $,KGXY,2022-10-23T08:56:00Z,40.43,-104.62,5.0,-5.0,360,6,,10.0,29.329725,990.8,,,TRUE,TRUE,,,,,,CLR,,,,,,,,VFR,-1.7,,,,,,,,,,,METAR,1420.0
KGVQ 230856Z AUTO 20008KT 10SM CLR 11/03 A3020 RMK AO2 SLP227 T01110028 52003,KGVQ,2022-10-23T08:56:00Z,43.03,-78.17,11.1,2.8,200,8,,10.0,30.200787,1022.7,,TRUE,TRUE,,,,,,,CLR,,,,,,,,VFR,0.3,,,,,,,,,,,METAR,279.0
KGUC 230856Z AUTO 18011G19KT 10SM FEW075 BKN100 10/M01 A2956 RMK AO2 SLP927 T01001011 56019,KGUC,2022-10-23T08:56:00Z,38.52,-106.93,10.0,-1.1,180,11,19,10.0,29.56004,992.7,,TRUE,TRUE,,,,,,,FEW,7500,BKN,10000,,,,,VFR,-1.9,,,,,,,,,,,METAR,2337.0
KGTU 230856Z AUTO 19012KT 10SM OVC018 21/18 A2987 RMK AO2 SLP108 T02110178 55001,KGTU,2022-10-23T08:56:00Z,30.68,-97.68,21.1,17.8,190,12,,10.0,29.870079,1010.8,,TRUE,TRUE,,,,,,,OVC,1800,,,,,,,MVFR,-0.1,,,,,,,,,,,METAR,232.0
KGTR 230856Z AUTO 15006KT 10SM CLR 14/12 A3011 RMK AO2 SLP201 T01440117 53008,KGTR,2022-10-23T08:56:00Z,33.45,-88.58,14.4,11.7,150,6,,10.0,30.109253,1020.1,,TRUE,TRUE,,,,,,,CLR,,,,,,,,VFR,0.8,,,,,,,,,,,METAR,80.0
KGRD 230856Z AUTO 36004KT 10SM BKN047 07/03 A3021 RMK AO2 SLP225 T00720033 53005,KGRD,2022-10-23T08:56:00Z,34.25,-82.15,7.2,3.3,360,4,,10.0,30.209646,1022.5,,TRUE,TRUE,,,,,,,BKN,4700,,,,,,,VFR,0.5,,,,,,,,,,,METAR,188.0
KGPZ 230856Z AUTO 13004KT 10SM CLR 08/06 A2963 RMK AO2 SLP038 T00780061 50005,KGPZ,2022-10-23T08:56:00Z,47.22,-93.52,7.8,6.1,130,4,,10.0,29.630905,1003.8,,TRUE,TRUE,,,,,,,CLR,,,,,,,,VFR,0.5,,,,,,,,,,,METAR,410.0
KGON 230856Z AUTO 35007KT 10SM CLR 11/08 A3029 RMK AO2 SLP257 T01110083 55002,KGON,2022-10-23T08:56:00Z,41.33,-72.05,11.1,8.3,350,7,,10.0,30.28937,1025.7,,TRUE,TRUE,,,,,,,CLR,,,,,,,,VFR,-0.2,,,,,,,,,,,SPECI,2.0
KGNR 230856Z AUTO 00000KT 11/03 A3031 RMK AO1 SLP268 T01060028 53008,KGNR,2022-10-23T08:56:00Z,45.47,-69.55,10.6,2.8,0,0,,,30.31004,1026.8,,TRUE,TRUE,,,,,,,,,,,,,,,,0.8,,,,,,,,,,,METAR,426.0
KGNA 230856Z AUTO 07005KT 09/07 A2973 RMK AO1 SLP069 T00940072 51005,KGNA,2022-10-23T08:56:00Z,47.75,-90.35,9.4,7.2,70,5,,,29.731298,1006.9,,TRUE,TRUE,,,,,,,,,,,,,,,,0.5,,,,,,,,,,,METAR,186.0
KGDV 230856Z AUTO 05011KT 10SM CLR 07/06 A2943 RMK AO2 SLP973 T00670056 58006,KGDV,2022-10-23T08:56:00Z,47.13,-104.8,6.7,5.6,50,11,,10.0,29.430119,997.3,,TRUE,TRUE,,,,,,,CLR,,,,,,,,VFR,-0.6,,,,,,,,,,,METAR,749.0
KGBD 230856Z AUTO 19012KT 10SM CLR 19/09 A2944 RMK AO2 SLP950 T01940089 58001,KGBD,2022-10-23T08:56:00Z,38.35,-98.87,19.4,8.9,190,12,,10.0,29.438976,995.0,,TRUE,TRUE,,,,,,,CLR,,,,,,,,VFR,-0.1,,,,,,,,,,,METAR,573.0
KGAI 230856Z AUTO 00000KT 10SM CLR 04/04 A3026 RMK AO2 SLP262 T00440039 52003,KGAI,2022-10-23T08:56:00Z,39.17,-77.17,4.4,3.9,0,0,,10.0,30.259842,1026.2,,TRUE,TRUE,,,,,,,CLR,,,,,,,,VFR,0.3,,,,,,,,,,,METAR,151.0
KGAD 230856Z AUTO 00000KT 10SM CLR 07/06 A3017 RMK AO2 SLP221 T00670061 51005 $,KGAD,2022-10-23T08:56:00Z,33.97,-86.08,6.7,6.1,0,0,,10.0,30.171259,1022.1,,TRUE,TRUE,TRUE,,,,,,CLR,,,,,,,,VFR,0.5,,,,,,,,,,,METAR,169.0
KFSD 230856Z AUTO 11004KT 10SM CLR 12/07 A2947 RMK AO2 SLP971 T01220072 58013,KFSD,2022-10-23T08:56:00Z,43.58,-96.75,12.2,7.2,110,4,,10.0,29.471457,997.1,,TRUE,TRUE,,,,,,,CLR,,,,,,,,VFR,-1.3,,,,,,,,,,,METAR,433.0
KFRM 230856Z AUTO 14017KT 10SM CLR 15/08 A2957 RMK AO2 SLP010 T01500083 58005,KFRM,2022-10-23T08:56:00Z,43.63,-94.42,15.0,8.3,140,17,,10.0,29.568897,1001.0,,TRUE,TRUE,,,,,,,CLR,,,,,,,,VFR,-0.5,,,,,,,,,,,METAR,353.0
KFOD 230856Z AUTO 13009KT 10SM CLR 16/10 A2959 RMK AO2 SLP026 T01560100 58005,KFOD,2022-10-23T08:56:00Z,42.53,-94.17,15.6,10.0,130,9,,10.0,29.589567,1002.6,,TRUE,TRUE,,,,,,,CLR,,,,,,,,VFR,-0.5,,,,,,,,,,,METAR,347.0
KFNL 230856Z 04007KT 10SM CLR 10/M02 A2934 RMK AO2 SLP881 T01001022 58017,KFNL,2022-10-23T08:56:00Z,40.45,-105.02,10.0,-2.2,40,7,,10.0,29.338583,988.1,,,TRUE,,,,,,,CLR,,,,,,,,VFR,-1.7,,,,,,,,,,,METAR,1529.0
KFLP 230856Z AUTO 19008G19KT 150V220 10SM CLR 20/14 A2983 RMK AO2 SLP094 T02000139 58000,KFLP,2022-10-23T08:56:00Z,36.28,-92.58,20.0,13.9,190,8,19,10.0,29.828741,1009.4,,TRUE,TRUE,,,,,,,CLR,,,,,,,,VFR,0.0,,,,,,,,,,,METAR,215.0
KFKL 230856Z AUTO 11004KT 10SM CLR 06/03 A3023 RMK AO2 SLP239 T00610028 51006,KFKL,2022-10-23T08:56:00Z,41.37,-79.87,6.1,2.8,110,4,,10.0,30.230314,1023.9,,TRUE,TRUE,,,,,,,CLR,,,,,,,,VFR,0.6,,,,,,,,,,,METAR,468.0
KFCI 230856Z AUTO 33005KT 10SM CLR 08/08 A3020 RMK AO2 SLP236 T00830083 58004,KFCI,2022-10-23T08:56:00Z,37.4,-77.52,8.3,8.3,330,5,,10.0,30.200787,1023.6,,TRUE,TRUE,,,,,,,CLR,,,,,,,,VFR,-0.4,,,,,,,,,,,METAR,63.0
KFAM 230856Z AUTO 16014G18KT 10SM SCT100 SCT120 18/11 A2989 RMK AO2 SLP124 T01780111 55002,KFAM,2022-10-23T08:56:00Z,37.77,-90.42,17.8,11.1,160,14,18,10.0,29.890747,1012.4,,TRUE,TRUE,,,,,,,SCT,10000,SCT,12000,,,,,VFR,-0.2,,,,,,,,,,,METAR,276.0
KEWK 230856Z AUTO 18023G27KT 10SM CLR 21/12 A2950 RMK AO2 PK WND 18027/0855 SLP973 T02110122 56009,KEWK,2022-10-23T08:56:00Z,38.05,-97.27,21.1,12.2,180,23,27,10.0,29.500984,997.3,,TRUE,TRUE,,,,,,,CLR,,,,,,,,VFR,-0.9,,,,,,,,,,,METAR,468.0
KESC 230856Z AUTO 15004KT 10SM CLR 12/12 A2989 RMK AO2 SLP127 6//// T01170117 51011 PNO $,KESC,2022-10-23T08:56:00Z,45.72,-87.08,11.7,11.7,150,4,,10.0,29.890747,1012.7,,TRUE,TRUE,TRUE,,,,,,CLR,,,,,,,,VFR,1.1,,,,,,,,,,,METAR,180.0
KENV 230856Z AUTO 32012G20KT 10SM SCT080 OVC100 05/M03 A2963 RMK AO2 SLP034 T00501028 53003,KENV,2022-10-23T08:56:00Z,40.72,-114.02,5.0,-2.8,320,12,20,10.0,29.630905,1003.4,,TRUE,TRUE,,,,,,,SCT,8000,OVC,10000,,,,,VFR,0.3,,,,,,,,,,,METAR,1291.0
KELZ 230856Z AUTO 00000KT 10SM CLR 08/01 A3026 RMK AO2 SLP247 T00830011 55001,KELZ,2022-10-23T08:56:00Z,42.1,-77.98,8.3,1.1,0,0,,10.0,30.259842,1024.7,,TRUE,TRUE,,,,,,,CLR,,,,,,,,VFR,-0.1,,,,,,,,,,,METAR,639.0
KEKY 230856Z AUTO 13003KT 10SM CLR 12/07 A3015 RMK AO2 SLP057 T01220072 51006,KEKY,2022-10-23T08:56:00Z,33.32,-86.93,12.2,7.2,130,3,,10.0,30.15059,1005.7,,TRUE,TRUE,,,,,,,CLR,,,,,,,,VFR,0.6,,,,,,,,,,,METAR,213.0
KEKQ 230856Z AUTO 17004KT 10SM CLR 11/08 A3019 RMK AO2 SLP215 T01110078 53011,KEKQ,2022-10-23T08:56:00Z,36.85,-84.85,11.1,7.8,170,4,,10.0,30.188976,1021.5,,TRUE,TRUE,,,,,,,CLR,,,,,,,,VFR,1.1,,,,,,,,,,,METAR,291.0
KEKO 230856Z AUTO 22007KT 10SM BKN060 OVC085 01/M02 A2972 RMK AO2 SLP070 T00061017 53013,KEKO,2022-10-23T08:56:00Z,40.82,-115.78,0.6,-1.7,220,7,,10.0,29.719488,1007.0,,TRUE,TRUE,,,,,,,BKN,6000,OVC,8500,,,,,VFR,1.3,,,,,,,,,,,METAR,1541.0
KEHR 230856Z AUTO 18013G20KT 10SM OVC055 19/11 A3003 RMK AO2 SLP168 T01940106 53004,KEHR,2022-10-23T08:56:00Z,37.82,-87.67,19.4,10.6,180,13,20,10.0,30.029528,1016.8,,TRUE,TRUE,,,,,,,OVC,5500,,,,,,,VFR,0.4,,,,,,,,,,,METAR,117.0
KEGE 230856Z AUTO 19015G20KT 10SM FEW070 OVC090 14/M02 A2944 RMK AO2 WSHFT 0753 RAB37E50 SLP915 P0000 60000 T01391022 58029,KEGE,2022-10-23T08:56:00Z,39.63,-106.92,13.9,-2.2,190,15,20,10.0,29.438976,991.5,,TRUE,TRUE,,,,,,,FEW,7000,OVC,9000,,,,,VFR,-2.9,,,,,0.005,0.005,,,,,METAR,1993.0
KEEN 230856Z AUTO 19003KT 9SM CLR 03/03 A3033 RMK AO2 SLP278 T00280028 58002 $,KEEN,2022-10-23T08:56:00Z,42.88,-72.27,2.8,2.8,190,3,,9.0,30.33071,1027.8,,TRUE,TRUE,TRUE,,,,,,CLR,,,,,,,,VFR,-0.2,,,,,,,,,,,METAR,143.0
KEED 230856Z AUTO 26017G27KT 10SM CLR 22/06 A2963 RMK AO2 PK WND 27027/0850 SLP005 T02170056 51023,KEED,2022-10-23T08:56:00Z,34.77,-114.62,21.7,5.6,260,17,27,10.0,29.630905,1000.5,,TRUE,TRUE,,,,,,,CLR,,,,,,,,VFR,2.3,,,,,,,,,,,METAR,271.0
KEAU 230856Z AUTO 14006KT 10SM CLR 16/08 A2971 RMK AO2 SLP056 T01560083 51009,KEAU,2022-10-23T08:56:00Z,44.87,-91.48,15.6,8.3,140,6,,10.0,29.71063,1005.6,,TRUE,TRUE,,,,,,,CLR,,,,,,,,VFR,0.9,,,,,,,,,,,SPECI,271.0
KDYR 230856Z AUTO 15005KT 10SM CLR 17/12 A3001 RMK AO2 SLP167 T01720122 53006,KDYR,2022-10-23T08:56:00Z,36.0,-89.4,17.2,12.2,150,5,,10.0,30.008858,1016.7,,TRUE,TRUE,,,,,,,CLR,,,,,,,,VFR,0.6,,,,,,,,,,,METAR,98.0
KDWU 230856Z AUTO 11003KT 10SM CLR 09/ A3018 RMK AO2 SLP219 T0094 53011,KDWU,2022-10-23T08:56:00Z,38.55,-82.73,9.4,,110,3,,10.0,30.180119,1021.9,,TRUE,TRUE,,,,,,,CLR,,,,,,,,VFR,1.1,,,,,,,,,,,METAR,165.0
KDVL 230856Z AUTO 04013KT 10SM CLR 07/05 A2958 RMK AO2 SLP036 T00670050 50011,KDVL,2022-10-23T08:56:00Z,48.12,-98.92,6.7,5.0,40,13,,10.0,29.58071,1003.6,,TRUE,TRUE,,,,,,,CLR,,,,,,,,VFR,1.1,,,,,,,,,,,METAR,439.0
KDAY 230856Z 16008KT 10SM OVC190 16/09 A3013 RMK AO2 SLP196 T01560089 51007,KDAY,2022-10-23T08:56:00Z,39.9,-84.22,15.6,8.9,160,8,,10.0,30.129921,1019.6,,,TRUE,,,,,,,OVC,19000,,,,,,,VFR,0.7,,,,,,,,,,,SPECI,303.0
KD07 230856Z AUTO 06007KT 04/01 A2935 RMK AO1 SLP944 T00440006 58013,KD07,2022-10-23T08:56:00Z,45.03,-102.02,4.4,0.6,60,7,,,29.350393,994.4,,TRUE,TRUE,,,,,,,,,,,,,,,,-1.3,,,,,,,,,,,METAR,786.0
KCXY 230856Z AUTO 00000KT 9SM CLR 06/03 A3028 RMK AO2 SLP256 T00610033 53007,KCXY,2022-10-23T08:56:00Z,40.22,-76.85,6.1,3.3,0,0,,9.0,30.280512,1025.6,,TRUE,TRUE,,,,,,,CLR,,,,,,,,VFR,0.7,,,,,,,,,,,SPECI,102.0
KCWI 230856Z AUTO 15010KT 10SM CLR 16/12 A2980 RMK AO2 SLP092 T01560122 56005,KCWI,2022-10-23T08:56:00Z,41.82,-90.32,15.6,12.2,150,10,,10.0,29.799213,1009.2,,TRUE,TRUE,,,,,,,CLR,,,,,,,,VFR,-0.5,,,,,,,,,,,METAR,212.0
KCVO 230856Z AUTO 20005KT 10SM -RA OVC044 07/07 A3000 RMK AO2 RAB36 SLP160 P0000 60001 T00720067 51016,KCVO,2022-10-23T08:56:00Z,44.5,-123.28,7.2,6.7,200,5,,10.0,30.0,1016.0,,TRUE,TRUE,,,,,,-RA,OVC,4400,,,,,,,VFR,1.6,,,,,0.005,0.01,,,,,METAR,75.0
KCVN 230856Z AUTO 20009KT 10SM CLR 15/09 A2974 RMK AO2 SLP032 T01500094 58008,KCVN,2022-10-23T08:56:00Z,34.42,-103.07,15.0,9.4,200,9,,10.0,29.740158,1003.2,,TRUE,TRUE,,,,,,,CLR,,,,,,,,VFR,-0.8,,,,,,,,,,,METAR,1278.0
KCTB 230856Z AUTO 35020KT 1SM -SN BR VV005 M01/M01 A2966 RMK AO2 PK WND 34027/0843 SLP064 P0000 60000 T10061006 51004,KCTB,2022-10-23T08:56:00Z,48.6,-112.37,-0.6,-0.6,350,20,,1.0,29.660433,1006.4,,TRUE,TRUE,,,,,,-SN BR,OVX,0,,,,,,,LIFR,0.4,,,,,0.005,0.005,,,,500,METAR,1172.0
KCOD 230856Z AUTO 01008KT 10SM BKN007 OVC075 02/01 A2947 RMK AO2 SLP966 T00220011 53002 FZRANO,KCOD,2022-10-23T08:56:00Z,44.52,-109.02,2.2,1.1,10,8,,10.0,29.471457,996.6,,TRUE,TRUE,,,,TRUE,,,BKN,700,OVC,7500,,,,,IFR,0.2,,,,,,,,,,,METAR,1550.0
KCIU 230856Z AUTO 12008KT 10SM CLR 09/08 A2998 RMK AO2 SLP153 T00940083 51011,KCIU,2022-10-23T08:56:00Z,46.25,-84.47,9.4,8.3,120,8,,10.0,29.97933,1015.3,,TRUE,TRUE,,,,,,,CLR,,,,,,,,VFR,1.1,,,,,,,,,,,METAR,242.0
KCHS 230856Z 34006KT 10SM CLR 11/10 A3013 RMK AO2 SLP201 T01110100 53003,KCHS,2022-10-23T08:56:00Z,32.9,-80.03,11.1,10.0,340,6,,10.0,30.129921,1020.1,,,TRUE,,,,,,,CLR,,,,,,,,VFR,0.3,,,,,,,,,,,METAR,12.0
KCGZ 230856Z AUTO 19009KT 10SM CLR 20/13 A2973 RMK AO2 SLP054 T02000128 53005 $,KCGZ,2022-10-23T08:56:00Z,32.95,-111.77,20.0,12.8,190,9,,10.0,29.731298,1005.4,,TRUE,TRUE,TRUE,,,,,,CLR,,,,,,,,VFR,0.5,,,,,,,,,,,METAR,444.0
KCEC 230856Z AUTO 00000KT 8SM FEW050 08/06 A3004 RMK AO2 SLP173 T00780061 51013,KCEC,2022-10-23T08:56:00Z,41.78,-124.23,7.8,6.1,0,0,,8.0,30.041338,1017.3,,TRUE,TRUE,,,,,,,FEW,5000,,,,,,,VFR,1.3,,,,,,,,,,,METAR,17.0
KCAE 230856Z 00000KT 10SM CLR 07/05 A3015 RMK AO2 SLP209 T00670050 58002,KCAE,2022-10-23T08:56:00Z,33.93,-81.12,6.7,5.0,0,0,,10.0,30.15059,1020.9,,,TRUE,,,,,,,CLR,,,,,,,,VFR,-0.2,,,,,,,,,,,METAR,69.0
KBVX 230856Z AUTO 17010G15KT 10SM CLR 19/13 A2992 RMK AO2 SLP128 T01890133 53008,KBVX,2022-10-23T08:56:00Z,35.73,-91.65,18.9,13.3,170,10,15,10.0,29.920275,1012.8,,TRUE,TRUE,,,,,,,CLR,,,,,,,,VFR,0.8,,,,,,,,,,,METAR,137.0
KBTP 230856Z AUTO 03004KT 10SM CLR 05/03 A3022 RMK AO2 SLP241 T00500028 53005 TSNO,KBTP,2022-10-23T08:56:00Z,40.77,-79.95,5.0,2.8,30,4,,10.0,30.221457,1024.1,,TRUE,TRUE,,,TRUE,,,,CLR,,,,,,,,VFR,0.5,,,,,,,,,,,METAR,375.0
KBOK 230856Z AUTO 00000KT 10SM CLR 07/07 A3004 RMK AO2 RAE08 SLP175 P0000 60000 T00670067 51014 $,KBOK,2022-10-23T08:56:00Z,42.07,-124.28,6.7,6.7,0,0,,10.0,30.041338,1017.5,,TRUE,TRUE,TRUE,,,,,,CLR,,,,,,,,VFR,1.4,,,,,0.005,0.005,,,,,METAR,140.0
KBMI 230856Z AUTO 16014KT 10SM CLR 15/11 A2990 RMK AO2 SLP115 T01500111 56007,KBMI,2022-10-23T08:56:00Z,40.47,-88.92,15.0,11.1,160,14,,10.0,29.899607,1011.5,,TRUE,TRUE,,,,,,,CLR,,,,,,,,VFR,-0.7,,,,,,,,,,,METAR,262.0
KBLM 230856Z AUTO 36003KT 10SM OVC041 13/13 A3026 RMK AO2 SLP247 T01280128 55004,KBLM,2022-10-23T08:56:00Z,40.17,-74.12,12.8,12.8,360,3,,10.0,30.259842,1024.7,,TRUE,TRUE,,,,,,,OVC,4100,,,,,,,VFR,-0.4,,,,,,,,,,,METAR,45.0
KBKX 230856Z AUTO 13012KT 10SM CLR A2947 RMK AO2 SLPNO 6//// 58013 FZRANO $,KBKX,2022-10-23T08:56:00Z,44.3,-96.82,,,130,12,,10.0,29.471457,,,TRUE,TRUE,TRUE,,,TRUE,,,CLR,,,,,,,,VFR,-1.3,,,,,,,,,,,METAR,494.0
KBJJ 230856Z AUTO 13003KT 10SM CLR 08/06 A3019 RMK AO2 SLP222 T00780061 53012,KBJJ,2022-10-23T08:56:00Z,40.87,-81.88,7.8,6.1,130,3,,10.0,30.188976,1022.2,,TRUE,TRUE,,,,,,,CLR,,,,,,,,VFR,1.2,,,,,,,,,,,METAR,338.0
KBIH 230856Z AUTO 30005KT 10SM CLR 06/M07 A2978 RMK AO2 SLP050 T00561072 51020,KBIH,2022-10-23T08:56:00Z,37.37,-118.35,5.6,-7.2,300,5,,10.0,29.778543,1005.0,,TRUE,TRUE,,,,,,,CLR,,,,,,,,VFR,2.0,,,,,,,,,,,METAR,1252.0
KBID 230856Z AUTO 04009KT 10SM SCT110 14/12 A3029 RMK AO2 SLP259 T01390122 55003,KBID,2022-10-23T08:56:00Z,41.17,-71.58,13.9,12.2,40,9,,10.0,30.28937,1025.9,,TRUE,TRUE,,,,,,,SCT,11000,,,,,,,VFR,-0.3,,,,,,,,,,,METAR,32.0
KAUO 230856Z AUTO 08004KT 10SM CLR 11/04 A3018 RMK AO2 SLP238 T01110044 53004,KAUO,2022-10-23T08:56:00Z,32.62,-85.43,11.1,4.4,80,4,,10.0,30.180119,1023.8,,TRUE,TRUE,,,,,,,CLR,,,,,,,,VFR,0.4,,,,,,,,,,,METAR,231.0
KASH 230856Z AUTO 00000KT 10SM CLR 03/ A3033 RMK AO2 SLP277 T0033 53002 $,KASH,2022-10-23T08:56:00Z,42.78,-71.52,3.3,,0,0,,10.0,30.33071,1027.7,,TRUE,TRUE,TRUE,,,,,,CLR,,,,,,,,VFR,0.2,,,,,,,,,,,METAR,56.0
KART 230856Z AUTO 00000KT 10SM CLR 09/03 A3024 RMK AO2 SLP238 T00940028 52006,KART,2022-10-23T08:56:00Z,43.98,-76.03,9.4,2.8,0,0,,10.0,30.239174,1023.8,,TRUE,TRUE,,,,,,,CLR,,,,,,,,VFR,0.6,,,,,,,,,,,METAR,100.0
KARG 230856Z AUTO 18015KT 10SM CLR 19/13 A2991 RMK AO2 SLP128 T01940128 51005,KARG,2022-10-23T08:56:00Z,36.12,-90.92,19.4,12.8,180,15,,10.0,29.911417,1012.8,,TRUE,TRUE,,,,,,,CLR,,,,,,,,VFR,0.5,,,,,,,,,,,METAR,82.0
KAND 230856Z AUTO 00000KT 10SM CLR 06/04 A3019 RMK AO2 SLP219 T00560039 50003,KAND,2022-10-23T08:56:00Z,34.5,-82.72,5.6,3.9,0,0,,10.0,30.188976,1021.9,,TRUE,TRUE,,,,,,,CLR,,,,,,,,VFR,0.3,,,,,,,,,,,METAR,233.0
KALK 230856Z AUTO 22023G35KT 10SM CLR 17/09 A2985 RMK AO2 PK WND 22037/0846 SLP022 T01670094 58008,KALK,2022-10-23T08:56:00Z,31.6,-110.43,16.7,9.4,220,23,35,10.0,29.84941,1002.2,,TRUE,TRUE,,,,,,,CLR,,,,,,,,VFR,-0.8,,,,,,,,,,,METAR,1451.0
KAJO 230856Z AUTO 11003KT 10SM CLR 16/13 A2978 RMK AO2 SLP080 T01560128 58000,KAJO,2022-10-23T08:56:00Z,33.9,-117.6,15.6,12.8,110,3,,10.0,29.778543,1008.0,,TRUE,TRUE,,,,,,,CLR,,,,,,,,VFR,0.0,,,,,,,,,,,METAR,161.0
KAIZ 230856Z AUTO 17009KT 10SM CLR 19/13 RMK AO2 SLPNO T01940133 $,KAIZ,2022-10-23T08:56:00Z,38.1,-92.53,19.4,13.3,170,9,,10.0,,,,TRUE,TRUE,TRUE,,,,,,CLR,,,,,,,,VFR,,,,,,,,,,,,METAR,263.0
KAFJ 230856Z AUTO 00000KT 10SM CLR 02/02 A3024 RMK AO2 SLP240 T00220022 53007 FZRANO,KAFJ,2022-10-23T08:56:00Z,40.13,-80.28,2.2,2.2,0,0,,10.0,30.239174,1024.0,,TRUE,TRUE,,,,TRUE,,,CLR,,,,,,,,VFR,0.7,,,,,,,,,,,METAR,360.0
KADF 230856Z AUTO 18005KT 10SM CLR 19/16 A2994 RMK AO2 SLP137 T01940156 51006,KADF,2022-10-23T08:56:00Z,34.1,-93.07,19.4,15.6,180,5,,10.0,29.940945,1013.7,,TRUE,TRUE,,,,,,,CLR,,,,,,,,VFR,0.6,,,,,,,,,,,METAR,54.0
K8D3 230856Z AUTO 19003KT 03/M01 A2947 RMK AO1 SLP978 T00331006 58008,K8D3,2022-10-23T08:56:00Z,45.67,-96.98,3.3,-0.6,190,3,,,29.471457,997.8,,TRUE,TRUE,,,,,,,,,,,,,,,,-0.8,,,,,,,,,,,METAR,535.0
K7N0 230856Z AUTO VRB04KT 10SM CLR 21/16 A3007 RMK AO2 SLP181 6//// T02060156 58006 PNO $,K7N0,2022-10-23T08:56:00Z,29.95,-90.07,20.6,15.6,0,4,,10.0,30.070866,1018.1,,TRUE,TRUE,TRUE,,,,,,CLR,,,,,,,,VFR,-0.6,,,,,,,,,,,METAR,0.0
K79J 230856Z AUTO 00000KT 10SM CLR 09/06 A3013 RMK AO2 SLP200 T00890056 51003,K79J,2022-10-23T08:56:00Z,31.32,-86.4,8.9,5.6,0,0,,10.0,30.129921,1020.0,,TRUE,TRUE,,,,,,,CLR,,,,,,,,VFR,0.3,,,,,,,,,,,METAR,93.0
K2WX 230856Z AUTO 07010KT 06/02 A2935 RMK AO1 SLP941 T00610022 58007,K2WX,2022-10-23T08:56:00Z,45.6,-103.55,6.1,2.2,70,10,,,29.350393,994.1,,TRUE,TRUE,,,,,,,,,,,,,,,,-0.7,,,,,,,,,,,METAR,925.0
K1M4 230856Z AUTO 17006KT 10SM CLR 14/09 A3015 RMK AO2 SLP196 T01440089 53008,K1M4,2022-10-23T08:56:00Z,34.28,-87.6,14.4,8.9,170,6,,10.0,30.15059,1019.6,,TRUE,TRUE,,,,,,,CLR,,,,,,,,VFR,0.8,,,,,,,,,,,METAR,283.0
K1KW 230856Z AUTO 31006KT 10SM CLR 08/M07 A2928 RMK AO2 SLP876 T00811072 57020 $,K1KW,2022-10-23T08:56:00Z,41.13,-103.48,8.1,-7.2,310,6,,10.0,29.279528,987.6,,TRUE,TRUE,TRUE,,,,,,CLR,,,,,,,,VFR,-2.0,,,,,,,,,,,METAR,1443.0
K1JW 230856Z AUTO 22009KT 10SM CLR 06/M09 A2918 RMK AO2 SLP844 T00631088 57013 $,K1JW,2022-10-23T08:56:00Z,40.97,-103.2,6.3,-8.8,220,9,,10.0,29.179134,984.4,,TRUE,TRUE,TRUE,,,,,,CLR,,,,,,,,VFR,-1.3,,,,,,,,,,,METAR,1382.0
K1IW 230856Z AUTO 23012KT 10SM FEW240 10/M07 A2928 RMK AO2 SLP875 T00951068 56017 $,K1IW,2022-10-23T08:56:00Z,41.05,-102.87,9.5,-6.8,230,12,,10.0,29.279528,987.5,,TRUE,TRUE,TRUE,,,,,,FEW,24000,,,,,,,VFR,-1.7,,,,,,,,,,,METAR,1294.0
K1HW 230856Z AUTO 00000KT 10SM BKN220 07/M08 A2927 RMK AO2 SLP880 T00721076 57017 $,K1HW,2022-10-23T08:56:00Z,41.32,-102.83,7.2,-7.6,0,0,,10.0,29.27067,988.0,,TRUE,TRUE,TRUE,,,,,,BKN,22000,,,,,,,VFR,-1.7,,,,,,,,,,,METAR,1265.0
K1FW 230856Z AUTO 34010KT 10SM CLR 11/M07 A2928 RMK AO2 SLP864 T01111072 57023 $,K1FW,2022-10-23T08:56:00Z,41.37,-103.48,11.1,-7.2,340,10,,10.0,29.279528,986.4,,TRUE,TRUE,TRUE,,,,,,CLR,,,,,,,,VFR,-2.3,,,,,,,,,,,METAR,1451.0
K1EW 230856Z AUTO 13004KT 10SM SCT140 11/M09 A2932 RMK AO2 SLP877 T01061092 57023 $,K1EW,2022-10-23T08:56:00Z,41.12,-103.98,10.6,-9.2,130,4,,10.0,29.320866,987.7,,TRUE,TRUE,TRUE,,,,,,SCT,14000,,,,,,,VFR,-2.3,,,,,,,,,,,METAR,1609.0
K1DW 230856Z AUTO 34006KT 10SM CLR 09/M08 A2933 RMK AO2 SLP878 T00861084 57024 $,K1DW,2022-10-23T08:56:00Z,41.37,-103.8,8.6,-8.4,340,6,,10.0,29.329725,987.8,,TRUE,TRUE,TRUE,,,,,,CLR,,,,,,,,VFR,-2.4,,,,,,,,,,,METAR,1539.0
K1CW 230856Z AUTO 02005KT 10SM CLR 09/M10 A2928 RMK AO2 SLP866 T00941097 57026 $,K1CW,2022-10-23T08:56:00Z,41.58,-103.57,9.4,-9.7,20,5,,10.0,29.279528,986.6,,TRUE,TRUE,TRUE,,,,,,CLR,,,,,,,,VFR,-2.6,,,,,,,,,,,METAR,1370.0
K1BW 230856Z AUTO 34003KT 10SM SCT140 11/M09 A2932 RMK AO2 SLP870 T01121092 57023 $,K1BW,2022-10-23T08:56:00Z,41.52,-104.0,11.2,-9.2,340,3,,10.0,29.320866,987.0,,TRUE,TRUE,TRUE,,,,,,SCT,14000,,,,,,,VFR,-2.3,,,,,,,,,,,METAR,1606.0
K1AW 230856Z AUTO 00000KT 10SM OVC130 13/M09 A2933 RMK AO2 SLP873 T01251087 57019 $,K1AW,2022-10-23T08:56:00Z,41.33,-104.27,12.5,-8.7,0,0,,10.0,29.329725,987.3,,TRUE,TRUE,TRUE,,,,,,OVC,13000,,,,,,,VFR,-1.9,,,,,,,,,,,METAR,1670.0
TNCE 230855Z AUTO VRB01KT //// // ///////// 24/23 Q1012 RE//,TNCE,2022-10-23T08:55:00Z,17.48,-62.97,24.0,23.0,0,1,,,29.88189,,,TRUE,,,,,,,,,,,,,,,,,,,,,,,,,,,,SPECI,38.0
TNCB 230855Z AUTO 08009KT 9999 FEW016/// 27/25 Q1009,TNCB,2022-10-23T08:55:00Z,12.13,-68.28,27.0,25.0,80,9,,6.21,29.793306,,,TRUE,,,,,,,,FEW,1600,,,,,,,VFR,,,,,,,,,,,,METAR,6.0
RKSO 230855Z AUTO 32008KT 9SM CLR 15/01 A3008 RMK AO2 SLP190 T01480006 52003 TSNO CHINO RWY09 $,RKSO,2022-10-23T08:55:00Z,37.08,127.02,14.8,0.6,320,8,,9.0,30.079725,1019.0,,TRUE,TRUE,TRUE,,TRUE,,,,CLR,,,,,,,,VFR,0.3,,,,,,,,,,,METAR,10.0
RKSG 230855Z 31008KT 10SM CLR 15/02 A3006 RMK AO2A SLP183 T01470022 52004 TSNO $,RKSG,2022-10-23T08:55:00Z,36.97,127.02,14.7,2.2,310,8,,10.0,30.059055,1018.3,,,TRUE,TRUE,,TRUE,,,,CLR,,,,,,,,VFR,0.4,,,,,,,,,,,METAR,12.0
RKJK 230855Z AUTO 35014KT 10SM CLR 14/01 A3006 RMK AO2 SLP184 T01410010 53002 $,RKJK,2022-10-23T08:55:00Z,35.9,126.62,14.1,1.0,350,14,,10.0,30.059055,1018.4,,TRUE,TRUE,TRUE,,,,,,CLR,,,,,,,,VFR,0.2,,,,,,,,,,,METAR,8.0
PHHI 230855Z AUTO 10007KT 10SM SCT048 25/17 A3009 RMK AO2 SLP178 T02460168 51008 $,PHHI,2022-10-23T08:55:00Z,21.48,-158.05,24.6,16.8,100,7,,10.0,30.088583,1017.8,,TRUE,TRUE,TRUE,,,,,,SCT,4800,,,,,,,VFR,0.8,,,,,,,,,,,METAR,246.0
PATL 230855Z AUTO 00000KT 4SM BR FEW004 BKN019 M02/M02 A2998 RMK AO2 SLP169 T10191018 400001022 52012 TSNO $,PATL,2022-10-23T08:55:00Z,62.9,-155.97,-1.9,-1.8,0,0,,4.0,29.97933,1016.9,,TRUE,TRUE,TRUE,,TRUE,,,BR,FEW,400,BKN,1900,,,,,MVFR,1.2,,,,-2.2,,,,,,,METAR,261.0
PASV 230855Z AUTO VRB06KT 10SM FEW002 BKN200 M04/M05 A2987 RMK AO2 SNB0834E0836 SLP141 T10401051 400031044 52016,PASV,2022-10-23T08:55:00Z,61.1,-155.57,-4.0,-5.1,0,6,,10.0,29.870079,1014.1,,TRUE,TRUE,,,,,,,FEW,200,BKN,20000,,,,,VFR,1.6,,,0.3,-4.4,,,,,,,METAR,462.0
PALU 230855Z AUTO 17017KT 10SM OVC075 02/M02 A2974 RMK AO2 SLP072 T00201021 400360019 52004,PALU,2022-10-23T08:55:00Z,68.88,-166.1,2.0,-2.1,170,17,,10.0,29.740158,1007.2,,TRUE,TRUE,,,,,,,OVC,7500,,,,,,,VFR,0.4,,,3.6,1.9,,,,,,,METAR,8.0
PAFR 230855Z AUTO 03003KT 10SM SCT180 M04/M05 A2975 RMK AO2 SLP084 T10421048 400161067 53005 VISNO RWY35 CHINO RWY35 $,PAFR,2022-10-23T08:55:00Z,61.27,-149.65,-4.2,-4.8,30,3,,10.0,29.749016,1008.4,,TRUE,TRUE,TRUE,,,,,,SCT,18000,,,,,,,VFR,0.5,,,1.6,-6.7,,,,,,,METAR,106.0
PAEI 230855Z 00000KT 1 1/4SM BR OVC003 M02/M02 A2991 RMK AO2A VIS 3/4 RWY14 SLP139 T10181024 400001029 53006 $,PAEI,2022-10-23T08:55:00Z,64.67,-147.1,-1.8,-2.4,0,0,,1.25,29.911417,1013.9,,,TRUE,TRUE,,,,,BR,OVC,300,,,,,,,LIFR,0.6,,,,-2.9,,,,,,,METAR,166.0
PAEH 230855Z AUTO 17001KT 10SM CLR 03/02 A3005 RMK AO2 SLP184 T00320022 400440019 52015,PAEH,2022-10-23T08:55:00Z,58.65,-162.07,3.2,2.2,170,1,,10.0,30.050198,1018.4,,TRUE,TRUE,,,,,,,CLR,,,,,,,,VFR,1.5,,,4.4,1.9,,,,,,,METAR,101.0
PAED 230855Z 02008KT 10SM BKN170 M01/M03 A2977 RMK AO2A SLP079 T10071029 400221035 53003 $,PAED,2022-10-23T08:55:00Z,61.25,-149.83,-0.7,-2.9,20,8,,10.0,29.769686,1007.9,,,TRUE,TRUE,,,,,,BKN,17000,,,,,,,VFR,0.3,,,2.2,-3.5,,,,,,,METAR,54.0
OTBH 230855Z 00000KT 9999 CLR 34/21 A3001 RMK AO2A SLPNO ALSTG ESTMD RVRNO PWINO FZRANO TSNO VISNO RWY34 CHINO RWY34 $,OTBH,2022-10-23T08:55:00Z,25.12,51.32,34.0,21.0,0,0,,6.21,30.008858,,,,TRUE,TRUE,,TRUE,TRUE,TRUE,,CLR,,,,,,,,VFR,,,,,,,,,,,,METAR,40.0
OPLA 230855Z 33010KT 6000 NSC 30/08 Q1016 NOSIG RMK QFE990 A30.00,OPLA,2022-10-23T08:55:00Z,31.52,74.4,30.0,8.0,330,10,,3.73,30.0,,,,,,TRUE,,,,,CLR,,,,,,,,MVFR,,,,,,,,,,,,METAR,217.0
OPFA 230855Z 23002KT 5000 HZ NSC 32/11 Q1016 NOSIG,OPFA,2022-10-23T08:55:00Z,31.37,73.0,32.0,11.0,230,2,,3.11,30.0,,,,,,TRUE,,,,HZ,CLR,,,,,,,,MVFR,,,,,,,,,,,,METAR,180.0
OKAS 230855Z 26011KT 9999 CLR 38/M04 A2998 RMK AO2A SLP146 $,OKAS,2022-10-23T08:55:00Z,29.35,47.52,38.0,-4.0,260,11,,6.21,29.97933,1014.6,,,TRUE,TRUE,,,,,,CLR,,,,,,,,VFR,,,,,,,,,,,,METAR,144.0
NZCM 230855Z AUTO 05016KT 9999 CLR M22/M28 A2928 RMK AO2 SLP922 T12171281 51006 $,NZCM,2022-10-23T08:55:00Z,-77.85,166.67,-21.7,-28.1,50,16,,6.21,29.279528,992.2,,TRUE,TRUE,TRUE,,,,,,CLR,,,,,,,,VFR,0.6,,,,,,,,,,,METAR,24.0
LIVT 230855Z AUTO 14004KT 090V220 //// 21/18 Q1022,LIVT,2022-10-23T08:55:00Z,45.68,13.75,21.0,18.0,140,4,,,30.177166,,,TRUE,,,,,,,,,,,,,,,,,,,,,,,,,,,,SPECI,20.0
LIVR 230855Z 15005KT 9999 FEW030 07/06 Q1025 RMK FEW MON LIB VIS MIN 9999,LIVR,2022-10-23T08:55:00Z,46.28,11.78,7.0,6.0,150,5,,6.21,30.265747,,,,,,,,,,,FEW,3000,,,,,,,VFR,,,,,,,,,,,,SPECI,1997.0
LIVP 230855Z 21010KT 0000 FG VV/// 08/08 Q1025 RMK MON INVIS VAL INVIS VIS MIN 0000,LIVP,2022-10-23T08:55:00Z,46.15,11.03,8.0,8.0,210,10,,0.0,30.265747,,,,,,,,,,FG,OVX,0,,,,,,,LIFR,,,,,,,,,,,,SPECI,2099.0
LIVM 230855Z AUTO /////KT //// ///// Q////,LIVM,2022-10-23T08:55:00Z,44.45,12.3,,,,,,,,,,TRUE,,,,,,,,,,,,,,,,,,,,,,,,,,,,SPECI,6.0
LIVF 230855Z 13004KT 9999 FEW027 20/13 Q1022 RMK BKN SCT070 MON S W CIME INC NC VAL NIL VIS MIN 9999,LIVF,2022-10-23T08:55:00Z,43.52,12.72,20.0,13.0,130,4,,6.21,30.177166,,,,,,,,,,,FEW,2700,,,,,,,VFR,,,,,,,,,,,,SPECI,549.0
LIVE 230855Z 21006KT 9999 FEW015 SCT030 09/04 Q1025 RMK BKN VIS MIN 9999,LIVE,2022-10-23T08:55:00Z,46.82,10.5,9.0,4.0,210,6,,6.21,30.265747,,,,,,,,,,,FEW,1500,SCT,3000,,,,,VFR,,,,,,,,,,,,SPECI,1684.0
LIVD 230855Z AUTO 27004KT 210V320 //// 09/07 Q1026,LIVD,2022-10-23T08:55:00Z,46.72,12.22,9.0,7.0,270,4,,,30.295275,,,TRUE,,,,,,,,,,,,,,,,,,,,,,,,,,,,SPECI,1221.0
LIRX 230855Z 17020KT 0000 FG VV/// 19/17 Q1021 RMK VIS MIN 0000 VIS MAR 30 M,LIRX,2022-10-23T08:55:00Z,42.73,10.38,19.0,17.0,170,20,,0.0,30.147638,,,,,,,,,,FG,OVX,0,,,,,,,LIFR,,,,,,,,,,,,SPECI,397.0
LIRV 230855Z 18009KT 9999 SCT016 20/18 Q1024 RMK SCT SCT070 MON E SE CIME INC NC VIS MIN 9999 WIND THR04/////KT BLU,LIRV,2022-10-23T08:55:00Z,42.42,12.07,20.0,18.0,180,9,,6.21,30.236221,,,,,,,,,,,SCT,1600,,,,,,,VFR,,,,,,,,,,,,SPECI,294.0
LIRT 230855Z 31012KT CAVOK 19/M09 Q1027 RMK FEW FEW200 MON LIB VAL W MAR CLD VIS MIN 9999,LIRT,2022-10-23T08:55:00Z,41.03,15.22,19.0,-9.0,310,12,,6.21,30.324802,,,,,,,,,,,CAVOK,,,,,,,,VFR,,,,,,,,,,,,SPECI,1058.0
LIRS 230855Z 14011KT 8000 SCT015 22/20 Q1023 RMK BKN VIS MIN 8000 WIND THR03 15011KT WIND THR21 16010KT BLU,LIRS,2022-10-23T08:55:00Z,42.75,11.07,22.0,20.0,140,11,,4.97,30.206694,,,,,,,,,,,SCT,1500,,,,,,,MVFR,,,,,,,,,,,,SPECI,3.0
LIRM 230855Z 36002KT 6000 FEW018 SCT050 21/19 Q1025 RMK BKN VIS MIN 6000 WIND THR06 04002KT WHT,LIRM,2022-10-23T08:55:00Z,41.05,14.07,21.0,19.0,360,2,,3.73,30.265747,,,,,,,,,,,FEW,1800,SCT,5000,,,,,MVFR,,,,,,,,,,,,SPECI,6.0
LIRK 230855Z AUTO 29013KT //// 13/02 Q1031,LIRK,2022-10-23T08:55:00Z,42.47,12.97,13.0,2.0,290,13,,,30.442913,,,TRUE,,,,,,,,,,,,,,,,,,,,,,,,,,,,SPECI,1721.0
LIRE 230855Z 13014KT 9999 FEW016 SCT025 24/20 Q1024 RMK BKN VIS MIN 9999 WIND THR13 15014KT WIND THR31/////KT BLU,LIRE,2022-10-23T08:55:00Z,41.65,12.43,24.0,20.0,130,14,,6.21,30.236221,,,,,,,,,,,FEW,1600,SCT,2500,,,,,VFR,,,,,,,,,,,,SPECI,16.0
LIQO 230855Z AUTO /////KT //// ///// Q////,LIQO,2022-10-23T08:55:00Z,42.38,11.17,,,,,,,,,,TRUE,,,,,,,,,,,,,,,,,,,,,,,,,,,,SPECI,627.0
LIQC 230855Z 00000KT 9999 SCT020 19/18 Q1025 RMK SCT QUK 2 QUL 1 SE VIS MAR 15 KM VIS MIN 9999,LIQC,2022-10-23T08:55:00Z,40.55,14.2,19.0,18.0,0,0,,6.21,30.265747,,,,,,,,,,,SCT,2000,,,,,,,VFR,,,,,,,,,,,,SPECI,154.0
LIPS 230855Z /////KT 9999 BKN080 19/15 Q1022 RMK BKN VIS MIN 9999 WIND THR26 01003KT WIND THR08 04003KT BLU,LIPS,2022-10-23T08:55:00Z,45.68,12.1,19.0,15.0,,,,6.21,30.177166,,,,,,,,,,,BKN,8000,,,,,,,VFR,,,,,,,,,,,,SPECI,42.0
LIPL 230855Z 08007KT 9999 BKN070 18/15 Q1021 RMK BKN VIS MIN 9999 WIND THR31 07008KT WIND THR13 07006KT BLU,LIPL,2022-10-23T08:55:00Z,45.42,10.27,18.0,15.0,80,7,,6.21,30.147638,,,,,,,,,,,BKN,7000,,,,,,,VFR,,,,,,,,,,,,SPECI,96.0
LIPI 230855Z 35004KT 9999 SCT040 BKN070 16/12 Q1022 RMK OVC VIS MIN 9999 WIND THR06 02004KT WIND THR24 01004KT BLU,LIPI,2022-10-23T08:55:00Z,45.97,13.05,16.0,12.0,350,4,,6.21,30.177166,,,,,,,,,,,SCT,4000,BKN,7000,,,,,VFR,,,,,,,,,,,,SPECI,49.0
LIPF 230855Z 00000KT 6000 NSC 18/16 Q1021 RMK FEW FEW200 VIS MIN 6000,LIPF,2022-10-23T08:55:00Z,44.82,11.62,18.0,16.0,0,0,,3.73,30.147638,,,,,,,,,,,CLR,,,,,,,,MVFR,,,,,,,,,,,,SPECI,5.0
LIPC 230855Z 14003KT CAVOK 22/17 Q1021 RMK FEW FEW200 VIS MIN 9999 WIND THR11 13002KT WIND THR29 15002KT BLU,LIPC,2022-10-23T08:55:00Z,44.22,12.3,22.0,17.0,140,3,,6.21,30.147638,,,,,,,,,,,CAVOK,,,,,,,,VFR,,,,,,,,,,,,SPECI,10.0
LIMU 230855Z ///04KT 9999 FEW020 19/15 Q1021 RMK BKN SCT070 QUK 1 QUL 1 SE VIS MAR 10 KM VIS MIN 9999,LIMU,2022-10-23T08:55:00Z,43.95,8.17,19.0,15.0,,,,6.21,30.147638,,,,,,,,,,,FEW,2000,,,,,,,VFR,,,,,,,,,,,,SPECI,215.0
LIMS 230855Z 01003KT 0600 R30/0700 R12/0800 FG BKN007 SCT010 14/14 Q1022 RMK OVC VIS MIN 0600 WIND THR30 33002KT RED,LIMS,2022-10-23T08:55:00Z,44.92,9.72,14.0,14.0,10,3,,0.37,30.177166,,,,,,,,,,FG,BKN,700,SCT,1000,,,,,LIFR,,,,,,,,,,,,SPECI,132.0
LIMK 230855Z 36005KT 0100 FG VV/// 14/14 Q1023 RMK VAL FOSCHIA VIS MIN 0100,LIMK,2022-10-23T08:55:00Z,45.02,7.72,14.0,14.0,360,5,,0.06,30.206694,,,,,,,,,,FG,OVX,0,,,,,,,LIFR,,,,,,,,,,,,SPECI,693.0
LIED 230855Z 15009KT 9999 FEW010 24/21 Q1022 RMK FEW VIS MIN 9999 WIND THR35 /////KT WIND THR17 16007KT BLU,LIED,2022-10-23T08:55:00Z,39.35,8.97,24.0,21.0,150,9,,6.21,30.177166,,,,,,,,,,,FEW,1000,,,,,,,VFR,,,,,,,,,,,,SPECI,26.0
LIEB 230855Z 20016KT CAVOK 21/17 Q1021 RMK SKC QUK 4 QUL 3 S VIS MAR 20 KM MON LIB VIS MIN 9999,LIEB,2022-10-23T08:55:00Z,39.93,9.72,21.0,17.0,200,16,,6.21,30.147638,,,,,,,,,,,CAVOK,,,,,,,,VFR,,,,,,,,,,,,SPECI,126.0
LICZ 230855Z /////KT CAVOK 24/11 Q1024 RMK SKC VIS MIN 9999 WIND THR28 30008KT WIND THR10 28006KT A3026 BLU,LICZ,2022-10-23T08:55:00Z,37.4,14.92,24.0,11.0,,,,6.21,30.236221,,,,,,,,,,,CAVOK,,,,,,,,VFR,,,,,,,,,,,,METAR,22.0
LICT 230855Z 16010KT CAVOK 25/21 Q1025 RMK SKC VIS MIN 9999 WIND THR13 18010KT BLU,LICT,2022-10-23T08:55:00Z,37.92,12.5,25.0,21.0,160,10,,6.21,30.265747,,,,,,,,,,,CAVOK,,,,,,,,VFR,,,,,,,,,,,,SPECI,4.0
LICF 230855Z 06010KT CAVOK 23/16 Q1024 RMK SKC QUK 2 QUL 0 VIS MAR 18 KM MON LIB NC VIS MIN 9999,LICF,2022-10-23T08:55:00Z,38.2,15.55,23.0,16.0,60,10,,6.21,30.236221,,,,,,,,,,,CAVOK,,,,,,,,VFR,,,,,,,,,,,,SPECI,66.0
LIBY 230855Z 00000KT CAVOK 22/18 Q1023 RMK BKN BKN200 QUK 0 QUL 0 VIS MAR 12 KM VIS MIN 9999,LIBY,2022-10-23T08:55:00Z,39.82,18.35,22.0,18.0,0,0,,6.21,30.206694,,,,,,,,,,,CAVOK,,,,,,,,VFR,,,,,,,,,,,,SPECI,105.0
LIBV 230855Z 17007KT CAVOK 22/16 Q1024 RMK FEW FEW200 VIS MIN 9999 WIND THR32 17007KT WIND THR14 18007KT BLU,LIBV,2022-10-23T08:55:00Z,40.77,16.93,22.0,16.0,170,7,,6.21,30.236221,,,,,,,,,,,CAVOK,,,,,,,,VFR,,,,,,,,,,,,SPECI,344.0
LIBQ 230855Z AUTO VRB02KT //// 20/00 Q1033,LIBQ,2022-10-23T08:55:00Z,39.32,16.38,20.0,0.0,0,2,,,30.501968,,,TRUE,,,,,,,,,,,,,,,,,,,,,,,,,,,,SPECI,1660.0
LIBN 230855Z 13003KT 3200 BR BKN009 19/17 Q1024 RMK BKN VIS MIN 3200 WIND THR14 12004KT WIND THR32 16005KT YLO,LIBN,2022-10-23T08:55:00Z,40.23,18.13,19.0,17.0,130,3,,1.99,30.236221,,,,,,,,,,BR,BKN,900,,,,,,,IFR,,,,,,,,,,,,SPECI,46.0
LIBA 230855Z 11004KT CAVOK 22/15 Q1024 RMK SCT SCT200 VIS MIN 9999 WIND THR11 11005KT WIND THR29 /////KT BLU,LIBA,2022-10-23T08:55:00Z,41.53,15.72,22.0,15.0,110,4,,6.21,30.236221,,,,,,,,,,,CAVOK,,,,,,,,VFR,,-0.5,,,,,,,,,,SPECI,55.0
KXNO 230855Z AUTO 00000KT 10SM CLR 07/07 A3015 RMK AO2 SLP212 T00710070 58003 $,KXNO,2022-10-23T08:55:00Z,33.62,-81.07,7.1,7.0,0,0,,10.0,30.15059,1021.2,,TRUE,TRUE,TRUE,,,,,,CLR,,,,,,,,VFR,-0.3,,,,,,,,,,,METAR,94.0
KXMR 230855Z AUTO 32006KT 10SM CLR 20/18 A3001 RMK AO2 SLP165 T01950181 55003 $,KXMR,2022-10-23T08:55:00Z,28.47,-80.57,19.5,18.1,320,6,,10.0,30.008858,1016.5,,TRUE,TRUE,TRUE,,,,,,CLR,,,,,,,,VFR,-0.3,,,,,,,,,,,METAR,5.0
KXIF 230855Z AUTO 00000KT 9SM CLR 04/03 A3025 RMK AO2 SLP249 T00350028 53002 $,KXIF,2022-10-23T08:55:00Z,,,3.5,2.8,0,0,,9.0,30.250984,1024.9,,TRUE,TRUE,TRUE,,,,,,CLR,,,,,,,,VFR,0.2,,,,,,,,,,,METAR,
KWRI 230855Z 04004KT 10SM OVC033 12/10 A3024 RMK AO2A SLP240 T01220097 58003 $,KWRI,2022-10-23T08:55:00Z,40.02,-74.58,12.2,9.7,40,4,,10.0,30.239174,1024.0,,,TRUE,TRUE,,,,,,OVC,3300,,,,,,,VFR,-0.3,,,,,,,,,,,METAR,35.0
KWRB 230855Z 36003KT 10SM FEW250 05/05 A3016 RMK AO2A SLP215 T00460045 50004,KWRB,2022-10-23T08:55:00Z,32.63,-83.58,4.6,4.5,360,3,,10.0,30.159449,1021.5,,,TRUE,,,,,,,FEW,25000,,,,,,,VFR,0.4,,,,,,,,,,,METAR,82.0
KVPS 230855Z AUTO 00000KT 10SM CLR 10/06 A3009 RMK AO2 SLP196 T01040058 50002 $,KVPS,2022-10-23T08:55:00Z,30.47,-86.52,10.4,5.8,0,0,,10.0,30.088583,1019.6,,TRUE,TRUE,TRUE,,,,,,CLR,,,,,,,,VFR,0.2,,,,,,,,,,,METAR,21.0
KVOK 230855Z AUTO 15007KT 10SM FEW120 15/11 A2976 RMK AO2 SLP078 T01470105 51004,KVOK,2022-10-23T08:55:00Z,43.93,-90.27,14.7,10.5,150,7,,10.0,29.760826,1007.8,,TRUE,TRUE,,,,,,,FEW,12000,,,,,,,VFR,0.4,,,,,,,,,,,METAR,278.0
KVBG 230855Z AUTO 02004KT 8SM CLR 10/09 A2985 RMK AO2 SLP111 T00990091 52005 TSNO $,KVBG,2022-10-23T08:55:00Z,34.73,-120.58,9.9,9.1,20,4,,8.0,29.84941,1011.1,,TRUE,TRUE,TRUE,,TRUE,,,,CLR,,,,,,,,VFR,0.5,,,,,,,,,,,METAR,96.0
KVAD 230855Z AUTO 02003KT 10SM CLR 07/05 A3011 RMK AO2 SLP198 T00660048 58002 $,KVAD,2022-10-23T08:55:00Z,30.97,-83.2,6.6,4.8,20,3,,10.0,30.109253,1019.8,,TRUE,TRUE,TRUE,,,,,,CLR,,,,,,,,VFR,-0.2,,,,,,,,,,,METAR,70.0
KUGN 230855Z AUTO 18009KT 10SM CLR 17/11 A2989 RMK AO2 SLP116 T01670111 58003,KUGN,2022-10-23T08:55:00Z,42.42,-87.87,16.7,11.1,180,9,,10.0,29.890747,1011.6,,TRUE,TRUE,,,,,,,CLR,,,,,,,,VFR,-0.3,,,,,,,,,,,METAR,217.0
KTTS 230855Z AUTO 35004KT 10SM CLR 18/16 A3002 RMK AO2 VIS 5/8 RWY15/33 SLP170 60000 T01790159 55002 $,KTTS,2022-10-23T08:55:00Z,28.58,-80.67,17.9,15.9,350,4,,10.0,30.02067,1017.0,,TRUE,TRUE,TRUE,,,,,,CLR,,,,,,,,VFR,-0.2,,,,,,0.005,,,,,METAR,1.0
KTIK 230855Z AUTO 18019G24KT 10SM CLR 22/12 A2964 RMK AO2 SLP028 T02240120 52003,KTIK,2022-10-23T08:55:00Z,35.4,-97.38,22.4,12.0,180,19,24,10.0,29.639763,1002.8,,TRUE,TRUE,,,,,,,CLR,,,,,,,,VFR,0.3,,,,,,,,,,,METAR,387.0
KTHM 230855Z AUTO 00000KT 10SM 03/03 A2980 RMK Thompson Falls ,KTHM,2022-10-23T08:55:00Z,47.57,-115.28,3.0,3.0,0,0,,10.0,29.799213,,,TRUE,,,,,,,,,,,,,,,,,,,,,,,,,,,,METAR,751.0
KTDR 230855Z AUTO 07007KT 10SM CLR 12/08 A3008 RMK AO2 SLP190 T01170082 51004 $,KTDR,2022-10-23T08:55:00Z,30.05,-85.52,11.7,8.2,70,7,,10.0,30.079725,1019.0,,TRUE,TRUE,TRUE,,,,,,CLR,,,,,,,,VFR,0.4,,,,,,,,,,,METAR,4.0
KTBN 230855Z AUTO 15012KT 10SM CLR 18/12 A2978 RMK AO2 SLP078 T01750120 55005,KTBN,2022-10-23T08:55:00Z,37.73,-92.13,17.5,12.0,150,12,,10.0,29.778543,1007.8,,TRUE,TRUE,,,,,,,CLR,,,,,,,,VFR,-0.5,,,,,,,,,,,METAR,349.0
KT70 230855Z AUTO 32004KT 10SM CLR 17/16 A2981 RMK AO2 SLP083 T01650155 55005 $,KT70,2022-10-23T08:55:00Z,29.12,-100.48,16.5,15.5,320,4,,10.0,29.811024,1008.3,,TRUE,TRUE,TRUE,,,,,,CLR,,,,,,,,VFR,-0.5,,,,,,,,,,,METAR,296.0
KSZL 230855Z 17014KT 10SM CLR 19/12 A2960 RMK AO2A SLP019 T01920122 57012,KSZL,2022-10-23T08:55:00Z,38.73,-93.53,19.2,12.2,170,14,,10.0,29.601377,1001.9,,,TRUE,,,,,,,CLR,,,,,,,,VFR,-1.2,,,,,,,,,,,SPECI,259.0
KSXS 230855Z AUTO 00000KT 10SM CLR 09/06 A3013 RMK AO2 SLP204 T00910064 52004 $,KSXS,2022-10-23T08:55:00Z,31.37,-85.85,9.1,6.4,0,0,,10.0,30.129921,1020.4,,TRUE,TRUE,TRUE,,,,,,CLR,,,,,,,,VFR,0.4,,,,,,,,,,,METAR,120.0
KSVN 230855Z AUTO 01003KT 10SM CLR 12/10 A3010 RMK AO2 SLP196 T01240096 53000 $,KSVN,2022-10-23T08:55:00Z,32.02,-81.12,12.4,9.6,10,3,,10.0,30.100393,1019.6,,TRUE,TRUE,TRUE,,,,,,CLR,,,,,,,,VFR,0.0,,,,,,,,,,,METAR,13.0
KSUU 230855Z 22009KT 10SM CLR 09/02 A2984 RMK AO2A SLP111 T00920018 52020 $,KSUU,2022-10-23T08:55:00Z,38.27,-121.93,9.2,1.8,220,9,,10.0,29.840551,1011.1,,,TRUE,TRUE,,,,,,CLR,,,,,,,,VFR,2.0,,,,,,,,,,,METAR,9.0
KSSC 230855Z AUTO 00000KT 10SM CLR 10/08 A3014 RMK AO2 SLP207 T01010077 55000 $,KSSC,2022-10-23T08:55:00Z,33.97,-80.47,10.1,7.7,0,0,,10.0,30.138779,1020.7,,TRUE,TRUE,TRUE,,,,,,CLR,,,,,,,,VFR,0.0,,,,,,,,,,,SPECI,71.0
KSLI 230855Z AUTO 20004KT 10SM CLR 16/13 A2975 RMK AO2 SLP077 T01590128 55001 $,KSLI,2022-10-23T08:55:00Z,33.78,-118.03,15.9,12.8,200,4,,10.0,29.749016,1007.7,,TRUE,TRUE,TRUE,,,,,,CLR,,,,,,,,VFR,-0.1,,,,,,,,,,,METAR,8.0
KSKA 230855Z 00000KT 10SM OVC070 01/M03 A2973 RMK AO2A SLPNO T00061031 52015 $,KSKA,2022-10-23T08:55:00Z,47.62,-117.67,0.6,-3.1,0,0,,10.0,29.731298,,,,TRUE,TRUE,,,,,,OVC,7000,,,,,,,VFR,1.5,,,,,,,,,,,METAR,754.0
KSEQ 230855Z AUTO 18007KT 10SM CLR 19/18 A2985 RMK AO2 SLP104 T01880178 55004 $,KSEQ,2022-10-23T08:55:00Z,29.57,-97.9,18.8,17.8,180,7,,10.0,29.84941,1010.4,,TRUE,TRUE,TRUE,,,,,,CLR,,,,,,,,VFR,-0.4,,,,,,,,,,,METAR,160.0
KSCK 230855Z 30011KT 10SM CLR 13/03 A2983 RMK AO2 SLP100 T01330033 51014,KSCK,2022-10-23T08:55:00Z,37.88,-121.22,13.3,3.3,300,11,,10.0,29.828741,1010.0,,,TRUE,,,,,,,CLR,,,,,,,,VFR,1.4,,,,,,,,,,,METAR,8.0
KS34 230855Z AUTO 00000KT 10SM 04/M11 A2975 RMK Plains ,KS34,2022-10-23T08:55:00Z,47.47,-114.9,4.0,-11.0,0,0,,10.0,29.749016,,,TRUE,,,,,,,,,,,,,,,,,,,,,,,,,,,,METAR,750.0
KRYM 230855Z AUTO 15004KT 10SM CLR 10/06 A2957 RMK AO2 SLP016 T00970057 50005 $,KRYM,2022-10-23T08:55:00Z,46.08,-94.37,9.7,5.7,150,4,,10.0,29.568897,1001.6,,TRUE,TRUE,TRUE,,,,,,CLR,,,,,,,,VFR,0.5,,,,,,,,,,,METAR,344.0
KRPX 230855Z AUTO 30008KT 04/01 A2943 RMK Roundup ,KRPX,2022-10-23T08:55:00Z,46.47,-108.55,4.0,1.0,300,8,,,29.430119,,,TRUE,,,,,,,,,,,,,,,,,,,,,,,,,,,,METAR,1062.0
KRNO 230855Z 30004KT 10SM FEW080 03/M07 A2986 RMK AO2 SLP100 T00281072 53007,KRNO,2022-10-23T08:55:00Z,39.5,-119.77,2.8,-7.2,300,4,,10.0,29.861221,1010.0,,,TRUE,,,,,,,FEW,8000,,,,,,,VFR,0.7,,,,,,,,,,,METAR,1344.0
KRIV 230855Z AUTO 00000KT 10SM FEW055 13/11 A2979 RMK AO2 SLP080 T01340109 50000,KRIV,2022-10-23T08:55:00Z,33.87,-117.23,13.4,10.9,0,0,,10.0,29.790354,1008.0,,TRUE,TRUE,,,,,,,FEW,5500,,,,,,,VFR,0.0,,,,,,,,,,,METAR,454.0
KRDR 230855Z AUTO 01010KT 10SM CLR 06/04 A2953 RMK AO2 SLP008 T00590036 50004 CHINO RWY17 $,KRDR,2022-10-23T08:55:00Z,47.93,-97.4,5.9,3.6,10,10,,10.0,29.530512,1000.8,,TRUE,TRUE,TRUE,,,,,,CLR,,,,,,,,VFR,0.4,,,,,,,,,,,METAR,276.0
KRCA 230855Z 01007KT 10SM BKN150 OVC180 08/01 A2930 RMK AO2A SLP915 T00790013 57019 $,KRCA,2022-10-23T08:55:00Z,44.15,-103.12,7.9,1.3,10,7,,10.0,29.300198,991.5,,,TRUE,TRUE,,,,,,BKN,15000,OVC,18000,,,,,VFR,-1.9,,,,,,,,,,,METAR,993.0
KQVF 230855Z AUTO 11012G18KT 070V140 9999 CLR 29/23 A3003 RMK AO2 SLP172 WND DATA ESTMD T02910229 58017,KQVF,2022-10-23T08:55:00Z,,,29.1,22.9,110,12,18,6.21,30.029528,1017.2,,TRUE,TRUE,,,,,,,CLR,,,,,,,,VFR,-1.7,,,,,,,,,,,METAR,
KQTZ 230855Z 01004KT 9000 HZ SKC 32/15 A3001 RMK SLP160 WND DATA ESTMD ALSTG/SLP ESTMD 58005,KQTZ,2022-10-23T08:55:00Z,,,32.0,15.0,10,4,,5.59,30.008858,1016.0,,,,,,,,,HZ,SKC,,,,,,,,VFR,-0.5,,,,,,,,,,,METAR,
KQRH 230855Z AUTO 09012G16KT 050V130 9999 CLR 32/23 A2993 RMK AO2 SLP138 WND DATA ESTMD T03220230 58019,KQRH,2022-10-23T08:55:00Z,,,32.2,23.0,90,12,16,6.21,29.929134,1013.8,,TRUE,TRUE,,,,,,,CLR,,,,,,,,VFR,-1.9,,,,,,,,,,,METAR,
KQN3 230855Z AUTO 08007G13KT 000V150 9999 CLR 33/04 A3002 RMK AO2 SLP155 WND DATA ESTMD T03250042 52022,KQN3,2022-10-23T08:55:00Z,,,32.5,4.2,80,7,13,6.21,30.02067,1015.5,,TRUE,TRUE,,,,,,,CLR,,,,,,,,VFR,2.2,,,,,,,,,,,METAR,
KQD3 230855Z AUTO 08012G18KT 050V110 9999 CLR 33/22 A2997 RMK AO2 SLP133 WND DATA ESTMD T03310217 58021,KQD3,2022-10-23T08:55:00Z,,,33.1,21.7,80,12,18,6.21,29.970472,1013.3,,TRUE,TRUE,,,,,,,CLR,,,,,,,,VFR,-2.1,,,,,,,,,,,METAR,
KQBL 230855Z AUTO 00000KT 10SM CLR 11/08 A3012 RMK AO2 SLP206 WND DATA ESTMD T01090079 50003,KQBL,2022-10-23T08:55:00Z,,,10.9,7.9,0,0,,10.0,30.121063,1020.6,,TRUE,TRUE,,,,,,,CLR,,,,,,,,VFR,0.3,,,,,,,,,,,METAR,
KQAZ 230855Z AUTO 09015G22KT 9999 CLR 30/04 A3010 RMK AO2 SLP191 WND DATA ESTMD T02980039 51013,KQAZ,2022-10-23T08:55:00Z,,,29.8,3.9,90,15,22,6.21,30.100393,1019.1,,TRUE,TRUE,,,,,,,CLR,,,,,,,,VFR,1.3,,,,,,,,,,,SPECI,
KPSM 230855Z 00000KT 10SM BKN250 07/06 A3031 RMK AO2A SLP267 T00660059 50000,KPSM,2022-10-23T08:55:00Z,43.08,-70.82,6.6,5.9,0,0,,10.0,30.31004,1026.7,,,TRUE,,,,,,,BKN,25000,,,,,,,VFR,0.0,,,,,,,,,,,METAR,34.0
KPOE 230855Z AUTO 13005KT 10SM CLR 17/17 A2996 RMK AO2 SLP146 T01680166 56002,KPOE,2022-10-23T08:55:00Z,31.05,-93.2,16.8,16.6,130,5,,10.0,29.958662,1014.6,,TRUE,TRUE,,,,,,,CLR,,,,,,,,VFR,-0.2,,,,,,,,,,,METAR,98.0
KPOB 230855Z AUTO 00000KT 10SM CLR 10/08 A3015 RMK AO2 SLP212 T00980081 55003 $,KPOB,2022-10-23T08:55:00Z,35.17,-79.02,9.8,8.1,0,0,,10.0,30.15059,1021.2,,TRUE,TRUE,TRUE,,,,,,CLR,,,,,,,,VFR,-0.3,,,,,,,,,,,METAR,57.0
KPHP 230855Z AUTO 26003KT 10SM CLR 02/01 A2932 RMK AO2 SLP926 T00170006 56017,KPHP,2022-10-23T08:55:00Z,44.05,-101.6,1.7,0.6,260,3,,10.0,29.320866,992.6,,TRUE,TRUE,,,,,,,CLR,,,,,,,,VFR,-1.7,,,,,,,,,,,METAR,673.0
KPAM 230855Z AUTO 08006KT 10SM CLR 14/07 A3010 RMK AO2 SLP196 T01370072 52004 $,KPAM,2022-10-23T08:55:00Z,30.07,-85.57,13.7,7.2,80,6,,10.0,30.100393,1019.6,,TRUE,TRUE,TRUE,,,,,,CLR,,,,,,,,VFR,0.4,,,,,,,,,,,SPECI,4.0
KP58 230855Z AUTO 20003KT 15/10 A3005 RMK AO1 SLP172 T01500100 51006,KP58,2022-10-23T08:55:00Z,44.02,-82.8,15.0,10.0,200,3,,,30.050198,1017.2,,TRUE,TRUE,,,,,,,,,,,,,,,,0.6,,,,,,,,,,,METAR,180.0
KOZR 230855Z AUTO 04003KT 10SM CLR 08/05 A3013 RMK AO2 SLP205 T00770050 51004 $,KOZR,2022-10-23T08:55:00Z,31.28,-85.72,7.7,5.0,40,3,,10.0,30.129921,1020.5,,TRUE,TRUE,TRUE,,,,,,CLR,,,,,,,,VFR,0.4,,,,,,,,,,,METAR,90.0
KOFF 230855Z 13013KT 10SM CLR 17/11 A2949 RMK AO2A SLP983 T01700113 57016 PWINO PNO FZRANO TSNO VISNO RWY13 $,KOFF,2022-10-23T08:55:00Z,41.12,-95.92,17.0,11.3,130,13,,10.0,29.489174,998.3,,,TRUE,TRUE,,TRUE,TRUE,TRUE,,CLR,,,,,,,,VFR,-1.6,,,,,,,,,,,METAR,308.0
KMXF 230855Z AUTO 00000KT 10SM CLR 09/07 A3014 RMK AO2 SLP209 T00900071 52008,KMXF,2022-10-23T08:55:00Z,32.38,-86.37,9.0,7.1,0,0,,10.0,30.138779,1020.9,,TRUE,TRUE,,,,,,,CLR,,,,,,,,VFR,0.8,,,,,,,,,,,METAR,47.0
KMUI 230855Z AUTO 00000KT 10SM CLR 03/01 A3027 RMK AO2 SLP255 T00280012 53008,KMUI,2022-10-23T08:55:00Z,40.43,-76.57,2.8,1.2,0,0,,10.0,30.268702,1025.5,,TRUE,TRUE,,,,,,,CLR,,,,,,,,VFR,0.8,,,,,,,,,,,METAR,146.0
KMTC 230855Z AUTO 12004KT 10SM CLR 09/07 A3009 RMK AO2 SLP195 T00850074 52012,KMTC,2022-10-23T08:55:00Z,42.62,-82.83,8.5,7.4,120,4,,10.0,30.088583,1019.5,,TRUE,TRUE,,,,,,,CLR,,,,,,,,VFR,1.2,,,,,,,,,,,METAR,177.0
KMMT 230855Z AUTO 00000KT 10SM CLR 07/07 A3013 RMK AO2 SLP205 T00740073 58002 $,KMMT,2022-10-23T08:55:00Z,33.92,-80.8,7.4,7.3,0,0,,10.0,30.129921,1020.5,,TRUE,TRUE,TRUE,,,,,,CLR,,,,,,,,VFR,-0.2,,,,,,,,,,,METAR,76.0
KMKG 230855Z AUTO 17012KT 10SM CLR 19/11 A2997 RMK AO2 SLP147 T01890111 51002,KMKG,2022-10-23T08:55:00Z,43.17,-86.23,18.9,11.1,170,12,,10.0,29.970472,1014.7,,TRUE,TRUE,,,,,,,CLR,,,,,,,,VFR,0.2,,,,,,,,,,,METAR,190.0
KMGE 230855Z AUTO 00000KT 10SM CLR 07/04 A3018 RMK AO2 SLP219 T00670042 51006 $,KMGE,2022-10-23T08:55:00Z,33.92,-84.52,6.7,4.2,0,0,,10.0,30.180119,1021.9,,TRUE,TRUE,TRUE,,,,,,CLR,,,,,,,,VFR,0.6,,,,,,,,,,,METAR,309.0
KMCF 230855Z AUTO 05007KT 10SM CLR 16/14 A3002 RMK AO2 SLP168 T01550140 58001 FZRANO $,KMCF,2022-10-23T08:55:00Z,27.85,-82.52,15.5,14.0,50,7,,10.0,30.02067,1016.8,,TRUE,TRUE,TRUE,,,TRUE,,,CLR,,,,,,,,VFR,-0.1,,,,,,,,,,,SPECI,3.0
KLTS 230855Z AUTO 19011KT 10SM CLR 21/12 A2962 RMK AO2 SLP013 T02110117 53001 $,KLTS,2022-10-23T08:55:00Z,34.67,-99.27,21.1,11.7,190,11,,10.0,29.619095,1001.3,,TRUE,TRUE,TRUE,,,,,,CLR,,,,,,,,VFR,0.1,,,,,,,,,,,METAR,416.0
KLSV 230855Z AUTO 05018G23KT 10SM -RA FEW075 12/06 A2964 RMK AO2 RAB05 SLP020 P0000 60000 T01150064 52034,KLSV,2022-10-23T08:55:00Z,36.23,-115.05,11.5,6.4,50,18,23,10.0,29.639763,1002.0,,TRUE,TRUE,,,,,,-RA,FEW,7500,,,,,,,VFR,3.4,,,,,0.005,0.005,,,,,METAR,563.0
KLOR 230855Z AUTO 00000KT 4SM BR CLR 05/05 A3014 RMK AO2 SLP190 T00470046 52006 $,KLOR,2022-10-23T08:55:00Z,31.35,-85.75,4.7,4.6,0,0,,4.0,30.138779,1019.0,,TRUE,TRUE,TRUE,,,,,BR,CLR,,,,,,,,MVFR,0.6,,,,,,,,,,,METAR,92.0
KLLJ 230855Z AUTO 31005KT 10SM SCT060 M01/M07 A2966 RMK AO2 SLP044 T10111067 51009 $,KLLJ,2022-10-23T08:55:00Z,44.52,-114.22,-1.1,-6.7,310,5,,10.0,29.660433,1004.4,,TRUE,TRUE,TRUE,,,,,,SCT,6000,,,,,,,VFR,0.9,,,,,,,,,,,METAR,1535.0
KLIC 230855Z AUTO 20017G25KT 10SM CLR 14/M02 A2942 RMK AO2 SLP884 T01441022 58016 $,KLIC,2022-10-23T08:55:00Z,39.27,-103.67,14.4,-2.2,200,17,25,10.0,29.421259,988.4,,TRUE,TRUE,TRUE,,,,,,CLR,,,,,,,,VFR,-1.6,,,,,,,,,,,METAR,1635.0
KLHW 230855Z AUTO 00000KT 10SM CLR 09/07 A3010 RMK AO2 SLP196 T00940070 50000 $,KLHW,2022-10-23T08:55:00Z,31.88,-81.57,9.4,7.0,0,0,,10.0,30.100393,1019.6,,TRUE,TRUE,TRUE,,,,,,CLR,,,,,,,,VFR,0.0,,,,,,,,,,,METAR,14.0
KLGF 230855Z AUTO 31013G18KT 10SM CLR 20/09 A2970 RMK AO2 SLP055 T02020088 52014 TSNO $,KLGF,2022-10-23T08:55:00Z,32.87,-114.4,20.2,8.8,310,13,18,10.0,29.698818,1005.5,,TRUE,TRUE,TRUE,,TRUE,,,,CLR,,,,,,,,VFR,1.4,,,,,,,,,,,METAR,118.0
KLCK 230855Z AUTO 00000KT 10SM CLR 09/07 A3015 RMK AO2 T00930070,KLCK,2022-10-23T08:55:00Z,39.82,-82.92,9.3,7.0,0,0,,10.0,30.15059,,,TRUE,TRUE,,,,,,,CLR,,,,,,,,VFR,,,,,,,,,,,,SPECI,225.0
KIRK 230855Z AUTO 14012KT 10SM CLR 16/11 A2970 RMK AO2 SLP054 T01610111 58008,KIRK,2022-10-23T08:55:00Z,40.1,-92.55,16.1,11.1,140,12,,10.0,29.698818,1005.4,,TRUE,TRUE,,,,,,,CLR,,,,,,,,VFR,-0.8,,,,,,,,,,,METAR,292.0
KINS 230855Z AUTO 30005KT 10SM OVC095 11/05 A2970 RMK AO2 SLP023 60001 T01110054 53013 $,KINS,2022-10-23T08:55:00Z,36.58,-115.68,11.1,5.4,300,5,,10.0,29.698818,1002.3,,TRUE,TRUE,TRUE,,,,,,OVC,9500,,,,,,,VFR,1.3,,,,,,0.01,,,,,METAR,954.0
KIAB 230855Z AUTO 20010G17KT 10SM CLR 21/12 A2950 RMK AO2 SLP978 T02140117 56004,KIAB,2022-10-23T08:55:00Z,37.62,-97.27,21.4,11.7,200,10,17,10.0,29.500984,997.8,,TRUE,TRUE,,,,,,,CLR,,,,,,,,VFR,-0.4,,,,,,,,,,,METAR,413.0
KHST 230855Z AUTO 35004KT 10SM CLR 20/18 A2998 RMK AO2 SLP156 T02000181 55003 $,KHST,2022-10-23T08:55:00Z,25.48,-80.37,20.0,18.1,350,4,,10.0,29.97933,1015.6,,TRUE,TRUE,TRUE,,,,,,CLR,,,,,,,,VFR,-0.3,,,,,,,,,,,METAR,1.0
KHRT 230855Z AUTO 00000KT 10SM CLR 09/06 A3011 RMK AO2 SLP198 T00870061 50003 $,KHRT,2022-10-23T08:55:00Z,30.42,-86.68,8.7,6.1,0,0,,10.0,30.109253,1019.8,,TRUE,TRUE,TRUE,,,,,,CLR,,,,,,,,VFR,0.3,,,,,,,,,,,METAR,10.0
KHOP 230855Z AUTO 16007KT 10SM OVC070 17/12 A3006 RMK AO2 SLP178 T01710118 52006,KHOP,2022-10-23T08:55:00Z,36.67,-87.5,17.1,11.8,160,7,,10.0,30.059055,1017.8,,TRUE,TRUE,,,,,,,OVC,7000,,,,,,,VFR,0.6,,,,,,,,,,,METAR,170.0
KHON 230855Z AUTO 14010KT 10SM CLR 12/07 A2939 RMK AO2 SLP949 T01220067 58018,KHON,2022-10-23T08:55:00Z,44.38,-98.23,12.2,6.7,140,10,,10.0,29.388779,994.9,,TRUE,TRUE,,,,,,,CLR,,,,,,,,VFR,-1.8,,,,,,,,,,,METAR,391.0
KHMN 230855Z AUTO 14014G24KT 10SM BKN065 20/09 A2979 RMK AO2 SLP021 T02030086 57014 $,KHMN,2022-10-23T08:55:00Z,32.85,-106.1,20.3,8.6,140,14,24,10.0,29.790354,1002.1,,TRUE,TRUE,TRUE,,,,,,BKN,6500,,,,,,,VFR,-1.4,,,,,,,,,,,METAR,1240.0
KHLR 230855Z AUTO 20016G23KT 10SM OVC018 21/17 A2983 RMK AO2 PK WND 19027/16 SLP091 T02140172 55003,KHLR,2022-10-23T08:55:00Z,31.13,-97.72,21.4,17.2,200,16,23,10.0,29.828741,1009.1,,TRUE,TRUE,,,,,,,OVC,1800,,,,,,,MVFR,-0.3,,,,,,,,,,,METAR,271.0
KHFF 230855Z AUTO 02003KT 10SM CLR 08/08 A3014 RMK AO2 SLP209 T00810080 55001 $,KHFF,2022-10-23T08:55:00Z,35.03,-79.5,8.1,8.0,20,3,,10.0,30.138779,1020.9,,TRUE,TRUE,TRUE,,,,,,CLR,,,,,,,,VFR,-0.1,,,,,,,,,,,METAR,100.0
KHEY 230855Z AUTO 00000KT 10SM CLR 06/06 A3012 RMK AO2 SLP201 T00640061 51005 $,KHEY,2022-10-23T08:55:00Z,31.35,-85.65,6.4,6.1,0,0,,10.0,30.121063,1020.1,,TRUE,TRUE,TRUE,,,,,,CLR,,,,,,,,VFR,0.5,,,,,,,,,,,METAR,95.0
KGXF 230855Z AUTO 20013KT 10SM BKN048 22/14 A2970 RMK AO2 SLP046 T02150144 53009 FZRANO $,KGXF,2022-10-23T08:55:00Z,32.88,-112.72,21.5,14.4,200,13,,10.0,29.698818,1004.6,,TRUE,TRUE,TRUE,,,TRUE,,,BKN,4800,,,,,,,VFR,0.9,,,,,,,,,,,METAR,261.0
KGUS 230855Z AUTO 17010KT 10SM BKN220 14/10 A3001 RMK AO2 SLP163 T01420098 58003 $,KGUS,2022-10-23T08:55:00Z,40.63,-86.15,14.2,9.8,170,10,,10.0,30.008858,1016.3,,TRUE,TRUE,TRUE,,,,,,BKN,22000,,,,,,,VFR,-0.3,,,,,,,,,,,METAR,245.0
KGTB 230855Z AUTO 15011KT 10SM CLR 09/03 A3023 RMK AO2 SLP237 T00910029 52006,KGTB,2022-10-23T08:55:00Z,44.07,-75.72,9.1,2.9,150,11,,10.0,30.230314,1023.7,,TRUE,TRUE,,,,,,,CLR,,,,,,,,VFR,0.6,,,,,,,,,,,METAR,206.0
KGSB 230855Z 31005KT 10SM BKN250 14/07 A3009 RMK AO2A SLP193 T01350070 58009 $,KGSB,2022-10-23T08:55:00Z,35.33,-77.93,13.5,7.0,310,5,,10.0,30.088583,1019.3,,,TRUE,TRUE,,,,,,BKN,25000,,,,,,,VFR,-0.9,,,,,,,,,,,SPECI,33.0
KGRK 230855Z AUTO 17014KT 10SM OVC017 21/17 A2980 RMK AO2 SLP081 T02120170 55001,KGRK,2022-10-23T08:55:00Z,31.07,-97.83,21.2,17.0,170,14,,10.0,29.799213,1008.1,,TRUE,TRUE,,,,,,,OVC,1700,,,,,,,MVFR,-0.1,,,,,,,,,,,METAR,311.0
KGPI 230855Z AUTO 34007KT 10SM CLR 02/01 A2970 RMK AO2 SLP072 T00170006 53006,KGPI,2022-10-23T08:55:00Z,48.32,-114.25,1.7,0.6,340,7,,10.0,29.698818,1007.2,,TRUE,TRUE,,,,,,,CLR,,,,,,,,VFR,0.6,,,,,,,,,,,METAR,903.0
KFSI 230855Z AUTO 19008KT 10SM CLR 21/12 A2965 RMK AO2 SLP030 T02130122 52007,KFSI,2022-10-23T08:55:00Z,34.65,-98.4,21.3,12.2,190,8,,10.0,29.648623,1003.0,,TRUE,TRUE,,,,,,,CLR,,,,,,,,VFR,0.7,,,,,,,,,,,METAR,360.0
KFRI 230855Z AUTO 15019G26KT 10SM CLR 22/13 A2944 RMK AO2 PK WND 15026/47 SLP957 T02160132 57013 FZRANO $,KFRI,2022-10-23T08:55:00Z,39.05,-96.77,21.6,13.2,150,19,26,10.0,29.438976,995.7,,TRUE,TRUE,TRUE,,,TRUE,,,CLR,,,,,,,,VFR,-1.3,,,,,,,,,,,METAR,232.0
KFHU 230855Z AUTO 20007G19KT 9SM CLR 18/08 A2985 RMK AO2 PK WND 21028/12 SLP047 T01770083 57009,KFHU,2022-10-23T08:55:00Z,31.58,-110.35,17.7,8.3,200,7,19,9.0,29.84941,1004.7,,TRUE,TRUE,,,,,,,CLR,,,,,,,,VFR,-0.9,,,,,,,,,,,METAR,1424.0
KFFO 230855Z AUTO 00000KT 10SM CLR 13/08 A3009 RMK AO2 SLP190 T01290084 52007,KFFO,2022-10-23T08:55:00Z,39.83,-84.03,12.9,8.4,0,0,,10.0,30.088583,1019.0,,TRUE,TRUE,,,,,,,CLR,,,,,,,,VFR,0.7,,,,,,,,,,,METAR,250.0
KEND 230855Z AUTO 15019KT 10SM CLR 22/12 A2954 RMK AO2 PK WND 19026/01 SLP989 T02230117 53000,KEND,2022-10-23T08:55:00Z,36.33,-97.92,22.3,11.7,150,19,,10.0,29.53937,998.9,,TRUE,TRUE,,,,,,,CLR,,,,,,,,VFR,0.0,,,,,,,,,,,METAR,392.0
KEDW 230855Z AUTO 23011KT 10SM FEW055 13/06 A2974 RMK AO2 SLP057 T01310062 52013,KEDW,2022-10-23T08:55:00Z,34.9,-117.87,13.1,6.2,230,11,,10.0,29.740158,1005.7,,TRUE,TRUE,,,,,,,FEW,5500,,,,,,,VFR,1.3,,,,,,,,,,,METAR,698.0
KEAT 230855Z AUTO 30008KT 10SM CLR 06/M02 A2983 RMK AO2 SLP101 T00561022 51016,KEAT,2022-10-23T08:55:00Z,47.4,-120.2,5.6,-2.2,300,8,,10.0,29.828741,1010.1,,TRUE,TRUE,,,,,,,CLR,,,,,,,,VFR,1.6,,,,,,,,,,,METAR,375.0
KDYS 230855Z AUTO 17022G28KT 10SM CLR 21/11 A2971 RMK AO2 PK WND 18029/01 SLP016 T02120106 57006,KDYS,2022-10-23T08:55:00Z,32.42,-99.83,21.2,10.6,170,22,28,10.0,29.71063,1001.6,,TRUE,TRUE,,,,,,,CLR,,,,,,,,VFR,-0.6,,,,,,,,,,,METAR,544.0
KDMA 230855Z AUTO 25012G24KT 10SM CLR 20/11 A2978 RMK AO2 PK WND 24027/39 SLP085 T01980110 53003 $,KDMA,2022-10-23T08:55:00Z,32.17,-110.88,19.8,11.0,250,12,24,10.0,29.778543,1008.5,,TRUE,TRUE,TRUE,,,,,,CLR,,,,,,,,VFR,0.3,,,,,,,,,,,METAR,804.0
KDLF 230855Z AUTO 10011KT 10SM CLR 18/16 A2979 RMK AO2 SLP078 T01800156 57009 $,KDLF,2022-10-23T08:55:00Z,29.37,-100.78,18.0,15.6,100,11,,10.0,29.790354,1007.8,,TRUE,TRUE,TRUE,,,,,,CLR,,,,,,,,VFR,-0.9,,,,,,,,,,,METAR,328.0
KDAA 230855Z AUTO 30003KT 10SM CLR 06/05 A3022 RMK AO2 SLP236 T00570050 56003,KDAA,2022-10-23T08:55:00Z,38.72,-77.17,5.7,5.0,300,3,,10.0,30.221457,1023.6,,TRUE,TRUE,,,,,,,CLR,,,,,,,,VFR,-0.3,,,,,,,,,,,METAR,17.0
KCVS 230855Z AUTO 23006KT 10SM FEW120 15/10 A2972 RMK AO2 SLP009 T01510101 57007 $,KCVS,2022-10-23T08:55:00Z,34.37,-103.32,15.1,10.1,230,6,,10.0,29.719488,1000.9,,TRUE,TRUE,TRUE,,,,,,FEW,12000,,,,,,,VFR,-0.7,,,,,,,,,,,METAR,1305.0
KCOF 230855Z AUTO 31006KT 10SM CLR 20/20 A3001 RMK AO2 SLP167 T02040202 56003,KCOF,2022-10-23T08:55:00Z,28.23,-80.6,20.4,20.2,310,6,,10.0,30.008858,1016.7,,TRUE,TRUE,,,,,,,CLR,,,,,,,,VFR,-0.3,,,,,,,,,,,METAR,1.0
KCNK 230855Z AUTO 18018G27KT 10SM CLR 21/09 A2939 RMK AO2 PK WND 17028/0820 SLP935 T02060094 56015,KCNK,2022-10-23T08:55:00Z,39.55,-97.65,20.6,9.4,180,18,27,10.0,29.388779,993.5,,TRUE,TRUE,,,,,,,CLR,,,,,,,,VFR,-1.5,,,,,,,,,,,METAR,445.0
KCMA 230855Z AUTO 12003KT 9SM CLR 14/12 A2976 RMK AO2 SLP085 T01440117 51004,KCMA,2022-10-23T08:55:00Z,34.22,-119.1,14.4,11.7,120,3,,9.0,29.760826,1008.5,,TRUE,TRUE,,,,,,,CLR,,,,,,,,VFR,0.4,,,,,,,,,,,METAR,20.0
KCEF 230855Z AUTO 01003KT 10SM CLR 04/04 A3030 RMK AO2 SLP267 T00370036 55000,KCEF,2022-10-23T08:55:00Z,42.2,-72.52,3.7,3.6,10,3,,10.0,30.301182,1026.7,,TRUE,TRUE,,,,,,,CLR,,,,,,,,VFR,0.0,,,,,,,,,,,METAR,72.0
KCBM 230855Z AUTO 14005KT 10SM CLR 13/10 A3007 RMK AO2 SLP184 T01280103 51007 $,KCBM,2022-10-23T08:55:00Z,33.65,-88.45,12.8,10.3,140,5,,10.0,30.070866,1018.4,,TRUE,TRUE,TRUE,,,,,,CLR,,,,,,,,VFR,0.7,,,,,,,,,,,METAR,59.0
KBYS 230855Z AUTO 25017G28KT 10SM CLR 14/07 A2967 RMK AO2 PK WND 25031/33 SLP028 T01440065 52026,KBYS,2022-10-23T08:55:00Z,35.28,-116.63,14.4,6.5,250,17,28,10.0,29.66929,1002.8,,TRUE,TRUE,,,,,,,CLR,,,,,,,,VFR,2.6,,,,,,,,,,,METAR,717.0
KBLV 230855Z 16008KT 10SM SCT150 18/11 A2987 RMK AO2A SLP115 T01830109 55003 $,KBLV,2022-10-23T08:55:00Z,38.53,-89.83,18.3,10.9,160,8,,10.0,29.870079,1011.5,,,TRUE,TRUE,,,,,,SCT,15000,,,,,,,VFR,-0.3,,,,,,,,,,,METAR,134.0
KBIX 230855Z AUTO 00000KT 10SM CLR 15/14 A3006 RMK AO2 SLP182 T01510138 58002,KBIX,2022-10-23T08:55:00Z,30.42,-88.92,15.1,13.8,0,0,,10.0,30.059055,1018.2,,TRUE,TRUE,,,,,,,CLR,,,,,,,,VFR,-0.2,,,,,,,,,,,METAR,4.0
KBIF 230855Z AUTO 11013KT 10SM CLR 22/09 A2978 RMK AO2 SLP017 T02160091 57009 $,KBIF,2022-10-23T08:55:00Z,31.85,-106.38,21.6,9.1,110,13,,10.0,29.778543,1001.7,,TRUE,TRUE,TRUE,,,,,,CLR,,,,,,,,VFR,-0.9,,,,,,,,,,,METAR,1201.0
KBAD 230855Z AUTO 16008KT 10SM OVC037 18/15 A2994 RMK AO2 SLP141 T01800147 51005,KBAD,2022-10-23T08:55:00Z,32.5,-93.67,18.0,14.7,160,8,,10.0,29.940945,1014.1,,TRUE,TRUE,,,,,,,OVC,3700,,,,,,,VFR,0.5,,,,,,,,,,,METAR,49.0
KBAB 230855Z AUTO 33012KT 10SM CLR 12/01 A2982 RMK AO2 SLP101 T01200013 52016 VISNO RWY33 $,KBAB,2022-10-23T08:55:00Z,39.13,-121.43,12.0,1.3,330,12,,10.0,29.819881,1010.1,,TRUE,TRUE,TRUE,,,,,,CLR,,,,,,,,VFR,1.6,,,,,,,,,,,METAR,31.0
KAST 230855Z AUTO 11004KT 9SM SCT031 BKN049 07/06 A2995 RMK AO2 SLP140 60000 T00720061 51014,KAST,2022-10-23T08:55:00Z,46.15,-123.88,7.2,6.1,110,4,,9.0,29.949802,1014.0,,TRUE,TRUE,,,,,,,SCT,3100,BKN,4900,,,,,VFR,1.4,,,,,,0.005,,,,,METAR,3.0
KANJ 230855Z AUTO 07004KT 10SM CLR 10/09 A2998 RMK AO2 SLP150 T01000089 51011,KANJ,2022-10-23T08:55:00Z,46.47,-84.37,10.0,8.9,70,4,,10.0,29.97933,1015.0,,TRUE,TRUE,,,,,,,CLR,,,,,,,,VFR,1.1,,,,,,,,,,,METAR,220.0
KADW 230855Z AUTO 35006KT 10SM CLR 08/06 A3021 RMK AO2 SLP237 T00750063 55003 $,KADW,2022-10-23T08:55:00Z,38.82,-76.87,7.5,6.3,350,6,,10.0,30.209646,1023.7,,TRUE,TRUE,TRUE,,,,,,CLR,,,,,,,,VFR,-0.3,,,,,,,,,,,METAR,87.0
KABH 230855Z AUTO 21017G22KT 10SM CLR 15/M04 A2950 RMK AO2 PK WND 22035/13 SLP911 T01491039 57014,KABH,2022-10-23T08:55:00Z,38.75,-104.3,14.9,-3.9,210,17,22,10.0,29.500984,991.1,,TRUE,TRUE,,,,,,,CLR,,,,,,,,VFR,-1.4,,,,,,,,,,,METAR,1838.0
KAAT 230855Z AUTO 26004KT 10SM OVC017 01/M02 A2989 RMK AO2 SLP123 T00061022 53008,KAAT,2022-10-23T08:55:00Z,41.48,-120.57,0.6,-2.2,260,4,,10.0,29.890747,1012.3,,TRUE,TRUE,,,,,,,OVC,1700,,,,,,,MVFR,0.8,,,,,,,,,,,METAR,1336.0
K9L2 230855Z AUTO 22016KT 10SM CLR 14/05 A2974 RMK AO2 SLP057 T01370048 51010 $,K9L2,2022-10-23T08:55:00Z,34.98,-117.87,13.7,4.8,220,16,,10.0,29.740158,1005.7,,TRUE,TRUE,TRUE,,,,,,CLR,,,,,,,,VFR,1.0,,,,,,,,,,,METAR,697.0
K4MR 230855Z AUTO 21008KT 10SM CLR 16/10 A2967 RMK AO2 SLP969 T01590100 57013 $,K4MR,2022-10-23T08:55:00Z,34.3,-103.8,15.9,10.0,210,8,,10.0,29.66929,996.9,,TRUE,TRUE,TRUE,,,,,,CLR,,,,,,,,VFR,-1.3,,,,,,,,,,,METAR,1339.0
K3D2 230855Z AUTO 19006KT 10SM CLR 12/10 A2989 RMK AO2 T01150102,K3D2,2022-10-23T08:55:00Z,45.13,-87.18,11.5,10.2,190,6,,10.0,29.890747,,,TRUE,TRUE,,,,,,,CLR,,,,,,,,VFR,,,,,,,,,,,,METAR,233.0
K1YT 230855Z AUTO 00000KT 10SM BKN070 07/M03 A2980 RMK AO2 SLP097 T00661031 52018 $,K1YT,2022-10-23T08:55:00Z,46.67,-120.45,6.6,-3.1,0,0,,10.0,29.799213,1009.7,,TRUE,TRUE,TRUE,,,,,,BKN,7000,,,,,,,VFR,1.8,,,,,,,,,,,METAR,423.0
K1OM 230855Z AUTO 28018G21KT 10SM -DZ BKN013 OVC020 01/01 A2946 RMK AO2 RAE44DZB44 SLP994 P0001 60009 T00130006 55002 $,K1OM,2022-10-23T08:55:00Z,47.33,-108.93,1.3,0.6,280,18,21,10.0,29.459646,999.4,,TRUE,TRUE,TRUE,,,,,-DZ,BKN,1300,OVC,2000,,,,,MVFR,-0.2,,,,,0.01,0.09,,,,,METAR,1088.0
K1NM 230855Z AUTO 27013KT 9SM -SN SCT024 BKN070 OVC095 01/01 A2943 RMK AO2 SLP982 P0001 60006 T00120011 58005 $,K1NM,2022-10-23T08:55:00Z,47.07,-109.03,1.2,1.1,270,13,,9.0,29.430119,998.2,,TRUE,TRUE,TRUE,,,,,-SN,SCT,2400,BKN,7000,OVC,9500,,,VFR,-0.5,,,,,0.01,0.06,,,,,METAR,1169.0
K1MW 230855Z AUTO 26007KT 10SM M 07/M09 A2501 RMK AO2 SLP394 T00691091 55002 FZRANO $,K1MW,2022-10-23T08:55:00Z,40.7,-103.48,6.9,-9.1,260,7,,10.0,25.009842,1039.4,,TRUE,TRUE,TRUE,,,TRUE,,,,,,,,,,,,-0.2,,,,,,,,,,,METAR,1338.0
K1MM 230855Z AUTO 00000KT 5SM -SN SCT007 SCT012 BKN027 OVC140 M00/M01 A2950 RMK AO2 CIG 027V033 SLP008 P0003 60011 T10021012 50002 $,K1MM,2022-10-23T08:55:00Z,47.02,-109.63,-0.2,-1.2,0,0,,5.0,29.500984,1000.8,,TRUE,TRUE,TRUE,,,,,-SN,SCT,700,SCT,1200,BKN,2700,OVC,14000,MVFR,0.2,,,,,0.03,0.11,,,,,METAR,1256.0
K1LM 230855Z AUTO 02016KT 9SM -SN OVC004 M00/M00 A2947 RMK AO2 SLP995 P0000 60003 T10021003 55004 $,K1LM,2022-10-23T08:55:00Z,46.7,-109.73,-0.2,-0.3,20,16,,9.0,29.471457,999.5,,TRUE,TRUE,TRUE,,,,,-SN,OVC,400,,,,,,,LIFR,-0.4,,,,,0.005,0.03,,,,,METAR,1417.0
K1KM 230855Z AUTO 33004KT 10SM -RA FEW016 BKN026 OVC032 02/01 A2948 RMK AO2 RAE10RAB47 CIG 020V027 SLP995 P0000 60001 T00170008 58001 $,K1KM,2022-10-23T08:55:00Z,46.45,-109.8,1.7,0.8,330,4,,10.0,29.480314,999.5,,TRUE,TRUE,TRUE,,,,,-RA,FEW,1600,BKN,2600,OVC,3200,,,MVFR,-0.1,,,,,0.005,0.01,,,,,METAR,1332.0
K1JM 230855Z AUTO 33018KT 1 5/8SM -SN BKN004 OVC009 M01/M01 A2956 RMK AO2 SNB01E09SNB16 BKN V OVC SLP035 P0001 60002 T10061009 51003 $,K1JM,2022-10-23T08:55:00Z,47.75,-111.55,-0.6,-0.9,330,18,,1.63,29.56004,1003.5,,TRUE,TRUE,TRUE,,,,,-SN,BKN,400,OVC,900,,,,,LIFR,0.3,,,,,0.01,0.02,,,,,METAR,1154.0
K1IM 230855Z AUTO 30009KT 2SM -SN OVC004 00/00 A2957 RMK AO2 SLPNO P0002 60007 T00010001 52004 $,K1IM,2022-10-23T08:55:00Z,47.32,-111.47,0.1,0.1,300,9,,2.0,29.568897,,,TRUE,TRUE,TRUE,,,,,-SN,OVC,400,,,,,,,LIFR,0.4,,,,,0.02,0.07,,,,,METAR,1110.0
K1HM 230855Z AUTO 24016G21KT 3SM -SN OVC005 M00/M01 A2958 RMK AO2 SLP042 P0001 60002 T10011014 52003 $,K1HM,2022-10-23T08:55:00Z,47.7,-111.95,-0.1,-1.4,240,16,21,3.0,29.58071,1004.2,,TRUE,TRUE,TRUE,,,,,-SN,OVC,500,,,,,,,IFR,0.3,,,,,0.01,0.02,,,,,METAR,1181.0
K1FM 230855Z AUTO 34019G26KT 9SM -SN BKN009 BKN017 OVC025 M01/M01 A2960 RMK AO2 PK WND 34026/48 SLP047 P0000 60001 T10061007 52007 $,K1FM,2022-10-23T08:55:00Z,47.6,-112.32,-0.6,-0.7,340,19,26,9.0,29.601377,1004.7,,TRUE,TRUE,TRUE,,,,,-SN,BKN,900,BKN,1700,OVC,2500,,,IFR,0.7,,,,,0.005,0.01,,,,,METAR,1344.0
K1DM 230855Z AUTO 32013KT 2 1/4SM -SN SCT003 BKN015 OVC023 00/M00 A2952 RMK AO2 SLP018 P0002 60006 T00011002 50003 $,K1DM,2022-10-23T08:55:00Z,47.37,-109.8,0.1,-0.2,320,13,,2.25,29.518702,1001.8,,TRUE,TRUE,TRUE,,,,,-SN,SCT,300,BKN,1500,OVC,2300,,,IFR,0.3,,,,,0.02,0.06,,,,,METAR,1093.0
K1CM 230855Z AUTO 31021G27KT 9SM -SN FEW028 FEW042 OVC048 00/M01 A2950 RMK AO2 PK WND 30031/26 SLP011 P0001 60002 T00011015 55001 $,K1CM,2022-10-23T08:55:00Z,47.1,-110.17,0.1,-1.5,310,21,27,9.0,29.500984,1001.1,,TRUE,TRUE,TRUE,,,,,-SN,FEW,2800,FEW,4200,OVC,4800,,,VFR,-0.1,,,,,0.01,0.02,,,,,METAR,1338.0
K1BM 230855Z AUTO 26017G24KT 9SM -SN FEW030 OVC040 00/M01 A2952 RMK AO2 SLP019 P0000 60001 T00001006 55000 $,K1BM,2022-10-23T08:55:00Z,47.28,-110.37,0.0,-0.6,260,17,24,9.0,29.518702,1001.9,,TRUE,TRUE,TRUE,,,,,-SN,FEW,3000,OVC,4000,,,,,VFR,0.0,,,,,0.005,0.01,,,,,METAR,1234.0
K1AM 230855Z AUTO 27010KT 2SM -SN SCT007 OVC013 00/00 A2956 RMK AO2 SLP032 P0001 60004 T00010000 51001 $,K1AM,2022-10-23T08:55:00Z,47.28,-110.8,0.1,0.0,270,10,,2.0,29.56004,1003.2,,TRUE,TRUE,TRUE,,,,,-SN,SCT,700,OVC,1300,,,,,IFR,0.1,,,,,0.01,0.04,,,,,METAR,1228.0
FJDG 230855Z 14012G20KT 9999 FEW020 SCT047 BKN110 32/25 A2990 RMK SLP122 8/870 T03050249 57027,FJDG,2022-10-23T08:55:00Z,-7.32,72.42,32.0,24.9,140,12,20,6.21,29.899607,1012.2,,,,,,,,,,FEW,2000,SCT,4700,BKN,11000,,,VFR,-2.7,,,,,,,,,,,METAR,3.0
ETOU 230855Z AUTO 00000KT 9999 SCT080 BKN190 13/13 A2995 RMK AO2 SLP145 T01310129 58004 $,ETOU,2022-10-23T08:55:00Z,50.03,8.32,13.1,12.9,0,0,,6.21,29.949802,1014.5,,TRUE,TRUE,TRUE,,,,,,SCT,8000,BKN,19000,,,,,VFR,-0.4,,,,,,,,,,,METAR,141.0
ETIK 230855Z AUTO 00000KT 9999 SCT085 BKN200 14/09 A3001 RMK AO2 SLP166 T01430087 58002 $,ETIK,2022-10-23T08:55:00Z,49.47,10.38,14.3,8.7,0,0,,6.21,30.008858,1016.6,,TRUE,TRUE,TRUE,,,,,,SCT,8500,BKN,20000,,,,,VFR,-0.2,,,,,,,,,,,METAR,326.0
ETIH 230855Z AUTO 00000KT 9999 OVC005 11/10 A3007 RMK AO2 SLP190 T01080102 56003 $,ETIH,2022-10-23T08:55:00Z,49.22,11.83,10.8,10.2,0,0,,6.21,30.070866,1019.0,,TRUE,TRUE,TRUE,,,,,,OVC,500,,,,,,,IFR,-0.3,,,,,,,,,,,METAR,436.0
ETIC 230855Z AUTO 00000KT 5000 BR OVC003 11/11 A3005 RMK AO2 SLP183 T01110106 58003 $,ETIC,2022-10-23T08:55:00Z,49.7,11.93,11.1,10.6,0,0,,3.11,30.050198,1018.3,,TRUE,TRUE,TRUE,,,,,BR,OVC,300,,,,,,,LIFR,-0.3,,,,,,,,,,,METAR,414.0
ETEB 230855Z AUTO 15005KT 9999 CLR 13/10 A3001 RMK AO2 SLP175 T01330099 58003 $,ETEB,2022-10-23T08:55:00Z,49.32,10.63,13.3,9.9,150,5,,6.21,30.008858,1017.5,,TRUE,TRUE,TRUE,,,,,,CLR,,,,,,,,VFR,-0.3,,,,,,,,,,,METAR,466.0
ETAR 230855Z AUTO 00000KT 9999 CLR 13/13 A2992 RMK AO2 SLP135 T01330133 58004 $,ETAR,2022-10-23T08:55:00Z,49.43,7.58,13.3,13.3,0,0,,6.21,29.920275,1013.5,,TRUE,TRUE,TRUE,,,,,,CLR,,,,,,,,VFR,-0.4,,,,,,,,,,,METAR,231.0
ETAD 230855Z AUTO 08005KT 9999 SCT120 13/12 A2987 RMK AO2 SLP105 T01250123 57006 $,ETAD,2022-10-23T08:55:00Z,49.98,6.7,12.5,12.3,80,5,,6.21,29.870079,1010.5,,TRUE,TRUE,TRUE,,,,,,SCT,12000,,,,,,,VFR,-0.6,,,,,,,,,,,METAR,365.0
EGUN 230855Z 11009KT 5000 -RA BKN035 OVC046 15/15 A2964 RMK AO2A SLP040 P0009 60012 T01470147 56009 $,EGUN,2022-10-23T08:55:00Z,52.37,0.48,14.7,14.7,110,9,,3.11,29.639763,1004.0,,,TRUE,TRUE,,,,,-RA,BKN,3500,OVC,4600,,,,,MVFR,-0.9,,,,,0.09,0.12,,,,,METAR,10.0
PTTP 230854Z 11005KT 15SM SCT017TCU BKN130 OVC300 26/24 A2983 RMK TCU S-SW SLP100 8/271 T02580237 52015,PTTP,2022-10-23T08:54:00Z,6.97,158.22,25.8,23.7,110,5,,15.0,29.828741,1010.0,,,,,,,,,,SCT,1700,BKN,13000,OVC,30000,,,VFR,1.5,,,,,,,,,,,SPECI,36.0
PTPN 230854Z 12005KT 13SM BRN017TCU OVC130 26/24 A2977 RMK TCU E-S,PTPN,2022-10-23T08:54:00Z,6.98,158.22,26.0,24.0,120,5,,13.0,29.769686,,,,,,,,,,BR,OVC,13000,,,,,,,VFR,,,,,,,,,,,,SPECI,3.0
PHOG 230854Z 06006KT 10SM CLR 26/18 A3002 RMK AO2 SLP170 T02610178 50004,PHOG,2022-10-23T08:54:00Z,20.9,-156.43,26.1,17.8,60,6,,10.0,30.02067,1017.0,,,TRUE,,,,,,,CLR,,,,,,,,VFR,0.4,,,,,,,,,,,METAR,14.0
PHMK 230854Z AUTO VRB03KT 10SM CLR 22/17 A3005 RMK AO2 SLP176 T02220167 50002 TSNO,PHMK,2022-10-23T08:54:00Z,21.15,-157.1,22.2,16.7,0,3,,10.0,30.050198,1017.6,,TRUE,TRUE,,,TRUE,,,,CLR,,,,,,,,VFR,0.2,,,,,,,,,,,SPECI,135.0
PGUM 230854Z 10003KT 10SM FEW017 27/25 A2982 RMK AO2 SLP090 T02720250 53016,PGUM,2022-10-23T08:54:00Z,13.48,144.8,27.2,25.0,100,3,,10.0,29.819881,1009.0,,,TRUE,,,,,,,FEW,1700,,,,,,,VFR,1.6,,,,,,,,,,,SPECI,74.0
PGSN 230854Z 11007KT 10SM FEW023 28/24 A2982 RMK AO2 RAB12E31 SLP118 P0003 60003 T02780244 51010,PGSN,2022-10-23T08:54:00Z,15.12,145.72,27.8,24.4,110,7,,10.0,29.819881,1011.8,,,TRUE,,,,,,,FEW,2300,,,,,,,VFR,1.0,,,,,0.03,,,,,,SPECI,65.0
PAKN 230854Z 33010KT 10SM FEW140 M01/M01 A2992 RMK AO2 SLP133 T10061011 400331006 51024,PAKN,2022-10-23T08:54:00Z,58.68,-156.65,-0.6,-1.1,330,10,,10.0,29.920275,1013.3,,,TRUE,,,,,,,FEW,14000,,,,,,,VFR,2.4,,,3.3,-0.6,,,,,,,METAR,20.0
KWLD 230854Z AUTO 18015G26KT 10SM CLR 23/13 A2957 RMK AO2 PK WND 18027/0837 SLP999 T02280128 51001,KWLD,2022-10-23T08:54:00Z,37.17,-97.03,22.8,12.8,180,15,26,10.0,29.568897,999.9,,TRUE,TRUE,,,,,,,CLR,,,,,,,,VFR,0.1,,,,,,,,,,,SPECI,351.0
KVTA 230854Z AUTO 00000KT 10SM CLR 09/06 A3016 RMK AO2 SLPNO T00890061 52009 $,KVTA,2022-10-23T08:54:00Z,40.02,-82.47,8.9,6.1,0,0,,10.0,30.159449,,,TRUE,TRUE,TRUE,,,,,,CLR,,,,,,,,VFR,0.9,,,,,,,,,,,SPECI,268.0
KVSF 230854Z AUTO 00000KT 10SM CLR 02/01 A3034 RMK AO2 SLP278 T00220011 53001,KVSF,2022-10-23T08:54:00Z,43.35,-72.52,2.2,1.1,0,0,,10.0,30.339567,1027.8,,TRUE,TRUE,,,,,,,CLR,,,,,,,,VFR,0.1,,,,,,,,,,,SPECI,176.0
KVAY 230854Z AUTO 01004KT 10SM OVC034 12/09 A3025 RMK AO2 SLP243 T01220089 55002 $,KVAY,2022-10-23T08:54:00Z,39.93,-74.83,12.2,8.9,10,4,,10.0,30.250984,1024.3,,TRUE,TRUE,TRUE,,,,,,OVC,3400,,,,,,,VFR,-0.2,,,,,,,,,,,SPECI,15.0
KUZA 230854Z AUTO 34003KT 9SM CLR 06/04 A3019 RMK AO2 SLP219 T00560039 53001,KUZA,2022-10-23T08:54:00Z,34.98,-81.05,5.6,3.9,340,3,,9.0,30.188976,1021.9,,TRUE,TRUE,,,,,,,CLR,,,,,,,,VFR,0.1,,,,,,,,,,,SPECI,198.0
KUIN 230854Z AUTO 16010KT 10SM FEW080 18/12 A2977 RMK AO2 SLP074 T01830117 58006,KUIN,2022-10-23T08:54:00Z,39.95,-91.2,18.3,11.7,160,10,,10.0,29.769686,1007.4,,TRUE,TRUE,,,,,,,FEW,8000,,,,,,,VFR,-0.6,,,,,,,,,,,SPECI,233.0
KTQE 230854Z AUTO 13008KT 10SM CLR 14/10 A2946 RMK AO2 SLP966 T01390100 58014,KTQE,2022-10-23T08:54:00Z,41.77,-96.18,13.9,10.0,130,8,,10.0,29.459646,996.6,,TRUE,TRUE,,,,,,,CLR,,,,,,,,VFR,-1.4,,,,,,,,,,,SPECI,312.0
KTAD 230854Z AUTO 21018G29KT 10SM CLR 17/00 A2958 RMK AO2 PK WND 22031/0839 SLP933 T01720000 58000,KTAD,2022-10-23T08:54:00Z,37.27,-104.33,17.2,0.0,210,18,29,10.0,29.58071,993.3,,TRUE,TRUE,,,,,,,CLR,,,,,,,,VFR,0.0,,,,,,,,,,,SPECI,1751.0
KSYR 230854Z 07003KT 10SM CLR 05/02 A3026 RMK AO2 SLP245 T00500022 53003 $,KSYR,2022-10-23T08:54:00Z,43.12,-76.1,5.0,2.2,70,3,,10.0,30.259842,1024.5,,,TRUE,TRUE,,,,,,CLR,,,,,,,,VFR,0.3,,,,,,,,,,,METAR,125.0
KSUS 230854Z AUTO VRB04KT 10SM BKN090 19/12 A2982 RMK AO2 SLP090 T01940117 58005,KSUS,2022-10-23T08:54:00Z,38.65,-90.65,19.4,11.7,0,4,,10.0,29.819881,1009.0,,TRUE,TRUE,,,,,,,BKN,9000,,,,,,,VFR,-0.5,,,,,,,,,,,METAR,140.0
KSET 230854Z AUTO 12007KT 10SM BKN090 18/12 A2983 RMK AO2 SLP097 T01830117 56005,KSET,2022-10-23T08:54:00Z,38.93,-90.43,18.3,11.7,120,7,,10.0,29.828741,1009.7,,TRUE,TRUE,,,,,,,BKN,9000,,,,,,,VFR,-0.5,,,,,,,,,,,SPECI,133.0
KSBN 230854Z AUTO 15007KT 10SM CLR 14/11 A3001 RMK AO2 SLP158 T01440106 58004,KSBN,2022-10-23T08:54:00Z,41.7,-86.32,14.4,10.6,150,7,,10.0,30.008858,1015.8,,TRUE,TRUE,,,,,,,CLR,,,,,,,,VFR,-0.4,,,,,,,,,,,METAR,236.0
KRST 230854Z AUTO 15012KT 10SM CLR 15/08 A2969 RMK AO2 SLP048 T01500083 51007,KRST,2022-10-23T08:54:00Z,43.9,-92.5,15.0,8.3,150,12,,10.0,29.68996,1004.8,,TRUE,TRUE,,,,,,,CLR,,,,,,,,VFR,0.7,,,,,,,,,,,SPECI,398.0
KROC 230854Z 22003KT 10SM CLR 07/03 A3022 RMK AO2 SLP235 T00720033 51002,KROC,2022-10-23T08:54:00Z,43.12,-77.68,7.2,3.3,220,3,,10.0,30.221457,1023.5,,,TRUE,,,,,,,CLR,,,,,,,,VFR,0.2,,,,,,,,,,,METAR,166.0
KROA 230854Z 32005KT 10SM CLR 04/02 A3025 RMK AO2 SLP242 T00440022 53001 $,KROA,2022-10-23T08:54:00Z,37.32,-79.97,4.4,2.2,320,5,,10.0,30.250984,1024.2,,,TRUE,TRUE,,,,,,CLR,,,,,,,,VFR,0.1,,,,,,,,,,,METAR,349.0
KRIC 230854Z 35008KT 10SM OVC300 09/08 A3019 RMK AO2 SLP227 T00940078 58004 $,KRIC,2022-10-23T08:54:00Z,37.52,-77.32,9.4,7.8,350,8,,10.0,30.188976,1022.7,,,TRUE,TRUE,,,,,,OVC,30000,,,,,,,VFR,-0.4,,,,,,,,,,,METAR,51.0
KRFD 230854Z 16009KT 10SM CLR 16/11 A2987 RMK AO2 SLP111 T01560111 56006,KRFD,2022-10-23T08:54:00Z,42.2,-89.1,15.6,11.1,160,9,,10.0,29.870079,1011.1,,,TRUE,,,,,,,CLR,,,,,,,,VFR,-0.6,,,,,,,,,,,METAR,222.0
KRDG 230854Z AUTO 00000KT 6SM BR CLR 06/04 A3027 RMK AO2 SLP257 T00560039 53004 $,KRDG,2022-10-23T08:54:00Z,40.37,-75.97,5.6,3.9,0,0,,6.0,30.268702,1025.7,,TRUE,TRUE,TRUE,,,,,BR,CLR,,,,,,,,VFR,0.4,,,,,,,,,,,SPECI,101.0
KRBL 230854Z AUTO 32011KT 10SM CLR 13/01 A2989 RMK AO2 SLP119 T01280006 51011,KRBL,2022-10-23T08:54:00Z,40.15,-122.25,12.8,0.6,320,11,,10.0,29.890747,1011.9,,TRUE,TRUE,,,,,,,CLR,,,,,,,,VFR,1.1,,,,,,,,,,,METAR,107.0
KPTW 230854Z AUTO 00000KT 7SM BKN027 06/05 A3029 RMK AO2 SLP254 T00560050 51003,KPTW,2022-10-23T08:54:00Z,40.23,-75.55,5.6,5.0,0,0,,7.0,30.28937,1025.4,,TRUE,TRUE,,,,,,,BKN,2700,,,,,,,MVFR,0.3,,,,,,,,,,,SPECI,88.0
KPSF 230854Z AUTO 00000KT 10SM CLR 03/02 A3031 RMK AO2 SLP256 T00330017 53001,KPSF,2022-10-23T08:54:00Z,42.43,-73.28,3.3,1.7,0,0,,10.0,30.31004,1025.6,,TRUE,TRUE,,,,,,,CLR,,,,,,,,VFR,0.1,,,,,,,,,,,METAR,352.0
KPLN 230854Z AUTO 19008KT 10SM CLR 18/11 A2997 RMK AO2 SLP146 T01830106 51010 $,KPLN,2022-10-23T08:54:00Z,45.57,-84.8,18.3,10.6,190,8,,10.0,29.970472,1014.6,,TRUE,TRUE,TRUE,,,,,,CLR,,,,,,,,VFR,1.0,,,,,,,,,,,SPECI,215.0
KPIA 230854Z 16011KT 10SM SCT070 18/11 A2984 RMK AO2 SLP101 T01780111 56008,KPIA,2022-10-23T08:54:00Z,40.67,-89.68,17.8,11.1,160,11,,10.0,29.840551,1010.1,,,TRUE,,,,,,,SCT,7000,,,,,,,VFR,-0.8,,,,,,,,,,,METAR,200.0
KPHL 230854Z 36004KT 10SM OVC031 13/10 A3026 RMK AO2 SLP244 T01280100 55001 $,KPHL,2022-10-23T08:54:00Z,39.87,-75.23,12.8,10.0,360,4,,10.0,30.259842,1024.4,,,TRUE,TRUE,,,,,,OVC,3100,,,,,,,VFR,-0.1,,,,,,,,,,,SPECI,2.0
KORH 230854Z AUTO 00000KT 10SM CLR 11/03 A3031 RMK AO2 SLP266 T01110033 55003,KORH,2022-10-23T08:54:00Z,42.27,-71.87,11.1,3.3,0,0,,10.0,30.31004,1026.6,,TRUE,TRUE,,,,,,,CLR,,,,,,,,VFR,-0.3,,,,,,,,,,,METAR,306.0
KOLS 230854Z AUTO 18015KT 10SM SCT035 17/11 A2987 RMK AO2 PK WND 16027/0818 SLP054 T01670111 52001,KOLS,2022-10-23T08:54:00Z,31.42,-110.85,16.7,11.1,180,15,,10.0,29.870079,1005.4,,TRUE,TRUE,,,,,,,SCT,3500,,,,,,,VFR,0.1,,,,,,,,,,,METAR,1194.0
KOFP 230854Z AUTO 32003KT 10SM CLR 09/07 A3022 RMK AO2 SLP231 T00890067 58003,KOFP,2022-10-23T08:54:00Z,37.7,-77.43,8.9,6.7,320,3,,10.0,30.221457,1023.1,,TRUE,TRUE,,,,,,,CLR,,,,,,,,VFR,-0.3,,,,,,,,,,,SPECI,63.0
KNAK 230854Z AUTO 31005KT 10SM CLR 12/10 A3022 RMK AO2 SLP236 T01220100 58004,KNAK,2022-10-23T08:54:00Z,38.98,-76.48,12.2,10.0,310,5,,10.0,30.221457,1023.6,,TRUE,TRUE,,,,,,,CLR,,,,,,,,VFR,-0.4,,,,,,,,,,,METAR,2.0
KMWN 230854Z 10006KT 80SM BKN120 10/M11 RMK,KMWN,2022-10-23T08:54:00Z,44.27,-71.3,10.0,-11.0,100,6,,80.0,,,,,,,,,,,,BKN,12000,,,,,,,VFR,,,,,,,,,,,,METAR,1911.0
KMVL 230854Z AUTO 00000KT 10SM CLR 01/M01 A3033 RMK AO2 SLP276 T00061011 53006,KMVL,2022-10-23T08:54:00Z,44.53,-72.62,0.6,-1.1,0,0,,10.0,30.33071,1027.6,,TRUE,TRUE,,,,,,,CLR,,,,,,,,VFR,0.6,,,,,,,,,,,METAR,226.0
KMTP 230854Z AUTO 04006KT 15/13 A3029 RMK AO1 SLP256 T01500133 55004,KMTP,2022-10-23T08:54:00Z,41.07,-71.92,15.0,13.3,40,6,,,30.28937,1025.6,,TRUE,TRUE,,,,,,,,,,,,,,,,-0.4,,,,,,,,,,,METAR,2.0
KMRY 230854Z AUTO 20004KT 9SM FEW016 12/08 A2989 RMK AO2 SLP132 T01170083 51013,KMRY,2022-10-23T08:54:00Z,36.58,-121.85,11.7,8.3,200,4,,9.0,29.890747,1013.2,,TRUE,TRUE,,,,,,,FEW,1600,,,,,,,VFR,1.3,,,,,,,,,,,METAR,51.0
KMOT 230854Z AUTO 04011KT 10SM OVC013 07/04 A2958 RMK AO2 SLP025 T00720044 50002,KMOT,2022-10-23T08:54:00Z,48.25,-101.27,7.2,4.4,40,11,,10.0,29.58071,1002.5,,TRUE,TRUE,,,,,,,OVC,1300,,,,,,,MVFR,0.2,,,,,,,,,,,SPECI,507.0
KMKC 230854Z 16006KT 10SM CLR 21/13 A2959 RMK AO2 SLP011 T02060128 56009,KMKC,2022-10-23T08:54:00Z,39.12,-94.6,20.6,12.8,160,6,,10.0,29.589567,1001.1,,,TRUE,,,,,,,CLR,,,,,,,,VFR,-0.9,,,,,,,,,,,METAR,228.0
KMIV 230854Z AUTO 04008KT 10SM BKN021 OVC028 13/11 A3022 RMK AO2 SLP232 T01330106 55004 $,KMIV,2022-10-23T08:54:00Z,39.37,-75.08,13.3,10.6,40,8,,10.0,30.221457,1023.2,,TRUE,TRUE,TRUE,,,,,,BKN,2100,OVC,2800,,,,,MVFR,-0.4,,,,,,,,,,,SPECI,18.0
KMGJ 230854Z AUTO 00000KT 10SM FEW003 02/01 A3029 RMK AO2 RAB31E34SNB15E31 SLP259 P0000 60000 T00220011 51003,KMGJ,2022-10-23T08:54:00Z,41.52,-74.27,2.2,1.1,0,0,,10.0,30.28937,1025.9,,TRUE,TRUE,,,,,,,FEW,300,,,,,,,VFR,0.3,,,,,0.005,,,,,,SPECI,106.0
KMFI 230854Z AUTO 16007KT 10SM CLR 14/10 A2978 RMK AO2 SLP083 T01390100 51006,KMFI,2022-10-23T08:54:00Z,44.63,-90.18,13.9,10.0,160,7,,10.0,29.778543,1008.3,,TRUE,TRUE,,,,,,,CLR,,,,,,,,VFR,0.6,,,,,,,,,,,SPECI,383.0
KMEM 230854Z 18011KT 10SM BKN250 18/12 A3001 RMK AO2 SLP160 T01780122 51009,KMEM,2022-10-23T08:54:00Z,35.07,-89.98,17.8,12.2,180,11,,10.0,30.008858,1016.0,,,TRUE,,,,,,,BKN,25000,,,,,,,VFR,0.9,,,,,,,,,,,METAR,78.0
KLYH 230854Z AUTO 34003KT 10SM CLR 06/03 A3022 RMK AO2 SLP230 T00560028 55001,KLYH,2022-10-23T08:54:00Z,37.32,-79.2,5.6,2.8,340,3,,10.0,30.221457,1023.0,,TRUE,TRUE,,,,,,,CLR,,,,,,,,VFR,-0.1,,,,,,,,,,,METAR,282.0
KLWM 230854Z AUTO 00000KT 7SM CLR 07/06 A3034 RMK AO2 SLP272 T00670056 53000,KLWM,2022-10-23T08:54:00Z,42.72,-71.13,6.7,5.6,0,0,,7.0,30.339567,1027.2,,TRUE,TRUE,,,,,,,CLR,,,,,,,,VFR,0.0,,,,,,,,,,,SPECI,42.0
KLNK 230854Z AUTO 14008KT 10SM CLR 17/12 A2944 RMK AO2 SLP958 T01720122 56016,KLNK,2022-10-23T08:54:00Z,40.85,-96.77,17.2,12.2,140,8,,10.0,29.438976,995.8,,TRUE,TRUE,,,,,,,CLR,,,,,,,,VFR,-1.6,,,,,,,,,,,METAR,357.0
KLEX 230854Z 16007KT 10SM CLR 15/08 A3014 RMK AO2 SLP201 T01500078 51010,KLEX,2022-10-23T08:54:00Z,38.03,-84.6,15.0,7.8,160,7,,10.0,30.138779,1020.1,,,TRUE,,,,,,,CLR,,,,,,,,VFR,1.0,,,,,,,,,,,METAR,294.0
KLAF 230854Z AUTO 16009G16KT 10SM BKN060 17/10 A2998 RMK AO2 SLP148 T01670100 58006,KLAF,2022-10-23T08:54:00Z,40.42,-86.93,16.7,10.0,160,9,16,10.0,29.97933,1014.8,,TRUE,TRUE,,,,,,,BKN,6000,,,,,,,VFR,-0.6,,,,,,,,,,,METAR,182.0
KJST 230854Z AUTO 00000KT CLR 09/01 A3024 RMK AO2 SLP237 T00890011 53001 $,KJST,2022-10-23T08:54:00Z,40.32,-78.83,8.9,1.1,0,0,,,30.239174,1023.7,,TRUE,TRUE,TRUE,,,,,,CLR,,,,,,,,,0.1,,,,,,,,,,,METAR,695.0
KJAN 230854Z AUTO 15007KT 10SM CLR 14/13 A3007 RMK AO2 SLP179 T01440128 50000,KJAN,2022-10-23T08:54:00Z,32.32,-90.08,14.4,12.8,150,7,,10.0,30.070866,1017.9,,TRUE,TRUE,,,,,,,CLR,,,,,,,,VFR,0.0,,,,,,,,,,,METAR,92.0
KIZG 230854Z AUTO 00000KT 10SM CLR 01/01 A3034 RMK AO2 SLP275 T00110006 53004,KIZG,2022-10-23T08:54:00Z,43.98,-70.95,1.1,0.6,0,0,,10.0,30.339567,1027.5,,TRUE,TRUE,,,,,,,CLR,,,,,,,,VFR,0.4,,,,,,,,,,,SPECI,138.0
KISW 230854Z AUTO 16005KT 10SM CLR 15/10 A2981 RMK AO2 SLP091 T01500100 51006,KISW,2022-10-23T08:54:00Z,44.37,-89.83,15.0,10.0,160,5,,10.0,29.811024,1009.1,,TRUE,TRUE,,,,,,,CLR,,,,,,,,VFR,0.6,,,,,,,,,,,SPECI,311.0
KIPT 230854Z AUTO 00000KT 10SM CLR 03/02 A3029 RMK AO2 SLP258 T00280017 53007,KIPT,2022-10-23T08:54:00Z,41.25,-76.92,2.8,1.7,0,0,,10.0,30.28937,1025.8,,TRUE,TRUE,,,,,,,CLR,,,,,,,,VFR,0.7,,,,,,,,,,,SPECI,160.0
KINT 230854Z AUTO 01005KT 10SM CLR 09/03 A3021 RMK AO2 SLP224 T00890033 55000,KINT,2022-10-23T08:54:00Z,36.13,-80.22,8.9,3.3,10,5,,10.0,30.209646,1022.4,,TRUE,TRUE,,,,,,,CLR,,,,,,,,VFR,0.0,,,,,,,,,,,SPECI,292.0
KINL 230854Z AUTO 09005KT 10SM CLR 07/04 A2962 RMK AO2 SLP036 T00720044 55002,KINL,2022-10-23T08:54:00Z,48.57,-93.4,7.2,4.4,90,5,,10.0,29.619095,1003.6,,TRUE,TRUE,,,,,,,CLR,,,,,,,,VFR,-0.2,,,,,,,,,,,METAR,353.0
KIND 230854Z 15009KT 10SM FEW060 SCT150 BKN250 14/10 A3004 RMK AO2 SLP168 T01440100 52000 $,KIND,2022-10-23T08:54:00Z,39.72,-86.27,14.4,10.0,150,9,,10.0,30.041338,1016.8,,,TRUE,TRUE,,,,,,FEW,6000,SCT,15000,BKN,25000,,,VFR,0.0,,,,,,,,,,,METAR,242.0
KIMT 230854Z AUTO 14003KT 3SM BR CLR 09/09 A2985 RMK AO2 SLP110 T00940089 51009,KIMT,2022-10-23T08:54:00Z,45.82,-88.12,9.4,8.9,140,3,,3.0,29.84941,1011.0,,TRUE,TRUE,,,,,,BR,CLR,,,,,,,,MVFR,0.9,,,,,,,,,,,METAR,343.0
KILN 230854Z AUTO 16004KT 10SM CLR 13/07 A3014 RMK AO2 SLP201 T01330072 53009,KILN,2022-10-23T08:54:00Z,39.43,-83.8,13.3,7.2,160,4,,10.0,30.138779,1020.1,,TRUE,TRUE,,,,,,,CLR,,,,,,,,VFR,0.9,,,,,,,,,,,METAR,325.0
KHWD 230854Z 07004KT 10SM CLR 11/05 A2987 RMK AO2 SLP126 T01110050 51014,KHWD,2022-10-23T08:54:00Z,37.67,-122.12,11.1,5.0,70,4,,10.0,29.870079,1012.6,,,TRUE,,,,,,,CLR,,,,,,,,VFR,1.4,,,,,,,,,,,METAR,9.0
KGSO 230854Z 00000KT 10SM FEW250 07/04 A3019 RMK AO2 SLP220 T00670039 53000,KGSO,2022-10-23T08:54:00Z,36.1,-79.95,6.7,3.9,0,0,,10.0,30.188976,1022.0,,,TRUE,,,,,,,FEW,25000,,,,,,,VFR,0.0,,,,,,,,,,,METAR,275.0
KGCK 230854Z AUTO 21016G25KT 10SM CLR 18/09 A2946 RMK AO2 PK WND 22026/0800 SLP941 T01830089 50000,KGCK,2022-10-23T08:54:00Z,37.92,-100.72,18.3,8.9,210,16,25,10.0,29.459646,994.1,,TRUE,TRUE,,,,,,,CLR,,,,,,,,VFR,0.0,,,,,,,,,,,METAR,877.0
KFWA 230854Z 15006KT 10SM SCT250 12/09 A3006 RMK AO2 SLP178 T01220089 50002 $,KFWA,2022-10-23T08:54:00Z,40.98,-85.2,12.2,8.9,150,6,,10.0,30.059055,1017.8,,,TRUE,TRUE,,,,,,SCT,25000,,,,,,,VFR,0.2,,,,,,,,,,,METAR,243.0
KFIG 230854Z AUTO 34005KT 10SM CLR 02/01 A3027 RMK AO2 SLP253 T00170006 53005,KFIG,2022-10-23T08:54:00Z,41.05,-78.42,1.7,0.6,340,5,,10.0,30.268702,1025.3,,TRUE,TRUE,,,,,,,CLR,,,,,,,,VFR,0.5,,,,,,,,,,,METAR,461.0
KFFZ 230854Z AUTO 18011G20KT 10SM CLR 21/13 A2969 RMK AO2 SLP033 T02110128 53002,KFFZ,2022-10-23T08:54:00Z,33.47,-111.72,21.1,12.8,180,11,20,10.0,29.68996,1003.3,,TRUE,TRUE,,,,,,,CLR,,,,,,,,VFR,0.2,,,,,,,,,,,METAR,420.0
KEWN 230854Z AUTO 35010KT 10SM CLR 14/12 A3008 RMK AO2 SLP184 T01440117 56017,KEWN,2022-10-23T08:54:00Z,35.07,-77.05,14.4,11.7,350,10,,10.0,30.079725,1018.4,,TRUE,TRUE,,,,,,,CLR,,,,,,,,VFR,-1.7,,,,,,,,,,,METAR,3.0
KEVV 230854Z 16005KT 10SM BKN070 18/11 A3004 RMK AO2 SLP170 T01780111 53004,KEVV,2022-10-23T08:54:00Z,38.05,-87.52,17.8,11.1,160,5,,10.0,30.041338,1017.0,,,TRUE,,,,,,,BKN,7000,,,,,,,VFR,0.4,,,,,,,,,,,METAR,123.0
KEUG 230854Z AUTO 19005KT 10SM FEW044 BKN060 OVC100 08/07 A2999 RMK AO2 RAB39E51 SLP157 P0000 60000 T00830067 51014 $,KEUG,2022-10-23T08:54:00Z,44.13,-123.22,8.3,6.7,190,5,,10.0,29.991142,1015.7,,TRUE,TRUE,TRUE,,,,,,FEW,4400,BKN,6000,OVC,10000,,,VFR,1.4,,,,,0.005,0.005,,,,,METAR,109.0
KEFD 230854Z 14006KT 10SM FEW050 21/18 A2990,KEFD,2022-10-23T08:54:00Z,29.6,-95.17,21.0,18.0,140,6,,10.0,29.899607,,,,,,,,,,,FEW,5000,,,,,,,VFR,,,,,,,,,,,,METAR,9.0
KECG 230854Z AUTO 34012KT 10SM OVC013 16/13 A3008 RMK AO2 SLP186 T01560133 56017,KECG,2022-10-23T08:54:00Z,36.27,-76.18,15.6,13.3,340,12,,10.0,30.079725,1018.6,,TRUE,TRUE,,,,,,,OVC,1300,,,,,,,MVFR,-1.7,,,,,,,,,,,METAR,2.0
KDSV 230854Z AUTO 13009KT 10SM CLR 06/02 A3025 RMK AO2 SLP253 T00610022 53001,KDSV,2022-10-23T08:54:00Z,42.57,-77.72,6.1,2.2,130,9,,10.0,30.250984,1025.3,,TRUE,TRUE,,,,,,,CLR,,,,,,,,VFR,0.1,,,,,,,,,,,METAR,195.0
KDSM 230854Z 12009KT 10SM CLR 18/11 A2962 RMK AO2 SLP022 T01780111 57005,KDSM,2022-10-23T08:54:00Z,41.53,-93.67,17.8,11.1,120,9,,10.0,29.619095,1002.2,,,TRUE,,,,,,,CLR,,,,,,,,VFR,-0.5,,,,,,,,,,,METAR,286.0
KDMH 230854Z AUTO 11/06 A3025 RMK AO1 SLP245 T01110061 50003,KDMH,2022-10-23T08:54:00Z,39.28,-76.62,11.1,6.1,,,,,30.250984,1024.5,,TRUE,TRUE,,,,,,,,,,,,,,,,0.3,,,,,,,,,,,METAR,4.0
KDEC 230854Z AUTO 17013G24KT 10SM FEW060 18/12 A2990 RMK AO2 SLP120 T01780117 56008,KDEC,2022-10-23T08:54:00Z,39.83,-88.87,17.8,11.7,170,13,24,10.0,29.899607,1012.0,,TRUE,TRUE,,,,,,,FEW,6000,,,,,,,VFR,-0.8,,,,,,,,,,,METAR,205.0
KDDH 230854Z AUTO 00000KT 10SM CLR 03/M01 A3031 RMK AO2 SLP266 T00331006 53002,KDDH,2022-10-23T08:54:00Z,42.9,-73.25,3.3,-0.6,0,0,,10.0,30.31004,1026.6,,TRUE,TRUE,,,,,,,CLR,,,,,,,,VFR,0.2,,,,,,,,,,,SPECI,241.0
KCRW 230854Z 00000KT 9SM CLR 06/06 A3019 RMK AO2 SLP219 T00610056 53010,KCRW,2022-10-23T08:54:00Z,38.38,-81.58,6.1,5.6,0,0,,9.0,30.188976,1021.9,,,TRUE,,,,,,,CLR,,,,,,,,VFR,1.0,,,,,,,,,,,METAR,278.0
KCOU 230854Z AUTO 15012KT 10SM CLR 19/13 A2974 RMK AO2 SLP061 T01890128 58008,KCOU,2022-10-23T08:54:00Z,38.82,-92.22,18.9,12.8,150,12,,10.0,29.740158,1006.1,,TRUE,TRUE,,,,,,,CLR,,,,,,,,VFR,-0.8,,,,,,,,,,,METAR,272.0
KCOS 230854Z 20023G33KT 10SM FEW080 SCT180 16/M03 A2946 RMK AO2 PK WND 19033/0829 SLP884 T01561028 56020 $,KCOS,2022-10-23T08:54:00Z,38.82,-104.68,15.6,-2.8,200,23,33,10.0,29.459646,988.4,,,TRUE,TRUE,,,,,,FEW,8000,SCT,18000,,,,,VFR,-2.0,,,,,,,,,,,METAR,1886.0
KCEU 230854Z AUTO 00000KT 10SM CLR 09/07 A3020 RMK AO2 SLP221 T00890067 50003,KCEU,2022-10-23T08:54:00Z,34.67,-82.88,8.9,6.7,0,0,,10.0,30.200787,1022.1,,TRUE,TRUE,,,,,,,CLR,,,,,,,,VFR,0.3,,,,,,,,,,,METAR,270.0
KCAR 230854Z AUTO 00000KT 10SM CLR 06/04 A3029 RMK AO2 SLP264 T00610044 51010,KCAR,2022-10-23T08:54:00Z,46.87,-68.02,6.1,4.4,0,0,,10.0,30.28937,1026.4,,TRUE,TRUE,,,,,,,CLR,,,,,,,,VFR,1.0,,,,,,,,,,,METAR,189.0
KBWI 230854Z 00000KT 10SM BKN250 06/05 A3024 RMK AO2 SLP239 T00610050 58000 $,KBWI,2022-10-23T08:54:00Z,39.17,-76.68,6.1,5.0,0,0,,10.0,30.239174,1023.9,,,TRUE,TRUE,,,,,,BKN,25000,,,,,,,VFR,0.0,,,,,,,,,,,METAR,42.0
KBUY 230854Z AUTO 36003KT 10SM CLR 06/04 A3019 RMK AO2 SLP223 T00560044 53002,KBUY,2022-10-23T08:54:00Z,36.05,-79.47,5.6,4.4,360,3,,10.0,30.188976,1022.3,,TRUE,TRUE,,,,,,,CLR,,,,,,,,VFR,0.2,,,,,,,,,,,METAR,185.0
KBUF 230854Z 15006KT 10SM CLR 11/03 A3020 RMK AO2 SLP226 T01060028 53005 $,KBUF,2022-10-23T08:54:00Z,42.93,-78.73,10.6,2.8,150,6,,10.0,30.200787,1022.6,,,TRUE,TRUE,,,,,,CLR,,,,,,,,VFR,0.5,,,,,,,,,,,METAR,217.0
KBTV 230854Z AUTO 00000KT 10SM CLR 07/03 A3030 RMK AO2 SLP261 T00720033 53006,KBTV,2022-10-23T08:54:00Z,44.47,-73.15,7.2,3.3,0,0,,10.0,30.301182,1026.1,,TRUE,TRUE,,,,,,,CLR,,,,,,,,VFR,0.6,,,,,,,,,,,METAR,101.0
KBOS 230854Z 00000KT 10SM OVC150 11/08 A3032 RMK AO2 SLP267 T01060083 55004,KBOS,2022-10-23T08:54:00Z,42.37,-71.02,10.6,8.3,0,0,,10.0,30.318897,1026.7,,,TRUE,,,,,,,OVC,15000,,,,,,,VFR,-0.4,,,,,,,,,,,METAR,4.0
KBFL 230854Z AUTO 33008KT 10SM FEW080 14/06 A2980 RMK AO2 SLP086 T01390061 51018,KBFL,2022-10-23T08:54:00Z,35.43,-119.05,13.9,6.1,330,8,,10.0,29.799213,1008.6,,TRUE,TRUE,,,,,,,FEW,8000,,,,,,,VFR,1.8,,,,,,,,,,,METAR,146.0
KAVP 230854Z A3030 RMK AO2 SLPNO 53006 $,KAVP,2022-10-23T08:54:00Z,41.33,-75.72,,,,,,,30.301182,,,,TRUE,TRUE,,,,,,,,,,,,,,,0.6,,,,,,,,,,,METAR,290.0
KAVL 230854Z AUTO 00000KT 10SM CLR 02/01 A3024 RMK AO2 SLP233 T00220006 51004,KAVL,2022-10-23T08:54:00Z,35.43,-82.53,2.2,0.6,0,0,,10.0,30.239174,1023.3,,TRUE,TRUE,,,,,,,CLR,,,,,,,,VFR,0.4,,,,,,,,,,,METAR,646.0
KAUW 230854Z AUTO A2980 RMK AO2 SLPNO 51006 PWINO FZRANO $,KAUW,2022-10-23T08:54:00Z,44.93,-89.62,,,,,,,29.799213,,,TRUE,TRUE,TRUE,,,TRUE,TRUE,,,,,,,,,,,0.6,,,,,,,,,,,METAR,367.0
KAPN 230854Z AUTO 19004KT 10SM CLR 13/09 A3001 RMK AO2 SLP163 T01330089 52009,KAPN,2022-10-23T08:54:00Z,45.07,-83.57,13.3,8.9,190,4,,10.0,30.008858,1016.3,,TRUE,TRUE,,,,,,,CLR,,,,,,,,VFR,0.9,,,,,,,,,,,METAR,208.0
KAPC 230854Z AUTO 16004KT 10SM CLR 08/02 A2987 RMK AO2 SLP107 T00830022 53016,KAPC,2022-10-23T08:54:00Z,38.2,-122.28,8.3,2.2,160,4,,10.0,29.870079,1010.7,,TRUE,TRUE,,,,,,,CLR,,,,,,,,VFR,1.6,,,,,,,,,,,METAR,5.0
KALO 230854Z AUTO 15011KT 10SM FEW070 17/10 A2968 RMK AO2 SLP044 T01720100 58002,KALO,2022-10-23T08:54:00Z,42.55,-92.4,17.2,10.0,150,11,,10.0,29.681103,1004.4,,TRUE,TRUE,,,,,,,FEW,7000,,,,,,,VFR,-0.2,,,,,,,,,,,METAR,264.0
KAKR 230854Z AUTO 00000KT 10SM CLR 12/03 A3018 RMK AO2 SLP215 T01220033 53010,KAKR,2022-10-23T08:54:00Z,41.03,-81.47,12.2,3.3,0,0,,10.0,30.180119,1021.5,,TRUE,TRUE,,,,,,,CLR,,,,,,,,VFR,1.0,,,,,,,,,,,METAR,319.0
KAKQ 230854Z AUTO VRB03KT 10SM CLR 11/09 A3017 RMK AO2 SLP215 T01060094 56008,KAKQ,2022-10-23T08:54:00Z,36.98,-77.0,10.6,9.4,0,3,,10.0,30.171259,1021.5,,TRUE,TRUE,,,,,,,CLR,,,,,,,,VFR,-0.8,,,,,,,,,,,METAR,34.0
KAKH 230854Z AUTO 35006KT 10SM CLR 09/04 A3019 RMK AO2 SLP221 T00890044 53001,KAKH,2022-10-23T08:54:00Z,35.2,-81.15,8.9,4.4,350,6,,10.0,30.188976,1022.1,,TRUE,TRUE,,,,,,,CLR,,,,,,,,VFR,0.1,,,,,,,,,,,METAR,242.0
KACY 230854Z AUTO 01005KT 10SM OVC025 13/12 A3022 RMK AO2 RAB09E18 SLP232 P0000 60000 T01330122 56005,KACY,2022-10-23T08:54:00Z,39.45,-74.57,13.3,12.2,10,5,,10.0,30.221457,1023.2,,TRUE,TRUE,,,,,,,OVC,2500,,,,,,,MVFR,-0.5,,,,,0.005,0.005,,,,,METAR,18.0
KAAO 230854Z AUTO 17012G21KT 10SM CLR 22/12 A2952 RMK AO2 PK WND 18027/0834 SLP981 T02170117 56004,KAAO,2022-10-23T08:54:00Z,37.75,-97.22,21.7,11.7,170,12,21,10.0,29.518702,998.1,,TRUE,TRUE,,,,,,,CLR,,,,,,,,VFR,-0.4,,,,,,,,,,,METAR,429.0
K1V4 230854Z AUTO 02/01 A3033 RMK AO1 SLP271 6//// T00220006 53004 PNO,K1V4,2022-10-23T08:54:00Z,44.42,-72.02,2.2,0.6,,,,,30.33071,1027.1,,TRUE,TRUE,,,,,,,,,,,,,,,,0.4,,,,,,,,,,,SPECI,213.0
K12N 230854Z AUTO 00000KT 07/06 A3029 RMK AO1 SLP257 T00720056 53001,K12N,2022-10-23T08:54:00Z,41.02,-74.73,7.2,5.6,0,0,,,30.28937,1025.7,,TRUE,TRUE,,,,,,,,,,,,,,,,0.1,,,,,,,,,,,METAR,178.0
TJNR 230853Z AUTO 34004KT 10SM CLR 23/22 A2991 RMK AO2 SLP128 60004 T02330217 55004,TJNR,2022-10-23T08:53:00Z,18.25,-65.63,23.3,21.7,340,4,,10.0,29.911417,1012.8,,TRUE,TRUE,,,,,,,CLR,,,,,,,,VFR,-0.4,,,,,,,,,,,SPECI,7.0
TISX 230853Z AUTO 36004KT 10SM CLR 25/23 A2989 RMK AO2 SLP121 T02500228 55004 TSNO $,TISX,2022-10-23T08:53:00Z,17.7,-64.8,25.0,22.8,360,4,,10.0,29.890747,1012.1,,TRUE,TRUE,TRUE,,TRUE,,,,CLR,,,,,,,,VFR,-0.4,,,,,,,,,,,SPECI,16.0
TIST 230853Z AUTO 05005KT 10SM CLR 27/24 A2989 RMK AO2 SLP123 T02670239 55001,TIST,2022-10-23T08:53:00Z,18.33,-64.98,26.7,23.9,50,5,,10.0,29.890747,1012.3,,TRUE,TRUE,,,,,,,CLR,,,,,,,,VFR,-0.1,,,,,,,,,,,SPECI,5.0
PHTO 230853Z AUTO 23006KT 10SM FEW060 21/15 A3006 RMK AO2 SLP178 T02110150 50001 TSNO,PHTO,2022-10-23T08:53:00Z,19.72,-155.05,21.1,15.0,230,6,,10.0,30.059055,1017.8,,TRUE,TRUE,,,TRUE,,,,FEW,6000,,,,,,,VFR,0.1,,,,,,,,,,,METAR,9.0
PHNL 230853Z 06009KT 10SM FEW025 27/20 A3005 RMK AO2 SLP175 T02670200 51010,PHNL,2022-10-23T08:53:00Z,21.33,-157.93,26.7,20.0,60,9,,10.0,30.050198,1017.5,,,TRUE,,,,,,,FEW,2500,,,,,,,VFR,1.0,,,,,,,,,,,METAR,2.0
PHKO 230853Z AUTO 27006KT 10SM SCT045 27/19 A2999 RMK AO2 SLP156 T02720189 50001 TSNO,PHKO,2022-10-23T08:53:00Z,19.73,-156.05,27.2,18.9,270,6,,10.0,29.991142,1015.6,,TRUE,TRUE,,,TRUE,,,,SCT,4500,,,,,,,VFR,0.1,,,,,,,,,,,METAR,11.0
PHJR 230853Z AUTO 07005KT 10SM CLR 25/19 A3006 RMK AO2 SLP185 T02500189 51008 TSNO,PHJR,2022-10-23T08:53:00Z,21.32,-158.07,25.0,18.9,70,5,,10.0,30.059055,1018.5,,TRUE,TRUE,,,TRUE,,,,CLR,,,,,,,,VFR,0.8,,,,,,,,,,,SPECI,9.0
PAYA 230853Z AUTO 08005KT 10SM BKN035 BKN043 04/02 A2972 RMK AO2 RAB03E13B42E53 SLP063 P0000 60001 T00390017 400781017 58010 TSNO $,PAYA,2022-10-23T08:53:00Z,59.52,-139.67,3.9,1.7,80,5,,10.0,29.719488,1006.3,,TRUE,TRUE,TRUE,,TRUE,,,,BKN,3500,BKN,4300,,,,,VFR,-1.0,,,7.8,-1.7,0.005,0.01,,,,,METAR,9.0
PAWI 230853Z AUTO 10012KT 10SM CLR M11/M13 A2987 RMK AO2 SLP115 T11111128 410501111 TSNO $,PAWI,2022-10-23T08:53:00Z,70.63,-160.02,-11.1,-12.8,100,12,,10.0,29.870079,1011.5,,TRUE,TRUE,TRUE,,TRUE,,,,CLR,,,,,,,,VFR,,,,-5.0,-11.1,,,,,,,METAR,12.0
PAWD 230853Z AUTO 02012G18KT 10SM CLR 02/M03 A2972 RMK AO2 SLP063 T00171033 400670011 53003 TSNO,PAWD,2022-10-23T08:53:00Z,60.12,-149.42,1.7,-3.3,20,12,18,10.0,29.719488,1006.3,,TRUE,TRUE,,,TRUE,,,,CLR,,,,,,,,VFR,0.3,,,6.7,1.1,,,,,,,METAR,3.0
PATO 230853Z AUTO 00000KT 10SM OVC065 M01/M02 A2977 RMK AO2 SLP083 T10111017 400221033 53001 TSNO,PATO,2022-10-23T08:53:00Z,60.78,-148.85,-1.1,-1.7,0,0,,10.0,29.769686,1008.3,,TRUE,TRUE,,,TRUE,,,,OVC,6500,,,,,,,VFR,0.1,,,2.2,-3.3,,,,,,,METAR,47.0
PATK 230853Z AUTO 05003KT 10SM CLR M04/M07 A2982 RMK AO2 SLP105 T10441072 400221050 53004 TSNO,PATK,2022-10-23T08:53:00Z,62.32,-150.1,-4.4,-7.2,50,3,,10.0,29.819881,1010.5,,TRUE,TRUE,,,TRUE,,,,CLR,,,,,,,,VFR,0.4,,,2.2,-5.0,,,,,,,METAR,107.0
PASN 230853Z AUTO 25015KT 10SM BKN027 04/00 A3005 RMK AO2 SLP176 T00440000 400720011 53010 TSNO $,PASN,2022-10-23T08:53:00Z,57.15,-170.22,4.4,0.0,250,15,,10.0,30.050198,1017.6,,TRUE,TRUE,TRUE,,TRUE,,,,BKN,2700,,,,,,,MVFR,1.0,,,7.2,1.1,,,,,,,METAR,8.0
PASI 230853Z 10011KT 10SM BKN046 OVC065 08/02 A2973 RMK SLP068 T00830017 400940039 58028,PASI,2022-10-23T08:53:00Z,57.03,-135.35,8.3,1.7,100,11,,10.0,29.731298,1006.8,,,,,,,,,,BKN,4600,OVC,6500,,,,,VFR,-2.8,,,9.4,3.9,,,,,,,METAR,2.0
PAQT 230853Z AUTO 10015KT 10SM OVC045 M06/M08 A3002 RMK AO2 SLP167 T10561078 410441078 53010 TSNO,PAQT,2022-10-23T08:53:00Z,70.22,-151.0,-5.6,-7.8,100,15,,10.0,30.02067,1016.7,,TRUE,TRUE,,,TRUE,,,,OVC,4500,,,,,,,VFR,1.0,,,-4.4,-7.8,,,,,,,METAR,11.0
PAOR 230853Z 00000KT 10SM OVC026 M06/M08 A2982 RMK AO2 SLP134 T10561078 410061083 56001 $,PAOR,2022-10-23T08:53:00Z,62.97,-141.93,-5.6,-7.8,0,0,,10.0,29.819881,1013.4,,,TRUE,TRUE,,,,,,OVC,2600,,,,,,,MVFR,-0.1,,,-0.6,-8.3,,,,,,,METAR,524.0
PANC 230853Z 35011KT 10SM OVC180 00/M04 A2979 RMK AO2 SLP090 T00001039 400221022 53005,PANC,2022-10-23T08:53:00Z,61.17,-150.02,0.0,-3.9,350,11,,10.0,29.790354,1009.0,,,TRUE,,,,,,,OVC,18000,,,,,,,VFR,0.5,,,2.2,-2.2,,,,,,,METAR,39.0
PAMR 230853Z 36005KT 10SM CLR 00/M03 A2979 RMK AO2 SLP091 T00001033 400221039 53003,PAMR,2022-10-23T08:53:00Z,61.22,-149.85,0.0,-3.3,360,5,,10.0,29.790354,1009.1,,,TRUE,,,,,,,CLR,,,,,,,,VFR,0.3,,,2.2,-3.9,,,,,,,METAR,43.0
PALH 230853Z 01008KT 10SM CLR 00/M04 A2980 RMK AO2 SLP092 T00001039 400171028 53003,PALH,2022-10-23T08:53:00Z,61.18,-149.97,0.0,-3.9,10,8,,10.0,29.799213,1009.2,,,TRUE,,,,,,,CLR,,,,,,,,VFR,0.3,,,1.7,-2.8,,,,,,,METAR,26.0
PAKW 230853Z AUTO 10SM FEW027 06/04 A2983 RMK AO2 SLP102 T00560039 401170006 58019 TSNO $,PAKW,2022-10-23T08:53:00Z,55.58,-133.07,5.6,3.9,,,,10.0,29.828741,1010.2,,TRUE,TRUE,TRUE,,TRUE,,,,FEW,2700,,,,,,,VFR,-1.9,,,11.7,0.6,,,,,,,METAR,7.0
PAKT 230853Z AUTO 15004KT 10SM SCT050 06/03 A2991 RMK AO2 SLP129 T00560033 400940028 56010 TSNO,PAKT,2022-10-23T08:53:00Z,55.35,-131.72,5.6,3.3,150,4,,10.0,29.911417,1012.9,,TRUE,TRUE,,,TRUE,,,,SCT,5000,,,,,,,VFR,-1.0,,,9.4,2.8,,,,,,,METAR,27.0
PAJN 230853Z 08009KT 10SM FEW003 BKN043 04/03 A2984 RMK AO2 SLP103 T00390028 400780022 56012 $,PAJN,2022-10-23T08:53:00Z,58.35,-134.55,3.9,2.8,80,9,,10.0,29.840551,1010.3,,,TRUE,TRUE,,,,,,FEW,300,BKN,4300,,,,,VFR,-1.2,,,7.8,2.2,,,,,,,METAR,6.0
PAIL 230853Z AUTO 34006KT 10SM CLR 01/M04 A2987 RMK AO2 SLP119 T00111039 400281017 53017 TSNO,PAIL,2022-10-23T08:53:00Z,59.75,-154.92,1.1,-3.9,340,6,,10.0,29.870079,1011.9,,TRUE,TRUE,,,TRUE,,,,CLR,,,,,,,,VFR,1.7,,,2.8,-1.7,,,,,,,METAR,44.0
PAGK 230853Z AUTO 30003KT 10SM OVC044 M03/M04 A2981 RMK AO2 SLP126 T10281039 410171067 55000 TSNO,PAGK,2022-10-23T08:53:00Z,62.15,-145.45,-2.8,-3.9,300,3,,10.0,29.811024,1012.6,,TRUE,TRUE,,,TRUE,,,,OVC,4400,,,,,,,VFR,0.0,,,-1.7,-6.7,,,,,,,METAR,481.0
PAEN 230853Z AUTO 04006KT 10SM CLR 00/M03 A2981 RMK AO2 SLP095 T00001028 400221044 53007 TSNO,PAEN,2022-10-23T08:53:00Z,60.57,-151.25,0.0,-2.8,40,6,,10.0,29.811024,1009.5,,TRUE,TRUE,,,TRUE,,,,CLR,,,,,,,,VFR,0.7,,,2.2,-4.4,,,,,,,METAR,30.0
PACV 230853Z 00000KT 10SM FEW065 BKN180 02/M01 A2969 RMK AO2 SLP053 T00221006 400941028 58009,PACV,2022-10-23T08:53:00Z,60.5,-145.47,2.2,-0.6,0,0,,10.0,29.68996,1005.3,,,TRUE,,,,,,,FEW,6500,BKN,18000,,,,,VFR,-0.9,,,9.4,-2.8,,,,,,,METAR,15.0
PABT 230853Z 00000KT 10SM OVC018 M05/M07 A2998 RMK AO2 SLP168 T10501072 410171067 52009 $,PABT,2022-10-23T08:53:00Z,66.92,-151.52,-5.0,-7.2,0,0,,10.0,29.97933,1016.8,,,TRUE,TRUE,,,,,,OVC,1800,,,,,,,MVFR,0.9,,,-1.7,-6.7,,,,,,,METAR,195.0
PAAQ 230853Z AUTO 00000KT 10SM CLR M03/M04 A2977 RMK AO2 SLP087 I1000 I3000 T10281044 400501033 52000 TSNO,PAAQ,2022-10-23T08:53:00Z,61.6,-149.08,-2.8,-4.4,0,0,,10.0,29.769686,1008.7,,TRUE,TRUE,,,TRUE,,,,CLR,,,,,,,,VFR,0.0,,,5.0,-3.3,,,,,,,METAR,68.0
MUCM 230853Z VRB01KT 7000 VCFG FEW018 22/21 Q1014,MUCM,2022-10-23T08:53:00Z,21.42,-77.85,22.0,21.0,0,1,,4.35,29.940945,,,,,,,,,,VCFG,FEW,1800,,,,,,,MVFR,,,,,,,,,,,,METAR,125.0
KZZV 230853Z AUTO 00000KT 10SM CLR 08/06 A3018 RMK AO2 SLP216 T00780061 53010,KZZV,2022-10-23T08:53:00Z,39.95,-81.9,7.8,6.1,0,0,,10.0,30.180119,1021.6,,TRUE,TRUE,,,,,,,CLR,,,,,,,,VFR,1.0,,,,,,,,,,,METAR,268.0
KYKM 230853Z AUTO 29005KT 10SM SCT075 02/M02 A2985 RMK AO2 SLP112 T00171017 53019,KYKM,2022-10-23T08:53:00Z,46.57,-120.53,1.7,-1.7,290,5,,10.0,29.84941,1011.2,,TRUE,TRUE,,,,,,,SCT,7500,,,,,,,VFR,1.9,,,,,,,,,,,METAR,319.0
KYIP 230853Z 00000KT 9SM CLR 09/06 A3010 RMK AO2 SLP189 T00940061 53006,KYIP,2022-10-23T08:53:00Z,42.23,-83.53,9.4,6.1,0,0,,9.0,30.100393,1018.9,,,TRUE,,,,,,,CLR,,,,,,,,VFR,0.6,,,,,,,,,,,METAR,215.0
KXNA 230853Z AUTO 18019G28KT 10SM CLR 21/13 A2978 RMK AO2 PK WND 18032/0827 RAB02E47 SLP068 P0000 60000 T02060133 53001,KXNA,2022-10-23T08:53:00Z,36.28,-94.3,20.6,13.3,180,19,28,10.0,29.778543,1006.8,,TRUE,TRUE,,,,,,,CLR,,,,,,,,VFR,0.1,,,,,0.005,0.005,,,,,METAR,390.0
KWVI 230853Z AUTO 34003KT 10SM CLR 07/06 A2988 RMK AO2 SLP118 T00720061 51016,KWVI,2022-10-23T08:53:00Z,36.93,-121.78,7.2,6.1,340,3,,10.0,29.878937,1011.8,,TRUE,TRUE,,,,,,,CLR,,,,,,,,VFR,1.6,,,,,,,,,,,METAR,47.0
KWST 230853Z AUTO 02003KT 10SM CLR 10/09 A3029 RMK AO2 SLP258 T01000089 55003,KWST,2022-10-23T08:53:00Z,41.35,-71.8,10.0,8.9,20,3,,10.0,30.28937,1025.8,,TRUE,TRUE,,,,,,,CLR,,,,,,,,VFR,-0.3,,,,,,,,,,,METAR,20.0
KVUO 230853Z AUTO 00000KT 10SM FEW040 OVC055 08/06 A2997 RMK AO2 SLP148 T00830056 51015 $,KVUO,2022-10-23T08:53:00Z,45.62,-122.65,8.3,5.6,0,0,,10.0,29.970472,1014.8,,TRUE,TRUE,TRUE,,,,,,FEW,4000,OVC,5500,,,,,VFR,1.5,,,,,,,,,,,METAR,7.0
KVRB 230853Z AUTO 30003KT 9SM CLR 18/18 A3003 RMK AO2 SLP167 T01830183 55005,KVRB,2022-10-23T08:53:00Z,27.65,-80.42,18.3,18.3,300,3,,9.0,30.029528,1016.7,,TRUE,TRUE,,,,,,,CLR,,,,,,,,VFR,-0.5,,,,,,,,,,,METAR,7.0
KVLD 230853Z AUTO 00000KT 9SM CLR 06/04 A3013 RMK AO2 SLP209 T00560039 55002 $,KVLD,2022-10-23T08:53:00Z,30.78,-83.27,5.6,3.9,0,0,,9.0,30.129921,1020.9,,TRUE,TRUE,TRUE,,,,,,CLR,,,,,,,,VFR,-0.2,,,,,,,,,,,METAR,59.0
KVIH 230853Z AUTO 17013G21KT 10SM CLR 19/12 A2980 RMK AO2 SLP081 T01890122 56003 $,KVIH,2022-10-23T08:53:00Z,38.13,-91.77,18.9,12.2,170,13,21,10.0,29.799213,1008.1,,TRUE,TRUE,TRUE,,,,,,CLR,,,,,,,,VFR,-0.3,,,,,,,,,,,METAR,342.0
KVGT 230853Z AUTO 31016KT 10SM -RA OVC070 15/01 A2964 RMK AO2 RAB0757 SLP035 P0000 60000 T01500011 51027 $,KVGT,2022-10-23T08:53:00Z,36.22,-115.2,15.0,1.1,310,16,,10.0,29.639763,1003.5,,TRUE,TRUE,TRUE,,,,,-RA,OVC,7000,,,,,,,VFR,2.7,,,,,0.005,0.005,,,,,METAR,664.0
KVCB 230853Z AUTO 31006KT 10SM CLR 14/01 A2985 RMK AO2 SLP108 T01440011 53017,KVCB,2022-10-23T08:53:00Z,38.38,-121.95,14.4,1.1,310,6,,10.0,29.84941,1010.8,,TRUE,TRUE,,,,,,,CLR,,,,,,,,VFR,1.7,,,,,,,,,,,METAR,30.0
KUUU 230853Z AUTO 00000KT 10SM CLR 11/11 A3030 RMK AO2 SLP260 T01110106 55003 $,KUUU,2022-10-23T08:53:00Z,41.53,-71.28,11.1,10.6,0,0,,10.0,30.301182,1026.0,,TRUE,TRUE,TRUE,,,,,,CLR,,,,,,,,VFR,-0.3,,,,,,,,,,,METAR,45.0
KUTS 230853Z AUTO 17004KT 10SM FEW029 21/18 A2989 RMK AO2 SLP118 T02110183 56003,KUTS,2022-10-23T08:53:00Z,30.75,-95.58,21.1,18.3,170,4,,10.0,29.890747,1011.8,,TRUE,TRUE,,,,,,,FEW,2900,,,,,,,VFR,-0.3,,,,,,,,,,,METAR,103.0
KUNO 230853Z AUTO 17007KT 10SM CLR 17/12 A2987 RMK AO2 SLP103 T01720122 56004,KUNO,2022-10-23T08:53:00Z,36.88,-91.9,17.2,12.2,170,7,,10.0,29.870079,1010.3,,TRUE,TRUE,,,,,,,CLR,,,,,,,,VFR,-0.4,,,,,,,,,,,METAR,376.0
KUIL 230853Z AUTO 08006KT 10SM CLR 04/03 A2992 RMK AO2 SLP134 T00390033 51013,KUIL,2022-10-23T08:53:00Z,47.93,-124.55,3.9,3.3,80,6,,10.0,29.920275,1013.4,,TRUE,TRUE,,,,,,,CLR,,,,,,,,VFR,1.3,,,,,,,,,,,METAR,58.0
KUAO 230853Z AUTO 19004KT 10SM FEW049 OVC070 07/07 A2997 RMK AO2 RAE0754 SLP150 P0000 60001 T00720067 51016,KUAO,2022-10-23T08:53:00Z,45.25,-122.77,7.2,6.7,190,4,,10.0,29.970472,1015.0,,TRUE,TRUE,,,,,,,FEW,4900,OVC,7000,,,,,VFR,1.6,,,,,0.005,0.01,,,,,METAR,60.0
KTYS 230853Z 03004KT 10SM CLR 08/07 A3017 RMK AO2 SLP212 T00830067 53002,KTYS,2022-10-23T08:53:00Z,35.82,-83.98,8.3,6.7,30,4,,10.0,30.171259,1021.2,,,TRUE,,,,,,,CLR,,,,,,,,VFR,0.2,,,,,,,,,,,METAR,300.0
KTYR 230853Z AUTO 16012KT 10SM CLR 21/18 A2988 RMK AO2 SLP110 T02060178 50001 $,KTYR,2022-10-23T08:53:00Z,32.37,-95.4,20.6,17.8,160,12,,10.0,29.878937,1011.0,,TRUE,TRUE,TRUE,,,,,,CLR,,,,,,,,VFR,0.1,,,,,,,,,,,METAR,161.0
KTXK 230853Z 16008KT 10SM CLR 21/16 A2991 RMK AO2 SLP124 T02110156 50003,KTXK,2022-10-23T08:53:00Z,33.45,-93.98,21.1,15.6,160,8,,10.0,29.911417,1012.4,,,TRUE,,,,,,,CLR,,,,,,,,VFR,0.3,,,,,,,,,,,METAR,118.0
KTWF 230853Z AUTO 26015G24KT 10SM CLR 01/M02 A2966 RMK AO2 PK WND 26027/0825 SLP035 T00111017 53005,KTWF,2022-10-23T08:53:00Z,42.48,-114.48,1.1,-1.7,260,15,24,10.0,29.660433,1003.5,,TRUE,TRUE,,,,,,,CLR,,,,,,,,VFR,0.5,,,,,,,,,,,METAR,1269.0
KTVR 230853Z AUTO 17009KT 10SM CLR 17/13 A3004 RMK AO2 SLP177 T01720133 57000,KTVR,2022-10-23T08:53:00Z,32.35,-91.03,17.2,13.3,170,9,,10.0,30.041338,1017.7,,TRUE,TRUE,,,,,,,CLR,,,,,,,,VFR,0.0,,,,,,,,,,,METAR,25.0
KTVL 230853Z AUTO 19005KT 10SM FEW043 BKN050 M02/M04 A2983 RMK AO2 SLP088 60000 T10221039 51005,KTVL,2022-10-23T08:53:00Z,38.9,-120.0,-2.2,-3.9,190,5,,10.0,29.828741,1008.8,,TRUE,TRUE,,,,,,,FEW,4300,BKN,5000,,,,,VFR,0.5,,,,,,0.005,,,,,METAR,1907.0
KTVC 230853Z AUTO VRB03KT 10SM CLR 18/11 A2995 RMK AO2 SLP138 T01830111 51009,KTVC,2022-10-23T08:53:00Z,44.73,-85.58,18.3,11.1,0,3,,10.0,29.949802,1013.8,,TRUE,TRUE,,,,,,,CLR,,,,,,,,VFR,0.9,,,,,,,,,,,METAR,188.0
KTUS 230853Z VRB06KT 10SM FEW045 20/12 A2981 RMK AO2 PK WND 24027/0754 SLP049 T02000117 53006,KTUS,2022-10-23T08:53:00Z,32.13,-110.95,20.0,11.7,0,6,,10.0,29.811024,1004.9,,,TRUE,,,,,,,FEW,4500,,,,,,,VFR,0.6,,,,,,,,,,,METAR,776.0
KTUP 230853Z AUTO 16005KT 10SM CLR 16/11 A3008 RMK AO2 SLP184 T01560106 51010 $,KTUP,2022-10-23T08:53:00Z,34.27,-88.77,15.6,10.6,160,5,,10.0,30.079725,1018.4,,TRUE,TRUE,TRUE,,,,,,CLR,,,,,,,,VFR,1.0,,,,,,,,,,,METAR,107.0
KTUL 230853Z 17020G33KT 10SM SCT250 23/14 A2967 RMK AO2 PK WND 18033/0849 SLP038 T02330139 53003,KTUL,2022-10-23T08:53:00Z,36.2,-95.88,23.3,13.9,170,20,33,10.0,29.66929,1003.8,,,TRUE,,,,,,,SCT,25000,,,,,,,VFR,0.3,,,,,,,,,,,METAR,196.0
KTTN 230853Z AUTO 35004KT 10SM BKN032 OVC040 10/08 A3025 RMK AO2 SLP239 T01000078 55002,KTTN,2022-10-23T08:53:00Z,40.28,-74.82,10.0,7.8,350,4,,10.0,30.250984,1023.9,,TRUE,TRUE,,,,,,,BKN,3200,OVC,4000,,,,,VFR,-0.2,,,,,,,,,,,METAR,58.0
KTTD 230853Z AUTO 00000KT 10SM SCT030 BKN045 OVC055 08/06 A2996 RMK AO2 RAB01E19 SLP145 P0001 60001 T00830061 51015,KTTD,2022-10-23T08:53:00Z,45.55,-122.42,8.3,6.1,0,0,,10.0,29.958662,1014.5,,TRUE,TRUE,,,,,,,SCT,3000,BKN,4500,OVC,5500,,,VFR,1.5,,,,,0.01,0.01,,,,,METAR,8.0
KTRL 230853Z AUTO 17010KT 10SM CLR 21/14 A2984 RMK AO2 SLP098 T02060144 53004,KTRL,2022-10-23T08:53:00Z,32.72,-96.27,20.6,14.4,170,10,,10.0,29.840551,1009.8,,TRUE,TRUE,,,,,,,CLR,,,,,,,,VFR,0.4,,,,,,,,,,,METAR,144.0
KTRI 230853Z 00000KT 10SM SCT250 04/02 A3022 RMK AO2 SLP219 T00390022 51006 $,KTRI,2022-10-23T08:53:00Z,36.48,-82.4,3.9,2.2,0,0,,10.0,30.221457,1021.9,,,TRUE,TRUE,,,,,,SCT,25000,,,,,,,VFR,0.6,,,,,,,,,,,METAR,456.0
KTPA 230853Z 03005KT 10SM CLR 18/14 A3007 RMK AO2 SLP181 T01780139 58002,KTPA,2022-10-23T08:53:00Z,27.97,-82.53,17.8,13.9,30,5,,10.0,30.070866,1018.1,,,TRUE,,,,,,,CLR,,,,,,,,VFR,-0.2,,,,,,,,,,,METAR,2.0
KTOP 230853Z AUTO 17013G24KT 10SM CLR 23/13 A2951 RMK AO2 SLP984 T02280133 58010,KTOP,2022-10-23T08:53:00Z,39.07,-95.63,22.8,13.3,170,13,24,10.0,29.509842,998.4,,TRUE,TRUE,,,,,,,CLR,,,,,,,,VFR,-1.0,,,,,,,,,,,METAR,268.0
KTOI 230853Z AUTO 00000KT 10SM CLR 06/04 A3015 RMK AO2 SLP208 T00560039 53004,KTOI,2022-10-23T08:53:00Z,31.85,-86.02,5.6,3.9,0,0,,10.0,30.15059,1020.8,,TRUE,TRUE,,,,,,,CLR,,,,,,,,VFR,0.4,,,,,,,,,,,METAR,120.0
KTMB 230853Z 36003KT 10SM CLR 20/19 A3000 RMK AO2 SLP158 60000 T02000189 55003,KTMB,2022-10-23T08:53:00Z,25.65,-80.43,20.0,18.9,360,3,,10.0,30.0,1015.8,,,TRUE,,,,,,,CLR,,,,,,,,VFR,-0.3,,,,,,0.005,,,,,METAR,2.0
KTLH 230853Z AUTO 31003KT 10SM CLR 06/03 A3012 RMK AO2 SLP199 T00560033 51001,KTLH,2022-10-23T08:53:00Z,30.4,-84.35,5.6,3.3,310,3,,10.0,30.121063,1019.9,,TRUE,TRUE,,,,,,,CLR,,,,,,,,VFR,0.1,,,,,,,,,,,METAR,17.0
KTHV 230853Z AUTO 00000KT 10SM CLR 02/01 A3027 RMK AO2 SLP254 T00170006 53002,KTHV,2022-10-23T08:53:00Z,39.92,-76.88,1.7,0.6,0,0,,10.0,30.268702,1025.4,,TRUE,TRUE,,,,,,,CLR,,,,,,,,VFR,0.2,,,,,,,,,,,METAR,141.0
KTDZ 230853Z AUTO 16006KT 10SM CLR 13/09 A3011 RMK AO2 SLP195 T01280089 51008,KTDZ,2022-10-23T08:53:00Z,41.57,-83.48,12.8,8.9,160,6,,10.0,30.109253,1019.5,,TRUE,TRUE,,,,,,,CLR,,,,,,,,VFR,0.8,,,,,,,,,,,METAR,189.0
KTCS 230853Z AUTO 22007KT 10SM -RA SCT028 BKN040 OVC100 14/12 A2975 RMK AO2 PK WND 27026/0754 LTG DSNT SW RAB0757 TSE0757B30E45 SLP006 P0011 60011 T01390122 58012,KTCS,2022-10-23T08:53:00Z,33.23,-107.27,13.9,12.2,220,7,,10.0,29.749016,1000.6,,TRUE,TRUE,,,,,,-RA,SCT,2800,BKN,4000,OVC,10000,,,VFR,-1.2,,,,,0.11,0.11,,,,,METAR,1471.0
KTCL 230853Z AUTO 00000KT 8SM CLR 11/09 A3013 RMK AO2 SLP200 T01110094 51005,KTCL,2022-10-23T08:53:00Z,33.22,-87.62,11.1,9.4,0,0,,8.0,30.129921,1020.0,,TRUE,TRUE,,,,,,,CLR,,,,,,,,VFR,0.5,,,,,,,,,,,METAR,48.0
KTCC 230853Z AUTO 22017G26KT 10SM CLR 17/11 A2964 RMK AO2 PK WND 21029/0806 SLP980 T01670106 57010,KTCC,2022-10-23T08:53:00Z,35.18,-103.6,16.7,10.6,220,17,26,10.0,29.639763,998.0,,TRUE,TRUE,,,,,,,CLR,,,,,,,,VFR,-1.0,,,,,,,,,,,METAR,1233.0
KSWO 230853Z AUTO 18019G24KT 10SM CLR 24/13 A2961 RMK AO2 PK WND 18027/0759 SLP012 T02440128 51004,KSWO,2022-10-23T08:53:00Z,36.17,-97.08,24.4,12.8,180,19,24,10.0,29.610237,1001.2,,TRUE,TRUE,,,,,,,CLR,,,,,,,,VFR,0.4,,,,,,,,,,,METAR,293.0
KSTS 230853Z AUTO 32013KT 10SM CLR 11/03 A2988 RMK AO2 SLP111 T01110028 51006,KSTS,2022-10-23T08:53:00Z,38.5,-122.82,11.1,2.8,320,13,,10.0,29.878937,1011.1,,TRUE,TRUE,,,,,,,CLR,,,,,,,,VFR,0.6,,,,,,,,,,,METAR,35.0
KSTP 230853Z AUTO 15005KT 10SM CLR 14/08 A2964 RMK AO2 SLP033 T01440078 51008,KSTP,2022-10-23T08:53:00Z,44.93,-93.05,14.4,7.8,150,5,,10.0,29.639763,1003.3,,TRUE,TRUE,,,,,,,CLR,,,,,,,,VFR,0.8,,,,,,,,,,,METAR,213.0
KSTJ 230853Z AUTO 16010KT 10SM CLR 19/13 A2955 RMK AO2 SLP000 T01890133 58009,KSTJ,2022-10-23T08:53:00Z,39.77,-94.92,18.9,13.3,160,10,,10.0,29.551182,1000.0,,TRUE,TRUE,,,,,,,CLR,,,,,,,,VFR,-0.9,,,,,,,,,,,METAR,247.0
KSTC 230853Z AUTO 10003KT 10SM CLR 12/07 A2959 RMK AO2 SLP027 T01220067 53004,KSTC,2022-10-23T08:53:00Z,45.55,-94.05,12.2,6.7,100,3,,10.0,29.589567,1002.7,,TRUE,TRUE,,,,,,,CLR,,,,,,,,VFR,0.4,,,,,,,,,,,METAR,302.0
KSSI 230853Z AUTO 34005KT 10SM CLR 14/10 A3010 RMK AO2 SLP194 T01440100 55000,KSSI,2022-10-23T08:53:00Z,31.15,-81.38,14.4,10.0,340,5,,10.0,30.100393,1019.4,,TRUE,TRUE,,,,,,,CLR,,,,,,,,VFR,0.0,,,,,,,,,,,METAR,6.0
KSRQ 230853Z AUTO 04005KT 10SM CLR 18/16 A3003 RMK AO2 SLP169 T01780156 56003,KSRQ,2022-10-23T08:53:00Z,27.4,-82.57,17.8,15.6,40,5,,10.0,30.029528,1016.9,,TRUE,TRUE,,,,,,,CLR,,,,,,,,VFR,-0.3,,,,,,,,,,,METAR,5.0
KSPW 230853Z AUTO 14011KT 10SM CLR 15/08 A2954 RMK AO2 SLP994 T01500083 58009,KSPW,2022-10-23T08:53:00Z,43.17,-95.22,15.0,8.3,140,11,,10.0,29.53937,999.4,,TRUE,TRUE,,,,,,,CLR,,,,,,,,VFR,-0.9,,,,,,,,,,,SPECI,407.0
KSPG 230853Z AUTO 03007KT 10SM CLR 19/18 A3004 RMK AO2 SLP173 T01940178 58003,KSPG,2022-10-23T08:53:00Z,27.77,-82.63,19.4,17.8,30,7,,10.0,30.041338,1017.3,,TRUE,TRUE,,,,,,,CLR,,,,,,,,VFR,-0.3,,,,,,,,,,,METAR,1.0
KSPB 230853Z AUTO 00000KT 10SM BKN046 06/05 A2995 RMK AO2 SLP143 T00560050 51016,KSPB,2022-10-23T08:53:00Z,45.77,-122.87,5.6,5.0,0,0,,10.0,29.949802,1014.3,,TRUE,TRUE,,,,,,,BKN,4600,,,,,,,VFR,1.6,,,,,,,,,,,METAR,15.0
KSNY 230853Z AUTO 23008KT 10SM CLR 04/M07 A2930 RMK AO2 SLP885 T00391067 56014,KSNY,2022-10-23T08:53:00Z,41.1,-102.98,3.9,-6.7,230,8,,10.0,29.300198,988.5,,TRUE,TRUE,,,,,,,CLR,,,,,,,,VFR,-1.4,,,,,,,,,,,METAR,1307.0
KSNS 230853Z AUTO 22004KT 10SM CLR 13/08 A2988 RMK AO2 SLP127 T01280078 51016,KSNS,2022-10-23T08:53:00Z,36.67,-121.6,12.8,7.8,220,4,,10.0,29.878937,1012.7,,TRUE,TRUE,,,,,,,CLR,,,,,,,,VFR,1.6,,,,,,,,,,,METAR,20.0
KSMQ 230853Z AUTO 00000KT 9SM OVC037 08/07 A3026 RMK AO2 SLP246 T00830072 55004,KSMQ,2022-10-23T08:53:00Z,40.62,-74.67,8.3,7.2,0,0,,9.0,30.259842,1024.6,,TRUE,TRUE,,,,,,,OVC,3700,,,,,,,VFR,-0.4,,,,,,,,,,,METAR,30.0
KSMF 230853Z 33015KT 10SM CLR 14/01 A2983 RMK AO2 SLP100 T01440006 51015,KSMF,2022-10-23T08:53:00Z,38.7,-121.6,14.4,0.6,330,15,,10.0,29.828741,1010.0,,,TRUE,,,,,,,CLR,,,,,,,,VFR,1.5,,,,,,,,,,,METAR,7.0
KSLN 230853Z AUTO 17014KT 10SM CLR 20/09 A2943 RMK AO2 SLP952 T02000094 56009,KSLN,2022-10-23T08:53:00Z,38.8,-97.65,20.0,9.4,170,14,,10.0,29.430119,995.2,,TRUE,TRUE,,,,,,,CLR,,,,,,,,VFR,-0.9,,,,,,,,,,,METAR,377.0
KSJC 230853Z AUTO 33005KT 10SM CLR 12/06 A2988 RMK AO2 SLP118 T01220056 51015,KSJC,2022-10-23T08:53:00Z,37.37,-121.92,12.2,5.6,330,5,,10.0,29.878937,1011.8,,TRUE,TRUE,,,,,,,CLR,,,,,,,,VFR,1.5,,,,,,,,,,,METAR,13.0
KSIY 230853Z AUTO 00000KT 10SM BKN035 03/02 A2998 RMK AO2 SLP166 60000 T00330022 53012,KSIY,2022-10-23T08:53:00Z,41.77,-122.47,3.3,2.2,0,0,,10.0,29.97933,1016.6,,TRUE,TRUE,,,,,,,BKN,3500,,,,,,,VFR,1.2,,,,,,0.005,,,,,METAR,807.0
KSHR 230853Z AUTO 28005KT 10SM OVC046 08/06 A2942 RMK AO2 SLP949 T00780056 58002,KSHR,2022-10-23T08:53:00Z,44.77,-106.97,7.8,5.6,280,5,,10.0,29.421259,994.9,,TRUE,TRUE,,,,,,,OVC,4600,,,,,,,VFR,-0.2,,,,,,,,,,,METAR,1212.0
KSGR 230853Z AUTO 15007KT 10SM CLR 20/17 A2989 RMK AO2 SLP124 T02000172 56007,KSGR,2022-10-23T08:53:00Z,29.62,-95.65,20.0,17.2,150,7,,10.0,29.890747,1012.4,,TRUE,TRUE,,,,,,,CLR,,,,,,,,VFR,-0.7,,,,,,,,,,,METAR,22.0
KSFF 230853Z AUTO 00000KT 10SM OVC075 02/00 A2977 RMK AO2 SLP087 T00220000 53018,KSFF,2022-10-23T08:53:00Z,47.68,-117.32,2.2,0.0,0,0,,10.0,29.769686,1008.7,,TRUE,TRUE,,,,,,,OVC,7500,,,,,,,VFR,1.8,,,,,,,,,,,METAR,593.0
KSFB 230853Z AUTO 31005KT 10SM CLR 16/14 A3006 RMK AO2 SLP179 T01560144 51000,KSFB,2022-10-23T08:53:00Z,28.77,-81.23,15.6,14.4,310,5,,10.0,30.059055,1017.9,,TRUE,TRUE,,,,,,,CLR,,,,,,,,VFR,0.0,,,,,,,,,,,METAR,16.0
KSEG 230853Z AUTO 30003KT 5SM HZ CLR 01/ A3030 RMK AO2 SLP260 I3000 T0011 53009,KSEG,2022-10-23T08:53:00Z,40.82,-76.87,1.1,,300,3,,5.0,30.301182,1026.0,,TRUE,TRUE,,,,,,HZ,CLR,,,,,,,,MVFR,0.9,,,,,,,,,,,METAR,136.0
KSEA 230853Z 13005KT 10SM BKN041 OVC060 07/05 A2994 RMK AO2 SLP146 T00670050 51019 $,KSEA,2022-10-23T08:53:00Z,47.45,-122.32,6.7,5.0,130,5,,10.0,29.940945,1014.6,,,TRUE,TRUE,,,,,,BKN,4100,OVC,6000,,,,,VFR,1.9,,,,,,,,,,,METAR,115.0
KSDL 230853Z AUTO VRB03KT 10SM CLR 21/11 A2970 RMK AO2 SLP033 T02110106 58001,KSDL,2022-10-23T08:53:00Z,33.62,-111.92,21.1,10.6,0,3,,10.0,29.698818,1003.3,,TRUE,TRUE,,,,,,,CLR,,,,,,,,VFR,-0.1,,,,,,,,,,,METAR,438.0
KSBM 230853Z AUTO 17006KT 10SM CLR 13/11 A2989 RMK AO2 SLP122 T01280111 51006,KSBM,2022-10-23T08:53:00Z,43.78,-87.85,12.8,11.1,170,6,,10.0,29.890747,1012.2,,TRUE,TRUE,,,,,,,CLR,,,,,,,,VFR,0.6,,,,,,,,,,,METAR,225.0
KSAV 230853Z AUTO 36003KT 10SM CLR 11/08 A3013 RMK AO2 SLP201 T01110078 56001,KSAV,2022-10-23T08:53:00Z,32.12,-81.2,11.1,7.8,360,3,,10.0,30.129921,1020.1,,TRUE,TRUE,,,,,,,CLR,,,,,,,,VFR,-0.1,,,,,,,,,,,METAR,10.0
KSAF 230853Z AUTO 21009KT 10SM CLR 13/08 A2974 RMK AO2 LTG DSNT S SLP982 T01330078 56014,KSAF,2022-10-23T08:53:00Z,35.62,-106.1,13.3,7.8,210,9,,10.0,29.740158,998.2,,TRUE,TRUE,,,,,,,CLR,,,,,,,,VFR,-1.4,,,,,,,,,,,METAR,1918.0
KSAC 230853Z AUTO 34010KT 10SM CLR 13/01 A2983 RMK AO2 SLP100 T01330006 51015,KSAC,2022-10-23T08:53:00Z,38.5,-121.5,13.3,0.6,340,10,,10.0,29.828741,1010.0,,TRUE,TRUE,,,,,,,CLR,,,,,,,,VFR,1.5,,,,,,,,,,,METAR,5.0
KRWI 230853Z AUTO 35009KT 10SM CLR 12/09 A3014 RMK AO2 SLP204 T01220089 58012,KRWI,2022-10-23T08:53:00Z,35.85,-77.9,12.2,8.9,350,9,,10.0,30.138779,1020.4,,TRUE,TRUE,,,,,,,CLR,,,,,,,,VFR,-1.2,,,,,,,,,,,METAR,46.0
KRWF 230853Z AUTO 12011KT 10SM CLR 12/07 A2953 RMK AO2 SLP997 T01220067 58005,KRWF,2022-10-23T08:53:00Z,44.55,-95.08,12.2,6.7,120,11,,10.0,29.530512,999.7,,TRUE,TRUE,,,,,,,CLR,,,,,,,,VFR,-0.5,,,,,,,,,,,METAR,312.0
KRVS 230853Z AUTO 19015G26KT 10SM CLR 23/13 A2967 RMK AO2 PK WND 18031/0840 SLP048 T02330133 53004,KRVS,2022-10-23T08:53:00Z,36.05,-95.98,23.3,13.3,190,15,26,10.0,29.66929,1004.8,,TRUE,TRUE,,,,,,,CLR,,,,,,,,VFR,0.4,,,,,,,,,,,METAR,191.0
KRUE 230853Z AUTO 17007KT 130V200 10SM OVC033 21/15 A2986 RMK AO2 SLP105 T02110150 50001,KRUE,2022-10-23T08:53:00Z,35.25,-93.1,21.1,15.0,170,7,,10.0,29.861221,1010.5,,TRUE,TRUE,,,,,,,OVC,3300,,,,,,,VFR,0.1,,,,,,,,,,,METAR,119.0
KRTN 230853Z AUTO VRB05KT 10SM FEW120 10/03 A2966 RMK AO2 SLP964 T01000033 58012,KRTN,2022-10-23T08:53:00Z,36.73,-104.5,10.0,3.3,0,5,,10.0,29.660433,996.4,,TRUE,TRUE,,,,,,,FEW,12000,,,,,,,VFR,-1.2,,,,,,,,,,,METAR,1939.0
KRSW 230853Z 03003KT 10SM CLR 19/17 A3003 RMK AO2 SLP165 T01890172 56006,KRSW,2022-10-23T08:53:00Z,26.53,-81.75,18.9,17.2,30,3,,10.0,30.029528,1016.5,,,TRUE,,,,,,,CLR,,,,,,,,VFR,-0.6,,,,,,,,,,,METAR,8.0
KRSL 230853Z AUTO 18012KT 10SM CLR 16/05 A2940 RMK AO2 SLP938 T01560050 58003,KRSL,2022-10-23T08:53:00Z,38.87,-98.82,15.6,5.0,180,12,,10.0,29.40059,993.8,,TRUE,TRUE,,,,,,,CLR,,,,,,,,VFR,-0.3,,,,,,,,,,,METAR,569.0
KRQE 230853Z AUTO 22022G37KT 10SM CLR 11/04 A2972 RMK AO2 PK WND 22037/0851 SLP963 T01110039 56008,KRQE,2022-10-23T08:53:00Z,35.65,-109.07,11.1,3.9,220,22,37,10.0,29.719488,996.3,,TRUE,TRUE,,,,,,,CLR,,,,,,,,VFR,-0.8,,,,,,,,,,,METAR,2056.0
KRNT 230853Z AUTO 14003KT 10SM FEW035 BKN045 OVC070 07/05 A2994 RMK AO2 SLP145 T00670050 51018,KRNT,2022-10-23T08:53:00Z,47.5,-122.22,6.7,5.0,140,3,,10.0,29.940945,1014.5,,TRUE,TRUE,,,,,,,FEW,3500,BKN,4500,OVC,7000,,,VFR,1.8,,,,,,,,,,,METAR,7.0
KRMG 230853Z AUTO 00000KT 10SM CLR 06/04 A3018 RMK AO2 SLP215 T00610044 51008,KRMG,2022-10-23T08:53:00Z,34.35,-85.17,6.1,4.4,0,0,,10.0,30.180119,1021.5,,TRUE,TRUE,,,,,,,CLR,,,,,,,,VFR,0.8,,,,,,,,,,,METAR,196.0
KRME 230853Z AUTO 11006KT 10SM CLR 04/02 A3030 RMK AO2 SLP259 T00440022 53002,KRME,2022-10-23T08:53:00Z,43.22,-75.4,4.4,2.2,110,6,,10.0,30.301182,1025.9,,TRUE,TRUE,,,,,,,CLR,,,,,,,,VFR,0.2,,,,,,,,,,,METAR,146.0
KRKP 230853Z AUTO 17006KT 10SM CLR 24/20 A2986 RMK AO2 SLP111 T02440200 58010,KRKP,2022-10-23T08:53:00Z,28.08,-97.05,24.4,20.0,170,6,,10.0,29.861221,1011.1,,TRUE,TRUE,,,,,,,CLR,,,,,,,,VFR,-1.0,,,,,,,,,,,METAR,8.0
KRIW 230853Z AUTO 31018G25KT 10SM -RA SCT100 04/M07 A2941 RMK AO2 RAB44SNE0755 SLP923 P0000 60000 T00441072 56006 $,KRIW,2022-10-23T08:53:00Z,43.07,-108.43,4.4,-7.2,310,18,25,10.0,29.409449,992.3,,TRUE,TRUE,TRUE,,,,,-RA,SCT,10000,,,,,,,VFR,-0.6,,,,,0.005,0.005,,,,,METAR,1662.0
KRHI 230853Z AUTO 17004KT 10SM CLR 13/08 A2982 RMK AO2 SLP095 T01330083 51008,KRHI,2022-10-23T08:53:00Z,45.63,-89.48,13.3,8.3,170,4,,10.0,29.819881,1009.5,,TRUE,TRUE,,,,,,,CLR,,,,,,,,VFR,0.8,,,,,,,,,,,METAR,493.0
KRAL 230853Z AUTO 00000KT 10SM CLR 15/12 A2978 RMK AO2 SLP071 T01500122 58001 $,KRAL,2022-10-23T08:53:00Z,33.95,-117.45,15.0,12.2,0,0,,10.0,29.778543,1007.1,,TRUE,TRUE,TRUE,,,,,,CLR,,,,,,,,VFR,-0.1,,,,,,,,,,,METAR,254.0
KRAC 230853Z AUTO 16006KT 10SM CLR 14/11 A2992 RMK AO2 SLP129 T01390111 58001,KRAC,2022-10-23T08:53:00Z,42.77,-87.82,13.9,11.1,160,6,,10.0,29.920275,1012.9,,TRUE,TRUE,,,,,,,CLR,,,,,,,,VFR,-0.1,,,,,,,,,,,METAR,203.0
KPWA 230853Z AUTO 19018G29KT 10SM CLR 23/12 A2964 RMK AO2 PK WND 19031/0830 SLP018 T02330117 51003,KPWA,2022-10-23T08:53:00Z,35.53,-97.65,23.3,11.7,190,18,29,10.0,29.639763,1001.8,,TRUE,TRUE,,,,,,,CLR,,,,,,,,VFR,0.3,,,,,,,,,,,METAR,390.0
KPUC 230853Z AUTO 09006KT 10SM BKN070 OVC090 04/M03 A2949 RMK AO2 SLP966 T00441028 58002,KPUC,2022-10-23T08:53:00Z,39.62,-110.75,4.4,-2.8,90,6,,10.0,29.489174,996.6,,TRUE,TRUE,,,,,,,BKN,7000,OVC,9000,,,,,VFR,-0.2,,,,,,,,,,,METAR,1777.0
KPUB 230853Z AUTO 24019G35KT 10SM CLR 21/M02 A2945 RMK AO2 PK WND 25037/0841 SLP901 T02061017 56010,KPUB,2022-10-23T08:53:00Z,38.28,-104.5,20.6,-1.7,240,19,35,10.0,29.450787,990.1,,TRUE,TRUE,,,,,,,CLR,,,,,,,,VFR,-1.0,,,,,,,,,,,METAR,1441.0
KPTK 230853Z 00000KT 10SM CLR 09/08 A3010 RMK AO2 SLP192 T00940078 51008 $,KPTK,2022-10-23T08:53:00Z,42.67,-83.42,9.4,7.8,0,0,,10.0,30.100393,1019.2,,,TRUE,TRUE,,,,,,CLR,,,,,,,,VFR,0.8,,,,,,,,,,,METAR,295.0
KPSX 230853Z AUTO 18008KT 10SM CLR 24/19 A2988 RMK AO2 SLP118 T02390194 56006,KPSX,2022-10-23T08:53:00Z,28.72,-96.25,23.9,19.4,180,8,,10.0,29.878937,1011.8,,TRUE,TRUE,,,,,,,CLR,,,,,,,,VFR,-0.6,,,,,,,,,,,METAR,4.0
KPSP 230853Z AUTO 12003KT 10SM FEW065 19/11 A2971 RMK AO2 SLP059 T01940106 51019 $,KPSP,2022-10-23T08:53:00Z,33.82,-116.5,19.4,10.6,120,3,,10.0,29.71063,1005.9,,TRUE,TRUE,TRUE,,,,,,FEW,6500,,,,,,,VFR,1.9,,,,,,,,,,,METAR,123.0
KPSC 230853Z AUTO 00000KT 10SM BKN100 OVC120 07/02 A2983 RMK AO2 SLP102 T00720022 53023 $,KPSC,2022-10-23T08:53:00Z,46.27,-119.12,7.2,2.2,0,0,,10.0,29.828741,1010.2,,TRUE,TRUE,TRUE,,,,,,BKN,10000,OVC,12000,,,,,VFR,2.3,,,,,,,,,,,METAR,121.0
KPRC 230853Z AUTO 21023G34KT 10SM FEW030 SCT037 BKN047 12/06 A2973 RMK AO2 PK WND 20034/0852 SLP004 T01220061 58002,KPRC,2022-10-23T08:53:00Z,34.65,-112.42,12.2,6.1,210,23,34,10.0,29.731298,1000.4,,TRUE,TRUE,,,,,,,FEW,3000,SCT,3700,BKN,4700,,,VFR,-0.2,,,,,,,,,,,METAR,1528.0
KPRB 230853Z AUTO 27004KT 10SM CLR 09/05 A2989 RMK AO2 SLP118 T00890050 51012,KPRB,2022-10-23T08:53:00Z,35.67,-120.63,8.9,5.0,270,4,,10.0,29.890747,1011.8,,TRUE,TRUE,,,,,,,CLR,,,,,,,,VFR,1.2,,,,,,,,,,,METAR,249.0
KPQL 230853Z AUTO 00000KT 10SM CLR 10/09 A3009 RMK AO2 SLP192 T01000094 58001,KPQL,2022-10-23T08:53:00Z,30.47,-88.53,10.0,9.4,0,0,,10.0,30.088583,1019.2,,TRUE,TRUE,,,,,,,CLR,,,,,,,,VFR,-0.1,,,,,,,,,,,METAR,4.0
KPOU 230853Z AUTO 00000KT 9SM CLR 04/03 A3031 RMK AO2 SLP259 T00440033 53004,KPOU,2022-10-23T08:53:00Z,41.63,-73.88,4.4,3.3,0,0,,9.0,30.31004,1025.9,,TRUE,TRUE,,,,,,,CLR,,,,,,,,VFR,0.4,,,,,,,,,,,METAR,45.0
KPOF 230853Z AUTO 17008KT 10SM CLR 18/11 A2992 RMK AO2 SLP129 T01780111 53002 $,KPOF,2022-10-23T08:53:00Z,36.77,-90.32,17.8,11.1,170,8,,10.0,29.920275,1012.9,,TRUE,TRUE,TRUE,,,,,,CLR,,,,,,,,VFR,0.2,,,,,,,,,,,METAR,99.0
KPNS 230853Z AUTO 02003KT 10SM CLR 12/09 A3011 RMK AO2 SLP197 T01220094 53001,KPNS,2022-10-23T08:53:00Z,30.48,-87.18,12.2,9.4,20,3,,10.0,30.109253,1019.7,,TRUE,TRUE,,,,,,,CLR,,,,,,,,VFR,0.1,,,,,,,,,,,METAR,34.0
KPNC 230853Z AUTO 18012G21KT 10SM CLR 24/13 A2957 RMK AO2 SLP000 T02390128 50002,KPNC,2022-10-23T08:53:00Z,36.73,-97.1,23.9,12.8,180,12,21,10.0,29.568897,1000.0,,TRUE,TRUE,,,,,,,CLR,,,,,,,,VFR,0.2,,,,,,,,,,,METAR,304.0
KPMP 230853Z AUTO 32004KT 10SM CLR 20/18 A2999 RMK AO2 SLP158 T02000178 55005,KPMP,2022-10-23T08:53:00Z,26.25,-80.12,20.0,17.8,320,4,,10.0,29.991142,1015.8,,TRUE,TRUE,,,,,,,CLR,,,,,,,,VFR,-0.5,,,,,,,,,,,METAR,4.0
KPMD 230853Z AUTO 23013KT 10SM BKN055 13/08 A2978 RMK AO2 SLP067 T01330083 53009,KPMD,2022-10-23T08:53:00Z,34.63,-118.08,13.3,8.3,230,13,,10.0,29.778543,1006.7,,TRUE,TRUE,,,,,,,BKN,5500,,,,,,,VFR,0.9,,,,,,,,,,,METAR,764.0
KPKD 230853Z AUTO 08003KT 10SM CLR 07/04 A2956 RMK AO2 SLP013 T00670039 50003,KPKD,2022-10-23T08:53:00Z,46.9,-95.07,6.7,3.9,80,3,,10.0,29.56004,1001.3,,TRUE,TRUE,,,,,,,CLR,,,,,,,,VFR,0.3,,,,,,,,,,,METAR,439.0
KPKB 230853Z AUTO 00000KT 7SM CLR 06/05 A3018 RMK AO2 SLP219 T00560050 53008,KPKB,2022-10-23T08:53:00Z,39.35,-81.43,5.6,5.0,0,0,,7.0,30.180119,1021.9,,TRUE,TRUE,,,,,,,CLR,,,,,,,,VFR,0.8,,,,,,,,,,,METAR,245.0
KPIR 230853Z AUTO 07009KT 10SM CLR 06/02 A2933 RMK AO2 SLP929 T00610017 58018,KPIR,2022-10-23T08:53:00Z,44.38,-100.28,6.1,1.7,70,9,,10.0,29.329725,992.9,,TRUE,TRUE,,,,,,,CLR,,,,,,,,VFR,-1.8,,,,,,,,,,,METAR,524.0
KPIL 230853Z AUTO 15006KT 10SM CLR 23/21 A2986 RMK AO2 SLP110 T02280206 56014,KPIL,2022-10-23T08:53:00Z,26.17,-97.33,22.8,20.6,150,6,,10.0,29.861221,1011.0,,TRUE,TRUE,,,,,,,CLR,,,,,,,,VFR,-1.4,,,,,,,,,,,METAR,5.0
KPIE 230853Z AUTO 05007KT 10SM CLR 18/17 A3006 RMK AO2 SLP180 T01830167 58002,KPIE,2022-10-23T08:53:00Z,27.92,-82.68,18.3,16.7,50,7,,10.0,30.059055,1018.0,,TRUE,TRUE,,,,,,,CLR,,,,,,,,VFR,-0.2,,,,,,,,,,,METAR,1.0
KPHD 230853Z AUTO 00000KT 7SM CLR 06/06 A3020 RMK AO2 SLP225 T00610056 53012,KPHD,2022-10-23T08:53:00Z,40.47,-81.42,6.1,5.6,0,0,,7.0,30.200787,1022.5,,TRUE,TRUE,,,,,,,CLR,,,,,,,,VFR,1.2,,,,,,,,,,,METAR,272.0
KPGD 230853Z AUTO 04005KT 10SM CLR 17/17 A3005 RMK AO2 SLP174 T01720167 56006,KPGD,2022-10-23T08:53:00Z,26.92,-82.0,17.2,16.7,40,5,,10.0,30.050198,1017.4,,TRUE,TRUE,,,,,,,CLR,,,,,,,,VFR,-0.6,,,,,,,,,,,METAR,7.0
KPGA 230853Z AUTO 32012G22KT 10SM -RA OVC065 09/04 A2954 RMK AO2 PK WND 32028/0838 RAB40 SLP956 P0000 60000 T00890044 53018,KPGA,2022-10-23T08:53:00Z,36.92,-111.45,8.9,4.4,320,12,22,10.0,29.53937,995.6,,TRUE,TRUE,,,,,,-RA,OVC,6500,,,,,,,VFR,1.8,,,,,0.005,0.005,,,,,METAR,1310.0
KPEO 230853Z AUTO 18003KT 10SM CLR 08/04 A3025 RMK AO2 SLP243 T00780044 53001,KPEO,2022-10-23T08:53:00Z,42.65,-77.05,7.8,4.4,180,3,,10.0,30.250984,1024.3,,TRUE,TRUE,,,,,,,CLR,,,,,,,,VFR,0.1,,,,,,,,,,,METAR,268.0
KPDX 230853Z 15003KT 10SM FEW039 BKN055 09/07 A2996 RMK AO2 SLP145 T00940067 51016,KPDX,2022-10-23T08:53:00Z,45.6,-122.62,9.4,6.7,150,3,,10.0,29.958662,1014.5,,,TRUE,,,,,,,FEW,3900,BKN,5500,,,,,VFR,1.6,,,,,,,,,,,METAR,7.0
KPDT 230853Z AUTO 24011KT 10SM OVC090 07/02 A2984 RMK AO2 RAB19E38 SLP100 P0000 60000 T00670022 53020,KPDT,2022-10-23T08:53:00Z,45.7,-118.83,6.7,2.2,240,11,,10.0,29.840551,1010.0,,TRUE,TRUE,,,,,,,OVC,9000,,,,,,,VFR,2.0,,,,,0.005,0.005,,,,,METAR,453.0
KPDK 230853Z AUTO 00000KT 8SM CLR 04/04 A3019 RMK AO2 SLP222 T00440039 51004,KPDK,2022-10-23T08:53:00Z,33.88,-84.3,4.4,3.9,0,0,,8.0,30.188976,1022.2,,TRUE,TRUE,,,,,,,CLR,,,,,,,,VFR,0.4,,,,,,,,,,,METAR,299.0
KPBI 230853Z 32004KT 10SM SCT060 19/18 A3001 RMK AO2 SLP163 60000 T01940183 55003 $,KPBI,2022-10-23T08:53:00Z,26.68,-80.1,19.4,18.3,320,4,,10.0,30.008858,1016.3,,,TRUE,TRUE,,,,,,SCT,6000,,,,,,,VFR,-0.3,,,,,,0.005,,,,,METAR,4.0
KPBG 230853Z AUTO 00000KT 10SM CLR 03/02 A3028 RMK AO2 SLP257 T00280022 53004,KPBG,2022-10-23T08:53:00Z,44.65,-73.47,2.8,2.2,0,0,,10.0,30.280512,1025.7,,TRUE,TRUE,,,,,,,CLR,,,,,,,,VFR,0.4,,,,,,,,,,,METAR,61.0
KPBF 230853Z AUTO 18011G20KT 10SM CLR 21/14 A2997 RMK AO2 SLP144 T02060144 51006,KPBF,2022-10-23T08:53:00Z,34.18,-91.93,20.6,14.4,180,11,20,10.0,29.970472,1014.4,,TRUE,TRUE,,,,,,,CLR,,,,,,,,VFR,0.6,,,,,,,,,,,METAR,63.0
KPAH 230853Z AUTO 17009G19KT 10SM OVC060 19/11 A2999 RMK AO2 SLP151 T01940111 53005,KPAH,2022-10-23T08:53:00Z,37.07,-88.77,19.4,11.1,170,9,19,10.0,29.991142,1015.1,,TRUE,TRUE,,,,,,,OVC,6000,,,,,,,VFR,0.5,,,,,,,,,,,METAR,125.0
KPAE 230853Z AUTO 00000KT 10SM FEW033 OVC055 08/05 A2993 RMK AO2 SLP138 T00780050 51015,KPAE,2022-10-23T08:53:00Z,47.92,-122.28,7.8,5.0,0,0,,10.0,29.929134,1013.8,,TRUE,TRUE,,,,,,,FEW,3300,OVC,5500,,,,,VFR,1.5,,,,,,,,,,,METAR,166.0
KP68 230853Z AUTO 00000KT M02/M03 A2975 RMK AO1 SLP071 P0001 60001 T10171028 53012,KP68,2022-10-23T08:53:00Z,39.6,-116.0,-1.7,-2.8,0,0,,,29.749016,1007.1,,TRUE,TRUE,,,,,,,,,,,,,,,,1.2,,,,,0.01,0.01,,,,,METAR,1813.0
KOWD 230853Z AUTO 00000KT 7SM CLR 07/06 A3032 RMK AO2 SLP267 T00670061 55004,KOWD,2022-10-23T08:53:00Z,42.18,-71.17,6.7,6.1,0,0,,7.0,30.318897,1026.7,,TRUE,TRUE,,,,,,,CLR,,,,,,,,VFR,-0.4,,,,,,,,,,,METAR,14.0
KOVS 230853Z AUTO 00000KT 10SM CLR 17/12 A2977 RMK AO2 SLP079 T01720117 50002 $,KOVS,2022-10-23T08:53:00Z,43.15,-90.68,17.2,11.7,0,0,,10.0,29.769686,1007.9,,TRUE,TRUE,TRUE,,,,,,CLR,,,,,,,,VFR,0.2,,,,,,,,,,,METAR,205.0
KOVE 230853Z AUTO 33007KT 10SM CLR 13/01 A2986 RMK AO2 SLP111 T01280006 51016,KOVE,2022-10-23T08:53:00Z,39.5,-121.62,12.8,0.6,330,7,,10.0,29.861221,1011.1,,TRUE,TRUE,,,,,,,CLR,,,,,,,,VFR,1.6,,,,,,,,,,,METAR,56.0
KOTM 230853Z AUTO 16015G24KT 10SM CLR 18/12 A2968 RMK AO2 RAE26 SLP044 P0000 60000 T01780117 58006,KOTM,2022-10-23T08:53:00Z,41.1,-92.45,17.8,11.7,160,15,24,10.0,29.681103,1004.4,,TRUE,TRUE,,,,,,,CLR,,,,,,,,VFR,-0.6,,,,,0.005,0.005,,,,,METAR,254.0
KOSU 230853Z AUTO 00000KT 10SM CLR 12/08 A3015 RMK AO2 SLP205 T01220078 53009,KOSU,2022-10-23T08:53:00Z,40.08,-83.08,12.2,7.8,0,0,,10.0,30.15059,1020.5,,TRUE,TRUE,,,,,,,CLR,,,,,,,,VFR,0.9,,,,,,,,,,,METAR,276.0
KOSH 230853Z AUTO 18009KT 10SM CLR 14/11 A2985 RMK AO2 SLP100 T01440111 51008,KOSH,2022-10-23T08:53:00Z,43.98,-88.55,14.4,11.1,180,9,,10.0,29.84941,1010.0,,TRUE,TRUE,,,,,,,CLR,,,,,,,,VFR,0.8,,,,,,,,,,,METAR,239.0
KORL 230853Z AUTO 33005KT 10SM CLR 17/14 A3007 RMK AO2 SLP184 T01720139 51002,KORL,2022-10-23T08:53:00Z,28.55,-81.33,17.2,13.9,330,5,,10.0,30.070866,1018.4,,TRUE,TRUE,,,,,,,CLR,,,,,,,,VFR,0.2,,,,,,,,,,,METAR,32.0
KOQT 230853Z AUTO 00000KT 9SM CLR 07/06 A3020 RMK AO2 SLP223 T00720061 53005,KOQT,2022-10-23T08:53:00Z,36.02,-84.23,7.2,6.1,0,0,,9.0,30.200787,1022.3,,TRUE,TRUE,,,,,,,CLR,,,,,,,,VFR,0.5,,,,,,,,,,,METAR,276.0
KOPF 230853Z AUTO 00000KT 10SM CLR 20/18 A3000 RMK AO2 SLP161 T02000178 55005,KOPF,2022-10-23T08:53:00Z,25.92,-80.28,20.0,17.8,0,0,,10.0,30.0,1016.1,,TRUE,TRUE,,,,,,,CLR,,,,,,,,VFR,-0.5,,,,,,,,,,,METAR,1.0
KONT 230853Z 27006KT 10SM FEW016 SCT032 14/13 A2978 RMK AO2 SLP077 T01440128 50001 $,KONT,2022-10-23T08:53:00Z,34.05,-117.58,14.4,12.8,270,6,,10.0,29.778543,1007.7,,,TRUE,TRUE,,,,,,FEW,1600,SCT,3200,,,,,VFR,0.1,,,,,,,,,,,METAR,279.0
KONO 230853Z AUTO 25007KT 10SM CLR 04/M01 A2980 RMK AO2 SLP095 T00441006 53015,KONO,2022-10-23T08:53:00Z,44.02,-117.02,4.4,-0.6,250,7,,10.0,29.799213,1009.5,,TRUE,TRUE,,,,,,,CLR,,,,,,,,VFR,1.5,,,,,,,,,,,METAR,668.0
KOMK 230853Z AUTO 00000KT 10SM OVC095 05/M01 A2983 RMK AO2 SLP104 T00501011 53017,KOMK,2022-10-23T08:53:00Z,48.47,-119.52,5.0,-1.1,0,0,,10.0,29.828741,1010.4,,TRUE,TRUE,,,,,,,OVC,9500,,,,,,,VFR,1.7,,,,,,,,,,,METAR,395.0
KOLF 230853Z AUTO 06015KT OVC014 07/04 A2949 RMK AO2 SLP997 T00670039 58008,KOLF,2022-10-23T08:53:00Z,48.1,-105.58,6.7,3.9,60,15,,,29.489174,999.7,,TRUE,TRUE,,,,,,,OVC,1400,,,,,,,,-0.8,,,,,,,,,,,METAR,605.0
KOJC 230853Z AUTO 17014KT 10SM CLR 21/13 A2959 RMK AO2 SLP009 T02060128 57009,KOJC,2022-10-23T08:53:00Z,38.85,-94.73,20.6,12.8,170,14,,10.0,29.589567,1000.9,,TRUE,TRUE,,,,,,,CLR,,,,,,,,VFR,-0.9,,,,,,,,,,,METAR,328.0
KOGB 230853Z AUTO 00000KT 10SM CLR 09/08 A3014 RMK AO2 SLP206 T00890083 55000,KOGB,2022-10-23T08:53:00Z,33.47,-80.85,8.9,8.3,0,0,,10.0,30.138779,1020.6,,TRUE,TRUE,,,,,,,CLR,,,,,,,,VFR,0.0,,,,,,,,,,,METAR,59.0
KODX 230853Z AUTO 00000KT 10SM CLR 07/04 A2935 RMK AO2 SLP929 T00670044 58021,KODX,2022-10-23T08:53:00Z,41.62,-98.95,6.7,4.4,0,0,,10.0,29.350393,992.9,,TRUE,TRUE,,,,,,,CLR,,,,,,,,VFR,-2.1,,,,,,,,,,,METAR,628.0
KODO 230853Z AUTO 19014KT 10SM CLR 19/12 A2978 RMK AO2 SLP037 T01940122 56009,KODO,2022-10-23T08:53:00Z,31.92,-102.4,19.4,12.2,190,14,,10.0,29.778543,1003.7,,TRUE,TRUE,,,,,,,CLR,,,,,,,,VFR,-0.9,,,,,,,,,,,METAR,912.0
KOAK 230853Z 34006KT 10SM CLR 13/04 A2988 RMK AO2 SLP119 T01330044 53014,KOAK,2022-10-23T08:53:00Z,37.72,-122.23,13.3,4.4,340,6,,10.0,29.878937,1011.9,,,TRUE,,,,,,,CLR,,,,,,,,VFR,1.4,,,,,,,,,,,METAR,3.0
KNUW 230853Z 11004KT 10SM FEW040 BKN055 06/06 A2997 RMK AO2 SLP147 T00610056 51015 VISNO $,KNUW,2022-10-23T08:53:00Z,48.35,-122.65,6.1,5.6,110,4,,10.0,29.970472,1014.7,,,TRUE,TRUE,,,,,,FEW,4000,BKN,5500,,,,,VFR,1.5,,,,,,,,,,,METAR,14.0
KNUI 230853Z AUTO VRB03KT CLR 14/11 A3019 RMK AO2 SLP221 T01390106 58008,KNUI,2022-10-23T08:53:00Z,38.15,-76.43,13.9,10.6,0,3,,,30.188976,1022.1,,TRUE,TRUE,,,,,,,CLR,,,,,,,,,-0.8,,,,,,,,,,,METAR,4.0
KNQX 230853Z AUTO 05006KT CLR 26/20 A2998 RMK AO2 SLP152 T02560200 55003 $,KNQX,2022-10-23T08:53:00Z,24.57,-81.67,25.6,20.0,50,6,,,29.97933,1015.2,,TRUE,TRUE,TRUE,,,,,,CLR,,,,,,,,,-0.3,,,,,,,,,,,SPECI,2.0
KNIP 230853Z 35009KT 10SM CLR 17/12 A3010 RMK AO2 SLP189 T01670117 53002 $,KNIP,2022-10-23T08:53:00Z,30.23,-81.67,16.7,11.7,350,9,,10.0,30.100393,1018.9,,,TRUE,TRUE,,,,,,CLR,,,,,,,,VFR,0.2,,,,,,,,,,,METAR,3.0
KNEW 230853Z AUTO 12006KT 10SM CLR 19/16 A3006 RMK AO2 SLP173 T01890161 56006,KNEW,2022-10-23T08:53:00Z,30.05,-90.03,18.9,16.1,120,6,,10.0,30.059055,1017.3,,TRUE,TRUE,,,,,,,CLR,,,,,,,,VFR,-0.6,,,,,,,,,,,METAR,1.0
KMYV 230853Z AUTO 34013G20KT 10SM CLR 13/01 A2984 RMK AO2 SLP108 T01330006 53017 $,KMYV,2022-10-23T08:53:00Z,39.1,-121.57,13.3,0.6,340,13,20,10.0,29.840551,1010.8,,TRUE,TRUE,TRUE,,,,,,CLR,,,,,,,,VFR,1.7,,,,,,,,,,,METAR,18.0
KMWT 230853Z AUTO 10SM OVC027 21/15 A2988 RMK AO2 SLP108 T02110150 51008,KMWT,2022-10-23T08:53:00Z,34.55,-93.58,21.1,15.0,,,,10.0,29.878937,1010.8,,TRUE,TRUE,,,,,,,OVC,2700,,,,,,,MVFR,0.8,,,,,,,,,,,SPECI,220.0
KMWL 230853Z AUTO 15011KT 10SM CLR 21/15 A2975 RMK AO2 SLP061 T02060150 58001,KMWL,2022-10-23T08:53:00Z,32.78,-98.07,20.6,15.0,150,11,,10.0,29.749016,1006.1,,TRUE,TRUE,,,,,,,CLR,,,,,,,,VFR,-0.1,,,,,,,,,,,METAR,288.0
KMVY 230853Z AUTO 05004KT 10SM CLR 14/13 A3029 RMK AO2 SLP256 T01390128 56009,KMVY,2022-10-23T08:53:00Z,41.4,-70.62,13.9,12.8,50,4,,10.0,30.28937,1025.6,,TRUE,TRUE,,,,,,,CLR,,,,,,,,VFR,-0.9,,,,,,,,,,,METAR,18.0
KMTO 230853Z AUTO 16011KT 10SM OVC060 18/11 A2994 RMK AO2 SLP133 T01830106 56005,KMTO,2022-10-23T08:53:00Z,39.47,-88.27,18.3,10.6,160,11,,10.0,29.940945,1013.3,,TRUE,TRUE,,,,,,,OVC,6000,,,,,,,VFR,-0.5,,,,,,,,,,,METAR,216.0
KMTH 230853Z AUTO 03006KT 10SM CLR 23/19 A2998 RMK AO2 SLP151 T02330194 55003 $,KMTH,2022-10-23T08:53:00Z,24.73,-81.05,23.3,19.4,30,6,,10.0,29.97933,1015.1,,TRUE,TRUE,TRUE,,,,,,CLR,,,,,,,,VFR,-0.3,,,,,,,,,,,METAR,1.0
KMSY 230853Z 12008KT 10SM CLR 19/16 A3006 RMK AO2 SLP181 T01890156 58004 $,KMSY,2022-10-23T08:53:00Z,30.0,-90.25,18.9,15.6,120,8,,10.0,30.059055,1018.1,,,TRUE,TRUE,,,,,,CLR,,,,,,,,VFR,-0.4,,,,,,,,,,,METAR,0.0
KMSS 230853Z AUTO 00000KT 10SM CLR 02/00 A3027 RMK AO2 SLP252 T00220000 51011,KMSS,2022-10-23T08:53:00Z,44.93,-74.85,2.2,0.0,0,0,,10.0,30.268702,1025.2,,TRUE,TRUE,,,,,,,CLR,,,,,,,,VFR,1.1,,,,,,,,,,,METAR,60.0
KMSP 230853Z 15013KT 10SM CLR 17/07 A2963 RMK AO2 SLP029 T01670067 51006,KMSP,2022-10-23T08:53:00Z,44.88,-93.23,16.7,6.7,150,13,,10.0,29.630905,1002.9,,,TRUE,,,,,,,CLR,,,,,,,,VFR,0.6,,,,,,,,,,,METAR,255.0
KMSO 230853Z AUTO 26004KT 10SM SCT033 BKN060 OVC075 04/01 A2970 RMK AO2 RAE13 SLP069 P0001 60001 T00390006 53009 $,KMSO,2022-10-23T08:53:00Z,46.92,-114.1,3.9,0.6,260,4,,10.0,29.698818,1006.9,,TRUE,TRUE,TRUE,,,,,,SCT,3300,BKN,6000,OVC,7500,,,VFR,0.9,,,,,0.01,0.01,,,,,METAR,974.0
KMSN 230853Z AUTO 16009KT 10SM CLR 15/11 A2983 RMK AO2 SLP098 T01500111 50000,KMSN,2022-10-23T08:53:00Z,43.13,-89.35,15.0,11.1,160,9,,10.0,29.828741,1009.8,,TRUE,TRUE,,,,,,,CLR,,,,,,,,VFR,0.0,,,,,,,,,,,METAR,262.0
KMSL 230853Z AUTO 00000KT 10SM CLR 12/09 A3011 RMK AO2 SLP193 T01170094 53011,KMSL,2022-10-23T08:53:00Z,34.75,-87.6,11.7,9.4,0,0,,10.0,30.109253,1019.3,,TRUE,TRUE,,,,,,,CLR,,,,,,,,VFR,1.1,,,,,,,,,,,METAR,170.0
KMRB 230853Z AUTO 32003KT 10SM CLR 03/02 A3025 RMK AO2 SLP244 T00330022 51003 $,KMRB,2022-10-23T08:53:00Z,39.4,-77.98,3.3,2.2,320,3,,10.0,30.250984,1024.4,,TRUE,TRUE,TRUE,,,,,,CLR,,,,,,,,VFR,0.3,,,,,,,,,,,METAR,165.0
KMPO 230853Z AUTO 00000KT 9SM CLR 02/02 A3029 RMK AO2 SLP265 T00220017 53004,KMPO,2022-10-23T08:53:00Z,41.13,-75.38,2.2,1.7,0,0,,9.0,30.28937,1026.5,,TRUE,TRUE,,,,,,,CLR,,,,,,,,VFR,0.4,,,,,,,,,,,METAR,576.0
KMOD 230853Z AUTO 30013KT 10SM CLR 13/03 A2981 RMK AO2 SLP095 T01330028 51015 $,KMOD,2022-10-23T08:53:00Z,37.62,-120.95,13.3,2.8,300,13,,10.0,29.811024,1009.5,,TRUE,TRUE,TRUE,,,,,,CLR,,,,,,,,VFR,1.5,,,,,,,,,,,METAR,25.0
KMNN 230853Z AUTO 15007KT 8SM CLR 12/07 A3015 RMK AO2 SLP207 T01220072 53008,KMNN,2022-10-23T08:53:00Z,40.62,-83.07,12.2,7.2,150,7,,8.0,30.15059,1020.7,,TRUE,TRUE,,,,,,,CLR,,,,,,,,VFR,0.8,,,,,,,,,,,METAR,301.0
KMMK 230853Z AUTO 00000KT 9SM CLR 07/06 A3031 RMK AO2 SLP263 T00720056 53001,KMMK,2022-10-23T08:53:00Z,41.52,-72.83,7.2,5.6,0,0,,9.0,30.31004,1026.3,,TRUE,TRUE,,,,,,,CLR,,,,,,,,VFR,0.1,,,,,,,,,,,METAR,30.0
KMLU 230853Z AUTO 17005KT 10SM CLR 18/14 A3001 RMK AO2 SLP162 T01780144 50002,KMLU,2022-10-23T08:53:00Z,32.52,-92.03,17.8,14.4,170,5,,10.0,30.008858,1016.2,,TRUE,TRUE,,,,,,,CLR,,,,,,,,VFR,0.2,,,,,,,,,,,METAR,22.0
KMLT 230853Z AUTO 00000KT 10SM CLR 04/04 A3034 RMK AO2 SLP280 T00390039 53008,KMLT,2022-10-23T08:53:00Z,45.65,-68.7,3.9,3.9,0,0,,10.0,30.339567,1028.0,,TRUE,TRUE,,,,,,,CLR,,,,,,,,VFR,0.8,,,,,,,,,,,METAR,121.0
KMLS 230853Z AUTO 01005KT 10SM CLR 07/04 A2942 RMK AO2 PRESRR SLP962 T00670044 53004,KMLS,2022-10-23T08:53:00Z,46.43,-105.88,6.7,4.4,10,5,,10.0,29.421259,996.2,,TRUE,TRUE,,,,,,,CLR,,,,,,,,VFR,0.4,,,,,,,,,,,METAR,800.0
KMLC 230853Z AUTO 16013G27KT 10SM FEW070 SCT090 22/14 A2975 RMK AO2 PK WND 18027/0754 SLP066 T02170144 50002,KMLC,2022-10-23T08:53:00Z,34.88,-95.78,21.7,14.4,160,13,27,10.0,29.749016,1006.6,,TRUE,TRUE,,,,,,,FEW,7000,SCT,9000,,,,,VFR,0.2,,,,,,,,,,,METAR,231.0
KMLB 230853Z AUTO 29005KT 9SM CLR 18/17 A3003 RMK AO2 SLP168 T01780172 56004,KMLB,2022-10-23T08:53:00Z,28.1,-80.65,17.8,17.2,290,5,,9.0,30.029528,1016.8,,TRUE,TRUE,,,,,,,CLR,,,,,,,,VFR,-0.4,,,,,,,,,,,METAR,7.0
KMKO 230853Z AUTO 17013G28KT 10SM CLR 22/14 A2975 RMK AO2 PK WND 17028/0847 SLP067 T02220139 51007,KMKO,2022-10-23T08:53:00Z,35.65,-95.37,22.2,13.9,170,13,28,10.0,29.749016,1006.7,,TRUE,TRUE,,,,,,,CLR,,,,,,,,VFR,0.7,,,,,,,,,,,METAR,184.0
KMKL 230853Z AUTO 18008KT SCT060 18/11 A3005 RMK AO2 SLP172 T01780111 51008 $,KMKL,2022-10-23T08:53:00Z,35.6,-88.92,17.8,11.1,180,8,,,30.050198,1017.2,,TRUE,TRUE,TRUE,,,,,,SCT,6000,,,,,,,,0.8,,,,,,,,,,,METAR,130.0
KMIW 230853Z AUTO 14013KT 10SM CLR 16/11 A2965 RMK AO2 SLP035 T01610106 58004,KMIW,2022-10-23T08:53:00Z,42.12,-92.92,16.1,10.6,140,13,,10.0,29.648623,1003.5,,TRUE,TRUE,,,,,,,CLR,,,,,,,,VFR,-0.4,,,,,,,,,,,METAR,296.0
KMIE 230853Z AUTO 15005KT 10SM CLR 16/09 A3007 RMK AO2 SLP173 T01610094 51003,KMIE,2022-10-23T08:53:00Z,40.23,-85.4,16.1,9.4,150,5,,10.0,30.070866,1017.3,,TRUE,TRUE,,,,,,,CLR,,,,,,,,VFR,0.3,,,,,,,,,,,METAR,286.0
KMIC 230853Z AUTO 14010KT 10SM CLR 17/07 A2961 RMK AO2 SLP023 T01670072 51007,KMIC,2022-10-23T08:53:00Z,45.07,-93.35,16.7,7.2,140,10,,10.0,29.610237,1002.3,,TRUE,TRUE,,,,,,,CLR,,,,,,,,VFR,0.7,,,,,,,,,,,METAR,263.0
KMIA 230853Z 00000KT 10SM FEW040 22/19 A3000 RMK AO2 SLP159 60001 T02170189 55004 $,KMIA,2022-10-23T08:53:00Z,25.8,-80.32,21.7,18.9,0,0,,10.0,30.0,1015.9,,,TRUE,TRUE,,,,,,FEW,4000,,,,,,,VFR,-0.4,,,,,,0.01,,,,,METAR,1.0
KMHT 230853Z 00000KT 10SM SCT250 06/04 A3031 RMK AO2 SLP278 T00560039 53002,KMHT,2022-10-23T08:53:00Z,42.93,-71.43,5.6,3.9,0,0,,10.0,30.31004,1027.8,,,TRUE,,,,,,,SCT,25000,,,,,,,VFR,0.2,,,,,,,,,,,METAR,68.0
KMHE 230853Z AUTO 12011KT 10SM CLR 12/07 A2939 RMK AO2 SLP950 T01220067 58017,KMHE,2022-10-23T08:53:00Z,43.77,-98.03,12.2,6.7,120,11,,10.0,29.388779,995.0,,TRUE,TRUE,,,,,,,CLR,,,,,,,,VFR,-1.7,,,,,,,,,,,METAR,397.0
KMGY 230853Z AUTO 16005KT 10SM CLR 14/08 A3012 RMK AO2 SLP193 T01390083 51008,KMGY,2022-10-23T08:53:00Z,39.6,-84.23,13.9,8.3,160,5,,10.0,30.121063,1019.3,,TRUE,TRUE,,,,,,,CLR,,,,,,,,VFR,0.8,,,,,,,,,,,METAR,290.0
KMGW 230853Z AUTO 00000KT 10SM CLR 08/03 A3021 RMK AO2 SLP228 T00830028 53005,KMGW,2022-10-23T08:53:00Z,39.65,-79.92,8.3,2.8,0,0,,10.0,30.209646,1022.8,,TRUE,TRUE,,,,,,,CLR,,,,,,,,VFR,0.5,,,,,,,,,,,METAR,375.0
KMGM 230853Z AUTO 00000KT 10SM CLR 08/07 A3015 RMK AO2 SLP209 T00780067 53006,KMGM,2022-10-23T08:53:00Z,32.3,-86.4,7.8,6.7,0,0,,10.0,30.15059,1020.9,,TRUE,TRUE,,,,,,,CLR,,,,,,,,VFR,0.6,,,,,,,,,,,METAR,64.0
KMFR 230853Z AUTO 00000KT 10SM BKN036 OVC044 07/06 A3000 RMK AO2 RAB37E51 SLP163 P0000 60000 T00670056 53010,KMFR,2022-10-23T08:53:00Z,42.38,-122.87,6.7,5.6,0,0,,10.0,30.0,1016.3,,TRUE,TRUE,,,,,,,BKN,3600,OVC,4400,,,,,VFR,1.0,,,,,0.005,0.005,,,,,METAR,397.0
KMFE 230853Z AUTO 15009KT 10SM CLR 22/19 A2985 RMK AO2 SLP107 T02220194 56013 $,KMFE,2022-10-23T08:53:00Z,26.18,-98.25,22.2,19.4,150,9,,10.0,29.84941,1010.7,,TRUE,TRUE,TRUE,,,,,,CLR,,,,,,,,VFR,-1.3,,,,,,,,,,,METAR,29.0
KMDW 230853Z 17011KT 10SM FEW250 18/10 A2991 RMK AO2 SLP119 T01830100 56009,KMDW,2022-10-23T08:53:00Z,41.78,-87.75,18.3,10.0,170,11,,10.0,29.911417,1011.9,,,TRUE,,,,,,,FEW,25000,,,,,,,VFR,-0.9,,,,,,,,,,,METAR,186.0
KMCW 230853Z AUTO 15013KT 10SM CLR 15/09 A2965 RMK AO2 SLP028 T01500094 58002,KMCW,2022-10-23T08:53:00Z,43.15,-93.33,15.0,9.4,150,13,,10.0,29.648623,1002.8,,TRUE,TRUE,,,,,,,CLR,,,,,,,,VFR,-0.2,,,,,,,,,,,METAR,363.0
KMCO 230853Z 31004KT 10SM CLR 17/14 A3007 RMK AO2 SLP179 T01670144 51001 $,KMCO,2022-10-23T08:53:00Z,28.42,-81.33,16.7,14.4,310,4,,10.0,30.070866,1017.9,,,TRUE,TRUE,,,,,,CLR,,,,,,,,VFR,0.1,,,,,,,,,,,METAR,27.0
KMCN 230853Z AUTO 00000KT 10SM CLR 04/04 A3017 RMK AO2 SLP213 T00440039 53003,KMCN,2022-10-23T08:53:00Z,32.68,-83.65,4.4,3.9,0,0,,10.0,30.171259,1021.3,,TRUE,TRUE,,,,,,,CLR,,,,,,,,VFR,0.3,,,,,,,,,,,METAR,104.0
KMCK 230853Z AUTO 23008KT 10SM CLR 13/M04 A2932 RMK AO2 SLP906 T01331039 56012,KMCK,2022-10-23T08:53:00Z,40.2,-100.58,13.3,-3.9,230,8,,10.0,29.320866,990.6,,TRUE,TRUE,,,,,,,CLR,,,,,,,,VFR,-1.2,,,,,,,,,,,METAR,780.0
KMCI 230853Z 16013KT 10SM CLR 21/13 A2958 RMK AO2 SLP003 T02060128 58009,KMCI,2022-10-23T08:53:00Z,39.3,-94.73,20.6,12.8,160,13,,10.0,29.58071,1000.3,,,TRUE,,,,,,,CLR,,,,,,,,VFR,-0.9,,,,,,,,,,,METAR,308.0
KMCE 230853Z AUTO 34009KT 10SM CLR 13/03 A2980 RMK AO2 SLP092 T01330033 53015,KMCE,2022-10-23T08:53:00Z,37.28,-120.5,13.3,3.3,340,9,,10.0,29.799213,1009.2,,TRUE,TRUE,,,,,,,CLR,,,,,,,,VFR,1.5,,,,,,,,,,,METAR,49.0
KMCB 230853Z AUTO 15004KT 7SM CLR 14/12 A3006 RMK AO2 SLP175 T01440122 58005,KMCB,2022-10-23T08:53:00Z,31.18,-90.47,14.4,12.2,150,4,,7.0,30.059055,1017.5,,TRUE,TRUE,,,,,,,CLR,,,,,,,,VFR,-0.5,,,,,,,,,,,METAR,124.0
KMBS 230853Z AUTO 17007KT 10SM CLR 13/09 A3005 RMK AO2 SLP174 T01330094 51006,KMBS,2022-10-23T08:53:00Z,43.53,-84.08,13.3,9.4,170,7,,10.0,30.050198,1017.4,,TRUE,TRUE,,,,,,,CLR,,,,,,,,VFR,0.6,,,,,,,,,,,METAR,201.0
KMAI 230853Z AUTO 00000KT 10SM CLR 06/04 A3012 RMK AO1 SLP199 T00610044 50003 $,KMAI,2022-10-23T08:53:00Z,30.83,-85.18,6.1,4.4,0,0,,10.0,30.121063,1019.9,,TRUE,TRUE,TRUE,,,,,,CLR,,,,,,,,VFR,0.3,,,,,,,,,,,METAR,33.0
KMAF 230853Z AUTO 19012G20KT 10SM CLR 18/13 A2977 RMK AO2 SLP035 T01830128 56012,KMAF,2022-10-23T08:53:00Z,31.95,-102.2,18.3,12.8,190,12,20,10.0,29.769686,1003.5,,TRUE,TRUE,,,,,,,CLR,,,,,,,,VFR,-1.2,,,,,,,,,,,METAR,874.0
KMAE 230853Z AUTO 28006KT 10SM CLR 08/04 A2981 RMK AO2 SLP095 T00830044 53016,KMAE,2022-10-23T08:53:00Z,36.98,-120.12,8.3,4.4,280,6,,10.0,29.811024,1009.5,,TRUE,TRUE,,,,,,,CLR,,,,,,,,VFR,1.6,,,,,,,,,,,METAR,77.0
KLXV 230853Z AUTO 20007KT 10SM FEW035 FEW075 02/M02 A2963 RMK AO2 SLP894 T00171022 58010 $,KLXV,2022-10-23T08:53:00Z,39.23,-106.32,1.7,-2.2,200,7,,10.0,29.630905,989.4,,TRUE,TRUE,TRUE,,,,,,FEW,3500,FEW,7500,,,,,VFR,-1.0,,,,,,,,,,,METAR,3027.0
KLXT 230853Z AUTO 17012G20KT 10SM CLR 19/12 A2961 RMK AO2 SLP018 T01890122 57010,KLXT,2022-10-23T08:53:00Z,38.97,-94.37,18.9,12.2,170,12,20,10.0,29.610237,1001.8,,TRUE,TRUE,,,,,,,CLR,,,,,,,,VFR,-1.0,,,,,,,,,,,METAR,306.0
KLWV 230853Z AUTO 17011KT 10SM FEW065 17/11 A3001 RMK AO2 SLP159 T01720111 53001 $,KLWV,2022-10-23T08:53:00Z,38.77,-87.6,17.2,11.1,170,11,,10.0,30.008858,1015.9,,TRUE,TRUE,TRUE,,,,,,FEW,6500,,,,,,,VFR,0.1,,,,,,,,,,,METAR,128.0
KLWD 230853Z AUTO 15011G19KT 10SM CLR 18/11 A2961 RMK AO2 SLP018 T01780111 58009,KLWD,2022-10-23T08:53:00Z,40.63,-93.9,17.8,11.1,150,11,19,10.0,29.610237,1001.8,,TRUE,TRUE,,,,,,,CLR,,,,,,,,VFR,-0.9,,,,,,,,,,,METAR,345.0
KLVK 230853Z AUTO 07003KT 10SM CLR 10/06 A2987 RMK AO2 SLP112 T01000061 51018,KLVK,2022-10-23T08:53:00Z,37.7,-121.82,10.0,6.1,70,3,,10.0,29.870079,1011.2,,TRUE,TRUE,,,,,,,CLR,,,,,,,,VFR,1.8,,,,,,,,,,,METAR,120.0
KLVJ 230853Z AUTO 14003KT 10SM SCT038 SCT046 BKN055 22/18 A2992 RMK AO2 SLP131 T02170183 56006,KLVJ,2022-10-23T08:53:00Z,29.52,-95.25,21.7,18.3,140,3,,10.0,29.920275,1013.1,,TRUE,TRUE,,,,,,,SCT,3800,SCT,4600,BKN,5500,,,VFR,-0.6,,,,,,,,,,,METAR,11.0
KLSE 230853Z AUTO 17013KT 10SM CLR 18/10 A2972 RMK AO2 SLP055 T01830100 51004 $,KLSE,2022-10-23T08:53:00Z,43.88,-91.25,18.3,10.0,170,13,,10.0,29.719488,1005.5,,TRUE,TRUE,TRUE,,,,,,CLR,,,,,,,,VFR,0.4,,,,,,,,,,,METAR,198.0
KLPR 230853Z AUTO 19009KT 10SM CLR 14/08 A3016 RMK AO2 SLP209 T01390078 53009,KLPR,2022-10-23T08:53:00Z,41.35,-82.18,13.9,7.8,190,9,,10.0,30.159449,1020.9,,TRUE,TRUE,,,,,,,CLR,,,,,,,,VFR,0.9,,,,,,,,,,,METAR,241.0
KLOZ 230853Z AUTO 16003KT 10SM CLR 08/06 A3018 RMK AO2 SLP213 T00780061 53007,KLOZ,2022-10-23T08:53:00Z,37.08,-84.07,7.8,6.1,160,3,,10.0,30.180119,1021.3,,TRUE,TRUE,,,,,,,CLR,,,,,,,,VFR,0.7,,,,,,,,,,,METAR,361.0
KLOU 230853Z AUTO 13004KT 10SM CLR 16/11 A3010 RMK AO2 SLP189 T01560106 53007,KLOU,2022-10-23T08:53:00Z,38.22,-85.67,15.6,10.6,130,4,,10.0,30.100393,1018.9,,TRUE,TRUE,,,,,,,CLR,,,,,,,,VFR,0.7,,,,,,,,,,,METAR,165.0
KLOL 230853Z AUTO 00000KT 10SM CLR A2984 RMK AO2 SLPNO 53009 $,KLOL,2022-10-23T08:53:00Z,40.07,-118.57,,,0,0,,10.0,29.840551,,,TRUE,TRUE,TRUE,,,,,,CLR,,,,,,,,VFR,0.9,,,,,,,,,,,METAR,1191.0
KLNS 230853Z AUTO 28004KT 8SM CLR 05/03 A3027 RMK AO2 SLP250 T00500033 51004,KLNS,2022-10-23T08:53:00Z,40.12,-76.3,5.0,3.3,280,4,,8.0,30.268702,1025.0,,TRUE,TRUE,,,,,,,CLR,,,,,,,,VFR,0.4,,,,,,,,,,,METAR,122.0
KLND 230853Z AUTO 11003KT 10SM BKN050 OVC110 04/M02 A2940 RMK AO2 SLP923 T00441022 58009 $,KLND,2022-10-23T08:53:00Z,42.82,-108.73,4.4,-2.2,110,3,,10.0,29.40059,992.3,,TRUE,TRUE,TRUE,,,,,,BKN,5000,OVC,11000,,,,,VFR,-0.9,,,,,,,,,,,METAR,1700.0
KLMT 230853Z AUTO 27010KT 10SM BKN042 01/M02 A2991 RMK AO2 SLP126 T00111017 51010,KLMT,2022-10-23T08:53:00Z,42.15,-121.72,1.1,-1.7,270,10,,10.0,29.911417,1012.6,,TRUE,TRUE,,,,,,,BKN,4200,,,,,,,VFR,1.0,,,,,,,,,,,METAR,1246.0
KLLQ 230853Z AUTO 17007KT 10SM CLR 19/14 A3000 RMK AO2 SLP155 T01890139 51008,KLLQ,2022-10-23T08:53:00Z,33.63,-91.75,18.9,13.9,170,7,,10.0,30.0,1015.5,,TRUE,TRUE,,,,,,,CLR,,,,,,,,VFR,0.8,,,,,,,,,,,METAR,86.0
KLKV 230853Z AUTO 00000KT 10SM UP OVC060 M02/M04 A2988 RMK AO2 UPB50 SLP133 P0000 60000 T10171039 53010 FZRANO,KLKV,2022-10-23T08:53:00Z,42.17,-120.4,-1.7,-3.9,0,0,,10.0,29.878937,1013.3,,TRUE,TRUE,,,,TRUE,,UP,OVC,6000,,,,,,,VFR,1.0,,,,,0.005,,,,,,SPECI,1440.0
KLIT 230853Z 18012KT 10SM BKN250 21/14 A2993 RMK AO2 SLP135 T02110144 51007,KLIT,2022-10-23T08:53:00Z,34.73,-92.23,21.1,14.4,180,12,,10.0,29.929134,1013.5,,,TRUE,,,,,,,BKN,25000,,,,,,,VFR,0.7,,,,,,,,,,,METAR,77.0
KLHX 230853Z AUTO 22004KT 10SM CLR 14/M01 A2946 RMK AO2 SLP914 T01441006 $,KLHX,2022-10-23T08:53:00Z,38.05,-103.52,14.4,-0.6,220,4,,10.0,29.459646,991.4,,TRUE,TRUE,TRUE,,,,,,CLR,,,,,,,,VFR,,,,,,,,,,,,METAR,1289.0
KLHQ 230853Z AUTO 00000KT 10SM CLR 09/07 A3016 RMK AO2 SLP212 T00890072 53008,KLHQ,2022-10-23T08:53:00Z,39.75,-82.67,8.9,7.2,0,0,,10.0,30.159449,1021.2,,TRUE,TRUE,,,,,,,CLR,,,,,,,,VFR,0.8,,,,,,,,,,,METAR,259.0
KLGB 230853Z AUTO 24003KT 10SM SCT022 OVC034 18/13 A2978 RMK AO2 RAB18E27 SLP083 P0000 60000 T01830128 57001,KLGB,2022-10-23T08:53:00Z,33.82,-118.15,18.3,12.8,240,3,,10.0,29.778543,1008.3,,TRUE,TRUE,,,,,,,SCT,2200,OVC,3400,,,,,VFR,-0.1,,,,,0.005,0.005,,,,,METAR,10.0
KLFT 230853Z AUTO 00000KT 10SM CLR 17/16 A3000 RMK AO2 SLP159 T01670156 58007,KLFT,2022-10-23T08:53:00Z,30.2,-91.97,16.7,15.6,0,0,,10.0,30.0,1015.9,,TRUE,TRUE,,,,,,,CLR,,,,,,,,VFR,-0.7,,,,,,,,,,,METAR,9.0
KLFK 230853Z AUTO 11005KT 10SM FEW027 FEW040 19/17 A2993 RMK AO2 SLP129 T01890167 55001,KLFK,2022-10-23T08:53:00Z,31.23,-94.75,18.9,16.7,110,5,,10.0,29.929134,1012.9,,TRUE,TRUE,,,,,,,FEW,2700,FEW,4000,,,,,VFR,-0.1,,,,,,,,,,,METAR,87.0
KLEE 230853Z AUTO 34004KT 10SM CLR 15/13 A3009 RMK AO2 SLP187 T01500133 51001,KLEE,2022-10-23T08:53:00Z,28.82,-81.82,15.0,13.3,340,4,,10.0,30.088583,1018.7,,TRUE,TRUE,,,,,,,CLR,,,,,,,,VFR,0.1,,,,,,,,,,,METAR,21.0
KLCH 230853Z AUTO 14006KT 10SM CLR 16/15 A2997 RMK AO2 SLP156 T01560150 56005,KLCH,2022-10-23T08:53:00Z,30.13,-93.22,15.6,15.0,140,6,,10.0,29.970472,1015.6,,TRUE,TRUE,,,,,,,CLR,,,,,,,,VFR,-0.5,,,,,,,,,,,METAR,2.0
KLBX 230853Z AUTO 18008KT 10SM FEW046 21/19 A2990 RMK AO2 SLP126 T02110189 56006,KLBX,2022-10-23T08:53:00Z,29.12,-95.47,21.1,18.9,180,8,,10.0,29.899607,1012.6,,TRUE,TRUE,,,,,,,FEW,4600,,,,,,,VFR,-0.6,,,,,,,,,,,METAR,4.0
KLBF 230853Z AUTO 10008KT 10SM CLR 06/01 A2931 RMK AO2 SLP902 T00610011 56023,KLBF,2022-10-23T08:53:00Z,41.12,-100.67,6.1,1.1,100,8,,10.0,29.309055,990.2,,TRUE,TRUE,,,,,,,CLR,,,,,,,,VFR,-2.3,,,,,,,,,,,METAR,843.0
KLBB 230853Z 20018G29KT 10SM CLR 18/13 A2973 RMK AO2 PK WND 19032/0805 SLP016 T01830133 58007,KLBB,2022-10-23T08:53:00Z,33.67,-101.82,18.3,13.3,200,18,29,10.0,29.731298,1001.6,,,TRUE,,,,,,,CLR,,,,,,,,VFR,-0.7,,,,,,,,,,,METAR,996.0
KLAX 230853Z 23006KT 10SM FEW010 FEW024 17/13 A2977 RMK AO2 SLP080 60000 T01670128 50001,KLAX,2022-10-23T08:53:00Z,33.93,-118.38,16.7,12.8,230,6,,10.0,29.769686,1008.0,,,TRUE,,,,,,,FEW,1000,FEW,2400,,,,,VFR,0.1,,,,,,0.005,,,,,METAR,30.0
KLAW 230853Z AUTO 18011KT 10SM CLR 23/12 A2967 RMK AO2 SLP032 T02280117 53006,KLAW,2022-10-23T08:53:00Z,34.55,-98.42,22.8,11.7,180,11,,10.0,29.66929,1003.2,,TRUE,TRUE,,,,,,,CLR,,,,,,,,VFR,0.6,,,,,,,,,,,METAR,328.0
KLAR 230853Z AUTO 02012KT 10SM SCT100 04/00 A2946 RMK AO2 SLP889 T00390000 56007,KLAR,2022-10-23T08:53:00Z,41.32,-105.67,3.9,0.0,20,12,,10.0,29.459646,988.9,,TRUE,TRUE,,,,,,,SCT,10000,,,,,,,VFR,-0.7,,,,,,,,,,,METAR,2217.0
KLAN 230853Z 15006KT 10SM CLR 13/09 A3005 RMK AO2 SLP175 T01330094 51003 $,KLAN,2022-10-23T08:53:00Z,42.78,-84.58,13.3,9.4,150,6,,10.0,30.050198,1017.5,,,TRUE,TRUE,,,,,,CLR,,,,,,,,VFR,0.3,,,,,,,,,,,METAR,261.0
KLAA 230853Z AUTO 22008KT 10SM CLR 15/04 A2943 RMK AO2 SLP915 T01500039 56007,KLAA,2022-10-23T08:53:00Z,38.07,-102.68,15.0,3.9,220,8,,10.0,29.430119,991.5,,TRUE,TRUE,,,,,,,CLR,,,,,,,,VFR,-0.7,,,,,,,,,,,METAR,1129.0
KJLN 230853Z AUTO 19026G42KT 10SM FEW120 22/12 A2969 RMK AO2 PK WND 18044/0839 SLP040 T02220122 50000 $,KJLN,2022-10-23T08:53:00Z,37.15,-94.5,22.2,12.2,190,26,42,10.0,29.68996,1004.0,,TRUE,TRUE,TRUE,,,,,,FEW,12000,,,,,,,VFR,0.0,,,,,,,,,,,METAR,297.0
KJKL 230853Z AUTO 20003KT 10SM CLR 14/07 A3017 RMK AO2 SLP208 T01390067 52006,KJKL,2022-10-23T08:53:00Z,37.6,-83.32,13.9,6.7,200,3,,10.0,30.171259,1020.8,,TRUE,TRUE,,,,,,,CLR,,,,,,,,VFR,0.6,,,,,,,,,,,METAR,414.0
KJER 230853Z AUTO 26017G22KT 10SM CLR 01/M01 A2965 RMK AO2 SLP043 T00061011 53005,KJER,2022-10-23T08:53:00Z,42.72,-114.45,0.6,-1.1,260,17,22,10.0,29.648623,1004.3,,TRUE,TRUE,,,,,,,CLR,,,,,,,,VFR,0.5,,,,,,,,,,,METAR,1226.0
KJEF 230853Z AUTO 13009KT 10SM CLR 20/13 A2974 RMK AO2 SLP058 T02000128 58007 $,KJEF,2022-10-23T08:53:00Z,38.6,-92.15,20.0,12.8,130,9,,10.0,29.740158,1005.8,,TRUE,TRUE,TRUE,,,,,,CLR,,,,,,,,VFR,-0.7,,,,,,,,,,,METAR,167.0
KJBR 230853Z AUTO 18012KT 10SM CLR 18/12 A2994 RMK AO2 SLP137 T01780117 56000 $,KJBR,2022-10-23T08:53:00Z,35.83,-90.65,17.8,11.7,180,12,,10.0,29.940945,1013.7,,TRUE,TRUE,TRUE,,,,,,CLR,,,,,,,,VFR,0.0,,,,,,,,,,,METAR,79.0
KIXD 230853Z AUTO 17014G24KT 10SM CLR 21/13 A2959 RMK AO2 SLP009 T02110128 58009 $,KIXD,2022-10-23T08:53:00Z,38.82,-94.88,21.1,12.8,170,14,24,10.0,29.589567,1000.9,,TRUE,TRUE,TRUE,,,,,,CLR,,,,,,,,VFR,-0.9,,,,,,,,,,,METAR,322.0
KITR 230853Z AUTO 21013KT 10SM CLR 17/M02 A2941 RMK AO2 PK WND 22029/0805 SLP899 T01721017 56006 $,KITR,2022-10-23T08:53:00Z,39.23,-102.28,17.2,-1.7,210,13,,10.0,29.409449,989.9,,TRUE,TRUE,TRUE,,,,,,CLR,,,,,,,,VFR,-0.6,,,,,,,,,,,METAR,1285.0
KINK 230853Z AUTO 14011KT 10SM CLR 17/14 A2973 RMK AO2 SLP026 T01670139 57009,KINK,2022-10-23T08:53:00Z,31.78,-103.2,16.7,13.9,140,11,,10.0,29.731298,1002.6,,TRUE,TRUE,,,,,,,CLR,,,,,,,,VFR,-0.9,,,,,,,,,,,METAR,857.0
KIML 230853Z AUTO 19005KT 10SM CLR 10/M06 A2931 RMK AO2 SLP900 T01001056 56011 $,KIML,2022-10-23T08:53:00Z,40.52,-101.62,10.0,-5.6,190,5,,10.0,29.309055,990.0,,TRUE,TRUE,TRUE,,,,,,CLR,,,,,,,,VFR,-1.1,,,,,,,,,,,METAR,997.0
KILM 230853Z AUTO 34009KT 10SM CLR 16/09 A3008 RMK AO2 SLP185 T01560089 55010 PWINO,KILM,2022-10-23T08:53:00Z,34.27,-77.9,15.6,8.9,340,9,,10.0,30.079725,1018.5,,TRUE,TRUE,,,,,TRUE,,CLR,,,,,,,,VFR,-1.0,,,,,,,,,,,METAR,9.0
KICT 230853Z 19018G25KT 10SM CLR 22/12 A2951 RMK AO2 SLP976 T02220117 58003,KICT,2022-10-23T08:53:00Z,37.65,-97.43,22.2,11.7,190,18,25,10.0,29.509842,997.6,,,TRUE,,,,,,,CLR,,,,,,,,VFR,-0.3,,,,,,,,,,,METAR,428.0
KICR 230853Z AUTO 12008KT CLR 11/04 A2932 RMK AO2 SLP919 T01110039 56021,KICR,2022-10-23T08:53:00Z,43.38,-99.85,11.1,3.9,120,8,,,29.320866,991.9,,TRUE,TRUE,,,,,,,CLR,,,,,,,,,-2.1,,,,,,,,,,,METAR,618.0
KIAH 230853Z 17005KT 10SM FEW040 FEW250 22/18 A2991 RMK AO2 SLP126 T02170183 56004,KIAH,2022-10-23T08:53:00Z,30.0,-95.37,21.7,18.3,170,5,,10.0,29.911417,1012.6,,,TRUE,,,,,,,FEW,4000,FEW,25000,,,,,VFR,-0.4,,,,,,,,,,,METAR,27.0
KIAG 230853Z AUTO 10003KT 10SM CLR 08/04 A3019 RMK AO2 SLP226 T00780039 53006,KIAG,2022-10-23T08:53:00Z,43.12,-78.93,7.8,3.9,100,3,,10.0,30.188976,1022.6,,TRUE,TRUE,,,,,,,CLR,,,,,,,,VFR,0.6,,,,,,,,,,,METAR,179.0
KHZY 230853Z AUTO 14006KT 10SM CLR 12/04 A3020 RMK AO2 SLP225 T01170039 53008,KHZY,2022-10-23T08:53:00Z,41.78,-80.7,11.7,3.9,140,6,,10.0,30.200787,1022.5,,TRUE,TRUE,,,,,,,CLR,,,,,,,,VFR,0.8,,,,,,,,,,,METAR,279.0
KHYR 230853Z AUTO VRB06KT 10SM CLR 16/09 A2971 RMK AO2 SLP058 T01610089 51010,KHYR,2022-10-23T08:53:00Z,46.02,-91.45,16.1,8.9,0,6,,10.0,29.71063,1005.8,,TRUE,TRUE,,,,,,,CLR,,,,,,,,VFR,1.0,,,,,,,,,,,METAR,369.0
KHWO 230853Z AUTO 32003KT 10SM CLR 19/18 A3001 RMK AO2 SLP161 T01890178 55006,KHWO,2022-10-23T08:53:00Z,26.0,-80.23,18.9,17.8,320,3,,10.0,30.008858,1016.1,,TRUE,TRUE,,,,,,,CLR,,,,,,,,VFR,-0.6,,,,,,,,,,,METAR,2.0
KHVR 230853Z AUTO 06007KT -SN OVC005 01/00 A2958 RMK AO2 SLP033 P0005 60012 T00060000 58000 $,KHVR,2022-10-23T08:53:00Z,48.55,-109.77,0.6,0.0,60,7,,,29.58071,1003.3,,TRUE,TRUE,TRUE,,,,,-SN,OVC,500,,,,,,,,0.0,,,,,0.05,0.12,,,,,METAR,789.0
KHVN 230853Z AUTO 02007KT 9SM OVC044 12/09 A3029 RMK AO2 SLP257 T01170094 56002,KHVN,2022-10-23T08:53:00Z,41.27,-72.88,11.7,9.4,20,7,,9.0,30.28937,1025.7,,TRUE,TRUE,,,,,,,OVC,4400,,,,,,,VFR,-0.2,,,,,,,,,,,METAR,4.0
KHUL 230853Z AUTO 00000KT 10SM CLR 05/04 A3032 RMK AO2 SLP269 T00500044 53009,KHUL,2022-10-23T08:53:00Z,46.12,-67.8,5.0,4.4,0,0,,10.0,30.318897,1026.9,,TRUE,TRUE,,,,,,,CLR,,,,,,,,VFR,0.9,,,,,,,,,,,METAR,148.0
KHUF 230853Z 16010KT 10SM OVC060 19/11 A3000 RMK AO2 SLP154 T01890111 56004,KHUF,2022-10-23T08:53:00Z,39.45,-87.32,18.9,11.1,160,10,,10.0,30.0,1015.4,,,TRUE,,,,,,,OVC,6000,,,,,,,VFR,-0.4,,,,,,,,,,,METAR,174.0
KHTL 230853Z AUTO 17005KT 10SM CLR 12/08 A3002 RMK AO2 SLP165 T01170083 50005,KHTL,2022-10-23T08:53:00Z,44.35,-84.67,11.7,8.3,170,5,,10.0,30.02067,1016.5,,TRUE,TRUE,,,,,,,CLR,,,,,,,,VFR,0.5,,,,,,,,,,,METAR,350.0
KHSV 230853Z AUTO 07004KT 10SM CLR 12/10 A3013 RMK AO2 SLP200 T01220100 53005,KHSV,2022-10-23T08:53:00Z,34.65,-86.78,12.2,10.0,70,4,,10.0,30.129921,1020.0,,TRUE,TRUE,,,,,,,CLR,,,,,,,,VFR,0.5,,,,,,,,,,,METAR,190.0
KHSI 230853Z AUTO 16012G18KT 10SM CLR 15/09 A2938 RMK AO2 SLP931 T01500094 58016 $,KHSI,2022-10-23T08:53:00Z,40.6,-98.43,15.0,9.4,160,12,18,10.0,29.379921,993.1,,TRUE,TRUE,TRUE,,,,,,CLR,,,,,,,,VFR,-1.6,,,,,,,,,,,SPECI,592.0
KHRO 230853Z AUTO 15013KT 10SM CLR 19/13 A2982 RMK AO2 SLP084 T01940133 58001,KHRO,2022-10-23T08:53:00Z,36.27,-93.15,19.4,13.3,150,13,,10.0,29.819881,1008.4,,TRUE,TRUE,,,,,,,CLR,,,,,,,,VFR,-0.1,,,,,,,,,,,METAR,417.0
KHRI 230853Z AUTO 23007KT 10SM FEW100 07/04 A2985 RMK AO2 SLP107 T00720039 53021,KHRI,2022-10-23T08:53:00Z,45.83,-119.27,7.2,3.9,230,7,,10.0,29.84941,1010.7,,TRUE,TRUE,,,,,,,FEW,10000,,,,,,,VFR,2.1,,,,,,,,,,,METAR,194.0
KHQM 230853Z AUTO 09003KT 10SM CLR 06/04 A2994 RMK AO2 SLP141 T00560044 52013,KHQM,2022-10-23T08:53:00Z,46.97,-123.93,5.6,4.4,90,3,,10.0,29.940945,1014.1,,TRUE,TRUE,,,,,,,CLR,,,,,,,,VFR,1.3,,,,,,,,,,,METAR,4.0
KHOU 230853Z 15006KT 10SM SCT036 SCT050 BKN250 22/18 A2990 RMK AO2 SLP131 T02170183 56005,KHOU,2022-10-23T08:53:00Z,29.63,-95.28,21.7,18.3,150,6,,10.0,29.899607,1013.1,,,TRUE,,,,,,,SCT,3600,SCT,5000,BKN,25000,,,VFR,-0.5,,,,,,,,,,,METAR,13.0
KHOT 230853Z AUTO 17005KT 10SM BKN028 20/15 A2993 RMK AO2 SLP128 T02000150 51004,KHOT,2022-10-23T08:53:00Z,34.48,-93.1,20.0,15.0,170,5,,10.0,29.929134,1012.8,,TRUE,TRUE,,,,,,,BKN,2800,,,,,,,MVFR,0.4,,,,,,,,,,,METAR,153.0
KHLG 230853Z AUTO 00000KT 10SM CLR 09/03 A3019 RMK AO2 SLP226 T00940033 52007,KHLG,2022-10-23T08:53:00Z,40.17,-80.65,9.4,3.3,0,0,,10.0,30.188976,1022.6,,TRUE,TRUE,,,,,,,CLR,,,,,,,,VFR,0.7,,,,,,,,,,,METAR,365.0
KHLC 230853Z AUTO 22011G21KT 10SM CLR 18/M01 A2938 RMK AO2 SLP923 T01781006 56008,KHLC,2022-10-23T08:53:00Z,39.37,-99.83,17.8,-0.6,220,11,21,10.0,29.379921,992.3,,TRUE,TRUE,,,,,,,CLR,,,,,,,,VFR,-0.8,,,,,,,,,,,METAR,667.0
KHKY 230853Z AUTO 29007KT 10SM CLR 07/05 A3021 RMK AO2 SLP217 T00670050 53002,KHKY,2022-10-23T08:53:00Z,35.75,-81.38,6.7,5.0,290,7,,10.0,30.209646,1021.7,,TRUE,TRUE,,,,,,,CLR,,,,,,,,VFR,0.2,,,,,,,,,,,METAR,357.0
KHKS 230853Z AUTO 14005KT 10SM CLR 14/12 A3007 RMK AO2 SLP175 T01440122 50000,KHKS,2022-10-23T08:53:00Z,32.33,-90.22,14.4,12.2,140,5,,10.0,30.070866,1017.5,,TRUE,TRUE,,,,,,,CLR,,,,,,,,VFR,0.0,,,,,,,,,,,METAR,103.0
KHKA 230853Z AUTO 17012G20KT 10SM CLR 18/12 A2997 RMK AO2 SLP146 T01830117 53002 $,KHKA,2022-10-23T08:53:00Z,35.93,-89.83,18.3,11.7,170,12,20,10.0,29.970472,1014.6,,TRUE,TRUE,TRUE,,,,,,CLR,,,,,,,,VFR,0.2,,,,,,,,,,,METAR,78.0
KHJO 230853Z AUTO 32008KT 10SM CLR 13/04 A2981 RMK AO2 SLP094 T01280044 52017,KHJO,2022-10-23T08:53:00Z,36.32,-119.62,12.8,4.4,320,8,,10.0,29.811024,1009.4,,TRUE,TRUE,,,,,,,CLR,,,,,,,,VFR,1.7,,,,,,,,,,,METAR,73.0
KHIO 230853Z AUTO 00000KT 10SM BKN049 OVC060 06/05 A2996 RMK AO2 SLP144 T00560050 51016,KHIO,2022-10-23T08:53:00Z,45.55,-122.95,5.6,5.0,0,0,,10.0,29.958662,1014.4,,TRUE,TRUE,,,,,,,BKN,4900,OVC,6000,,,,,VFR,1.6,,,,,,,,,,,METAR,62.0
KHIB 230853Z AUTO 00000KT 10SM CLR 01/01 A2964 RMK AO2 SLP046 T00110011 50005,KHIB,2022-10-23T08:53:00Z,47.38,-92.83,1.1,1.1,0,0,,10.0,29.639763,1004.6,,TRUE,TRUE,,,,,,,CLR,,,,,,,,VFR,0.5,,,,,,,,,,,METAR,409.0
KHHR 230853Z AUTO 00000KT 10SM CLR 17/13 A2978 RMK AO2 SLP082 60000 T01720128 55000,KHHR,2022-10-23T08:53:00Z,33.92,-118.33,17.2,12.8,0,0,,10.0,29.778543,1008.2,,TRUE,TRUE,,,,,,,CLR,,,,,,,,VFR,0.0,,,,,,0.005,,,,,METAR,21.0
KHGR 230853Z AUTO 00000KT 10SM CLR 06/02 A3026 RMK AO2 SLP257 T00610022 53004 $,KHGR,2022-10-23T08:53:00Z,39.7,-77.73,6.1,2.2,0,0,,10.0,30.259842,1025.7,,TRUE,TRUE,TRUE,,,,,,CLR,,,,,,,,VFR,0.4,,,,,,,,,,,SPECI,206.0
KHFD 230853Z AUTO 00000KT 10SM CLR 08/06 A3032 RMK AO2 SLP265 T00830061 55002,KHFD,2022-10-23T08:53:00Z,41.73,-72.65,8.3,6.1,0,0,,10.0,30.318897,1026.5,,TRUE,TRUE,,,,,,,CLR,,,,,,,,VFR,-0.2,,,,,,,,,,,METAR,3.0
KHEI 230853Z AUTO 07009KT 10SM FEW120 07/02 A2941 RMK AO2 SLP962 T00720022 57012 $,KHEI,2022-10-23T08:53:00Z,46.02,-102.65,7.2,2.2,70,9,,10.0,29.409449,996.2,,TRUE,TRUE,TRUE,,,,,,FEW,12000,,,,,,,VFR,-1.2,,,,,,,,,,,METAR,824.0
KHBR 230853Z AUTO 19012KT 10SM CLR 21/12 A2964 RMK AO2 SLP016 T02060117 50003,KHBR,2022-10-23T08:53:00Z,34.98,-99.05,20.6,11.7,190,12,,10.0,29.639763,1001.6,,TRUE,TRUE,,,,,,,CLR,,,,,,,,VFR,0.3,,,,,,,,,,,METAR,475.0
KHBG 230853Z AUTO 00000KT 10SM CLR 13/12 A3011 RMK AO2 SLP192 T01280117 53000,KHBG,2022-10-23T08:53:00Z,31.27,-89.25,12.8,11.7,0,0,,10.0,30.109253,1019.2,,TRUE,TRUE,,,,,,,CLR,,,,,,,,VFR,0.0,,,,,,,,,,,METAR,45.0
KHAO 230853Z AUTO 10004KT 10SM CLR 12/09 A3013 RMK AO2 SLP199 T01170089 51008,KHAO,2022-10-23T08:53:00Z,39.37,-84.52,11.7,8.9,100,4,,10.0,30.129921,1019.9,,TRUE,TRUE,,,,,,,CLR,,,,,,,,VFR,0.8,,,,,,,,,,,METAR,185.0
KGWO 230853Z AUTO 19007KT 10SM CLR 17/12 A3005 RMK AO2 SLP173 T01720122 53006,KGWO,2022-10-23T08:53:00Z,33.5,-90.08,17.2,12.2,190,7,,10.0,30.050198,1017.3,,TRUE,TRUE,,,,,,,CLR,,,,,,,,VFR,0.6,,,,,,,,,,,METAR,42.0
KGVL 230853Z AUTO 04003KT 10SM CLR 09/04 A3021 RMK AO2 SLP223 T00890039 50003,KGVL,2022-10-23T08:53:00Z,34.27,-83.83,8.9,3.9,40,3,,10.0,30.209646,1022.3,,TRUE,TRUE,,,,,,,CLR,,,,,,,,VFR,0.3,,,,,,,,,,,METAR,387.0
KGUY 230853Z AUTO 22023G34KT 10SM CLR 21/11 A2952 RMK AO2 PK WND 22034/0847 SLP944 T02110106 56010,KGUY,2022-10-23T08:53:00Z,36.68,-101.5,21.1,10.6,220,23,34,10.0,29.518702,994.4,,TRUE,TRUE,,,,,,,CLR,,,,,,,,VFR,-1.0,,,,,,,,,,,METAR,950.0
KGUP 230853Z AUTO 22023G41KT 10SM -RA CLR 12/05 A2972 RMK AO2 PK WND 22043/0832 SLP936 P0000 60000 T01220050 56012,KGUP,2022-10-23T08:53:00Z,35.52,-108.8,12.2,5.0,220,23,41,10.0,29.719488,993.6,,TRUE,TRUE,,,,,,-RA,CLR,,,,,,,,VFR,-1.2,,,,,0.005,0.005,,,,,METAR,1972.0
KGTF 230853Z 31011KT 1SM -SN BR OVC003 00/00 A2960 RMK AO2 SFC VIS 1 1/4 SLP052 P0004 60012 T00000000 53004 $,KGTF,2022-10-23T08:53:00Z,47.47,-111.38,0.0,0.0,310,11,,1.0,29.601377,1005.2,,,TRUE,TRUE,,,,,-SN BR,OVC,300,,,,,,,LIFR,0.4,,,,,0.04,0.12,,,,,METAR,1117.0
KGSP 230853Z AUTO 35003KT 10SM CLR 05/03 A3020 RMK AO2 SLP223 T00500028 53003,KGSP,2022-10-23T08:53:00Z,34.9,-82.22,5.0,2.8,350,3,,10.0,30.200787,1022.3,,TRUE,TRUE,,,,,,,CLR,,,,,,,,VFR,0.3,,,,,,,,,,,METAR,285.0
KGSH 230853Z AUTO 14006KT 10SM CLR 14/10 A3002 RMK AO2 SLP162 T01390100 58001,KGSH,2022-10-23T08:53:00Z,41.53,-85.78,13.9,10.0,140,6,,10.0,30.02067,1016.2,,TRUE,TRUE,,,,,,,CLR,,,,,,,,VFR,-0.1,,,,,,,,,,,METAR,252.0
KGRR 230853Z AUTO 17007KT 10SM CLR 13/10 A3001 RMK AO2 SLP161 T01280100 50001 $,KGRR,2022-10-23T08:53:00Z,42.88,-85.52,12.8,10.0,170,7,,10.0,30.008858,1016.1,,TRUE,TRUE,TRUE,,,,,,CLR,,,,,,,,VFR,0.1,,,,,,,,,,,METAR,239.0
KGRI 230853Z AUTO 15010KT 10SM CLR 14/08 A2937 RMK AO2 SLP935 T01390083 56019 $,KGRI,2022-10-23T08:53:00Z,40.97,-98.32,13.9,8.3,150,10,,10.0,29.371063,993.5,,TRUE,TRUE,TRUE,,,,,,CLR,,,,,,,,VFR,-1.9,,,,,,,,,,,METAR,562.0
KGRB 230853Z AUTO 16006KT 10SM CLR 14/10 A2987 RMK AO2 SLP113 T01390100 53009 $,KGRB,2022-10-23T08:53:00Z,44.48,-88.13,13.9,10.0,160,6,,10.0,29.870079,1011.3,,TRUE,TRUE,TRUE,,,,,,CLR,,,,,,,,VFR,0.9,,,,,,,,,,,METAR,209.0
KGPT 230853Z AUTO 00000KT 10SM CLR 13/13 A3008 RMK AO2 SLP185 T01330128 58001,KGPT,2022-10-23T08:53:00Z,30.42,-89.08,13.3,12.8,0,0,,10.0,30.079725,1018.5,,TRUE,TRUE,,,,,,,CLR,,,,,,,,VFR,-0.1,,,,,,,,,,,METAR,5.0
KGOK 230853Z AUTO 19015G26KT 10SM CLR 23/12 A2962 RMK AO2 PK WND 18029/0840 SLP017 T02330122 52004,KGOK,2022-10-23T08:53:00Z,35.85,-97.4,23.3,12.2,190,15,26,10.0,29.619095,1001.7,,TRUE,TRUE,,,,,,,CLR,,,,,,,,VFR,0.4,,,,,,,,,,,METAR,326.0
KGNV 230853Z AUTO 00000KT 10SM CLR 11/09 A3013 RMK AO2 SLP200 T01110094 50000,KGNV,2022-10-23T08:53:00Z,29.7,-82.28,11.1,9.4,0,0,,10.0,30.129921,1020.0,,TRUE,TRUE,,,,,,,CLR,,,,,,,,VFR,0.0,,,,,,,,,,,METAR,41.0
KGMU 230853Z AUTO 00000KT 10SM CLR 08/03 A3020 RMK AO2 SLP223 T00830033 50003,KGMU,2022-10-23T08:53:00Z,34.85,-82.35,8.3,3.3,0,0,,10.0,30.200787,1022.3,,TRUE,TRUE,,,,,,,CLR,,,,,,,,VFR,0.3,,,,,,,,,,,METAR,309.0
KGLR 230853Z AUTO 21007KT 10SM CLR 15/09 A3000 RMK AO2 SLP155 T01500089 51005,KGLR,2022-10-23T08:53:00Z,45.02,-84.68,15.0,8.9,210,7,,10.0,30.0,1015.5,,TRUE,TRUE,,,,,,,CLR,,,,,,,,VFR,0.5,,,,,,,,,,,METAR,403.0
KGLH 230853Z AUTO 16010KT 10SM CLR 19/13 A3001 RMK AO2 SLP167 T01890128 51007,KGLH,2022-10-23T08:53:00Z,33.47,-90.98,18.9,12.8,160,10,,10.0,30.008858,1016.7,,TRUE,TRUE,,,,,,,CLR,,,,,,,,VFR,0.7,,,,,,,,,,,METAR,40.0
KGLD 230853Z AUTO 21014G24KT 10SM CLR 17/M02 A2937 RMK AO2 PK WND 21026/0813 SLP898 T01671017 55007,KGLD,2022-10-23T08:53:00Z,39.37,-101.7,16.7,-1.7,210,14,24,10.0,29.371063,989.8,,TRUE,TRUE,,,,,,,CLR,,,,,,,,VFR,-0.7,,,,,,,,,,,METAR,1111.0
KGKJ 230853Z AUTO 00000KT 10SM CLR 09/03 A3021 RMK AO2 SLP227 T00940028 52006,KGKJ,2022-10-23T08:53:00Z,41.63,-80.22,9.4,2.8,0,0,,10.0,30.209646,1022.7,,TRUE,TRUE,,,,,,,CLR,,,,,,,,VFR,0.6,,,,,,,,,,,METAR,428.0
KGJT 230853Z AUTO 11015KT 10SM FEW036 FEW070 SCT090 09/07 A2938 RMK AO2 RAE46 SLP897 P0000 60010 T00890072 58026,KGJT,2022-10-23T08:53:00Z,39.13,-108.53,8.9,7.2,110,15,,10.0,29.379921,989.7,,TRUE,TRUE,,,,,,,FEW,3600,FEW,7000,SCT,9000,,,VFR,-2.6,,,,,0.005,0.1,,,,,METAR,1475.0
KGIF 230853Z AUTO A3008 RMK AO2 SLPNO 55000 PWINO $,KGIF,2022-10-23T08:53:00Z,28.07,-81.75,,,,,,,30.079725,,,TRUE,TRUE,TRUE,,,,TRUE,,,,,,,,,,,0.0,,,,,,,,,,,METAR,44.0
KGGW 230853Z AUTO 08018G25KT 6SM BR OVC008 06/04 A2948 RMK AO2 RAE20 CIG 006V011 SLP993 P0001 60012 T00610044 58010,KGGW,2022-10-23T08:53:00Z,48.22,-106.62,6.1,4.4,80,18,25,6.0,29.480314,999.3,,TRUE,TRUE,,,,,,BR,OVC,800,,,,,,,IFR,-1.0,,,,,0.01,0.12,,,,,METAR,698.0
KGGG 230853Z AUTO 16008KT 10SM CLR 20/16 A2989 RMK AO2 SLP117 T02000161 50001,KGGG,2022-10-23T08:53:00Z,32.38,-94.72,20.0,16.1,160,8,,10.0,29.890747,1011.7,,TRUE,TRUE,,,,,,,CLR,,,,,,,,VFR,0.1,,,,,,,,,,,METAR,107.0
KGFK 230853Z AUTO 36008KT 10SM CLR 05/03 A2955 RMK AO2 SLP010 T00500028 50005 $,KGFK,2022-10-23T08:53:00Z,47.95,-97.18,5.0,2.8,360,8,,10.0,29.551182,1001.0,,TRUE,TRUE,TRUE,,,,,,CLR,,,,,,,,VFR,0.5,,,,,,,,,,,METAR,256.0
KGEZ 230853Z AUTO 15008KT 10SM CLR 16/11 A3006 RMK AO2 SLP174 T01610106 51002,KGEZ,2022-10-23T08:53:00Z,39.58,-85.8,16.1,10.6,150,8,,10.0,30.059055,1017.4,,TRUE,TRUE,,,,,,,CLR,,,,,,,,VFR,0.2,,,,,,,,,,,METAR,245.0
KGEY 230853Z AUTO 35008KT 10SM OVC080 06/03 A2942 RMK AO2 SLP951 60000 T00560033 53000,KGEY,2022-10-23T08:53:00Z,44.52,-108.08,5.6,3.3,350,8,,10.0,29.421259,995.1,,TRUE,TRUE,,,,,,,OVC,8000,,,,,,,VFR,0.0,,,,,,0.005,,,,,METAR,1191.0
KGEG 230853Z 00000KT 10SM BKN070 BKN140 02/M03 A2975 RMK AO2 SLP084 T00171033 53017 $,KGEG,2022-10-23T08:53:00Z,47.62,-117.53,1.7,-3.3,0,0,,10.0,29.749016,1008.4,,,TRUE,TRUE,,,,,,BKN,7000,BKN,14000,,,,,VFR,1.7,,,,,,,,,,,METAR,718.0
KGCC 230853Z AUTO 31006KT 10SM FEW075 SCT090 BKN110 06/02 A2939 RMK AO2 SLP924 T00560017 58003,KGCC,2022-10-23T08:53:00Z,44.33,-105.55,5.6,1.7,310,6,,10.0,29.388779,992.4,,TRUE,TRUE,,,,,,,FEW,7500,SCT,9000,BKN,11000,,,VFR,-0.3,,,,,,,,,,,METAR,1328.0
KGAG 230853Z AUTO 19017KT 10SM CLR 22/11 A2955 RMK AO2 SLP974 T02220106 58003,KGAG,2022-10-23T08:53:00Z,36.3,-99.77,22.2,10.6,190,17,,10.0,29.551182,997.4,,TRUE,TRUE,,,,,,,CLR,,,,,,,,VFR,-0.3,,,,,,,,,,,METAR,670.0
KFYV 230853Z AUTO 18016G26KT 10SM CLR 21/13 A2980 RMK AO2 PK WND 17026/0847 SLP076 T02060133 53003,KFYV,2022-10-23T08:53:00Z,36.02,-94.17,20.6,13.3,180,16,26,10.0,29.799213,1007.6,,TRUE,TRUE,,,,,,,CLR,,,,,,,,VFR,0.3,,,,,,,,,,,METAR,377.0
KFXE 230853Z 00000KT 10SM CLR 19/19 A2999 RMK AO2 SLP159 T01940194 55005 $,KFXE,2022-10-23T08:53:00Z,26.2,-80.18,19.4,19.4,0,0,,10.0,29.991142,1015.9,,,TRUE,TRUE,,,,,,CLR,,,,,,,,VFR,-0.5,,,,,,,,,,,METAR,3.0
KFVE 230853Z AUTO 14005KT 10SM CLR 08/03 A3029 RMK AO2 SLP257 T00830033 53012,KFVE,2022-10-23T08:53:00Z,47.28,-68.3,8.3,3.3,140,5,,10.0,30.28937,1025.7,,TRUE,TRUE,,,,,,,CLR,,,,,,,,VFR,1.2,,,,,,,,,,,METAR,299.0
KFUL 230853Z AUTO 19003KT 10SM CLR 17/13 A2977 RMK AO2 SLP079 60000 T01670128 58001,KFUL,2022-10-23T08:53:00Z,33.87,-117.98,16.7,12.8,190,3,,10.0,29.769686,1007.9,,TRUE,TRUE,,,,,,,CLR,,,,,,,,VFR,-0.1,,,,,,0.005,,,,,METAR,23.0
KFTY 230853Z 00000KT 10SM CLR 06/04 A3019 RMK AO2 SLP221 T00560044 53007,KFTY,2022-10-23T08:53:00Z,33.78,-84.52,5.6,4.4,0,0,,10.0,30.188976,1022.1,,,TRUE,,,,,,,CLR,,,,,,,,VFR,0.7,,,,,,,,,,,METAR,245.0
KFTW 230853Z AUTO 16014KT 10SM CLR 21/17 A2978 RMK AO2 SLP074 T02060172 58001 $,KFTW,2022-10-23T08:53:00Z,32.83,-97.37,20.6,17.2,160,14,,10.0,29.778543,1007.4,,TRUE,TRUE,TRUE,,,,,,CLR,,,,,,,,VFR,-0.1,,,,,,,,,,,METAR,213.0
KFST 230853Z AUTO 18008KT 10SM CLR 19/11 A2977 RMK AO2 SLP035 T01940106 56009 $,KFST,2022-10-23T08:53:00Z,30.92,-102.92,19.4,10.6,180,8,,10.0,29.769686,1003.5,,TRUE,TRUE,TRUE,,,,,,CLR,,,,,,,,VFR,-0.9,,,,,,,,,,,METAR,917.0
KFSM 230853Z AUTO 01005KT 10SM CLR 19/16 A2981 RMK AO2 SLP089 T01940161 51005,KFSM,2022-10-23T08:53:00Z,35.33,-94.37,19.4,16.1,10,5,,10.0,29.811024,1008.9,,TRUE,TRUE,,,,,,,CLR,,,,,,,,VFR,0.5,,,,,,,,,,,METAR,136.0
KFRG 230853Z AUTO 04005KT 10SM SCT044 13/11 A3027 RMK AO2 SLP249 T01330111 58003 $,KFRG,2022-10-23T08:53:00Z,40.73,-73.42,13.3,11.1,40,5,,10.0,30.268702,1024.9,,TRUE,TRUE,TRUE,,,,,,SCT,4400,,,,,,,VFR,-0.3,,,,,,,,,,,METAR,23.0
KFPR 230853Z AUTO 29004KT 6SM BR CLR 18/17 A3002 RMK AO2 SLP165 T01830172 55006,KFPR,2022-10-23T08:53:00Z,27.5,-80.38,18.3,17.2,290,4,,6.0,30.02067,1016.5,,TRUE,TRUE,,,,,,BR,CLR,,,,,,,,VFR,-0.6,,,,,,,,,,,METAR,7.0
KFOK 230853Z AUTO 03005KT 10SM BKN044 BKN110 14/13 A3028 RMK AO2 SLP253 T01440133 58003 $,KFOK,2022-10-23T08:53:00Z,40.85,-72.62,14.4,13.3,30,5,,10.0,30.280512,1025.3,,TRUE,TRUE,TRUE,,,,,,BKN,4400,BKN,11000,,,,,VFR,-0.3,,,,,,,,,,,METAR,13.0
KFOE 230853Z AUTO 10SM CLR 22/15 A2953 RMK AO2 SLP987 T02170150 58009 $,KFOE,2022-10-23T08:53:00Z,38.93,-95.65,21.7,15.0,,,,10.0,29.530512,998.7,,TRUE,TRUE,TRUE,,,,,,CLR,,,,,,,,VFR,-0.9,,,,,,,,,,,METAR,315.0
KFNT 230853Z AUTO 17005KT 10SM CLR 12/08 A3008 RMK AO2 SLP183 T01170083 51006,KFNT,2022-10-23T08:53:00Z,42.97,-83.75,11.7,8.3,170,5,,10.0,30.079725,1018.3,,TRUE,TRUE,,,,,,,CLR,,,,,,,,VFR,0.6,,,,,,,,,,,METAR,235.0
KFNB 230853Z AUTO 14012KT 10SM CLR 18/13 A2949 RMK AO2 SLP979 T01830133 58012,KFNB,2022-10-23T08:53:00Z,40.07,-95.58,18.3,13.3,140,12,,10.0,29.489174,997.9,,TRUE,TRUE,,,,,,,CLR,,,,,,,,VFR,-1.2,,,,,,,,,,,METAR,301.0
KFMY 230853Z AUTO 04005KT 10SM CLR 19/18 A3002 RMK AO2 SLP167 T01890178 56006,KFMY,2022-10-23T08:53:00Z,26.58,-81.87,18.9,17.8,40,5,,10.0,30.02067,1016.7,,TRUE,TRUE,,,,,,,CLR,,,,,,,,VFR,-0.6,,,,,,,,,,,METAR,4.0
KFLO 230853Z AUTO 34005KT 10SM CLR 12/09 A3015 RMK AO2 SLP207 T01170094 53002,KFLO,2022-10-23T08:53:00Z,34.18,-79.73,11.7,9.4,340,5,,10.0,30.15059,1020.7,,TRUE,TRUE,,,,,,,CLR,,,,,,,,VFR,0.2,,,,,,,,,,,METAR,43.0
KFLL 230853Z 34006KT 10SM FEW035 21/19 A2999 RMK AO2 SLP154 T02060189 55005 $,KFLL,2022-10-23T08:53:00Z,26.07,-80.15,20.6,18.9,340,6,,10.0,29.991142,1015.4,,,TRUE,TRUE,,,,,,FEW,3500,,,,,,,VFR,-0.5,,,,,,,,,,,METAR,1.0
KFLD 230853Z AUTO 18010KT 10SM CLR 16/11 A2986 RMK AO2 SLP110 T01560106 51006,KFLD,2022-10-23T08:53:00Z,43.77,-88.48,15.6,10.6,180,10,,10.0,29.861221,1011.0,,TRUE,TRUE,,,,,,,CLR,,,,,,,,VFR,0.6,,,,,,,,,,,METAR,242.0
KFHR 230853Z AUTO 00000KT 10SM CLR 04/03 A2995 RMK AO2 SLP140 T00440033 51017,KFHR,2022-10-23T08:53:00Z,48.52,-123.03,4.4,3.3,0,0,,10.0,29.949802,1014.0,,TRUE,TRUE,,,,,,,CLR,,,,,,,,VFR,1.7,,,,,,,,,,,METAR,34.0
KFFT 230853Z AUTO 16003KT 10SM CLR 13/08 A3013 RMK AO2 SLP197 T01330083 53009,KFFT,2022-10-23T08:53:00Z,38.18,-84.9,13.3,8.3,160,3,,10.0,30.129921,1019.7,,TRUE,TRUE,,,,,,,CLR,,,,,,,,VFR,0.9,,,,,,,,,,,METAR,235.0
KFFC 230853Z AUTO 00000KT 10SM CLR 05/03 A3019 RMK AO2 SLP222 T00500028 51005,KFFC,2022-10-23T08:53:00Z,33.35,-84.57,5.0,2.8,0,0,,10.0,30.188976,1022.2,,TRUE,TRUE,,,,,,,CLR,,,,,,,,VFR,0.5,,,,,,,,,,,METAR,242.0
KFDY 230853Z AUTO 14006KT 10SM CLR 13/08 A3011 RMK AO2 SLP188 T01330083 53006,KFDY,2022-10-23T08:53:00Z,41.02,-83.67,13.3,8.3,140,6,,10.0,30.109253,1018.8,,TRUE,TRUE,,,,,,,CLR,,,,,,,,VFR,0.6,,,,,,,,,,,METAR,247.0
KFDR 230853Z AUTO 19013KT 10SM CLR 22/12 A2963 RMK AO2 SLP013 T02220117 50003,KFDR,2022-10-23T08:53:00Z,34.35,-98.98,22.2,11.7,190,13,,10.0,29.630905,1001.3,,TRUE,TRUE,,,,,,,CLR,,,,,,,,VFR,0.3,,,,,,,,,,,METAR,378.0
KFCM 230853Z AUTO 13009KT 10SM CLR 15/07 A2961 RMK AO2 SLP023 T01500067 51006 $,KFCM,2022-10-23T08:53:00Z,44.83,-93.47,15.0,6.7,130,9,,10.0,29.610237,1002.3,,TRUE,TRUE,TRUE,,,,,,CLR,,,,,,,,VFR,0.6,,,,,,,,,,,METAR,276.0
KFAY 230853Z 01007KT 10SM CLR 13/11 A3014 RMK AO2 SLP200 T01280106 56002 $,KFAY,2022-10-23T08:53:00Z,34.98,-78.88,12.8,10.6,10,7,,10.0,30.138779,1020.0,,,TRUE,TRUE,,,,,,CLR,,,,,,,,VFR,-0.2,,,,,,,,,,,METAR,57.0
KFAT 230853Z 30010KT 10SM CLR 14/05 A2980 RMK AO2 SLP089 T01390050 53015,KFAT,2022-10-23T08:53:00Z,36.78,-119.72,13.9,5.0,300,10,,10.0,29.799213,1008.9,,,TRUE,,,,,,,CLR,,,,,,,,VFR,1.5,,,,,,,,,,,METAR,102.0
KFAR 230853Z AUTO 00000KT 10SM CLR 02/M01 A2952 RMK AO2 SLP000 T00221006 50007 TSNO $,KFAR,2022-10-23T08:53:00Z,46.9,-96.82,2.2,-0.6,0,0,,10.0,29.518702,1000.0,,TRUE,TRUE,TRUE,,TRUE,,,,CLR,,,,,,,,VFR,0.7,,,,,,,,,,,METAR,276.0
KEYW 230853Z AUTO 05006KT 10SM CLR 23/21 A2999 RMK AO2 SLP154 T02330206 55004,KEYW,2022-10-23T08:53:00Z,24.55,-81.75,23.3,20.6,50,6,,10.0,29.991142,1015.4,,TRUE,TRUE,,,,,,,CLR,,,,,,,,VFR,-0.4,,,,,,,,,,,METAR,1.0
KEYE 230853Z AUTO 14004KT 10SM CLR 15/11 A3004 RMK AO2 SLP168 T01500106 51000,KEYE,2022-10-23T08:53:00Z,39.83,-86.3,15.0,10.6,140,4,,10.0,30.041338,1016.8,,TRUE,TRUE,,,,,,,CLR,,,,,,,,VFR,0.0,,,,,,,,,,,METAR,248.0
KEWB 230853Z AUTO 35004KT 10SM CLR 11/11 A3030 RMK AO2 SLP259 T01060106 55006 $,KEWB,2022-10-23T08:53:00Z,41.68,-70.95,10.6,10.6,350,4,,10.0,30.301182,1025.9,,TRUE,TRUE,TRUE,,,,,,CLR,,,,,,,,VFR,-0.6,,,,,,,,,,,METAR,22.0
KEVW 230853Z AUTO 29004KT 10SM FEW027 SCT042 OVC050 M02/M03 A2955 RMK AO2 SLP976 T10171033 56004 $,KEVW,2022-10-23T08:53:00Z,41.27,-111.03,-1.7,-3.3,290,4,,10.0,29.551182,997.6,,TRUE,TRUE,TRUE,,,,,,FEW,2700,SCT,4200,OVC,5000,,,VFR,-0.4,,,,,,,,,,,METAR,2178.0
KESF 230853Z AUTO 15003KT 10SM CLR 17/15 A3000 RMK AO2 SLP156 T01670150 55003,KESF,2022-10-23T08:53:00Z,31.4,-92.28,16.7,15.0,150,3,,10.0,30.0,1015.6,,TRUE,TRUE,,,,,,,CLR,,,,,,,,VFR,-0.3,,,,,,,,,,,METAR,27.0
KEQY 230853Z AUTO 02003KT 10SM CLR 09/05 A3017 RMK AO2 SLP223 T00940050 55000,KEQY,2022-10-23T08:53:00Z,35.02,-80.62,9.4,5.0,20,3,,10.0,30.171259,1022.3,,TRUE,TRUE,,,,,,,CLR,,,,,,,,VFR,0.0,,,,,,,,,,,METAR,205.0
KEPH 230853Z AUTO 36006KT 10SM CLR 04/M03 A2979 RMK AO2 SLP092 T00441028 51015,KEPH,2022-10-23T08:53:00Z,47.3,-119.52,4.4,-2.8,360,6,,10.0,29.790354,1009.2,,TRUE,TRUE,,,,,,,CLR,,,,,,,,VFR,1.5,,,,,,,,,,,METAR,382.0
KENW 230853Z AUTO 17006KT 10SM CLR 16/11 A2990 RMK AO2 SLP121 T01610111 58001,KENW,2022-10-23T08:53:00Z,42.6,-87.93,16.1,11.1,170,6,,10.0,29.899607,1012.1,,TRUE,TRUE,,,,,,,CLR,,,,,,,,VFR,-0.1,,,,,,,,,,,METAR,222.0
KEMP 230853Z AUTO 18021G30KT 10SM CLR 21/13 A2953 RMK AO2 PK WND 17031/0839 SLP989 T02110128 56006,KEMP,2022-10-23T08:53:00Z,38.33,-96.2,21.1,12.8,180,21,30,10.0,29.530512,998.9,,TRUE,TRUE,,,,,,,CLR,,,,,,,,VFR,-0.6,,,,,,,,,,,METAR,366.0
KELN 230853Z AUTO 31012KT 10SM CLR 06/M01 A2983 RMK AO2 SLP104 T00561011 51016 $,KELN,2022-10-23T08:53:00Z,47.03,-120.53,5.6,-1.1,310,12,,10.0,29.828741,1010.4,,TRUE,TRUE,TRUE,,,,,,CLR,,,,,,,,VFR,1.6,,,,,,,,,,,METAR,532.0
KELM 230853Z AUTO 00000KT 10SM CLR 00/M01 A3028 RMK AO2 SLP258 T00001006 53004,KELM,2022-10-23T08:53:00Z,42.15,-76.9,0.0,-0.6,0,0,,10.0,30.280512,1025.8,,TRUE,TRUE,,,,,,,CLR,,,,,,,,VFR,0.4,,,,,,,,,,,METAR,287.0
KELD 230853Z AUTO 15007KT 10SM CLR 18/16 A2997 RMK AO2 SLP144 T01830156 50007,KELD,2022-10-23T08:53:00Z,33.22,-92.82,18.3,15.6,150,7,,10.0,29.970472,1014.4,,TRUE,TRUE,,,,,,,CLR,,,,,,,,VFR,0.7,,,,,,,,,,,METAR,76.0
KEET 230853Z AUTO 00000KT 8SM CLR 09/08 A3015 RMK AO2 SLP205 T00940078 51006,KEET,2022-10-23T08:53:00Z,33.18,-86.78,9.4,7.8,0,0,,8.0,30.15059,1020.5,,TRUE,TRUE,,,,,,,CLR,,,,,,,,VFR,0.6,,,,,,,,,,,METAR,172.0
KECP 230853Z AUTO 00000KT 10SM CLR 10/06 A3011 RMK AO1 SLP206 T01000061 58001,KECP,2022-10-23T08:53:00Z,30.35,-85.8,10.0,6.1,0,0,,10.0,30.109253,1020.6,,TRUE,TRUE,,,,,,,CLR,,,,,,,,VFR,-0.1,,,,,,,,,,,METAR,17.0
KDXR 230853Z AUTO 00000KT 10SM BKN039 09/06 A3031 RMK AO2 SLP262 T00890061 58000,KDXR,2022-10-23T08:53:00Z,41.37,-73.48,8.9,6.1,0,0,,10.0,30.31004,1026.2,,TRUE,TRUE,,,,,,,BKN,3900,,,,,,,VFR,0.0,,,,,,,,,,,METAR,138.0
KDWH 230853Z AUTO VRB03KT 10SM CLR 22/17 A2990 RMK AO2 SLP122 T02170172 56005,KDWH,2022-10-23T08:53:00Z,30.07,-95.55,21.7,17.2,0,3,,10.0,29.899607,1012.2,,TRUE,TRUE,,,,,,,CLR,,,,,,,,VFR,-0.5,,,,,,,,,,,METAR,46.0
KDVT 230853Z AUTO 23009KT 10SM CLR 21/13 A2969 RMK AO2 SLP033 T02060133 53004,KDVT,2022-10-23T08:53:00Z,33.68,-112.07,20.6,13.3,230,9,,10.0,29.68996,1003.3,,TRUE,TRUE,,,,,,,CLR,,,,,,,,VFR,0.4,,,,,,,,,,,METAR,454.0
KDUJ 230853Z AUTO 08006KT 10SM CLR 07/01 A3023 RMK AO2 SLP236 T00670011 53003,KDUJ,2022-10-23T08:53:00Z,41.17,-78.9,6.7,1.1,80,6,,10.0,30.230314,1023.6,,TRUE,TRUE,,,,,,,CLR,,,,,,,,VFR,0.3,,,,,,,,,,,METAR,552.0
KDTW 230853Z 16003KT 10SM FEW230 12/08 A3010 RMK AO2 SLP192 T01170083 53007 $,KDTW,2022-10-23T08:53:00Z,42.23,-83.33,11.7,8.3,160,3,,10.0,30.100393,1019.2,,,TRUE,TRUE,,,,,,FEW,23000,,,,,,,VFR,0.7,,,,,,,,,,,METAR,192.0
KDTS 230853Z AUTO 04003KT 10SM CLR 16/09 A3011 RMK AO2 SLP195 T01610094 53000,KDTS,2022-10-23T08:53:00Z,30.4,-86.47,16.1,9.4,40,3,,10.0,30.109253,1019.5,,TRUE,TRUE,,,,,,,CLR,,,,,,,,VFR,0.0,,,,,,,,,,,METAR,5.0
KDTO 230853Z AUTO 16013KT 10SM CLR 21/17 A2978 RMK AO2 SLP076 T02110167 50001,KDTO,2022-10-23T08:53:00Z,33.2,-97.2,21.1,16.7,160,13,,10.0,29.778543,1007.6,,TRUE,TRUE,,,,,,,CLR,,,,,,,,VFR,0.1,,,,,,,,,,,SPECI,199.0
KDTN 230853Z AUTO 15007KT 10SM BKN041 19/16 A2995 RMK AO2 SLP139 T01890156 51005,KDTN,2022-10-23T08:53:00Z,32.55,-93.75,18.9,15.6,150,7,,10.0,29.949802,1013.9,,TRUE,TRUE,,,,,,,BKN,4100,,,,,,,VFR,0.5,,,,,,,,,,,METAR,53.0
KDRT 230853Z AUTO 10011KT 10SM CLR 19/16 A2979 RMK AO2 SLP081 T01890156 58010,KDRT,2022-10-23T08:53:00Z,29.37,-100.92,18.9,15.6,100,11,,10.0,29.790354,1008.1,,TRUE,TRUE,,,,,,,CLR,,,,,,,,VFR,-1.0,,,,,,,,,,,METAR,303.0
KDRO 230853Z AUTO 20011G19KT 10SM SCT055 BKN070 12/04 A2969 RMK AO2 SLP981 T01220039 56011,KDRO,2022-10-23T08:53:00Z,37.15,-107.77,12.2,3.9,200,11,19,10.0,29.68996,998.1,,TRUE,TRUE,,,,,,,SCT,5500,BKN,7000,,,,,VFR,-1.1,,,,,,,,,,,METAR,2021.0
KDRA 230853Z AUTO 31006KT 10SM OVC095 11/04 A2971 RMK AO2 SLP027 60001 T01060044 53023,KDRA,2022-10-23T08:53:00Z,36.62,-116.03,10.6,4.4,310,6,,10.0,29.71063,1002.7,,TRUE,TRUE,,,,,,,OVC,9500,,,,,,,VFR,2.3,,,,,,0.01,,,,,METAR,988.0
KDNL 230853Z AUTO 33009KT 10SM CLR 12/03 A3017 RMK AO2 SLP212 T01170028 55000,KDNL,2022-10-23T08:53:00Z,33.47,-82.03,11.7,2.8,330,9,,10.0,30.171259,1021.2,,TRUE,TRUE,,,,,,,CLR,,,,,,,,VFR,0.0,,,,,,,,,,,METAR,126.0
KDMO 230853Z AUTO 17013KT 10SM CLR 20/12 A2968 RMK AO2 SLP041 T02000122 58010,KDMO,2022-10-23T08:53:00Z,38.72,-93.17,20.0,12.2,170,13,,10.0,29.681103,1004.1,,TRUE,TRUE,,,,,,,CLR,,,,,,,,VFR,-1.0,,,,,,,,,,,METAR,271.0
KDMN 230853Z AUTO 22011G18KT 10SM CLR 18/12 A2980 RMK AO2 SLP020 T01830117 56013,KDMN,2022-10-23T08:53:00Z,32.27,-107.72,18.3,11.7,220,11,18,10.0,29.799213,1002.0,,TRUE,TRUE,,,,,,,CLR,,,,,,,,VFR,-1.3,,,,,,,,,,,METAR,1310.0
KDLS 230853Z AUTO 29008KT 10SM CLR 09/03 A2990 RMK AO2 SLP124 T00940033 51017,KDLS,2022-10-23T08:53:00Z,45.62,-121.17,9.4,3.3,290,8,,10.0,29.899607,1012.4,,TRUE,TRUE,,,,,,,CLR,,,,,,,,VFR,1.7,,,,,,,,,,,SPECI,71.0
KDKK 230853Z AUTO 18014G21KT 10SM CLR 17/02 A3019 RMK AO2 SLP219 T01670017 53004,KDKK,2022-10-23T08:53:00Z,42.5,-79.28,16.7,1.7,180,14,21,10.0,30.188976,1021.9,,TRUE,TRUE,,,,,,,CLR,,,,,,,,VFR,0.4,,,,,,,,,,,SPECI,205.0
KDHT 230853Z AUTO 22018KT 10SM CLR 17/11 A2962 RMK AO2 SLP971 T01720106 58006,KDHT,2022-10-23T08:53:00Z,36.02,-102.55,17.2,10.6,220,18,,10.0,29.619095,997.1,,TRUE,TRUE,,,,,,,CLR,,,,,,,,VFR,-0.6,,,,,,,,,,,METAR,1217.0
KDHN 230853Z AUTO 03004KT 10SM CLR 07/05 A3017 RMK AO2 SLP213 T00670050 51003,KDHN,2022-10-23T08:53:00Z,31.32,-85.45,6.7,5.0,30,4,,10.0,30.171259,1021.3,,TRUE,TRUE,,,,,,,CLR,,,,,,,,VFR,0.3,,,,,,,,,,,METAR,113.0
KDGW 230853Z AUTO 32006KT 10SM OVC120 11/02 A2937 RMK AO2 SLP898 T01110017 58010,KDGW,2022-10-23T08:53:00Z,42.8,-105.38,11.1,1.7,320,6,,10.0,29.371063,989.8,,TRUE,TRUE,,,,,,,OVC,12000,,,,,,,VFR,-1.0,,,,,,,,,,,METAR,1503.0
KDFW 230853Z 18018G24KT 10SM FEW020 SCT250 22/17 A2978 RMK AO2 PK WND 18027/0840 SLP075 T02170167 51005,KDFW,2022-10-23T08:53:00Z,32.9,-97.02,21.7,16.7,180,18,24,10.0,29.778543,1007.5,,,TRUE,,,,,,,FEW,2000,SCT,25000,,,,,VFR,0.5,,,,,,,,,,,METAR,168.0
KDFI 230853Z AUTO 16005KT 10SM CLR 14/09 A3008 RMK AO2 SLP184 T01390089 51004,KDFI,2022-10-23T08:53:00Z,41.33,-84.43,13.9,8.9,160,5,,10.0,30.079725,1018.4,,TRUE,TRUE,,,,,,,CLR,,,,,,,,VFR,0.4,,,,,,,,,,,SPECI,215.0
KDEW 230853Z AUTO 00000KT 10SM BKN080 00/M01 A2976 RMK AO2 SNB06E15 SLP089 P0000 60000 T00001011 53016,KDEW,2022-10-23T08:53:00Z,47.97,-117.43,0.0,-1.1,0,0,,10.0,29.760826,1008.9,,TRUE,TRUE,,,,,,,BKN,8000,,,,,,,VFR,1.6,,,,,0.005,,,,,,SPECI,672.0
KDET 230853Z 17005KT 8SM CLR 14/08 A3011 RMK AO2 SLP194 T01440083 53010,KDET,2022-10-23T08:53:00Z,42.4,-83.02,14.4,8.3,170,5,,8.0,30.109253,1019.4,,,TRUE,,,,,,,CLR,,,,,,,,VFR,1.0,,,,,,,,,,,SPECI,190.0
KDEN 230853Z 18015KT 10SM SCT250 15/M03 A2936 RMK AO2 SLP863 T01501033 56019,KDEN,2022-10-23T08:53:00Z,39.85,-104.65,15.0,-3.3,180,15,,10.0,29.359253,986.3,,,TRUE,,,,,,,SCT,25000,,,,,,,VFR,-1.9,,,,,,,,,,,METAR,1656.0
KDCU 230853Z AUTO 00000KT 6SM BR CLR 09/09 A3013 RMK AO2 SLP200 T00940089 53004,KDCU,2022-10-23T08:53:00Z,34.65,-86.95,9.4,8.9,0,0,,6.0,30.129921,1020.0,,TRUE,TRUE,,,,,,BR,CLR,,,,,,,,VFR,0.4,,,,,,,,,,,METAR,180.0
KDBQ 230853Z AUTO 15012KT 10SM CLR 16/12 A2978 RMK AO2 SLP078 T01560122 58003,KDBQ,2022-10-23T08:53:00Z,42.4,-90.7,15.6,12.2,150,12,,10.0,29.778543,1007.8,,TRUE,TRUE,,,,,,,CLR,,,,,,,,VFR,-0.3,,,,,,,,,,,METAR,317.0
KDAN 230853Z AUTO 00000KT 10SM CLR 04/03 A3021 RMK AO2 SLP225 T00440028 53001,KDAN,2022-10-23T08:53:00Z,36.57,-79.33,4.4,2.8,0,0,,10.0,30.209646,1022.5,,TRUE,TRUE,,,,,,,CLR,,,,,,,,VFR,0.1,,,,,,,,,,,METAR,170.0
KDAL 230853Z 18014G25KT 10SM BKN025 22/17 A2981 RMK AO2 SLP087 T02170167 50004,KDAL,2022-10-23T08:53:00Z,32.85,-96.85,21.7,16.7,180,14,25,10.0,29.811024,1008.7,,,TRUE,,,,,,,BKN,2500,,,,,,,MVFR,0.4,,,,,,,,,,,METAR,148.0
KDAB 230853Z 28003KT 10SM CLR 16/14 A3007 RMK AO2 SLP181 T01610139 53001,KDAB,2022-10-23T08:53:00Z,29.18,-81.07,16.1,13.9,280,3,,10.0,30.070866,1018.1,,,TRUE,,,,,,,CLR,,,,,,,,VFR,0.1,,,,,,,,,,,METAR,8.0
KCYS 230853Z AUTO 27007KT 10SM BKN110 11/M05 A2940 RMK AO2 SLP875 T01061050 56016,KCYS,2022-10-23T08:53:00Z,41.15,-104.8,10.6,-5.0,270,7,,10.0,29.40059,987.5,,TRUE,TRUE,,,,,,,BKN,11000,,,,,,,VFR,-1.6,,,,,,,,,,,METAR,1868.0
KCUT 230853Z AUTO 34004KT 10SM CLR 10/M02 A2939 RMK AO2 SLP897 T01001022 58017,KCUT,2022-10-23T08:53:00Z,43.73,-103.62,10.0,-2.2,340,4,,10.0,29.388779,989.7,,TRUE,TRUE,,,,,,,CLR,,,,,,,,VFR,-1.7,,,,,,,,,,,METAR,1700.0
KCUB 230853Z AUTO 00000KT 10SM CLR 09/07 A3016 RMK AO2 SLP212 T00890067 57002,KCUB,2022-10-23T08:53:00Z,33.97,-81.0,8.9,6.7,0,0,,10.0,30.159449,1021.2,,TRUE,TRUE,,,,,,,CLR,,,,,,,,VFR,-0.2,,,,,,,,,,,METAR,55.0
KCSV 230853Z AUTO 00000KT 10SM CLR 09/06 A3019 RMK AO2 SLP215 T00940056 53007,KCSV,2022-10-23T08:53:00Z,35.95,-85.08,9.4,5.6,0,0,,10.0,30.188976,1021.5,,TRUE,TRUE,,,,,,,CLR,,,,,,,,VFR,0.7,,,,,,,,,,,METAR,569.0
KCSM 230853Z AUTO 19015KT 10SM CLR 19/12 A2963 RMK AO2 SLP008 T01940122 50002,KCSM,2022-10-23T08:53:00Z,35.35,-99.2,19.4,12.2,190,15,,10.0,29.630905,1000.8,,TRUE,TRUE,,,,,,,CLR,,,,,,,,VFR,0.2,,,,,,,,,,,METAR,586.0
KCRS 230853Z AUTO 15008KT 10SM OVC033 22/16 A2987 RMK AO2 SLP109 T02170156 53004 $,KCRS,2022-10-23T08:53:00Z,32.03,-96.4,21.7,15.6,150,8,,10.0,29.870079,1010.9,,TRUE,TRUE,TRUE,,,,,,OVC,3300,,,,,,,VFR,0.4,,,,,,,,,,,METAR,136.0
KCRG 230853Z AUTO 35005KT 10SM CLR 14/12 A3010 RMK AO2 SLP192 T01440117 53003,KCRG,2022-10-23T08:53:00Z,30.33,-81.52,14.4,11.7,350,5,,10.0,30.100393,1019.2,,TRUE,TRUE,,,,,,,CLR,,,,,,,,VFR,0.3,,,,,,,,,,,METAR,12.0
KCRE 230853Z AUTO 36005KT 10SM CLR 14/11 A3010 RMK AO1 SLP193 T01390106 51000,KCRE,2022-10-23T08:53:00Z,33.82,-78.72,13.9,10.6,360,5,,10.0,30.100393,1019.3,,TRUE,TRUE,,,,,,,CLR,,,,,,,,VFR,0.0,,,,,,,,,,,METAR,9.0
KCQC 230853Z AUTO 22021G30KT 10SM CLR 11/09 A2982 RMK AO2 PK WND 22032/0837 SLP016 T01110089 56012,KCQC,2022-10-23T08:53:00Z,35.0,-105.67,11.1,8.9,220,21,30,10.0,29.819881,1001.6,,TRUE,TRUE,,,,,,,CLR,,,,,,,,VFR,-1.2,,,,,,,,,,,METAR,2163.0
KCPS 230853Z AUTO 16006KT 10SM SCT090 18/11 A2986 RMK AO2 SLP108 T01780111 56003 $,KCPS,2022-10-23T08:53:00Z,38.53,-90.15,17.8,11.1,160,6,,10.0,29.861221,1010.8,,TRUE,TRUE,TRUE,,,,,,SCT,9000,,,,,,,VFR,-0.3,,,,,,,,,,,METAR,125.0
KCPR 230853Z AUTO 22011KT 10SM SCT070 BKN090 BKN120 08/M01 A2938 RMK AO2 SLP901 T00781011 58013,KCPR,2022-10-23T08:53:00Z,42.9,-106.47,7.8,-1.1,220,11,,10.0,29.379921,990.1,,TRUE,TRUE,,,,,,,SCT,7000,BKN,9000,BKN,12000,,,VFR,-1.3,,,,,,,,,,,METAR,1623.0
KCOT 230853Z AUTO 15007KT 8SM CLR 22/19 A2982 RMK AO2 SLP090 T02170189 58012,KCOT,2022-10-23T08:53:00Z,28.45,-99.22,21.7,18.9,150,7,,8.0,29.819881,1009.0,,TRUE,TRUE,,,,,,,CLR,,,,,,,,VFR,-1.2,,,,,,,,,,,METAR,144.0
KCNO 230853Z AUTO 27003KT 10SM CLR 15/12 A2979 RMK AO2 SLP084 T01500122 50000,KCNO,2022-10-23T08:53:00Z,33.98,-117.62,15.0,12.2,270,3,,10.0,29.790354,1008.4,,TRUE,TRUE,,,,,,,CLR,,,,,,,,VFR,0.0,,,,,,,,,,,METAR,191.0
KCNM 230853Z AUTO VRB04KT 10SM CLR 18/09 A2973 RMK AO2 SLP015 T01830094 56007,KCNM,2022-10-23T08:53:00Z,32.33,-104.25,18.3,9.4,0,4,,10.0,29.731298,1001.5,,TRUE,TRUE,,,,,,,CLR,,,,,,,,VFR,-0.7,,,,,,,,,,,METAR,993.0
KCMX 230853Z AUTO 14007KT 10SM CLR 12/09 A2977 RMK AO2 SLP085 T01170089 53004,KCMX,2022-10-23T08:53:00Z,47.17,-88.48,11.7,8.9,140,7,,10.0,29.769686,1008.5,,TRUE,TRUE,,,,,,,CLR,,,,,,,,VFR,0.4,,,,,,,,,,,METAR,326.0
KCMI 230853Z AUTO 15014KT 10SM FEW050 16/11 A2993 RMK AO2 SLP131 T01610106 56009,KCMI,2022-10-23T08:53:00Z,40.03,-88.27,16.1,10.6,150,14,,10.0,29.929134,1013.1,,TRUE,TRUE,,,,,,,FEW,5000,,,,,,,VFR,-0.9,,,,,,,,,,,METAR,227.0
KCLM 230853Z AUTO 23008KT 10SM OVC050 08/03 A2995 RMK AO2 SLP141 T00780033 52016,KCLM,2022-10-23T08:53:00Z,48.12,-123.5,7.8,3.3,230,8,,10.0,29.949802,1014.1,,TRUE,TRUE,,,,,,,OVC,5000,,,,,,,VFR,1.6,,,,,,,,,,,METAR,81.0
KCLL 230853Z AUTO 16008KT 10SM CLR 20/17 A2988 RMK AO2 SLP112 T02000167 57004,KCLL,2022-10-23T08:53:00Z,30.58,-96.37,20.0,16.7,160,8,,10.0,29.878937,1011.2,,TRUE,TRUE,,,,,,,CLR,,,,,,,,VFR,-0.4,,,,,,,,,,,METAR,96.0
KCKB 230853Z AUTO 00000KT 10SM CLR 06/02 A3021 RMK AO2 SLP221 T00560022 53005,KCKB,2022-10-23T08:53:00Z,39.3,-80.22,5.6,2.2,0,0,,10.0,30.209646,1022.1,,TRUE,TRUE,,,,,,,CLR,,,,,,,,VFR,0.5,,,,,,,,,,,METAR,368.0
KCHO 230853Z AUTO 00000KT 10SM CLR 06/04 A3024 RMK AO2 SLP240 T00610039 53005 $,KCHO,2022-10-23T08:53:00Z,38.13,-78.45,6.1,3.9,0,0,,10.0,30.239174,1024.0,,TRUE,TRUE,TRUE,,,,,,CLR,,,,,,,,VFR,0.5,,,,,,,,,,,METAR,193.0
KCHA 230853Z AUTO 00000KT 6SM BR CLR 08/07 A3018 RMK AO2 SLP216 T00830067 53003,KCHA,2022-10-23T08:53:00Z,35.03,-85.2,8.3,6.7,0,0,,6.0,30.180119,1021.6,,TRUE,TRUE,,,,,,BR,CLR,,,,,,,,VFR,0.3,,,,,,,,,,,METAR,203.0
KCGI 230853Z AUTO 16012KT 10SM BLDU CLR 18/12 A2995 RMK AO2 SLP140 T01830117 51005,KCGI,2022-10-23T08:53:00Z,37.23,-89.58,18.3,11.7,160,12,,10.0,29.949802,1014.0,,TRUE,TRUE,,,,,,BLDU,CLR,,,,,,,,VFR,0.5,,,,,,,,,,,METAR,103.0
KCEZ 230853Z AUTO 20024G38KT 6SM HZ BKN070 BKN100 OVC120 14/02 A2961 RMK AO2 PK WND 20041/0842 LTG DSNT N AND NW SLP957 T01440022 55005,KCEZ,2022-10-23T08:53:00Z,37.3,-108.63,14.4,2.2,200,24,38,6.0,29.610237,995.7,,TRUE,TRUE,,,,,,HZ,BKN,7000,BKN,10000,OVC,12000,,,VFR,-0.5,,,,,,,,,,,METAR,1801.0
KCEW 230853Z AUTO 00000KT 8SM CLR 07/06 A3014 RMK AO2 SLP205 T00670061 53002,KCEW,2022-10-23T08:53:00Z,30.78,-86.52,6.7,6.1,0,0,,8.0,30.138779,1020.5,,TRUE,TRUE,,,,,,,CLR,,,,,,,,VFR,0.2,,,,,,,,,,,METAR,47.0
KCDW 230853Z AUTO 07003KT 10SM OVC034 09/06 A3029 RMK AO2 SLP261 T00940056 51002,KCDW,2022-10-23T08:53:00Z,40.88,-74.28,9.4,5.6,70,3,,10.0,30.28937,1026.1,,TRUE,TRUE,,,,,,,OVC,3400,,,,,,,VFR,0.2,,,,,,,,,,,METAR,52.0
KCDS 230853Z AUTO 21015G23KT 10SM CLR 21/12 A2967 RMK AO2 SLP017 T02110122 58001,KCDS,2022-10-23T08:53:00Z,34.43,-100.28,21.1,12.2,210,15,23,10.0,29.66929,1001.7,,TRUE,TRUE,,,,,,,CLR,,,,,,,,VFR,-0.1,,,,,,,,,,,METAR,595.0
KCDR 230853Z AUTO 00000KT 10SM CLR 03/M02 A2932 RMK AO2 SLP918 T00281022 58017,KCDR,2022-10-23T08:53:00Z,42.83,-103.1,2.8,-2.2,0,0,,10.0,29.320866,991.8,,TRUE,TRUE,,,,,,,CLR,,,,,,,,VFR,-1.7,,,,,,,,,,,METAR,1002.0
KCCR 230853Z AUTO 27005KT 10SM CLR 13/04 A2987 RMK AO2 SLP101 T01280039 51017,KCCR,2022-10-23T08:53:00Z,38.0,-122.05,12.8,3.9,270,5,,10.0,29.870079,1010.1,,TRUE,TRUE,,,,,,,CLR,,,,,,,,VFR,1.7,,,,,,,,,,,METAR,6.0
KBYI 230853Z AUTO 27011G21KT 10SM CLR 02/M01 A2963 RMK AO2 SLP033 T00171006 53004,KBYI,2022-10-23T08:53:00Z,42.55,-113.77,1.7,-0.6,270,11,21,10.0,29.630905,1003.3,,TRUE,TRUE,,,,,,,CLR,,,,,,,,VFR,0.4,,,,,,,,,,,METAR,1263.0
KBYG 230853Z AUTO 33012KT 10SM -RA BKN041 OVC050 07/04 A2941 RMK AO2 RAB0756E14B45 SLP925 P0000 60000 T00670039 51002,KBYG,2022-10-23T08:53:00Z,44.38,-106.72,6.7,3.9,330,12,,10.0,29.409449,992.5,,TRUE,TRUE,,,,,,-RA,BKN,4100,OVC,5000,,,,,VFR,0.2,,,,,0.005,0.005,,,,,METAR,1503.0
KBWG 230853Z AUTO 02003KT 10SM CLR 10/08 A3011 RMK AO2 SLP193 T01000083 51007,KBWG,2022-10-23T08:53:00Z,36.97,-86.42,10.0,8.3,20,3,,10.0,30.109253,1019.3,,TRUE,TRUE,,,,,,,CLR,,,,,,,,VFR,0.7,,,,,,,,,,,METAR,159.0
KBVY 230853Z AUTO 33003KT 7SM CLR 06/05 A3031 RMK AO2 SLP259 T00560050 56004,KBVY,2022-10-23T08:53:00Z,42.58,-70.92,5.6,5.0,330,3,,7.0,30.31004,1025.9,,TRUE,TRUE,,,,,,,CLR,,,,,,,,VFR,-0.4,,,,,,,,,,,METAR,28.0
KBVO 230853Z AUTO 18010G20KT 10SM CLR 23/14 A2964 RMK AO2 SLP024 T02280139 53002,KBVO,2022-10-23T08:53:00Z,36.77,-96.02,22.8,13.9,180,10,20,10.0,29.639763,1002.4,,TRUE,TRUE,,,,,,,CLR,,,,,,,,VFR,0.2,,,,,,,,,,,METAR,210.0
KBTR 230853Z AUTO 08005KT 10SM CLR 15/14 A3003 RMK AO2 SLP170 T01500139 56005 $,KBTR,2022-10-23T08:53:00Z,30.53,-91.15,15.0,13.9,80,5,,10.0,30.029528,1017.0,,TRUE,TRUE,TRUE,,,,,,CLR,,,,,,,,VFR,-0.5,,,,,,,,,,,METAR,20.0
KBTL 230853Z AUTO 16006KT 10SM CLR 13/10 A3004 RMK AO2 SLP169 T01330100 50002,KBTL,2022-10-23T08:53:00Z,42.32,-85.25,13.3,10.0,160,6,,10.0,30.041338,1016.9,,TRUE,TRUE,,,,,,,CLR,,,,,,,,VFR,0.2,,,,,,,,,,,METAR,282.0
KBRO 230853Z AUTO 17007KT 10SM CLR 23/20 A2986 RMK AO2 SLP109 T02280200 56015,KBRO,2022-10-23T08:53:00Z,25.92,-97.42,22.8,20.0,170,7,,10.0,29.861221,1010.9,,TRUE,TRUE,,,,,,,CLR,,,,,,,,VFR,-1.5,,,,,,,,,,,METAR,6.0
KBRL 230853Z AUTO 15009KT 10SM CLR 17/12 A2976 RMK AO2 SLP073 T01670117 58007,KBRL,2022-10-23T08:53:00Z,40.77,-91.13,16.7,11.7,150,9,,10.0,29.760826,1007.3,,TRUE,TRUE,,,,,,,CLR,,,,,,,,VFR,-0.7,,,,,,,,,,,METAR,208.0
KBRD 230853Z AUTO 00000KT 9SM CLR 06/04 A2959 RMK AO2 SLP023 T00610039 50005,KBRD,2022-10-23T08:53:00Z,46.4,-94.13,6.1,3.9,0,0,,9.0,29.589567,1002.3,,TRUE,TRUE,,,,,,,CLR,,,,,,,,VFR,0.5,,,,,,,,,,,METAR,372.0
KBPT 230853Z AUTO 15008KT 10SM FEW042 BKN050 22/18 A2993 RMK AO2 SLP135 T02170178 56006,KBPT,2022-10-23T08:53:00Z,29.95,-94.03,21.7,17.8,150,8,,10.0,29.929134,1013.5,,TRUE,TRUE,,,,,,,FEW,4200,BKN,5000,,,,,VFR,-0.6,,,,,,,,,,,METAR,6.0
KBPK 230853Z AUTO 21011G18KT 10SM CLR 19/13 A2982 RMK AO2 SLP091 T01940133 58001,KBPK,2022-10-23T08:53:00Z,36.37,-92.47,19.4,13.3,210,11,18,10.0,29.819881,1009.1,,TRUE,TRUE,,,,,,,CLR,,,,,,,,VFR,-0.1,,,,,,,,,,,METAR,279.0
KBPI 230853Z AUTO 36005KT 10SM SCT120 M02/M05 A2953 RMK AO2 SLP967 T10221050 55002,KBPI,2022-10-23T08:53:00Z,42.58,-110.1,-2.2,-5.0,360,5,,10.0,29.530512,996.7,,TRUE,TRUE,,,,,,,SCT,12000,,,,,,,VFR,-0.2,,,,,,,,,,,METAR,2120.0
KBOI 230853Z 29010KT 10SM CLR 03/M01 A2974 RMK AO2 SLP073 T00281011 53013,KBOI,2022-10-23T08:53:00Z,43.57,-116.23,2.8,-1.1,290,10,,10.0,29.740158,1007.3,,,TRUE,,,,,,,CLR,,,,,,,,VFR,1.3,,,,,,,,,,,METAR,860.0
KBNO 230853Z AUTO 23005KT 10SM CLR M03/M06 A2983 RMK AO2 SLP113 T10331056 53010 $,KBNO,2022-10-23T08:53:00Z,43.6,-118.95,-3.3,-5.6,230,5,,10.0,29.828741,1011.3,,TRUE,TRUE,TRUE,,,,,,CLR,,,,,,,,VFR,1.0,,,,,,,,,,,METAR,1263.0
KBNA 230853Z 19003KT 10SM CLR 14/09 A3013 RMK AO2 SLP197 T01390089 52010 $,KBNA,2022-10-23T08:53:00Z,36.12,-86.68,13.9,8.9,190,3,,10.0,30.129921,1019.7,,,TRUE,TRUE,,,,,,CLR,,,,,,,,VFR,1.0,,,,,,,,,,,METAR,168.0
KBMQ 230853Z AUTO 19010KT 10SM OVC019 21/18 A2987 RMK AO2 SLP098 T02110178 56003,KBMQ,2022-10-23T08:53:00Z,30.73,-98.23,21.1,17.8,190,10,,10.0,29.870079,1009.8,,TRUE,TRUE,,,,,,,OVC,1900,,,,,,,MVFR,-0.3,,,,,,,,,,,METAR,387.0
KBMG 230853Z AUTO 15005KT 10SM FEW065 15/10 A3005 RMK AO2 SLP170 T01500100 53003,KBMG,2022-10-23T08:53:00Z,39.15,-86.62,15.0,10.0,150,5,,10.0,30.050198,1017.0,,TRUE,TRUE,,,,,,,FEW,6500,,,,,,,VFR,0.3,,,,,,,,,,,METAR,254.0
KBKV 230853Z AUTO 04004KT 10SM CLR 16/13 A3009 RMK AO2 SLP186 T01560133 55002,KBKV,2022-10-23T08:53:00Z,28.47,-82.45,15.6,13.3,40,4,,10.0,30.088583,1018.6,,TRUE,TRUE,,,,,,,CLR,,,,,,,,VFR,-0.2,,,,,,,,,,,METAR,21.0
KBKL 230853Z AUTO 16013KT 10SM CLR 15/07 A3015 RMK AO2 SLP206 T01500067 53008,KBKL,2022-10-23T08:53:00Z,41.53,-81.67,15.0,6.7,160,13,,10.0,30.15059,1020.6,,TRUE,TRUE,,,,,,,CLR,,,,,,,,VFR,0.8,,,,,,,,,,,METAR,177.0
KBIV 230853Z AUTO 15005KT 10SM CLR 13/10 A2999 RMK AO2 SLP154 T01330100 50001,KBIV,2022-10-23T08:53:00Z,42.75,-86.1,13.3,10.0,150,5,,10.0,29.991142,1015.4,,TRUE,TRUE,,,,,,,CLR,,,,,,,,VFR,0.1,,,,,,,,,,,METAR,207.0
KBHM 230853Z 00000KT 10SM BKN250 13/07 A3016 RMK AO2 SLP208 T01330067 51003,KBHM,2022-10-23T08:53:00Z,33.57,-86.75,13.3,6.7,0,0,,10.0,30.159449,1020.8,,,TRUE,,,,,,,BKN,25000,,,,,,,VFR,0.3,,,,,,,,,,,METAR,191.0
KBGR 230853Z 00000KT 1/8SM R15/1200V1800FT FG VV001 07/07 A3034 RMK AO2 SLP273 T00670067 53007,KBGR,2022-10-23T08:53:00Z,44.8,-68.82,6.7,6.7,0,0,,0.13,30.339567,1027.3,,,TRUE,,,,,,FG,OVX,0,,,,,,,LIFR,0.7,,,,,,,,,,100,METAR,45.0
KBGM 230853Z AUTO 12004KT 10SM CLR 05/01 A3028 RMK AO2 SLP256 T00500011 53000,KBGM,2022-10-23T08:53:00Z,42.22,-75.98,5.0,1.1,120,4,,10.0,30.280512,1025.6,,TRUE,TRUE,,,,,,,CLR,,,,,,,,VFR,0.0,,,,,,,,,,,METAR,485.0
KBFM 230853Z AUTO 32004KT 10SM CLR 13/11 A3012 RMK AO2 SLP199 T01280111 50001,KBFM,2022-10-23T08:53:00Z,30.62,-88.07,12.8,11.1,320,4,,10.0,30.121063,1019.9,,TRUE,TRUE,,,,,,,CLR,,,,,,,,VFR,0.1,,,,,,,,,,,METAR,7.0
KBFI 230853Z 15004KT 10SM BKN043 OVC060 07/06 A2995 RMK AO2 SLP140 T00670056 51019,KBFI,2022-10-23T08:53:00Z,47.55,-122.32,6.7,5.6,150,4,,10.0,29.949802,1014.0,,,TRUE,,,,,,,BKN,4300,OVC,6000,,,,,VFR,1.9,,,,,,,,,,,METAR,7.0
KBFF 230853Z AUTO 00000KT 10SM CLR 08/M05 A2929 RMK AO2 SLP878 T00831050 56026,KBFF,2022-10-23T08:53:00Z,41.87,-103.6,8.3,-5.0,0,0,,10.0,29.291338,987.8,,TRUE,TRUE,,,,,,,CLR,,,,,,,,VFR,-2.6,,,,,,,,,,,METAR,1204.0
KBFD 230853Z AUTO 00000KT 10SM CLR 04/01 A3025 RMK AO2 SLP242 T00390006 55000,KBFD,2022-10-23T08:53:00Z,41.8,-78.63,3.9,0.6,0,0,,10.0,30.250984,1024.2,,TRUE,TRUE,,,,,,,CLR,,,,,,,,VFR,0.0,,,,,,,,,,,METAR,642.0
KBEH 230853Z AUTO 14006KT 10SM CLR 15/11 A2997 RMK AO2 SLP147 T01500111 58003,KBEH,2022-10-23T08:53:00Z,42.13,-86.42,15.0,11.1,140,6,,10.0,29.970472,1014.7,,TRUE,TRUE,,,,,,,CLR,,,,,,,,VFR,-0.3,,,,,,,,,,,METAR,196.0
KBDE 230853Z AUTO 05006KT 10SM CLR 07/03 A2962 RMK AO2 SLP036 T00720033 53003,KBDE,2022-10-23T08:53:00Z,48.73,-94.62,7.2,3.3,50,6,,10.0,29.619095,1003.6,,TRUE,TRUE,,,,,,,CLR,,,,,,,,VFR,0.3,,,,,,,,,,,METAR,330.0
KBBW 230853Z AUTO 11003KT 10SM CLR 09/03 A2933 RMK AO2 SLP913 T00890028 58022,KBBW,2022-10-23T08:53:00Z,41.43,-99.63,8.9,2.8,110,3,,10.0,29.329725,991.3,,TRUE,TRUE,,,,,,,CLR,,,,,,,,VFR,-2.2,,,,,,,,,,,METAR,771.0
KBAF 230853Z AUTO 00000KT 10SM CLR 05/04 A3033 RMK AO2 SLP273 T00500039 53004,KBAF,2022-10-23T08:53:00Z,42.17,-72.72,5.0,3.9,0,0,,10.0,30.33071,1027.3,,TRUE,TRUE,,,,,,,CLR,,,,,,,,VFR,0.4,,,,,,,,,,,SPECI,80.0
KAZO 230853Z 16004KT 10SM CLR 16/10 A3002 RMK AO2 SLP163 T01560100 58000 $,KAZO,2022-10-23T08:53:00Z,42.23,-85.55,15.6,10.0,160,4,,10.0,30.02067,1016.3,,,TRUE,TRUE,,,,,,CLR,,,,,,,,VFR,0.0,,,,,,,,,,,METAR,264.0
KAXN 230853Z AUTO 14006KT 10SM CLR 13/06 A2954 RMK AO2 SLP002 T01280061 58001,KAXN,2022-10-23T08:53:00Z,45.87,-95.4,12.8,6.1,140,6,,10.0,29.53937,1000.2,,TRUE,TRUE,,,,,,,CLR,,,,,,,,VFR,-0.1,,,,,,,,,,,METAR,433.0
KAWM 230853Z AUTO 17012KT 10SM CLR 18/12 A2999 RMK AO2 SLP151 T01830122 51006,KAWM,2022-10-23T08:53:00Z,35.13,-90.23,18.3,12.2,170,12,,10.0,29.991142,1015.1,,TRUE,TRUE,,,,,,,CLR,,,,,,,,VFR,0.6,,,,,,,,,,,METAR,64.0
KAUS 230853Z 18006KT 10SM FEW250 19/18 A2986 RMK AO2 SLP103 T01890178 56003,KAUS,2022-10-23T08:53:00Z,30.18,-97.68,18.9,17.8,180,6,,10.0,29.861221,1010.3,,,TRUE,,,,,,,FEW,25000,,,,,,,VFR,-0.3,,,,,,,,,,,METAR,148.0
KATY 230853Z AUTO 13008KT 10SM CLR 12/07 A2946 RMK AO2 SLP972 T01220072 58013,KATY,2022-10-23T08:53:00Z,44.9,-97.15,12.2,7.2,130,8,,10.0,29.459646,997.2,,TRUE,TRUE,,,,,,,CLR,,,,,,,,VFR,-1.3,,,,,,,,,,,METAR,531.0
KASE 230853Z AUTO 15016G27KT 10SM -RA BKN055 OVC075 07/02 A2951 RMK AO2 PK WND 16035/0800 SLP892 P0000 60000 T00670017 58010,KASE,2022-10-23T08:53:00Z,39.23,-106.87,6.7,1.7,150,16,27,10.0,29.509842,989.2,,TRUE,TRUE,,,,,,-RA,BKN,5500,OVC,7500,,,,,VFR,-1.0,,,,,0.005,0.005,,,,,METAR,2384.0
KASD 230853Z AUTO 00000KT 10SM CLR 12/11 A3007 RMK AO2 SLP182 T01220106 55004,KASD,2022-10-23T08:53:00Z,30.35,-89.82,12.2,10.6,0,0,,10.0,30.070866,1018.2,,TRUE,TRUE,,,,,,,CLR,,,,,,,,VFR,-0.4,,,,,,,,,,,METAR,8.0
KARA 230853Z AUTO 13005KT 10SM CLR 16/14 A3000 RMK AO2 SLP158 T01610144 56007,KARA,2022-10-23T08:53:00Z,30.03,-91.88,16.1,14.4,130,5,,10.0,30.0,1015.8,,TRUE,TRUE,,,,,,,CLR,,,,,,,,VFR,-0.7,,,,,,,,,,,METAR,5.0
KAPF 230853Z AUTO 04004KT 8SM CLR 19/19 A3002 RMK AO2 SLP163 T01890189 55006 PWINO $,KAPF,2022-10-23T08:53:00Z,26.15,-81.77,18.9,18.9,40,4,,8.0,30.02067,1016.3,,TRUE,TRUE,TRUE,,,,TRUE,,CLR,,,,,,,,VFR,-0.6,,,,,,,,,,,METAR,2.0
KAPA 230853Z 20016G28KT 10SM FEW220 16/M04 A2939 RMK AO2 PK WND 21028/0850 SLP878 T01611039 58020,KAPA,2022-10-23T08:53:00Z,39.57,-104.85,16.1,-3.9,200,16,28,10.0,29.388779,987.8,,,TRUE,,,,,,,FEW,22000,,,,,,,VFR,-2.0,,,,,,,,,,,SPECI,1791.0
KAOO 230853Z AUTO 15005KT 10SM CLR 01/M01 A3026 RMK AO2 SLP252 T00111006 53005,KAOO,2022-10-23T08:53:00Z,40.3,-78.32,1.1,-0.6,150,5,,10.0,30.259842,1025.2,,TRUE,TRUE,,,,,,,CLR,,,,,,,,VFR,0.5,,,,,,,,,,,SPECI,450.0
KAOH 230853Z AUTO 16007KT 10SM CLR 13/09 A3011 RMK AO2 SLP191 T01330089 50005,KAOH,2022-10-23T08:53:00Z,40.7,-84.02,13.3,8.9,160,7,,10.0,30.109253,1019.1,,TRUE,TRUE,,,,,,,CLR,,,,,,,,VFR,0.5,,,,,,,,,,,SPECI,294.0
KANB 230853Z AUTO 05004KT 10SM CLR 08/07 A3018 RMK AO2 SLP217 T00780072 51008,KANB,2022-10-23T08:53:00Z,33.58,-85.85,7.8,7.2,50,4,,10.0,30.180119,1021.7,,TRUE,TRUE,,,,,,,CLR,,,,,,,,VFR,0.8,,,,,,,,,,,METAR,187.0
KAMW 230853Z AUTO 14008KT 10SM CLR 16/10 A2962 RMK AO2 SLP021 T01560100 56003,KAMW,2022-10-23T08:53:00Z,41.98,-93.62,15.6,10.0,140,8,,10.0,29.619095,1002.1,,TRUE,TRUE,,,,,,,CLR,,,,,,,,VFR,-0.3,,,,,,,,,,,SPECI,282.0
KAMG 230853Z AUTO 00000KT 10SM CLR 08/06 A3013 RMK AO2 SLP201 T00780056 56000,KAMG,2022-10-23T08:53:00Z,31.53,-82.5,7.8,5.6,0,0,,10.0,30.129921,1020.1,,TRUE,TRUE,,,,,,,CLR,,,,,,,,VFR,0.0,,,,,,,,,,,METAR,61.0
KAMA 230853Z AUTO 21013G21KT 10SM CLR 18/11 A2966 RMK AO2 SLP990 T01830106 56007,KAMA,2022-10-23T08:53:00Z,35.22,-101.72,18.3,10.6,210,13,21,10.0,29.660433,999.0,,TRUE,TRUE,,,,,,,CLR,,,,,,,,VFR,-0.7,,,,,,,,,,,SPECI,1102.0
KALW 230853Z AUTO 19009KT 10SM SCT065 OVC100 06/02 A2982 RMK AO2 SLP103 T00560022 53019 $,KALW,2022-10-23T08:53:00Z,46.1,-118.28,5.6,2.2,190,9,,10.0,29.819881,1010.3,,TRUE,TRUE,TRUE,,,,,,SCT,6500,OVC,10000,,,,,VFR,1.9,,,,,,,,,,,METAR,355.0
KALI 230853Z AUTO 15006KT 10SM CLR 19/18 A2985 RMK AO2 SLP105 T01940183 56010,KALI,2022-10-23T08:53:00Z,27.73,-98.02,19.4,18.3,150,6,,10.0,29.84941,1010.5,,TRUE,TRUE,,,,,,,CLR,,,,,,,,VFR,-1.0,,,,,,,,,,,METAR,52.0
KAKO 230853Z AUTO 22015KT 10SM CLR 15/M03 A2934 RMK AO2 SLP879 T01501033 58017 $,KAKO,2022-10-23T08:53:00Z,40.17,-103.22,15.0,-3.3,220,15,,10.0,29.338583,987.9,,TRUE,TRUE,TRUE,,,,,,CLR,,,,,,,,VFR,-1.7,,,,,,,,,,,METAR,1431.0
KAIA 230853Z AUTO 06008KT 10SM CLR 02/M04 A2930 RMK AO2 SLP893 T00171039 58019,KAIA,2022-10-23T08:53:00Z,42.05,-102.8,1.7,-3.9,60,8,,10.0,29.300198,989.3,,TRUE,TRUE,,,,,,,CLR,,,,,,,,VFR,-1.9,,,,,,,,,,,SPECI,1198.0
KAGS 230853Z 00000KT 10SM CLR 06/04 A3016 RMK AO2 SLP212 T00610044 55000,KAGS,2022-10-23T08:53:00Z,33.37,-81.97,6.1,4.4,0,0,,10.0,30.159449,1021.2,,,TRUE,,,,,,,CLR,,,,,,,,VFR,0.0,,,,,,,,,,,METAR,40.0
KAGC 230853Z 11004KT 10SM CLR 11/02 A3020 RMK AO2 SLP229 T01060022 53003,KAGC,2022-10-23T08:53:00Z,40.35,-79.92,10.6,2.2,110,4,,10.0,30.200787,1022.9,,,TRUE,,,,,,,CLR,,,,,,,,VFR,0.3,,,,,,,,,,,SPECI,380.0
KAFW 230853Z 17016KT 10SM BKN250 21/17 A2976 RMK AO2 SLP064 T02110167 50002,KAFW,2022-10-23T08:53:00Z,32.97,-97.32,21.1,16.7,170,16,,10.0,29.760826,1006.4,,,TRUE,,,,,,,BKN,25000,,,,,,,VFR,0.2,,,,,,,,,,,SPECI,208.0
KAEX 230853Z 15009KT 10SM CLR 17/15 A2998 RMK AO2 SLP155 T01720150 56003,KAEX,2022-10-23T08:53:00Z,31.33,-92.57,17.2,15.0,150,9,,10.0,29.97933,1015.5,,,TRUE,,,,,,,CLR,,,,,,,,VFR,-0.3,,,,,,,,,,,METAR,25.0
KADG 230853Z AUTO 00000KT 10SM CLR 09/08 A3010 RMK AO2 SLP192 T00940083 51004,KADG,2022-10-23T08:53:00Z,41.87,-84.08,9.4,8.3,0,0,,10.0,30.100393,1019.2,,TRUE,TRUE,,,,,,,CLR,,,,,,,,VFR,0.4,,,,,,,,,,,SPECI,244.0
KACV 230853Z AUTO 00000KT 10SM CLR 06/05 A3002 RMK AO2 SLP171 T00610050 51009,KACV,2022-10-23T08:53:00Z,40.98,-124.1,6.1,5.0,0,0,,10.0,30.02067,1017.1,,TRUE,TRUE,,,,,,,CLR,,,,,,,,VFR,0.9,,,,,,,,,,,METAR,63.0
KACK 230853Z AUTO 06006KT 10SM SCT110 16/14 A3029 RMK AO2 SLP256 T01610144 56006,KACK,2022-10-23T08:53:00Z,41.25,-70.07,16.1,14.4,60,6,,10.0,30.28937,1025.6,,TRUE,TRUE,,,,,,,SCT,11000,,,,,,,VFR,-0.6,,,,,,,,,,,SPECI,12.0
KABY 230853Z AUTO 00000KT 10SM CLR 06/04 A3016 RMK AO2 SLP212 T00610044 53000,KABY,2022-10-23T08:53:00Z,31.53,-84.2,6.1,4.4,0,0,,10.0,30.159449,1021.2,,TRUE,TRUE,,,,,,,CLR,,,,,,,,VFR,0.0,,,,,,,,,,,METAR,60.0
KABR 230853Z AUTO 01008KT 9SM CLR 04/01 A2944 RMK AO2 SLP970 T00390006 58016,KABR,2022-10-23T08:53:00Z,45.45,-98.42,3.9,0.6,10,8,,9.0,29.438976,997.0,,TRUE,TRUE,,,,,,,CLR,,,,,,,,VFR,-1.6,,,,,,,,,,,SPECI,397.0
KAAF 230853Z AUTO 05006KT 10SM CLR 11/09 A3011 RMK AO2 SLP194 T01110094 53003,KAAF,2022-10-23T08:53:00Z,29.73,-85.03,11.1,9.4,50,6,,10.0,30.109253,1019.4,,TRUE,TRUE,,,,,,,CLR,,,,,,,,VFR,0.3,,,,,,,,,,,METAR,5.0
PTYA 230852Z VRB04KT 10SM -RA SCT016CB OVC120 25/25 A2973 RMK SHRAB02E16RAB16 CB N-E SLP068 60053 8/32/ T02530250 50005,PTYA,2022-10-23T08:52:00Z,9.48,138.08,25.3,25.0,0,4,,10.0,29.731298,1006.8,,,,,,,,,-RA,SCT,1600,OVC,12000,,,,,VFR,0.5,,,,,,,,,,,SPECI,4.0
PATA 230852Z AUTO 02003KT 10SM SCT019 OVC044 M02/M04 A2998 RMK AO2 SLP158 60000 I3000 T10221039 400111022 53008 TSNO $,PATA,2022-10-23T08:52:00Z,65.17,-152.1,-2.2,-3.9,20,3,,10.0,29.97933,1015.8,,TRUE,TRUE,TRUE,,TRUE,,,,SCT,1900,OVC,4400,,,,,VFR,0.8,,,1.1,-2.2,,0.005,,,,,METAR,62.0
PABA 230852Z AUTO 10020KT 10SM OVC010 M04/M06 A3003 RMK AO2 SLP177 6//// T10441056 410391050 53003 FZRANO PNO $,PABA,2022-10-23T08:52:00Z,70.13,-143.58,-4.4,-5.6,100,20,,10.0,30.029528,1017.7,,TRUE,TRUE,TRUE,,,TRUE,,,OVC,1000,,,,,,,MVFR,0.3,,,-3.9,-5.0,,,,,,,METAR,1.0
MMSP 230852Z 00000KT 6SM SKC 13/11 A3018 RMK SLP085 57003 964 CI,MMSP,2022-10-23T08:52:00Z,22.25,-100.93,13.0,11.0,0,0,,6.0,30.180119,1008.5,,,,,,,,,,SKC,,,,,,,,VFR,-0.3,,,,,,,,,,,METAR,1841.0
KVTN 230852Z AUTO 06004KT 10SM CLR 09/02 A2932 RMK AO2 SLP912 T00890022 58019 TSNO,KVTN,2022-10-23T08:52:00Z,42.87,-100.55,8.9,2.2,60,4,,10.0,29.320866,991.2,,TRUE,TRUE,,,TRUE,,,,CLR,,,,,,,,VFR,-1.9,,,,,,,,,,,METAR,790.0
KTRM 230852Z AUTO 35007KT 10SM FEW070 21/11 A2969 RMK AO2 SLP065 T02060106 51018,KTRM,2022-10-23T08:52:00Z,33.63,-116.17,20.6,10.6,350,7,,10.0,29.68996,1006.5,,TRUE,TRUE,,,,,,,FEW,7000,,,,,,,VFR,1.8,,,,,,,,,,,METAR,-39.0
KTOL 230852Z 17003KT 10SM CLR 09/07 A3010 RMK AO2 SLP190 T00890072 51006,KTOL,2022-10-23T08:52:00Z,41.58,-83.8,8.9,7.2,170,3,,10.0,30.100393,1019.0,,,TRUE,,,,,,,CLR,,,,,,,,VFR,0.6,,,,,,,,,,,METAR,206.0
KTAN 230852Z AUTO A3031 RMK AO2 SLPNO 57003 PWINO FZRANO TSNO $,KTAN,2022-10-23T08:52:00Z,41.88,-71.02,,,,,,,30.31004,,,TRUE,TRUE,TRUE,,TRUE,TRUE,TRUE,,,,,,,,,,,-0.3,,,,,,,,,,,METAR,8.0
KSUX 230852Z AUTO 12007KT 10SM CLR 12/09 A2946 RMK AO2 SLP971 T01170089 56012,KSUX,2022-10-23T08:52:00Z,42.38,-96.38,11.7,8.9,120,7,,10.0,29.459646,997.1,,TRUE,TRUE,,,,,,,CLR,,,,,,,,VFR,-1.2,,,,,,,,,,,METAR,332.0
KSPS 230852Z AUTO 18013KT 10SM CLR 22/12 A2969 RMK AO2 SLP036 T02220122 50005,KSPS,2022-10-23T08:52:00Z,33.98,-98.5,22.2,12.2,180,13,,10.0,29.68996,1003.6,,TRUE,TRUE,,,,,,,CLR,,,,,,,,VFR,0.5,,,,,,,,,,,METAR,310.0
KSPI 230852Z AUTO 16014G24KT 10SM OVC080 18/11 A2985 RMK AO2 SLP103 T01780111 58008,KSPI,2022-10-23T08:52:00Z,39.85,-89.68,17.8,11.1,160,14,24,10.0,29.84941,1010.3,,TRUE,TRUE,,,,,,,OVC,8000,,,,,,,VFR,-0.8,,,,,,,,,,,METAR,179.0
KSGF 230852Z 16013KT 10SM CLR 18/13 A2974 RMK AO2 SLP061 T01830128 50000 $,KSGF,2022-10-23T08:52:00Z,37.23,-93.38,18.3,12.8,160,13,,10.0,29.740158,1006.1,,,TRUE,TRUE,,,,,,CLR,,,,,,,,VFR,0.0,,,,,,,,,,,METAR,387.0
KREO 230852Z AUTO 30007KT 03/M01 A2978 RMK AO1 SLP088 T00281006 53009,KREO,2022-10-23T08:52:00Z,42.58,-117.87,2.8,-0.6,300,7,,,29.778543,1008.8,,TRUE,TRUE,,,,,,,,,,,,,,,,0.9,,,,,,,,,,,METAR,1237.0
KRAP 230852Z AUTO 36010KT 10SM CLR 07/02 A2933 RMK AO2 SLP924 T00720022 58019 $,KRAP,2022-10-23T08:52:00Z,44.05,-103.05,7.2,2.2,360,10,,10.0,29.329725,992.4,,TRUE,TRUE,TRUE,,,,,,CLR,,,,,,,,VFR,-1.9,,,,,,,,,,,METAR,965.0
KPYM 230852Z AUTO 00000KT 10SM CLR 11/09 A3031 RMK AO2 SLP264 T01060094 55006 $,KPYM,2022-10-23T08:52:00Z,41.92,-70.73,10.6,9.4,0,0,,10.0,30.31004,1026.4,,TRUE,TRUE,TRUE,,,,,,CLR,,,,,,,,VFR,-0.6,,,,,,,,,,,SPECI,42.0
KPWK 230852Z AUTO 18008KT 10SM CLR 17/11 A2991 RMK AO2 SLP126 T01670111 58005,KPWK,2022-10-23T08:52:00Z,42.12,-87.9,16.7,11.1,180,8,,10.0,29.911417,1012.6,,TRUE,TRUE,,,,,,,CLR,,,,,,,,VFR,-0.5,,,,,,,,,,,SPECI,194.0
KPPF 230852Z AUTO 18011G21KT 10SM CLR 22/13 A2964 RMK AO2 PK WND 19026/0759 SLP026 T02220128 52001 PWINO $,KPPF,2022-10-23T08:52:00Z,37.33,-95.5,22.2,12.8,180,11,21,10.0,29.639763,1002.6,,TRUE,TRUE,TRUE,,,,TRUE,,CLR,,,,,,,,VFR,0.1,,,,,,,,,,,SPECI,265.0
KP69 230852Z AUTO 00000KT 05/04 A2981 RMK AO1 SLP105 P0003 60003 T00500039 53009,KP69,2022-10-23T08:52:00Z,46.15,-115.6,5.0,3.9,0,0,,,29.811024,1010.5,,TRUE,TRUE,,,,,,,,,,,,,,,,0.9,,,,,0.03,0.03,,,,,METAR,447.0
KORE 230852Z AUTO 00000KT 7SM CLR 03/02 A3033 RMK AO2 SLP274 T00280017 55000,KORE,2022-10-23T08:52:00Z,42.57,-72.28,2.8,1.7,0,0,,7.0,30.33071,1027.4,,TRUE,TRUE,,,,,,,CLR,,,,,,,,VFR,0.0,,,,,,,,,,,METAR,165.0
KOMA 230852Z 15015KT 10SM CLR 18/12 A2947 RMK AO2 SLP972 T01780122 58015,KOMA,2022-10-23T08:52:00Z,41.32,-95.9,17.8,12.2,150,15,,10.0,29.471457,997.2,,,TRUE,,,,,,,CLR,,,,,,,,VFR,-1.5,,,,,,,,,,,METAR,299.0
KOKC 230852Z 18017G24KT 10SM SCT250 23/12 A2966 RMK AO2 SLP024 T02280122 52003,KOKC,2022-10-23T08:52:00Z,35.38,-97.6,22.8,12.2,180,17,24,10.0,29.660433,1002.4,,,TRUE,,,,,,,SCT,25000,,,,,,,VFR,0.3,,,,,,,,,,,SPECI,391.0
KOKB 230852Z AUTO 00000KT 10SM FEW020 SCT027 BKN032 17/16 A2980 RMK AO2 RAE0753B13E30 SLP090 P0000 60000 T01670156 53004,KOKB,2022-10-23T08:52:00Z,33.22,-117.35,16.7,15.6,0,0,,10.0,29.799213,1009.0,,TRUE,TRUE,,,,,,,FEW,2000,SCT,2700,BKN,3200,,,VFR,0.4,,,,,0.005,0.005,,,,,METAR,7.0
KNRB 230852Z AUTO 30005KT 10SM CLR A3010 RMK AO2 SLP194 53003 $,KNRB,2022-10-23T08:52:00Z,30.38,-81.42,,,300,5,,10.0,30.100393,1019.4,,TRUE,TRUE,TRUE,,,,,,CLR,,,,,,,,VFR,0.3,,,,,,,,,,,METAR,4.0
KNHK 230852Z AUTO 36011KT 10SM FEW026 14/11 A3020 RMK AO2 SLP226 T01440111 58007 $,KNHK,2022-10-23T08:52:00Z,38.28,-76.4,14.4,11.1,360,11,,10.0,30.200787,1022.6,,TRUE,TRUE,TRUE,,,,,,FEW,2600,,,,,,,VFR,-0.7,,,,,,,,,,,SPECI,5.0
KNFW 230852Z AUTO 16016KT 10SM CLR A2979 RMK AO2 SLP074 51003 TSNO $,KNFW,2022-10-23T08:52:00Z,32.78,-97.43,,,160,16,,10.0,29.790354,1007.4,,TRUE,TRUE,TRUE,,TRUE,,,,CLR,,,,,,,,VFR,0.3,,,,,,,,,,,METAR,188.0
KN60 230852Z AUTO 06010G17KT 030V100 07/05 A2954 RMK AO1 SLP012 T00670050 55008,KN60,2022-10-23T08:52:00Z,47.65,-101.43,6.7,5.0,60,10,17,,29.53937,1001.2,,TRUE,TRUE,,,,,,,,,,,,,,,,-0.8,,,,,,,,,,,METAR,582.0
KMWH 230852Z AUTO 00000KT 10SM CLR 02/M02 A2980 RMK AO2 SLP145 T00221022 51016,KMWH,2022-10-23T08:52:00Z,47.2,-119.32,2.2,-2.2,0,0,,10.0,29.799213,1014.5,,TRUE,TRUE,,,,,,,CLR,,,,,,,,VFR,1.6,,,,,,,,,,,SPECI,355.0
KMLI 230852Z 16010KT 10SM CLR 17/12 A2977 RMK AO2 SLP076 T01720122 56008,KMLI,2022-10-23T08:52:00Z,41.45,-90.52,17.2,12.2,160,10,,10.0,29.769686,1007.6,,,TRUE,,,,,,,CLR,,,,,,,,VFR,-0.8,,,,,,,,,,,METAR,174.0
KMKE 230852Z 17009KT 10SM CLR 17/12 A2989 RMK AO2 SLP119 T01670117 50000,KMKE,2022-10-23T08:52:00Z,42.95,-87.9,16.7,11.7,170,9,,10.0,29.890747,1011.9,,,TRUE,,,,,,,CLR,,,,,,,,VFR,0.0,,,,,,,,,,,METAR,203.0
KMHK 230852Z AUTO 21010G20KT 10SM CLR 21/13 A2946 RMK AO2 SLP965 T02110128 56010,KMHK,2022-10-23T08:52:00Z,39.13,-96.68,21.1,12.8,210,10,20,10.0,29.459646,996.5,,TRUE,TRUE,,,,,,,CLR,,,,,,,,VFR,-1.0,,,,,,,,,,,METAR,320.0
KMFD 230852Z AUTO 15007KT 10SM CLR 13/08 A3017 RMK AO2 SLP210 T01280078 53009,KMFD,2022-10-23T08:52:00Z,40.82,-82.52,12.8,7.8,150,7,,10.0,30.171259,1021.0,,TRUE,TRUE,,,,,,,CLR,,,,,,,,VFR,0.9,,,,,,,,,,,METAR,394.0
KMEB 230852Z AUTO 02006KT 10SM CLR 12/09 A3016 RMK AO2 SLP210 T01220094 55002,KMEB,2022-10-23T08:52:00Z,34.78,-79.37,12.2,9.4,20,6,,10.0,30.159449,1021.0,,TRUE,TRUE,,,,,,,CLR,,,,,,,,VFR,-0.2,,,,,,,,,,,METAR,65.0
KMDH 230852Z AUTO 18015G23KT 10SM CLR 19/12 A2994 RMK AO2 SLP135 T01890117 56002,KMDH,2022-10-23T08:52:00Z,37.78,-89.25,18.9,11.7,180,15,23,10.0,29.940945,1013.5,,TRUE,TRUE,,,,,,,CLR,,,,,,,,VFR,-0.2,,,,,,,,,,,METAR,122.0
KMBG 230852Z AUTO 07016G23KT 10SM CLR 08/02 A2937 RMK AO2 SLP945 T00780017 58013,KMBG,2022-10-23T08:52:00Z,45.55,-100.42,7.8,1.7,70,16,23,10.0,29.371063,994.5,,TRUE,TRUE,,,,,,,CLR,,,,,,,,VFR,-1.3,,,,,,,,,,,METAR,515.0
KLWC 230852Z AUTO 17015G23KT 10SM CLR 22/13 A2955 RMK AO1 SLP998 T02220128 58010,KLWC,2022-10-23T08:52:00Z,39.02,-95.22,22.2,12.8,170,15,23,10.0,29.551182,999.8,,TRUE,TRUE,,,,,,,CLR,,,,,,,,VFR,-1.0,,,,,,,,,,,METAR,252.0
KIOW 230852Z AUTO 13008KT 10SM CLR 16/11 A2975 RMK AO2 SLP068 T01560111 58003,KIOW,2022-10-23T08:52:00Z,41.63,-91.55,15.6,11.1,130,8,,10.0,29.749016,1006.8,,TRUE,TRUE,,,,,,,CLR,,,,,,,,VFR,-0.3,,,,,,,,,,,METAR,199.0
KIJD 230852Z AUTO 00000KT 10SM CLR 06/05 A3031 RMK AO2 SLP264 T00560050 56004,KIJD,2022-10-23T08:52:00Z,41.75,-72.18,5.6,5.0,0,0,,10.0,30.31004,1026.4,,TRUE,TRUE,,,,,,,CLR,,,,,,,,VFR,-0.4,,,,,,,,,,,METAR,73.0
KIEN 230852Z AUTO 00000KT 10SM CLR 03/M01 A2931 RMK AO2 SLP912 T00281011 57015,KIEN,2022-10-23T08:52:00Z,43.03,-102.52,2.8,-1.1,0,0,,10.0,29.309055,991.2,,TRUE,TRUE,,,,,,,CLR,,,,,,,,VFR,-1.5,,,,,,,,,,,METAR,1002.0
KIAD 230852Z 00000KT 10SM BKN250 04/03 A3026 RMK AO2 SLP245 T00440028 53006,KIAD,2022-10-23T08:52:00Z,38.93,-77.45,4.4,2.8,0,0,,10.0,30.259842,1024.5,,,TRUE,,,,,,,BKN,25000,,,,,,,VFR,0.6,,,,,,,,,,,METAR,90.0
KHUT 230852Z AUTO 18012KT 10SM CLR 20/10 A2948 RMK AO2 SLP958 T02000100 56005,KHUT,2022-10-23T08:52:00Z,38.07,-97.87,20.0,10.0,180,12,,10.0,29.480314,995.8,,TRUE,TRUE,,,,,,,CLR,,,,,,,,VFR,-0.5,,,,,,,,,,,METAR,464.0
KHRL 230852Z AUTO 14007KT 10SM CLR 21/19 A2985 RMK AO2 SLP107 T02060194 57014 $,KHRL,2022-10-23T08:52:00Z,26.23,-97.65,20.6,19.4,140,7,,10.0,29.84941,1010.7,,TRUE,TRUE,TRUE,,,,,,CLR,,,,,,,,VFR,-1.4,,,,,,,,,,,METAR,9.0
KHIE 230852Z AUTO 00000KT 10SM CLR M01/M02 A3034 RMK AO2 SLP281 T10111022 53005,KHIE,2022-10-23T08:52:00Z,44.37,-71.55,-1.1,-2.2,0,0,,10.0,30.339567,1028.1,,TRUE,TRUE,,,,,,,CLR,,,,,,,,VFR,0.5,,,,,,,,,,,METAR,321.0
KGLS 230852Z AUTO 17016KT 10SM FEW050 24/18 A2993 RMK AO2 SLP133 T02440183 56005,KGLS,2022-10-23T08:52:00Z,29.27,-94.87,24.4,18.3,170,16,,10.0,29.929134,1013.3,,TRUE,TRUE,,,,,,,FEW,5000,,,,,,,VFR,-0.5,,,,,,,,,,,SPECI,2.0
KFIT 230852Z AUTO 00000KT 10SM CLR 05/03 A3033 RMK AO2 SLP273 T00500033 53003,KFIT,2022-10-23T08:52:00Z,42.55,-71.75,5.0,3.3,0,0,,10.0,30.33071,1027.3,,TRUE,TRUE,,,,,,,CLR,,,,,,,,VFR,0.3,,,,,,,,,,,METAR,102.0
KEST 230852Z AUTO 15009KT 10SM CLR 13/08 A2956 RMK AO2 SLP004 T01280083 58005,KEST,2022-10-23T08:52:00Z,43.4,-94.75,12.8,8.3,150,9,,10.0,29.56004,1000.4,,TRUE,TRUE,,,,,,,CLR,,,,,,,,VFR,-0.5,,,,,,,,,,,METAR,401.0
KDVN 230852Z AUTO 15009KT 10SM CLR 17/12 A2979 RMK AO2 SLP080 T01670117 58006,KDVN,2022-10-23T08:52:00Z,41.62,-90.58,16.7,11.7,150,9,,10.0,29.790354,1008.0,,TRUE,TRUE,,,,,,,CLR,,,,,,,,VFR,-0.6,,,,,,,,,,,METAR,227.0
KDPA 230852Z 16010KT 10SM CLR 16/11 A2989 RMK AO2 SLP117 T01610106 56008,KDPA,2022-10-23T08:52:00Z,41.88,-88.25,16.1,10.6,160,10,,10.0,29.890747,1011.7,,,TRUE,,,,,,,CLR,,,,,,,,VFR,-0.8,,,,,,,,,,,METAR,228.0
KDDC 230852Z AUTO 21012KT 10SM CLR 20/09 A2948 RMK AO2 PK WND 22026/0756 SLP949 T02000089 53001 $,KDDC,2022-10-23T08:52:00Z,37.77,-99.97,20.0,8.9,210,12,,10.0,29.480314,994.9,,TRUE,TRUE,TRUE,,,,,,CLR,,,,,,,,VFR,0.1,,,,,,,,,,,METAR,786.0
KDCA 230852Z 35006KT 10SM OVC250 09/07 A3024 RMK AO2 SLP240 T00890067 58004 $,KDCA,2022-10-23T08:52:00Z,38.85,-77.03,8.9,6.7,350,6,,10.0,30.239174,1024.0,,,TRUE,TRUE,,,,,,OVC,25000,,,,,,,VFR,-0.4,,,,,,,,,,,METAR,4.0
KCVG 230852Z 18006KT 10SM BKN240 13/09 A3011 RMK AO2 SLP191 T01330089 51007,KCVG,2022-10-23T08:52:00Z,39.05,-84.67,13.3,8.9,180,6,,10.0,30.109253,1019.1,,,TRUE,,,,,,,BKN,24000,,,,,,,VFR,0.7,,,,,,,,,,,METAR,264.0
KCQX 230852Z AUTO 04005KT 10SM OVC003 14/13 A3031 RMK AO2 SLP265 T01440133 56007,KCQX,2022-10-23T08:52:00Z,41.68,-70.0,14.4,13.3,40,5,,10.0,30.31004,1026.5,,TRUE,TRUE,,,,,,,OVC,300,,,,,,,LIFR,-0.7,,,,,,,,,,,METAR,17.0
KCNU 230852Z AUTO 18022G30KT 10SM CLR 23/13 A2961 RMK AO2 PK WND 18032/0823 SLP014 T02280128 56004 $,KCNU,2022-10-23T08:52:00Z,37.67,-95.48,22.8,12.8,180,22,30,10.0,29.610237,1001.4,,TRUE,TRUE,TRUE,,,,,,CLR,,,,,,,,VFR,-0.4,,,,,,,,,,,METAR,301.0
KCLT 230852Z 34008KT 10SM CLR 08/06 A3019 RMK SLP219 T00780056 53001 $,KCLT,2022-10-23T08:52:00Z,35.22,-80.95,7.8,5.6,340,8,,10.0,30.188976,1021.9,,,,TRUE,,,,,,CLR,,,,,,,,VFR,0.1,,,,,,,,,,,METAR,223.0
KCKV 230852Z AUTO 18007KT 10SM BKN070 17/11 A3008 RMK AO2 SLP181 T01720106 53007,KCKV,2022-10-23T08:52:00Z,36.62,-87.42,17.2,10.6,180,7,,10.0,30.079725,1018.1,,TRUE,TRUE,,,,,,,BKN,7000,,,,,,,VFR,0.7,,,,,,,,,,,METAR,166.0
KCID 230852Z AUTO 15011KT 10SM CLR 16/11 A2971 RMK AO2 SLP056 T01610106 58003 $,KCID,2022-10-23T08:52:00Z,41.88,-91.72,16.1,10.6,150,11,,10.0,29.71063,1005.6,,TRUE,TRUE,TRUE,,,,,,CLR,,,,,,,,VFR,-0.3,,,,,,,,,,,METAR,257.0
KCFV 230852Z AUTO 17017G25KT 10SM CLR 23/13 A2962 RMK AO2 PK WND 18028/0812 SLP021 60000 T02280133 50001 PWINO $,KCFV,2022-10-23T08:52:00Z,37.08,-95.57,22.8,13.3,170,17,25,10.0,29.619095,1002.1,,TRUE,TRUE,TRUE,,,,TRUE,,CLR,,,,,,,,VFR,0.1,,,,,,0.005,,,,,METAR,228.0
KBLU 230852Z AUTO 06005KT 10SM CLR 02/M08 A2984 RMK AO2 SLP083 T00221078 52005 $,KBLU,2022-10-23T08:52:00Z,39.28,-120.7,2.2,-7.8,60,5,,10.0,29.840551,1008.3,,TRUE,TRUE,TRUE,,,,,,CLR,,,,,,,,VFR,0.5,,,,,,,,,,,METAR,1605.0
KBLH 230852Z AUTO 22010KT 10SM CLR 20/10 A2968 RMK AO2 SLP046 T02000100 53015 TSNO,KBLH,2022-10-23T08:52:00Z,33.62,-114.72,20.0,10.0,220,10,,10.0,29.681103,1004.6,,TRUE,TRUE,,,TRUE,,,,CLR,,,,,,,,VFR,1.5,,,,,,,,,,,METAR,119.0
KBLF 230852Z AUTO 12003KT 10SM CLR 08/00 A3023 RMK AO2 SLP221 T00830000 50001,KBLF,2022-10-23T08:52:00Z,37.3,-81.2,8.3,0.0,120,3,,10.0,30.230314,1022.1,,TRUE,TRUE,,,,,,,CLR,,,,,,,,VFR,0.1,,,,,,,,,,,METAR,871.0
KBKB 230852Z AUTO 00000KT 10SM CLR 17/16 A2996 RMK AO2 RAB04E14B30E39 SLP171 P0000 60000 T01720161 56003,KBKB,2022-10-23T08:52:00Z,31.02,-92.92,17.2,16.1,0,0,,10.0,29.958662,1017.1,,TRUE,TRUE,,,,,,,CLR,,,,,,,,VFR,-0.3,,,,,0.005,0.005,,,,,METAR,74.0
KBIS 230852Z AUTO 04011KT 10SM CLR 08/04 A2946 RMK AO2 SLP982 T00780039 56020,KBIS,2022-10-23T08:52:00Z,46.77,-100.75,7.8,3.9,40,11,,10.0,29.459646,998.2,,TRUE,TRUE,,,,,,,CLR,,,,,,,,VFR,-2.0,,,,,,,,,,,METAR,506.0
KBDR 230852Z AUTO 02007KT 10SM OVC047 11/09 A3028 RMK AO2 SLP254 T01110089 57004,KBDR,2022-10-23T08:52:00Z,41.17,-73.13,11.1,8.9,20,7,,10.0,30.280512,1025.4,,TRUE,TRUE,,,,,,,OVC,4700,,,,,,,VFR,-0.4,,,,,,,,,,,METAR,5.0
KBAN 230852Z AUTO 00000KT 10SM FEW040 M04/M08 A2981 RMK AO2 SLP078 T10441078 51008 $,KBAN,2022-10-23T08:52:00Z,38.35,-119.52,-4.4,-7.8,0,0,,10.0,29.811024,1007.8,,TRUE,TRUE,TRUE,,,,,,FEW,4000,,,,,,,VFR,0.8,,,,,,,,,,,METAR,2067.0
KATL 230852Z 07003KT 10SM FEW250 11/04 A3018 RMK AO2 SLP218 T01060044 51005,KATL,2022-10-23T08:52:00Z,33.63,-84.45,10.6,4.4,70,3,,10.0,30.180119,1021.8,,,TRUE,,,,,,,FEW,25000,,,,,,,VFR,0.5,,,,,,,,,,,SPECI,309.0
KARR 230852Z AUTO 16010KT 10SM CLR 15/11 A2988 RMK AO2 SLP116 T01500106 56009,KARR,2022-10-23T08:52:00Z,41.77,-88.48,15.0,10.6,160,10,,10.0,29.878937,1011.6,,TRUE,TRUE,,,,,,,CLR,,,,,,,,VFR,-0.9,,,,,,,,,,,METAR,213.0
KAQW 230852Z AUTO 00000KT 10SM CLR 03/02 A3033 RMK AO2 SLP274 T00280017 55000,KAQW,2022-10-23T08:52:00Z,42.7,-73.17,2.8,1.7,0,0,,10.0,30.33071,1027.4,,TRUE,TRUE,,,,,,,CLR,,,,,,,,VFR,0.0,,,,,,,,,,,METAR,196.0
KALS 230852Z AUTO 23014G27KT 10SM FEW060 BKN075 BKN090 10/01 A2969 RMK AO2 PK WND 25037/0754 RAE05B36E45 SLP968 P0000 60000 T01000006 58007,KALS,2022-10-23T08:52:00Z,37.43,-105.87,10.0,0.6,230,14,27,10.0,29.68996,996.8,,TRUE,TRUE,,,,,,,FEW,6000,BKN,7500,BKN,9000,,,VFR,-0.7,,,,,0.005,0.005,,,,,METAR,2299.0
KAFN 230852Z AUTO 00000KT 8SM CLR 04/03 A3032 RMK AO2 SLP274 T00390028 58001,KAFN,2022-10-23T08:52:00Z,42.8,-72.0,3.9,2.8,0,0,,8.0,30.318897,1027.4,,TRUE,TRUE,,,,,,,CLR,,,,,,,,VFR,-0.1,,,,,,,,,,,METAR,308.0
KABQ 230852Z 19009KT 10SM FEW045 SCT055 SCT070 BKN140 16/09 A2974 RMK AO2 LTG DSNT NE SLP996 MTNS OBSC NE T01610094 58004,KABQ,2022-10-23T08:52:00Z,35.05,-106.62,16.1,9.4,190,9,,10.0,29.740158,999.6,,,TRUE,,,,,,,FEW,4500,SCT,5500,SCT,7000,BKN,14000,VFR,-0.4,,,,,,,,,,,METAR,1620.0
KABI 230852Z 19018G27KT 10SM CLR 22/12 A2976 RMK AO2 PK WND 19031/0831 SLP050 60000 T02170122 56003,KABI,2022-10-23T08:52:00Z,32.42,-99.68,21.7,12.2,190,18,27,10.0,29.760826,1005.0,,,TRUE,,,,,,,CLR,,,,,,,,VFR,-0.3,,,,,,0.005,,,,,METAR,543.0
PTKK 230851Z VRB06KT 15SM FEW014 SCT280 29/25 A2977 RMK SLP083 8/101 T02860245 52015,PTKK,2022-10-23T08:51:00Z,7.47,151.85,28.6,24.5,0,6,,15.0,29.769686,1008.3,,,,,,,,,,FEW,1400,SCT,28000,,,,,VFR,1.5,,,,,,,,,,,SPECI,3.0
KYNG 230851Z 13007KT 10SM FEW250 09/03 A3020 RMK AO2 SLP226 T00890028 53009,KYNG,2022-10-23T08:51:00Z,41.25,-80.67,8.9,2.8,130,7,,10.0,30.200787,1022.6,,,TRUE,,,,,,,FEW,25000,,,,,,,VFR,0.9,,,,,,,,,,,METAR,356.0
KVCT 230851Z AUTO 13004KT 9SM CLR 18/17 A2988 RMK AO2 SLP116 T01780167 56006,KVCT,2022-10-23T08:51:00Z,28.87,-96.93,17.8,16.7,130,4,,9.0,29.878937,1011.6,,TRUE,TRUE,,,,,,,CLR,,,,,,,,VFR,-0.6,,,,,,,,,,,METAR,33.0
KTEB 230851Z 01005KT 10SM FEW038 FEW048 11/08 A3027 RMK AO2 SLP250 T01060078 58001,KTEB,2022-10-23T08:51:00Z,40.87,-74.05,10.6,7.8,10,5,,10.0,30.268702,1025.0,,,TRUE,,,,,,,FEW,3800,FEW,4800,,,,,VFR,-0.1,,,,,,,,,,,METAR,3.0
KSTL 230851Z 14008KT 10SM SCT085 19/11 A2985 RMK AO2 SLP097 T01890111 58005 $,KSTL,2022-10-23T08:51:00Z,38.75,-90.37,18.9,11.1,140,8,,10.0,29.84941,1009.7,,,TRUE,TRUE,,,,,,SCT,8500,,,,,,,VFR,-0.5,,,,,,,,,,,METAR,163.0
KSMX 230851Z AUTO 00000KT 7SM CLR 09/08 A2985 RMK AO2 SLP109 T00940083 51010,KSMX,2022-10-23T08:51:00Z,34.9,-120.45,9.4,8.3,0,0,,7.0,29.84941,1010.9,,TRUE,TRUE,,,,,,,CLR,,,,,,,,VFR,1.0,,,,,,,,,,,METAR,73.0
KSMO 230851Z AUTO 24003KT 10SM FEW027 16/12 A2977 RMK AO2 SLP081 T01610122 53002,KSMO,2022-10-23T08:51:00Z,34.02,-118.45,16.1,12.2,240,3,,10.0,29.769686,1008.1,,TRUE,TRUE,,,,,,,FEW,2700,,,,,,,VFR,0.2,,,,,,,,,,,METAR,56.0
KSJT 230851Z AUTO 19014G25KT 10SM CLR 21/12 A2977 RMK AO2 PK WND 18026/0817 SLP057 T02060122 56007,KSJT,2022-10-23T08:51:00Z,31.37,-100.5,20.6,12.2,190,14,25,10.0,29.769686,1005.7,,TRUE,TRUE,,,,,,,CLR,,,,,,,,VFR,-0.7,,,,,,,,,,,METAR,582.0
KSAD 230851Z AUTO 32008KT 10SM FEW095 19/11 A2972 RMK AO2 SLP015 T01890106 55005,KSAD,2022-10-23T08:51:00Z,32.85,-109.63,18.9,10.6,320,8,,10.0,29.719488,1001.5,,TRUE,TRUE,,,,,,,FEW,9500,,,,,,,VFR,-0.5,,,,,,,,,,,METAR,937.0
KROW 230851Z AUTO 19011KT 10SM CLR 19/11 A2971 RMK AO2 SLP997 T01940106 58012,KROW,2022-10-23T08:51:00Z,33.3,-104.5,19.4,10.6,190,11,,10.0,29.71063,999.7,,TRUE,TRUE,,,,,,,CLR,,,,,,,,VFR,-1.2,,,,,,,,,,,METAR,1105.0
KRDU 230851Z 00000KT 10SM FEW050 BKN250 10/09 A3018 RMK AO2 SLP217 T01000089 55002,KRDU,2022-10-23T08:51:00Z,35.9,-78.78,10.0,8.9,0,0,,10.0,30.180119,1021.7,,,TRUE,,,,,,,FEW,5000,BKN,25000,,,,,VFR,-0.2,,,,,,,,,,,METAR,121.0
KPWM 230851Z 29003KT 10SM SCT250 05/04 A3033 RMK AO2 SLP269 T00500044 53005,KPWM,2022-10-23T08:51:00Z,43.65,-70.3,5.0,4.4,290,3,,10.0,30.33071,1026.9,,,TRUE,,,,,,,SCT,25000,,,,,,,VFR,0.5,,,,,,,,,,,METAR,15.0
KPVD 230851Z AUTO 00000KT 10SM CLR 10/08 A3032 RMK AO2 SLP266 T01000083 55003 $,KPVD,2022-10-23T08:51:00Z,41.72,-71.43,10.0,8.3,0,0,,10.0,30.318897,1026.6,,TRUE,TRUE,TRUE,,,,,,CLR,,,,,,,,VFR,-0.3,,,,,,,,,,,METAR,15.0
KPIT 230851Z 00000KT 10SM FEW250 06/03 A3020 RMK AO2 SLP233 T00610028 53006,KPIT,2022-10-23T08:51:00Z,40.47,-80.2,6.1,2.8,0,0,,10.0,30.200787,1023.3,,,TRUE,,,,,,,FEW,25000,,,,,,,VFR,0.6,,,,,,,,,,,METAR,339.0
KPHX 230851Z 21009KT 10SM SCT060 23/10 A2965 RMK AO2 SLP024 T02280100 50002 $,KPHX,2022-10-23T08:51:00Z,33.43,-112.02,22.8,10.0,210,9,,10.0,29.648623,1002.4,,,TRUE,TRUE,,,,,,SCT,6000,,,,,,,VFR,0.2,,,,,,,,,,,METAR,338.0
KP59 230851Z AUTO 25009G19KT 12/09 A2976 RMK AO1 SLP078 T01220089 53003 $,KP59,2022-10-23T08:51:00Z,47.47,-87.88,12.2,8.9,250,9,19,,29.760826,1007.8,,TRUE,TRUE,TRUE,,,,,,,,,,,,,,,0.3,,,,,,,,,,,METAR,185.0
KORD 230851Z 18009KT 10SM CLR 17/11 A2990 RMK AO2 SLP120 T01720106 58008,KORD,2022-10-23T08:51:00Z,41.95,-87.93,17.2,10.6,180,9,,10.0,29.899607,1012.0,,,TRUE,,,,,,,CLR,,,,,,,,VFR,-0.8,,,,,,,,,,,METAR,202.0
KNYC 230851Z AUTO VRB03KT 10SM OVC044 13/08 A3029 RMK AO2 SLP249 T01330078 58002 $,KNYC,2022-10-23T08:51:00Z,40.78,-73.97,13.3,7.8,0,3,,10.0,30.28937,1024.9,,TRUE,TRUE,TRUE,,,,,,OVC,4400,,,,,,,VFR,-0.2,,,,,,,,,,,METAR,33.0
KMYL 230851Z AUTO 35005KT 10SM FEW044 SCT055 M01/M06 A2970 RMK AO2 SLP063 T10061061 53005,KMYL,2022-10-23T08:51:00Z,44.9,-116.1,-0.6,-6.1,350,5,,10.0,29.698818,1006.3,,TRUE,TRUE,,,,,,,FEW,4400,SCT,5500,,,,,VFR,0.5,,,,,,,,,,,METAR,1532.0
KLGA 230851Z 04006KT 10SM BKN040 BKN120 BKN250 13/10 A3028 RMK AO2 SLP259 T01330100 $,KLGA,2022-10-23T08:51:00Z,40.78,-73.88,13.3,10.0,40,6,,10.0,30.280512,1025.9,,,TRUE,TRUE,,,,,,BKN,4000,BKN,12000,BKN,25000,,,VFR,,,,,,,,,,,,METAR,9.0
KJFK 230851Z 02006KT 10SM OVC046 14/12 A3027 RMK AO2 SLP250 T01390117 58002,KJFK,2022-10-23T08:51:00Z,40.63,-73.77,13.9,11.7,20,6,,10.0,30.268702,1025.0,,,TRUE,,,,,,,OVC,4600,,,,,,,VFR,-0.2,,,,,,,,,,,METAR,3.0
KJCT 230851Z AUTO VRB03KT 10SM CLR 20/17 A2984 RMK AO2 SLP070 T02000172 58002 $,KJCT,2022-10-23T08:51:00Z,30.5,-99.77,20.0,17.2,0,3,,10.0,29.840551,1007.0,,TRUE,TRUE,TRUE,,,,,,CLR,,,,,,,,VFR,-0.2,,,,,,,,,,,METAR,522.0
KILG 230851Z AUTO 36005KT 10SM BKN024 OVC036 11/09 A3025 RMK AO2 SLP244 T01060089 55003,KILG,2022-10-23T08:51:00Z,39.67,-75.6,10.6,8.9,360,5,,10.0,30.250984,1024.4,,TRUE,TRUE,,,,,,,BKN,2400,OVC,3600,,,,,MVFR,-0.3,,,,,,,,,,,METAR,22.0
KIGM 230851Z AUTO 23020G26KT 10SM FEW050 14/04 A2967 RMK AO2 PK WND 23030/0754 SLP989 T01440044 51017,KIGM,2022-10-23T08:51:00Z,35.25,-113.93,14.4,4.4,230,20,26,10.0,29.66929,998.9,,TRUE,TRUE,,,,,,,FEW,5000,,,,,,,VFR,1.7,,,,,,,,,,,METAR,1045.0
KHTS 230851Z 00000KT 10SM CLR 09/07 A3017 RMK AO2 SLP212 T00890067 53008,KHTS,2022-10-23T08:51:00Z,38.37,-82.55,8.9,6.7,0,0,,10.0,30.171259,1021.2,,,TRUE,,,,,,,CLR,,,,,,,,VFR,0.8,,,,,,,,,,,METAR,252.0
KHSE 230851Z AUTO 01009G18KT 340V060 9SM OVC010 17/17 A3000 RMK AO2 CIG 009V013 SLP158 60007 T01720167 56024,KHSE,2022-10-23T08:51:00Z,35.23,-75.62,17.2,16.7,10,9,18,9.0,30.0,1015.8,,TRUE,TRUE,,,,,,,OVC,1000,,,,,,,MVFR,-2.4,,,,,,0.07,,,,,METAR,4.0
KHDO 230851Z AUTO 13004KT 10SM CLR 19/18 A2986 RMK AO2 SLP095 T01940178 56008,KHDO,2022-10-23T08:51:00Z,29.37,-99.17,19.4,17.8,130,4,,10.0,29.861221,1009.5,,TRUE,TRUE,,,,,,,CLR,,,,,,,,VFR,-0.8,,,,,,,,,,,METAR,280.0
KGDP 230851Z AUTO 23022G28KT 10SM FEW110 16/07 A2987 RMK AO2 PK WND 24028/0848 SLP044 T01610072 58012,KGDP,2022-10-23T08:51:00Z,31.83,-104.82,16.1,7.2,230,22,28,10.0,29.870079,1004.4,,TRUE,TRUE,,,,,,,FEW,11000,,,,,,,VFR,-1.2,,,,,,,,,,,METAR,1664.0
KEWR 230851Z 02007KT 10SM SCT036 OVC048 13/08 A3027 RMK AO2 SLP250 T01280078 56001,KEWR,2022-10-23T08:51:00Z,40.68,-74.17,12.8,7.8,20,7,,10.0,30.268702,1025.0,,,TRUE,,,,,,,SCT,3600,OVC,4800,,,,,VFR,-0.1,,,,,,,,,,,METAR,2.0
KERI 230851Z AUTO 16012KT 10SM CLR 13/03 A3017 RMK AO2 SLP216 T01280028 53004,KERI,2022-10-23T08:51:00Z,42.08,-80.18,12.8,2.8,160,12,,10.0,30.171259,1021.6,,TRUE,TRUE,,,,,,,CLR,,,,,,,,VFR,0.4,,,,,,,,,,,METAR,222.0
KELP 230851Z 19013KT 10SM FEW120 FEW180 22/09 A2979 RMK AO2 SLP015 T02220094 56008,KELP,2022-10-23T08:51:00Z,31.82,-106.35,22.2,9.4,190,13,,10.0,29.790354,1001.5,,,TRUE,,,,,,,FEW,12000,FEW,18000,,,,,VFR,-0.8,,,,,,,,,,,METAR,1205.0
KDAW 230851Z AUTO 32006KT 10SM CLR 06/04 A3031 RMK AO2 SLP260 T00560039 58001,KDAW,2022-10-23T08:51:00Z,43.28,-70.92,5.6,3.9,320,6,,10.0,30.31004,1026.0,,TRUE,TRUE,,,,,,,CLR,,,,,,,,VFR,-0.1,,,,,,,,,,,METAR,100.0
KCSG 230851Z AUTO 00000KT 10SM CLR 08/06 A3016 RMK AO2 SLP210 T00830056 51004,KCSG,2022-10-23T08:51:00Z,32.52,-84.95,8.3,5.6,0,0,,10.0,30.159449,1021.0,,TRUE,TRUE,,,,,,,CLR,,,,,,,,VFR,0.4,,,,,,,,,,,METAR,120.0
KCRP 230851Z 15005KT 10SM BKN050 BKN250 20/18 A2986 RMK AO2 SLP110 T02000178 56010,KCRP,2022-10-23T08:51:00Z,27.77,-97.5,20.0,17.8,150,5,,10.0,29.861221,1011.0,,,TRUE,,,,,,,BKN,5000,BKN,25000,,,,,VFR,-1.0,,,,,,,,,,,METAR,11.0
KCON 230851Z AUTO 03009KT 10SM CLR 03/02 A3032 RMK AO2 SLP269 T00280022 58001,KCON,2022-10-23T08:51:00Z,43.2,-71.5,2.8,2.2,30,9,,10.0,30.318897,1026.9,,TRUE,TRUE,,,,,,,CLR,,,,,,,,VFR,-0.1,,,,,,,,,,,METAR,102.0
KCMH 230851Z 11003KT 10SM CLR 13/08 A3015 RMK AO2 SLP205 T01280078 53009 $,KCMH,2022-10-23T08:51:00Z,40.0,-82.88,12.8,7.8,110,3,,10.0,30.15059,1020.5,,,TRUE,TRUE,,,,,,CLR,,,,,,,,VFR,0.9,,,,,,,,,,,METAR,257.0
KCLE 230851Z 16009KT 10SM FEW250 14/07 A3015 RMK AO2 SLP221 T01390067 53009 $,KCLE,2022-10-23T08:51:00Z,41.42,-81.85,13.9,6.7,160,9,,10.0,30.15059,1022.1,,,TRUE,TRUE,,,,,,FEW,25000,,,,,,,VFR,0.9,,,,,,,,,,,METAR,237.0
KCDJ 230851Z AUTO 14007KT 19/13 A2965 RMK AO1 SLP025 T01940128 58008,KCDJ,2022-10-23T08:51:00Z,39.82,-93.57,19.4,12.8,140,7,,,29.648623,1002.5,,TRUE,TRUE,,,,,,,,,,,,,,,,-0.8,,,,,,,,,,,METAR,234.0
KCAK 230851Z 16004KT 10SM FEW250 12/05 A3019 RMK AO2 SLP219 T01170050 53011,KCAK,2022-10-23T08:51:00Z,40.92,-81.45,11.7,5.0,160,4,,10.0,30.188976,1021.9,,,TRUE,,,,,,,FEW,25000,,,,,,,VFR,1.1,,,,,,,,,,,METAR,369.0
KBKW 230851Z AUTO 00000KT 10SM CLR 07/02 A3022 RMK AO2 SLP224 T00670017 50003,KBKW,2022-10-23T08:51:00Z,37.8,-81.12,6.7,1.7,0,0,,10.0,30.221457,1022.4,,TRUE,TRUE,,,,,,,CLR,,,,,,,,VFR,0.3,,,,,,,,,,,METAR,762.0
KBHK 230851Z AUTO 09007KT 10SM BKN120 07/02 A2941 RMK AO2 SLP958 T00720022 53003,KBHK,2022-10-23T08:51:00Z,46.35,-104.25,7.2,2.2,90,7,,10.0,29.409449,995.8,,TRUE,TRUE,,,,,,,BKN,12000,,,,,,,VFR,0.3,,,,,,,,,,,METAR,904.0
KBGD 230851Z AUTO 20013G21KT 10SM CLR 23/10 A2961 RMK AO2 PK WND 21026/0759 SLP982 T02280100 58004,KBGD,2022-10-23T08:51:00Z,35.7,-101.4,22.8,10.0,200,13,21,10.0,29.610237,998.2,,TRUE,TRUE,,,,,,,CLR,,,,,,,,VFR,-0.4,,,,,,,,,,,METAR,928.0
KBED 230851Z AUTO 00000KT 10SM CLR 05/04 A3031 RMK AO2 SLP278 T00500039 55003,KBED,2022-10-23T08:51:00Z,42.47,-71.3,5.0,3.9,0,0,,10.0,30.31004,1027.8,,TRUE,TRUE,,,,,,,CLR,,,,,,,,VFR,-0.3,,,,,,,,,,,METAR,39.0
KBDL 230851Z 00000KT 10SM FEW027 BKN250 07/04 A3032 RMK AO2 SLP267 T00670044 53000,KBDL,2022-10-23T08:51:00Z,41.93,-72.68,6.7,4.4,0,0,,10.0,30.318897,1026.7,,,TRUE,,,,,,,FEW,2700,BKN,25000,,,,,VFR,0.0,,,,,,,,,,,METAR,52.0
KATT 230851Z AUTO VRB04KT 10SM OVC019 21/18 A2987 RMK AO2 SLP104 T02110183 50001,KATT,2022-10-23T08:51:00Z,30.32,-97.77,21.1,18.3,0,4,,10.0,29.870079,1010.4,,TRUE,TRUE,,,,,,,OVC,1900,,,,,,,MVFR,0.1,,,,,,,,,,,METAR,203.0
KALB 230851Z 00000KT 10SM SCT250 06/04 A3032 RMK AO2 SLP268 T00560039 53005,KALB,2022-10-23T08:51:00Z,42.75,-73.8,5.6,3.9,0,0,,10.0,30.318897,1026.8,,,TRUE,,,,,,,SCT,25000,,,,,,,VFR,0.5,,,,,,,,,,,METAR,82.0
KAHN 230851Z AUTO 00000KT 10SM CLR 06/03 A3019 RMK AO2 SLP223 T00560033 52007,KAHN,2022-10-23T08:51:00Z,33.95,-83.33,5.6,3.3,0,0,,10.0,30.188976,1022.3,,TRUE,TRUE,,,,,,,CLR,,,,,,,,VFR,0.7,,,,,,,,,,,METAR,241.0
KACT 230851Z AUTO 18014G23KT 10SM OVC023 22/18 A2983 RMK AO2 PK WND 16027/0753 SLP094 T02170178 55000 $,KACT,2022-10-23T08:51:00Z,31.62,-97.23,21.7,17.8,180,14,23,10.0,29.828741,1009.4,,TRUE,TRUE,TRUE,,,,,,OVC,2300,,,,,,,MVFR,0.0,,,,,,,,,,,METAR,150.0
KABE 230851Z 33005KT SCT035 04/03 A3027 RMK AO2 SLP252 T00440028 58001,KABE,2022-10-23T08:51:00Z,40.65,-75.45,4.4,2.8,330,5,,,30.268702,1025.2,,,TRUE,,,,,,,SCT,3500,,,,,,,,-0.1,,,,,,,,,,,METAR,117.0
K6R6 230851Z AUTO 01007KT 16/13 A2982 RMK AO1 SLP069 T01610133 56007,K6R6,2022-10-23T08:51:00Z,30.05,-102.22,16.1,13.3,10,7,,,29.819881,1006.9,,TRUE,TRUE,,,,,,,,,,,,,,,,-0.7,,,,,,,,,,,METAR,702.0
PTRO 230850Z 26006KT 13SM BKN015CB BKN110 OVC290 26/24 A2972 RMK CB ALQDS,PTRO,2022-10-23T08:50:00Z,7.37,134.55,26.0,24.0,260,6,,13.0,29.719488,,,,,,,,,,,BKN,1500,BKN,11000,OVC,29000,,,MVFR,,,,,,,,,,,,METAR,30.0
PGWT 230850Z 11007KT 7SM FEW018 SCT100 28/24 RMK LAST,PGWT,2022-10-23T08:50:00Z,14.98,145.62,28.0,24.0,110,7,,7.0,,,,,,,,,,,,FEW,1800,SCT,10000,,,,,VFR,,,,,,,,,,,,SPECI,84.0
OOSH 230850Z AUTO 08007KT //// ////// 33/22 Q1015 RMK 1011,OOSH,2022-10-23T08:50:00Z,24.38,56.62,33.0,22.0,80,7,,,29.970472,,,TRUE,,,,,,,,,,,,,,,,,,,,,,,,,,,,METAR,35.0
OOSA 230850Z 14009KT 120V180 9999 FEW025 29/22 Q1016 NOSIG,OOSA,2022-10-23T08:50:00Z,17.03,54.1,29.0,22.0,140,9,,6.21,30.0,,,,,,TRUE,,,,,FEW,2500,,,,,,,VFR,,,,,,,,,,,,METAR,20.0
OOMS 230850Z 34010KT CAVOK 31/24 Q1015 NOSIG,OOMS,2022-10-23T08:50:00Z,23.58,58.28,31.0,24.0,340,10,,6.21,29.970472,,,,,,TRUE,,,,,CAVOK,,,,,,,,VFR,,,,,,,,,,,,METAR,8.0
OOKB 230850Z 02012KT CAVOK 34/15 Q1016 NOSIG,OOKB,2022-10-23T08:50:00Z,26.17,56.23,34.0,15.0,20,12,,6.21,30.0,,,,,,TRUE,,,,,CAVOK,,,,,,,,VFR,,,,,,,,,,,,METAR,30.0
OODQ 230850Z AUTO 08011KT CAVOK ////// 29/23 Q1016 NOSIG RMK RH70? 0,OODQ,2022-10-23T08:50:00Z,19.52,57.65,29.0,23.0,80,11,,6.21,30.0,,,TRUE,,,TRUE,,,,,CAVOK,,,,,,,,VFR,,,,,,,,,,,,METAR,116.0
OOAD 230850Z AUTO 30004KT 250V030 9999 R31///// // NCD 33/09 Q1018 NOSIG,OOAD,2022-10-23T08:50:00Z,22.5,57.37,33.0,9.0,300,4,,6.21,30.059055,,,TRUE,,,TRUE,,,,,CLR,,,,,,,,VFR,,,,,,,,,,,,METAR,327.0
NSTU 230850Z 04007KT 10SM SCT020 BKN040 OVC100 26/25 A2987 RMK SHRAE30 SLP117 60060 8/82/ T02620251 52017,NSTU,2022-10-23T08:50:00Z,-14.33,-170.72,26.2,25.1,40,7,,10.0,29.870079,1011.7,,,,,,,,,,SCT,2000,BKN,4000,OVC,10000,,,VFR,1.7,,,,,,0.6,,,,,METAR,8.0
MUVR 230850Z 16004KT 8000 FEW020 21/20 Q1014,MUVR,2022-10-23T08:50:00Z,23.03,-81.43,21.0,20.0,160,4,,4.97,29.940945,,,,,,,,,,,FEW,2000,,,,,,,MVFR,,,,,,,,,,,,METAR,65.0
MUSC 230850Z VRB02KT 8000 FEW030 19/18 Q1014,MUSC,2022-10-23T08:50:00Z,22.5,-79.92,19.0,18.0,0,2,,4.97,29.940945,,,,,,,,,,,FEW,3000,,,,,,,MVFR,,,,,,,,,,,,METAR,97.0
MUHG 230850Z VRB03KT 9000 FEW020 OVC150 22/22 Q1013,MUHG,2022-10-23T08:50:00Z,20.78,-76.32,22.0,22.0,0,3,,5.59,29.911417,,,,,,,,,,,FEW,2000,OVC,15000,,,,,VFR,,,,,,,,,,,,METAR,100.0
MUHA 230850Z VRB02KT 7000 FEW003 18/17 Q1014,MUHA,2022-10-23T08:50:00Z,22.98,-82.42,18.0,17.0,0,2,,4.35,29.940945,,,,,,,,,,,FEW,300,,,,,,,MVFR,,,,,,,,,,,,METAR,61.0
MUCU 230850Z 35008KT 9000 FEW020 25/21 Q1012,MUCU,2022-10-23T08:50:00Z,19.97,-75.83,25.0,21.0,350,8,,5.59,29.88189,,,,,,,,,,,FEW,2000,,,,,,,VFR,,,,,,,,,,,,METAR,70.0
MUCL 230850Z AUTO VRB04KT 25/24 Q1013,MUCL,2022-10-23T08:50:00Z,21.63,-81.55,25.0,24.0,0,4,,,29.911417,,,TRUE,,,,,,,,,,,,,,,,,,,,,,,,,,,,METAR,5.0
MUCC 230850Z 04002KT 9000 FEW020 22/22 Q1013,MUCC,2022-10-23T08:50:00Z,22.47,-78.33,22.0,22.0,40,2,,5.59,29.911417,,,,,,,,,,,FEW,2000,,,,,,,VFR,,,,,,,,,,,,METAR,7.0
MSLP 230850Z VRB02KT 9999 FEW030 SCT076 24/22 Q1009 A2982 NOSIG,MSLP,2022-10-23T08:50:00Z,13.43,-89.05,24.0,22.0,0,2,,6.21,29.793306,,,,,,TRUE,,,,,FEW,3000,SCT,7600,,,,,VFR,,,,,,,,,,,,METAR,25.0
LTFO 230850Z 04008KT CAVOK 18/10 Q1022,LTFO,2022-10-23T08:50:00Z,41.18,40.85,18.0,10.0,40,8,,6.21,30.177166,,,,,,,,,,,CAVOK,,,,,,,,VFR,,,,,,,,,,,,METAR,5.0
LTFH 230850Z 19008KT CAVOK 21/05 Q1020 NOSIG,LTFH,2022-10-23T08:50:00Z,41.27,36.57,21.0,5.0,190,8,,6.21,30.11811,,,,,,TRUE,,,,,CAVOK,,,,,,,,VFR,,,,,,,,,,,,METAR,7.0
LTFG 230850Z 24007KT 220V280 CAVOK 24/10 Q1021,LTFG,2022-10-23T08:50:00Z,36.3,32.3,24.0,10.0,240,7,,6.21,30.147638,,,,,,,,,,,CAVOK,,,,,,,,VFR,,,,,,,,,,,,METAR,26.0
LTFD 230850Z VRB01KT CAVOK 20/04 Q1023,LTFD,2022-10-23T08:50:00Z,39.55,27.02,20.0,4.0,0,1,,6.21,30.206694,,,,,,,,,,,CAVOK,,,,,,,,VFR,,,,,,,,,,,,METAR,15.0
LTFB 230850Z VRB02KT CAVOK 22/03 Q1022,LTFB,2022-10-23T08:50:00Z,37.95,27.33,22.0,3.0,0,2,,6.21,30.177166,,,,,,,,,,,CAVOK,,,,,,,,VFR,,,,,,,,,,,,METAR,3.0
LTDA 230850Z 05006KT 020V080 CAVOK 23/13 Q1021 NOSIG,LTDA,2022-10-23T08:50:00Z,36.37,36.28,23.0,13.0,50,6,,6.21,30.147638,,,,,,TRUE,,,,,CAVOK,,,,,,,,VFR,,,,,,,,,,,,METAR,80.0
LTCW 230850Z 12004KT 050V170 9999 SCT030 15/04 Q1025,LTCW,2022-10-23T08:50:00Z,37.55,44.23,15.0,4.0,120,4,,6.21,30.265747,,,,,,,,,,,SCT,3000,,,,,,,VFR,,,,,,,,,,,,METAR,1852.0
LTCV 230850Z 31004KT 260V040 9999 FEW040 21/11 Q1022,LTCV,2022-10-23T08:50:00Z,37.37,42.07,21.0,11.0,310,4,,6.21,30.177166,,,,,,,,,,,FEW,4000,,,,,,,VFR,,,,,,,,,,,,METAR,620.0
LTCU 230850Z VRB03KT 9999 FEW035 16/05 Q1024,LTCU,2022-10-23T08:50:00Z,38.87,40.58,16.0,5.0,0,3,,6.21,30.236221,,,,,,,,,,,FEW,3500,,,,,,,VFR,,,,,,,,,,,,METAR,1061.0
LTCT 230850Z VRB03KT 9999 FEW040 15/03 Q1025,LTCT,2022-10-23T08:50:00Z,39.98,43.87,15.0,3.0,0,3,,6.21,30.265747,,,,,,,,,,,FEW,4000,,,,,,,VFR,,,,,,,,,,,,METAR,936.0
LTCR 230850Z 02007KT 340V050 CAVOK 23/07 Q1022,LTCR,2022-10-23T08:50:00Z,37.22,40.63,23.0,7.0,20,7,,6.21,30.177166,,,,,,,,,,,CAVOK,,,,,,,,VFR,,,,,,,,,,,,METAR,529.0
LTCP 230850Z 20006KT 140V250 CAVOK 21/06 Q1023,LTCP,2022-10-23T08:50:00Z,37.73,38.47,21.0,6.0,200,6,,6.21,30.206694,,,,,,,,,,,CAVOK,,,,,,,,VFR,,,,,,,,,,,,METAR,672.0
LTCO 230850Z 07004KT 030V130 9999 FEW040 11/05 Q1026,LTCO,2022-10-23T08:50:00Z,39.65,43.03,11.0,5.0,70,4,,6.21,30.295275,,,,,,,,,,,FEW,4000,,,,,,,VFR,,,,,,,,,,,,METAR,1657.0
LTCN 230850Z VRB04KT CAVOK 21/04 Q1023 NOSIG,LTCN,2022-10-23T08:50:00Z,37.53,36.95,21.0,4.0,0,4,,6.21,30.206694,,,,,,TRUE,,,,,CAVOK,,,,,,,,VFR,,,,,,,,,,,,METAR,505.0
LTCL 230850Z 27004KT 240V320 9999 FEW040 17/12 Q1024,LTCL,2022-10-23T08:50:00Z,37.98,41.83,17.0,12.0,270,4,,6.21,30.236221,,,,,,,,,,,FEW,4000,,,,,,,VFR,,,,,,,,,,,,METAR,602.0
LTCK 230850Z 31005KT 250V030 9999 SCT030 13/06 Q1025,LTCK,2022-10-23T08:50:00Z,38.75,41.67,13.0,6.0,310,5,,6.21,30.265747,,,,,,,,,,,SCT,3000,,,,,,,VFR,,,,,,,,,,,,METAR,1267.0
LTCI 230850Z 29006KT 260V320 9999 FEW040 13/05 Q1028 NOSIG,LTCI,2022-10-23T08:50:00Z,38.47,43.33,13.0,5.0,290,6,,6.21,30.35433,,,,,,TRUE,,,,,FEW,4000,,,,,,,VFR,,,,,,,,,,,,METAR,1654.0
LTCF 230850Z VRB04KT 9999 FEW040 10/M01 Q1026,LTCF,2022-10-23T08:50:00Z,40.57,43.12,10.0,-1.0,0,4,,6.21,30.295275,,,,,,,,,,,FEW,4000,,,,,,,VFR,,,,,,,,,,,,METAR,1794.0
LTCD 230850Z VRB02KT CAVOK 15/03 Q1025 NOSIG,LTCD,2022-10-23T08:50:00Z,39.72,39.52,15.0,3.0,0,2,,6.21,30.265747,,,,,,TRUE,,,,,CAVOK,,,,,,,,VFR,,,,,,,,,,,,METAR,1146.0
LTCB 230850Z 08006KT CAVOK 18/11 Q1021,LTCB,2022-10-23T08:50:00Z,40.97,38.07,18.0,11.0,80,6,,6.21,30.147638,,,,,,,,,,,CAVOK,,,,,,,,VFR,,,,,,,,,,,,METAR,5.0
LTCA 230850Z 21002KT CAVOK 18/03 Q1024 NOSIG,LTCA,2022-10-23T08:50:00Z,38.6,39.28,18.0,3.0,210,2,,6.21,30.236221,,,,,,TRUE,,,,,CAVOK,,,,,,,,VFR,,,,,,,,,,,,METAR,887.0
LTBY 230850Z 09005KT 020V170 CAVOK 13/01 Q1025,LTBY,2022-10-23T08:50:00Z,39.82,30.52,13.0,1.0,90,5,,6.21,30.265747,,,,,,,,,,,CAVOK,,,,,,,,VFR,,,,,,,,,,,,METAR,788.0
LTBQ 230850Z 25005KT 210V300 CAVOK 19/07 Q1021 NOSIG,LTBQ,2022-10-23T08:50:00Z,40.73,30.07,19.0,7.0,250,5,,6.21,30.147638,,,,,,TRUE,,,,,CAVOK,,,,,,,,VFR,,,,,,,,,,,,METAR,51.0
LTBH 230850Z 26007KT 230V290 CAVOK 20/07 Q1023,LTBH,2022-10-23T08:50:00Z,40.13,26.42,20.0,7.0,260,7,,6.21,30.206694,,,,,,,,,,,CAVOK,,,,,,,,VFR,,,,,,,,,,,,METAR,8.0
LTBF 230850Z VRB01KT CAVOK 18/01 Q1023 NOSIG,LTBF,2022-10-23T08:50:00Z,39.62,27.92,18.0,1.0,0,1,,6.21,30.206694,,,,,,TRUE,,,,,CAVOK,,,,,,,,VFR,,,,,,,,,,,,METAR,95.0
LTBD 230850Z 08007KT CAVOK 20/00 Q1022,LTBD,2022-10-23T08:50:00Z,37.82,27.88,20.0,0.0,80,7,,6.21,30.177166,,,,,,,,,,,CAVOK,,,,,,,,VFR,,,,,,,,,,,,METAR,29.0
LTAY 230850Z 09005KT CAVOK 16/M05 Q1024,LTAY,2022-10-23T08:50:00Z,37.78,29.7,16.0,-5.0,90,5,,6.21,30.236221,,,,,,,,,,,CAVOK,,,,,,,,VFR,,,,,,,,,,,,METAR,851.0
LTAW 230850Z 24004KT CAVOK 13/06 Q1026,LTAW,2022-10-23T08:50:00Z,40.3,36.37,13.0,6.0,240,4,,6.21,30.295275,,,,,,,,,,,CAVOK,,,,,,,,VFR,,,,,,,,,,,,METAR,561.0
LTAS 230850Z 19006KT 120V220 9999 SCT035 BKN100 17/05 Q1021,LTAS,2022-10-23T08:50:00Z,41.52,32.08,17.0,5.0,190,6,,6.21,30.147638,,,,,,,,,,,SCT,3500,BKN,10000,,,,,VFR,,,,,,,,,,,,METAR,13.0
LTAR 230850Z 21005KT 160V270 CAVOK 08/M02 Q1026,LTAR,2022-10-23T08:50:00Z,39.8,36.9,8.0,-2.0,210,5,,6.21,30.295275,,,,,,,,,,,CAVOK,,,,,,,,VFR,,,,,,,,,,,,METAR,1601.0
LTAN 230850Z 16006KT 100V210 CAVOK 12/M03 Q1026 NOSIG,LTAN,2022-10-23T08:50:00Z,37.97,32.55,12.0,-3.0,160,6,,6.21,30.295275,,,,,,TRUE,,,,,CAVOK,,,,,,,,VFR,,,,,,,,,,,,METAR,1029.0
LTAL 230850Z 06004KT 020V120 CAVOK 12/01 Q1022,LTAL,2022-10-23T08:50:00Z,41.32,33.8,12.0,1.0,60,4,,6.21,30.177166,,,,,,,,,,,CAVOK,,,,,,,,VFR,,,,,,,,,,,,METAR,1074.0
LTAE 230850Z 23002KT CAVOK 13/M00 Q1025 NOSIG RMK RWY21 22004KT 110V280,LTAE,2022-10-23T08:50:00Z,40.07,32.57,13.0,0.0,230,2,,6.21,30.265747,,,,,,TRUE,,,,,CAVOK,,,,,,,,VFR,,,,,,,,,,,,METAR,836.0
LLIB 230850Z AUTO VRB02KT 9000 NSC 28/12 Q1018 RMK FEW140,LLIB,2022-10-23T08:50:00Z,32.98,35.57,28.0,12.0,0,2,,5.59,30.059055,,,TRUE,,,,,,,,CLR,,,,,,,,VFR,,,,,,,,,,,,METAR,268.0
LLHA 230850Z 34009KT CAVOK 27/14 Q1017 RMK FEW100,LLHA,2022-10-23T08:50:00Z,32.8,35.03,27.0,14.0,340,9,,6.21,30.029528,,,,,,,,,,,CAVOK,,,,,,,,VFR,,,,,,,,,,,,METAR,3.0
LLER 230850Z 36009KT 9000 NSC 27/15 Q1017 RMK FEW070,LLER,2022-10-23T08:50:00Z,29.72,35.02,27.0,15.0,360,9,,5.59,30.029528,,,,,,,,,,,CLR,,,,,,,,VFR,,,,,,,,,,,,METAR,88.0
LIRU 230850Z VRB02KT 9999 SCT035 22/17 Q1025,LIRU,2022-10-23T08:50:00Z,41.95,12.5,22.0,17.0,0,2,,6.21,30.265747,,,,,,,,,,,SCT,3500,,,,,,,VFR,,,,,,,,,,,,METAR,16.0
LIRI 230850Z VRB02KT CAVOK 21/17 Q1025,LIRI,2022-10-23T08:50:00Z,40.62,14.92,21.0,17.0,0,2,,6.21,30.265747,,,,,,,,,,,CAVOK,,,,,,,,VFR,,,,,,,,,,,,METAR,31.0
LIQN 230850Z VRB05KT CAVOK 18/13 Q1027,LIQN,2022-10-23T08:50:00Z,42.42,12.83,18.0,13.0,0,5,,6.21,30.324802,,,,,,,,,,,CAVOK,,,,,,,,VFR,,,,,,,,,,,,METAR,387.0
LIPK 230850Z VRB01KT CAVOK 22/19 Q1022,LIPK,2022-10-23T08:50:00Z,44.2,12.07,22.0,19.0,0,1,,6.21,30.177166,,,,,,,,,,,CAVOK,,,,,,,,VFR,,,,,,,,,,,,METAR,24.0
LIPB 230850Z VRB01KT 9999 BKN055 13/10 Q1024,LIPB,2022-10-23T08:50:00Z,46.47,11.32,13.0,10.0,0,1,,6.21,30.236221,,,,,,,,,,,BKN,5500,,,,,,,VFR,,,,,,,,,,,,METAR,239.0
LIMP 230850Z 05003KT 360V080 1300 R20/1100U BR BKN005 16/16 Q1022,LIMP,2022-10-23T08:50:00Z,44.82,10.3,16.0,16.0,50,3,,0.81,30.177166,,,,,,,,,,BR,BKN,500,,,,,,,LIFR,,,,,,,,,,,,METAR,41.0
LIMG 230850Z 27005KT 9999 SCT020 20/15 Q1021,LIMG,2022-10-23T08:50:00Z,44.03,8.12,20.0,15.0,270,5,,6.21,30.147638,,,,,,,,,,,SCT,2000,,,,,,,VFR,,,,,,,,,,,,METAR,41.0
LIMA 230850Z VRB02KT 6000 BKN010 17/16 Q1023,LIMA,2022-10-23T08:50:00Z,45.08,7.6,17.0,16.0,0,2,,3.73,30.206694,,,,,,,,,,,BKN,1000,,,,,,,MVFR,,,,,,,,,,,,METAR,285.0
LICG 230850Z 20014KT CAVOK 23/19 Q1026,LICG,2022-10-23T08:50:00Z,36.82,11.97,23.0,19.0,200,14,,6.21,30.295275,,,,,,,,,,,CAVOK,,,,,,,,VFR,,,,,,,,,,,,METAR,192.0
LIBF 230850Z VRB01KT CAVOK 24/13 Q1023,LIBF,2022-10-23T08:50:00Z,41.42,15.53,24.0,13.0,0,1,,6.21,30.206694,,,,,,,,,,,CAVOK,,,,,,,,VFR,,,,,,,,,,,,METAR,81.0
LIBC 230850Z VRB02KT CAVOK 25/13 Q1025,LIBC,2022-10-23T08:50:00Z,39.0,17.07,25.0,13.0,0,2,,6.21,30.265747,,,,,,,,,,,CAVOK,,,,,,,,VFR,,,,,,,,,,,,METAR,158.0
LGZA 230850Z 36012KT 9999 FEW018 22/17 Q1024,LGZA,2022-10-23T08:50:00Z,37.75,20.88,22.0,17.0,360,12,,6.21,30.236221,,,,,,,,,,,FEW,1800,,,,,,,VFR,,,,,,,,,,,,METAR,3.0
LGSO 230850Z 35004KT CAVOK 22/14 Q1022,LGSO,2022-10-23T08:50:00Z,37.42,24.95,22.0,14.0,350,4,,6.21,30.177166,,,,,,,,,,,CAVOK,,,,,,,,VFR,,,,,,,,,,,,METAR,71.0
LGSM 230850Z 15006KT CAVOK 19/13 Q1022,LGSM,2022-10-23T08:50:00Z,37.68,26.92,19.0,13.0,150,6,,6.21,30.177166,,,,,,,,,,,CAVOK,,,,,,,,VFR,,,,,,,,,,,,METAR,5.0
LGSK 230850Z 36004KT 9999 FEW018 22/16 Q1020,LGSK,2022-10-23T08:50:00Z,39.18,23.5,22.0,16.0,360,4,,6.21,30.11811,,,,,,,,,,,FEW,1800,,,,,,,VFR,,,,,,,,,,,,METAR,13.0
LGPA 230850Z VRB03KT CAVOK 21/15 Q1023,LGPA,2022-10-23T08:50:00Z,37.02,25.1,21.0,15.0,0,3,,6.21,30.206694,,,,,,,,,,,CAVOK,,,,,,,,VFR,,,,,,,,,,,,METAR,42.0
LGKZ 230850Z 00000KT CAVOK 20/07 Q1025,LGKZ,2022-10-23T08:50:00Z,40.28,21.83,20.0,7.0,0,0,,6.21,30.265747,,,,,,,,,,,CAVOK,,,,,,,,VFR,,,,,,,,,,,,METAR,615.0
LGKR 230850Z VRB03KT 9999 FEW018 21/17 Q1024 NOSIG,LGKR,2022-10-23T08:50:00Z,39.62,19.92,21.0,17.0,0,3,,6.21,30.236221,,,,,,TRUE,,,,,FEW,1800,,,,,,,VFR,,,,,,,,,,,,METAR,2.0
LGKF 230850Z 32008KT 9999 FEW020 23/18 Q1024,LGKF,2022-10-23T08:50:00Z,38.12,20.5,23.0,18.0,320,8,,6.21,30.236221,,,,,,,,,,,FEW,2000,,,,,,,VFR,,,,,,,,,,,,METAR,14.0
LGHI 230850Z VRB03KT CAVOK 20/14 Q1021,LGHI,2022-10-23T08:50:00Z,38.33,26.13,20.0,14.0,0,3,,6.21,30.147638,,,,,,,,,,,CAVOK,,,,,,,,VFR,,,,,,,,,,,,METAR,6.0
ESNG 230850Z AUTO 28014KT 9999 NCD 02/// Q1000,ESNG,2022-10-23T08:50:00Z,67.13,20.82,,,280,14,,6.21,29.52756,,,TRUE,,,,,,,,CLR,,,,,,,,VFR,,,,,,,,,,,,METAR,300.0
ENJS 230850Z 20015KT 9000 FEW040 12/11 Q1008 W11/S/,ENJS,2022-10-23T08:50:00Z,,,12.0,11.0,200,15,,5.59,29.763779,,,,,,,,,,,FEW,4000,,,,,,,VFR,,,,,,,,,,,,METAR,
EKVD 230850Z 21006KT 1500 BR BKN002 12/12 Q1014,EKVD,2022-10-23T08:50:00Z,55.43,9.32,12.0,12.0,210,6,,0.93,29.940945,,,,,,,,,,BR,BKN,200,,,,,,,LIFR,,,,,,,,,,,,METAR,41.0
EGYP 230850Z 35019KT CAVOK 05/04 Q1000,EGYP,2022-10-23T08:50:00Z,-51.82,-58.45,5.0,4.0,350,19,,6.21,29.52756,,,,,,,,,,,CAVOK,,,,,,,,VFR,,,,,,,,,,,,METAR,70.0
EGXW 230850Z AUTO 11010KT 5000 -RA OVC050/// 13/13 Q1003,EGXW,2022-10-23T08:50:00Z,53.18,-0.52,13.0,13.0,110,10,,3.11,29.616142,,,TRUE,,,,,,,-RA,OVC,5000,,,,,,,MVFR,,,,,,,,,,,,METAR,70.0
EGXS 230850Z AUTO 12012KT 6000 -RA BKN090/// 14/14 Q1004,EGXS,2022-10-23T08:50:00Z,53.48,0.15,14.0,14.0,120,12,,3.73,29.64567,,,TRUE,,,,,,,-RA,BKN,9000,,,,,,,MVFR,,,,,,,,,,,,METAR,6.0
EGXP 230850Z AUTO 12009KT 3300 // FEW004/// BKN050/// 13/13 Q1003,EGXP,2022-10-23T08:50:00Z,53.3,-0.55,13.0,13.0,120,9,,2.05,29.616142,,,TRUE,,,,,,,,FEW,400,BKN,5000,,,,,IFR,,,,,,,,,,,,METAR,58.0
EGWC 230850Z 11006KT 4000 +RA BKN010 14/13 Q1001 RMK GRN,EGWC,2022-10-23T08:50:00Z,52.63,-2.3,14.0,13.0,110,6,,2.49,29.557087,,,,,,,,,,+RA,BKN,1000,,,,,,,IFR,,,,,,,,,,,,METAR,79.0
EGUW 230850Z AUTO 15009KT 3500 RA BKN050/// 15/14 Q1004,EGUW,2022-10-23T08:50:00Z,52.12,0.97,15.0,14.0,150,9,,2.17,29.64567,,,TRUE,,,,,,,RA,BKN,5000,,,,,,,IFR,,,,,,,,,,,,METAR,86.0
EGQS 230850Z 15002KT 9999 FEW025 SCT080 09/09 Q1003 RMK BLU,EGQS,2022-10-23T08:50:00Z,57.72,-3.32,9.0,9.0,150,2,,6.21,29.616142,,,,,,,,,,,FEW,2500,SCT,8000,,,,,VFR,,,,,,,,,,,,METAR,6.0
EGQM 230850Z AUTO 17009KT 5000 OVC002/// 12/12 Q1004,EGQM,2022-10-23T08:50:00Z,55.42,-1.6,12.0,12.0,170,9,,3.11,29.64567,,,TRUE,,,,,,,,OVC,200,,,,,,,LIFR,,,,,,,,,,,,METAR,24.0
EGQL 230850Z 07005KT 9999 5000SW VCFG FEW004 BKN044 12/12 Q1004 RMK WHT,EGQL,2022-10-23T08:50:00Z,56.38,-2.87,12.0,12.0,70,5,,6.21,29.64567,,,,,,,,,,VCFG,FEW,400,BKN,4400,,,,,VFR,,,,,,,,,,,,METAR,11.0
BGSF 230850Z AUTO 04008KT 9999NDV OVC065/// 04/M01 Q0996,BGSF,2022-10-23T08:50:00Z,67.0,-50.72,4.0,-1.0,40,8,,,29.409449,,,TRUE,,,,,,,,OVC,6500,,,,,,,,,,,,,,,,,,,SPECI,75.0
BGKK 230850Z AUTO 12002KT 9999NDV FEW070/// BKN097/// M01/M02 Q1006,BGKK,2022-10-23T08:50:00Z,65.57,-37.13,-1.0,-2.0,120,2,,,29.704725,,,TRUE,,,,,,,,FEW,7000,BKN,9700,,,,,,,,,,,,,,,,,SPECI,37.0
BGJN 230850Z 10015KT 9999 FEW025 BKN050 04/M03 Q0996,BGJN,2022-10-23T08:50:00Z,69.25,-51.07,4.0,-3.0,100,15,,6.21,29.409449,,,,,,,,,,,FEW,2500,BKN,5000,,,,,VFR,,,,,,,,,,,,METAR,22.0
BGGH 230850Z AUTO 17026G36KT 4300NDV -SN OVC025/// 03/01 Q0997,BGGH,2022-10-23T08:50:00Z,64.2,-51.68,3.0,1.0,170,26,36,,29.438976,,,TRUE,,,,,,,-SN,OVC,2500,,,,,,,,,,,,,,,,,,,SPECI,76.0
BGBW 230850Z AUTO 25002KT 9999NDV -DZ BKN055/// 02/00 Q1005,BGBW,2022-10-23T08:50:00Z,61.17,-45.42,2.0,0.0,250,2,,,29.675198,,,TRUE,,,,,,,-DZ,BKN,5500,,,,,,,,,,,,,,,,,,,SPECI,49.0
MMUN 230849Z 31003KT 7SM SKC 17/16 A2995 RMK SLP142 57010 961 SC,MMUN,2022-10-23T08:49:00Z,21.03,-86.85,17.0,16.0,310,3,,7.0,29.949802,1014.2,,,,,,,,,,SKC,,,,,,,,VFR,-1.0,,,,,,,,,,,METAR,13.0
MMMM 230849Z 24009KT 7SM SCT030 SCT300 15/14 A3021 RMK SLP089 57001 907 8/508 HZY,MMMM,2022-10-23T08:49:00Z,19.85,-101.03,15.0,14.0,240,9,,7.0,30.209646,1008.9,,,,,,,,,,SCT,3000,SCT,30000,,,,,VFR,-0.1,,,,,,,,,,,METAR,1840.0
MMTO 230848Z 00000KT 4SM BKN015 OVC070 13/12 A3036 RMK SLP071 57004 955 8/43/ HZ BR BINOVC,MMTO,2022-10-23T08:48:00Z,19.35,-99.57,13.0,12.0,0,0,,4.0,30.360237,1007.1,,,,,,,,,,BKN,1500,OVC,7000,,,,,MVFR,-0.4,,,,,,,,,,,METAR,2582.0
MMAS 230848Z 15006KT 10SM BKN200 13/12 A3022 RMK SLP/// 8/008 ISOL AC,MMAS,2022-10-23T08:48:00Z,21.7,-102.32,13.0,12.0,150,6,,10.0,30.221457,,,,,,,,,,,BKN,20000,,,,,,,VFR,,,,,,,,,,,,METAR,1866.0
MMMD 230847Z 12003KT 7SM SKC 17/16 A2998 RMK SLP160 57005 956,MMMD,2022-10-23T08:47:00Z,20.95,-89.65,17.0,16.0,120,3,,7.0,29.97933,1016.0,,,,,,,,,,SKC,,,,,,,,VFR,-0.5,,,,,,,,,,,METAR,10.0
MMCZ 230846Z 00000KT 7SM SKC 20/18 A2994,MMCZ,2022-10-23T08:46:00Z,20.52,-86.92,20.0,18.0,0,0,,7.0,29.940945,,,,,,,,,,,SKC,,,,,,,,VFR,,,,,,,,,,,,METAR,7.0
MMAA 230846Z 00000KT 5SM FEW015 SCT300 25/24 A2988 RMK SLP118 57005 906 8/102 HZY DSNT CB SW,MMAA,2022-10-23T08:46:00Z,16.75,-99.75,25.0,24.0,0,0,,5.0,29.878937,1011.8,,,,,,,,,,FEW,1500,SCT,30000,,,,,MVFR,-0.5,,,,,,,,,,,METAR,5.0
MMMX 230845Z 29004KT 8SM SCT020 SCT100 BKN220 17/11 A3028 NOSIG RMK SLP065 57006 951 8/538 HZY,MMMX,2022-10-23T08:45:00Z,19.43,-99.08,17.0,11.0,290,4,,8.0,30.280512,1006.5,,,,,TRUE,,,,,SCT,2000,SCT,10000,BKN,22000,,,VFR,-0.6,,,,,,,,,,,METAR,2224.0
KSWF 230845Z 00000KT 7SM BKN120 06/05 A3030,KSWF,2022-10-23T08:45:00Z,41.5,-74.08,6.0,5.0,0,0,,7.0,30.301182,,,,,,,,,,,BKN,12000,,,,,,,VFR,,,,,,,,,,,,METAR,139.0
MMGL 230842Z 14007KT 8SM BKN020 OVC090 18/15 A3013 RMK SLP094 57010 904 8/57/,MMGL,2022-10-23T08:42:00Z,20.52,-103.32,18.0,15.0,140,7,,8.0,30.129921,1009.4,,,,,,,,,,BKN,2000,OVC,9000,,,,,MVFR,-1.0,,,,,,,,,,,METAR,1531.0
MMTP 230841Z 00000KT 8SM SCT100 24/24 A2987 RMK SLP141 57010 908 8/070,MMTP,2022-10-23T08:41:00Z,14.78,-92.37,24.0,24.0,0,0,,8.0,29.870079,1014.1,,,,,,,,,,SCT,10000,,,,,,,VFR,-1.0,,,,,,,,,,,METAR,27.0
MMQT 230841Z 32006KT 8SM BKN020 15/11 A3026 RMK 8/500,MMQT,2022-10-23T08:41:00Z,20.62,-100.18,15.0,11.0,320,6,,8.0,30.259842,,,,,,,,,,,BKN,2000,,,,,,,MVFR,,,,,,,,,,,,SPECI,1909.0
MMMZ 230841Z 00000KT 10SM SCT030 BKN080 OVC240 25/25 A2975 RMK SLP062 57010 990 8/477,MMMZ,2022-10-23T08:41:00Z,23.17,-106.27,25.0,25.0,0,0,,10.0,29.749016,1006.2,,,,,,,,,,SCT,3000,BKN,8000,OVC,24000,,,VFR,-1.0,,,,,,,,,,,METAR,7.0
MMZC 230840Z E15006KT 10SM SCT080 14/12 A3022 RMK 8/020,MMZC,2022-10-23T08:40:00Z,22.9,-102.68,14.0,12.0,150,6,,10.0,30.221457,,,,,,,,,,,SCT,8000,,,,,,,VFR,,,,,,,,,,,,METAR,2175.0
MMTJ 230840Z 00000KT 6SM BKN030 16/16 A2985 RMK SLP126 52004 951 8/500 HZY,MMTJ,2022-10-23T08:40:00Z,32.53,-116.97,16.0,16.0,0,0,,6.0,29.84941,1012.6,,,,,,,,,,BKN,3000,,,,,,,MVFR,0.4,,,,,,,,,,,METAR,150.0
MMMY 230840Z 06004KT 10SM SKC 18/18 A2984 RMK SLP/// 5//// 9//,MMMY,2022-10-23T08:40:00Z,25.77,-100.1,18.0,18.0,60,4,,10.0,29.840551,,,,,,,,,,,SKC,,,,,,,,VFR,,,,,,,,,,,,METAR,382.0
MMHO 230840Z 21005KT 10SM SCT080 24/17 A2982 RMK SLP091 54000 964 8/030 ISOL CI HZY,MMHO,2022-10-23T08:40:00Z,29.08,-111.05,24.0,17.0,210,5,,10.0,29.819881,1009.1,,,,,,,,,,SCT,8000,,,,,,,VFR,,,,,,,,,,,,METAR,186.0
KPKV 230840Z AUTO 18003KT 10SM CLR 21/18 A2989 RMK AO2 T02080180,KPKV,2022-10-23T08:40:00Z,28.65,-96.68,20.8,18.0,180,3,,10.0,29.890747,,,TRUE,TRUE,,,,,,,CLR,,,,,,,,VFR,,,,,,,,,,,,METAR,8.0
RKNF 230839Z 01007KT 9000 BR BKN020 02/02 A3017 RMK CIG020,RKNF,2022-10-23T08:39:00Z,37.75,128.67,2.0,2.0,10,7,,5.59,30.171259,,,,,,,,,,BR,BKN,2000,,,,,,,MVFR,,,,,,,,,,,,SPECI,1230.0
