No errors
No warnings
319 ms
data source=metars
4772 results
raw_text,station_id,observation_time,latitude,longitude,temp_c,dewpoint_c,wind_dir_degrees,wind_speed_kt,wind_gust_kt,visibility_statute_mi,altim_in_hg,sea_level_pressure_mb,corrected,auto,auto_station,maintenance_indicator_on,no_signal,lightning_sensor_off,freezing_rain_sensor_off,present_weather_sensor_off,wx_string,sky_cover,cloud_base_ft_agl,sky_cover,cloud_base_ft_agl,sky_cover,cloud_base_ft_agl,sky_cover,cloud_base_ft_agl,flight_category,three_hr_pressure_tendency_mb,maxT_c,minT_c,maxT24hr_c,minT24hr_c,precip_in,pcp3hr_in,pcp6hr_in,pcp24hr_in,snow_in,vert_vis_ft,metar_type,elevation_m
TJBQ 230050Z 10005KT 10SM SCT020 SCT026 SCT033 24/23 A2993,TJBQ,2022-10-23T00:50:00Z,18.5,-67.13,24.0,23.0,100,5,,10.0,29.929134,,,,,,,,,,,SCT,2000,SCT,2600,SCT,3300,,,VFR,,,,,,,,,,,,METAR,69.0
PGRO 230050Z 09015KT 7SM VCSH FEW014 SCT070 BKN100 28/25 A2984 RMK VCSH W,PGRO,2022-10-23T00:50:00Z,14.18,145.25,28.0,25.0,90,15,,7.0,29.840551,,,,,,,,,,VCSH,FEW,1400,SCT,7000,BKN,10000,,,VFR,,,,,,,,,,,,METAR,181.0
LATI 230050Z VRB02KT 7000 NSC 12/10 Q1024 NOSIG,LATI,2022-10-23T00:50:00Z,41.42,19.72,12.0,10.0,0,2,,4.35,30.236221,,,,,,TRUE,,,,,CLR,,,,,,,,MVFR,,,,,,,,,,,,METAR,32.0
KVQQ 230050Z 00000KT 10SM CLR 12/12 A3011,KVQQ,2022-10-23T00:50:00Z,30.22,-81.88,12.0,12.0,0,0,,10.0,30.109253,,,,,,,,,,,CLR,,,,,,,,VFR,,,,,,,,,,,,METAR,21.0
KJWN 230050Z 12003KT 10SM CLR 20/11 A3004,KJWN,2022-10-23T00:50:00Z,36.18,-86.88,20.0,11.0,120,3,,10.0,30.041338,,,,,,,,,,,CLR,,,,,,,,VFR,,,,,,,,,,,,METAR,149.0
KHXD 230050Z 00000KT 10SM CLR 16/12 A3013,KHXD,2022-10-23T00:50:00Z,32.22,-80.7,16.0,12.0,0,0,,10.0,30.129921,,,,,,,,,,,CLR,,,,,,,,VFR,,,,,,,,,,,,METAR,5.0
KHSA 230050Z 00000KT 10SM CLR 14/13 A3006,KHSA,2022-10-23T00:50:00Z,30.37,-89.45,14.0,13.0,0,0,,10.0,30.059055,,,,,,,,,,,CLR,,,,,,,,VFR,,,,,,,,,,,,METAR,6.0
PATE 230049Z AUTO 16017KT 1 1/4SM -SN BR SCT014 BKN022 OVC038 01/M01 A2973 RMK AO2 UPE00RAB23E37SNB37 P0000 FZRANO,PATE,2022-10-23T00:49:00Z,65.23,-166.33,1.0,-1.0,160,17,,1.25,29.731298,,,TRUE,TRUE,,,,TRUE,,-SN BR,SCT,1400,BKN,2200,OVC,3800,,,IFR,,,,,,0.005,,,,,,SPECI,93.0
CYBU 230049Z AUTO 01008KT 6SM HZ CLR 00/M06 A2980 RMK ICE SLP112,CYBU,2022-10-23T00:49:00Z,53.32,-104.0,0.0,-6.0,10,8,,6.0,29.799213,1011.2,,TRUE,,,,,,,HZ,CLR,,,,,,,,VFR,,,,,,,,,,,,SPECI,369.0
UMMS 230048Z VRB01MPS 2900 -SHRA BR BKN003 OVC016CB 05/05 Q1011 NOSIG RMK QBB090,UMMS,2022-10-23T00:48:00Z,53.88,28.03,5.0,5.0,0,2,,1.8,29.852362,,,,,,TRUE,,,,-SHRA BR,BKN,300,OVC,1600,,,,,LIFR,,,,,,,,,,,,METAR,196.0
SASJ 230048Z 21008KT 5000 RA SCT040 OVC060 22/11 Q1020,SASJ,2022-10-23T00:48:00Z,-24.38,-65.1,22.0,11.0,210,8,,3.11,30.11811,,,,,,,,,,RA,SCT,4000,OVC,6000,,,,,MVFR,,,,,,,,,,,,METAR,913.0
PATA 230048Z 00000KT 10SM BKN013 BKN020 OVC050 01/M01 A2992 RMK AO2 CLDS OBSCG MTN TOPS NW-E $,PATA,2022-10-23T00:48:00Z,65.17,-152.1,1.0,-1.0,0,0,,10.0,29.920275,,,,TRUE,TRUE,,,,,,BKN,1300,BKN,2000,OVC,5000,,,MVFR,,,,,,,,,,,,SPECI,62.0
PARY 230048Z AUTO 00000KT 1/2SM FZFG OVC029 M01/M02 A2989 RMK AO2 FZRANO,PARY,2022-10-23T00:48:00Z,64.73,-155.47,-1.0,-2.0,0,0,,0.5,29.890747,,,TRUE,TRUE,,,,TRUE,,FZFG,OVC,2900,,,,,,,LIFR,,,,,,,,,,,,SPECI,185.0
KSCH 230048Z 00000KT 15SM SKC 11/04 A3026 RMK LAST,KSCH,2022-10-23T00:48:00Z,42.85,-73.92,11.0,4.0,0,0,,15.0,30.259842,,,,,,,,,,,SKC,,,,,,,,VFR,,,,,,,,,,,,SPECI,100.0
KDLN 230048Z AUTO 05010KT 3SM -SN BR FEW007 OVC014 00/00 A2947 RMK AO2 P0002,KDLN,2022-10-23T00:48:00Z,45.25,-112.55,0.0,0.0,50,10,,3.0,29.471457,,,TRUE,TRUE,,,,,,-SN BR,FEW,700,OVC,1400,,,,,MVFR,,,,,,0.02,,,,,,SPECI,1586.0
KASG 230048Z 16009G16KT 10SM CLR 22/15 A2977,KASG,2022-10-23T00:48:00Z,36.17,-94.12,22.0,15.0,160,9,16,10.0,29.769686,,,,,,,,,,,CLR,,,,,,,,VFR,,,,,,,,,,,,METAR,410.0
KAEG 230048Z 20015KT 10SM BKN085 BKN110 19/05 A2977,KAEG,2022-10-23T00:48:00Z,35.13,-106.8,19.0,5.0,200,15,,10.0,29.769686,,,,,,,,,,,BKN,8500,BKN,11000,,,,,VFR,,,,,,,,,,,,METAR,1771.0
CYPD 230048Z AUTO VRB02KT 9SM SCT007 11/10 A3032 RMK SLP274,CYPD,2022-10-23T00:48:00Z,45.67,-61.37,11.0,10.0,0,2,,9.0,30.318897,1027.4,,TRUE,,,,,,,,SCT,700,,,,,,,VFR,,,,,,,,,,,,SPECI,106.0
PAKU 230047Z 11015KT 7SM R06/P6000FT SCT008 BKN055 M04/M05 A2996,PAKU,2022-10-23T00:47:00Z,70.32,-149.6,-4.0,-5.0,110,15,,7.0,29.958662,,,,,,,,,,,SCT,800,BKN,5500,,,,,VFR,,,,,,,,,,,,METAR,23.0
PAIK 230047Z AUTO 09007KT 10SM SCT009 OVC024 00/M01 A2989 RMK AO2 RAB2357E14UPB06E29SNB14E25 P0000 FZRANO,PAIK,2022-10-23T00:47:00Z,66.98,-160.43,0.0,-1.0,90,7,,10.0,29.890747,,,TRUE,TRUE,,,,TRUE,,,SCT,900,OVC,2400,,,,,MVFR,,,,,,0.005,,,,,,SPECI,49.0
KTIX 230047Z 35007KT 7SM CLR 23/19 A3006,KTIX,2022-10-23T00:47:00Z,28.5,-80.8,23.0,19.0,350,7,,7.0,30.059055,,,,,,,,,,,CLR,,,,,,,,VFR,,,,,,,,,,,,METAR,10.0
KSUA 230047Z 01005KT 10SM CLR 24/18 A3003,KSUA,2022-10-23T00:47:00Z,27.18,-80.22,24.0,18.0,10,5,,10.0,30.029528,,,,,,,,,,,CLR,,,,,,,,VFR,,,,,,,,,,,,METAR,4.0
KSQL 230047Z 28018G25KT 10SM FEW025 BKN150 17/05 A2976,KSQL,2022-10-23T00:47:00Z,37.52,-122.25,17.0,5.0,280,18,25,10.0,29.760826,,,,,,,,,,,FEW,2500,BKN,15000,,,,,VFR,,,,,,,,,,,,METAR,1.0
KSAW 230047Z 17008KT 10SM CLR 10/09 A2976,KSAW,2022-10-23T00:47:00Z,46.35,-87.4,10.0,9.0,170,8,,10.0,29.760826,,,,,,,,,,,CLR,,,,,,,,VFR,,,,,,,,,,,,METAR,359.0
KOXR 230047Z 25009KT 10SM BKN014 OVC038 18/15 A2973 RMK AO2,KOXR,2022-10-23T00:47:00Z,34.2,-119.2,18.0,15.0,250,9,,10.0,29.731298,,,,TRUE,,,,,,,BKN,1400,OVC,3800,,,,,MVFR,,,,,,,,,,,,SPECI,12.0
KLBE 230047Z 00000KT 20SM CLR 13/03 A3018,KLBE,2022-10-23T00:47:00Z,40.27,-79.4,13.0,3.0,0,0,,20.0,30.180119,,,,,,,,,,,CLR,,,,,,,,VFR,,,,,,,,,,,,METAR,345.0
KGYR 230047Z 24015KT 10SM SCT080 27/13 A2961,KGYR,2022-10-23T00:47:00Z,33.42,-112.37,27.0,13.0,240,15,,10.0,29.610237,,,,,,,,,,,SCT,8000,,,,,,,VFR,,,,,,,,,,,,METAR,292.0
KEVB 230047Z 01015KT 10SM SCT020 22/18 A3006,KEVB,2022-10-23T00:47:00Z,29.05,-80.95,22.0,18.0,10,15,,10.0,30.059055,,,,,,,,,,,SCT,2000,,,,,,,VFR,,,,,,,,,,,,METAR,2.0
KCWF 230047Z 16008KT 10SM CLR 19/16 A2998,KCWF,2022-10-23T00:47:00Z,30.22,-93.15,19.0,16.0,160,8,,10.0,29.97933,,,,,,,,,,,CLR,,,,,,,,VFR,,,,,,,,,,,,METAR,4.0
KCWA 230047Z 13005KT 10SM CLR 17/08 A2973,KCWA,2022-10-23T00:47:00Z,44.78,-89.67,17.0,8.0,130,5,,10.0,29.731298,,,,,,,,,,,CLR,,,,,,,,VFR,,,,,,,,,,,,METAR,387.0
KCQT 230047Z AUTO 00000KT 10SM OVC035 18/13 A2974 RMK AO2 SLP070 T01830128,KCQT,2022-10-23T00:47:00Z,34.02,-118.28,18.3,12.8,0,0,,10.0,29.740158,1007.0,,TRUE,TRUE,,,,,,,OVC,3500,,,,,,,VFR,,,,,,,,,,,,SPECI,51.0
KCIC 230047Z 31012KT 10SM CLR 20/M07 A2972,KCIC,2022-10-23T00:47:00Z,39.78,-121.85,20.0,-7.0,310,12,,10.0,29.719488,,,,,,,,,,,CLR,,,,,,,,VFR,,,,,,,,,,,,METAR,72.0
KADS 230047Z 17012G27KT 13SM SKC 27/13 A2975,KADS,2022-10-23T00:47:00Z,32.97,-96.83,27.0,13.0,170,12,27,13.0,29.749016,,,,,,,,,,,SKC,,,,,,,,VFR,,,,,,,,,,,,METAR,198.0
CYUX 230047Z AUTO 31011KT 2 1/4SM -SN BKN012 OVC023 M03/ A2933 RMK DP MISG SLP934,CYUX,2022-10-23T00:47:00Z,68.77,-81.22,-3.0,,310,11,,2.25,29.329725,993.4,,TRUE,,,,,,,-SN,BKN,1200,OVC,2300,,,,,IFR,,,,,,,,,,,,SPECI,8.0
CWPX 230047Z AUTO 30017KT ////SM //// FEW003 OVC028 M17/M19 A2983,CWPX,2022-10-23T00:47:00Z,69.03,-107.82,-17.0,-19.0,300,17,,,29.828741,,,TRUE,,,,,,,,FEW,300,OVC,2800,,,,,,,,,,,,,,,,,SPECI,163.0
YPXM 230046Z AUTO 12006KT 9999 // BKN005 BKN100 25/25 Q1014,YPXM,2022-10-23T00:46:00Z,-10.45,105.68,25.0,25.0,120,6,,6.21,29.940945,,,TRUE,,,,,,,,BKN,500,BKN,10000,,,,,IFR,,,,,,,,,,,,SPECI,262.0
PFKT 230046Z AUTO 17015KT 10SM -RA FEW012 BKN023 OVC033 02/00 A2976 RMK AO2 UPB09E40RAB40 P0000 FZRANO,PFKT,2022-10-23T00:46:00Z,65.33,-166.47,2.0,0.0,170,15,,10.0,29.760826,,,TRUE,TRUE,,,,TRUE,,-RA,FEW,1200,BKN,2300,OVC,3300,,,MVFR,,,,,,0.005,,,,,,SPECI,8.0
KRBG 230046Z AUTO 02010G19KT 1 3/4SM +RA SCT014 BKN033 OVC100 09/06 A2992 RMK AO2 RAB42 P0011 T00890061,KRBG,2022-10-23T00:46:00Z,43.23,-123.35,8.9,6.1,20,10,19,1.75,29.920275,,,TRUE,TRUE,,,,,,+RA,SCT,1400,BKN,3300,OVC,10000,,,IFR,,,,,,0.11,,,,,,SPECI,152.0
KNRS 230046Z AUTO 22004KT 10SM BKN024 OVC041 19/13 A2980 RMK AO2 T01890133 $,KNRS,2022-10-23T00:46:00Z,32.57,-117.12,18.9,13.3,220,4,,10.0,29.799213,,,TRUE,TRUE,TRUE,,,,,,BKN,2400,OVC,4100,,,,,MVFR,,,,,,,,,,,,SPECI,15.0
TJNR 230045Z AUTO 33004KT 10SM BKN022 BKN029 26/23 A2994 RMK AO2 T02610233,TJNR,2022-10-23T00:45:00Z,18.25,-65.63,26.1,23.3,330,4,,10.0,29.940945,,,TRUE,TRUE,,,,,,,BKN,2200,BKN,2900,,,,,MVFR,,,,,,,,,,,,METAR,7.0
PFWS 230045Z AUTO 35012KT 10SM SCT006 SCT025 02/01 A2980 RMK AO2 FZRANO,PFWS,2022-10-23T00:45:00Z,58.7,-157.0,2.0,1.0,350,12,,10.0,29.799213,,,TRUE,TRUE,,,,TRUE,,,SCT,600,SCT,2500,,,,,VFR,,,,,,,,,,,,METAR,40.0
PALP 230045Z 10012KT 10SM SCT036 BKN048 M05/M07 A2996,PALP,2022-10-23T00:45:00Z,70.33,-150.93,-5.0,-7.0,100,12,,10.0,29.958662,,,,,,,,,,,SCT,3600,BKN,4800,,,,,VFR,,,,,,,,,,,,METAR,4.0
KSXT 230045Z AUTO 34003KT 1/4SM -RA FG FEW002 SCT009 OVC014 02/01 A2987 RMK AO2 RAB26 P0000 T00170011,KSXT,2022-10-23T00:45:00Z,42.6,-123.37,1.7,1.1,340,3,,0.25,29.870079,,,TRUE,TRUE,,,,,,-RA FG,FEW,200,SCT,900,OVC,1400,,,LIFR,,,,,,0.005,,,,,,METAR,1151.0
KS71 230045Z AUTO 07010KT 7SM A2955 ,KS71,2022-10-23T00:45:00Z,48.6,-109.25,,,70,10,,7.0,29.551182,,,TRUE,,,,,,,,,,,,,,,,,,,,,,,,,,,,METAR,736.0
KS59 230045Z AUTO 00000KT 10SM 04/04 A2960 ,KS59,2022-10-23T00:45:00Z,48.28,-115.48,4.0,4.0,0,0,,10.0,29.601377,,,TRUE,,,,,,,,,,,,,,,,,,,,,,,,,,,,METAR,793.0
KOUN 230045Z 16015G22KT 10SM CLR 27/12 A2959,KOUN,2022-10-23T00:45:00Z,35.25,-97.47,27.0,12.0,160,15,22,10.0,29.589567,,,,,,,,,,,CLR,,,,,,,,VFR,,,,,,,,,,,,METAR,359.0
KNFL 230045Z AUTO 00000KT 10SM FEW120 08/M01 A2970 RMK AO2 T00831006,KNFL,2022-10-23T00:45:00Z,39.42,-118.7,8.3,-0.6,0,0,,10.0,29.698818,,,TRUE,TRUE,,,,,,,FEW,12000,,,,,,,VFR,,,,,,,,,,,,SPECI,1199.0
KMHR 230045Z E33009G15KT 10SM FEW036 SCT250 22/M07 A2968,KMHR,2022-10-23T00:45:00Z,38.55,-121.28,22.0,-7.0,330,9,15,10.0,29.681103,,,,,,,,,,,FEW,3600,SCT,25000,,,,,VFR,,,,,,,,,,,,METAR,30.0
KLSV 230045Z AUTO 23032G45KT 2 3/4SM HZ CLR 26/03 A2934 RMK AO2 VIS 2 1/2V4 SLP915,KLSV,2022-10-23T00:45:00Z,36.23,-115.05,26.0,3.0,230,32,45,2.75,29.338583,991.5,,TRUE,TRUE,,,,,,HZ,CLR,,,,,,,,IFR,,,,,,,,,,,,SPECI,563.0
KHRF 230045Z AUTO 00000KT 10SM OVC060 05/02 A2959 RMK AO2 Hamilton ,KHRF,2022-10-23T00:45:00Z,46.25,-114.13,5.0,2.0,0,0,,10.0,29.589567,,,TRUE,TRUE,,,,,,,OVC,6000,,,,,,,VFR,,,,,,,,,,,,METAR,1112.0
KESN 230045Z 00000KT 10SM CLR 13/08 A3029,KESN,2022-10-23T00:45:00Z,38.8,-76.07,13.0,8.0,0,0,,10.0,30.28937,,,,,,,,,,,CLR,,,,,,,,VFR,,,,,,,,,,,,METAR,14.0
KEMT 230045Z 19010KT 10SM BKN034 BKN046 19/12 A2974,KEMT,2022-10-23T00:45:00Z,34.08,-118.03,19.0,12.0,190,10,,10.0,29.740158,,,,,,,,,,,BKN,3400,BKN,4600,,,,,VFR,,,,,,,,,,,,METAR,84.0
KCGF 230045Z 17007KT 10SM CLR 18/09 A3011,KCGF,2022-10-23T00:45:00Z,41.57,-81.47,18.0,9.0,170,7,,10.0,30.109253,,,,,,,,,,,CLR,,,,,,,,VFR,,,,,,,,,,,,METAR,265.0
KBJC 230045Z 00000KT 10SM FEW150 20/M09 A2947,KBJC,2022-10-23T00:45:00Z,39.9,-105.1,20.0,-9.0,0,0,,10.0,29.471457,,,,,,,,,,,FEW,15000,,,,,,,VFR,,,,,,,,,,,,METAR,1694.0
KBBG 230045Z 18006KT 10SM CLR 20/12 A2981,KBBG,2022-10-23T00:45:00Z,36.53,-93.2,20.0,12.0,180,6,,10.0,29.811024,,,,,,,,,,,CLR,,,,,,,,VFR,,,,,,,,,,,,METAR,403.0
KBAK 230045Z 16007KT 10SM SCT060 18/09 A3002,KBAK,2022-10-23T00:45:00Z,39.27,-85.9,18.0,9.0,160,7,,10.0,30.02067,,,,,,,,,,,SCT,6000,,,,,,,VFR,,,,,,,,,,,,METAR,199.0
KATW 230045Z 13004KT 10SM CLR 14/09 A2975,KATW,2022-10-23T00:45:00Z,44.27,-88.52,14.0,9.0,130,4,,10.0,29.749016,,,,,,,,,,,CLR,,,,,,,,VFR,,,,,,,,,,,,METAR,266.0
K79S 230045Z AUTO 28007KT 03/02 A2955 ,K79S,2022-10-23T00:45:00Z,47.85,-110.63,3.0,2.0,280,7,,,29.551182,,,TRUE,,,,,,,,,,,,,,,,,,,,,,,,,,,,METAR,874.0
K3U3 230045Z AUTO 00000KT 1 3/4SM 01/00 A2955 ,K3U3,2022-10-23T00:45:00Z,46.15,-112.87,1.0,0.0,0,0,,1.75,29.551182,,,TRUE,,,,,,,,,,,,,,,,,,,,,,,,,,,,METAR,1534.0
K38S 230045Z AUTO 35008G16KT 10SM 02/00 A2957 ,K38S,2022-10-23T00:45:00Z,46.38,-112.77,2.0,0.0,350,8,16,10.0,29.568897,,,TRUE,,,,,,,,,,,,,,,,,,,,,,,,,,,,METAR,1430.0
K1S3 230045Z AUTO 01005KT 10SM 11/05 A2938 ,K1S3,2022-10-23T00:45:00Z,46.27,-106.62,11.0,5.0,10,5,,10.0,29.379921,,,TRUE,,,,,,,,,,,,,,,,,,,,,,,,,,,,METAR,831.0
GMME 230045Z 00000KT 3000 BR NSC 14/14 Q1016 NOSIG M2,GMME,2022-10-23T00:45:00Z,34.05,-6.77,14.0,14.0,0,0,,1.86,30.0,,,,,,TRUE,,,,BR,CLR,,,,,,,,IFR,,,,,,,,,,,,METAR,84.0
CYSC 230045Z AUTO 00000KT 6SM HZ 09/04 A3022 RMK CLD MISG SLP241,CYSC,2022-10-23T00:45:00Z,45.43,-71.68,9.0,4.0,0,0,,6.0,30.221457,1024.1,,TRUE,,,,,,,HZ,,,,,,,,,,,,,,,,,,,,,SPECI,236.0
CWPF 230045Z AUTO 03001KT 09/07 RMK AO1 SLP091 T00920070 51013,CWPF,2022-10-23T00:45:00Z,48.43,-123.43,9.2,7.0,30,1,,,,1009.1,,TRUE,TRUE,,,,,,,,,,,,,,,,1.3,,,,,,,,,,,METAR,5.0
RJKN 230044Z AUTO 05007KT 9999 -RA BKN012 BKN019 OVC049 25/24 Q1013 RMK A2991,RJKN,2022-10-23T00:44:00Z,27.82,128.87,25.0,24.0,50,7,,6.21,29.911417,,,TRUE,,,,,,,-RA,BKN,1200,BKN,1900,OVC,4900,,,MVFR,,,,,,,,,,,,METAR,4.0
PAFM 230044Z AUTO 13006KT 10SM UP SCT021 OVC055 00/M01 A2994 RMK AO2 UPB41 P0000 FZRANO,PAFM,2022-10-23T00:44:00Z,67.1,-157.85,0.0,-1.0,130,6,,10.0,29.940945,,,TRUE,TRUE,,,,TRUE,,UP,SCT,2100,OVC,5500,,,,,VFR,,,,,,0.005,,,,,,METAR,79.0
KLWT 230044Z AUTO 27008KT 5SM -RA BR BKN003 OVC011 02/02 A2945 RMK AO2 P0003 T00220017,KLWT,2022-10-23T00:44:00Z,47.05,-109.47,2.2,1.7,270,8,,5.0,29.450787,,,TRUE,TRUE,,,,,,-RA BR,BKN,300,OVC,1100,,,,,LIFR,,,,,,0.03,,,,,,SPECI,1254.0
KHLN 230044Z 32005KT 8SM -RA BKN015 OVC022 03/01 A2952 RMK AO2 P0005 T00330011,KHLN,2022-10-23T00:44:00Z,46.6,-111.98,3.3,1.1,320,5,,8.0,29.518702,,,,TRUE,,,,,,-RA,BKN,1500,OVC,2200,,,,,MVFR,,,,,,0.05,,,,,,SPECI,1178.0
EKKA 230044Z AUTO 20004KT 8000 BKN023/// 10/10 Q1012,EKKA,2022-10-23T00:44:00Z,56.3,9.12,10.0,10.0,200,4,,4.97,29.88189,,,TRUE,,,,,,,,BKN,2300,,,,,,,MVFR,,,,,,,,,,,,SPECI,50.0
CYZH 230044Z AUTO 24005KT 9SM FEW022 SCT027 BKN035 OVC044 04/01 A2980 RMK SLP116,CYZH,2022-10-23T00:44:00Z,55.28,-114.77,4.0,1.0,240,5,,9.0,29.799213,1011.6,,TRUE,,,,,,,,FEW,2200,SCT,2700,BKN,3500,OVC,4400,VFR,,,,,,,,,,,,SPECI,583.0
CYPX 230044Z AUTO 25016G22KT 9SM SCT015 BKN020 OVC150 01/M00 A2947 RMK SLP982,CYPX,2022-10-23T00:44:00Z,60.03,-77.27,1.0,0.0,250,16,22,9.0,29.471457,998.2,,TRUE,,,,,,,,SCT,1500,BKN,2000,OVC,15000,,,MVFR,,,,,,,,,,,,SPECI,10.0
ROMD 230043Z AUTO 26007KT 9999 BKN009 BKN021 BKN027 //////CB 28/27 Q1012 RMK A2990 CB 40KM NE MOV UNKNOWN,ROMD,2022-10-23T00:43:00Z,25.83,131.25,28.0,27.0,260,7,,6.21,29.88189,,,TRUE,,,,,,,,BKN,900,BKN,2100,BKN,2700,,,IFR,,,,,,,,,,,,SPECI,45.0
KW99 230043Z AUTO 00000KT 10SM CLR 09/04 A3022 RMK AO2,KW99,2022-10-23T00:43:00Z,39.0,-79.15,9.0,4.0,0,0,,10.0,30.221457,,,TRUE,TRUE,,,,,,,CLR,,,,,,,,VFR,,,,,,,,,,,,METAR,288.0
KSLI 230043Z AUTO 20009KT 10SM -RA FEW003 BKN008 OVC015 17/16 A2973 RMK AO2 RAB10E29DZB29E30RAB30E31RAB41 CIG 008V012 SLP070 $,KSLI,2022-10-23T00:43:00Z,33.78,-118.03,17.0,16.0,200,9,,10.0,29.731298,1007.0,,TRUE,TRUE,TRUE,,,,,-RA,FEW,300,BKN,800,OVC,1500,,,IFR,,,,,,,,,,,,SPECI,8.0
KROS 230043Z AUTO 00000KT 10SM SCT095 20/07 A2956 RMK AO2,KROS,2022-10-23T00:43:00Z,45.7,-92.95,20.0,7.0,0,0,,10.0,29.56004,,,TRUE,TRUE,,,,,,,SCT,9500,,,,,,,VFR,,,,,,,,,,,,METAR,282.0
KRKD 230043Z AUTO 25003KT 3SM BR CLR 08/08 A3031 RMK AO2,KRKD,2022-10-23T00:43:00Z,44.07,-69.1,8.0,8.0,250,3,,3.0,30.31004,,,TRUE,TRUE,,,,,,BR,CLR,,,,,,,,MVFR,,,,,,,,,,,,SPECI,15.0
KM19 230043Z AUTO 16013KT 1SM HZ BKN002 22/12 A2988 RMK AO2 PNO $,KM19,2022-10-23T00:43:00Z,35.65,-91.17,22.0,12.0,160,13,,1.0,29.878937,,,TRUE,TRUE,TRUE,,,,,HZ,BKN,200,,,,,,,LIFR,,,,,,,,,,,,METAR,72.0
KLGU 230043Z AUTO 23004KT 8SM -RA FEW004 BKN031 01/01 A2962 RMK AO2 RAB36SNE36 P0005 T00060006,KLGU,2022-10-23T00:43:00Z,41.78,-111.85,0.6,0.6,230,4,,8.0,29.619095,,,TRUE,TRUE,,,,,,-RA,FEW,400,BKN,3100,,,,,VFR,,,,,,0.05,,,,,,SPECI,1359.0
KBNO 230043Z AUTO 33010KT 10SM FEW021 BKN030 OVC038 04/M01 A2971 RMK AO2 T00391011 $,KBNO,2022-10-23T00:43:00Z,43.6,-118.95,3.9,-1.1,330,10,,10.0,29.71063,,,TRUE,TRUE,TRUE,,,,,,FEW,2100,BKN,3000,OVC,3800,,,MVFR,,,,,,,,,,,,SPECI,1263.0
CYOJ 230043Z 36010KT 2SM -SN BKN015 OVC029 M02/M02 A2994 RMK SC5SC3 SLP163,CYOJ,2022-10-23T00:43:00Z,58.62,-117.17,-2.0,-2.0,360,10,,2.0,29.940945,1016.3,,,,,,,,,-SN,BKN,1500,OVC,2900,,,,,IFR,,,,,,,,,,,,SPECI,339.0
CYBQ 230043Z AUTO /////KT 9SM -SN OVC066 M03/M05 A2985 RMK WIND MISG SLP129,CYBQ,2022-10-23T00:43:00Z,58.7,-98.5,-3.0,-5.0,,,,9.0,29.84941,1012.9,,TRUE,,,,,,,-SN,OVC,6600,,,,,,,VFR,,,,,,,,,,,,SPECI,272.0
PHNG 230042Z AUTO 08009KT 10SM SCT027 A2996 RMK AO2,PHNG,2022-10-23T00:42:00Z,21.43,-157.77,,,80,9,,10.0,29.958662,,,TRUE,TRUE,,,,,,,SCT,2700,,,,,,,VFR,,,,,,,,,,,,METAR,1.0
LTCD 230042Z VRB01KT 9999 1200S R28/1200U R10/P1500N BR NSC 01/01 Q1025 NOSIG RMK RWY10 00000KT,LTCD,2022-10-23T00:42:00Z,39.72,39.52,1.0,1.0,0,1,,6.21,30.265747,,,,,,TRUE,,,,BR,CLR,,,,,,,,VFR,,,,,,,,,,,,SPECI,1146.0
KLFI 230042Z 05010KT 1 6SM BR CLR 14/13 A3020 RMK SLP233 $,KLFI,2022-10-23T00:42:00Z,37.08,-76.33,14.0,13.0,50,10,,6.0,30.200787,1023.3,,,,TRUE,,,,,BR,CLR,,,,,,,,VFR,,,,,,,,,,,,SPECI,2.0
KCTB 230042Z AUTO 36013KT 1 3/4SM -SN BR BKN005 OVC009 00/00 A2957 RMK AO2 P0001 T00000000,KCTB,2022-10-23T00:42:00Z,48.6,-112.37,0.0,0.0,360,13,,1.75,29.568897,,,TRUE,TRUE,,,,,,-SN BR,BKN,500,OVC,900,,,,,IFR,,,,,,0.01,,,,,,SPECI,1172.0
YSCB 230041Z AUTO 18005KT 130V210 9999 // OVC024 17/13 Q1015,YSCB,2022-10-23T00:41:00Z,-35.3,149.18,17.0,13.0,180,5,,6.21,29.970472,,,TRUE,,,,,,,,OVC,2400,,,,,,,MVFR,,,,,,,,,,,,SPECI,577.0
YLHI 230041Z AUTO 07021KT 8000 // SCT021 BKN046 BKN062 20/17 Q1018,YLHI,2022-10-23T00:41:00Z,-31.53,159.07,20.0,17.0,70,21,,4.97,30.059055,,,TRUE,,,,,,,,SCT,2100,BKN,4600,BKN,6200,,,MVFR,,,,,,,,,,,,SPECI,2.0
PAUN 230041Z AUTO 13005KT 10SM SCT018 BKN039 03/01 A2991 RMK AO2 RAB2359E11SNE2359 P0000,PAUN,2022-10-23T00:41:00Z,63.88,-160.8,3.0,1.0,130,5,,10.0,29.911417,,,TRUE,TRUE,,,,,,,SCT,1800,BKN,3900,,,,,VFR,,,,,,0.005,,,,,,SPECI,4.0
KHVR 230041Z AUTO 06014KT -RA FEW009 BKN022 OVC031 06/04 A2952 RMK AO2 P0004 T00560044 $,KHVR,2022-10-23T00:41:00Z,48.55,-109.77,5.6,4.4,60,14,,,29.518702,,,TRUE,TRUE,TRUE,,,,,-RA,FEW,900,BKN,2200,OVC,3100,,,,,,,,,0.04,,,,,,SPECI,789.0
KEVM 230041Z AUTO 10005KT 10SM CLR 12/03 A2964 RMK AO2,KEVM,2022-10-23T00:41:00Z,47.42,-92.5,12.0,3.0,100,5,,10.0,29.639763,,,TRUE,TRUE,,,,,,,CLR,,,,,,,,VFR,,,,,,,,,,,,METAR,419.0
CYYE 230041Z 34004KT 20SM BKN027 BKN086 M01/M05 A3000 RMK SC5AC2 SLP185,CYYE,2022-10-23T00:41:00Z,58.83,-122.58,-1.0,-5.0,340,4,,20.0,30.0,1018.5,,,,,,,,,,BKN,2700,BKN,8600,,,,,MVFR,,,,,,,,,,,,SPECI,379.0
YSNF 230040Z AUTO 07019G29KT 9999 // SCT020 BKN024 22/16 Q1023,YSNF,2022-10-23T00:40:00Z,-29.03,167.93,22.0,16.0,70,19,29,6.21,30.206694,,,TRUE,,,,,,,,SCT,2000,BKN,2400,,,,,MVFR,,,,,,,,,,,,SPECI,113.0
PKWA 230040Z AUTO 14005KT 5SM RA SCT011 BKN075 OVC090 25/23 A2982 RMK AO2 P0009 T02490233,PKWA,2022-10-23T00:40:00Z,8.72,167.72,24.9,23.3,140,5,,5.0,29.819881,,,TRUE,TRUE,,,,,,RA,SCT,1100,BKN,7500,OVC,9000,,,MVFR,,,,,,0.09,,,,,,SPECI,6.0
KVOA 230040Z AUTO 10010KT 10SM FEW029 FEW036 BKN044 22/12 A3009 RMK A01,KVOA,2022-10-23T00:40:00Z,29.23,-87.78,22.0,12.0,100,10,,10.0,30.088583,,,TRUE,TRUE,,,,,,,FEW,2900,FEW,3600,BKN,4400,,,VFR,,,,,,,,,,,,METAR,53.0
KS85 230040Z AUTO 07009KT 10SM OVC075 08/06 A2950 RMK A01 Culbertson ,KS85,2022-10-23T00:40:00Z,48.15,-104.5,8.0,6.0,70,9,,10.0,29.500984,,,TRUE,TRUE,,,,,,,OVC,7500,,,,,,,VFR,,,,,,,,,,,,METAR,596.0
KQEW 230040Z AUTO 25003KT 9999 // CLR 16/11 A3009 RMK A02 TSNO,KQEW,2022-10-23T00:40:00Z,,,16.0,11.0,250,3,,6.21,30.088583,,,TRUE,TRUE,,,TRUE,,,,CLR,,,,,,,,VFR,,,,,,,,,,,,METAR,
KQEQ 230040Z AUTO 01005KT 9999 CLR 12/09 A3018 RMK A02 TSNO,KQEQ,2022-10-23T00:40:00Z,,,12.0,9.0,10,5,,6.21,30.180119,,,TRUE,TRUE,,,TRUE,,,,CLR,,,,,,,,VFR,,,,,,,,,,,,METAR,
KQEP 230040Z AUTO 33002KT 6000 HZ OVC017 14/11 A3014 RMK A02 TSNO,KQEP,2022-10-23T00:40:00Z,,,14.0,11.0,330,2,,3.73,30.138779,,,TRUE,TRUE,,,TRUE,,,HZ,OVC,1700,,,,,,,MVFR,,,,,,,,,,,,METAR,
KQEN 230040Z AUTO 10003KT M0400 -RA FG CLR / / RMK A02 TSNO,KQEN,2022-10-23T00:40:00Z,,,,,100,3,,0.25,,,,TRUE,TRUE,,,TRUE,,,-RA FG,CLR,,,,,,,,LIFR,,,,,,,,,,,,METAR,
KQEI 230040Z AUTO 28002KT 9999 FEW024 BKN030 12/10 A3011 RMK A02 TSNO,KQEI,2022-10-23T00:40:00Z,,,12.0,10.0,280,2,,6.21,30.109253,,,TRUE,TRUE,,,TRUE,,,,FEW,2400,BKN,3000,,,,,MVFR,,,,,,,,,,,,METAR,
KPKV 230040Z AUTO 16008KT 10SM CLR 25/18 A2991 RMK AO2 T02500175,KPKV,2022-10-23T00:40:00Z,28.65,-96.68,25.0,17.5,160,8,,10.0,29.911417,,,TRUE,TRUE,,,,,,,CLR,,,,,,,,VFR,,,,,,,,,,,,METAR,8.0
KMHV 230040Z AUTO 25022G32KT 10SM BKN040 OVC047 17/08 A2964 RMK A01,KMHV,2022-10-23T00:40:00Z,35.07,-118.15,17.0,8.0,250,22,32,10.0,29.639763,,,TRUE,TRUE,,,,,,,BKN,4000,OVC,4700,,,,,VFR,,,,,,,,,,,,METAR,841.0
KJAU 230040Z AUTO 00000KT 10SM CLR 12/08 A3019 RMK A01,KJAU,2022-10-23T00:40:00Z,36.33,-84.17,12.0,8.0,0,0,,10.0,30.188976,,,TRUE,TRUE,,,,,,,CLR,,,,,,,,VFR,,,,,,,,,,,,METAR,350.0
KHDC 230040Z AUTO 13005KT 10SM CLR 18/14 A3005 RMK AO2 TSNO,KHDC,2022-10-23T00:40:00Z,30.52,-90.42,18.0,14.0,130,5,,10.0,30.050198,,,TRUE,TRUE,,,TRUE,,,,CLR,,,,,,,,VFR,,,,,,,,,,,,SPECI,12.0
KGHB 230040Z AUTO VRB05G13KT 9SM SCT048 25/15 A3001 RMK A01,KGHB,2022-10-23T00:40:00Z,27.83,-91.98,25.0,15.0,0,5,13,9.0,30.008858,,,TRUE,TRUE,,,,,,,SCT,4800,,,,,,,VFR,,,,,,,,,,,,METAR,30.0
KFYM 230040Z AUTO 15005KT FEW044 SCT049 17/12 A3010 RMK A01,KFYM,2022-10-23T00:40:00Z,35.07,-86.57,17.0,12.0,150,5,,,30.100393,,,TRUE,TRUE,,,,,,,FEW,4400,SCT,4900,,,,,,,,,,,,,,,,,METAR,297.0
KEDU 230040Z AUTO 35008KT 10SM CLR 22/M04 A2970 RMK AO1,KEDU,2022-10-23T00:40:00Z,38.53,-121.78,22.0,-4.0,350,8,,10.0,29.698818,,,TRUE,TRUE,,,,,,,CLR,,,,,,,,VFR,,,,,,,,,,,,METAR,20.0
KCII 230040Z AUTO 4SM BR 01/01 A2954 RMK A01 Choteau ,KCII,2022-10-23T00:40:00Z,47.83,-112.17,1.0,1.0,,,,4.0,29.53937,,,TRUE,TRUE,,,,,,BR,,,,,,,,,,,,,,,,,,,,,METAR,1202.0
K6S8 230040Z AUTO 06005KT 10SM 09/07 A2940 RMK A01 Laurel,K6S8,2022-10-23T00:40:00Z,45.7,-108.77,9.0,7.0,60,5,,10.0,29.40059,,,TRUE,TRUE,,,,,,,,,,,,,,,,,,,,,,,,,,,METAR,1072.0
ROIG 230039Z 01009KT 6000 R04/1200VP2000D +SHRA FEW008 SCT018 BKN023 FEW025TCU 25/25 Q1014 RMK 1ST008 3CU018 5CU023 1TCU025 A2997 TCU S,ROIG,2022-10-23T00:39:00Z,24.38,124.23,25.0,25.0,10,9,,3.73,29.940945,,,,,,,,,,+SHRA,FEW,800,SCT,1800,BKN,2300,FEW,2500,MVFR,,,,,,,,,,,,SPECI,37.0
KFME 230039Z AUTO 00000KT 10SM CLR 07/05 A3027 RMK AO1,KFME,2022-10-23T00:39:00Z,39.08,-76.77,7.0,5.0,0,0,,10.0,30.268702,,,TRUE,TRUE,,,,,,,CLR,,,,,,,,VFR,,,,,,,,,,,,METAR,43.0
K2W6 230039Z AUTO 00000KT 10SM CLR 10/08 A3026 RMK AO1,K2W6,2022-10-23T00:39:00Z,38.32,-76.55,10.0,8.0,0,0,,10.0,30.259842,,,TRUE,TRUE,,,,,,,CLR,,,,,,,,VFR,,,,,,,,,,,,METAR,40.0
BGTL 230039Z AUTO 10003KT 6000 BR OVC017 M06/M08 A2929 RMK AO2 SNB05E29 SLP906 TSNO $,BGTL,2022-10-23T00:39:00Z,76.53,-68.75,-6.0,-8.0,100,3,,3.73,29.291338,990.6,,TRUE,TRUE,TRUE,,TRUE,,,BR,OVC,1700,,,,,,,MVFR,,,,,,,,,,,,SPECI,79.0
PHSF 230038Z AUTO 22005KT 9SM BKN023 22/13 A3029 RMK AO2 BKN V FEW SLP139 $,PHSF,2022-10-23T00:38:00Z,19.77,-155.55,22.0,13.0,220,5,,9.0,30.28937,1013.9,,TRUE,TRUE,TRUE,,,,,,BKN,2300,,,,,,,MVFR,,,,,,,,,,,,METAR,1863.0
PASY 230038Z 18031G38KT 7SM -RA OVC008 07/06 A2976 RMK AO2A PK WND 19044/0016 SLP080 ALSTG/SLP ESTMD WND DATA ESTMD RVRNO PNO $,PASY,2022-10-23T00:38:00Z,52.72,174.12,7.0,6.0,180,31,38,7.0,29.760826,1008.0,,,TRUE,TRUE,,,,,-RA,OVC,800,,,,,,,IFR,,,,,,,,,,,,SPECI,6.0
KMFR 230038Z 23004KT 6SM -RA BR BKN011 BKN016 OVC040 07/06 A2992 RMK AO2 P0005 T00720061,KMFR,2022-10-23T00:38:00Z,42.38,-122.87,7.2,6.1,230,4,,6.0,29.920275,,,,TRUE,,,,,,-RA BR,BKN,1100,BKN,1600,OVC,4000,,,MVFR,,,,,,0.05,,,,,,SPECI,397.0
CYHZ 230038Z 17006KT 1/4SM R23/2000V2600FT/N R14/2800VP6000FT/U FG VV002 10/10 A3033 RMK FG8 SLP276,CYHZ,2022-10-23T00:38:00Z,44.87,-63.5,10.0,10.0,170,6,,0.25,30.33071,1027.6,,,,,,,,,FG,OVX,0,,,,,,,LIFR,,,,,,,,,,,200,SPECI,136.0
CYBW 230038Z AUTO 34005KT 2 1/2SM -SN FEW020 OVC035 M01/M01 A2972 RMK SLP111,CYBW,2022-10-23T00:38:00Z,51.1,-114.37,-1.0,-1.0,340,5,,2.5,29.719488,1011.1,,TRUE,,,,,,,-SN,FEW,2000,OVC,3500,,,,,IFR,,,,,,,,,,,,SPECI,1197.0
LERT 230037Z 20007KT 170V240 9000 BKN007 21/20 Q1016 NOSIG,LERT,2022-10-23T00:37:00Z,36.63,-6.33,21.0,20.0,200,7,,5.59,30.0,,,,,,TRUE,,,,,BKN,700,,,,,,,IFR,,,,,,,,,,,,METAR,27.0
KSDM 230037Z 23007KT 10SM BKN024 BKN035 BKN042 18/13 A2979 RMK AO2 T01830128,KSDM,2022-10-23T00:37:00Z,32.58,-117.0,18.3,12.8,230,7,,10.0,29.790354,,,,TRUE,,,,,,,BKN,2400,BKN,3500,BKN,4200,,,MVFR,,,,,,,,,,,,SPECI,161.0
KRGA 230037Z AUTO 00000KT 10SM CLR 18/09 A3012 RMK AO2,KRGA,2022-10-23T00:37:00Z,37.63,-84.33,18.0,9.0,0,0,,10.0,30.121063,,,TRUE,TRUE,,,,,,,CLR,,,,,,,,VFR,,,,,,,,,,,,METAR,301.0
KCUL 230037Z AUTO 16011KT 10SM CLR 22/11 A2996 RMK AO2,KCUL,2022-10-23T00:37:00Z,38.08,-88.12,22.0,11.0,160,11,,10.0,29.958662,,,TRUE,TRUE,,,,,,,CLR,,,,,,,,VFR,,,,,,,,,,,,METAR,116.0
KCQM 230037Z AUTO 09004KT 10SM CLR 11/04 A2962 RMK AO2,KCQM,2022-10-23T00:37:00Z,47.82,-92.68,11.0,4.0,90,4,,10.0,29.619095,,,TRUE,TRUE,,,,,,,CLR,,,,,,,,VFR,,,,,,,,,,,,METAR,406.0
KCKC 230037Z AUTO 03010G15KT 10SM CLR 08/04 A2970 RMK AO2,KCKC,2022-10-23T00:37:00Z,47.83,-90.38,8.0,4.0,30,10,15,10.0,29.698818,,,TRUE,TRUE,,,,,,,CLR,,,,,,,,VFR,,,,,,,,,,,,METAR,544.0
KBBB 230037Z AUTO 00000KT 10SM CLR 15/04 A2947 RMK AO2,KBBB,2022-10-23T00:37:00Z,45.32,-95.65,15.0,4.0,0,0,,10.0,29.471457,,,TRUE,TRUE,,,,,,,CLR,,,,,,,,VFR,,,,,,,,,,,,METAR,315.0
KAUM 230037Z AUTO 16004KT 10SM CLR 21/08 A2960 RMK AO2,KAUM,2022-10-23T00:37:00Z,43.67,-92.92,21.0,8.0,160,4,,10.0,29.601377,,,TRUE,TRUE,,,,,,,CLR,,,,,,,,VFR,,,,,,,,,,,,METAR,376.0
CYUS 230037Z AUTO 34015KT ////SM //// OVC009 M10/M11 A2957,CYUS,2022-10-23T00:37:00Z,68.78,-93.42,-10.0,-11.0,340,15,,,29.568897,,,TRUE,,,,,,,,OVC,900,,,,,,,,,,,,,,,,,,,SPECI,30.0
CYMM 230037Z AUTO 33005KT 9SM SCT024 BKN050 02/M00 A2985 RMK SLP130,CYMM,2022-10-23T00:37:00Z,56.65,-111.22,2.0,0.0,330,5,,9.0,29.84941,1013.0,,TRUE,,,,,,,,SCT,2400,BKN,5000,,,,,VFR,,,,,,,,,,,,SPECI,371.0
KMLP 230036Z AUTO 1 1/4SM BR OVC001 M02/M04 A2956 RMK AO2 VIS 1/2V4 SNB2359E12 P0000 T10221039,KMLP,2022-10-23T00:36:00Z,47.45,-115.67,-2.2,-3.9,,,,1.25,29.56004,,,TRUE,TRUE,,,,,,BR,OVC,100,,,,,,,LIFR,,,,,,0.005,,,,,,METAR,1837.0
KJYG 230036Z AUTO 17008KT 10SM CLR 21/06 A2952 RMK AO2,KJYG,2022-10-23T00:36:00Z,43.98,-94.55,21.0,6.0,170,8,,10.0,29.518702,,,TRUE,TRUE,,,,,,,CLR,,,,,,,,VFR,,,,,,,,,,,,METAR,323.0
KAPS 230036Z AUTO 14007KT 10SM CLR 19/14 A3005 RMK AO2,KAPS,2022-10-23T00:36:00Z,30.08,-90.58,19.0,14.0,140,7,,10.0,30.050198,,,TRUE,TRUE,,,,,,,CLR,,,,,,,,VFR,,,,,,,,,,,,METAR,1.0
ETIC 230036Z AUTO 00000KT 0600 R32/0600V1100 FG CLR 06/05 A3008 RMK AO2 SLP190 $,ETIC,2022-10-23T00:36:00Z,49.7,11.93,6.0,5.0,0,0,,0.37,30.079725,1019.0,,TRUE,TRUE,TRUE,,,,,FG,CLR,,,,,,,,LIFR,,,,,,,,,,,,SPECI,414.0
EGVN 230036Z 06006KT 9999 OVC004 13/13 Q1007 TEMPO FEW004 RMK YLO2 TEMPO BLU,EGVN,2022-10-23T00:36:00Z,51.77,-1.58,13.0,13.0,60,6,,6.21,29.734253,,,,,,,,,,,OVC,400,,,,,,,LIFR,,,,,,,,,,,,SPECI,83.0
CYYF 230036Z 28013KT 15SM VCSH BKN065TCU 09/01 A2970 RMK TCU5 SLP068,CYYF,2022-10-23T00:36:00Z,49.47,-119.6,9.0,1.0,280,13,,15.0,29.698818,1006.8,,,,,,,,,VCSH,BKN,6500,,,,,,,VFR,,,,,,,,,,,,SPECI,342.0
CYVL 230036Z AUTO 10004KT 9SM -SN OVC016 M08/M10 A3003 RMK SLP198,CYVL,2022-10-23T00:36:00Z,67.02,-126.13,-8.0,-10.0,100,4,,9.0,30.029528,1019.8,,TRUE,,,,,,,-SN,OVC,1600,,,,,,,MVFR,,,,,,,,,,,,SPECI,261.0
YCDU 230035Z AUTO 18016KT 9999 // SCT013 BKN017 BKN022 16/14 Q1014,YCDU,2022-10-23T00:35:00Z,-32.12,133.7,16.0,14.0,180,16,,6.21,29.940945,,,TRUE,,,,,,,,SCT,1300,BKN,1700,BKN,2200,,,MVFR,,,,,,,,,,,,SPECI,21.0
PAUT 230035Z AUTO 31011G21KT 10SM BKN025 OVC031 06/04 A3005 RMK AO2,PAUT,2022-10-23T00:35:00Z,54.13,-165.6,6.0,4.0,310,11,21,10.0,30.050198,,,TRUE,TRUE,,,,,,,BKN,2500,OVC,3100,,,,,MVFR,,,,,,,,,,,,METAR,25.0
PAOU 230035Z AUTO 33021KT 10SM FEW020 BKN048 OVC055 06/02 A2991 RMK AO2 RAE08 PNO $,PAOU,2022-10-23T00:35:00Z,56.0,-161.17,6.0,2.0,330,21,,10.0,29.911417,,,TRUE,TRUE,TRUE,,,,,,FEW,2000,BKN,4800,OVC,5500,,,VFR,,,,,,,,,,,,METAR,3.0
PAKX 230035Z AUTO 00000KT 10SM CLR 03/M01 A2977 RMK AO2,PAKX,2022-10-23T00:35:00Z,60.2,-154.32,3.0,-1.0,0,0,,10.0,29.769686,,,TRUE,TRUE,,,,,,,CLR,,,,,,,,VFR,,,,,,,,,,,,METAR,88.0
PAIM 230035Z AUTO 11003KT 10SM OVC002 M02/M02 A2988 RMK AO2 SLP141,PAIM,2022-10-23T00:35:00Z,66.0,-153.7,-2.0,-2.0,110,3,,10.0,29.878937,1014.1,,TRUE,TRUE,,,,,,,OVC,200,,,,,,,LIFR,,,,,,,,,,,,METAR,309.0
PAAD 230035Z AUTO 11019KT 10SM SCT009 OVC043 M05/M07 A2996 RMK AO2 T10551070,PAAD,2022-10-23T00:35:00Z,70.13,-146.28,-5.5,-7.0,110,19,,10.0,29.958662,,,TRUE,TRUE,,,,,,,SCT,900,OVC,4300,,,,,VFR,,,,,,,,,,,,METAR,8.0
KZPH 230035Z AUTO 03006KT 10SM CLR 20/16 A3007 RMK A02 T01970162,KZPH,2022-10-23T00:35:00Z,28.23,-82.15,19.7,16.2,30,6,,10.0,30.070866,,,TRUE,TRUE,,,,,,,CLR,,,,,,,,VFR,,,,,,,,,,,,METAR,26.0
KZER 230035Z AUTO 17004KT 10SM CLR 11/02 A3027 RMK AO2,KZER,2022-10-23T00:35:00Z,,,11.0,2.0,170,4,,10.0,30.268702,,,TRUE,TRUE,,,,,,,CLR,,,,,,,,VFR,,,,,,,,,,,,METAR,
KY70 230035Z AUTO 14008KT 10SM CLR 16/08 A2993 RMK AO2 T01560080,KY70,2022-10-23T00:35:00Z,42.93,-85.07,15.6,8.0,140,8,,10.0,29.929134,,,TRUE,TRUE,,,,,,,CLR,,,,,,,,VFR,,,,,,,,,,,,METAR,247.0
KY63 230035Z AUTO 19007KT 10SM CLR 11/02 A2947 RMK AO2 T01110021,KY63,2022-10-23T00:35:00Z,45.98,-96.0,11.1,2.1,190,7,,10.0,29.471457,,,TRUE,TRUE,,,,,,,CLR,,,,,,,,VFR,,,,,,,,,,,,SPECI,367.0
KY51 230035Z AUTO 15006KT 10SM CLR 20/10 A2969 RMK AO1 T02040103,KY51,2022-10-23T00:35:00Z,43.58,-90.9,20.4,10.3,150,6,,10.0,29.68996,,,TRUE,TRUE,,,,,,,CLR,,,,,,,,VFR,,,,,,,,,,,,METAR,390.0
KY49 230035Z AUTO 07005KT 10SM CLR 12/04 A2953 RMK AO2 T01210037,KY49,2022-10-23T00:35:00Z,47.15,-94.65,12.1,3.7,70,5,,10.0,29.530512,,,TRUE,TRUE,,,,,,,CLR,,,,,,,,VFR,,,,,,,,,,,,METAR,413.0
KY31 230035Z AUTO 17004KT 10SM CLR 18/08 A2992 RMK AO2 T01770075,KY31,2022-10-23T00:35:00Z,44.25,-84.18,17.7,7.5,170,4,,10.0,29.920275,,,TRUE,TRUE,,,,,,,CLR,,,,,,,,VFR,,,,,,,,,,,,METAR,264.0
KY23 230035Z AUTO 09004KT 10SM CLR 16/09 A2961 RMK AO2 T01600085,KY23,2022-10-23T00:35:00Z,45.3,-91.63,16.0,8.5,90,4,,10.0,29.610237,,,TRUE,TRUE,,,,,,,CLR,,,,,,,,VFR,,,,,,,,,,,,METAR,322.0
KY19 230035Z AUTO 06009KT 10SM SCT043 BKN120 10/04 A2950 RMK AO2,KY19,2022-10-23T00:35:00Z,46.77,-100.9,10.0,4.0,60,9,,10.0,29.500984,,,TRUE,TRUE,,,,,,,SCT,4300,BKN,12000,,,,,VFR,,,,,,,,,,,,METAR,591.0
KXSA 230035Z AUTO 00000KT 10SM CLR 09/09 A3023 RMK AO2 T00880088,KXSA,2022-10-23T00:35:00Z,37.87,-76.9,8.8,8.8,0,0,,10.0,30.230314,,,TRUE,TRUE,,,,,,,CLR,,,,,,,,VFR,,,,,,,,,,,,METAR,41.0
KXNX 230035Z AUTO 00000KT 10SM FEW050 SCT060 18/11 A3009 RMK A01,KXNX,2022-10-23T00:35:00Z,36.38,-86.42,18.0,11.0,0,0,,10.0,30.088583,,,TRUE,TRUE,,,,,,,FEW,5000,SCT,6000,,,,,VFR,,,,,,,,,,,,METAR,178.0
KXLL 230035Z AUTO 00000KT 10SM CLR 11/06 A3027 RMK AO2,KXLL,2022-10-23T00:35:00Z,40.57,-75.48,11.0,6.0,0,0,,10.0,30.268702,,,TRUE,TRUE,,,,,,,CLR,,,,,,,,VFR,,,,,,,,,,,,METAR,118.0
KXER 230035Z AUTO 14012KT 10SM FEW039 FEW045 25/16 A2993 RMK A01,KXER,2022-10-23T00:35:00Z,,,25.0,16.0,140,12,,10.0,29.929134,,,TRUE,TRUE,,,,,,,FEW,3900,FEW,4500,,,,,VFR,,,,,,,,,,,,METAR,
KXBP 230035Z AUTO 18012G19KT 10SM CLR 28/12 A2972 RMK AO2 T02780115,KXBP,2022-10-23T00:35:00Z,33.18,-97.83,27.8,11.5,180,12,19,10.0,29.719488,,,TRUE,TRUE,,,,,,,CLR,,,,,,,,VFR,,,,,,,,,,,,SPECI,256.0
KX60 230035Z AUTO 06005KT 10SM CLR 19/12 A3009 RMK AO2 T01870118,KX60,2022-10-23T00:35:00Z,29.35,-82.47,18.7,11.8,60,5,,10.0,30.088583,,,TRUE,TRUE,,,,,,,CLR,,,,,,,,VFR,,,,,,,,,,,,METAR,21.0
KX26 230035Z AUTO 35005KT 10SM SCT037 22/18 A3004 RMK AO2 T02180181,KX26,2022-10-23T00:35:00Z,27.82,-80.5,21.8,18.1,350,5,,10.0,30.041338,,,TRUE,TRUE,,,,,,,SCT,3700,,,,,,,VFR,,,,,,,,,,,,METAR,5.0
KX07 230035Z AUTO 06006KT 10SM CLR 22/17 A3005 RMK A01,KX07,2022-10-23T00:35:00Z,27.9,-81.62,22.0,17.0,60,6,,10.0,30.050198,,,TRUE,TRUE,,,,,,,CLR,,,,,,,,VFR,,,,,,,,,,,,METAR,36.0
KWDR 230035Z AUTO 00000KT 10SM CLR 12/03 A3016 RMK AO2,KWDR,2022-10-23T00:35:00Z,33.98,-83.67,12.0,3.0,0,0,,10.0,30.159449,,,TRUE,TRUE,,,,,,,CLR,,,,,,,,VFR,,,,,,,,,,,,METAR,280.0
KWBF 230035Z AUTO VRB03G11KT 10SM 24/17 A3003 RMK A01,KWBF,2022-10-23T00:35:00Z,26.93,-90.5,24.0,17.0,0,3,11,10.0,30.029528,,,TRUE,TRUE,,,,,,,,,,,,,,,,,,,,,,,,,,,METAR,40.0
KW81 230035Z AUTO 00000KT 10SM CLR 09/07 A3021 RMK AO1 T00880073,KW81,2022-10-23T00:35:00Z,37.18,-78.1,8.8,7.3,0,0,,10.0,30.209646,,,TRUE,TRUE,,,,,,,CLR,,,,,,,,VFR,,,,,,,,,,,,METAR,121.0
KW78 230035Z AUTO 00000KT 10SM CLR 09/07 A3020 RMK AO1 T00900065,KW78,2022-10-23T00:35:00Z,36.7,-78.85,9.0,6.5,0,0,,10.0,30.200787,,,TRUE,TRUE,,,,,,,CLR,,,,,,,,VFR,,,,,,,,,,,,METAR,120.0
KW22 230035Z AUTO 00000KT 1 3/4SM HZ CLR 12/03 A3017 RMK AO2,KW22,2022-10-23T00:35:00Z,39.0,-80.27,12.0,3.0,0,0,,1.75,30.171259,,,TRUE,TRUE,,,,,,HZ,CLR,,,,,,,,IFR,,,,,,,,,,,,METAR,497.0
KVYS 230035Z AUTO 16015KT 10SM CLR 21/10 A2979 RMK AO2 T02130095,KVYS,2022-10-23T00:35:00Z,41.35,-89.15,21.3,9.5,160,15,,10.0,29.790354,,,TRUE,TRUE,,,,,,,CLR,,,,,,,,VFR,,,,,,,,,,,,METAR,198.0
KVWU 230035Z AUTO 07008KT 10SM CLR 13/06 A2959 RMK AO2,KVWU,2022-10-23T00:35:00Z,48.15,-94.52,13.0,6.0,70,8,,10.0,29.589567,,,TRUE,TRUE,,,,,,,CLR,,,,,,,,VFR,,,,,,,,,,,,METAR,359.0
KVVV 230035Z 00000KT 10SM 13/01 A2946 RMK AO2,KVVV,2022-10-23T00:35:00Z,45.3,-96.42,13.0,1.0,0,0,,10.0,29.459646,,,,TRUE,,,,,,,,,,,,,,,,,,,,,,,,,,,SPECI,334.0
KVVS 230035Z AUTO 06005KT 10SM CLR 16/02 A3018 RMK AO2 T01610024,KVVS,2022-10-23T00:35:00Z,39.95,-79.65,16.1,2.4,60,5,,10.0,30.180119,,,TRUE,TRUE,,,,,,,CLR,,,,,,,,VFR,,,,,,,,,,,,METAR,386.0
KVUJ 230035Z AUTO 00000KT 10SM CLR 09/07 A3022 RMK AO2 T00890065,KVUJ,2022-10-23T00:35:00Z,35.42,-80.15,8.9,6.5,0,0,,10.0,30.221457,,,TRUE,TRUE,,,,,,,CLR,,,,,,,,VFR,,,,,,,,,,,,METAR,174.0
KVTP 230035Z AUTO 26013G22KT 10SM SCT060 SCT070 05/M04 A2985 RMK AO2,KVTP,2022-10-23T00:35:00Z,37.5,-105.17,5.0,-4.0,260,13,22,10.0,29.84941,,,TRUE,TRUE,,,,,,,SCT,6000,SCT,7000,,,,,VFR,,,,,,,,,,,,METAR,3086.0
KVTI 230035Z AUTO 15014G19KT 10SM CLR 25/07 A2964 RMK AO2 T02450071,KVTI,2022-10-23T00:35:00Z,42.22,-92.02,24.5,7.1,150,14,19,10.0,29.639763,,,TRUE,TRUE,,,,,,,CLR,,,,,,,,VFR,,,,,,,,,,,,METAR,256.0
KVPC 230035Z AUTO 00000KT 10SM BKN035 15/10 A3014 RMK AO2,KVPC,2022-10-23T00:35:00Z,34.1,-84.85,15.0,10.0,0,0,,10.0,30.138779,,,TRUE,TRUE,,,,,,,BKN,3500,,,,,,,VFR,,,,,,,,,,,,METAR,234.0
KVLL 230035Z AUTO 17005KT 10SM CLR 18/08 A3003 RMK AO2 T01780080,KVLL,2022-10-23T00:35:00Z,42.55,-83.18,17.8,8.0,170,5,,10.0,30.029528,,,TRUE,TRUE,,,,,,,CLR,,,,,,,,VFR,,,,,,,,,,,,METAR,214.0
KVKS 230035Z AUTO 15005KT 10SM BKN055 22/12 A2997 RMK A01,KVKS,2022-10-23T00:35:00Z,32.23,-90.93,22.0,12.0,150,5,,10.0,29.970472,,,TRUE,TRUE,,,,,,,BKN,5500,,,,,,,VFR,,,,,,,,,,,,METAR,31.0
KVJI 230035Z AUTO 00000KT 10SM CLR 11/02 A3018 RMK AO2 T01070015,KVJI,2022-10-23T00:35:00Z,36.68,-82.03,10.7,1.5,0,0,,10.0,30.180119,,,TRUE,TRUE,,,,,,,CLR,,,,,,,,VFR,,,,,,,,,,,,METAR,636.0
KVHN 230035Z AUTO 21006KT 10SM CLR 24/08 A2988 RMK AO2 T02430079,KVHN,2022-10-23T00:35:00Z,31.07,-104.78,24.3,7.9,210,6,,10.0,29.878937,,,TRUE,TRUE,,,,,,,CLR,,,,,,,,VFR,,,,,,,,,,,,SPECI,1200.0
KVGC 230035Z AUTO 00000KT 10SM CLR 06/02 A3023 RMK AO2,KVGC,2022-10-23T00:35:00Z,42.85,-75.57,6.0,2.0,0,0,,10.0,30.230314,,,TRUE,TRUE,,,,,,,CLR,,,,,,,,VFR,,,,,,,,,,,,METAR,346.0
KVES 230035Z AUTO 17006KT 10SM CLR 18/07 A3004 RMK AO2,KVES,2022-10-23T00:35:00Z,40.2,-84.53,18.0,7.0,170,6,,10.0,30.041338,,,TRUE,TRUE,,,,,,,CLR,,,,,,,,VFR,,,,,,,,,,,,METAR,308.0
KVER 230035Z AUTO 16016G20KT 10SM CLR 24/12 A2970 RMK AO2 T02390121,KVER,2022-10-23T00:35:00Z,38.95,-92.68,23.9,12.1,160,16,20,10.0,29.698818,,,TRUE,TRUE,,,,,,,CLR,,,,,,,,VFR,,,,,,,,,,,,SPECI,209.0
KVDI 230035Z AUTO 00000KT 10SM CLR 13/06 A3012 RMK AO2,KVDI,2022-10-23T00:35:00Z,32.2,-82.37,13.0,6.0,0,0,,10.0,30.121063,,,TRUE,TRUE,,,,,,,CLR,,,,,,,,VFR,,,,,,,,,,,,METAR,81.0
KVDF 230035Z AUTO 04003KT 10SM OVC050 22/17 A3006 RMK AO2,KVDF,2022-10-23T00:35:00Z,28.02,-82.33,22.0,17.0,40,3,,10.0,30.059055,,,TRUE,TRUE,,,,,,,OVC,5000,,,,,,,VFR,,,,,,,,,,,,METAR,5.0
KVAF 230035Z AUTO 14019KT 10SM FEW036 SCT042 SCT050 25/16 A2996 RMK A01,KVAF,2022-10-23T00:35:00Z,27.35,-94.63,25.0,16.0,140,19,,10.0,29.958662,,,TRUE,TRUE,,,,,,,FEW,3600,SCT,4200,SCT,5000,,,VFR,,,,,,,,,,,,METAR,38.0
KUYF 230035Z AUTO 17006KT 10SM CLR 15/06 A3009 RMK AO2,KUYF,2022-10-23T00:35:00Z,39.93,-83.47,15.0,6.0,170,6,,10.0,30.088583,,,TRUE,TRUE,,,,,,,CLR,,,,,,,,VFR,,,,,,,,,,,,METAR,326.0
KUXL 230035Z AUTO 15009KT 10SM CLR 23/17 A2998 RMK AO2 T02260170,KUXL,2022-10-23T00:35:00Z,30.13,-93.38,22.6,17.0,150,9,,10.0,29.97933,,,TRUE,TRUE,,,,,,,CLR,,,,,,,,VFR,,,,,,,,,,,,METAR,2.0
KUVA 230035Z AUTO 00000KT 10SM CLR 24/14 A2986 RMK AO2 T02410142,KUVA,2022-10-23T00:35:00Z,29.22,-99.75,24.1,14.2,0,0,,10.0,29.861221,,,TRUE,TRUE,,,,,,,CLR,,,,,,,,VFR,,,,,,,,,,,,METAR,285.0
KUTA 230035Z AUTO 16012KT 10SM BKN270 22/12 A2993 RMK AO2 T02220119 $,KUTA,2022-10-23T00:35:00Z,34.68,-90.35,22.2,11.9,160,12,,10.0,29.929134,,,TRUE,TRUE,TRUE,,,,,,BKN,27000,,,,,,,VFR,,,,,,,,,,,,METAR,58.0
KUSE 230035Z AUTO 17008KT 10SM CLR 17/08 A3000 RMK AO2,KUSE,2022-10-23T00:35:00Z,41.62,-84.13,17.0,8.0,170,8,,10.0,30.0,,,TRUE,TRUE,,,,,,,CLR,,,,,,,,VFR,,,,,,,,,,,,METAR,237.0
KUOX 230035Z AUTO 14004KT 10SM CLR 19/11 A3000 RMK AO2 PWINO,KUOX,2022-10-23T00:35:00Z,34.38,-89.53,19.0,11.0,140,4,,10.0,30.0,,,TRUE,TRUE,,,,,TRUE,,CLR,,,,,,,,VFR,,,,,,,,,,,,METAR,123.0
KUNI 230035Z AUTO 00000KT 10SM CLR 16/08 A3012 RMK AO2 T01550079,KUNI,2022-10-23T00:35:00Z,39.22,-82.23,15.5,7.9,0,0,,10.0,30.121063,,,TRUE,TRUE,,,,,,,CLR,,,,,,,,VFR,,,,,,,,,,,,METAR,232.0
KUMP 230035Z AUTO 17006KT 10SM CLR 21/13 A3000 RMK AO2 T02050130,KUMP,2022-10-23T00:35:00Z,39.93,-86.05,20.5,13.0,170,6,,10.0,30.0,,,TRUE,TRUE,,,,,,,CLR,,,,,,,,VFR,,,,,,,,,,,,METAR,247.0
KULS 230035Z AUTO 13006KT 10SM CLR 21/M05 A2943 RMK AO2,KULS,2022-10-23T00:35:00Z,37.6,-101.37,21.0,-5.0,130,6,,10.0,29.430119,,,TRUE,TRUE,,,,,,,CLR,,,,,,,,VFR,,,,,,,,,,,,METAR,934.0
KULM 230035Z AUTO 16008KT 10SM CLR 19/05 A2951 RMK AO2,KULM,2022-10-23T00:35:00Z,44.32,-94.5,19.0,5.0,160,8,,10.0,29.509842,,,TRUE,TRUE,,,,,,,CLR,,,,,,,,VFR,,,,,,,,,,,,METAR,305.0
KUKT 230035Z AUTO 00000KT 10SM CLR 09/06 A3028 RMK A01,KUKT,2022-10-23T00:35:00Z,40.43,-75.38,9.0,6.0,0,0,,10.0,30.280512,,,TRUE,TRUE,,,,,,,CLR,,,,,,,,VFR,,,,,,,,,,,,METAR,156.0
KUKL 230035Z AUTO 15011KT 10SM CLR A2959 RMK AO2,KUKL,2022-10-23T00:35:00Z,38.3,-95.73,,,150,11,,10.0,29.589567,,,TRUE,TRUE,,,,,,,CLR,,,,,,,,VFR,,,,,,,,,,,,METAR,357.0
KUKF 230035Z AUTO 36006KT 10SM CLR 10/03 A3024 RMK AO2,KUKF,2022-10-23T00:35:00Z,36.22,-81.1,10.0,3.0,360,6,,10.0,30.239174,,,TRUE,TRUE,,,,,,,CLR,,,,,,,,VFR,,,,,,,,,,,,METAR,383.0
KUCY 230035Z AUTO 14008KT 10SM FEW055 20/13 A2995 RMK A01,KUCY,2022-10-23T00:35:00Z,36.38,-88.98,20.0,13.0,140,8,,10.0,29.949802,,,TRUE,TRUE,,,,,,,FEW,5500,,,,,,,VFR,,,,,,,,,,,,METAR,97.0
KU68 230035Z AUTO 31022G27KT 10SM SCT070 BKN120 10/05 A2933 RMK AO2,KU68,2022-10-23T00:35:00Z,44.92,-108.45,10.0,5.0,310,22,27,10.0,29.329725,,,TRUE,TRUE,,,,,,,SCT,7000,BKN,12000,,,,,VFR,,,,,,,,,,,,METAR,1244.0
KU55 230035Z AUTO 24021G34KT 10SM 11/00 A2963 RMK A01,KU55,2022-10-23T00:35:00Z,37.85,-112.38,11.0,0.0,240,21,34,10.0,29.630905,,,TRUE,TRUE,,,,,,,,,,,,,,,,,,,,,,,,,,,METAR,2060.0
KU42 230035Z AUTO 00000KT 7SM BKN005 BKN009 OVC028 02/02 A2966 RMK AO1 P0002 T00200020,KU42,2022-10-23T00:35:00Z,40.62,-111.98,2.0,2.0,0,0,,7.0,29.660433,,,TRUE,TRUE,,,,,,,BKN,500,BKN,900,OVC,2800,,,IFR,,,,,,0.02,,,,,,METAR,1399.0
KTZR 230035Z AUTO 16006KT 10SM CLR 17/09 A3009 RMK AO2 T01670085,KTZR,2022-10-23T00:35:00Z,39.9,-83.13,16.7,8.5,160,6,,10.0,30.088583,,,TRUE,TRUE,,,,,,,CLR,,,,,,,,VFR,,,,,,,,,,,,METAR,275.0
KTYQ 230035Z AUTO 18010KT 10SM CLR 20/12 A2999 RMK AO2 T01980115,KTYQ,2022-10-23T00:35:00Z,40.03,-86.25,19.8,11.5,180,10,,10.0,29.991142,,,TRUE,TRUE,,,,,,,CLR,,,,,,,,VFR,,,,,,,,,,,,METAR,279.0
KTYL 230035Z AUTO 22020G30KT 10SM CLR 17/07 A2979 RMK AO2,KTYL,2022-10-23T00:35:00Z,34.45,-110.12,17.0,7.0,220,20,30,10.0,29.790354,,,TRUE,TRUE,,,,,,,CLR,,,,,,,,VFR,,,,,,,,,,,,METAR,1748.0
KTWT 230035Z AUTO 16008KT 10SM CLR 20/10 A2999 RMK AO2,KTWT,2022-10-23T00:35:00Z,37.55,-87.95,20.0,10.0,160,8,,10.0,29.991142,,,TRUE,TRUE,,,,,,,CLR,,,,,,,,VFR,,,,,,,,,,,,METAR,113.0
KTWM 230035Z AUTO 06010G21KT 10SM CLR 10/05 A2965 RMK AO2,KTWM,2022-10-23T00:35:00Z,47.05,-91.75,10.0,5.0,60,10,21,10.0,29.648623,,,TRUE,TRUE,,,,,,,CLR,,,,,,,,VFR,,,,,,,,,,,,METAR,331.0
KTVY 230035Z AUTO 13010G15KT 10SM -RA BKN026 BKN031 OVC070 05/03 A2963 RMK AO2 P0001,KTVY,2022-10-23T00:35:00Z,40.62,-112.35,5.0,3.0,130,10,15,10.0,29.630905,,,TRUE,TRUE,,,,,,-RA,BKN,2600,BKN,3100,OVC,7000,,,MVFR,,,,,,0.01,,,,,,METAR,1310.0
KTVI 230035Z AUTO 00000KT 10SM CLR 12/08 A3012 RMK AO2,KTVI,2022-10-23T00:35:00Z,30.9,-83.88,12.0,8.0,0,0,,10.0,30.121063,,,TRUE,TRUE,,,,,,,CLR,,,,,,,,VFR,,,,,,,,,,,,METAR,74.0
KTTF 230035Z AUTO 17007KT 10SM CLR 17/08 A3001 RMK AO2 T01720081,KTTF,2022-10-23T00:35:00Z,41.93,-83.42,17.2,8.1,170,7,,10.0,30.008858,,,TRUE,TRUE,,,,,,,CLR,,,,,,,,VFR,,,,,,,,,,,,METAR,186.0
KTTA 230035Z AUTO 00000KT 10SM CLR 10/08 A3017 RMK AO2 T01040081,KTTA,2022-10-23T00:35:00Z,35.58,-79.1,10.4,8.1,0,0,,10.0,30.171259,,,TRUE,TRUE,,,,,,,CLR,,,,,,,,VFR,,,,,,,,,,,,METAR,71.0
KTSP 230035Z AUTO 31027G38KT 6SM HZ OVC026 13/07 A2970 RMK AO2,KTSP,2022-10-23T00:35:00Z,35.13,-118.43,13.0,7.0,310,27,38,6.0,29.698818,,,TRUE,TRUE,,,,,,HZ,OVC,2600,,,,,,,MVFR,,,,,,,,,,,,METAR,1209.0
KTQV 230035Z AUTO 05008KT 10SM CLR 17/09 A3018 RMK A01,KTQV,2022-10-23T00:35:00Z,36.0,-78.93,17.0,9.0,50,8,,10.0,30.180119,,,TRUE,TRUE,,,,,,,CLR,,,,,,,,VFR,,,,,,,,,,,,METAR,230.0
KTQK 230035Z AUTO 15010KT 10SM CLR 17/M05 A2947 RMK AO2 T01681052,KTQK,2022-10-23T00:35:00Z,38.47,-100.88,16.8,-5.2,150,10,,10.0,29.471457,,,TRUE,TRUE,,,,,,,CLR,,,,,,,,VFR,,,,,,,,,,,,METAR,906.0
KTQH 230035Z AUTO 16008KT 10SM CLR 24/11 A2971 RMK AO2,KTQH,2022-10-23T00:35:00Z,35.93,-95.0,24.0,11.0,160,8,,10.0,29.71063,,,TRUE,TRUE,,,,,,,CLR,,,,,,,,VFR,,,,,,,,,,,,METAR,265.0
KTOC 230035Z AUTO 33003KT 10SM CLR 12/06 A3016 RMK AO2 T01150062,KTOC,2022-10-23T00:35:00Z,34.6,-83.3,11.5,6.2,330,3,,10.0,30.159449,,,TRUE,TRUE,,,,,,,CLR,,,,,,,,VFR,,,,,,,,,,,,SPECI,292.0
KTOB 230035Z AUTO 15009KT 10SM CLR 17/06 A2960 RMK AO2,KTOB,2022-10-23T00:35:00Z,44.02,-92.82,17.0,6.0,150,9,,10.0,29.601377,,,TRUE,TRUE,,,,,,,CLR,,,,,,,,VFR,,,,,,,,,,,,METAR,394.0
KTNU 230035Z AUTO 18010KT 5SM HZ CLR 22/06 A2960 RMK A01,KTNU,2022-10-23T00:35:00Z,41.67,-93.02,22.0,6.0,180,10,,5.0,29.601377,,,TRUE,TRUE,,,,,,HZ,CLR,,,,,,,,MVFR,,,,,,,,,,,,METAR,287.0
KTMT 230035Z AUTO 27011KT 7SM -SN SCT015 BKN029 OVC047 02/00 A2973 RMK AO2 T00160000,KTMT,2022-10-23T00:35:00Z,39.47,-117.2,1.6,0.0,270,11,,7.0,29.731298,,,TRUE,TRUE,,,,,,-SN,SCT,1500,BKN,2900,OVC,4700,,,MVFR,,,,,,,,,,,,METAR,1748.0
KTMK 230035Z AUTO 18003KT 10SM SCT016 BKN020 OVC044 10/08 A2989 RMK AO2,KTMK,2022-10-23T00:35:00Z,45.42,-123.82,10.0,8.0,180,3,,10.0,29.890747,,,TRUE,TRUE,,,,,,,SCT,1600,BKN,2000,OVC,4400,,,MVFR,,,,,,,,,,,,SPECI,8.0
KTME 230035Z AUTO 19011KT 10SM FEW049 24/15 A2993 RMK AO2,KTME,2022-10-23T00:35:00Z,29.8,-95.9,24.0,15.0,190,11,,10.0,29.929134,,,TRUE,TRUE,,,,,,,FEW,4900,,,,,,,VFR,,,,,,,,,,,,METAR,49.0
KTKX 230035Z AUTO 15008KT 8SM CLR 20/13 A2990 RMK AO2 TSNO,KTKX,2022-10-23T00:35:00Z,36.22,-90.03,20.0,13.0,150,8,,8.0,29.899607,,,TRUE,TRUE,,,TRUE,,,,CLR,,,,,,,,VFR,,,,,,,,,,,,METAR,73.0
KTKV 230035Z AUTO 00000KT 10SM CLR 13/07 A2971 RMK AO2 T01260065 PWINO,KTKV,2022-10-23T00:35:00Z,45.47,-89.82,12.6,6.5,0,0,,10.0,29.71063,,,TRUE,TRUE,,,,,TRUE,,CLR,,,,,,,,VFR,,,,,,,,,,,,METAR,449.0
KTKC 230035Z AUTO 19007KT 10SM 21/M01 A2950 RMK AO2 T02071013,KTKC,2022-10-23T00:35:00Z,44.25,-95.62,20.7,-1.3,190,7,,10.0,29.500984,,,TRUE,TRUE,,,,,,,,,,,,,,,,,,,,,,,,,,,METAR,408.0
KTIP 230035Z AUTO 17012KT 10SM CLR 20/11 A2990 RMK AO2 T01950110,KTIP,2022-10-23T00:35:00Z,40.28,-88.15,19.5,11.0,170,12,,10.0,29.899607,,,TRUE,TRUE,,,,,,,CLR,,,,,,,,VFR,,,,,,,,,,,,METAR,224.0
KTIF 230035Z AUTO 16009KT 10SM CLR 21/M05 A2943 RMK AO2 T02061048,KTIF,2022-10-23T00:35:00Z,41.97,-100.57,20.6,-4.8,160,9,,10.0,29.430119,,,TRUE,TRUE,,,,,,,CLR,,,,,,,,VFR,,,,,,,,,,,,METAR,888.0
KTHA 230035Z AUTO 15004KT 10SM SCT050 18/11 A3008 RMK A01,KTHA,2022-10-23T00:35:00Z,35.38,-86.25,18.0,11.0,150,4,,10.0,30.079725,,,TRUE,TRUE,,,,,,,SCT,5000,,,,,,,VFR,,,,,,,,,,,,METAR,333.0
KTEX 230035Z AUTO 19018G23KT 10SM OVC070 11/M05 A2980 RMK AO2,KTEX,2022-10-23T00:35:00Z,37.95,-107.9,11.0,-5.0,190,18,23,10.0,29.799213,,,TRUE,TRUE,,,,,,,OVC,7000,,,,,,,VFR,,,,,,,,,,,,SPECI,2760.0
KTEW 230035Z AUTO 15005KT 10SM CLR 16/08 A2997 RMK AO2 T01610075,KTEW,2022-10-23T00:35:00Z,42.57,-84.42,16.1,7.5,150,5,,10.0,29.970472,,,TRUE,TRUE,,,,,,,CLR,,,,,,,,VFR,,,,,,,,,,,,SPECI,281.0
KTDF 230035Z AUTO 00000KT 10SM CLR 11/07 A3021 RMK AO2,KTDF,2022-10-23T00:35:00Z,36.28,-78.98,11.0,7.0,0,0,,10.0,30.209646,,,TRUE,TRUE,,,,,,,CLR,,,,,,,,VFR,,,,,,,,,,,,METAR,180.0
KTCY 230035Z AUTO 24019G24KT 10SM CLR 19/05 A2969 RMK A01,KTCY,2022-10-23T00:35:00Z,37.68,-121.43,19.0,5.0,240,19,24,10.0,29.68996,,,TRUE,TRUE,,,,,,,CLR,,,,,,,,VFR,,,,,,,,,,,,METAR,51.0
KTBR 230035Z AUTO 00000KT 10SM CLR 11/06 A3013 RMK AO2 T01060059,KTBR,2022-10-23T00:35:00Z,32.48,-81.73,10.6,5.9,0,0,,10.0,30.129921,,,TRUE,TRUE,,,,,,,CLR,,,,,,,,VFR,,,,,,,,,,,,METAR,54.0
KTAZ 230035Z AUTO 17013G19KT 10SM CLR 20/12 A2986 RMK AO2 T02000121,KTAZ,2022-10-23T00:35:00Z,39.53,-89.33,20.0,12.1,170,13,19,10.0,29.861221,,,TRUE,TRUE,,,,,,,CLR,,,,,,,,VFR,,,,,,,,,,,,METAR,188.0
KT89 230035Z AUTO 13006KT 10SM CLR 29/04 A2977 RMK A01,KT89,2022-10-23T00:35:00Z,29.27,-103.68,29.0,4.0,130,6,,10.0,29.769686,,,TRUE,TRUE,,,,,,,CLR,,,,,,,,VFR,,,,,,,,,,,,METAR,801.0
KT82 230035Z AUTO 19006KT 10SM CLR 25/11 A2986 RMK AO2 T02500113,KT82,2022-10-23T00:35:00Z,30.25,-98.92,25.0,11.3,190,6,,10.0,29.861221,,,TRUE,TRUE,,,,,,,CLR,,,,,,,,VFR,,,,,,,,,,,,METAR,509.0
KT78 230035Z AUTO 16007KT 10SM FEW050 23/18 A2993 RMK AO2,KT78,2022-10-23T00:35:00Z,30.08,-94.7,23.0,18.0,160,7,,10.0,29.929134,,,TRUE,TRUE,,,,,,,FEW,5000,,,,,,,VFR,,,,,,,,,,,,METAR,21.0
KT74 230035Z AUTO 17013G17KT 10SM CLR 26/15 A2984 RMK AO2 T02610146,KT74,2022-10-23T00:35:00Z,30.57,-97.45,26.1,14.6,170,13,17,10.0,29.840551,,,TRUE,TRUE,,,,,,,CLR,,,,,,,,VFR,,,,,,,,,,,,METAR,169.0
KT69 230035Z AUTO 17011KT 10SM CLR 25/19 A2989 RMK A01,KT69,2022-10-23T00:35:00Z,28.03,-97.55,25.0,19.0,170,11,,10.0,29.890747,,,TRUE,TRUE,,,,,,,CLR,,,,,,,,VFR,,,,,,,,,,,,METAR,15.0
KT41 230035Z AUTO 10SM CLR 24/18 A2993 RMK AO2 T02390179,KT41,2022-10-23T00:35:00Z,29.67,-95.07,23.9,17.9,,,,10.0,29.929134,,,TRUE,TRUE,,,,,,,CLR,,,,,,,,VFR,,,,,,,,,,,,SPECI,8.0
KT35 230035Z AUTO 17008KT 10SM CLR 27/13 A2983 RMK AO2 T02660129,KT35,2022-10-23T00:35:00Z,30.88,-96.97,26.6,12.9,170,8,,10.0,29.828741,,,TRUE,TRUE,,,,,,,CLR,,,,,,,,VFR,,,,,,,,,,,,SPECI,122.0
KT20 230035Z AUTO 16010G16KT 10SM CLR 26/15 A2987 RMK AO2 T02600154,KT20,2022-10-23T00:35:00Z,29.52,-97.47,26.0,15.4,160,10,16,10.0,29.870079,,,TRUE,TRUE,,,,,,,CLR,,,,,,,,VFR,,,,,,,,,,,,SPECI,107.0
KSZY 230035Z AUTO 16006KT 10SM CLR 20/11 A3001 RMK A01,KSZY,2022-10-23T00:35:00Z,35.2,-88.5,20.0,11.0,160,6,,10.0,30.008858,,,TRUE,TRUE,,,,,,,CLR,,,,,,,,VFR,,,,,,,,,,,,METAR,184.0
KSZT 230035Z AUTO 03004KT 10SM -RA BKN016 BKN024 OVC038 04/02 A2964 RMK AO2,KSZT,2022-10-23T00:35:00Z,48.3,-116.57,4.0,2.0,30,4,,10.0,29.639763,,,TRUE,TRUE,,,,,,-RA,BKN,1600,BKN,2400,OVC,3800,,,MVFR,,,,,,,,,,,,METAR,649.0
KSYN 230035Z AUTO 17003KT 10SM CLR 21/06 A2956 RMK AO2 T02060060,KSYN,2022-10-23T00:35:00Z,44.47,-93.02,20.6,6.0,170,3,,10.0,29.56004,,,TRUE,TRUE,,,,,,,CLR,,,,,,,,VFR,,,,,,,,,,,,METAR,280.0
KSYM 230035Z AUTO 18004KT 10SM SCT060 19/07 A3012 RMK AO2,KSYM,2022-10-23T00:35:00Z,38.22,-83.58,19.0,7.0,180,4,,10.0,30.121063,,,TRUE,TRUE,,,,,,,SCT,6000,,,,,,,VFR,,,,,,,,,,,,METAR,307.0
KSYI 230035Z AUTO 14005KT 10SM CLR 19/11 A3007 RMK A01,KSYI,2022-10-23T00:35:00Z,35.57,-86.45,19.0,11.0,140,5,,10.0,30.070866,,,TRUE,TRUE,,,,,,,CLR,,,,,,,,VFR,,,,,,,,,,,,METAR,244.0
KSYF 230035Z AUTO 16010KT 7SM CLR 16/M08 A2942 RMK AO2 T01571080 PWINO,KSYF,2022-10-23T00:35:00Z,39.77,-101.8,15.7,-8.0,160,10,,7.0,29.421259,,,TRUE,TRUE,,,,,TRUE,,CLR,,,,,,,,VFR,,,,,,,,,,,,METAR,1041.0
KSXU 230035Z AUTO 20010KT 10SM CLR 21/09 A2973 RMK AO2 T02060090,KSXU,2022-10-23T00:35:00Z,34.93,-104.65,20.6,9.0,200,10,,10.0,29.731298,,,TRUE,TRUE,,,,,,,CLR,,,,,,,,VFR,,,,,,,,,,,,METAR,1465.0
KSXK 230035Z AUTO 14009KT 7SM FEW024 18/04 A2949 RMK AO2,KSXK,2022-10-23T00:35:00Z,42.98,-96.17,18.0,4.0,140,9,,7.0,29.489174,,,TRUE,TRUE,,,,,,,FEW,2400,,,,,,,VFR,,,,,,,,,,,,METAR,430.0
KSWW 230035Z AUTO 19008KT 10SM CLR 26/11 A2976 RMK AO2 T02580112,KSWW,2022-10-23T00:35:00Z,32.47,-100.47,25.8,11.2,190,8,,10.0,29.760826,,,TRUE,TRUE,,,,,,,CLR,,,,,,,,VFR,,,,,,,,,,,,METAR,718.0
KSVH 230035Z AUTO 00000KT 7SM CLR 11/06 A3018 RMK AO2 T01100055,KSVH,2022-10-23T00:35:00Z,35.75,-80.95,11.0,5.5,0,0,,7.0,30.180119,,,TRUE,TRUE,,,,,,,CLR,,,,,,,,VFR,,,,,,,,,,,,METAR,286.0
KSVE 230035Z AUTO 36005KT 10SM CLR 09/M06 A2976 RMK AO2,KSVE,2022-10-23T00:35:00Z,40.37,-120.57,9.0,-6.0,360,5,,10.0,29.760826,,,TRUE,TRUE,,,,,,,CLR,,,,,,,,VFR,,,,,,,,,,,,METAR,1263.0
KSVC 230035Z AUTO 19006KT 10SM SCT060 SCT070 20/13 A2987 RMK AO2 LTG DSNT NW T01970128,KSVC,2022-10-23T00:35:00Z,32.63,-108.15,19.7,12.8,190,6,,10.0,29.870079,,,TRUE,TRUE,,,,,,,SCT,6000,SCT,7000,,,,,VFR,,,,,,,,,,,,METAR,1638.0
KSUZ 230035Z AUTO 16006KT 10SM FEW050 21/14 A2986 RMK A01,KSUZ,2022-10-23T00:35:00Z,34.58,-92.48,21.0,14.0,160,6,,10.0,29.861221,,,TRUE,TRUE,,,,,,,FEW,5000,,,,,,,VFR,,,,,,,,,,,,METAR,114.0
KSUT 230035Z AUTO 05004KT 10SM CLR 20/12 A3013 RMK AO2 T01970117,KSUT,2022-10-23T00:35:00Z,33.93,-78.08,19.7,11.7,50,4,,10.0,30.129921,,,TRUE,TRUE,,,,,,,CLR,,,,,,,,VFR,,,,,,,,,,,,METAR,6.0
KSTK 230035Z AUTO 08004KT 10SM CLR 19/M06 A2940 RMK AO2,KSTK,2022-10-23T00:35:00Z,40.62,-103.27,19.0,-6.0,80,4,,10.0,29.40059,,,TRUE,TRUE,,,,,,,CLR,,,,,,,,VFR,,,,,,,,,,,,METAR,1228.0
KSTF 230035Z AUTO 15006KT 10SM CLR 20/12 A3002 RMK AO2,KSTF,2022-10-23T00:35:00Z,33.43,-88.85,20.0,12.0,150,6,,10.0,30.02067,,,TRUE,TRUE,,,,,,,CLR,,,,,,,,VFR,,,,,,,,,,,,METAR,99.0
KSTE 230035Z AUTO 15004KT 10SM CLR 20/07 A2972 RMK AO2 T01950066,KSTE,2022-10-23T00:35:00Z,44.55,-89.53,19.5,6.6,150,4,,10.0,29.719488,,,TRUE,TRUE,,,,,,,CLR,,,,,,,,VFR,,,,,,,,,,,,METAR,335.0
KSRR 230035Z AUTO 21009KT 10SM 16/08 A2993 RMK AO2,KSRR,2022-10-23T00:35:00Z,33.47,-105.52,16.0,8.0,210,9,,10.0,29.929134,,,TRUE,TRUE,,,,,,,,,,,,,,,,,,,,,,,,,,,METAR,2063.0
KSRE 230035Z AUTO 10SM CLR 26/13 A2963 RMK AO2,KSRE,2022-10-23T00:35:00Z,35.27,-96.68,26.0,13.0,,,,10.0,29.630905,,,TRUE,TRUE,,,,,,,CLR,,,,,,,,VFR,,,,,,,,,,,,METAR,306.0
KSRB 230035Z AUTO VRB04KT 10SM CLR 19/10 A3009 RMK A01,KSRB,2022-10-23T00:35:00Z,36.05,-85.53,19.0,10.0,0,4,,10.0,30.088583,,,TRUE,TRUE,,,,,,,CLR,,,,,,,,VFR,,,,,,,,,,,,METAR,303.0
KSPF 230035Z AUTO 00000KT 10SM SCT120 08/04 A2940 RMK AO2,KSPF,2022-10-23T00:35:00Z,44.47,-103.78,8.0,4.0,0,0,,10.0,29.40059,,,TRUE,TRUE,,,,,,,SCT,12000,,,,,,,VFR,,,,,,,,,,,,METAR,1191.0
KSPA 230035Z AUTO 00000KT 10SM CLR 11/04 A3016 RMK AO2,KSPA,2022-10-23T00:35:00Z,34.92,-81.95,11.0,4.0,0,0,,10.0,30.159449,,,TRUE,TRUE,,,,,,,CLR,,,,,,,,VFR,,,,,,,,,,,,SPECI,242.0
KSOW 230035Z AUTO 21017G26KT 10SM FEW033 SCT038 SCT047 16/08 A2982 RMK AO2,KSOW,2022-10-23T00:35:00Z,34.27,-110.0,16.0,8.0,210,17,26,10.0,29.819881,,,TRUE,TRUE,,,,,,,FEW,3300,SCT,3800,SCT,4700,,,VFR,,,,,,,,,,,,METAR,1954.0
KSOA 230035Z AUTO 18008KT 10SM 25/13 A2988 RMK AO2,KSOA,2022-10-23T00:35:00Z,30.58,-100.65,25.0,13.0,180,8,,10.0,29.878937,,,TRUE,TRUE,,,,,,,,,,,,,,,,,,,,,,,,,,,SPECI,654.0
KSNL 230035Z AUTO 18016G22KT 10SM CLR 25/11 A2961 RMK AO2 T02530113,KSNL,2022-10-23T00:35:00Z,35.35,-96.95,25.3,11.3,180,16,22,10.0,29.610237,,,TRUE,TRUE,,,,,,,CLR,,,,,,,,VFR,,,,,,,,,,,,METAR,327.0
KSNK 230035Z AUTO 22008KT 10SM CLR 27/11 A2974 RMK AO2 T02720106,KSNK,2022-10-23T00:35:00Z,32.7,-100.95,27.2,10.6,220,8,,10.0,29.740158,,,TRUE,TRUE,,,,,,,CLR,,,,,,,,VFR,,,,,,,,,,,,METAR,738.0
KSNH 230035Z AUTO 16004KT 10SM BKN055 20/11 A3001 RMK A01,KSNH,2022-10-23T00:35:00Z,35.17,-88.22,20.0,11.0,160,4,,10.0,30.008858,,,TRUE,TRUE,,,,,,,BKN,5500,,,,,,,VFR,,,,,,,,,,,,METAR,142.0
KSNC 230035Z AUTO 00000KT 10SM CLR 10/09 A3030 RMK AO2,KSNC,2022-10-23T00:35:00Z,41.38,-72.5,10.0,9.0,0,0,,10.0,30.301182,,,TRUE,TRUE,,,,,,,CLR,,,,,,,,VFR,,,,,,,,,,,,METAR,114.0
KSMS 230035Z AUTO 00000KT 10SM CLR 13/11 A3015 RMK AO2,KSMS,2022-10-23T00:35:00Z,34.0,-80.37,13.0,11.0,0,0,,10.0,30.15059,,,TRUE,TRUE,,,,,,,CLR,,,,,,,,VFR,,,,,,,,,,,,METAR,53.0
KSME 230035Z AUTO 14004KT 10SM CLR 19/09 A3009 RMK AO2,KSME,2022-10-23T00:35:00Z,37.05,-84.62,19.0,9.0,140,4,,10.0,30.088583,,,TRUE,TRUE,,,,,,,CLR,,,,,,,,VFR,,,,,,,,,,,,METAR,279.0
KSLO 230035Z AUTO 16011G17KT 10SM CLR 22/12 A2990 RMK AO2 T02160120,KSLO,2022-10-23T00:35:00Z,38.65,-88.97,21.6,12.0,160,11,17,10.0,29.899607,,,TRUE,TRUE,,,,,,,CLR,,,,,,,,VFR,,,,,,,,,,,,METAR,173.0
KSLH 230035Z AUTO 18005KT 10SM CLR 18/09 A2983 RMK AO2,KSLH,2022-10-23T00:35:00Z,45.65,-84.52,18.0,9.0,180,5,,10.0,29.828741,,,TRUE,TRUE,,,,,,,CLR,,,,,,,,VFR,,,,,,,,,,,,METAR,193.0
KSLB 230035Z AUTO 16009KT 10SM CLR 17/07 A2955 RMK AO2,KSLB,2022-10-23T00:35:00Z,42.6,-95.23,17.0,7.0,160,9,,10.0,29.551182,,,TRUE,TRUE,,,,,,,CLR,,,,,,,,VFR,,,,,,,,,,,,METAR,450.0
KSJX 230035Z AUTO 11003KT 10SM CLR 08/08 A2984 RMK AO2 T00830081,KSJX,2022-10-23T00:35:00Z,45.7,-85.57,8.3,8.1,110,3,,10.0,29.840551,,,TRUE,TRUE,,,,,,,CLR,,,,,,,,VFR,,,,,,,,,,,,METAR,202.0
KSJS 230035Z AUTO 16005KT 10SM CLR 18/08 A3014 RMK AO2 T01790077,KSJS,2022-10-23T00:35:00Z,37.75,-82.63,17.9,7.7,160,5,,10.0,30.138779,,,TRUE,TRUE,,,,,,,CLR,,,,,,,,VFR,,,,,,,,,,,,METAR,359.0
KSIK 230035Z AUTO 14006KT 10SM CLR 20/13 A2992 RMK AO2,KSIK,2022-10-23T00:35:00Z,36.9,-89.57,20.0,13.0,140,6,,10.0,29.920275,,,TRUE,TRUE,,,,,,,CLR,,,,,,,,VFR,,,,,,,,,,,,METAR,95.0
KSIF 230035Z AUTO 00000KT 10SM CLR 08/06 A3019 RMK AO2 T00800060,KSIF,2022-10-23T00:35:00Z,36.43,-79.85,8.0,6.0,0,0,,10.0,30.188976,,,TRUE,TRUE,,,,,,,CLR,,,,,,,,VFR,,,,,,,,,,,,METAR,206.0
KSHL 230035Z AUTO 15008KT 10SM CLR 18/05 A2950 RMK AO2,KSHL,2022-10-23T00:35:00Z,43.22,-95.83,18.0,5.0,150,8,,10.0,29.500984,,,TRUE,TRUE,,,,,,,CLR,,,,,,,,VFR,,,,,,,,,,,,METAR,430.0
KSHD 230035Z AUTO 00000KT 10SM CLR 08/02 A3024 RMK AO2 T00780022,KSHD,2022-10-23T00:35:00Z,38.27,-78.9,7.8,2.2,0,0,,10.0,30.239174,,,TRUE,TRUE,,,,,,,CLR,,,,,,,,VFR,,,,,,,,,,,,METAR,360.0
KSGS 230035Z AUTO 15004KT 10SM CLR 20/06 A2955 RMK AO2 T02000057,KSGS,2022-10-23T00:35:00Z,44.87,-93.03,20.0,5.7,150,4,,10.0,29.551182,,,TRUE,TRUE,,,,,,,CLR,,,,,,,,VFR,,,,,,,,,,,,METAR,250.0
KSFQ 230035Z AUTO 03003KT 10SM CLR 14/12 A3021 RMK AO2 T01410117,KSFQ,2022-10-23T00:35:00Z,36.68,-76.6,14.1,11.7,30,3,,10.0,30.209646,,,TRUE,TRUE,,,,,,,CLR,,,,,,,,VFR,,,,,,,,,,,,METAR,19.0
KSEZ 230035Z AUTO 19014G21KT 10SM 17/06 A2974 RMK AO2,KSEZ,2022-10-23T00:35:00Z,34.85,-111.78,17.0,6.0,190,14,21,10.0,29.740158,,,TRUE,TRUE,,,,,,,,,,,,,,,,,,,,,,,,,,,METAR,1455.0
KSEP 230035Z AUTO 17008KT 10SM SCT110 27/10 A2978 RMK AO2 T02660101,KSEP,2022-10-23T00:35:00Z,32.22,-98.17,26.6,10.1,170,8,,10.0,29.778543,,,TRUE,TRUE,,,,,,,SCT,11000,,,,,,,VFR,,,,,,,,,,,,METAR,399.0
KSEM 230035Z AUTO 16003KT 10SM FEW039 BKN047 14/12 A3008 RMK AO2,KSEM,2022-10-23T00:35:00Z,32.35,-86.98,14.0,12.0,160,3,,10.0,30.079725,,,TRUE,TRUE,,,,,,,FEW,3900,BKN,4700,,,,,VFR,,,,,,,,,,,,METAR,48.0
KSEF 230035Z AUTO 05005KT 10SM CLR 20/18 A3004 RMK AO2,KSEF,2022-10-23T00:35:00Z,27.45,-81.35,20.0,18.0,50,5,,10.0,30.041338,,,TRUE,TRUE,,,,,,,CLR,,,,,,,,VFR,,,,,,,,,,,,METAR,17.0
KSDC 230035Z AUTO 00000KT 10SM CLR 17/02 A3017 RMK AO2,KSDC,2022-10-23T00:35:00Z,43.23,-77.12,17.0,2.0,0,0,,10.0,30.171259,,,TRUE,TRUE,,,,,,,CLR,,,,,,,,VFR,,,,,,,,,,,,METAR,127.0
KSDA 230035Z AUTO 14008KT 10SM CLR 20/10 A2954 RMK AO2,KSDA,2022-10-23T00:35:00Z,40.75,-95.42,20.0,10.0,140,8,,10.0,29.53937,,,TRUE,TRUE,,,,,,,CLR,,,,,,,,VFR,,,,,,,,,,,,METAR,293.0
KSCX 230035Z AUTO 00000KT 10SM CLR 16/08 A3013 RMK A01,KSCX,2022-10-23T00:35:00Z,36.45,-84.58,16.0,8.0,0,0,,10.0,30.129921,,,TRUE,TRUE,,,,,,,CLR,,,,,,,,VFR,,,,,,,,,,,,METAR,462.0
KSCR 230035Z AUTO 00000KT 10SM CLR 10/09 A3018 RMK AO2 T01000087,KSCR,2022-10-23T00:35:00Z,35.7,-79.5,10.0,8.7,0,0,,10.0,30.180119,,,TRUE,TRUE,,,,,,,CLR,,,,,,,,VFR,,,,,,,,,,,,METAR,182.0
KSCD 230035Z AUTO 00000KT 10SM CLR 15/10 A3012 RMK AO2 T01470102,KSCD,2022-10-23T00:35:00Z,33.17,-86.3,14.7,10.2,0,0,,10.0,30.121063,,,TRUE,TRUE,,,,,,,CLR,,,,,,,,VFR,,,,,,,,,,,,METAR,164.0
KSBS 230035Z AUTO 19004KT 10SM BKN100 14/M05 A2955 RMK AO1 T01351047,KSBS,2022-10-23T00:35:00Z,40.52,-106.87,13.5,-4.7,190,4,,10.0,29.551182,,,TRUE,TRUE,,,,,,,BKN,10000,,,,,,,VFR,,,,,,,,,,,,SPECI,2097.0
KSBO 230035Z AUTO 00000KT 10SM CLR 12/07 A3014 RMK AO2,KSBO,2022-10-23T00:35:00Z,32.62,-82.37,12.0,7.0,0,0,,10.0,30.138779,,,TRUE,TRUE,,,,,,,CLR,,,,,,,,VFR,,,,,,,,,,,,METAR,98.0
KSAZ 230035Z AUTO 00000KT 10SM CLR 17/03 A2950 RMK AO2,KSAZ,2022-10-23T00:35:00Z,46.37,-94.8,17.0,3.0,0,0,,10.0,29.500984,,,TRUE,TRUE,,,,,,,CLR,,,,,,,,VFR,,,,,,,,,,,,METAR,391.0
KSAR 230035Z AUTO 17012G19KT 10SM CLR 21/13 A2989 RMK AO2 T02120127,KSAR,2022-10-23T00:35:00Z,38.15,-89.7,21.2,12.7,170,12,19,10.0,29.890747,,,TRUE,TRUE,,,,,,,CLR,,,,,,,,VFR,,,,,,,,,,,,METAR,162.0
KSAA 230035Z AUTO 22017G23KT 10SM BKN085 BKN120 13/M05 A2955 RMK AO2,KSAA,2022-10-23T00:35:00Z,41.45,-106.8,13.0,-5.0,220,17,23,10.0,29.551182,,,TRUE,TRUE,,,,,,,BKN,8500,BKN,12000,,,,,VFR,,,,,,,,,,,,SPECI,2093.0
KS52 230035Z AUTO 31010KT 10SM OVC080 10/M06 A2968 RMK AO2 T01041056,KS52,2022-10-23T00:35:00Z,48.42,-120.15,10.4,-5.6,310,10,,10.0,29.681103,,,TRUE,TRUE,,,,,,,OVC,8000,,,,,,,VFR,,,,,,,,,,,,METAR,517.0
KS39 230035Z AUTO 28015G23KT 10SM FEW036 BKN055 OVC065 06/M01 A2976 RMK AO2,KS39,2022-10-23T00:35:00Z,44.28,-120.9,6.0,-1.0,280,15,23,10.0,29.760826,,,TRUE,TRUE,,,,,,,FEW,3600,BKN,5500,OVC,6500,,,VFR,,,,,,,,,,,,METAR,987.0
KS33 230035Z AUTO 31010G17KT 10SM SCT046 SCT075 BKN085 08/M01 A2979 RMK AO2,KS33,2022-10-23T00:35:00Z,44.67,-121.15,8.0,-1.0,310,10,17,10.0,29.790354,,,TRUE,TRUE,,,,,,,SCT,4600,SCT,7500,BKN,8500,,,VFR,,,,,,,,,,,,METAR,739.0
KS32 230035Z AUTO 05015KT 10SM BKN037 BKN042 12/02 A2950 RMK AO2 TSNO,KS32,2022-10-23T00:35:00Z,47.42,-98.1,12.0,2.0,50,15,,10.0,29.500984,,,TRUE,TRUE,,,TRUE,,,,BKN,3700,BKN,4200,,,,,VFR,,,,,,,,,,,,METAR,435.0
KS25 230035Z AUTO 07014KT 10SM OVC017 08/07 A2953 RMK AO2,KS25,2022-10-23T00:35:00Z,47.8,-103.25,8.0,7.0,70,14,,10.0,29.530512,,,TRUE,TRUE,,,,,,,OVC,1700,,,,,,,MVFR,,,,,,,,,,,,METAR,632.0
KS24 230035Z AUTO 16006KT 10SM CLR 18/09 A3005 RMK AO2 LTG DSNT SE,KS24,2022-10-23T00:35:00Z,,,18.0,9.0,160,6,,10.0,30.050198,,,TRUE,TRUE,,,,,,,CLR,,,,,,,,VFR,,,,,,,,,,,,METAR,
KRZT 230035Z AUTO 00000KT 10SM CLR 11/07 A3010 RMK AO2 PWINO,KRZT,2022-10-23T00:35:00Z,39.43,-83.02,11.0,7.0,0,0,,10.0,30.100393,,,TRUE,TRUE,,,,,TRUE,,CLR,,,,,,,,VFR,,,,,,,,,,,,METAR,217.0
KRZR 230035Z AUTO 00000KT 10SM CLR 13/11 A3011 RMK A01,KRZR,2022-10-23T00:35:00Z,35.22,-84.8,13.0,11.0,0,0,,10.0,30.109253,,,TRUE,TRUE,,,,,,,CLR,,,,,,,,VFR,,,,,,,,,,,,METAR,259.0
KRZN 230035Z AUTO 09003KT 10SM CLR 12/05 A2959 RMK AO2 T01180049,KRZN,2022-10-23T00:35:00Z,45.82,-92.37,11.8,4.9,90,3,,10.0,29.589567,,,TRUE,TRUE,,,,,,,CLR,,,,,,,,VFR,,,,,,,,,,,,METAR,301.0
KRZL 230035Z AUTO 15007KT 10SM CLR 18/11 A2992 RMK AO2,KRZL,2022-10-23T00:35:00Z,40.95,-87.18,18.0,11.0,150,7,,10.0,29.920275,,,TRUE,TRUE,,,,,,,CLR,,,,,,,,VFR,,,,,,,,,,,,METAR,210.0
KRYW 230035Z AUTO 19009KT 10SM CLR 26/13 A2986 RMK AO2 T02600127,KRYW,2022-10-23T00:35:00Z,30.5,-97.97,26.0,12.7,190,9,,10.0,29.861221,,,TRUE,TRUE,,,,,,,CLR,,,,,,,,VFR,,,,,,,,,,,,METAR,370.0
KRYV 230035Z AUTO 14005KT 10SM CLR 19/09 A2976 RMK AO2 T01850092,KRYV,2022-10-23T00:35:00Z,43.17,-88.72,18.5,9.2,140,5,,10.0,29.760826,,,TRUE,TRUE,,,,,,,CLR,,,,,,,,VFR,,,,,,,,,,,,METAR,249.0
KRWV 230035Z AUTO 17017G24KT 10SM CLR 25/16 A2987 RMK AO2 T02550162,KRWV,2022-10-23T00:35:00Z,30.52,-96.7,25.5,16.2,170,17,24,10.0,29.870079,,,TRUE,TRUE,,,,,,,CLR,,,,,,,,VFR,,,,,,,,,,,,METAR,116.0
KRVL 230035Z AUTO 00000KT 10SM CLR 10/04 A3023 RMK AO2,KRVL,2022-10-23T00:35:00Z,40.68,-77.63,10.0,4.0,0,0,,10.0,30.230314,,,TRUE,TRUE,,,,,,,CLR,,,,,,,,VFR,,,,,,,,,,,,METAR,250.0
KRVJ 230035Z AUTO 00000KT 10SM CLR 13/04 A3012 RMK AO2 T01320038,KRVJ,2022-10-23T00:35:00Z,32.07,-82.15,13.2,3.8,0,0,,10.0,30.121063,,,TRUE,TRUE,,,,,,,CLR,,,,,,,,VFR,,,,,,,,,,,,METAR,60.0
KRVF 230035Z AUTO 03014G20KT 6SM -RA FEW006 SCT022 03/01 A2950 RMK AO2,KRVF,2022-10-23T00:35:00Z,45.53,-112.3,3.0,1.0,30,14,20,6.0,29.500984,,,TRUE,TRUE,,,,,,-RA,FEW,600,SCT,2200,,,,,VFR,,,,,,,,,,,,METAR,1445.0
KRUQ 230035Z AUTO 00000KT 10SM CLR 09/05 A3018 RMK AO2 T00860052,KRUQ,2022-10-23T00:35:00Z,35.65,-80.52,8.6,5.2,0,0,,10.0,30.180119,,,TRUE,TRUE,,,,,,,CLR,,,,,,,,VFR,,,,,,,,,,,,METAR,231.0
KRUG 230035Z AUTO 06018KT 10SM BKN044 BKN055 07/07 A2956 RMK AO2,KRUG,2022-10-23T00:35:00Z,48.38,-100.02,7.0,7.0,60,18,,10.0,29.56004,,,TRUE,TRUE,,,,,,,BKN,4400,BKN,5500,,,,,VFR,,,,,,,,,,,,METAR,469.0
KRTS 230035Z AUTO 35021KT 10SM CLR 08/M13 A2975 RMK AO2,KRTS,2022-10-23T00:35:00Z,39.67,-119.88,8.0,-13.0,350,21,,10.0,29.749016,,,TRUE,TRUE,,,,,,,CLR,,,,,,,,VFR,,,,,,,,,,,,METAR,1537.0
KRSV 230035Z AUTO 16007KT 10SM CLR 18/11 A2996 RMK AO2 T01760112,KRSV,2022-10-23T00:35:00Z,39.02,-87.65,17.6,11.2,160,7,,10.0,29.958662,,,TRUE,TRUE,,,,,,,CLR,,,,,,,,VFR,,,,,,,,,,,,METAR,139.0
KRSN 230035Z AUTO 18010KT 10SM CLR 24/13 A2994 RMK AO2 T02360127,KRSN,2022-10-23T00:35:00Z,32.52,-92.58,23.6,12.7,180,10,,10.0,29.940945,,,TRUE,TRUE,,,,,,,CLR,,,,,,,,VFR,,,,,,,,,,,,METAR,86.0
KRRT 230035Z AUTO 07010KT 10SM CLR 09/07 A2964 RMK AO2,KRRT,2022-10-23T00:35:00Z,48.93,-95.33,9.0,7.0,70,10,,10.0,29.639763,,,TRUE,TRUE,,,,,,,CLR,,,,,,,,VFR,,,,,,,,,,,,METAR,327.0
KRQO 230035Z AUTO 20008KT CLR 25/06 A2959 RMK AO2 PWINO T02490065,KRQO,2022-10-23T00:35:00Z,35.47,-98.0,24.9,6.5,200,8,,,29.589567,,,TRUE,TRUE,,,,,TRUE,,CLR,,,,,,,,,,,,,,,,,,,,METAR,431.0
KRQB 230035Z AUTO 15003KT 10SM CLR 18/08 A2990 RMK AO2 T01780082,KRQB,2022-10-23T00:35:00Z,43.72,-85.5,17.8,8.2,150,3,,10.0,29.899607,,,TRUE,TRUE,,,,,,,CLR,,,,,,,,VFR,,,,,,,,,,,,METAR,282.0
KRPJ 230035Z AUTO 16013KT 10SM CLR 19/13 A2979 RMK AO2 T01920125 TSNO,KRPJ,2022-10-23T00:35:00Z,41.88,-89.08,19.2,12.5,160,13,,10.0,29.790354,,,TRUE,TRUE,,,TRUE,,,,CLR,,,,,,,,VFR,,,,,,,,,,,,METAR,234.0
KRPH 230035Z AUTO 16009KT 130V190 9SM CLR 28/13 A2967 RMK AO2 T02810127 $,KRPH,2022-10-23T00:35:00Z,33.12,-98.55,28.1,12.7,160,9,,9.0,29.66929,,,TRUE,TRUE,TRUE,,,,,,CLR,,,,,,,,VFR,,,,,,,,,,,,METAR,341.0
KRPD 230035Z AUTO 12007KT 10SM CLR 17/10 A2962 RMK AO2 T01730095,KRPD,2022-10-23T00:35:00Z,45.42,-91.77,17.3,9.5,120,7,,10.0,29.619095,,,TRUE,TRUE,,,,,,,CLR,,,,,,,,VFR,,,,,,,,,,,,METAR,334.0
KROX 230035Z AUTO 08013G16KT 10SM CLR 11/06 A2962 RMK AO2,KROX,2022-10-23T00:35:00Z,48.85,-95.7,11.0,6.0,80,13,16,10.0,29.619095,,,TRUE,TRUE,,,,,,,CLR,,,,,,,,VFR,,,,,,,,,,,,METAR,320.0
KRNV 230035Z AUTO 16010KT 10SM CLR A2994 RMK AO2 TSNO,KRNV,2022-10-23T00:35:00Z,33.77,-90.75,,,160,10,,10.0,29.940945,,,TRUE,TRUE,,,TRUE,,,,CLR,,,,,,,,VFR,,,,,,,,,,,,METAR,42.0
KRNP 230035Z AUTO 15005KT 10SM CLR 19/07 A2996 RMK AO2 T01860070,KRNP,2022-10-23T00:35:00Z,43.0,-84.13,18.6,7.0,150,5,,10.0,29.958662,,,TRUE,TRUE,,,,,,,CLR,,,,,,,,VFR,,,,,,,,,,,,METAR,224.0
KRNH 230035Z AUTO 12004KT 10SM CLR 17/10 A2958 RMK AO2 T01700098,KRNH,2022-10-23T00:35:00Z,45.15,-92.53,17.0,9.8,120,4,,10.0,29.58071,,,TRUE,TRUE,,,,,,,CLR,,,,,,,,VFR,,,,,,,,,,,,METAR,302.0
KRNC 230035Z AUTO 14003KT 10SM FEW049 16/11 A3009 RMK A01,KRNC,2022-10-23T00:35:00Z,35.7,-85.85,16.0,11.0,140,3,,10.0,30.088583,,,TRUE,TRUE,,,,,,,FEW,4900,,,,,,,VFR,,,,,,,,,,,,METAR,310.0
KRMY 230035Z AUTO 14005KT 10SM CLR 18/08 A2996 RMK AO2 T01800078,KRMY,2022-10-23T00:35:00Z,42.25,-84.95,18.0,7.8,140,5,,10.0,29.958662,,,TRUE,TRUE,,,,,,,CLR,,,,,,,,VFR,,,,,,,,,,,,METAR,285.0
KRMN 230035Z AUTO 00000KT 10SM CLR 12/07 A3026 RMK AO2 T01150074,KRMN,2022-10-23T00:35:00Z,38.4,-77.45,11.5,7.4,0,0,,10.0,30.259842,,,TRUE,TRUE,,,,,,,CLR,,,,,,,,VFR,,,,,,,,,,,,METAR,50.0
KRLD 230035Z AUTO 20004G20KT 3SM RA SCT044 BKN070 OVC090 12/05 A2969 RMK AO2 P0003 T01150054,KRLD,2022-10-23T00:35:00Z,46.3,-119.3,11.5,5.4,200,4,20,3.0,29.68996,,,TRUE,TRUE,,,,,,RA,SCT,4400,BKN,7000,OVC,9000,,,MVFR,,,,,,0.03,,,,,,METAR,118.0
KRKR 230035Z AUTO 17012G17KT 10SM CLR 25/12 A2974 RMK AO2,KRKR,2022-10-23T00:35:00Z,35.02,-94.62,25.0,12.0,170,12,17,10.0,29.740158,,,TRUE,TRUE,,,,,,,CLR,,,,,,,,VFR,,,,,,,,,,,,METAR,136.0
KRHP 230035Z AUTO 00000KT 10SM CLR 10/04 A3017 RMK AO2 T00970042,KRHP,2022-10-23T00:35:00Z,35.18,-83.85,9.7,4.2,0,0,,10.0,30.171259,,,TRUE,TRUE,,,,,,,CLR,,,,,,,,VFR,,,,,,,,,,,,METAR,515.0
KRGK 230035Z AUTO 13005KT 10SM CLR 19/06 A2956 RMK AO2,KRGK,2022-10-23T00:35:00Z,44.58,-92.48,19.0,6.0,130,5,,10.0,29.56004,,,TRUE,TRUE,,,,,,,CLR,,,,,,,,VFR,,,,,,,,,,,,METAR,238.0
KREG 230035Z AUTO 14004KT 10SM CLR 22/15 A3003 RMK AO2 T02200150,KREG,2022-10-23T00:35:00Z,30.17,-90.93,22.0,15.0,140,4,,10.0,30.029528,,,TRUE,TRUE,,,,,,,CLR,,,,,,,,VFR,,,,,,,,,,,,METAR,3.0
KRDK 230035Z AUTO 16005KT CLR 20/10 A2956 RMK AO2,KRDK,2022-10-23T00:35:00Z,41.02,-95.27,20.0,10.0,160,5,,,29.56004,,,TRUE,TRUE,,,,,,,CLR,,,,,,,,,,,,,,,,,,,,METAR,317.0
KRCZ 230035Z AUTO 04003KT 10SM CLR 17/10 A3016 RMK AO2 T01650095,KRCZ,2022-10-23T00:35:00Z,34.88,-79.77,16.5,9.5,40,3,,10.0,30.159449,,,TRUE,TRUE,,,,,,,CLR,,,,,,,,VFR,,,,,,,,,,,,METAR,110.0
KRCX 230035Z AUTO 12005KT 10SM CLR 17/09 A2966 RMK AO2 T01690092,KRCX,2022-10-23T00:35:00Z,45.5,-91.0,16.9,9.2,120,5,,10.0,29.660433,,,TRUE,TRUE,,,,,,,CLR,,,,,,,,VFR,,,,,,,,,,,,METAR,373.0
KRCV 230035Z AUTO 25014G19KT 10SM CLR 11/M03 A2975 RMK AO2 T01141030,KRCV,2022-10-23T00:35:00Z,37.72,-106.35,11.4,-3.0,250,14,19,10.0,29.749016,,,TRUE,TRUE,,,,,,,CLR,,,,,,,,VFR,,,,,,,,,,,,SPECI,2418.0
KRCR 230035Z AUTO 16006KT 10SM CLR 19/11 A2995 RMK AO2,KRCR,2022-10-23T00:35:00Z,41.07,-86.18,19.0,11.0,160,6,,10.0,29.949802,,,TRUE,TRUE,,,,,,,CLR,,,,,,,,VFR,,,,,,,,,,,,METAR,240.0
KRCM 230035Z AUTO 14010KT 10SM BKN080 23/10 A2964 RMK AO2,KRCM,2022-10-23T00:35:00Z,38.78,-93.8,23.0,10.0,140,10,,10.0,29.639763,,,TRUE,TRUE,,,,,,,BKN,8000,,,,,,,VFR,,,,,,,,,,,,METAR,242.0
KRCE 230035Z AUTO 19007KT 10SM CLR 26/05 A2958 RMK AO2,KRCE,2022-10-23T00:35:00Z,35.48,-97.82,26.0,5.0,190,7,,10.0,29.58071,,,TRUE,TRUE,,,,,,,CLR,,,,,,,,VFR,,,,,,,,,,,,METAR,412.0
KRBW 230035Z AUTO 00000KT 10SM CLR 12/11 A3014 RMK AO2,KRBW,2022-10-23T00:35:00Z,32.92,-80.63,12.0,11.0,0,0,,10.0,30.138779,,,TRUE,TRUE,,,,,,,CLR,,,,,,,,VFR,,,,,,,,,,,,SPECI,30.0
KRBO 230035Z AUTO 10SM CLR 25/19 A2989 RMK AO2 T02510191,KRBO,2022-10-23T00:35:00Z,27.78,-97.68,25.1,19.1,,,,10.0,29.890747,,,TRUE,TRUE,,,,,,,CLR,,,,,,,,VFR,,,,,,,,,,,,SPECI,24.0
KRAW 230035Z AUTO 18013G22KT 10SM OVC075 23/10 A2970 RMK AO2,KRAW,2022-10-23T00:35:00Z,38.35,-93.35,23.0,10.0,180,13,22,10.0,29.698818,,,TRUE,TRUE,,,,,,,OVC,7500,,,,,,,VFR,,,,,,,,,,,,METAR,285.0
KRAS 230035Z AUTO 16014KT 10SM CLR A2991 RMK AO2,KRAS,2022-10-23T00:35:00Z,27.82,-97.08,,,160,14,,10.0,29.911417,,,TRUE,TRUE,,,,,,,CLR,,,,,,,,VFR,,,,,,,,,,,,METAR,3.0
KPZZ 230035Z AUTO 14014KT 10SM BKN048 25/15 A3002 RMK A01,KPZZ,2022-10-23T00:35:00Z,28.43,-91.03,25.0,15.0,140,14,,10.0,30.02067,,,TRUE,TRUE,,,,,,,BKN,4800,,,,,,,VFR,,,,,,,,,,,,METAR,25.0
KPZQ 230035Z AUTO 19010G16KT 10SM CLR 20/09 A2986 RMK AO2 T01950092,KPZQ,2022-10-23T00:35:00Z,45.4,-83.82,19.5,9.2,190,10,16,10.0,29.861221,,,TRUE,TRUE,,,,,,,CLR,,,,,,,,VFR,,,,,,,,,,,,METAR,199.0
KPYX 230035Z AUTO 21011KT 10SM CLR 23/M01 A2953 RMK AO2 T02301015,KPYX,2022-10-23T00:35:00Z,36.42,-100.75,23.0,-1.5,210,11,,10.0,29.530512,,,TRUE,TRUE,,,,,,,CLR,,,,,,,,VFR,,,,,,,,,,,,METAR,890.0
KPXE 230035Z AUTO 00000KT 10SM CLR 10/07 A3013 RMK AO2 T00950073,KPXE,2022-10-23T00:35:00Z,32.52,-83.77,9.5,7.3,0,0,,10.0,30.129921,,,TRUE,TRUE,,,,,,,CLR,,,,,,,,VFR,,,,,,,,,,,,METAR,126.0
KPWD 230035Z AUTO 08015KT 10SM FEW022 BKN046 OVC055 07/03 A2955 RMK AO2,KPWD,2022-10-23T00:35:00Z,48.78,-104.52,7.0,3.0,80,15,,10.0,29.551182,,,TRUE,TRUE,,,,,,,FEW,2200,BKN,4600,OVC,5500,,,VFR,,,,,,,,,,,,METAR,690.0
KPWC 230035Z AUTO 11009KT 10SM CLR 14/07 A2956 RMK AO2,KPWC,2022-10-23T00:35:00Z,46.72,-94.38,14.0,7.0,110,9,,10.0,29.56004,,,TRUE,TRUE,,,,,,,CLR,,,,,,,,VFR,,,,,,,,,,,,METAR,394.0
KPVJ 230035Z AUTO 18010G21KT 10SM CLR 27/13 A2963 RMK AO2 T02660125,KPVJ,2022-10-23T00:35:00Z,34.72,-97.22,26.6,12.5,180,10,21,10.0,29.630905,,,TRUE,TRUE,,,,,,,CLR,,,,,,,,VFR,,,,,,,,,,,,METAR,287.0
KPVF 230035Z AUTO 30005G14KT 10SM CLR 14/M04 A2974 RMK AO1,KPVF,2022-10-23T00:35:00Z,38.72,-120.75,14.0,-4.0,300,5,14,10.0,29.740158,,,TRUE,TRUE,,,,,,,CLR,,,,,,,,VFR,,,,,,,,,,,,METAR,788.0
KPVB 230035Z AUTO 15010KT 10SM CLR 20/09 A2971 RMK AO1 T02030091,KPVB,2022-10-23T00:35:00Z,42.68,-90.43,20.3,9.1,150,10,,10.0,29.71063,,,TRUE,TRUE,,,,,,,CLR,,,,,,,,VFR,,,,,,,,,,,,METAR,311.0
KPUJ 230035Z AUTO 00000KT 7SM CLR 15/05 A3014 RMK AO2,KPUJ,2022-10-23T00:35:00Z,33.92,-84.93,15.0,5.0,0,0,,7.0,30.138779,,,TRUE,TRUE,,,,,,,CLR,,,,,,,,VFR,,,,,,,,,,,,METAR,385.0
KPTT 230035Z AUTO 19006KT 10SM CLR 20/M06 A2949 RMK AO2 T01991056,KPTT,2022-10-23T00:35:00Z,37.7,-98.75,19.9,-5.6,190,6,,10.0,29.489174,,,TRUE,TRUE,,,,,,,CLR,,,,,,,,VFR,,,,,,,,,,,,METAR,594.0
KPTS 230035Z AUTO 18013G19KT 10SM CLR 25/14 A2964 RMK AO2 T02500135 PWINO,KPTS,2022-10-23T00:35:00Z,37.45,-94.73,25.0,13.5,180,13,19,10.0,29.639763,,,TRUE,TRUE,,,,,TRUE,,CLR,,,,,,,,VFR,,,,,,,,,,,,METAR,286.0
KPTD 230035Z AUTO 16005KT 10SM FEW033 SCT044 OVC070 16/02 A3017 RMK AO2,KPTD,2022-10-23T00:35:00Z,44.68,-74.95,16.0,2.0,160,5,,10.0,30.171259,,,TRUE,TRUE,,,,,,,FEW,3300,SCT,4400,OVC,7000,,,VFR,,,,,,,,,,,,METAR,144.0
KPSO 230035Z AUTO 00000KT 10SM SCT075 SCT080 SCT100 11/00 A2979 RMK AO2 T01131003,KPSO,2022-10-23T00:35:00Z,37.28,-107.05,11.3,-0.3,0,0,,10.0,29.790354,,,TRUE,TRUE,,,,,,,SCT,7500,SCT,8000,SCT,10000,,,VFR,,,,,,,,,,,,METAR,2332.0
KPSN 230035Z AUTO 17007G15KT 10SM CLR 26/13 A2982 RMK AO2,KPSN,2022-10-23T00:35:00Z,31.78,-95.7,26.0,13.0,170,7,15,10.0,29.819881,,,TRUE,TRUE,,,,,,,CLR,,,,,,,,VFR,,,,,,,,,,,,SPECI,124.0
KPSK 230035Z AUTO 00000KT 7SM CLR 11/04 A3021 RMK AO2 T01060041,KPSK,2022-10-23T00:35:00Z,37.13,-80.67,10.6,4.1,0,0,,7.0,30.209646,,,TRUE,TRUE,,,,,,,CLR,,,,,,,,VFR,,,,,,,,,,,,METAR,629.0
KPRS 230035Z AUTO 00000KT 10SM CLR 29/11 A2982 RMK AO2 T02910114,KPRS,2022-10-23T00:35:00Z,29.63,-104.35,29.1,11.4,0,0,,10.0,29.819881,,,TRUE,TRUE,,,,,,,CLR,,,,,,,,VFR,,,,,,,,,,,,METAR,890.0
KPRO 230035Z AUTO 20005KT 10SM CLR 19/08 A2957 RMK AO2 T01920080,KPRO,2022-10-23T00:35:00Z,41.83,-94.17,19.2,8.0,200,5,,10.0,29.568897,,,TRUE,TRUE,,,,,,,CLR,,,,,,,,VFR,,,,,,,,,,,,METAR,308.0
KPRG 230035Z AUTO 16010KT 10SM CLR 19/13 A2995 RMK AO2 T01860130,KPRG,2022-10-23T00:35:00Z,39.7,-87.67,18.6,13.0,160,10,,10.0,29.949802,,,TRUE,TRUE,,,,,,,CLR,,,,,,,,VFR,,,,,,,,,,,,METAR,197.0
KPPQ 230035Z AUTO 16013G21KT 10SM SCT120 23/11 A2976 RMK AO2 T02260106,KPPQ,2022-10-23T00:35:00Z,39.63,-90.78,22.6,10.6,160,13,21,10.0,29.760826,,,TRUE,TRUE,,,,,,,SCT,12000,,,,,,,VFR,,,,,,,,,,,,METAR,215.0
KPPO 230035Z AUTO 17005KT 10SM CLR 19/13 A2992 RMK AO2 T01930134,KPPO,2022-10-23T00:35:00Z,41.57,-86.73,19.3,13.4,170,5,,10.0,29.920275,,,TRUE,TRUE,,,,,,,CLR,,,,,,,,VFR,,,,,,,,,,,,METAR,242.0
KPPA 230035Z AUTO 22020G24KT 10SM CLR 25/09 A2962 RMK AO2 T02460087,KPPA,2022-10-23T00:35:00Z,35.62,-101.0,24.6,8.7,220,20,24,10.0,29.619095,,,TRUE,TRUE,,,,,,,CLR,,,,,,,,VFR,,,,,,,,,,,,SPECI,989.0
KPOY 230035Z AUTO 34018G28KT 10SM BKN070 06/02 A2936 RMK AO2,KPOY,2022-10-23T00:35:00Z,44.87,-108.8,6.0,2.0,340,18,28,10.0,29.359253,,,TRUE,TRUE,,,,,,,BKN,7000,,,,,,,VFR,,,,,,,,,,,,SPECI,1547.0
KPOV 230035Z AUTO 00000KT 10SM CLR 14/07 A3013 RMK AO2 T01440065 PWINO,KPOV,2022-10-23T00:35:00Z,41.22,-81.25,14.4,6.5,0,0,,10.0,30.129921,,,TRUE,TRUE,,,,,TRUE,,CLR,,,,,,,,VFR,,,,,,,,,,,,METAR,363.0
KPNT 230035Z AUTO 17015G21KT 10SM CLR 21/13 A2985 RMK AO2 T02060126,KPNT,2022-10-23T00:35:00Z,40.92,-88.62,20.6,12.6,170,15,21,10.0,29.84941,,,TRUE,TRUE,,,,,,,CLR,,,,,,,,VFR,,,,,,,,,,,,METAR,199.0
KPNM 230035Z AUTO 09003KT 10SM CLR 13/06 A2955 RMK A,KPNM,2022-10-23T00:35:00Z,45.53,-93.6,13.0,6.0,90,3,,10.0,29.551182,,,TRUE,,,,,,,,CLR,,,,,,,,VFR,,,,,,,,,,,,METAR,298.0
KPNA 230035Z AUTO 30008KT 10SM -SN SCT027 OVC034 01/00 A2953 RMK AO2,KPNA,2022-10-23T00:35:00Z,42.8,-109.8,1.0,0.0,300,8,,10.0,29.530512,,,TRUE,TRUE,,,,,,-SN,SCT,2700,OVC,3400,,,,,VFR,,,,,,,,,,,,SPECI,2158.0
KPMV 230035Z AUTO 14008KT 10SM CLR 21/09 A2954 RMK AO2 T02060087 PWINO,KPMV,2022-10-23T00:35:00Z,40.95,-95.92,20.6,8.7,140,8,,10.0,29.53937,,,TRUE,TRUE,,,,,TRUE,,CLR,,,,,,,,VFR,,,,,,,,,,,,METAR,365.0
KPMU 230035Z AUTO 15005KT 10SM CLR 21/10 A2997 RMK AO2,KPMU,2022-10-23T00:35:00Z,34.37,-89.9,21.0,10.0,150,5,,10.0,29.970472,,,TRUE,TRUE,,,,,,,CLR,,,,,,,,VFR,,,,,,,,,,,,METAR,67.0
KPMH 230035Z AUTO 00000KT 10SM CLR 16/08 A3012 RMK AO2 T01580077,KPMH,2022-10-23T00:35:00Z,38.83,-82.85,15.8,7.7,0,0,,10.0,30.121063,,,TRUE,TRUE,,,,,,,CLR,,,,,,,,VFR,,,,,,,,,,,,METAR,200.0
KPLU 230035Z AUTO 00000KT 10SM BKN034 BKN065 09/07 A2981 RMK AO2,KPLU,2022-10-23T00:35:00Z,47.1,-122.28,9.0,7.0,0,0,,10.0,29.811024,,,TRUE,TRUE,,,,,,,BKN,3400,BKN,6500,,,,,VFR,,,,,,,,,,,,SPECI,164.0
KPLR 230035Z AUTO 00000KT 10SM FEW033 BKN040 BKN045 14/11 A3011 RMK A01,KPLR,2022-10-23T00:35:00Z,33.57,-86.25,14.0,11.0,0,0,,10.0,30.109253,,,TRUE,TRUE,,,,,,,FEW,3300,BKN,4000,BKN,4500,,,VFR,,,,,,,,,,,,METAR,145.0
KPIM 230035Z AUTO 00000KT 10SM CLR 12/05 A3013 RMK AO2 T01170050,KPIM,2022-10-23T00:35:00Z,32.83,-84.88,11.7,5.0,0,0,,10.0,30.129921,,,TRUE,TRUE,,,,,,,CLR,,,,,,,,VFR,,,,,,,,,,,,METAR,274.0
KPHT 230035Z AUTO 15006KT 10SM FEW055 FEW065 18/11 A3000 RMK A01,KPHT,2022-10-23T00:35:00Z,36.33,-88.38,18.0,11.0,150,6,,10.0,30.0,,,TRUE,TRUE,,,,,,,FEW,5500,FEW,6500,,,,,VFR,,,,,,,,,,,,METAR,172.0
KPHN 230035Z AUTO 16005KT 10SM CLR 16/08 A3003 RMK AO2,KPHN,2022-10-23T00:35:00Z,42.92,-82.52,16.0,8.0,160,5,,10.0,30.029528,,,TRUE,TRUE,,,,,,,CLR,,,,,,,,VFR,,,,,,,,,,,,METAR,195.0
KPGV 230035Z AUTO 05003KT 10SM CLR 15/13 A3016 RMK AO2,KPGV,2022-10-23T00:35:00Z,35.63,-77.4,15.0,13.0,50,3,,10.0,30.159449,,,TRUE,TRUE,,,,,,,CLR,,,,,,,,VFR,,,,,,,,,,,,METAR,6.0
KPEZ 230035Z AUTO 14008G17KT 10SM CLR 27/17 A2986 RMK AO2 T02710173,KPEZ,2022-10-23T00:35:00Z,28.95,-98.52,27.1,17.3,140,8,17,10.0,29.861221,,,TRUE,TRUE,,,,,,,CLR,,,,,,,,VFR,,,,,,,,,,,,METAR,126.0
KPEX 230035Z AUTO 14009KT 10SM CLR 19/06 A2950 RMK AO2,KPEX,2022-10-23T00:35:00Z,45.37,-94.73,19.0,6.0,140,9,,10.0,29.500984,,,TRUE,TRUE,,,,,,,CLR,,,,,,,,VFR,,,,,,,,,,,,METAR,359.0
KPEQ 230035Z AUTO 00000KT 10SM CLR 26/11 A2976 RMK AO2 T02600112,KPEQ,2022-10-23T00:35:00Z,31.38,-103.52,26.0,11.2,0,0,,10.0,29.760826,,,TRUE,TRUE,,,,,,,CLR,,,,,,,,VFR,,,,,,,,,,,,SPECI,794.0
KPEA 230035Z AUTO 18007KT 10SM CLR 24/05 A2962 RMK AO2 T02390054,KPEA,2022-10-23T00:35:00Z,41.4,-92.95,23.9,5.4,180,7,,10.0,29.619095,,,TRUE,TRUE,,,,,,,CLR,,,,,,,,VFR,,,,,,,,,,,,METAR,264.0
KPCZ 230035Z AUTO 13004KT 10SM CLR 18/09 A2973 RMK AO2 T01830090,KPCZ,2022-10-23T00:35:00Z,44.33,-89.02,18.3,9.0,130,4,,10.0,29.731298,,,TRUE,TRUE,,,,,,,CLR,,,,,,,,VFR,,,,,,,,,,,,METAR,248.0
KPCW 230035Z AUTO 16005KT 10SM CLR 16/10 A3004 RMK AO2,KPCW,2022-10-23T00:35:00Z,41.52,-82.87,16.0,10.0,160,5,,10.0,30.041338,,,TRUE,TRUE,,,,,,,CLR,,,,,,,,VFR,,,,,,,,,,,,METAR,179.0
KPCM 230035Z AUTO 03005KT 10SM CLR 23/17 A3007 RMK AO2,KPCM,2022-10-23T00:35:00Z,28.0,-82.17,23.0,17.0,30,5,,10.0,30.070866,,,TRUE,TRUE,,,,,,,CLR,,,,,,,,VFR,,,,,,,,,,,,METAR,43.0
KPCD 230035Z AUTO 15013G16KT 110V180 10SM CLR 21/15 A2988 RMK AO2 T02120145,KPCD,2022-10-23T00:35:00Z,37.87,-89.87,21.2,14.5,150,13,16,10.0,29.878937,,,TRUE,TRUE,,,,,,,CLR,,,,,,,,VFR,,,,,,,,,,,,METAR,112.0
KPBX 230035Z AUTO 00000KT 10SM CLR 19/05 A3015 RMK AO2 T01870051,KPBX,2022-10-23T00:35:00Z,37.57,-82.57,18.7,5.1,0,0,,10.0,30.15059,,,TRUE,TRUE,,,,,,,CLR,,,,,,,,VFR,,,,,,,,,,,,METAR,447.0
KPAN 230035Z AUTO VRB05G11KT 10SM SCT046 BKN060 OVC070 17/08 A2981 RMK AO2 PWINO TSNO,KPAN,2022-10-23T00:35:00Z,34.25,-111.33,17.0,8.0,0,5,11,10.0,29.811024,,,TRUE,TRUE,,,TRUE,,TRUE,,SCT,4600,BKN,6000,OVC,7000,,,VFR,,,,,,,,,,,,METAR,1575.0
KP08 230035Z AUTO 24016G22KT 10SM CLR 28/13 A2963 RMK AO2,KP08,2022-10-23T00:35:00Z,32.93,-111.43,28.0,13.0,240,16,22,10.0,29.630905,,,TRUE,TRUE,,,,,,,CLR,,,,,,,,VFR,,,,,,,,,,,,METAR,477.0
KOZW 230035Z AUTO 15007KT 10SM CLR 18/08 A2999 RMK AO2 T01750082,KOZW,2022-10-23T00:35:00Z,42.62,-83.98,17.5,8.2,150,7,,10.0,29.991142,,,TRUE,TRUE,,,,,,,CLR,,,,,,,,VFR,,,,,,,,,,,,METAR,288.0
KOZS 230035Z AUTO 16019G24KT 10SM CLR 22/08 A2974 RMK AO2,KOZS,2022-10-23T00:35:00Z,37.97,-92.68,22.0,8.0,160,19,24,10.0,29.740158,,,TRUE,TRUE,,,,,,,CLR,,,,,,,,VFR,,,,,,,,,,,,METAR,321.0
KOZA 230035Z AUTO 19009G16KT 7SM CLR 23/12 A2985 RMK AO2,KOZA,2022-10-23T00:35:00Z,30.73,-101.2,23.0,12.0,190,9,16,7.0,29.84941,,,TRUE,TRUE,,,,,,,CLR,,,,,,,,VFR,,,,,,,,,,,,METAR,721.0
KOXV 230035Z AUTO 18009KT 10SM CLR 24/07 A2961 RMK AO2,KOXV,2022-10-23T00:35:00Z,41.28,-93.12,24.0,7.0,180,9,,10.0,29.610237,,,TRUE,TRUE,,,,,,,CLR,,,,,,,,VFR,,,,,,,,,,,,METAR,280.0
KOXI 230035Z AUTO 16008KT 10SM CLR 18/10 A2992 RMK AO1,KOXI,2022-10-23T00:35:00Z,41.33,-86.67,18.0,10.0,160,8,,10.0,29.920275,,,TRUE,TRUE,,,,,,,CLR,,,,,,,,VFR,,,,,,,,,,,,METAR,208.0
KOXD 230035Z AUTO 17005KT 10SM CLR 21/08 A3006 RMK AO2 T02050082,KOXD,2022-10-23T00:35:00Z,39.5,-84.78,20.5,8.2,170,5,,10.0,30.059055,,,TRUE,TRUE,,,,,,,CLR,,,,,,,,VFR,,,,,,,,,,,,METAR,317.0
KOWX 230035Z AUTO 00000KT 10SM CLR 17/08 A3004 RMK AO1,KOWX,2022-10-23T00:35:00Z,41.03,-83.98,17.0,8.0,0,0,,10.0,30.041338,,,TRUE,TRUE,,,,,,,CLR,,,,,,,,VFR,,,,,,,,,,,,METAR,232.0
KOWP 230035Z AUTO 17012G20KT 10SM CLR 27/14 A2964 RMK AO2 T02720142,KOWP,2022-10-23T00:35:00Z,36.18,-96.15,27.2,14.2,170,12,20,10.0,29.639763,,,TRUE,TRUE,,,,,,,CLR,,,,,,,,VFR,,,,,,,,,,,,METAR,267.0
KOVL 230035Z AUTO 15008KT 7SM CLR 17/03 A2949 RMK AO2,KOVL,2022-10-23T00:35:00Z,44.78,-95.03,17.0,3.0,150,8,,7.0,29.489174,,,TRUE,TRUE,,,,,,,CLR,,,,,,,,VFR,,,,,,,,,,,,METAR,329.0
KOSC 230035Z AUTO 19008KT 10SM CLR 18/08 A2993 RMK AO2 T01800084,KOSC,2022-10-23T00:35:00Z,44.45,-83.4,18.0,8.4,190,8,,10.0,29.929134,,,TRUE,TRUE,,,,,,,CLR,,,,,,,,VFR,,,,,,,,,,,,SPECI,191.0
KORS 230035Z AUTO 00000KT 10SM FEW065 10/ A2979 RMK AO2,KORS,2022-10-23T00:35:00Z,48.7,-122.92,10.0,,0,0,,10.0,29.790354,,,TRUE,TRUE,,,,,,,FEW,6500,,,,,,,VFR,,,,,,,,,,,,METAR,7.0
KORG 230035Z AUTO 16004KT 10SM CLR 24/19 A2998 RMK AO2 T02390186,KORG,2022-10-23T00:35:00Z,30.07,-93.8,23.9,18.6,160,4,,10.0,29.97933,,,TRUE,TRUE,,,,,,,CLR,,,,,,,,VFR,,,,,,,,,,,,METAR,2.0
KOQN 230035Z AUTO 00000KT 10SM CLR 11/06 A3028 RMK AO2,KOQN,2022-10-23T00:35:00Z,39.98,-75.58,11.0,6.0,0,0,,10.0,30.280512,,,TRUE,TRUE,,,,,,,CLR,,,,,,,,VFR,,,,,,,,,,,,METAR,141.0
KOPN 230035Z AUTO 00000KT 10SM CLR 15/05 A3015 RMK AO2,KOPN,2022-10-23T00:35:00Z,32.95,-84.27,15.0,5.0,0,0,,10.0,30.15059,,,TRUE,TRUE,,,,,,,CLR,,,,,,,,VFR,,,,,,,,,,,,METAR,241.0
KOPL 230035Z AUTO 17006KT 10SM CLR 21/15 A3000 RMK AO2 T02120147,KOPL,2022-10-23T00:35:00Z,30.55,-92.1,21.2,14.7,170,6,,10.0,30.0,,,TRUE,TRUE,,,,,,,CLR,,,,,,,,VFR,,,,,,,,,,,,METAR,22.0
KOOA 230035Z AUTO 17017G21KT 10SM CLR 25/11 A2964 RMK AO2 T02500106,KOOA,2022-10-23T00:35:00Z,41.23,-92.5,25.0,10.6,170,17,21,10.0,29.639763,,,TRUE,TRUE,,,,,,,CLR,,,,,,,,VFR,,,,,,,,,,,,METAR,256.0
KONZ 230035Z AUTO 16012G16KT 10SM SCT100 SCT120 16/06 A3002 RMK AO2 T01600064,KONZ,2022-10-23T00:35:00Z,42.1,-83.15,16.0,6.4,160,12,16,10.0,30.02067,,,TRUE,TRUE,,,,,,,SCT,10000,SCT,12000,,,,,VFR,,,,,,,,,,,,METAR,179.0
KONX 230035Z AUTO 02007KT 10SM CLR 16/11 A3018 RMK AO2 T01590111,KONX,2022-10-23T00:35:00Z,36.4,-76.02,15.9,11.1,20,7,,10.0,30.180119,,,TRUE,TRUE,,,,,,,CLR,,,,,,,,VFR,,,,,,,,,,,,METAR,4.0
KONM 230035Z AUTO 10005KT 10SM CLR 21/06 A2975 RMK AO2 T02080063,KONM,2022-10-23T00:35:00Z,34.02,-106.9,20.8,6.3,100,5,,10.0,29.749016,,,TRUE,TRUE,,,,,,,CLR,,,,,,,,VFR,,,,,,,,,,,,METAR,1467.0
KONL 230035Z AUTO 13008KT 10SM CLR 21/M01 A2945 RMK AO2 T02141015,KONL,2022-10-23T00:35:00Z,42.47,-98.68,21.4,-1.5,130,8,,10.0,29.450787,,,TRUE,TRUE,,,,,,,CLR,,,,,,,,VFR,,,,,,,,,,,,METAR,619.0
KONA 230035Z AUTO 15003KT 10SM CLR 18/07 A2961 RMK AO2,KONA,2022-10-23T00:35:00Z,44.07,-91.7,18.0,7.0,150,3,,10.0,29.610237,,,TRUE,TRUE,,,,,,,CLR,,,,,,,,VFR,,,,,,,,,,,,METAR,200.0
KOMH 230035Z AUTO 00000KT 10SM CLR 07/05 A3025 RMK AO2,KOMH,2022-10-23T00:35:00Z,38.25,-78.05,7.0,5.0,0,0,,10.0,30.250984,,,TRUE,TRUE,,,,,,,CLR,,,,,,,,VFR,,,,,,,,,,,,METAR,136.0
KOLZ 230035Z AUTO 14010KT 10SM CLR 20/08 A2964 RMK A01,KOLZ,2022-10-23T00:35:00Z,42.67,-91.97,20.0,8.0,140,10,,10.0,29.639763,,,TRUE,TRUE,,,,,,,CLR,,,,,,,,VFR,,,,,,,,,,,,METAR,328.0
KOLY 230035Z AUTO 15009G14KT 10SM CLR 21/11 A2995 RMK AO2 T02050105,KOLY,2022-10-23T00:35:00Z,38.72,-88.18,20.5,10.5,150,9,14,10.0,29.949802,,,TRUE,TRUE,,,,,,,CLR,,,,,,,,VFR,,,,,,,,,,,,METAR,144.0
KOLG 230035Z AUTO 02005KT 10SM CLR 11/03 A2963 RMK AO1,KOLG,2022-10-23T00:35:00Z,46.3,-91.82,11.0,3.0,20,5,,10.0,29.630905,,,TRUE,TRUE,,,,,,,CLR,,,,,,,,VFR,,,,,,,,,,,,METAR,334.0
KOLE 230035Z AUTO 17006KT 10SM CLR 13/01 A3021 RMK AO2,KOLE,2022-10-23T00:35:00Z,42.23,-78.37,13.0,1.0,170,6,,10.0,30.209646,,,TRUE,TRUE,,,,,,,CLR,,,,,,,,VFR,,,,,,,,,,,,METAR,651.0
KOKZ 230035Z AUTO 00000KT 10SM CLR 11/06 A3013 RMK AO2 T01070065,KOKZ,2022-10-23T00:35:00Z,32.97,-82.83,10.7,6.5,0,0,,10.0,30.129921,,,TRUE,TRUE,,,,,,,CLR,,,,,,,,VFR,,,,,,,,,,,,METAR,128.0
KOKV 230035Z AUTO 00000KT 10SM CLR 08/03 A3022 RMK AO2,KOKV,2022-10-23T00:35:00Z,39.13,-78.15,8.0,3.0,0,0,,10.0,30.221457,,,TRUE,TRUE,,,,,,,CLR,,,,,,,,VFR,,,,,,,,,,,,METAR,213.0
KOKM 230035Z AUTO 18017G22KT 10SM CLR 26/14 A2964 RMK AO2 T02630139,KOKM,2022-10-23T00:35:00Z,35.67,-95.95,26.3,13.9,180,17,22,10.0,29.639763,,,TRUE,TRUE,,,,,,,CLR,,,,,,,,VFR,,,,,,,,,,,,METAR,215.0
KOJA 230035Z AUTO 23011G18KT 10SM CLR 28/06 A2957 RMK AO2 T02840064,KOJA,2022-10-23T00:35:00Z,35.55,-98.67,28.4,6.4,230,11,18,10.0,29.568897,,,TRUE,TRUE,,,,,,,CLR,,,,,,,,VFR,,,,,,,,,,,,METAR,490.0
KOIN 230035Z AUTO 14005KT 10SM CLR 21/M04 A2946 RMK AO1 T02061039,KOIN,2022-10-23T00:35:00Z,39.83,-100.53,20.6,-3.9,140,5,,10.0,29.459646,,,TRUE,TRUE,,,,,,,CLR,,,,,,,,VFR,,,,,,,,,,,,METAR,810.0
KOGS 230035Z AUTO 18005KT 10SM CLR 12/04 A3013 RMK AO2,KOGS,2022-10-23T00:35:00Z,44.67,-75.47,12.0,4.0,180,5,,10.0,30.129921,,,TRUE,TRUE,,,,,,,CLR,,,,,,,,VFR,,,,,,,,,,,,METAR,88.0
KOGA 230035Z AUTO 15007KT 10SM CLR 21/M05 A2941 RMK AO2 T02051054,KOGA,2022-10-23T00:35:00Z,41.12,-101.77,20.5,-5.4,150,7,,10.0,29.409449,,,TRUE,TRUE,,,,,,,CLR,,,,,,,,VFR,,,,,,,,,,,,METAR,991.0
KOEO 230035Z AUTO 12004KT 10SM CLR 17/09 A2959 RMK AO2 T01680087,KOEO,2022-10-23T00:35:00Z,45.32,-92.7,16.8,8.7,120,4,,10.0,29.589567,,,TRUE,TRUE,,,,,,,CLR,,,,,,,,VFR,,,,,,,,,,,,METAR,269.0
KOEL 230035Z AUTO 19008KT 10SM CLR 18/M13 A2945 RMK AO1 T01791126,KOEL,2022-10-23T00:35:00Z,39.12,-100.82,17.9,-12.6,190,8,,10.0,29.450787,,,TRUE,TRUE,,,,,,,CLR,,,,,,,,VFR,,,,,,,,,,,,METAR,924.0
KOEB 230035Z AUTO 16005KT 10SM CLR 18/08 A2997 RMK AO2 T01790077,KOEB,2022-10-23T00:35:00Z,41.92,-85.05,17.9,7.7,160,5,,10.0,29.970472,,,TRUE,TRUE,,,,,,,CLR,,,,,,,,VFR,,,,,,,,,,,,METAR,291.0
KOCW 230035Z AUTO 00000KT 10SM CLR 16/12 A3018 RMK AO2 T01550117,KOCW,2022-10-23T00:35:00Z,35.57,-77.05,15.5,11.7,0,0,,10.0,30.180119,,,TRUE,TRUE,,,,,,,CLR,,,,,,,,VFR,,,,,,,,,,,,SPECI,10.0
KOCQ 230035Z AUTO 16005KT 10SM CLR 14/11 A2976 RMK AO1 T01410105,KOCQ,2022-10-23T00:35:00Z,44.87,-87.92,14.1,10.5,160,5,,10.0,29.760826,,,TRUE,TRUE,,,,,,,CLR,,,,,,,,VFR,,,,,,,,,,,,METAR,181.0
KOBE 230035Z AUTO 03004KT 10SM CLR 20/19 A3002 RMK AO2,KOBE,2022-10-23T00:35:00Z,27.27,-80.85,20.0,19.0,30,4,,10.0,30.02067,,,TRUE,TRUE,,,,,,,CLR,,,,,,,,VFR,,,,,,,,,,,,METAR,11.0
KOAR 230035Z AUTO 30016G24KT 7SM CLR M04/M13 A2978 RMK AO2 PWINO,KOAR,2022-10-23T00:35:00Z,36.67,-121.77,-4.0,-13.0,300,16,24,7.0,29.778543,,,TRUE,TRUE,,,,,TRUE,,CLR,,,,,,,,VFR,,,,,,,,,,,,SPECI,41.0
KO69 230035Z AUTO 27011KT 10SM CLR 17/05 A2976 RMK A01,KO69,2022-10-23T00:35:00Z,38.25,-122.6,17.0,5.0,270,11,,10.0,29.760826,,,TRUE,TRUE,,,,,,,CLR,,,,,,,,VFR,,,,,,,,,,,,METAR,26.0
KO32 230035Z AUTO 27005KT 9SM FEW065 20/11 A2965 RMK AO2 T02040109 $,KO32,2022-10-23T00:35:00Z,36.67,-119.45,20.4,10.9,270,5,,9.0,29.648623,,,TRUE,TRUE,TRUE,,,,,,FEW,6500,,,,,,,VFR,,,,,,,,,,,,METAR,117.0
KO22 230035Z AUTO 28006KT 10SM CLR 17/M03 A2971 RMK A01,KO22,2022-10-23T00:35:00Z,38.03,-120.42,17.0,-3.0,280,6,,10.0,29.71063,,,TRUE,TRUE,,,,,,,CLR,,,,,,,,VFR,,,,,,,,,,,,METAR,637.0
KO05 230035Z AUTO 31005KT 10SM FEW110 08/M08 A2977 RMK A01,KO05,2022-10-23T00:35:00Z,40.28,-121.23,8.0,-8.0,310,5,,10.0,29.769686,,,TRUE,TRUE,,,,,,,FEW,11000,,,,,,,VFR,,,,,,,,,,,,METAR,1380.0
KNY0 230035Z AUTO 10003KT 10SM CLR 12/02 A3025 RMK AO2,KNY0,2022-10-23T00:35:00Z,42.98,-74.33,12.0,2.0,100,3,,10.0,30.250984,,,TRUE,TRUE,,,,,,,CLR,,,,,,,,VFR,,,,,,,,,,,,METAR,266.0
KNUQ 230035Z AUTO 30009KT 10SM CLR 18/05 A2976 RMK AO2,KNUQ,2022-10-23T00:35:00Z,37.4,-122.05,18.0,5.0,300,9,,10.0,29.760826,,,TRUE,TRUE,,,,,,,CLR,,,,,,,,VFR,,,,,,,,,,,,SPECI,9.0
KNRN 230035Z AUTO 13004KT 10SM CLR 19/00 A2946 RMK AO2,KNRN,2022-10-23T00:35:00Z,39.85,-99.9,19.0,0.0,130,4,,10.0,29.459646,,,TRUE,TRUE,,,,,,,CLR,,,,,,,,VFR,,,,,,,,,,,,METAR,726.0
KNOW 230035Z AUTO 14003KT 10SM OVC043 10/08 A2980 RMK AO2 T01020082,KNOW,2022-10-23T00:35:00Z,48.13,-123.4,10.2,8.2,140,3,,10.0,29.799213,,,TRUE,TRUE,,,,,,,OVC,4300,,,,,,,VFR,,,,,,,,,,,,SPECI,3.0
KN38 230035Z AUTO 19007KT 10SM CLR 12/03 A3023 RMK AO2,KN38,2022-10-23T00:35:00Z,41.73,-77.4,12.0,3.0,190,7,,10.0,30.230314,,,TRUE,TRUE,,,,,,,CLR,,,,,,,,VFR,,,,,,,,,,,,METAR,576.0
KN03 230035Z AUTO 00000KT 10SM CLR 06/03 A3024 RMK AO2,KN03,2022-10-23T00:35:00Z,42.6,-76.22,6.0,3.0,0,0,,10.0,30.239174,,,TRUE,TRUE,,,,,,,CLR,,,,,,,,VFR,,,,,,,,,,,,METAR,361.0
KMZZ 230035Z AUTO 17009KT 10SM CLR 18/11 A2999 RMK AO2 T01780106,KMZZ,2022-10-23T00:35:00Z,40.48,-85.68,17.8,10.6,170,9,,10.0,29.991142,,,TRUE,TRUE,,,,,,,CLR,,,,,,,,VFR,,,,,,,,,,,,METAR,260.0
KMZH 230035Z AUTO 07004KT 10SM CLR 09/06 A2961 RMK AO2,KMZH,2022-10-23T00:35:00Z,46.42,-92.8,9.0,6.0,70,4,,10.0,29.610237,,,TRUE,TRUE,,,,,,,CLR,,,,,,,,VFR,,,,,,,,,,,,METAR,331.0
KMWO 230035Z AUTO 30003KT 10SM CLR 13/09 A3006 RMK AO2 T01330085,KMWO,2022-10-23T00:35:00Z,39.53,-84.4,13.3,8.5,300,3,,10.0,30.059055,,,TRUE,TRUE,,,,,,,CLR,,,,,,,,VFR,,,,,,,,,,,,METAR,197.0
KMWM 230035Z AUTO 15007KT 10SM CLR 19/04 A2952 RMK AO2,KMWM,2022-10-23T00:35:00Z,43.9,-95.1,19.0,4.0,150,7,,10.0,29.518702,,,TRUE,TRUE,,,,,,,CLR,,,,,,,,VFR,,,,,,,,,,,,METAR,427.0
KMWK 230035Z AUTO 00000KT 10SM CLR 10/05 A3022 RMK AO2 T01040051,KMWK,2022-10-23T00:35:00Z,36.47,-80.55,10.4,5.1,0,0,,10.0,30.221457,,,TRUE,TRUE,,,,,,,CLR,,,,,,,,VFR,,,,,,,,,,,,METAR,374.0
KMWA 230035Z AUTO 16008KT 10SM CLR 20/13 A2993 RMK AO2 T02000129,KMWA,2022-10-23T00:35:00Z,37.77,-89.02,20.0,12.9,160,8,,10.0,29.929134,,,TRUE,TRUE,,,,,,,CLR,,,,,,,,VFR,,,,,,,,,,,,METAR,142.0
KMVH 230035Z AUTO 00000KT 4SM BR FEW008 OVC017 04/04 A2945 RMK AO2 PWINO,KMVH,2022-10-23T00:35:00Z,46.83,-108.93,4.0,4.0,0,0,,4.0,29.450787,,,TRUE,TRUE,,,,,TRUE,BR,FEW,800,OVC,1700,,,,,MVFR,,,,,,,,,,,,METAR,1352.0
KMVE 230035Z AUTO 17004KT 10SM CLR 21/01 A2946 RMK AO2,KMVE,2022-10-23T00:35:00Z,44.97,-95.72,21.0,1.0,170,4,,10.0,29.459646,,,TRUE,TRUE,,,,,,,CLR,,,,,,,,VFR,,,,,,,,,,,,METAR,319.0
KMUT 230035Z AUTO 15011G16KT 10SM CLR 24/09 A2969 RMK AO2,KMUT,2022-10-23T00:35:00Z,41.37,-91.15,24.0,9.0,150,11,16,10.0,29.68996,,,TRUE,TRUE,,,,,,,CLR,,,,,,,,VFR,,,,,,,,,,,,METAR,166.0
KMTV 230035Z AUTO 32004KT 10SM CLR 07/04 A3023 RMK AO2 T00680039,KMTV,2022-10-23T00:35:00Z,36.63,-80.02,6.8,3.9,320,4,,10.0,30.230314,,,TRUE,TRUE,,,,,,,CLR,,,,,,,,VFR,,,,,,,,,,,,METAR,276.0
KMTK 230035Z AUTO 12012G17KT 10SM SCT041 23/13 A3005 RMK A01,KMTK,2022-10-23T00:35:00Z,,,23.0,13.0,120,12,17,10.0,30.050198,,,TRUE,TRUE,,,,,,,SCT,4100,,,,,,,VFR,,,,,,,,,,,,METAR,
KMRT 230035Z AUTO 19008KT 10SM CLR 18/09 A3009 RMK AO2 T01750085,KMRT,2022-10-23T00:35:00Z,40.22,-83.35,17.5,8.5,190,8,,10.0,30.088583,,,TRUE,TRUE,,,,,,,CLR,,,,,,,,VFR,,,,,,,,,,,,METAR,302.0
KMRJ 230035Z AUTO 15011G14KT 10SM CLR 20/07 A2972 RMK AO2,KMRJ,2022-10-23T00:35:00Z,42.88,-90.23,20.0,7.0,150,11,14,10.0,29.719488,,,TRUE,TRUE,,,,,,,CLR,,,,,,,,VFR,,,,,,,,,,,,METAR,350.0
KMRC 230035Z AUTO 00000KT 10SM CLR 19/10 A3003 RMK A01,KMRC,2022-10-23T00:35:00Z,35.55,-87.18,19.0,10.0,0,0,,10.0,30.029528,,,TRUE,TRUE,,,,,,,CLR,,,,,,,,VFR,,,,,,,,,,,,METAR,205.0
KMQW 230035Z AUTO 00000KT 10SM CLR 10/07 A3012 RMK AO2 T01030068,KMQW,2022-10-23T00:35:00Z,32.1,-82.88,10.3,6.8,0,0,,10.0,30.121063,,,TRUE,TRUE,,,,,,,CLR,,,,,,,,VFR,,,,,,,,,,,,METAR,62.0
KMQS 230035Z AUTO 00000KT 10SM CLR 11/05 A3027 RMK AO2,KMQS,2022-10-23T00:35:00Z,39.98,-75.87,11.0,5.0,0,0,,10.0,30.268702,,,TRUE,TRUE,,,,,,,CLR,,,,,,,,VFR,,,,,,,,,,,,SPECI,200.0
KMQI 230035Z AUTO 04014G18KT 10SM CLR 17/12 A3016 RMK AO2 T01720121,KMQI,2022-10-23T00:35:00Z,35.92,-75.7,17.2,12.1,40,14,18,10.0,30.159449,,,TRUE,TRUE,,,,,,,CLR,,,,,,,,VFR,,,,,,,,,,,,METAR,3.0
KMQB 230035Z AUTO 15016KT 10SM SCT120 21/09 A2975 RMK AO2 T02100091,KMQB,2022-10-23T00:35:00Z,40.52,-90.65,21.0,9.1,150,16,,10.0,29.749016,,,TRUE,TRUE,,,,,,,SCT,12000,,,,,,,VFR,,,,,,,,,,,,METAR,205.0
KMPR 230035Z AUTO 15008KT 10SM CLR 21/M01 A2949 RMK AO2 T02111014,KMPR,2022-10-23T00:35:00Z,38.35,-97.68,21.1,-1.4,150,8,,10.0,29.489174,,,TRUE,TRUE,,,,,,,CLR,,,,,,,,VFR,,,,,,,,,,,,METAR,455.0
KMOX 230035Z AUTO 29003KT 7SM CLR 14/M01 A2948 RMK AO2,KMOX,2022-10-23T00:35:00Z,45.57,-95.97,14.0,-1.0,290,3,,7.0,29.480314,,,TRUE,TRUE,,,,,,,CLR,,,,,,,,VFR,,,,,,,,,,,,METAR,346.0
KMOR 230035Z AUTO 00000KT 10SM CLR 14/09 A3013 RMK A01,KMOR,2022-10-23T00:35:00Z,36.18,-83.37,14.0,9.0,0,0,,10.0,30.129921,,,TRUE,TRUE,,,,,,,CLR,,,,,,,,VFR,,,,,,,,,,,,METAR,393.0
KMOP 230035Z AUTO 16004KT 10SM CLR 18/08 A2993 RMK AO2 T01770078,KMOP,2022-10-23T00:35:00Z,43.62,-84.73,17.7,7.8,160,4,,10.0,29.929134,,,TRUE,TRUE,,,,,,,CLR,,,,,,,,VFR,,,,,,,,,,,,METAR,229.0
KMNZ 230035Z AUTO 17014G19KT 10SM CLR 26/12 A2979 RMK AO2 T02620120,KMNZ,2022-10-23T00:35:00Z,31.67,-98.15,26.2,12.0,170,14,19,10.0,29.790354,,,TRUE,TRUE,,,,,,,CLR,,,,,,,,VFR,,,,,,,,,,,,METAR,397.0
KMNV 230035Z AUTO 00000KT 10SM 14/08 A3013 RMK A01,KMNV,2022-10-23T00:35:00Z,35.55,-84.38,14.0,8.0,0,0,,10.0,30.129921,,,TRUE,TRUE,,,,,,,,,,,,,,,,,,,,,,,,,,,METAR,306.0
KMNI 230035Z AUTO 00000KT 10SM CLR 12/11 A3013 RMK AO2,KMNI,2022-10-23T00:35:00Z,33.58,-80.22,12.0,11.0,0,0,,10.0,30.129921,,,TRUE,TRUE,,,,,,,CLR,,,,,,,,VFR,,,,,,,,,,,,METAR,29.0
KMNH 230035Z AUTO 19008KT 10SM CLR 13/M09 A2961 RMK AO2,KMNH,2022-10-23T00:35:00Z,39.22,-104.65,13.0,-9.0,190,8,,10.0,29.610237,,,TRUE,TRUE,,,,,,,CLR,,,,,,,,VFR,,,,,,,,,,,,SPECI,2152.0
KMNE 230035Z AUTO 16005KT 10SM CLR 25/15 A2989 RMK AO2 T02470149,KMNE,2022-10-23T00:35:00Z,32.65,-93.3,24.7,14.9,160,5,,10.0,29.890747,,,TRUE,TRUE,,,,,,,CLR,,,,,,,,VFR,,,,,,,,,,,,METAR,84.0
KMMI 230035Z AUTO 00000KT 10SM SCT003 SCT048 14/09 A3015 RMK A01,KMMI,2022-10-23T00:35:00Z,35.4,-84.57,14.0,9.0,0,0,,10.0,30.15059,,,TRUE,TRUE,,,,,,,SCT,300,SCT,4800,,,,,VFR,,,,,,,,,,,,METAR,252.0
KMMH 230035Z AUTO 29014G30KT 10SM SCT014 SCT025 OVC070 06/M03 A2969 RMK AO2,KMMH,2022-10-23T00:35:00Z,37.62,-118.83,6.0,-3.0,290,14,30,10.0,29.68996,,,TRUE,TRUE,,,,,,,SCT,1400,SCT,2500,OVC,7000,,,VFR,,,,,,,,,,,,SPECI,2167.0
KMLJ 230035Z AUTO 00000KT 10SM CLR 13/07 A3012 RMK AO2,KMLJ,2022-10-23T00:35:00Z,33.15,-83.25,13.0,7.0,0,0,,10.0,30.121063,,,TRUE,TRUE,,,,,,,CLR,,,,,,,,VFR,,,,,,,,,,,,METAR,115.0
KMLE 230035Z AUTO 13006KT 10SM CLR 21/09 A2952 RMK AO2 T02060086,KMLE,2022-10-23T00:35:00Z,41.2,-96.12,20.6,8.6,130,6,,10.0,29.518702,,,TRUE,TRUE,,,,,,,CLR,,,,,,,,VFR,,,,,,,,,,,,METAR,318.0
KMKS 230035Z AUTO 00000KT 10SM CLR 13/12 A3012 RMK AO2,KMKS,2022-10-23T00:35:00Z,33.18,-80.03,13.0,12.0,0,0,,10.0,30.121063,,,TRUE,TRUE,,,,,,,CLR,,,,,,,,VFR,,,,,,,,,,,,METAR,22.0
KMKN 230035Z AUTO 18012KT 10SM CLR 27/11 A2977 RMK AO2 T02650110,KMKN,2022-10-23T00:35:00Z,31.92,-98.6,26.5,11.0,180,12,,10.0,29.769686,,,TRUE,TRUE,,,,,,,CLR,,,,,,,,VFR,,,,,,,,,,,,METAR,428.0
KMKJ 230035Z AUTO 00000KT 10SM CLR 08/02 A3023 RMK AO2 T00820024,KMKJ,2022-10-23T00:35:00Z,36.88,-81.33,8.2,2.4,0,0,,10.0,30.230314,,,TRUE,TRUE,,,,,,,CLR,,,,,,,,VFR,,,,,,,,,,,,METAR,777.0
KMJQ 230035Z AUTO 19009KT 10SM CLR 20/05 A2954 RMK AO2,KMJQ,2022-10-23T00:35:00Z,43.63,-94.98,20.0,5.0,190,9,,10.0,29.53937,,,TRUE,TRUE,,,,,,,CLR,,,,,,,,VFR,,,,,,,,,,,,METAR,439.0
KMJD 230035Z AUTO 10004KT 10SM SCT050 16/14 A3006 RMK AO2,KMJD,2022-10-23T00:35:00Z,30.48,-89.65,16.0,14.0,100,4,,10.0,30.059055,,,TRUE,TRUE,,,,,,,SCT,5000,,,,,,,VFR,,,,,,,,,,,,METAR,17.0
KMIO 230035Z AUTO 16017KT 10SM FEW055 25/13 A2965 RMK AO2,KMIO,2022-10-23T00:35:00Z,36.92,-94.88,25.0,13.0,160,17,,10.0,29.648623,,,TRUE,TRUE,,,,,,,FEW,5500,,,,,,,VFR,,,,,,,,,,,,METAR,245.0
KMHP 230035Z AUTO 03003KT 10SM CLR 13/05 A3012 RMK AO2 T01270053,KMHP,2022-10-23T00:35:00Z,32.37,-82.08,12.7,5.3,30,3,,10.0,30.121063,,,TRUE,TRUE,,,,,,,CLR,,,,,,,,VFR,,,,,,,,,,,,METAR,60.0
KMHL 230035Z AUTO 15013G20KT 10SM CLR 23/11 A2967 RMK AO2,KMHL,2022-10-23T00:35:00Z,39.1,-93.2,23.0,11.0,150,13,20,10.0,29.66929,,,TRUE,TRUE,,,,,,,CLR,,,,,,,,VFR,,,,,,,,,,,,METAR,236.0
KMGR 230035Z AUTO 00000KT 10SM CLR 14/06 A3012 RMK AO2,KMGR,2022-10-23T00:35:00Z,31.08,-83.8,14.0,6.0,0,0,,10.0,30.121063,,,TRUE,TRUE,,,,,,,CLR,,,,,,,,VFR,,,,,,,,,,,,METAR,86.0
KMGN 230035Z AUTO 00000KT 10SM CLR 12/09 A2984 RMK AO2 T01200094,KMGN,2022-10-23T00:35:00Z,45.43,-84.92,12.0,9.4,0,0,,10.0,29.840551,,,TRUE,TRUE,,,,,,,CLR,,,,,,,,VFR,,,,,,,,,,,,METAR,205.0
KMGG 230035Z AUTO 00000KT 10SM CLR 12/06 A2953 RMK AO2 T01180057 PWINO,KMGG,2022-10-23T00:35:00Z,45.23,-93.98,11.8,5.7,0,0,,10.0,29.530512,,,TRUE,TRUE,,,,,TRUE,,CLR,,,,,,,,VFR,,,,,,,,,,,,METAR,310.0
KMGC 230035Z AUTO 18007KT 150V210 10SM CLR 20/11 A2991 RMK AO2,KMGC,2022-10-23T00:35:00Z,41.7,-86.82,20.0,11.0,180,7,,10.0,29.911417,,,TRUE,TRUE,,,,,,,CLR,,,,,,,,VFR,,,,,,,,,,,,SPECI,199.0
KMEZ 230035Z AUTO VRB04KT 10SM CLR 23/12 A2981 RMK AO2 T02330116 $,KMEZ,2022-10-23T00:35:00Z,34.55,-94.2,23.3,11.6,0,4,,10.0,29.811024,,,TRUE,TRUE,TRUE,,,,,,CLR,,,,,,,,VFR,,,,,,,,,,,,METAR,320.0
KMEV 230035Z AUTO 10007KT 10SM FEW021 SCT050 BKN065 04/02 A2975 RMK AO2,KMEV,2022-10-23T00:35:00Z,38.98,-119.75,4.0,2.0,100,7,,10.0,29.749016,,,TRUE,TRUE,,,,,,,FEW,2100,SCT,5000,BKN,6500,,,VFR,,,,,,,,,,,,METAR,1437.0
KMDZ 230035Z AUTO 14005KT 10SM CLR 17/07 A2968 RMK AO2 T01710073 PWINO,KMDZ,2022-10-23T00:35:00Z,45.1,-90.3,17.1,7.3,140,5,,10.0,29.681103,,,TRUE,TRUE,,,,,TRUE,,CLR,,,,,,,,VFR,,,,,,,,,,,,METAR,446.0
KMDS 230035Z AUTO 14005KT 10SM CLR 17/M01 A2948 RMK AO2,KMDS,2022-10-23T00:35:00Z,44.02,-97.08,17.0,-1.0,140,5,,10.0,29.480314,,,TRUE,TRUE,,,,,,,CLR,,,,,,,,VFR,,,,,,,,,,,,METAR,524.0
KMDQ 230035Z AUTO 13004KT 10SM CLR 19/11 A3009 RMK A02 T01880114,KMDQ,2022-10-23T00:35:00Z,34.87,-86.55,18.8,11.4,130,4,,10.0,30.088583,,,TRUE,TRUE,,,,,,,CLR,,,,,,,,VFR,,,,,,,,,,,,METAR,221.0
KMDD 230035Z AUTO 20007KT 10SM CLR 25/11 A2978 RMK AO2 T02550112,KMDD,2022-10-23T00:35:00Z,32.03,-102.1,25.5,11.2,200,7,,10.0,29.778543,,,TRUE,TRUE,,,,,,,CLR,,,,,,,,VFR,,,,,,,,,,,,METAR,853.0
KMCD 230035Z AUTO 15004KT 10SM CLR 09/09 A2984 RMK AO2 T00870087,KMCD,2022-10-23T00:35:00Z,45.85,-84.63,8.7,8.7,150,4,,10.0,29.840551,,,TRUE,TRUE,,,,,,,CLR,,,,,,,,VFR,,,,,,,,,,,,METAR,228.0
KMCC 230035Z AUTO 33011KT 10SM CLR 22/M08 A2969 RMK AO2,KMCC,2022-10-23T00:35:00Z,38.67,-121.4,22.0,-8.0,330,11,,10.0,29.68996,,,TRUE,TRUE,,,,,,,CLR,,,,,,,,VFR,,,,,,,,,,,,SPECI,21.0
KMBY 230035Z AUTO 15012KT 10SM CLR 22/08 A2971 RMK AO2,KMBY,2022-10-23T00:35:00Z,39.47,-92.43,22.0,8.0,150,12,,10.0,29.71063,,,TRUE,TRUE,,,,,,,CLR,,,,,,,,VFR,,,,,,,,,,,,METAR,263.0
KMBT 230035Z AUTO 15006KT 10SM FEW042 OVC050 20/11 A3005 RMK A01,KMBT,2022-10-23T00:35:00Z,35.88,-86.38,20.0,11.0,150,6,,10.0,30.050198,,,TRUE,TRUE,,,,,,,FEW,4200,OVC,5000,,,,,VFR,,,,,,,,,,,,METAR,187.0
KMAW 230035Z AUTO 15011G15KT 10SM CLR 22/11 A2992 RMK AO1,KMAW,2022-10-23T00:35:00Z,36.6,-90.0,22.0,11.0,150,11,15,10.0,29.920275,,,TRUE,TRUE,,,,,,,CLR,,,,,,,,VFR,,,,,,,,,,,,METAR,88.0
KMAO 230035Z AUTO 02005KT 10SM SCT055 16/08 A3014 RMK AO2,KMAO,2022-10-23T00:35:00Z,34.18,-79.33,16.0,8.0,20,5,,10.0,30.138779,,,TRUE,TRUE,,,,,,,SCT,5500,,,,,,,VFR,,,,,,,,,,,,METAR,27.0
KMAN 230035Z AUTO 32010G16KT 10SM CLR 10/00 A2963 RMK A01,KMAN,2022-10-23T00:35:00Z,43.58,-116.52,10.0,0.0,320,10,16,10.0,29.630905,,,TRUE,TRUE,,,,,,,CLR,,,,,,,,VFR,,,,,,,,,,,,METAR,773.0
KM91 230035Z AUTO 15003KT 10SM BKN050 19/11 A3004 RMK A01,KM91,2022-10-23T00:35:00Z,36.53,-86.92,19.0,11.0,150,3,,10.0,30.041338,,,TRUE,TRUE,,,,,,,BKN,5000,,,,,,,VFR,,,,,,,,,,,,METAR,214.0
KM75 230035Z AUTO 05012KT 8SM OVC023 06/06 A2950 RMK A01,KM75,2022-10-23T00:35:00Z,48.37,-107.92,6.0,6.0,50,12,,8.0,29.500984,,,TRUE,TRUE,,,,,,,OVC,2300,,,,,,,MVFR,,,,,,,,,,,,METAR,687.0
KM54 230035Z AUTO 19003KT 10SM FEW050 FEW055 19/11 A3004 RMK A01,KM54,2022-10-23T00:35:00Z,36.18,-86.32,19.0,11.0,190,3,,10.0,30.041338,,,TRUE,TRUE,,,,,,,FEW,5000,FEW,5500,,,,,VFR,,,,,,,,,,,,METAR,168.0
KM40 230035Z AUTO 13005KT 10SM CLR 20/14 A3005 RMK AO2,KM40,2022-10-23T00:35:00Z,33.87,-88.48,20.0,14.0,130,5,,10.0,30.050198,,,TRUE,TRUE,,,,,,,CLR,,,,,,,,VFR,,,,,,,,,,,,METAR,68.0
KM30 230035Z AUTO 00000KT 10SM CLR 20/12 A2997 RMK AO2 T01950117,KM30,2022-10-23T00:35:00Z,37.18,-88.75,19.5,11.7,0,0,,10.0,29.970472,,,TRUE,TRUE,,,,,,,CLR,,,,,,,,VFR,,,,,,,,,,,,METAR,116.0
KM21 230035Z AUTO 17006KT 10SM CLR 19/11 A3003 RMK AO2 T01910106,KM21,2022-10-23T00:35:00Z,37.22,-87.15,19.1,10.6,170,6,,10.0,30.029528,,,TRUE,TRUE,,,,,,,CLR,,,,,,,,VFR,,,,,,,,,,,,METAR,127.0
KM08 230035Z AUTO 13004KT 10SM FEW055 20/11 A2998 RMK A01,KM08,2022-10-23T00:35:00Z,35.22,-89.05,20.0,11.0,130,4,,10.0,29.97933,,,TRUE,TRUE,,,,,,,FEW,5500,,,,,,,VFR,,,,,,,,,,,,METAR,149.0
KM04 230035Z AUTO 16007KT 10SM FEW050 FEW055 22/11 A2994 RMK A01,KM04,2022-10-23T00:35:00Z,35.58,-89.58,22.0,11.0,160,7,,10.0,29.940945,,,TRUE,TRUE,,,,,,,FEW,5000,FEW,5500,,,,,VFR,,,,,,,,,,,,METAR,83.0
KM02 230035Z AUTO 15004KT 10SM 19/11 A3003 RMK A01,KM02,2022-10-23T00:35:00Z,36.13,-87.43,19.0,11.0,150,4,,10.0,30.029528,,,TRUE,TRUE,,,,,,,,,,,,,,,,,,,,,,,,,,,METAR,268.0
KM01 230035Z AUTO 15010KT 10SM CLR 23/12 A2992 RMK AO2 T02270120 $,KM01,2022-10-23T00:35:00Z,35.2,-90.05,22.7,12.0,150,10,,10.0,29.920275,,,TRUE,TRUE,TRUE,,,,,,CLR,,,,,,,,VFR,,,,,,,,,,,,METAR,69.0
KLZZ 230035Z AUTO 19006KT 10SM CLR 26/12 A2979 RMK AO2 T02570120,KLZZ,2022-10-23T00:35:00Z,31.1,-98.2,25.7,12.0,190,6,,10.0,29.790354,,,TRUE,TRUE,,,,,,,CLR,,,,,,,,VFR,,,,,,,,,,,,METAR,356.0
KLYV 230035Z AUTO 00000KT 7SM CLR 13/00 A2951 RMK AO2,KLYV,2022-10-23T00:35:00Z,43.62,-96.22,13.0,0.0,0,0,,7.0,29.509842,,,TRUE,TRUE,,,,,,,CLR,,,,,,,,VFR,,,,,,,,,,,,METAR,435.0
KLYO 230035Z AUTO 13007KT 10SM CLR 21/M02 A2948 RMK AO2 T02121016,KLYO,2022-10-23T00:35:00Z,38.35,-98.23,21.2,-1.6,130,7,,10.0,29.480314,,,TRUE,TRUE,,,,,,,CLR,,,,,,,,VFR,,,,,,,,,,,,METAR,515.0
KLXY 230035Z AUTO 16010G20KT 10SM CLR 26/14 A2981 RMK AO2 T02610140,KLXY,2022-10-23T00:35:00Z,31.63,-96.52,26.1,14.0,160,10,20,10.0,29.811024,,,TRUE,TRUE,,,,,,,CLR,,,,,,,,VFR,,,,,,,,,,,,METAR,164.0
KLXN 230035Z AUTO 13009KT 10SM CLR 21/00 A2945 RMK AO2 T02080000,KLXN,2022-10-23T00:35:00Z,40.78,-99.77,20.8,0.0,130,9,,10.0,29.450787,,,TRUE,TRUE,,,,,,,CLR,,,,,,,,VFR,,,,,,,,,,,,METAR,734.0
KLXL 230035Z AUTO 11008KT 10SM CLR 17/05 A2950 RMK AO2,KLXL,2022-10-23T00:35:00Z,45.95,-94.33,17.0,5.0,110,8,,10.0,29.500984,,,TRUE,TRUE,,,,,,,CLR,,,,,,,,VFR,,,,,,,,,,,,METAR,335.0
KLWB 230035Z AUTO 00000KT 10SM CLR 10/03 A3022 RMK AO2 T00980027,KLWB,2022-10-23T00:35:00Z,37.87,-80.4,9.8,2.7,0,0,,10.0,30.221457,,,TRUE,TRUE,,,,,,,CLR,,,,,,,,VFR,,,,,,,,,,,,SPECI,702.0
KLWA 230035Z AUTO 16006KT 10SM CLR 21/10 A2990 RMK AO2 T02060098,KLWA,2022-10-23T00:35:00Z,42.35,-86.25,20.6,9.8,160,6,,10.0,29.899607,,,TRUE,TRUE,,,,,,,CLR,,,,,,,,VFR,,,,,,,,,,,,METAR,199.0
KLVN 230035Z AUTO 14003KT 10SM CLR 19/04 A2956 RMK AO2,KLVN,2022-10-23T00:35:00Z,44.63,-93.23,19.0,4.0,140,3,,10.0,29.56004,,,TRUE,TRUE,,,,,,,CLR,,,,,,,,VFR,,,,,,,,,,,,METAR,292.0
KLVL 230035Z AUTO 00000KT 10SM CLR 15/09 A3022 RMK AO1 T01520094,KLVL,2022-10-23T00:35:00Z,36.78,-77.8,15.2,9.4,0,0,,10.0,30.221457,,,TRUE,TRUE,,,,,,,CLR,,,,,,,,VFR,,,,,,,,,,,,METAR,98.0
KLUX 230035Z AUTO 05003KT 10SM CLR 11/03 A3016 RMK AO2,KLUX,2022-10-23T00:35:00Z,34.5,-81.95,11.0,3.0,50,3,,10.0,30.159449,,,TRUE,TRUE,,,,,,,CLR,,,,,,,,VFR,,,,,,,,,,,,METAR,213.0
KLUV 230035Z AUTO 22010KT 10SM SCT090 SCT120 25/11 A2977 RMK AO2,KLUV,2022-10-23T00:35:00Z,32.75,-101.92,25.0,11.0,220,10,,10.0,29.769686,,,TRUE,TRUE,,,,,,,SCT,9000,SCT,12000,,,,,VFR,,,,,,,,,,,,SPECI,910.0
KLUM 230035Z AUTO 13008KT 10SM CLR 17/11 A2960 RMK AO2 T01680106 PWINO,KLUM,2022-10-23T00:35:00Z,44.9,-91.87,16.8,10.6,130,8,,10.0,29.601377,,,TRUE,TRUE,,,,,TRUE,,CLR,,,,,,,,VFR,,,,,,,,,,,,METAR,271.0
KLUL 230035Z AUTO 18005KT 10SM CLR 21/12 A3006 RMK A02 T02060117,KLUL,2022-10-23T00:35:00Z,31.67,-89.17,20.6,11.7,180,5,,10.0,30.059055,,,TRUE,TRUE,,,,,,,CLR,,,,,,,,VFR,,,,,,,,,,,,METAR,74.0
KLUG 230035Z AUTO 18004KT 10SM CLR 16/12 A3005 RMK A01,KLUG,2022-10-23T00:35:00Z,35.52,-86.8,16.0,12.0,180,4,,10.0,30.050198,,,TRUE,TRUE,,,,,,,CLR,,,,,,,,VFR,,,,,,,,,,,,METAR,218.0
KLUD 230035Z AUTO 17011G20KT 7SM CLR 27/12 A2971 RMK AO2 T02730120,KLUD,2022-10-23T00:35:00Z,33.25,-97.58,27.3,12.0,170,11,20,7.0,29.71063,,,TRUE,TRUE,,,,,,,CLR,,,,,,,,VFR,,,,,,,,,,,,METAR,319.0
KLUA 230035Z AUTO 00000KT 10SM CLR 10/04 A3022 RMK AO2,KLUA,2022-10-23T00:35:00Z,38.67,-78.5,10.0,4.0,0,0,,10.0,30.221457,,,TRUE,TRUE,,,,,,,CLR,,,,,,,,VFR,,,,,,,,,,,,METAR,273.0
KLRY 230035Z AUTO 18005KT 10SM SCT070 24/11 A2966 RMK AO2,KLRY,2022-10-23T00:35:00Z,38.62,-94.35,24.0,11.0,180,5,,10.0,29.660433,,,TRUE,TRUE,,,,,,,SCT,7000,,,,,,,VFR,,,,,,,,,,,,METAR,272.0
KLRU 230035Z AUTO 22012KT 10SM CLR 24/06 A2983 RMK AO2 T02400062,KLRU,2022-10-23T00:35:00Z,32.28,-106.92,24.0,6.2,220,12,,10.0,29.828741,,,TRUE,TRUE,,,,,,,CLR,,,,,,,,VFR,,,,,,,,,,,,METAR,1355.0
KLRO 230035Z AUTO 00000KT 10SM CLR 16/15 A3011 RMK AO2,KLRO,2022-10-23T00:35:00Z,32.9,-79.78,16.0,15.0,0,0,,10.0,30.109253,,,TRUE,TRUE,,,,,,,CLR,,,,,,,,VFR,,,,,,,,,,,,METAR,3.0
KLRJ 230035Z AUTO 14008KT 10SM CLR 18/05 A2948 RMK AO2,KLRJ,2022-10-23T00:35:00Z,42.77,-96.2,18.0,5.0,140,8,,10.0,29.480314,,,TRUE,TRUE,,,,,,,CLR,,,,,,,,VFR,,,,,,,,,,,,METAR,363.0
KLQK 230035Z AUTO 10SM CLR 10/05 A3015 RMK AO2 T00970048,KLQK,2022-10-23T00:35:00Z,34.82,-82.7,9.7,4.8,,,,10.0,30.15059,,,TRUE,TRUE,,,,,,,CLR,,,,,,,,VFR,,,,,,,,,,,,SPECI,291.0
KLOT 230035Z AUTO 15013KT 10SM CLR 20/12 A2985 RMK AO2,KLOT,2022-10-23T00:35:00Z,41.6,-88.1,20.0,12.0,150,13,,10.0,29.84941,,,TRUE,TRUE,,,,,,,CLR,,,,,,,,VFR,,,,,,,,,,,,METAR,205.0
KLOM 230035Z AUTO 00000KT 10SM CLR 08/07 A3028 RMK AO2 T00850074,KLOM,2022-10-23T00:35:00Z,40.13,-75.27,8.5,7.4,0,0,,10.0,30.280512,,,TRUE,TRUE,,,,,,,CLR,,,,,,,,VFR,,,,,,,,,,,,SPECI,87.0
KLNQ 230035Z AUTO 12004KT 10SM CLR 21/15 A3007 RMK AO2 T02090145,KLNQ,2022-10-23T00:35:00Z,29.35,-89.43,20.9,14.5,120,4,,10.0,30.070866,,,TRUE,TRUE,,,,,,,CLR,,,,,,,,VFR,,,,,,,,,,,,METAR,1.0
KLNP 230035Z AUTO 00000KT 10SM CLR 10/04 A3021 RMK AO2,KLNP,2022-10-23T00:35:00Z,36.98,-82.52,10.0,4.0,0,0,,10.0,30.209646,,,TRUE,TRUE,,,,,,,CLR,,,,,,,,VFR,,,,,,,,,,,,METAR,817.0
KLNN 230035Z AUTO 14005KT 10SM CLR 18/06 A3010 RMK AO1 T01790064,KLNN,2022-10-23T00:35:00Z,41.68,-81.38,17.9,6.4,140,5,,10.0,30.100393,,,TRUE,TRUE,,,,,,,CLR,,,,,,,,VFR,,,,,,,,,,,,METAR,190.0
KLNL 230035Z AUTO 15004KT 10SM CLR 16/05 A2973 RMK AO2 T01590050,KLNL,2022-10-23T00:35:00Z,46.15,-89.22,15.9,5.0,150,4,,10.0,29.731298,,,TRUE,TRUE,,,,,,,CLR,,,,,,,,VFR,,,,,,,,,,,,METAR,517.0
KLNC 230035Z AUTO 17011G16KT 10SM CLR 26/13 A2977 RMK AO2 T02610131,KLNC,2022-10-23T00:35:00Z,32.58,-96.72,26.1,13.1,170,11,16,10.0,29.769686,,,TRUE,TRUE,,,,,,,CLR,,,,,,,,VFR,,,,,,,,,,,,METAR,152.0
KLNA 230035Z AUTO 00000KT 10SM SCT049 24/18 A3001 RMK AO2 T02400177 PNO,KLNA,2022-10-23T00:35:00Z,26.6,-80.08,24.0,17.7,0,0,,10.0,30.008858,,,TRUE,TRUE,,,,,,,SCT,4900,,,,,,,VFR,,,,,,,,,,,,METAR,3.0
KLMO 230035Z AUTO 29006KT 5SM HZ CLR 15/M04 A2946 RMK AO2 T01471043,KLMO,2022-10-23T00:35:00Z,40.17,-105.17,14.7,-4.3,290,6,,5.0,29.459646,,,TRUE,TRUE,,,,,,HZ,CLR,,,,,,,,MVFR,,,,,,,,,,,,SPECI,1535.0
KLLN 230035Z AUTO 20008KT 9SM CLR 22/11 A2976 RMK AO2,KLLN,2022-10-23T00:35:00Z,33.55,-102.37,22.0,11.0,200,8,,9.0,29.760826,,,TRUE,TRUE,,,,,,,CLR,,,,,,,,VFR,,,,,,,,,,,,METAR,1071.0
KLKU 230035Z AUTO 10004KT 10SM CLR 11/07 A3023 RMK AO2 T01140065,KLKU,2022-10-23T00:35:00Z,38.02,-77.97,11.4,6.5,100,4,,10.0,30.230314,,,TRUE,TRUE,,,,,,,CLR,,,,,,,,VFR,,,,,,,,,,,,METAR,146.0
KLKR 230035Z AUTO 00000KT 10SM SCT040 11/05 A3016 RMK AO2,KLKR,2022-10-23T00:35:00Z,34.72,-80.85,11.0,5.0,0,0,,10.0,30.159449,,,TRUE,TRUE,,,,,,,SCT,4000,,,,,,,VFR,,,,,,,,,,,,METAR,166.0
KLJF 230035Z AUTO 15004KT 10SM CLR 20/03 A2951 RMK AO2,KLJF,2022-10-23T00:35:00Z,45.1,-94.52,20.0,3.0,150,4,,10.0,29.509842,,,TRUE,TRUE,,,,,,,CLR,,,,,,,,VFR,,,,,,,,,,,,METAR,347.0
KLHM 230035Z AUTO 32010G16KT 10SM CLR 21/M05 A2968 RMK AO1,KLHM,2022-10-23T00:35:00Z,38.92,-121.35,21.0,-5.0,320,10,16,10.0,29.681103,,,TRUE,TRUE,,,,,,,CLR,,,,,,,,VFR,,,,,,,,,,,,METAR,36.0
KLHB 230035Z AUTO 16011G17KT 10SM CLR 27/16 A2986 RMK AO2 T02650157,KLHB,2022-10-23T00:35:00Z,30.87,-96.62,26.5,15.7,160,11,17,10.0,29.861221,,,TRUE,TRUE,,,,,,,CLR,,,,,,,,VFR,,,,,,,,,,,,METAR,83.0
KLGC 230035Z AUTO 00000KT 10SM CLR 12/07 A3012 RMK AO2 T01180069,KLGC,2022-10-23T00:35:00Z,33.0,-85.07,11.8,6.9,0,0,,10.0,30.121063,,,TRUE,TRUE,,,,,,,CLR,,,,,,,,VFR,,,,,,,,,,,,METAR,209.0
KLDM 230035Z AUTO 15007KT 10SM CLR 20/09 A2984 RMK AO2 T01990085,KLDM,2022-10-23T00:35:00Z,43.97,-86.4,19.9,8.5,150,7,,10.0,29.840551,,,TRUE,TRUE,,,,,,,CLR,,,,,,,,VFR,,,,,,,,,,,,METAR,194.0
KLDJ 230035Z AUTO 00000KT 10SM CLR 13/09 A3028 RMK AO2 T01330087,KLDJ,2022-10-23T00:35:00Z,40.62,-74.25,13.3,8.7,0,0,,10.0,30.280512,,,TRUE,TRUE,,,,,,,CLR,,,,,,,,VFR,,,,,,,,,,,,METAR,6.0
KLCQ 230035Z AUTO 00000KT 10SM CLR 12/06 A3010 RMK AO2,KLCQ,2022-10-23T00:35:00Z,30.18,-82.58,12.0,6.0,0,0,,10.0,30.100393,,,TRUE,TRUE,,,,,,,CLR,,,,,,,,VFR,,,,,,,,,,,,METAR,59.0
KLCG 230035Z AUTO 15008KT 10SM CLR 19/05 A2948 RMK AO2 T01860050,KLCG,2022-10-23T00:35:00Z,42.25,-96.98,18.6,5.0,150,8,,10.0,29.480314,,,TRUE,TRUE,,,,,,,CLR,,,,,,,,VFR,,,,,,,,,,,,METAR,434.0
KLBO 230035Z AUTO 16013G22KT 10SM CLR 21/08 A2977 RMK AO2,KLBO,2022-10-23T00:35:00Z,37.65,-92.65,21.0,8.0,160,13,22,10.0,29.769686,,,TRUE,TRUE,,,,,,,CLR,,,,,,,,VFR,,,,,,,,,,,,METAR,399.0
KLAM 230035Z AUTO 20009G15KT 10SM CLR 16/00 A2982 RMK AO2 T01620001,KLAM,2022-10-23T00:35:00Z,35.87,-106.27,16.2,0.1,200,9,15,10.0,29.819881,,,TRUE,TRUE,,,,,,,CLR,,,,,,,,VFR,,,,,,,,,,,,METAR,2166.0
KLAL 230035Z AUTO 02006KT 10SM CLR 22/16 A3006 RMK AO2 T02150158,KLAL,2022-10-23T00:35:00Z,27.98,-82.02,21.5,15.8,20,6,,10.0,30.059055,,,TRUE,TRUE,,,,,,,CLR,,,,,,,,VFR,,,,,,,,,,,,METAR,39.0
KL52 230035Z AUTO 28010KT 5SM HZ OVC028 17/13 A2977 RMK A01,KL52,2022-10-23T00:35:00Z,35.1,-120.62,17.0,13.0,280,10,,5.0,29.769686,,,TRUE,TRUE,,,,,,HZ,OVC,2800,,,,,,,MVFR,,,,,,,,,,,,METAR,3.0
KL35 230035Z AUTO 24007G21KT 214V274 1/4SM -DZ OVC002 06/05 A2978 RMK AO2,KL35,2022-10-23T00:35:00Z,34.27,-116.85,6.0,5.0,240,7,21,4.25,29.778543,,,TRUE,TRUE,,,,,,-DZ,OVC,200,,,,,,,LIFR,,,,,,,,,,,,METAR,2062.0
KL18 230035Z AUTO 23010KT 10SM BKN018 BKN032 OVC041 17/13 A2978 RMK AO2,KL18,2022-10-23T00:35:00Z,33.35,-117.25,17.0,13.0,230,10,,10.0,29.778543,,,TRUE,TRUE,,,,,,,BKN,1800,BKN,3200,OVC,4100,,,MVFR,,,,,,,,,,,,METAR,215.0
KL08 230035Z AUTO 23022G29KT 7SM CLR 22/09 A2964 RMK AO2,KL08,2022-10-23T00:35:00Z,33.27,-116.32,22.0,9.0,230,22,29,7.0,29.639763,,,TRUE,TRUE,,,,,,,CLR,,,,,,,,VFR,,,,,,,,,,,,METAR,156.0
KKY8 230035Z AUTO VRB06KT 10SM CLR 21/13 A3002 RMK A01,KKY8,2022-10-23T00:35:00Z,37.95,-86.87,21.0,13.0,0,6,,10.0,30.02067,,,TRUE,TRUE,,,,,,,CLR,,,,,,,,VFR,,,,,,,,,,,,METAR,124.0
KK88 230035Z AUTO 16014G20KT 10SM CLR 24/12 A2962 RMK AO1 T02410118,KK88,2022-10-23T00:35:00Z,37.87,-95.38,24.1,11.8,160,14,20,10.0,29.619095,,,TRUE,TRUE,,,,,,,CLR,,,,,,,,VFR,,,,,,,,,,,,METAR,308.0
KK70 230035Z AUTO VRB06G11KT 10SM FEW039 FEW044 FEW050 25/20 A2998 RMK AO2,KK70,2022-10-23T00:35:00Z,25.32,-80.28,25.0,20.0,0,6,11,10.0,29.97933,,,TRUE,TRUE,,,,,,,FEW,3900,FEW,4400,FEW,5000,,,VFR,,,,,,,,,,,,METAR,20.0
KK62 230035Z AUTO 16005KT 10SM SCT065 19/08 A3008 RMK AO2,KK62,2022-10-23T00:35:00Z,38.7,-84.4,19.0,8.0,160,5,,10.0,30.079725,,,TRUE,TRUE,,,,,,,SCT,6500,,,,,,,VFR,,,,,,,,,,,,METAR,274.0
KJZI 230035Z AUTO 32004KT CLR 16/13 A3012 RMK AO2,KJZI,2022-10-23T00:35:00Z,32.7,-80.0,16.0,13.0,320,4,,,30.121063,,,TRUE,TRUE,,,,,,,CLR,,,,,,,,,,,,,,,,,,,,METAR,5.0
KJYR 230035Z AUTO 14008KT 10SM CLR 19/06 A2949 RMK AO2,KJYR,2022-10-23T00:35:00Z,40.9,-97.62,19.0,6.0,140,8,,10.0,29.489174,,,TRUE,TRUE,,,,,,,CLR,,,,,,,,VFR,,,,,,,,,,,,SPECI,508.0
KJYM 230035Z AUTO 14006KT 10SM CLR 17/06 A2999 RMK AO2 T01690059,KJYM,2022-10-23T00:35:00Z,41.92,-84.58,16.9,5.9,140,6,,10.0,29.991142,,,TRUE,TRUE,,,,,,,CLR,,,,,,,,VFR,,,,,,,,,,,,METAR,357.0
KJYL 230035Z AUTO 00000KT 10SM CLR 10/07 A3014 RMK AO2 T01010067,KJYL,2022-10-23T00:35:00Z,32.65,-81.6,10.1,6.7,0,0,,10.0,30.138779,,,TRUE,TRUE,,,,,,,CLR,,,,,,,,VFR,,,,,,,,,,,,METAR,54.0
KJXI 230035Z AUTO 16008KT 10SM CLR 26/11 A2982 RMK AO2 T02550106,KJXI,2022-10-23T00:35:00Z,32.7,-94.95,25.5,10.6,160,8,,10.0,29.819881,,,TRUE,TRUE,,,,,,,CLR,,,,,,,,VFR,,,,,,,,,,,,METAR,130.0
KJWY 230035Z AUTO 18011G18KT 10SM CLR 26/14 A2978 RMK AO2 T02570142,KJWY,2022-10-23T00:35:00Z,32.45,-96.92,25.7,14.2,180,11,18,10.0,29.778543,,,TRUE,TRUE,,,,,,,CLR,,,,,,,,VFR,,,,,,,,,,,,METAR,211.0
KJWG 230035Z AUTO 20014KT 10SM CLR 28/07 A2957 RMK AO2 T02800066,KJWG,2022-10-23T00:35:00Z,35.87,-98.42,28.0,6.6,200,14,,10.0,29.568897,,,TRUE,TRUE,,,,,,,CLR,,,,,,,,VFR,,,,,,,,,,,,METAR,469.0
KJVY 230035Z AUTO 17004KT 10SM CLR 20/11 A3004 RMK AO2 PWINO,KJVY,2022-10-23T00:35:00Z,38.37,-85.73,20.0,11.0,170,4,,10.0,30.041338,,,TRUE,TRUE,,,,,TRUE,,CLR,,,,,,,,VFR,,,,,,,,,,,,METAR,141.0
KJVW 230035Z AUTO 14004KT 10SM CLR 21/12 A2999 RMK AO2,KJVW,2022-10-23T00:35:00Z,32.3,-90.42,21.0,12.0,140,4,,10.0,29.991142,,,TRUE,TRUE,,,,,,,CLR,,,,,,,,VFR,,,,,,,,,,,,METAR,73.0
KJTC 230035Z AUTO 22017G29KT 10SM CLR 16/04 A2985 RMK AO2,KJTC,2022-10-23T00:35:00Z,34.13,-109.32,16.0,4.0,220,17,29,10.0,29.84941,,,TRUE,TRUE,,,,,,,CLR,,,,,,,,VFR,,,,,,,,,,,,METAR,2148.0
KJSY 230035Z AUTO 10SM BKN046 BKN050 02/M01 A2969 RMK AO2 T00241008 TSNO,KJSY,2022-10-23T00:35:00Z,45.35,-117.25,2.4,-0.8,,,,10.0,29.68996,,,TRUE,TRUE,,,TRUE,,,,BKN,4600,BKN,5000,,,,,VFR,,,,,,,,,,,,METAR,1256.0
KJSO 230035Z AUTO 19010G23KT 10SM CLR 25/14 A2987 RMK AO2 T02450142 TSNO,KJSO,2022-10-23T00:35:00Z,31.87,-95.22,24.5,14.2,190,10,23,10.0,29.870079,,,TRUE,TRUE,,,TRUE,,,,CLR,,,,,,,,VFR,,,,,,,,,,,,METAR,204.0
KJPX 230035Z AUTO 00000KT 10SM CLR 08/08 A3029 RMK AO2 T00790079,KJPX,2022-10-23T00:35:00Z,40.95,-72.25,7.9,7.9,0,0,,10.0,30.28937,,,TRUE,TRUE,,,,,,,CLR,,,,,,,,VFR,,,,,,,,,,,,METAR,10.0
KJOT 230035Z AUTO 15006KT 10SM CLR 21/12 A2984 RMK AO2 T02070123,KJOT,2022-10-23T00:35:00Z,41.52,-88.18,20.7,12.3,150,6,,10.0,29.840551,,,TRUE,TRUE,,,,,,,CLR,,,,,,,,VFR,,,,,,,,,,,,SPECI,175.0
KJNX 230035Z AUTO 00000KT 10SM CLR 12/11 A3016 RMK AO2,KJNX,2022-10-23T00:35:00Z,35.53,-78.38,12.0,11.0,0,0,,10.0,30.159449,,,TRUE,TRUE,,,,,,,CLR,,,,,,,,VFR,,,,,,,,,,,,METAR,41.0
KJMR 230035Z AUTO 00000KT 10SM CLR 12/04 A2960 RMK AO2,KJMR,2022-10-23T00:35:00Z,45.88,-93.27,12.0,4.0,0,0,,10.0,29.601377,,,TRUE,TRUE,,,,,,,CLR,,,,,,,,VFR,,,,,,,,,,,,METAR,301.0
KJKJ 230035Z AUTO 03007KT 10SM CLR 13/03 A2946 RMK AO2 TSNO,KJKJ,2022-10-23T00:35:00Z,46.83,-96.67,13.0,3.0,30,7,,10.0,29.459646,,,TRUE,TRUE,,,TRUE,,,,CLR,,,,,,,,VFR,,,,,,,,,,,,METAR,280.0
KJHN 230035Z AUTO 12004KT 10SM CLR 23/M05 A2946 RMK AO2 T02261054,KJHN,2022-10-23T00:35:00Z,37.58,-101.73,22.6,-5.4,120,4,,10.0,29.459646,,,TRUE,TRUE,,,,,,,CLR,,,,,,,,VFR,,,,,,,,,,,,METAR,1013.0
KJFZ 230035Z AUTO 00000KT 10SM CLR 16/01 A3020 RMK AO2 T01550012,KJFZ,2022-10-23T00:35:00Z,37.07,-81.8,15.5,1.2,0,0,,10.0,30.200787,,,TRUE,TRUE,,,,,,,CLR,,,,,,,,VFR,,,,,,,,,,,,METAR,809.0
KJFX 230035Z AUTO 00000KT 10SM CLR 13/12 A3008 RMK AO2,KJFX,2022-10-23T00:35:00Z,33.9,-87.32,13.0,12.0,0,0,,10.0,30.079725,,,TRUE,TRUE,,,,,,,CLR,,,,,,,,VFR,,,,,,,,,,,,METAR,144.0
KJES 230035Z AUTO 00000KT 10SM CLR 10/06 A3014 RMK AO2,KJES,2022-10-23T00:35:00Z,31.55,-81.88,10.0,6.0,0,0,,10.0,30.138779,,,TRUE,TRUE,,,,,,,CLR,,,,,,,,VFR,,,,,,,,,,,,METAR,26.0
KJCA 230035Z AUTO 08004KT 10SM CLR 13/05 A3016 RMK AO2 T01290046,KJCA,2022-10-23T00:35:00Z,34.18,-83.57,12.9,4.6,80,4,,10.0,30.159449,,,TRUE,TRUE,,,,,,,CLR,,,,,,,,VFR,,,,,,,,,,,,METAR,287.0
KJAS 230035Z AUTO VRB06G13KT 10SM BKN039 22/17 A2993 RMK AO2,KJAS,2022-10-23T00:35:00Z,30.88,-94.03,22.0,17.0,0,6,13,10.0,29.929134,,,TRUE,TRUE,,,,,,,BKN,3900,,,,,,,VFR,,,,,,,,,,,,METAR,60.0
KJAQ 230035Z AUTO 32008G14KT 10SM CLR 18/M04 A2971 RMK AO1 T01801044,KJAQ,2022-10-23T00:35:00Z,38.37,-120.8,18.0,-4.4,320,8,14,10.0,29.71063,,,TRUE,TRUE,,,,,,,CLR,,,,,,,,VFR,,,,,,,,,,,,METAR,518.0
KIZA 230035Z AUTO 28011KT 10SM BKN030 BKN036 18/12 A2976 RMK AO2,KIZA,2022-10-23T00:35:00Z,34.6,-120.07,18.0,12.0,280,11,,10.0,29.760826,,,TRUE,TRUE,,,,,,,BKN,3000,BKN,3600,,,,,MVFR,,,,,,,,,,,,SPECI,200.0
KIYA 230035Z AUTO 12006KT CLR 21/14 A3001 RMK AO2 T02100139 PWINO,KIYA,2022-10-23T00:35:00Z,29.98,-92.08,21.0,13.9,120,6,,,30.008858,,,TRUE,TRUE,,,,,TRUE,,CLR,,,,,,,,,,,,,,,,,,,,METAR,4.0
KIXA 230035Z AUTO 00000KT 10SM 13/12 A3020 RMK AO2,KIXA,2022-10-23T00:35:00Z,36.33,-77.63,13.0,12.0,0,0,,10.0,30.200787,,,TRUE,TRUE,,,,,,,,,,,,,,,,,,,,,,,,,,,SPECI,43.0
KIUA 230035Z AUTO 17003KT 10SM CLR 16/03 A3017 RMK AO2 T01570027,KIUA,2022-10-23T00:35:00Z,42.92,-77.33,15.7,2.7,170,3,,10.0,30.171259,,,TRUE,TRUE,,,,,,,CLR,,,,,,,,VFR,,,,,,,,,,,,METAR,248.0
KISQ 230035Z AUTO 14005KT 10SM CLR 10/08 A2982 RMK AO2 T00950082,KISQ,2022-10-23T00:35:00Z,45.97,-86.17,9.5,8.2,140,5,,10.0,29.819881,,,TRUE,TRUE,,,,,,,CLR,,,,,,,,VFR,,,,,,,,,,,,METAR,206.0
KIRS 230035Z AUTO 18007KT 10SM CLR 18/09 A2996 RMK AO2 T01780088,KIRS,2022-10-23T00:35:00Z,41.8,-85.43,17.8,8.8,180,7,,10.0,29.958662,,,TRUE,TRUE,,,,,,,CLR,,,,,,,,VFR,,,,,,,,,,,,METAR,282.0
KIOB 230035Z AUTO 17006KT 10SM CLR 19/08 A3012 RMK AO2 PWINO,KIOB,2022-10-23T00:35:00Z,38.05,-83.98,19.0,8.0,170,6,,10.0,30.121063,,,TRUE,TRUE,,,,,TRUE,,CLR,,,,,,,,VFR,,,,,,,,,,,,METAR,301.0
KINJ 230035Z AUTO 17014G21KT 10SM CLR 27/14 A2977 RMK AO2 T02690140,KINJ,2022-10-23T00:35:00Z,32.08,-97.1,26.9,14.0,170,14,21,10.0,29.769686,,,TRUE,TRUE,,,,,,,CLR,,,,,,,,VFR,,,,,,,,,,,,METAR,208.0
KINF 230035Z AUTO 04003KT 7SM CLR 20/16 A3008 RMK AO2,KINF,2022-10-23T00:35:00Z,28.8,-82.32,20.0,16.0,40,3,,7.0,30.079725,,,TRUE,TRUE,,,,,,,CLR,,,,,,,,VFR,,,,,,,,,,,,METAR,14.0
KIMS 230035Z AUTO 15004KT 10SM CLR 19/10 A3007 RMK AO2,KIMS,2022-10-23T00:35:00Z,38.75,-85.47,19.0,10.0,150,4,,10.0,30.070866,,,TRUE,TRUE,,,,,,,CLR,,,,,,,,VFR,,,,,,,,,,,,METAR,244.0
KIKW 230035Z AUTO 15004KT 10SM CLR 19/09 A2993 RMK AO2 T01910086,KIKW,2022-10-23T00:35:00Z,43.67,-84.27,19.1,8.6,150,4,,10.0,29.929134,,,TRUE,TRUE,,,,,,,CLR,,,,,,,,VFR,,,,,,,,,,,,METAR,190.0
KIKV 230035Z AUTO 17004KT 10SM CLR 23/09 A2960 RMK AO2,KIKV,2022-10-23T00:35:00Z,41.68,-93.57,23.0,9.0,170,4,,10.0,29.601377,,,TRUE,TRUE,,,,,,,CLR,,,,,,,,VFR,,,,,,,,,,,,SPECI,270.0
KIKK 230035Z AUTO 15009KT 10SM CLR 19/12 A2988 RMK AO2 T01930117,KIKK,2022-10-23T00:35:00Z,41.07,-87.85,19.3,11.7,150,9,,10.0,29.878937,,,TRUE,TRUE,,,,,,,CLR,,,,,,,,VFR,,,,,,,,,,,,METAR,188.0
KIJX 230035Z AUTO 16018G25KT 10SM CLR 21/12 A2977 RMK AO2 T02100117,KIJX,2022-10-23T00:35:00Z,39.77,-90.25,21.0,11.7,160,18,25,10.0,29.769686,,,TRUE,TRUE,,,,,,,CLR,,,,,,,,VFR,,,,,,,,,,,,METAR,187.0
KIIY 230035Z AUTO 00000KT 10SM CLR 12/05 A3015 RMK AO2 T01220050,KIIY,2022-10-23T00:35:00Z,33.78,-82.82,12.2,5.0,0,0,,10.0,30.15059,,,TRUE,TRUE,,,,,,,CLR,,,,,,,,VFR,,,,,,,,,,,,METAR,192.0
KIIB 230035Z AUTO 13009KT 7SM CLR 21/09 A2965 RMK AO2 T02120087,KIIB,2022-10-23T00:35:00Z,42.45,-91.95,21.2,8.7,130,9,,7.0,29.648623,,,TRUE,TRUE,,,,,,,CLR,,,,,,,,VFR,,,,,,,,,,,,METAR,294.0
KIGQ 230035Z AUTO 17010G15KT 10SM CLR 20/12 A2987 RMK AO2 T02020115,KIGQ,2022-10-23T00:35:00Z,41.53,-87.53,20.2,11.5,170,10,15,10.0,29.870079,,,TRUE,TRUE,,,,,,,CLR,,,,,,,,VFR,,,,,,,,,,,,METAR,187.0
KIFA 230035Z AUTO 14005KT 10SM SCT120 20/09 A2960 RMK AO2 T01950093,KIFA,2022-10-23T00:35:00Z,42.47,-93.27,19.5,9.3,140,5,,10.0,29.601377,,,TRUE,TRUE,,,,,,,SCT,12000,,,,,,,VFR,,,,,,,,,,,,METAR,344.0
KIER 230035Z AUTO 18011G14KT 10SM CLR 24/14 A2993 RMK AO2 T02380143,KIER,2022-10-23T00:35:00Z,31.73,-93.1,23.8,14.3,180,11,14,10.0,29.929134,,,TRUE,TRUE,,,,,,,CLR,,,,,,,,VFR,,,,,,,,,,,,METAR,35.0
KIDP 230035Z AUTO 17012KT 10SM CLR 25/13 A2960 RMK AO2 T02520129,KIDP,2022-10-23T00:35:00Z,37.17,-95.78,25.2,12.9,170,12,,10.0,29.601377,,,TRUE,TRUE,,,,,,,CLR,,,,,,,,VFR,,,,,,,,,,,,METAR,252.0
KIDI 230035Z AUTO 00000KT 10SM CLR 14/03 A3022 RMK A01,KIDI,2022-10-23T00:35:00Z,40.63,-79.1,14.0,3.0,0,0,,10.0,30.221457,,,TRUE,TRUE,,,,,,,CLR,,,,,,,,VFR,,,,,,,,,,,,METAR,425.0
KICL 230035Z AUTO 18006KT 10SM CLR 21/10 A2959 RMK AO2,KICL,2022-10-23T00:35:00Z,40.72,-95.02,21.0,10.0,180,6,,10.0,29.589567,,,TRUE,TRUE,,,,,,,CLR,,,,,,,,VFR,,,,,,,,,,,,SPECI,299.0
KIBM 230035Z AUTO 16004KT 10SM CLR 14/M09 A2946 RMK AO2 T01371086,KIBM,2022-10-23T00:35:00Z,41.18,-103.68,13.7,-8.6,160,4,,10.0,29.459646,,,TRUE,TRUE,,,,,,,CLR,,,,,,,,VFR,,,,,,,,,,,,METAR,1494.0
KI75 230035Z AUTO 17004KT 10SM CLR 21/10 A2961 RMK AO2 T02080102,KI75,2022-10-23T00:35:00Z,41.05,-93.68,20.8,10.2,170,4,,10.0,29.610237,,,TRUE,TRUE,,,,,,,CLR,,,,,,,,VFR,,,,,,,,,,,,SPECI,336.0
KI74 230035Z AUTO 17005KT 10SM CLR 17/10 A3008 RMK AO2,KI74,2022-10-23T00:35:00Z,40.12,-83.75,17.0,10.0,170,5,,10.0,30.079725,,,TRUE,TRUE,,,,,,,CLR,,,,,,,,VFR,,,,,,,,,,,,SPECI,322.0
KI69 230035Z AUTO 16004KT 10SM SCT065 20/10 A3009 RMK AO2 T02000095,KI69,2022-10-23T00:35:00Z,39.08,-84.22,20.0,9.5,160,4,,10.0,30.088583,,,TRUE,TRUE,,,,,,,SCT,6500,,,,,,,VFR,,,,,,,,,,,,METAR,238.0
KI68 230035Z AUTO 14005KT 10SM CLR 19/11 A3007 RMK AO1 T01870105,KI68,2022-10-23T00:35:00Z,39.47,-84.25,18.7,10.5,140,5,,10.0,30.070866,,,TRUE,TRUE,,,,,,,CLR,,,,,,,,VFR,,,,,,,,,,,,METAR,274.0
KI67 230035Z AUTO 00000KT 10SM CLR 19/09 A3005 RMK AO1,KI67,2022-10-23T00:35:00Z,39.25,-84.78,19.0,9.0,0,0,,10.0,30.050198,,,TRUE,TRUE,,,,,,,CLR,,,,,,,,VFR,,,,,,,,,,,,METAR,177.0
KI63 230035Z AUTO 16010G20KT 10SM CLR 21/11 A2974 RMK AO2 T02080110,KI63,2022-10-23T00:35:00Z,39.98,-90.8,20.8,11.0,160,10,20,10.0,29.740158,,,TRUE,TRUE,,,,,,,CLR,,,,,,,,VFR,,,,,,,,,,,,SPECI,221.0
KI35 230035Z AUTO 00000KT 10SM CLR 14/08 A3017 RMK AO2 T01350075,KI35,2022-10-23T00:35:00Z,36.87,-83.37,13.5,7.5,0,0,,10.0,30.171259,,,TRUE,TRUE,,,,,,,CLR,,,,,,,,VFR,,,,,,,,,,,,METAR,467.0
KI23 230035Z AUTO 16005KT 10SM CLR 17/08 A3009 RMK AO1,KI23,2022-10-23T00:35:00Z,39.57,-83.42,17.0,8.0,160,5,,10.0,30.088583,,,TRUE,TRUE,,,,,,,CLR,,,,,,,,VFR,,,,,,,,,,,,METAR,298.0
KHZX 230035Z AUTO 09008KT 10SM CLR 10/05 A2958 RMK AO2,KHZX,2022-10-23T00:35:00Z,46.62,-93.32,10.0,5.0,90,8,,10.0,29.58071,,,TRUE,TRUE,,,,,,,CLR,,,,,,,,VFR,,,,,,,,,,,,METAR,374.0
KHZR 230035Z AUTO 18006KT 10SM CLR 22/14 A3001 RMK AO2 T02180137,KHZR,2022-10-23T00:35:00Z,30.72,-91.48,21.8,13.7,180,6,,10.0,30.008858,,,TRUE,TRUE,,,,,,,CLR,,,,,,,,VFR,,,,,,,,,,,,METAR,11.0
KHZL 230035Z AUTO 00000KT 10SM CLR 07/03 A3029 RMK AO2,KHZL,2022-10-23T00:35:00Z,40.98,-76.0,7.0,3.0,0,0,,10.0,30.28937,,,TRUE,TRUE,,,,,,,CLR,,,,,,,,VFR,,,,,,,,,,,,METAR,481.0
KHZE 230035Z AUTO 06008G14KT 10SM SCT038 SCT049 OVC110 09/07 A2954 RMK AO2,KHZE,2022-10-23T00:35:00Z,47.28,-101.58,9.0,7.0,60,8,14,10.0,29.53937,,,TRUE,TRUE,,,,,,,SCT,3800,SCT,4900,OVC,11000,,,VFR,,,,,,,,,,,,METAR,542.0
KHZD 230035Z AUTO 14004KT 10SM SCT055 BKN065 20/11 A2999 RMK A01,KHZD,2022-10-23T00:35:00Z,36.08,-88.47,20.0,11.0,140,4,,10.0,29.991142,,,TRUE,TRUE,,,,,,,SCT,5500,BKN,6500,,,,,VFR,,,,,,,,,,,,METAR,147.0
KHYX 230035Z AUTO 15007KT 10SM CLR 16/07 A2996 RMK AO2 T01610073,KHYX,2022-10-23T00:35:00Z,43.43,-83.87,16.1,7.3,150,7,,10.0,29.958662,,,TRUE,TRUE,,,,,,,CLR,,,,,,,,VFR,,,,,,,,,,,,METAR,181.0
KHYW 230035Z AUTO 00000KT 10SM CLR 15/13 A3012 RMK AO2,KHYW,2022-10-23T00:35:00Z,33.83,-79.12,15.0,13.0,0,0,,10.0,30.121063,,,TRUE,TRUE,,,,,,,CLR,,,,,,,,VFR,,,,,,,,,,,,METAR,10.0
KHWY 230035Z AUTO 00000KT 10SM CLR 07/05 A3027 RMK AO2 T00720051,KHWY,2022-10-23T00:35:00Z,38.58,-77.72,7.2,5.1,0,0,,10.0,30.268702,,,TRUE,TRUE,,,,,,,CLR,,,,,,,,VFR,,,,,,,,,,,,METAR,93.0
KHVS 230035Z AUTO 00000KT 10SM SCT038 SCT044 13/09 A3015 RMK AO2,KHVS,2022-10-23T00:35:00Z,34.4,-80.12,13.0,9.0,0,0,,10.0,30.15059,,,TRUE,TRUE,,,,,,,SCT,3800,SCT,4400,,,,,VFR,,,,,,,,,,,,METAR,110.0
KHVE 230035Z AUTO 23018G25KT 10SM SCT120 21/M02 A2946 RMK AO2,KHVE,2022-10-23T00:35:00Z,38.42,-110.7,21.0,-2.0,230,18,25,10.0,29.459646,,,TRUE,TRUE,,,,,,,SCT,12000,,,,,,,VFR,,,,,,,,,,,,METAR,1351.0
KHUM 230035Z AUTO 10005KT CLR 19/16 A3005 RMK AO2 T01890156 PWINO,KHUM,2022-10-23T00:35:00Z,29.57,-90.67,18.9,15.6,100,5,,,30.050198,,,TRUE,TRUE,,,,,TRUE,,CLR,,,,,,,,,,,,,,,,,,,,METAR,1.0
KHSP 230035Z AUTO 16005KT 10SM CLR 12/00 A3026 RMK AO2 T01180000,KHSP,2022-10-23T00:35:00Z,37.95,-79.82,11.8,0.0,160,5,,10.0,30.259842,,,TRUE,TRUE,,,,,,,CLR,,,,,,,,VFR,,,,,,,,,,,,METAR,1148.0
KHSD 230035Z AUTO 19008KT 10SM CLR 27/05 A2957 RMK A01,KHSD,2022-10-23T00:35:00Z,35.6,-97.72,27.0,5.0,190,8,,10.0,29.568897,,,TRUE,TRUE,,,,,,,CLR,,,,,,,,VFR,,,,,,,,,,,,METAR,358.0
KHSB 230035Z AUTO 16010KT 10SM CLR 20/15 A2995 RMK AO2 T02010145,KHSB,2022-10-23T00:35:00Z,37.82,-88.55,20.1,14.5,160,10,,10.0,29.949802,,,TRUE,TRUE,,,,,,,CLR,,,,,,,,VFR,,,,,,,,,,,,METAR,118.0
KHRX 230035Z AUTO 21013G18KT 10SM CLR 23/09 A2970 RMK AO2 T02310086,KHRX,2022-10-23T00:35:00Z,34.87,-102.33,23.1,8.6,210,13,18,10.0,29.698818,,,TRUE,TRUE,,,,,,,CLR,,,,,,,,VFR,,,,,,,,,,,,METAR,1153.0
KHRJ 230035Z AUTO 01003KT 10SM CLR 15/11 A3018 RMK AO2 T01520107,KHRJ,2022-10-23T00:35:00Z,35.38,-78.73,15.2,10.7,10,3,,10.0,30.180119,,,TRUE,TRUE,,,,,,,CLR,,,,,,,,VFR,,,,,,,,,,,,METAR,55.0
KHQU 230035Z AUTO 00000KT 10SM CLR 10/06 A3014 RMK AO2 T01040058,KHQU,2022-10-23T00:35:00Z,33.53,-82.52,10.4,5.8,0,0,,10.0,30.138779,,,TRUE,TRUE,,,,,,,CLR,,,,,,,,VFR,,,,,,,,,,,,METAR,141.0
KHQG 230035Z AUTO 20009KT 10SM SCT001 21/M05 A2947 RMK AO2 T02131047,KHQG,2022-10-23T00:35:00Z,37.17,-101.37,21.3,-4.7,200,9,,10.0,29.471457,,,TRUE,TRUE,,,,,,,SCT,100,,,,,,,VFR,,,,,,,,,,,,METAR,956.0
KHQG 230035Z AUTO 20009KT 10SM SCT001 21/M05 A2947 RMK AO2 T02131047,KHQG,2022-10-23T00:35:00Z,37.17,-101.37,21.3,-4.7,200,9,,10.0,29.471457,,,TRUE,TRUE,,,,,,,SCT,100,,,,,,,VFR,,,,,,,,,,,,METAR,956.0
KHPT 230035Z AUTO 16005KT 4SM HZ CLR 17/06 A2959 RMK AO2,KHPT,2022-10-23T00:35:00Z,42.72,-93.23,17.0,6.0,160,5,,4.0,29.589567,,,TRUE,TRUE,,,,,,HZ,CLR,,,,,,,,MVFR,,,,,,,,,,,,METAR,354.0
KHOE 230035Z AUTO 00000KT 10SM CLR 11/08 A3011 RMK AO2 T01140087,KHOE,2022-10-23T00:35:00Z,31.05,-82.78,11.4,8.7,0,0,,10.0,30.109253,,,TRUE,TRUE,,,,,,,CLR,,,,,,,,VFR,,,,,,,,,,,,METAR,56.0
KHOB 230035Z AUTO 18008KT 10SM CLR 22/12 A2980 RMK AO2,KHOB,2022-10-23T00:35:00Z,32.67,-103.22,22.0,12.0,180,8,,10.0,29.799213,,,TRUE,TRUE,,,,,,,CLR,,,,,,,,VFR,,,,,,,,,,,,METAR,1112.0
KHNR 230035Z AUTO 18009KT 10SM CLR 20/10 A2955 RMK A01,KHNR,2022-10-23T00:35:00Z,41.58,-95.33,20.0,10.0,180,9,,10.0,29.551182,,,TRUE,TRUE,,,,,,,CLR,,,,,,,,VFR,,,,,,,,,,,,METAR,364.0
KHMZ 230035Z AUTO 00000KT 10SM CLR 08/01 A3023 RMK AO2 T00790014,KHMZ,2022-10-23T00:35:00Z,40.08,-78.52,7.9,1.4,0,0,,10.0,30.230314,,,TRUE,TRUE,,,,,,,CLR,,,,,,,,VFR,,,,,,,,,,,,SPECI,351.0
KHMT 230035Z AUTO 23016G25KT 10SM BKN024 BKN033 16/11 A2976 RMK AO2 T01620109,KHMT,2022-10-23T00:35:00Z,33.73,-117.02,16.2,10.9,230,16,25,10.0,29.760826,,,TRUE,TRUE,,,,,,,BKN,2400,BKN,3300,,,,,MVFR,,,,,,,,,,,,METAR,462.0
KHMP 230035Z AUTO 00000KT 10SM CLR 10/07 A3017 RMK AO2 T00970068,KHMP,2022-10-23T00:35:00Z,33.38,-84.33,9.7,6.8,0,0,,10.0,30.171259,,,TRUE,TRUE,,,,,,,CLR,,,,,,,,VFR,,,,,,,,,,,,METAR,263.0
KHLX 230035Z AUTO 14003KT 10SM CLR 13/M03 A3021 RMK AO2 T01261033,KHLX,2022-10-23T00:35:00Z,36.77,-80.82,12.6,-3.3,140,3,,10.0,30.209646,,,TRUE,TRUE,,,,,,,CLR,,,,,,,,VFR,,,,,,,,,,,,METAR,819.0
KHLB 230035Z AUTO 18003KT 10SM SCT060 17/09 A3004 RMK A01,KHLB,2022-10-23T00:35:00Z,39.35,-85.27,17.0,9.0,180,3,,10.0,30.041338,,,TRUE,TRUE,,,,,,,SCT,6000,,,,,,,VFR,,,,,,,,,,,,METAR,297.0
KHJH 230035Z AUTO 14006KT 10SM CLR 18/06 A2948 RMK AO2 T01810063,KHJH,2022-10-23T00:35:00Z,40.15,-97.58,18.1,6.3,140,6,,10.0,29.480314,,,TRUE,TRUE,,,,,,,CLR,,,,,,,,VFR,,,,,,,,,,,,METAR,449.0
KHII 230035Z AUTO 19014G20KT 10SM CLR 29/05 A2951 RMK AO2,KHII,2022-10-23T00:35:00Z,34.57,-114.37,29.0,5.0,190,14,20,10.0,29.509842,,,TRUE,TRUE,,,,,,,CLR,,,,,,,,VFR,,,,,,,,,,,,SPECI,241.0
KHHW 230035Z AUTO 17010G19KT 10SM 24/12 A2975 RMK AO2,KHHW,2022-10-23T00:35:00Z,34.03,-95.55,24.0,12.0,170,10,19,10.0,29.749016,,,TRUE,TRUE,,,,,,,,,,,,,,,,,,,,,,,,,,,METAR,178.0
KHHV 230035Z AUTO 15012G23KT 10SM FEW036 SCT045 25/17 A2993 RMK A01,KHHV,2022-10-23T00:35:00Z,26.93,-94.68,25.0,17.0,150,12,23,10.0,29.929134,,,TRUE,TRUE,,,,,,,FEW,3600,SCT,4500,,,,,VFR,,,,,,,,,,,,METAR,25.0
KHHG 230035Z AUTO 16004KT 10SM CLR A2998 RMK AO2,KHHG,2022-10-23T00:35:00Z,40.85,-85.45,,,160,4,,10.0,29.97933,,,TRUE,TRUE,,,,,,,CLR,,,,,,,,VFR,,,,,,,,,,,,SPECI,247.0
KHHF 230035Z AUTO 22012G17KT 10SM CLR 26/07 A2955 RMK AO2 T02600067,KHHF,2022-10-23T00:35:00Z,35.9,-100.4,26.0,6.7,220,12,17,10.0,29.551182,,,TRUE,TRUE,,,,,,,CLR,,,,,,,,VFR,,,,,,,,,,,,METAR,729.0
KHFY 230035Z AUTO 15004KT 10SM CLR 19/13 A3001 RMK AO2 T01940126,KHFY,2022-10-23T00:35:00Z,39.63,-86.08,19.4,12.6,150,4,,10.0,30.008858,,,TRUE,TRUE,,,,,,,CLR,,,,,,,,VFR,,,,,,,,,,,,METAR,250.0
KHFJ 230035Z AUTO 17013G18KT 10SM CLR 22/11 A2972 RMK AO2,KHFJ,2022-10-23T00:35:00Z,36.9,-94.02,22.0,11.0,170,13,18,10.0,29.719488,,,TRUE,TRUE,,,,,,,CLR,,,,,,,,VFR,,,,,,,,,,,,METAR,398.0
KHEQ 230035Z AUTO 14008KT 7SM CLR 16/M06 A2942 RMK AO2,KHEQ,2022-10-23T00:35:00Z,40.57,-102.28,16.0,-6.0,140,8,,7.0,29.421259,,,TRUE,TRUE,,,,,,,CLR,,,,,,,,VFR,,,,,,,,,,,,METAR,1136.0
KHEG 230035Z AUTO 00000KT 10SM CLR 14/10 A3013 RMK AO2,KHEG,2022-10-23T00:35:00Z,30.28,-81.8,14.0,10.0,0,0,,10.0,30.129921,,,TRUE,TRUE,,,,,,,CLR,,,,,,,,VFR,,,,,,,,,,,,METAR,25.0
KHDL 230035Z AUTO 00000KT 10SM CLR 13/09 A3010 RMK AO2,KHDL,2022-10-23T00:35:00Z,31.37,-85.32,13.0,9.0,0,0,,10.0,30.100393,,,TRUE,TRUE,,,,,,,CLR,,,,,,,,VFR,,,,,,,,,,,,METAR,109.0
KHDE 230035Z AUTO 14008KT 10SM CLR 17/03 A2945 RMK AO2 T01700025,KHDE,2022-10-23T00:35:00Z,40.45,-99.33,17.0,2.5,140,8,,10.0,29.450787,,,TRUE,TRUE,,,,,,,CLR,,,,,,,,VFR,,,,,,,,,,,,SPECI,703.0
KHCR 230035Z AUTO 09006KT 5SM UP BKN016 OVC026 03/01 A2960 RMK AO2,KHCR,2022-10-23T00:35:00Z,40.48,-111.43,3.0,1.0,90,6,,5.0,29.601377,,,TRUE,TRUE,,,,,,UP,BKN,1600,OVC,2600,,,,,MVFR,,,,,,,,,,,,SPECI,1708.0
KHCO 230035Z AUTO 06013KT 10SM CLR 12/06 A2958 RMK AO2,KHCO,2022-10-23T00:35:00Z,48.75,-96.93,12.0,6.0,60,13,,10.0,29.58071,,,TRUE,TRUE,,,,,,,CLR,,,,,,,,VFR,,,,,,,,,,,,METAR,250.0
KHCD 230035Z AUTO 12003KT 10SM CLR 16/05 A2953 RMK AO2 T01640047,KHCD,2022-10-23T00:35:00Z,44.87,-94.38,16.4,4.7,120,3,,10.0,29.530512,,,TRUE,TRUE,,,,,,,CLR,,,,,,,,VFR,,,,,,,,,,,,METAR,320.0
KHBI 230035Z AUTO 00000KT 10SM CLR 11/07 A3021 RMK AO2 T01060071,KHBI,2022-10-23T00:35:00Z,35.65,-79.9,10.6,7.1,0,0,,10.0,30.209646,,,TRUE,TRUE,,,,,,,CLR,,,,,,,,VFR,,,,,,,,,,,,METAR,199.0
KHAI 230035Z AUTO 17007KT 10SM CLR 19/10 A2995 RMK AO2 T01880097,KHAI,2022-10-23T00:35:00Z,41.97,-85.6,18.8,9.7,170,7,,10.0,29.949802,,,TRUE,TRUE,,,,,,,CLR,,,,,,,,VFR,,,,,,,,,,,,METAR,250.0
KHAF 230035Z AUTO 34011G18KT 4SM HZ CLR 15/10 A2980 RMK AO2,KHAF,2022-10-23T00:35:00Z,37.52,-122.5,15.0,10.0,340,11,18,4.0,29.799213,,,TRUE,TRUE,,,,,,HZ,CLR,,,,,,,,MVFR,,,,,,,,,,,,METAR,11.0
KHAE 230035Z AUTO 16011G19KT 10SM CLR 23/07 A2974 RMK AO2,KHAE,2022-10-23T00:35:00Z,39.73,-91.45,23.0,7.0,160,11,19,10.0,29.740158,,,TRUE,TRUE,,,,,,,CLR,,,,,,,,VFR,,,,,,,,,,,,METAR,230.0
KH71 230035Z AUTO 17011KT 10SM CLR 25/13 A2966 RMK AO2,KH71,2022-10-23T00:35:00Z,36.22,-95.33,25.0,13.0,170,11,,10.0,29.660433,,,TRUE,TRUE,,,,,,,CLR,,,,,,,,VFR,,,,,,,,,,,,METAR,190.0
KGZS 230035Z AUTO 15004KT 10SM FEW049 18/11 A3006 RMK A01,KGZS,2022-10-23T00:35:00Z,35.15,-87.05,18.0,11.0,150,4,,10.0,30.059055,,,TRUE,TRUE,,,,,,,FEW,4900,,,,,,,VFR,,,,,,,,,,,,METAR,198.0
KGZL 230035Z AUTO 18011G17KT 10SM CLR 25/14 A2969 RMK AO2,KGZL,2022-10-23T00:35:00Z,35.28,-95.1,25.0,14.0,180,11,17,10.0,29.68996,,,TRUE,TRUE,,,,,,,CLR,,,,,,,,VFR,,,,,,,,,,,,METAR,176.0
KGYL 230035Z AUTO 11005KT 7SM CLR 18/05 A2952 RMK AO2 T01770053,KGYL,2022-10-23T00:35:00Z,44.77,-94.08,17.7,5.3,110,5,,7.0,29.518702,,,TRUE,TRUE,,,,,,,CLR,,,,,,,,VFR,,,,,,,,,,,,METAR,304.0
KGYI 230035Z AUTO 18015G20KT 10SM CLR 26/13 A2972 RMK AO2 T02610131 TSNO,KGYI,2022-10-23T00:35:00Z,33.72,-96.67,26.1,13.1,180,15,20,10.0,29.719488,,,TRUE,TRUE,,,TRUE,,,,CLR,,,,,,,,VFR,,,,,,,,,,,,METAR,227.0
KGYF 230035Z AUTO 13020KT 10SM SCT034 SCT040 25/17 A2994 RMK AO2 T02500172,KGYF,2022-10-23T00:35:00Z,26.13,-94.9,25.0,17.2,130,20,,10.0,29.940945,,,TRUE,TRUE,,,,,,,SCT,3400,SCT,4000,,,,,VFR,,,,,,,,,,,,METAR,65.0
KGYB 230035Z AUTO 17011G18KT 10SM CLR 25/17 A2988 RMK AO2 T02530165,KGYB,2022-10-23T00:35:00Z,30.17,-96.98,25.3,16.5,170,11,18,10.0,29.878937,,,TRUE,TRUE,,,,,,,CLR,,,,,,,,VFR,,,,,,,,,,,,METAR,140.0
KGWR 230035Z AUTO 00000KT 6SM HZ FEW024 BKN030 BKN035 10/01 A2945 RMK A01,KGWR,2022-10-23T00:35:00Z,46.22,-97.65,10.0,1.0,0,0,,6.0,29.450787,,,TRUE,TRUE,,,,,,HZ,FEW,2400,BKN,3000,BKN,3500,,,MVFR,,,,,,,,,,,,METAR,381.0
KGWB 230035Z AUTO 00000KT 10SM CLR 18/10 A3000 RMK AO2,KGWB,2022-10-23T00:35:00Z,41.3,-85.07,18.0,10.0,0,0,,10.0,30.0,,,TRUE,TRUE,,,,,,,CLR,,,,,,,,VFR,,,,,,,,,,,,METAR,268.0
KGVT 230035Z AUTO 17016KT 10SM CLR 26/13 A2977 RMK AO2 TSNO T02630128,KGVT,2022-10-23T00:35:00Z,33.07,-96.07,26.3,12.8,170,16,,10.0,29.769686,,,TRUE,TRUE,,,TRUE,,,,CLR,,,,,,,,VFR,,,,,,,,,,,,METAR,165.0
KGRY 230035Z AUTO 12011KT 10SM BKN041 BKN047 23/15 A3004 RMK A01,KGRY,2022-10-23T00:35:00Z,27.63,-90.45,23.0,15.0,120,11,,10.0,30.041338,,,TRUE,TRUE,,,,,,,BKN,4100,BKN,4700,,,,,VFR,,,,,,,,,,,,METAR,58.0
KGRN 230035Z AUTO 19005KT 10SM CLR 16/M09 A2942 RMK AO2 T01601092,KGRN,2022-10-23T00:35:00Z,42.8,-102.17,16.0,-9.2,190,5,,10.0,29.421259,,,TRUE,TRUE,,,,,,,CLR,,,,,,,,VFR,,,,,,,,,,,,METAR,1080.0
KGPC 230035Z AUTO 17008KT 10SM CLR 19/12 A2998 RMK AO2 T01880117,KGPC,2022-10-23T00:35:00Z,39.63,-86.82,18.8,11.7,170,8,,10.0,29.97933,,,TRUE,TRUE,,,,,,,CLR,,,,,,,,VFR,,,,,,,,,,,,METAR,254.0
KGOP 230035Z AUTO 10SM CLR 26/13 A2981 RMK AO2,KGOP,2022-10-23T00:35:00Z,31.42,-97.8,26.0,13.0,,,,10.0,29.811024,,,TRUE,TRUE,,,,,,,CLR,,,,,,,,VFR,,,,,,,,,,,,METAR,272.0
KGOO 230035Z AUTO 30010G17KT 10SM FEW075 14/M09 A2973 RMK A01,KGOO,2022-10-23T00:35:00Z,39.22,-121.0,14.0,-9.0,300,10,17,10.0,29.731298,,,TRUE,TRUE,,,,,,,FEW,7500,,,,,,,VFR,,,,,,,,,,,,METAR,950.0
KGNG 230035Z AUTO 26015KT 10SM CLR 06/01 A2959 RMK AO2,KGNG,2022-10-23T00:35:00Z,42.92,-114.77,6.0,1.0,260,15,,10.0,29.589567,,,TRUE,TRUE,,,,,,,CLR,,,,,,,,VFR,,,,,,,,,,,,METAR,1128.0
KGNC 230035Z AUTO 22006KT 10SM CLR 24/12 A2982 RMK AO2 T02380116,KGNC,2022-10-23T00:35:00Z,32.68,-102.65,23.8,11.6,220,6,,10.0,29.819881,,,TRUE,TRUE,,,,,,,CLR,,,,,,,,VFR,,,,,,,,,,,,METAR,1002.0
KGNB 230035Z AUTO 28006KT 10SM CLR 11/M07 A2967 RMK AO2 T01061069,KGNB,2022-10-23T00:35:00Z,40.08,-105.92,10.6,-6.9,280,6,,10.0,29.66929,,,TRUE,TRUE,,,,,,,CLR,,,,,,,,VFR,,,,,,,,,,,,SPECI,2500.0
KGMJ 230035Z AUTO 17013G19KT 10SM CLR 18/04 A2968 RMK AO2,KGMJ,2022-10-23T00:35:00Z,36.6,-94.73,18.0,4.0,170,13,19,10.0,29.681103,,,TRUE,TRUE,,,,,,,CLR,,,,,,,,VFR,,,,,,,,,,,,METAR,251.0
KGLY 230035Z AUTO 15009KT 10SM OVC070 24/11 A2966 RMK AO2,KGLY,2022-10-23T00:35:00Z,38.35,-93.68,24.0,11.0,150,9,,10.0,29.660433,,,TRUE,TRUE,,,,,,,OVC,7000,,,,,,,VFR,,,,,,,,,,,,METAR,247.0
KGLX 230035Z AUTO 06007KT 10SM SCT044 23/13 A3007 RMK A01,KGLX,2022-10-23T00:35:00Z,28.23,-88.98,23.0,13.0,60,7,,10.0,30.070866,,,TRUE,TRUE,,,,,,,SCT,4400,,,,,,,VFR,,,,,,,,,,,,METAR,32.0
KGLW 230035Z AUTO 00000KT 10SM CLR 19/11 A3007 RMK AO2 T01860113,KGLW,2022-10-23T00:35:00Z,37.03,-85.95,18.6,11.3,0,0,,10.0,30.070866,,,TRUE,TRUE,,,,,,,CLR,,,,,,,,VFR,,,,,,,,,,,,METAR,216.0
KGLE 230035Z AUTO 18019G25KT 10SM CLR 26/12 A2971 RMK AO2 T02610123,KGLE,2022-10-23T00:35:00Z,33.65,-97.2,26.1,12.3,180,19,25,10.0,29.71063,,,TRUE,TRUE,,,,,,,CLR,,,,,,,,VFR,,,,,,,,,,,,METAR,250.0
KGKT 230035Z AUTO 00000KT 10SM CLR 13/08 A3015 RMK A01,KGKT,2022-10-23T00:35:00Z,35.85,-83.53,13.0,8.0,0,0,,10.0,30.15059,,,TRUE,TRUE,,,,,,,CLR,,,,,,,,VFR,,,,,,,,,,,,METAR,305.0
KGIC 230035Z AUTO 25005KT 10SM SCT038 BKN049 OVC060 03/00 A2967 RMK AO1,KGIC,2022-10-23T00:35:00Z,45.95,-116.12,3.0,0.0,250,5,,10.0,29.66929,,,TRUE,TRUE,,,,,,,SCT,3800,BKN,4900,OVC,6000,,,VFR,,,,,,,,,,,,SPECI,1002.0
KGHW 230035Z AUTO 13007KT 10SM CLR 16/05 A2948 RMK AO2,KGHW,2022-10-23T00:35:00Z,45.63,-95.32,16.0,5.0,130,7,,10.0,29.480314,,,TRUE,TRUE,,,,,,,CLR,,,,,,,,VFR,,,,,,,,,,,,METAR,423.0
KGHG 230035Z AUTO 23003KT 10SM CLR 09/06 A3030 RMK AO2,KGHG,2022-10-23T00:35:00Z,42.1,-70.67,9.0,6.0,230,3,,10.0,30.301182,,,TRUE,TRUE,,,,,,,CLR,,,,,,,,VFR,,,,,,,,,,,,METAR,3.0
KGGP 230035Z AUTO 14007KT 10SM CLR 16/10 A2996 RMK AO2,KGGP,2022-10-23T00:35:00Z,40.72,-86.37,16.0,10.0,140,7,,10.0,29.958662,,,TRUE,TRUE,,,,,,,CLR,,,,,,,,VFR,,,,,,,,,,,,METAR,224.0
KGGI 230035Z AUTO 14011KT 10SM CLR 24/05 A2963 RMK AO2 T02420052,KGGI,2022-10-23T00:35:00Z,41.72,-92.73,24.2,5.2,140,11,,10.0,29.630905,,,TRUE,TRUE,,,,,,,CLR,,,,,,,,VFR,,,,,,,,,,,,METAR,305.0
KGGF 230035Z AUTO 12008KT 7SM CLR 18/M07 A2940 RMK AO2,KGGF,2022-10-23T00:35:00Z,,,18.0,-7.0,120,8,,7.0,29.40059,,,TRUE,TRUE,,,,,,,CLR,,,,,,,,VFR,,,,,,,,,,,,METAR,
KGGE 230035Z AUTO 00000KT 10SM CLR 16/14 A3012 RMK AO2,KGGE,2022-10-23T00:35:00Z,33.32,-79.32,16.0,14.0,0,0,,10.0,30.121063,,,TRUE,TRUE,,,,,,,CLR,,,,,,,,VFR,,,,,,,,,,,,METAR,9.0
KGFA 230035Z AUTO 33007KT 10SM -RA BKN010 OVC016 02/02 A2952 RMK AO2 CIG 009V016 SLP019 $,KGFA,2022-10-23T00:35:00Z,47.5,-111.18,2.0,2.0,330,7,,10.0,29.518702,1001.9,,TRUE,TRUE,TRUE,,,,,-RA,BKN,1000,OVC,1600,,,,,MVFR,,,,,,,,,,,,METAR,1058.0
KGEV 230035Z AUTO 00000KT 10SM CLR 11/01 A3023 RMK AO2 T01080013,KGEV,2022-10-23T00:35:00Z,36.43,-81.42,10.8,1.3,0,0,,10.0,30.230314,,,TRUE,TRUE,,,,,,,CLR,,,,,,,,VFR,,,,,,,,,,,,METAR,961.0
KGDJ 230035Z AUTO 16012G18KT 10SM CLR 27/13 A2974 RMK AO2 T02720130,KGDJ,2022-10-23T00:35:00Z,32.45,-97.82,27.2,13.0,160,12,18,10.0,29.740158,,,TRUE,TRUE,,,,,,,CLR,,,,,,,,VFR,,,,,,,,,,,,METAR,235.0
KGDB 230035Z AUTO 13007KT 10SM CLR 21/02 A2949 RMK AO2 T02050020,KGDB,2022-10-23T00:35:00Z,44.75,-95.55,20.5,2.0,130,7,,10.0,29.489174,,,TRUE,TRUE,,,,,,,CLR,,,,,,,,VFR,,,,,,,,,,,,METAR,316.0
KGCY 230035Z AUTO 00000KT 10SM CLR 13/05 A3015 RMK A01,KGCY,2022-10-23T00:35:00Z,36.2,-82.82,13.0,5.0,0,0,,10.0,30.15059,,,TRUE,TRUE,,,,,,,CLR,,,,,,,,VFR,,,,,,,,,,,,METAR,488.0
KGCM 230035Z AUTO 17008KT 10SM CLR 24/11 A2967 RMK AO2,KGCM,2022-10-23T00:35:00Z,36.3,-95.48,24.0,11.0,170,8,,10.0,29.66929,,,TRUE,TRUE,,,,,,,CLR,,,,,,,,VFR,,,,,,,,,,,,METAR,215.0
KGCD 230035Z AUTO 26008KT 10SM SCT011 SCT032 BKN055 03/01 A2971 RMK AO2 T00250010,KGCD,2022-10-23T00:35:00Z,44.4,-118.97,2.5,1.0,260,8,,10.0,29.71063,,,TRUE,TRUE,,,,,,,SCT,1100,SCT,3200,BKN,5500,,,VFR,,,,,,,,,,,,METAR,1122.0
KGBK 230035Z AUTO 11008KT 8SM BKN049 25/14 A2999 RMK A01,KGBK,2022-10-23T00:35:00Z,27.2,-92.2,25.0,14.0,110,8,,8.0,29.991142,,,TRUE,TRUE,,,,,,,BKN,4900,,,,,,,VFR,,,,,,,,,,,,METAR,20.0
KGBG 230035Z AUTO 15009G14KT 10SM CLR 21/10 A2975 RMK AO2 T02120098,KGBG,2022-10-23T00:35:00Z,40.93,-90.43,21.2,9.8,150,9,14,10.0,29.749016,,,TRUE,TRUE,,,,,,,CLR,,,,,,,,VFR,,,,,,,,,,,,METAR,230.0
KGAO 230035Z AUTO 00000KT 10SM CLR 21/17 A3006 RMK AO2 T02060167,KGAO,2022-10-23T00:35:00Z,29.45,-90.27,20.6,16.7,0,0,,10.0,30.059055,,,TRUE,TRUE,,,,,,,CLR,,,,,,,,VFR,,,,,,,,,,,,METAR,0.0
KFZG 230035Z AUTO 00000KT 10SM CLR 11/08 A3012 RMK AO2 T01130077,KFZG,2022-10-23T00:35:00Z,31.68,-83.27,11.3,7.7,0,0,,10.0,30.121063,,,TRUE,TRUE,,,,,,,CLR,,,,,,,,VFR,,,,,,,,,,,,METAR,105.0
KFYJ 230035Z AUTO 00000KT 10SM CLR 10/08 A3024 RMK AO1 T00970082,KFYJ,2022-10-23T00:35:00Z,37.52,-76.77,9.7,8.2,0,0,,10.0,30.239174,,,TRUE,TRUE,,,,,,,CLR,,,,,,,,VFR,,,,,,,,,,,,METAR,3.0
KFYE 230035Z AUTO 17007KT 10SM CLR 22/11 A2996 RMK A01,KFYE,2022-10-23T00:35:00Z,35.2,-89.38,22.0,11.0,170,7,,10.0,29.958662,,,TRUE,TRUE,,,,,,,CLR,,,,,,,,VFR,,,,,,,,,,,,METAR,133.0
KFXY 230035Z AUTO 14005KT 10SM CLR 15/06 A2958 RMK AO2,KFXY,2022-10-23T00:35:00Z,43.23,-93.62,15.0,6.0,140,5,,10.0,29.58071,,,TRUE,TRUE,,,,,,,CLR,,,,,,,,VFR,,,,,,,,,,,,METAR,366.0
KFWZ 230035Z AUTO 21012G19KT 4SM -RA OVC003 02/02 A2952 RMK AO2,KFWZ,2022-10-23T00:35:00Z,42.52,-108.78,2.0,2.0,210,12,19,4.0,29.518702,,,TRUE,TRUE,,,,,,-RA,OVC,300,,,,,,,LIFR,,,,,,,,,,,,SPECI,2605.0
KFWC 230035Z AUTO 17006KT CLR 21/10 A2994 RMK AO1 T02090102 PWINO,KFWC,2022-10-23T00:35:00Z,38.38,-88.42,20.9,10.2,170,6,,,29.940945,,,TRUE,TRUE,,,,,TRUE,,CLR,,,,,,,,,,,,,,,,,,,,METAR,131.0
KFWB 230035Z AUTO 16009G17KT 130V190 10SM CLR 22/12 A2978 RMK AO2,KFWB,2022-10-23T00:35:00Z,36.7,-93.4,22.0,12.0,160,9,17,10.0,29.778543,,,TRUE,TRUE,,,,,,,CLR,,,,,,,,VFR,,,,,,,,,,,,METAR,392.0
KFVX 230035Z AUTO 36003KT 10SM CLR 11/06 A3020 RMK AO2 T01140055,KFVX,2022-10-23T00:35:00Z,37.35,-78.43,11.4,5.5,360,3,,10.0,30.200787,,,TRUE,TRUE,,,,,,,CLR,,,,,,,,VFR,,,,,,,,,,,,METAR,129.0
KFTN 230035Z AUTO 14006KT 10SM CLR 26/15 A2984 RMK A01,KFTN,2022-10-23T00:35:00Z,28.22,-100.02,26.0,15.0,140,6,,10.0,29.840551,,,TRUE,TRUE,,,,,,,CLR,,,,,,,,VFR,,,,,,,,,,,,METAR,236.0
KFSW 230035Z AUTO 16009KT 10SM OVC001 22/08 A2971 RMK AO2,KFSW,2022-10-23T00:35:00Z,40.67,-91.32,22.0,8.0,160,9,,10.0,29.71063,,,TRUE,TRUE,,,,,,,OVC,100,,,,,,,LIFR,,,,,,,,,,,,METAR,219.0
KFSO 230035Z AUTO 18006KT 10SM CLR 17/01 A3020 RMK AO2 T01710013,KFSO,2022-10-23T00:35:00Z,44.93,-73.1,17.1,1.3,180,6,,10.0,30.200787,,,TRUE,TRUE,,,,,,,CLR,,,,,,,,VFR,,,,,,,,,,,,METAR,70.0
KFSK 230035Z AUTO 17013G18KT 10SM CLR 25/13 A2964 RMK AO2 T02520129,KFSK,2022-10-23T00:35:00Z,37.8,-94.77,25.2,12.9,170,13,18,10.0,29.639763,,,TRUE,TRUE,,,,,,,CLR,,,,,,,,VFR,,,,,,,,,,,,METAR,276.0
KFSE 230035Z AUTO 06005KT 10SM CLR 11/02 A2954 RMK AO2,KFSE,2022-10-23T00:35:00Z,47.58,-95.77,11.0,2.0,60,5,,10.0,29.53937,,,TRUE,TRUE,,,,,,,CLR,,,,,,,,VFR,,,,,,,,,,,,METAR,389.0
KFRR 230035Z AUTO 00000KT 10SM CLR 09/04 A3021 RMK AO1,KFRR,2022-10-23T00:35:00Z,38.92,-78.25,9.0,4.0,0,0,,10.0,30.209646,,,TRUE,TRUE,,,,,,,CLR,,,,,,,,VFR,,,,,,,,,,,,SPECI,213.0
KFQD 230035Z AUTO 00000KT 10SM CLR 11/03 A3018 RMK AO2,KFQD,2022-10-23T00:35:00Z,35.42,-81.93,11.0,3.0,0,0,,10.0,30.180119,,,TRUE,TRUE,,,,,,,CLR,,,,,,,,VFR,,,,,,,,,,,,METAR,325.0
KFPY 230035Z AUTO 00000KT 10SM CLR 13/06 A3010 RMK AO2 T01340061 TSNO,KFPY,2022-10-23T00:35:00Z,30.07,-83.57,13.4,6.1,0,0,,10.0,30.100393,,,TRUE,TRUE,,,TRUE,,,,CLR,,,,,,,,VFR,,,,,,,,,,,,METAR,12.0
KFPK 230035Z AUTO 15004KT 10SM CLR 18/08 A2995 RMK AO2 T01770077,KFPK,2022-10-23T00:35:00Z,42.57,-84.82,17.7,7.7,150,4,,10.0,29.949802,,,TRUE,TRUE,,,,,,,CLR,,,,,,,,VFR,,,,,,,,,,,,METAR,269.0
KFOK 230035Z 00000KT 10SM BKN028 08/07 A3030 RMK AO2 T00830072 $,KFOK,2022-10-23T00:35:00Z,40.85,-72.62,8.3,7.2,0,0,,10.0,30.301182,,,,TRUE,TRUE,,,,,,BKN,2800,,,,,,,MVFR,,,,,,,,,,,,METAR,13.0
KFOA 230035Z AUTO 17010KT 10SM CLR 20/12 A2994 RMK AO2,KFOA,2022-10-23T00:35:00Z,38.67,-88.45,20.0,12.0,170,10,,10.0,29.940945,,,TRUE,TRUE,,,,,,,CLR,,,,,,,,VFR,,,,,,,,,,,,METAR,141.0
KFMM 230035Z AUTO 10007KT 10SM CLR 17/M07 A2943 RMK AO2 LTG DSNT S,KFMM,2022-10-23T00:35:00Z,40.33,-103.8,17.0,-7.0,100,7,,10.0,29.430119,,,TRUE,TRUE,,,,,,,CLR,,,,,,,,VFR,,,,,,,,,,,,METAR,1376.0
KFLY 230035Z AUTO 17008G14KT 130V200 10SM CLR 15/M09 A2961 RMK AO2 T01461088,KFLY,2022-10-23T00:35:00Z,38.95,-104.57,14.6,-8.8,170,8,14,10.0,29.610237,,,TRUE,TRUE,,,,,,,CLR,,,,,,,,VFR,,,,,,,,,,,,METAR,2096.0
KFKS 230035Z AUTO 15007KT 10SM CLR 18/09 A2983 RMK AO2 T01760091,KFKS,2022-10-23T00:35:00Z,44.63,-86.2,17.6,9.1,150,7,,10.0,29.828741,,,TRUE,TRUE,,,,,,,CLR,,,,,,,,VFR,,,,,,,,,,,,METAR,189.0
KFKR 230035Z AUTO 17008KT 10SM FEW029 FEW039 BKN046 18/11 A2995 RMK AO2,KFKR,2022-10-23T00:35:00Z,40.27,-86.57,18.0,11.0,170,8,,10.0,29.949802,,,TRUE,TRUE,,,,,,,FEW,2900,FEW,3900,BKN,4600,,,VFR,,,,,,,,,,,,METAR,260.0
KFKN 230035Z AUTO 00000KT 10SM CLR 11/10 A3021 RMK AO2 T01110098,KFKN,2022-10-23T00:35:00Z,36.7,-76.9,11.1,9.8,0,0,,10.0,30.209646,,,TRUE,TRUE,,,,,,,CLR,,,,,,,,VFR,,,,,,,,,,,,SPECI,9.0
KFKA 230035Z AUTO 15009KT 7SM CLR 21/08 A2963 RMK AO2 T02090080,KFKA,2022-10-23T00:35:00Z,43.68,-92.17,20.9,8.0,150,9,,7.0,29.630905,,,TRUE,TRUE,,,,,,,CLR,,,,,,,,VFR,,,,,,,,,,,,METAR,388.0
KFHB 230035Z AUTO 03007KT 10SM CLR 18/10 A3011 RMK AO2,KFHB,2022-10-23T00:35:00Z,30.62,-81.47,18.0,10.0,30,7,,10.0,30.109253,,,TRUE,TRUE,,,,,,,CLR,,,,,,,,VFR,,,,,,,,,,,,METAR,4.0
KFGX 230035Z AUTO 18007KT 10SM CLR 17/08 A3012 RMK AO2 T01720077,KFGX,2022-10-23T00:35:00Z,38.55,-83.75,17.2,7.7,180,7,,10.0,30.121063,,,TRUE,TRUE,,,,,,,CLR,,,,,,,,VFR,,,,,,,,,,,,SPECI,279.0
KFGN 230035Z AUTO 06013G18KT 10SM CLR 09/04 A2965 RMK AO2,KFGN,2022-10-23T00:35:00Z,49.32,-94.9,9.0,4.0,60,13,18,10.0,29.648623,,,TRUE,TRUE,,,,,,,CLR,,,,,,,,VFR,,,,,,,,,,,,METAR,327.0
KFFX 230035Z AUTO 14004KT 10SM CLR 20/09 A2988 RMK AO2 T02020085,KFFX,2022-10-23T00:35:00Z,43.43,-86.0,20.2,8.5,140,4,,10.0,29.878937,,,TRUE,TRUE,,,,,,,CLR,,,,,,,,VFR,,,,,,,,,,,,METAR,234.0
KFFM 230035Z AUTO 16008KT 10SM CLR 16/02 A2945 RMK AO2,KFFM,2022-10-23T00:35:00Z,46.28,-96.15,16.0,2.0,160,8,,10.0,29.450787,,,TRUE,TRUE,,,,,,,CLR,,,,,,,,VFR,,,,,,,,,,,,METAR,362.0
KFFL 230035Z AUTO 15014G21KT 10SM CLR 24/04 A2966 RMK A01,KFFL,2022-10-23T00:35:00Z,41.05,-91.97,24.0,4.0,150,14,21,10.0,29.660433,,,TRUE,TRUE,,,,,,,CLR,,,,,,,,VFR,,,,,,,,,,,,METAR,240.0
KFET 230035Z AUTO 13008KT 10SM CLR 21/09 A2951 RMK AO2 T02140085,KFET,2022-10-23T00:35:00Z,41.45,-96.52,21.4,8.5,130,8,,10.0,29.509842,,,TRUE,TRUE,,,,,,,CLR,,,,,,,,VFR,,,,,,,,,,,,METAR,366.0
KFEP 230035Z AUTO 17014KT 10SM CLR 22/13 A2976 RMK AO2 T02150132,KFEP,2022-10-23T00:35:00Z,42.25,-89.58,21.5,13.2,170,14,,10.0,29.760826,,,TRUE,TRUE,,,,,,,CLR,,,,,,,,VFR,,,,,,,,,,,,METAR,255.0
KFDW 230035Z AUTO 01003KT 10SM CLR 13/05 A3016 RMK AO1,KFDW,2022-10-23T00:35:00Z,34.32,-81.12,13.0,5.0,10,3,,10.0,30.159449,,,TRUE,TRUE,,,,,,,CLR,,,,,,,,VFR,,,,,,,,,,,,SPECI,174.0
KFBL 230035Z AUTO 15005KT 10SM CLR 20/07 A2957 RMK AO2,KFBL,2022-10-23T00:35:00Z,44.33,-93.32,20.0,7.0,150,5,,10.0,29.568897,,,TRUE,TRUE,,,,,,,CLR,,,,,,,,VFR,,,,,,,,,,,,METAR,318.0
KF70 230035Z AUTO 22010G18KT 10SM SCT018 SCT025 OVC034 16/11 A2977 RMK AO2,KF70,2022-10-23T00:35:00Z,33.57,-117.13,16.0,11.0,220,10,18,10.0,29.769686,,,TRUE,TRUE,,,,,,,SCT,1800,SCT,2500,OVC,3400,,,VFR,,,,,,,,,,,,METAR,406.0
KF46 230035Z AUTO 20015G24KT 10SM CLR 26/13 A2977 RMK AO2 T02620128,KF46,2022-10-23T00:35:00Z,32.93,-96.43,26.2,12.8,200,15,24,10.0,29.769686,,,TRUE,TRUE,,,,,,,CLR,,,,,,,,VFR,,,,,,,,,,,,METAR,175.0
KF44 230035Z AUTO 19010KT 10SM CLR 26/13 A2980 RMK AO2,KF44,2022-10-23T00:35:00Z,32.17,-95.83,26.0,13.0,190,10,,10.0,29.799213,,,TRUE,TRUE,,,,,,,CLR,,,,,,,,VFR,,,,,,,,,,,,METAR,137.0
KF17 230035Z AUTO 16009KT 10SM CLR 24/15 A2990 RMK AO2,KF17,2022-10-23T00:35:00Z,31.83,-94.15,24.0,15.0,160,9,,10.0,29.899607,,,TRUE,TRUE,,,,,,,CLR,,,,,,,,VFR,,,,,,,,,,,,METAR,93.0
KF05 230035Z AUTO 19011KT 10SM CLR 29/10 A2961 RMK AO2 T02870095,KF05,2022-10-23T00:35:00Z,34.23,-99.28,28.7,9.5,190,11,,10.0,29.610237,,,TRUE,TRUE,,,,,,,CLR,,,,,,,,VFR,,,,,,,,,,,,METAR,384.0
KF00 230035Z AUTO 18013KT 10SM CLR 25/14 A2973 RMK AO2 T02500138,KF00,2022-10-23T00:35:00Z,33.62,-96.18,25.0,13.8,180,13,,10.0,29.731298,,,TRUE,TRUE,,,,,,,CLR,,,,,,,,VFR,,,,,,,,,,,,METAR,189.0
KEZZ 230035Z AUTO 16006KT 10SM CLR 20/11 A2962 RMK AO2 T02040109,KEZZ,2022-10-23T00:35:00Z,39.72,-94.28,20.4,10.9,160,6,,10.0,29.619095,,,TRUE,TRUE,,,,,,,CLR,,,,,,,,VFR,,,,,,,,,,,,METAR,317.0
KEZM 230035Z AUTO 00000KT 10SM CLR 10/06 A3013 RMK AO2,KEZM,2022-10-23T00:35:00Z,32.22,-83.13,10.0,6.0,0,0,,10.0,30.129921,,,TRUE,TRUE,,,,,,,CLR,,,,,,,,VFR,,,,,,,,,,,,METAR,86.0
KEZF 230035Z AUTO 00000KT 10SM CLR 11/07 A3022 RMK AO2 T01090072,KEZF,2022-10-23T00:35:00Z,38.27,-77.45,10.9,7.2,0,0,,10.0,30.221457,,,TRUE,TRUE,,,,,,,CLR,,,,,,,,VFR,,,,,,,,,,,,METAR,26.0
KEYF 230035Z AUTO 02003KT 10SM CLR 18/10 A3014 RMK AO2 T01810103,KEYF,2022-10-23T00:35:00Z,34.6,-78.58,18.1,10.3,20,3,,10.0,30.138779,,,TRUE,TRUE,,,,,,,CLR,,,,,,,,VFR,,,,,,,,,,,,METAR,39.0
KEXX 230035Z AUTO 00000KT 10SM CLR 11/05 A3017 RMK AO2 T01080052,KEXX,2022-10-23T00:35:00Z,35.78,-80.3,10.8,5.2,0,0,,10.0,30.171259,,,TRUE,TRUE,,,,,,,CLR,,,,,,,,VFR,,,,,,,,,,,,SPECI,221.0
KEVU 230035Z AUTO 15006KT 10SM CLR 21/11 A2959 RMK AO2 T02100118,KEVU,2022-10-23T00:35:00Z,40.35,-94.92,21.0,11.8,150,6,,10.0,29.589567,,,TRUE,TRUE,,,,,,,CLR,,,,,,,,VFR,,,,,,,,,,,,METAR,351.0
KETN 230035Z AUTO 17010KT 10SM CLR 26/12 A2973 RMK AO2 T02610117,KETN,2022-10-23T00:35:00Z,32.42,-98.82,26.1,11.7,170,10,,10.0,29.731298,,,TRUE,TRUE,,,,,,,CLR,,,,,,,,VFR,,,,,,,,,,,,METAR,445.0
KETC 230035Z AUTO 05005KT 10SM CLR 16/11 A3017 RMK AO2 T01650108,KETC,2022-10-23T00:35:00Z,35.93,-77.55,16.5,10.8,50,5,,10.0,30.171259,,,TRUE,TRUE,,,,,,,CLR,,,,,,,,VFR,,,,,,,,,,,,METAR,15.0
KERY 230035Z AUTO 15003KT 10SM CLR 11/07 A2983 RMK AO2 T01090074,KERY,2022-10-23T00:35:00Z,46.3,-85.45,10.9,7.4,150,3,,10.0,29.828741,,,TRUE,TRUE,,,,,,,CLR,,,,,,,,VFR,,,,,,,,,,,,METAR,261.0
KERV 230035Z AUTO 16007KT 10SM CLR 24/13 A2987 RMK AO2 T02420125,KERV,2022-10-23T00:35:00Z,29.98,-99.08,24.2,12.5,160,7,,10.0,29.870079,,,TRUE,TRUE,,,,,,,CLR,,,,,,,,VFR,,,,,,,,,,,,METAR,483.0
KEQA 230035Z AUTO 15013KT 10SM CLR 26/07 A2953 RMK AO2,KEQA,2022-10-23T00:35:00Z,37.78,-96.82,26.0,7.0,150,13,,10.0,29.530512,,,TRUE,TRUE,,,,,,,CLR,,,,,,,,VFR,,,,,,,,,,,,METAR,422.0
KEMM 230035Z AUTO 32010G16KT 3SM -SN CLR 00/00 A2958 RMK AO2,KEMM,2022-10-23T00:35:00Z,41.82,-110.55,0.0,0.0,320,10,16,3.0,29.58071,,,TRUE,TRUE,,,,,,-SN,CLR,,,,,,,,MVFR,,,,,,,,,,,,METAR,2219.0
KELO 230035Z AUTO 08005KT 10SM CLR 11/04 A2966 RMK AO2,KELO,2022-10-23T00:35:00Z,47.82,-91.83,11.0,4.0,80,5,,10.0,29.660433,,,TRUE,TRUE,,,,,,,CLR,,,,,,,,VFR,,,,,,,,,,,,METAR,438.0
KELK 230035Z AUTO 22011KT 9SM CLR 27/06 A2959 RMK AO2 SLP311 T02670058 $,KELK,2022-10-23T00:35:00Z,35.43,-99.4,26.7,5.8,220,11,,9.0,29.589567,1031.1,,TRUE,TRUE,TRUE,,,,,,CLR,,,,,,,,VFR,,,,,,,,,,,,METAR,603.0
KELA 230035Z AUTO 20011KT 10SM CLR 25/16 A2991 RMK AO2 T02450157,KELA,2022-10-23T00:35:00Z,29.6,-96.32,24.5,15.7,200,11,,10.0,29.911417,,,TRUE,TRUE,,,,,,,CLR,,,,,,,,VFR,,,,,,,,,,,,METAR,56.0
KEKX 230035Z AUTO 15003KT 10SM CLR 18/10 A3006 RMK AO2 T01760101,KEKX,2022-10-23T00:35:00Z,37.68,-85.92,17.6,10.1,150,3,,10.0,30.059055,,,TRUE,TRUE,,,,,,,CLR,,,,,,,,VFR,,,,,,,,,,,,METAR,234.0
KEKS 230035Z AUTO 04009G15KT 1/2SM -SN OVC003 01/00 A2951 RMK AO2,KEKS,2022-10-23T00:35:00Z,45.27,-111.65,1.0,0.0,40,9,15,0.5,29.509842,,,TRUE,TRUE,,,,,,-SN,OVC,300,,,,,,,LIFR,,,,,,,,,,,,METAR,1636.0
KEKM 230035Z AUTO 16006KT 9SM CLR 20/11 A2995 RMK AO2 T01960110,KEKM,2022-10-23T00:35:00Z,41.72,-86.0,19.6,11.0,160,6,,9.0,29.949802,,,TRUE,TRUE,,,,,,,CLR,,,,,,,,VFR,,,,,,,,,,,,METAR,236.0
KEIK 230035Z AUTO 00000KT 10SM CLR 16/M10 A2944 RMK AO2 T01631104 PWINO,KEIK,2022-10-23T00:35:00Z,40.02,-105.05,16.3,-10.4,0,0,,10.0,29.438976,,,TRUE,TRUE,,,,,TRUE,,CLR,,,,,,,,VFR,,,,,,,,,,,,METAR,1551.0
KEHO 230035Z AUTO 06003KT 10SM CLR 12/04 A3017 RMK AO2 T01230044,KEHO,2022-10-23T00:35:00Z,35.25,-81.6,12.3,4.4,60,3,,10.0,30.171259,,,TRUE,TRUE,,,,,,,CLR,,,,,,,,VFR,,,,,,,,,,,,METAR,261.0
KEHA 230035Z AUTO 24014KT 10SM CLR 25/M05 A2953 RMK AO2 T02501048,KEHA,2022-10-23T00:35:00Z,37.0,-101.87,25.0,-4.8,240,14,,10.0,29.530512,,,TRUE,TRUE,,,,,,,CLR,,,,,,,,VFR,,,,,,,,,,,,METAR,1103.0
KEGV 230035Z AUTO 15003KT 10SM CLR 16/05 A2971 RMK AO2 T01550050,KEGV,2022-10-23T00:35:00Z,45.93,-89.27,15.5,5.0,150,3,,10.0,29.71063,,,TRUE,TRUE,,,,,,,CLR,,,,,,,,VFR,,,,,,,,,,,,METAR,499.0
KEGT 230035Z AUTO 15011KT 10SM CLR 26/06 A2951 RMK AO2 T02560065,KEGT,2022-10-23T00:35:00Z,37.32,-97.38,25.6,6.5,150,11,,10.0,29.509842,,,TRUE,TRUE,,,,,,,CLR,,,,,,,,VFR,,,,,,,,,,,,METAR,387.0
KEFK 230035Z AUTO 14004KT 10SM CLR 13/01 A3025 RMK AO2 T01260013,KEFK,2022-10-23T00:35:00Z,44.88,-72.23,12.6,1.3,140,4,,10.0,30.250984,,,TRUE,TRUE,,,,,,,CLR,,,,,,,,VFR,,,,,,,,,,,,METAR,282.0
KEDN 230035Z AUTO 00000KT 10SM CLR 14/09 A3009 RMK AO2 T01350086,KEDN,2022-10-23T00:35:00Z,31.3,-85.9,13.5,8.6,0,0,,10.0,30.088583,,,TRUE,TRUE,,,,,,,CLR,,,,,,,,VFR,,,,,,,,,,,,SPECI,103.0
KEDJ 230035Z AUTO 18008KT 10SM SCT050 19/09 A3007 RMK A01,KEDJ,2022-10-23T00:35:00Z,40.37,-83.82,19.0,9.0,180,8,,10.0,30.070866,,,TRUE,TRUE,,,,,,,SCT,5000,,,,,,,VFR,,,,,,,,,,,,METAR,341.0
KEDE 230035Z AUTO 04007KT 10SM CLR 17/15 A3018 RMK AO2 T01660150,KEDE,2022-10-23T00:35:00Z,36.03,-76.57,16.6,15.0,40,7,,10.0,30.180119,,,TRUE,TRUE,,,,,,,CLR,,,,,,,,VFR,,,,,,,,,,,,METAR,4.0
KECU 230035Z AUTO 16010KT 10SM CLR 22/14 A2992 RMK AO2,KECU,2022-10-23T00:35:00Z,29.95,-100.17,22.0,14.0,160,10,,10.0,29.920275,,,TRUE,TRUE,,,,,,,CLR,,,,,,,,VFR,,,,,,,,,,,,METAR,725.0
KECS 230035Z AUTO 10006KT 10SM CLR 15/M06 A2939 RMK AO2,KECS,2022-10-23T00:35:00Z,43.88,-104.32,15.0,-6.0,100,6,,10.0,29.388779,,,TRUE,TRUE,,,,,,,CLR,,,,,,,,VFR,,,,,,,,,,,,METAR,1273.0
KEBS 230035Z AUTO 15007KT 10SM CLR 18/07 A2956 RMK AO2,KEBS,2022-10-23T00:35:00Z,42.43,-93.87,18.0,7.0,150,7,,10.0,29.56004,,,TRUE,TRUE,,,,,,,CLR,,,,,,,,VFR,,,,,,,,,,,,METAR,340.0
KEBG 230035Z AUTO 15010KT 10SM CLR 26/19 A2987 RMK AO2 T02570192 PWINO,KEBG,2022-10-23T00:35:00Z,26.45,-98.13,25.7,19.2,150,10,,10.0,29.870079,,,TRUE,TRUE,,,,,TRUE,,CLR,,,,,,,,VFR,,,,,,,,,,,,METAR,21.0
KEBA 230035Z AUTO 00000KT 10SM CLR 12/04 A3014 RMK AO2 T01210042,KEBA,2022-10-23T00:35:00Z,34.1,-82.82,12.1,4.2,0,0,,10.0,30.138779,,,TRUE,TRUE,,,,,,,CLR,,,,,,,,VFR,,,,,,,,,,,,SPECI,180.0
KE42 230035Z AUTO 21013G17KT 10SM CLR 24/03 A2956 RMK AO2 T02430031,KE42,2022-10-23T00:35:00Z,36.22,-101.2,24.3,3.1,210,13,17,10.0,29.56004,,,TRUE,TRUE,,,,,,,CLR,,,,,,,,VFR,,,,,,,,,,,,METAR,942.0
KE41 230035Z AUTO 17009G14KT 10SM CLR 23/12 A2983 RMK AO2 T02340123,KE41,2022-10-23T00:35:00Z,31.2,-101.47,23.4,12.3,170,9,14,10.0,29.828741,,,TRUE,TRUE,,,,,,,CLR,,,,,,,,VFR,,,,,,,,,,,,METAR,825.0
KE38 230035Z AUTO 22008KT 10SM SCT120 23/07 A2996 RMK AO2 T02250065,KE38,2022-10-23T00:35:00Z,30.38,-103.68,22.5,6.5,220,8,,10.0,29.958662,,,TRUE,TRUE,,,,,,,SCT,12000,,,,,,,VFR,,,,,,,,,,,,SPECI,1372.0
KE16 230035Z AUTO 33011G20KT 10SM CLR 18/04 A2977 RMK AO2 PWINO PNO,KE16,2022-10-23T00:35:00Z,37.08,-121.6,18.0,4.0,330,11,20,10.0,29.769686,,,TRUE,TRUE,,,,,TRUE,,CLR,,,,,,,,VFR,,,,,,,,,,,,METAR,84.0
KE11 230035Z AUTO 19004KT 10SM CLR 23/12 A2979 RMK AO2 T02270121,KE11,2022-10-23T00:35:00Z,32.33,-102.53,22.7,12.1,190,4,,10.0,29.790354,,,TRUE,TRUE,,,,,,,CLR,,,,,,,,VFR,,,,,,,,,,,,METAR,966.0
KDZJ 230035Z AUTO 00000KT 10SM CLR 11/04 A3018 RMK AO2 T01120045,KDZJ,2022-10-23T00:35:00Z,34.85,-84.0,11.2,4.5,0,0,,10.0,30.180119,,,TRUE,TRUE,,,,,,,CLR,,,,,,,,VFR,,,,,,,,,,,,METAR,578.0
KDZB 230035Z AUTO 00000KT 10SM CLR 27/11 A2983 RMK AO2 T02680113,KDZB,2022-10-23T00:35:00Z,30.53,-98.37,26.8,11.3,0,0,,10.0,29.828741,,,TRUE,TRUE,,,,,,,CLR,,,,,,,,VFR,,,,,,,,,,,,METAR,329.0
KDYT 230035Z AUTO 06017KT 10SM BKN043 10/08 A2964 RMK AO2,KDYT,2022-10-23T00:35:00Z,46.72,-92.03,10.0,8.0,60,17,,10.0,29.639763,,,TRUE,TRUE,,,,,,,BKN,4300,,,,,,,VFR,,,,,,,,,,,,METAR,185.0
KDYB 230035Z AUTO 00000KT 10SM SCT044 14/13 A3012 RMK AO2,KDYB,2022-10-23T00:35:00Z,33.07,-80.28,14.0,13.0,0,0,,10.0,30.121063,,,TRUE,TRUE,,,,,,,SCT,4400,,,,,,,VFR,,,,,,,,,,,,METAR,15.0
KDXX 230035Z AUTO 00000KT 10SM CLR 18/M01 A2947 RMK AO2,KDXX,2022-10-23T00:35:00Z,44.98,-96.18,18.0,-1.0,0,0,,10.0,29.471457,,,TRUE,TRUE,,,,,,,CLR,,,,,,,,VFR,,,,,,,,,,,,METAR,327.0
KDWA 230035Z AUTO 35006KT 10SM CLR 22/M03 A2971 RMK AO2,KDWA,2022-10-23T00:35:00Z,38.58,-121.85,22.0,-3.0,350,6,,10.0,29.71063,,,TRUE,TRUE,,,,,,,CLR,,,,,,,,VFR,,,,,,,,,,,,METAR,28.0
KDVO 230035Z AUTO 28019G25KT 10SM CLR 19/05 A2974 RMK AO2,KDVO,2022-10-23T00:35:00Z,38.15,-122.55,19.0,5.0,280,19,25,10.0,29.740158,,,TRUE,TRUE,,,,,,,CLR,,,,,,,,VFR,,,,,,,,,,,,METAR,1.0
KDUX 230035Z AUTO 22014G19KT 10SM CLR 23/04 A2962 RMK AO2 T02320044,KDUX,2022-10-23T00:35:00Z,35.85,-102.02,23.2,4.4,220,14,19,10.0,29.619095,,,TRUE,TRUE,,,,,,,CLR,,,,,,,,VFR,,,,,,,,,,,,METAR,1129.0
KDUH 230035Z AUTO 15003KT 10SM CLR 18/07 A3001 RMK AO2 T01760069,KDUH,2022-10-23T00:35:00Z,41.73,-83.65,17.6,6.9,150,3,,10.0,30.008858,,,TRUE,TRUE,,,,,,,CLR,,,,,,,,VFR,,,,,,,,,,,,METAR,203.0
KDUC 230035Z AUTO 17008KT 10SM CLR 26/11 A2964 RMK AO2 T02650110,KDUC,2022-10-23T00:35:00Z,34.47,-97.97,26.5,11.0,170,8,,10.0,29.639763,,,TRUE,TRUE,,,,,,,CLR,,,,,,,,VFR,,,,,,,,,,,,SPECI,339.0
KDUA 230035Z AUTO 18018G25KT 10SM CLR 26/11 A2972 RMK AO2,KDUA,2022-10-23T00:35:00Z,33.95,-96.4,26.0,11.0,180,18,25,10.0,29.719488,,,TRUE,TRUE,,,,,,,CLR,,,,,,,,VFR,,,,,,,,,,,,SPECI,209.0
KDTL 230035Z AUTO 08009KT 10SM BKN030 BKN034 12/04 A2947 RMK AO2,KDTL,2022-10-23T00:35:00Z,46.82,-95.88,12.0,4.0,80,9,,10.0,29.471457,,,TRUE,TRUE,,,,,,,BKN,3000,BKN,3400,,,,,MVFR,,,,,,,,,,,,METAR,425.0
KDTA 230035Z AUTO 02018G23KT 7SM SCT020 BKN027 OVC032 05/03 A2964 RMK AO1,KDTA,2022-10-23T00:35:00Z,39.38,-112.5,5.0,3.0,20,18,23,7.0,29.639763,,,TRUE,TRUE,,,,,,,SCT,2000,BKN,2700,OVC,3200,,,MVFR,,,,,,,,,,,,METAR,1452.0
KDSF 230035Z AUTO 07010KT 10SM CLR 23/13 A3008 RMK A01,KDSF,2022-10-23T00:35:00Z,28.35,-88.27,23.0,13.0,70,10,,10.0,30.079725,,,TRUE,TRUE,,,,,,,CLR,,,,,,,,VFR,,,,,,,,,,,,METAR,40.0
KDRM 230035Z AUTO 15003KT 10SM CLR 11/08 A2986 RMK AO2 T01120082,KDRM,2022-10-23T00:35:00Z,46.0,-83.75,11.2,8.2,150,3,,10.0,29.861221,,,TRUE,TRUE,,,,,,,CLR,,,,,,,,VFR,,,,,,,,,,,,METAR,201.0
KDRI 230035Z AUTO 16006KT 10SM CLR 22/16 A2997 RMK AO2 T02220163 $,KDRI,2022-10-23T00:35:00Z,30.83,-93.33,22.2,16.3,160,6,,10.0,29.970472,,,TRUE,TRUE,TRUE,,,,,,CLR,,,,,,,,VFR,,,,,,,,,,,,METAR,59.0
KDQH 230035Z AUTO 00000KT 10SM CLR 14/05 A3013 RMK AO2 T01420045,KDQH,2022-10-23T00:35:00Z,31.48,-82.87,14.2,4.5,0,0,,10.0,30.129921,,,TRUE,TRUE,,,,,,,CLR,,,,,,,,VFR,,,,,,,,,,,,METAR,76.0
KDPL 230035Z AUTO 05003KT 10SM CLR 16/12 A3015 RMK AO2,KDPL,2022-10-23T00:35:00Z,35.0,-77.97,16.0,12.0,50,3,,10.0,30.15059,,,TRUE,TRUE,,,,,,,CLR,,,,,,,,VFR,,,,,,,,,,,,METAR,39.0
KDNV 230035Z AUTO 17010G16KT 10SM CLR 21/12 A2993 RMK AO2 T02110117,KDNV,2022-10-23T00:35:00Z,40.2,-87.6,21.1,11.7,170,10,16,10.0,29.929134,,,TRUE,TRUE,,,,,,,CLR,,,,,,,,VFR,,,,,,,,,,,,SPECI,208.0
KDNN 230035Z AUTO 00000KT 10SM FEW200 SCT230 14/09 A3014 RMK AO2 T01380092,KDNN,2022-10-23T00:35:00Z,34.72,-84.87,13.8,9.2,0,0,,10.0,30.138779,,,TRUE,TRUE,,,,,,,FEW,20000,SCT,23000,,,,,VFR,,,,,,,,,,,,METAR,216.0
KDNA 230035Z AUTO 21007KT 10SM CLR 25/08 A2983 RMK AO2,KDNA,2022-10-23T00:35:00Z,31.88,-106.7,25.0,8.0,210,7,,10.0,29.828741,,,TRUE,TRUE,,,,,,,CLR,,,,,,,,VFR,,,,,,,,,,,,METAR,1254.0
KDMW 230035Z AUTO 00000KT 10SM CLR 13/06 A3026 RMK AO2,KDMW,2022-10-23T00:35:00Z,39.6,-77.0,13.0,6.0,0,0,,10.0,30.259842,,,TRUE,TRUE,,,,,,,CLR,,,,,,,,VFR,,,,,,,,,,,,METAR,239.0
KDLZ 230035Z AUTO 16007KT 10SM CLR 17/08 A3008 RMK AO2,KDLZ,2022-10-23T00:35:00Z,40.28,-83.12,17.0,8.0,160,7,,10.0,30.079725,,,TRUE,TRUE,,,,,,,CLR,,,,,,,,VFR,,,,,,,,,,,,METAR,287.0
KDLO 230035Z AUTO 01006KT 10SM SCT050 BKN070 BKN080 21/09 A2966 RMK AO2 T02110093,KDLO,2022-10-23T00:35:00Z,35.75,-119.23,21.1,9.3,10,6,,10.0,29.660433,,,TRUE,TRUE,,,,,,,SCT,5000,BKN,7000,BKN,8000,,,VFR,,,,,,,,,,,,METAR,97.0
KDKX 230035Z AUTO 00000KT 10SM CLR 13/10 A3014 RMK A01,KDKX,2022-10-23T00:35:00Z,35.97,-83.87,13.0,10.0,0,0,,10.0,30.138779,,,TRUE,TRUE,,,,,,,CLR,,,,,,,,VFR,,,,,,,,,,,,SPECI,253.0
KDKR 230035Z AUTO 15011KT 10SM CLR 25/14 A2986 RMK AO2,KDKR,2022-10-23T00:35:00Z,31.3,-95.4,25.0,14.0,150,11,,10.0,29.861221,,,TRUE,TRUE,,,,,,,CLR,,,,,,,,VFR,,,,,,,,,,,,METAR,105.0
KDKB 230035Z AUTO 15009KT 10SM CLR 18/12 A2982 RMK AO2 T01840122,KDKB,2022-10-23T00:35:00Z,41.93,-88.7,18.4,12.2,150,9,,10.0,29.819881,,,TRUE,TRUE,,,,,,,CLR,,,,,,,,VFR,,,,,,,,,,,,SPECI,277.0
KDEH 230035Z AUTO 15008G16KT 10SM FEW050 FEW060 21/09 A2963 RMK AO2,KDEH,2022-10-23T00:35:00Z,43.27,-91.73,21.0,9.0,150,8,16,10.0,29.630905,,,TRUE,TRUE,,,,,,,FEW,5000,FEW,6000,,,,,VFR,,,,,,,,,,,,METAR,348.0
KDED 230035Z AUTO 33006KT 10SM CLR 18/14 A3009 RMK AO2 T01850143,KDED,2022-10-23T00:35:00Z,29.07,-81.28,18.5,14.3,330,6,,10.0,30.088583,,,TRUE,TRUE,,,,,,,CLR,,,,,,,,VFR,,,,,,,,,,,,METAR,21.0
KDCY 230035Z AUTO 18007KT 10SM CLR 18/11 A2999 RMK AO2 T01800106,KDCY,2022-10-23T00:35:00Z,38.7,-87.13,18.0,10.6,180,7,,10.0,29.991142,,,TRUE,TRUE,,,,,,,CLR,,,,,,,,VFR,,,,,,,,,,,,METAR,143.0
KDBN 230035Z AUTO 00000KT 10SM CLR 10/07 A3015 RMK AO2,KDBN,2022-10-23T00:35:00Z,32.57,-82.98,10.0,7.0,0,0,,10.0,30.15059,,,TRUE,TRUE,,,,,,,CLR,,,,,,,,VFR,,,,,,,,,,,,METAR,90.0
KD95 230035Z AUTO 13004KT 10SM CLR 17/05 A3000 RMK AO2 T01700053,KD95,2022-10-23T00:35:00Z,43.07,-83.27,17.0,5.3,130,4,,10.0,30.0,,,TRUE,TRUE,,,,,,,CLR,,,,,,,,VFR,,,,,,,,,,,,METAR,253.0
KD73 230035Z AUTO 00000KT 10SM CLR 10/08 A3015 RMK AO2 T01000075,KD73,2022-10-23T00:35:00Z,33.78,-83.7,10.0,7.5,0,0,,10.0,30.15059,,,TRUE,TRUE,,,,,,,CLR,,,,,,,,VFR,,,,,,,,,,,,METAR,254.0
KD60 230035Z AUTO 07013KT 10SM SCT041 SCT095 08/05 A2956 RMK AO2,KD60,2022-10-23T00:35:00Z,48.38,-102.9,8.0,5.0,70,13,,10.0,29.56004,,,TRUE,TRUE,,,,,,,SCT,4100,SCT,9500,,,,,VFR,,,,,,,,,,,,METAR,682.0
KD57 230035Z AUTO 06008KT 10SM BKN110 09/04 A2948 RMK AO2,KD57,2022-10-23T00:35:00Z,46.82,-101.87,9.0,4.0,60,8,,10.0,29.480314,,,TRUE,TRUE,,,,,,,BKN,11000,,,,,,,VFR,,,,,,,,,,,,METAR,636.0
KD55 230035Z AUTO 05015G22KT 10SM BKN009 OVC095 08/08 A2959 RMK AO2,KD55,2022-10-23T00:35:00Z,48.75,-98.4,8.0,8.0,50,15,22,10.0,29.589567,,,TRUE,TRUE,,,,,,,BKN,900,OVC,9500,,,,,IFR,,,,,,,,,,,,METAR,488.0
KD50 230035Z AUTO 06008KT 10SM BKN033 OVC042 08/02 A2960 RMK AO2,KD50,2022-10-23T00:35:00Z,48.93,-103.3,8.0,2.0,60,8,,10.0,29.601377,,,TRUE,TRUE,,,,,,,BKN,3300,OVC,4200,,,,,VFR,,,,,,,,,,,,METAR,591.0
KD39 230035Z AUTO 13006KT 10SM CLR 18/05 A2948 RMK AO2 T01780052,KD39,2022-10-23T00:35:00Z,45.7,-94.93,17.8,5.2,130,6,,10.0,29.480314,,,TRUE,TRUE,,,,,,,CLR,,,,,,,,VFR,,,,,,,,,,,,METAR,378.0
KD25 230035Z AUTO 14006KT 10SM CLR 15/06 A2969 RMK AO2 T01510057,KD25,2022-10-23T00:35:00Z,46.12,-89.88,15.1,5.7,140,6,,10.0,29.68996,,,TRUE,TRUE,,,,,,,CLR,,,,,,,,VFR,,,,,,,,,,,,METAR,490.0
KCZT 230035Z AUTO 14004KT 10SM CLR 24/13 A2981 RMK AO2,KCZT,2022-10-23T00:35:00Z,28.52,-99.82,24.0,13.0,140,4,,10.0,29.811024,,,TRUE,TRUE,,,,,,,CLR,,,,,,,,VFR,,,,,,,,,,,,SPECI,176.0
KCZL 230035Z AUTO 00000KT 10SM CLR 14/10 A3015 RMK AO2,KCZL,2022-10-23T00:35:00Z,34.47,-84.93,14.0,10.0,0,0,,10.0,30.15059,,,TRUE,TRUE,,,,,,,CLR,,,,,,,,VFR,,,,,,,,,,,,SPECI,197.0
KCXW 230035Z AUTO 13008KT 6SM HZ SCT042 BKN050 23/13 A2984 RMK A01,KCXW,2022-10-23T00:35:00Z,35.02,-92.55,23.0,13.0,130,8,,6.0,29.840551,,,TRUE,TRUE,,,,,,HZ,SCT,4200,BKN,5000,,,,,VFR,,,,,,,,,,,,SPECI,84.0
KCXU 230035Z AUTO 00000KT 10SM CLR 12/05 A3011 RMK AO1 T01160052,KCXU,2022-10-23T00:35:00Z,31.22,-84.23,11.6,5.2,0,0,,10.0,30.109253,,,TRUE,TRUE,,,,,,,CLR,,,,,,,,VFR,,,,,,,,,,,,SPECI,48.0
KCXP 230035Z AUTO 00000KT 10SM BKN095 SCT120 05/01 A2976 RMK AO2,KCXP,2022-10-23T00:35:00Z,39.18,-119.73,5.0,1.0,0,0,,10.0,29.760826,,,TRUE,TRUE,,,,,,,BKN,9500,SCT,12000,,,,,VFR,,,,,,,,,,,,METAR,1431.0
KCXE 230035Z AUTO 00000KT 10SM CLR 11/08 A3020 RMK AO1 T01110081,KCXE,2022-10-23T00:35:00Z,36.78,-78.5,11.1,8.1,0,0,,10.0,30.200787,,,TRUE,TRUE,,,,,,,CLR,,,,,,,,VFR,,,,,,,,,,,,SPECI,154.0
KCWV 230035Z AUTO 00000KT 7SM CLR 11/08 A3013 RMK AO2 T01110081,KCWV,2022-10-23T00:35:00Z,32.2,-81.87,11.1,8.1,0,0,,7.0,30.129921,,,TRUE,TRUE,,,,,,,CLR,,,,,,,,VFR,,,,,,,,,,,,METAR,32.0
KCWC 230035Z AUTO 15010G14KT 10SM CLR 29/11 A2964 RMK AO2 T02850105,KCWC,2022-10-23T00:35:00Z,33.85,-98.48,28.5,10.5,150,10,14,10.0,29.639763,,,TRUE,TRUE,,,,,,,CLR,,,,,,,,VFR,,,,,,,,,,,,METAR,304.0
KCVX 230035Z AUTO 00000KT 10SM CLR 10/09 A2984 RMK AO2 T01000089,KCVX,2022-10-23T00:35:00Z,45.3,-85.27,10.0,8.9,0,0,,10.0,29.840551,,,TRUE,TRUE,,,,,,,CLR,,,,,,,,VFR,,,,,,,,,,,,METAR,196.0
KCVH 230035Z AUTO 23012KT 10SM CLR 17/08 A2975 RMK A01,KCVH,2022-10-23T00:35:00Z,36.9,-121.42,17.0,8.0,230,12,,10.0,29.749016,,,TRUE,TRUE,,,,,,,CLR,,,,,,,,VFR,,,,,,,,,,,,METAR,68.0
KCVC 230035Z AUTO 00000KT 10SM CLR 11/06 A3013 RMK AO2,KCVC,2022-10-23T00:35:00Z,33.63,-83.85,11.0,6.0,0,0,,10.0,30.129921,,,TRUE,TRUE,,,,,,,CLR,,,,,,,,VFR,,,,,,,,,,,,SPECI,240.0
KCTZ 230035Z AUTO 00000KT 10SM CLR 18/12 A3015 RMK AO2 T01820118,KCTZ,2022-10-23T00:35:00Z,34.98,-78.37,18.2,11.8,0,0,,10.0,30.15059,,,TRUE,TRUE,,,,,,,CLR,,,,,,,,VFR,,,,,,,,,,,,METAR,43.0
KCTY 230035Z AUTO 00000KT 10SM CLR 13/06 A3009 RMK AO2 T01270060,KCTY,2022-10-23T00:35:00Z,29.63,-83.1,12.7,6.0,0,0,,10.0,30.088583,,,TRUE,TRUE,,,,,,,CLR,,,,,,,,VFR,,,,,,,,,,,,METAR,12.0
KCTJ 230035Z AUTO 00000KT 10SM CLR 13/08 A3017 RMK AO2 T01260082,KCTJ,2022-10-23T00:35:00Z,33.63,-85.15,12.6,8.2,0,0,,10.0,30.171259,,,TRUE,TRUE,,,,,,,CLR,,,,,,,,VFR,,,,,,,,,,,,METAR,351.0
KCSQ 230035Z AUTO 17007KT 10SM CLR 19/10 A2960 RMK AO2,KCSQ,2022-10-23T00:35:00Z,41.02,-94.37,19.0,10.0,170,7,,10.0,29.601377,,,TRUE,TRUE,,,,,,,CLR,,,,,,,,VFR,,,,,,,,,,,,METAR,394.0
KCRX 230035Z AUTO 15006KT 10SM CLR 19/10 A3001 RMK AO2,KCRX,2022-10-23T00:35:00Z,34.92,-88.6,19.0,10.0,150,6,,10.0,30.008858,,,TRUE,TRUE,,,,,,,CLR,,,,,,,,VFR,,,,,,,,,,,,SPECI,128.0
KCQW 230035Z AUTO 00000KT 10SM CLR 15/10 A3015 RMK AO2 PWINO,KCQW,2022-10-23T00:35:00Z,34.72,-79.95,15.0,10.0,0,0,,10.0,30.15059,,,TRUE,TRUE,,,,,TRUE,,CLR,,,,,,,,VFR,,,,,,,,,,,,METAR,67.0
KCQF 230035Z AUTO 00000KT 10SM CLR 12/09 A3009 RMK AO2,KCQF,2022-10-23T00:35:00Z,30.47,-87.88,12.0,9.0,0,0,,10.0,30.088583,,,TRUE,TRUE,,,,,,,CLR,,,,,,,,VFR,,,,,,,,,,,,SPECI,21.0
KCQB 230035Z AUTO 16014G22KT 10SM CLR 26/14 A2961 RMK AO2 T02600141,KCQB,2022-10-23T00:35:00Z,35.72,-96.82,26.0,14.1,160,14,22,10.0,29.610237,,,TRUE,TRUE,,,,,,,CLR,,,,,,,,VFR,,,,,,,,,,,,METAR,298.0
KCPW 230035Z AUTO 24020G28KT 10SM SCT029 BKN040 OVC060 01/M03 A3000 RMK AO2,KCPW,2022-10-23T00:35:00Z,37.45,-106.8,1.0,-3.0,240,20,28,10.0,30.0,,,TRUE,TRUE,,,,,,,SCT,2900,BKN,4000,OVC,6000,,,VFR,,,,,,,,,,,,SPECI,3570.0
KCPU 230035Z AUTO 32009KT 10SM CLR 18/M04 A2971 RMK AO2 T01841041,KCPU,2022-10-23T00:35:00Z,38.15,-120.65,18.4,-4.1,320,9,,10.0,29.71063,,,TRUE,TRUE,,,,,,,CLR,,,,,,,,VFR,,,,,,,,,,,,METAR,400.0
KCPT 230035Z AUTO 17016G23KT 10SM CLR 26/14 A2976 RMK A01,KCPT,2022-10-23T00:35:00Z,32.35,-97.43,26.0,14.0,170,16,23,10.0,29.760826,,,TRUE,TRUE,,,,,,,CLR,,,,,,,,VFR,,,,,,,,,,,,METAR,260.0
KCPK 230035Z AUTO 36003KT 15/11 A3019 RMK AO2 T01500107,KCPK,2022-10-23T00:35:00Z,36.67,-76.32,15.0,10.7,360,3,,,30.188976,,,TRUE,TRUE,,,,,,,,,,,,,,,,,,,,,,,,,,,SPECI,4.0
KCPC 230035Z AUTO 02003KT 10SM CLR 16/12 A3014 RMK AO2 T01640120,KCPC,2022-10-23T00:35:00Z,34.28,-78.72,16.4,12.0,20,3,,10.0,30.138779,,,TRUE,TRUE,,,,,,,CLR,,,,,,,,VFR,,,,,,,,,,,,SPECI,27.0
KCOQ 230035Z AUTO 09010G14KT 10SM CLR 09/04 A2961 RMK AO2 TSNO,KCOQ,2022-10-23T00:35:00Z,46.7,-92.5,9.0,4.0,90,10,14,10.0,29.610237,,,TRUE,TRUE,,,TRUE,,,,CLR,,,,,,,,VFR,,,,,,,,,,,,METAR,390.0
KCOM 230035Z AUTO 20014G19KT CLR 28/10 A2977 RMK AO2 T02830095 PWINO,KCOM,2022-10-23T00:35:00Z,31.83,-99.4,28.3,9.5,200,14,19,,29.769686,,,TRUE,TRUE,,,,,TRUE,,CLR,,,,,,,,,,,,,,,,,,,,METAR,516.0
KCNI 230035Z AUTO 00000KT 10SM CLR 15/05 A3016 RMK AO2 T01520049,KCNI,2022-10-23T00:35:00Z,34.32,-84.42,15.2,4.9,0,0,,10.0,30.159449,,,TRUE,TRUE,,,,,,,CLR,,,,,,,,VFR,,,,,,,,,,,,SPECI,371.0
KCNC 230035Z AUTO 15006KT 10SM CLR 21/09 A2961 RMK AO2,KCNC,2022-10-23T00:35:00Z,41.02,-93.37,21.0,9.0,150,6,,10.0,29.610237,,,TRUE,TRUE,,,,,,,CLR,,,,,,,,VFR,,,,,,,,,,,,METAR,319.0
KCNB 230035Z AUTO 00000KT 7SM CLR 14/00 A2947 RMK AO2 T01401004,KCNB,2022-10-23T00:35:00Z,44.73,-96.27,14.0,-0.4,0,0,,7.0,29.471457,,,TRUE,TRUE,,,,,,,CLR,,,,,,,,VFR,,,,,,,,,,,,METAR,363.0
KCMR 230035Z AUTO 22015G25KT 10SM FEW036 SCT042 BKN047 13/05 A2977 RMK AO2,KCMR,2022-10-23T00:35:00Z,35.3,-112.2,13.0,5.0,220,15,25,10.0,29.769686,,,TRUE,TRUE,,,,,,,FEW,3600,SCT,4200,BKN,4700,,,VFR,,,,,,,,,,,,METAR,2039.0
KCMD 230035Z AUTO 15003KT 10SM CLR 19/12 A3010 RMK AO2,KCMD,2022-10-23T00:35:00Z,34.27,-86.85,19.0,12.0,150,3,,10.0,30.100393,,,TRUE,TRUE,,,,,,,CLR,,,,,,,,VFR,,,,,,,,,,,,METAR,294.0
KCLW 230035Z AUTO 36004KT 10SM CLR 20/14 A3005 RMK AO2,KCLW,2022-10-23T00:35:00Z,27.98,-82.75,20.0,14.0,360,4,,10.0,30.050198,,,TRUE,TRUE,,,,,,,CLR,,,,,,,,VFR,,,,,,,,,,,,METAR,21.0
KCLS 230035Z AUTO VRB04KT 10SM CLR 12/05 A2980 RMK AO2,KCLS,2022-10-23T00:35:00Z,46.68,-122.98,12.0,5.0,0,4,,10.0,29.799213,,,TRUE,TRUE,,,,,,,CLR,,,,,,,,VFR,,,,,,,,,,,,METAR,52.0
KCLK 230035Z AUTO 21015G19KT 10SM CLR 27/05 A2957 RMK AO2,KCLK,2022-10-23T00:35:00Z,35.53,-98.93,27.0,5.0,210,15,19,10.0,29.568897,,,TRUE,TRUE,,,,,,,CLR,,,,,,,,VFR,,,,,,,,,,,,SPECI,489.0
KCLI 230035Z AUTO 14007KT 10SM CLR 16/09 A2975 RMK AO2 T01610093,KCLI,2022-10-23T00:35:00Z,44.62,-88.73,16.1,9.3,140,7,,10.0,29.749016,,,TRUE,TRUE,,,,,,,CLR,,,,,,,,VFR,,,,,,,,,,,,METAR,248.0
KCKZ 230035Z AUTO 00000KT 10SM CLR 08/07 A3028 RMK AO2,KCKZ,2022-10-23T00:35:00Z,40.38,-75.28,8.0,7.0,0,0,,10.0,30.280512,,,TRUE,TRUE,,,,,,,CLR,,,,,,,,VFR,,,,,,,,,,,,METAR,160.0
KCKP 230035Z AUTO 18007KT 10SM CLR 18/06 A2952 RMK AO2 T01810064,KCKP,2022-10-23T00:35:00Z,42.73,-95.55,18.1,6.4,180,7,,10.0,29.518702,,,TRUE,TRUE,,,,,,,CLR,,,,,,,,VFR,,,,,,,,,,,,SPECI,369.0
KCKN 230035Z AUTO 07013G19KT 10SM CLR 14/03 A2952 RMK AO2,KCKN,2022-10-23T00:35:00Z,47.85,-96.62,14.0,3.0,70,13,19,10.0,29.518702,,,TRUE,TRUE,,,,,,,CLR,,,,,,,,VFR,,,,,,,,,,,,METAR,272.0
KCKM 230035Z AUTO 15009KT 10SM BKN055 BKN060 23/11 A2995 RMK A01,KCKM,2022-10-23T00:35:00Z,34.3,-90.52,23.0,11.0,150,9,,10.0,29.949802,,,TRUE,TRUE,,,,,,,BKN,5500,BKN,6000,,,,,VFR,,,,,,,,,,,,METAR,52.0
KCKI 230035Z AUTO 00000KT 10SM CLR 12/10 A3013 RMK AO2,KCKI,2022-10-23T00:35:00Z,33.72,-79.85,12.0,10.0,0,0,,10.0,30.129921,,,TRUE,TRUE,,,,,,,CLR,,,,,,,,VFR,,,,,,,,,,,,METAR,19.0
KCKF 230035Z AUTO 00000KT 10SM CLR 12/06 A3013 RMK AO2 T01240056,KCKF,2022-10-23T00:35:00Z,31.98,-83.77,12.4,5.6,0,0,,10.0,30.129921,,,TRUE,TRUE,,,,,,,CLR,,,,,,,,VFR,,,,,,,,,,,,METAR,92.0
KCJR 230035Z AUTO 00000KT 10SM CLR 09/05 A3024 RMK AO2 T00920054,KCJR,2022-10-23T00:35:00Z,38.53,-77.87,9.2,5.4,0,0,,10.0,30.239174,,,TRUE,TRUE,,,,,,,CLR,,,,,,,,VFR,,,,,,,,,,,,METAR,90.0
KCIR 230035Z AUTO 17007KT 10SM CLR 20/13 A2993 RMK AO2 T02000133,KCIR,2022-10-23T00:35:00Z,37.07,-89.22,20.0,13.3,170,7,,10.0,29.929134,,,TRUE,TRUE,,,,,,,CLR,,,,,,,,VFR,,,,,,,,,,,,METAR,96.0
KCIN 230035Z AUTO 00000KT 4SM HZ CLR 17/08 A2955 RMK AO2,KCIN,2022-10-23T00:35:00Z,42.03,-94.78,17.0,8.0,0,0,,4.0,29.551182,,,TRUE,TRUE,,,,,,HZ,CLR,,,,,,,,MVFR,,,,,,,,,,,,METAR,365.0
KCGE 230035Z AUTO 00000KT 10SM CLR 11/10 A3024 RMK A01,KCGE,2022-10-23T00:35:00Z,38.53,-76.03,11.0,10.0,0,0,,10.0,30.239174,,,TRUE,TRUE,,,,,,,CLR,,,,,,,,VFR,,,,,,,,,,,,METAR,5.0
KCGC 230035Z AUTO 05003KT 10SM CLR 20/13 RMK AO2 PNO,KCGC,2022-10-23T00:35:00Z,28.87,-82.57,20.0,13.0,50,3,,10.0,,,,TRUE,TRUE,,,,,,,CLR,,,,,,,,VFR,,,,,,,,,,,,METAR,3.0
KCFS 230035Z AUTO 15006KT 10SM CLR 17/08 A2997 RMK AO2 T01740081,KCFS,2022-10-23T00:35:00Z,43.47,-83.45,17.4,8.1,150,6,,10.0,29.970472,,,TRUE,TRUE,,,,,,,CLR,,,,,,,,VFR,,,,,,,,,,,,METAR,214.0
KCFJ 230035Z AUTO 17011KT 10SM CLR 19/08 A2996 RMK AO2 T01870075,KCFJ,2022-10-23T00:35:00Z,39.98,-86.92,18.7,7.5,170,11,,10.0,29.958662,,,TRUE,TRUE,,,,,,,CLR,,,,,,,,VFR,,,,,,,,,,,,METAR,243.0
KCFE 230035Z AUTO 11004KT 10SM BKN023 BKN035 BKN043 13/04 A2952 RMK AO2,KCFE,2022-10-23T00:35:00Z,45.17,-93.85,13.0,4.0,110,4,,10.0,29.518702,,,TRUE,TRUE,,,,,,,BKN,2300,BKN,3500,BKN,4300,,,MVFR,,,,,,,,,,,,METAR,292.0
KCFD 230035Z AUTO 16014G22KT 10SM CLR 26/15 A2988 RMK AO2 T02570151,KCFD,2022-10-23T00:35:00Z,30.72,-96.33,25.7,15.1,160,14,22,10.0,29.878937,,,TRUE,TRUE,,,,,,,CLR,,,,,,,,VFR,,,,,,,,,,,,METAR,106.0
KCEY 230035Z AUTO VRB03KT 10SM CLR 19/11 A3000 RMK A01,KCEY,2022-10-23T00:35:00Z,36.67,-88.37,19.0,11.0,0,3,,10.0,30.0,,,TRUE,TRUE,,,,,,,CLR,,,,,,,,VFR,,,,,,,,,,,,METAR,172.0
KCDN 230035Z AUTO 00000KT 10SM OVC050 13/09 A3016 RMK AO2,KCDN,2022-10-23T00:35:00Z,34.28,-80.57,13.0,9.0,0,0,,10.0,30.159449,,,TRUE,TRUE,,,,,,,OVC,5000,,,,,,,VFR,,,,,,,,,,,,METAR,90.0
KCDI 230035Z AUTO 00000KT 10SM CLR 09/08 A3014 RMK AO2 T00870078,KCDI,2022-10-23T00:35:00Z,39.97,-81.58,8.7,7.8,0,0,,10.0,30.138779,,,TRUE,TRUE,,,,,,,CLR,,,,,,,,VFR,,,,,,,,,,,,METAR,241.0
KCDH 230035Z AUTO 15008KT 10SM CLR 24/15 A2985 RMK AO2,KCDH,2022-10-23T00:35:00Z,33.62,-92.77,24.0,15.0,150,8,,10.0,29.84941,,,TRUE,TRUE,,,,,,,CLR,,,,,,,,VFR,,,,,,,,,,,,SPECI,38.0
KCDA 230035Z AUTO 10004KT 10SM 13/02 A3027 RMK AO2 T01260019,KCDA,2022-10-23T00:35:00Z,44.57,-72.02,12.6,1.9,100,4,,10.0,30.268702,,,TRUE,TRUE,,,,,,,,,,,,,,,,,,,,,,,,,,,METAR,357.0
KCCY 230035Z AUTO 15007KT 10SM CLR 20/08 A2961 RMK AO2,KCCY,2022-10-23T00:35:00Z,43.07,-92.62,20.0,8.0,150,7,,10.0,29.610237,,,TRUE,TRUE,,,,,,,CLR,,,,,,,,VFR,,,,,,,,,,,,METAR,340.0
KCCU 230035Z AUTO 20008G15KT 150V230 10SM CLR 05/M11 A2988 RMK AO2,KCCU,2022-10-23T00:35:00Z,39.48,-106.15,5.0,-11.0,200,8,15,10.0,29.878937,,,TRUE,TRUE,,,,,,,CLR,,,,,,,,VFR,,,,,,,,,,,,METAR,3672.0
KCCO 230035Z AUTO 00000KT 10SM CLR 14/06 A3013 RMK AO2 T01420060,KCCO,2022-10-23T00:35:00Z,33.32,-84.77,14.2,6.0,0,0,,10.0,30.129921,,,TRUE,TRUE,,,,,,,CLR,,,,,,,,VFR,,,,,,,,,,,,METAR,290.0
KCCA 230035Z AUTO VRB06G12KT 10SM CLR 23/12 A2984 RMK AO2,KCCA,2022-10-23T00:35:00Z,35.6,-92.45,23.0,12.0,0,6,12,10.0,29.840551,,,TRUE,TRUE,,,,,,,CLR,,,,,,,,VFR,,,,,,,,,,,,SPECI,152.0
KCBK 230035Z AUTO 16006KT 10SM CLR 19/M07 A2945 RMK AO2 T01951073,KCBK,2022-10-23T00:35:00Z,39.43,-101.05,19.5,-7.3,160,6,,10.0,29.450787,,,TRUE,TRUE,,,,,,,CLR,,,,,,,,VFR,,,,,,,,,,,,METAR,970.0
KCBG 230035Z AUTO 00000KT 10SM CLR 20/07 A2955 RMK AO2,KCBG,2022-10-23T00:35:00Z,45.57,-93.27,20.0,7.0,0,0,,10.0,29.551182,,,TRUE,TRUE,,,,,,,CLR,,,,,,,,VFR,,,,,,,,,,,,METAR,285.0
KCBF 230035Z AUTO 15010KT 10SM CLR 20/06 A2952 RMK AO2,KCBF,2022-10-23T00:35:00Z,41.27,-95.77,20.0,6.0,150,10,,10.0,29.518702,,,TRUE,TRUE,,,,,,,CLR,,,,,,,,VFR,,,,,,,,,,,,SPECI,379.0
KCBE 230035Z AUTO 02003KT 10SM CLR 12/04 A3026 RMK AO2 T01210039,KCBE,2022-10-23T00:35:00Z,39.62,-78.77,12.1,3.9,20,3,,10.0,30.259842,,,TRUE,TRUE,,,,,,,CLR,,,,,,,,VFR,,,,,,,,,,,,METAR,226.0
KCAV 230035Z AUTO 15008KT 10SM 18/08 A2957 RMK A01,KCAV,2022-10-23T00:35:00Z,42.75,-93.77,18.0,8.0,150,8,,10.0,29.568897,,,TRUE,TRUE,,,,,,,,,,,,,,,,,,,,,,,,,,,SPECI,352.0
KCAD 230035Z AUTO 17006KT 10SM CLR 18/07 A2989 RMK AO2 T01810074,KCAD,2022-10-23T00:35:00Z,44.27,-85.42,18.1,7.4,170,6,,10.0,29.890747,,,TRUE,TRUE,,,,,,,CLR,,,,,,,,VFR,,,,,,,,,,,,METAR,397.0
KC83 230035Z AUTO 23014G23KT 10SM CLR 20/05 A2971 RMK AO2,KC83,2022-10-23T00:35:00Z,37.83,-121.62,20.0,5.0,230,14,23,10.0,29.71063,,,TRUE,TRUE,,,,,,,CLR,,,,,,,,VFR,,,,,,,,,,,,METAR,16.0
KC75 230035Z AUTO 17016G22KT 10SM CLR 21/12 A2978 RMK AO2 T02140117,KC75,2022-10-23T00:35:00Z,41.02,-89.38,21.4,11.7,170,16,22,10.0,29.778543,,,TRUE,TRUE,,,,,,,CLR,,,,,,,,VFR,,,,,,,,,,,,METAR,166.0
KC65 230035Z AUTO 16006KT 10SM CLR 19/11 A2993 RMK A01,KC65,2022-10-23T00:35:00Z,41.37,-86.3,19.0,11.0,160,6,,10.0,29.929134,,,TRUE,TRUE,,,,,,,CLR,,,,,,,,VFR,,,,,,,,,,,,METAR,241.0
KC35 230035Z AUTO 14004KT 10SM CLR 21/10 A2971 RMK AO2 T02050095 PWINO,KC35,2022-10-23T00:35:00Z,43.53,-89.98,20.5,9.5,140,4,,10.0,29.71063,,,TRUE,TRUE,,,,,TRUE,,CLR,,,,,,,,VFR,,,,,,,,,,,,METAR,272.0
KC29 230035Z AUTO 16010G16KT 10SM CLR 22/10 A2973 RMK AO1 T02230098,KC29,2022-10-23T00:35:00Z,43.12,-89.53,22.3,9.8,160,10,16,10.0,29.731298,,,TRUE,TRUE,,,,,,,CLR,,,,,,,,VFR,,,,,,,,,,,,METAR,282.0
KC09 230035Z AUTO 15007KT 10SM CLR 20/12 A2982 RMK AO2 T01960122,KC09,2022-10-23T00:35:00Z,41.43,-88.42,19.6,12.2,150,7,,10.0,29.819881,,,TRUE,TRUE,,,,,,,CLR,,,,,,,,VFR,,,,,,,,,,,,METAR,179.0
KC07 230035Z AUTO 21009G17KT 160V240 10SM BKN060 OVC075 05/M05 A2977 RMK AO2,KC07,2022-10-23T00:35:00Z,40.35,-106.7,5.0,-5.0,210,9,17,10.0,29.769686,,,TRUE,TRUE,,,,,,,BKN,6000,OVC,7500,,,,,VFR,,,,,,,,,,,,METAR,3224.0
KBYY 230035Z AUTO 18006KT 10SM CLR 22/17 A2993 RMK AO2 T02270170,KBYY,2022-10-23T00:35:00Z,28.97,-95.87,22.7,17.0,180,6,,10.0,29.929134,,,TRUE,TRUE,,,,,,,CLR,,,,,,,,VFR,,,,,,,,,,,,SPECI,12.0
KBYL 230035Z AUTO 13005KT 10SM CLR 14/05 A3014 RMK AO1,KBYL,2022-10-23T00:35:00Z,36.8,-84.2,14.0,5.0,130,5,,10.0,30.138779,,,TRUE,TRUE,,,,,,,CLR,,,,,,,,VFR,,,,,,,,,,,,METAR,355.0
KBXK 230035Z AUTO 21012G17KT 10SM CLR 27/12 A2961 RMK A01,KBXK,2022-10-23T00:35:00Z,33.42,-112.68,27.0,12.0,210,12,17,10.0,29.610237,,,TRUE,TRUE,,,,,,,CLR,,,,,,,,VFR,,,,,,,,,,,,METAR,303.0
KBXA 230035Z AUTO 14004KT 10SM CLR 20/14 A3007 RMK AO2 T01980135,KBXA,2022-10-23T00:35:00Z,30.82,-89.87,19.8,13.5,140,4,,10.0,30.070866,,,TRUE,TRUE,,,,,,,CLR,,,,,,,,VFR,,,,,,,,,,,,SPECI,35.0
KBWW 230035Z AUTO 10013KT 10SM SCT120 08/03 A2945 RMK AO2,KBWW,2022-10-23T00:35:00Z,46.17,-103.3,8.0,3.0,100,13,,10.0,29.450787,,,TRUE,TRUE,,,,,,,SCT,12000,,,,,,,VFR,,,,,,,,,,,,METAR,911.0
KBWP 230035Z AUTO 14007KT 9SM CLR 14/M00 A2941 RMK AO2,KBWP,2022-10-23T00:35:00Z,46.25,-96.62,14.0,0.0,140,7,,9.0,29.409449,,,TRUE,TRUE,,,,,,,CLR,,,,,,,,VFR,,,,,,,,,,,,METAR,294.0
KBVU 230035Z AUTO 21032G38KT 3SM HZ FEW120 26/M02 A2938 RMK AO2,KBVU,2022-10-23T00:35:00Z,35.95,-114.87,26.0,-2.0,210,32,38,3.0,29.379921,,,TRUE,TRUE,,,,,,HZ,FEW,12000,,,,,,,MVFR,,,,,,,,,,,,METAR,654.0
KBVS 230035Z AUTO 00000KT 10SM BKN060 10/06 A2980 RMK A01,KBVS,2022-10-23T00:35:00Z,48.47,-122.42,10.0,6.0,0,0,,10.0,29.799213,,,TRUE,TRUE,,,,,,,BKN,6000,,,,,,,VFR,,,,,,,,,,,,SPECI,31.0
KBVN 230035Z AUTO 14009KT 10SM CLR 18/02 A2948 RMK AO2 T01830021,KBVN,2022-10-23T00:35:00Z,41.73,-98.05,18.3,2.1,140,9,,10.0,29.480314,,,TRUE,TRUE,,,,,,,CLR,,,,,,,,VFR,,,,,,,,,,,,METAR,547.0
KBVI 230035Z AUTO 14004KT 10SM CLR 18/05 A3016 RMK AO2 T01760050,KBVI,2022-10-23T00:35:00Z,40.77,-80.37,17.6,5.0,140,4,,10.0,30.159449,,,TRUE,TRUE,,,,,,,CLR,,,,,,,,VFR,,,,,,,,,,,,METAR,387.0
KBUU 230035Z AUTO 16006KT 10SM CLR 21/11 A2980 RMK AO2 T02080111 PWINO,KBUU,2022-10-23T00:35:00Z,42.68,-88.3,20.8,11.1,160,6,,10.0,29.799213,,,TRUE,TRUE,,,,,TRUE,,CLR,,,,,,,,VFR,,,,,,,,,,,,SPECI,238.0
KBTN 230035Z AUTO 17006KT 9SM CLR 10/M00 A2945 RMK AO2,KBTN,2022-10-23T00:35:00Z,45.82,-97.75,10.0,0.0,170,6,,9.0,29.450787,,,TRUE,TRUE,,,,,,,CLR,,,,,,,,VFR,,,,,,,,,,,,METAR,400.0
KBTA 230035Z AUTO 15008KT 10SM CLR 22/09 A2953 RMK AO2 T02210086,KBTA,2022-10-23T00:35:00Z,41.42,-96.12,22.1,8.6,150,8,,10.0,29.530512,,,TRUE,TRUE,,,,,,,CLR,,,,,,,,VFR,,,,,,,,,,,,METAR,400.0
KBRY 230035Z AUTO 16003KT 10SM SCT210 BKN230 19/10 A3004 RMK AO2 T01950102,KBRY,2022-10-23T00:35:00Z,37.82,-85.5,19.5,10.2,160,3,,10.0,30.041338,,,TRUE,TRUE,,,,,,,SCT,21000,BKN,23000,,,,,VFR,,,,,,,,,,,,METAR,192.0
KBRG 230035Z AUTO 21011G16KT 10SM CLR 21/03 A2977 RMK AO2 T02080027,KBRG,2022-10-23T00:35:00Z,34.65,-106.83,20.8,2.7,210,11,16,10.0,29.769686,,,TRUE,TRUE,,,,,,,CLR,,,,,,,,VFR,,,,,,,,,,,,SPECI,1585.0
KBQX 230035Z AUTO 17018KT 10SM CLR 26/18 A2993 RMK A01,KBQX,2022-10-23T00:35:00Z,28.5,-95.72,26.0,18.0,170,18,,10.0,29.929134,,,TRUE,TRUE,,,,,,,CLR,,,,,,,,VFR,,,,,,,,,,,,METAR,34.0
KBQP 230035Z AUTO 15004KT 10SM CLR 24/13 A2994 RMK AO2 T02380125,KBQP,2022-10-23T00:35:00Z,32.75,-91.88,23.8,12.5,150,4,,10.0,29.940945,,,TRUE,TRUE,,,,,,,CLR,,,,,,,,VFR,,,,,,,,,,,,METAR,50.0
KBQK 230035Z AUTO 00000KT 10SM CLR 11/10 A3012 RMK AO2 T01140104,KBQK,2022-10-23T00:35:00Z,31.25,-81.47,11.4,10.4,0,0,,10.0,30.121063,,,TRUE,TRUE,,,,,,,CLR,,,,,,,,VFR,,,,,,,,,,,,METAR,7.0
KBPG 230035Z AUTO 21011KT 10SM CLR 27/10 A2976 RMK AO2 T02660104,KBPG,2022-10-23T00:35:00Z,32.22,-101.52,26.6,10.4,210,11,,10.0,29.760826,,,TRUE,TRUE,,,,,,,CLR,,,,,,,,VFR,,,,,,,,,,,,METAR,782.0
KBPC 230035Z AUTO 21011KT 10SM CLR 24/06 A2957 RMK AO2,KBPC,2022-10-23T00:35:00Z,35.88,-101.03,24.0,6.0,210,11,,10.0,29.568897,,,TRUE,TRUE,,,,,,,CLR,,,,,,,,VFR,,,,,,,,,,,,METAR,844.0
KBOW 230035Z AUTO 05009KT 10SM CLR 22/17 A3006 RMK AO2,KBOW,2022-10-23T00:35:00Z,27.93,-81.77,22.0,17.0,50,9,,10.0,30.059055,,,TRUE,TRUE,,,,,,,CLR,,,,,,,,VFR,,,,,,,,,,,,METAR,38.0
KBNW 230035Z AUTO 00000KT 9SM CLR 19/08 A2959 RMK AO2,KBNW,2022-10-23T00:35:00Z,42.03,-93.83,19.0,8.0,0,0,,9.0,29.589567,,,TRUE,TRUE,,,,,,,CLR,,,,,,,,VFR,,,,,,,,,,,,METAR,350.0
KBMT 230035Z AUTO 15006KT 10SM CLR 23/17 A2995 RMK AO2 T02250167,KBMT,2022-10-23T00:35:00Z,30.07,-94.22,22.5,16.7,150,6,,10.0,29.949802,,,TRUE,TRUE,,,,,,,CLR,,,,,,,,VFR,,,,,,,,,,,,METAR,8.0
KBKT 230035Z AUTO 09004KT 10SM CLR 12/08 A3022 RMK AO1 T01150076,KBKT,2022-10-23T00:35:00Z,37.07,-77.95,11.5,7.6,90,4,,10.0,30.221457,,,TRUE,TRUE,,,,,,,CLR,,,,,,,,VFR,,,,,,,,,,,,SPECI,134.0
KBKS 230035Z AUTO 13011KT 9SM CLR 25/20 A2985 RMK AO2 SLP069 T02550200 $,KBKS,2022-10-23T00:35:00Z,27.2,-98.12,25.5,20.0,130,11,,9.0,29.84941,1006.9,,TRUE,TRUE,TRUE,,,,,,CLR,,,,,,,,VFR,,,,,,,,,,,,METAR,34.0
KBKD 230035Z AUTO 17014G19KT 10SM CLR 29/12 A2970 RMK AO2 T02900120,KBKD,2022-10-23T00:35:00Z,32.72,-98.88,29.0,12.0,170,14,19,10.0,29.698818,,,TRUE,TRUE,,,,,,,CLR,,,,,,,,VFR,,,,,,,,,,,,METAR,383.0
KBJI 230035Z AUTO 00000KT 10SM CLR 11/04 A2955 RMK AO2 T01100035,KBJI,2022-10-23T00:35:00Z,47.5,-94.92,11.0,3.5,0,0,,10.0,29.551182,,,TRUE,TRUE,,,,,,,CLR,,,,,,,,VFR,,,,,,,,,,,,METAR,422.0
KBIL 230035Z 06009KT 10SM -RA SCT009 OVC029 08/06 A2940 RMK AO2 RAB34 P0000 T00830061,KBIL,2022-10-23T00:35:00Z,45.8,-108.55,8.3,6.1,60,9,,10.0,29.40059,,,,TRUE,,,,,,-RA,SCT,900,OVC,2900,,,,,MVFR,,,,,,0.005,,,,,,SPECI,1089.0
KBIJ 230035Z AUTO 00000KT 10SM CLR 11/07 A3011 RMK AO2,KBIJ,2022-10-23T00:35:00Z,31.4,-84.9,11.0,7.0,0,0,,10.0,30.109253,,,TRUE,TRUE,,,,,,,CLR,,,,,,,,VFR,,,,,,,,,,,,METAR,63.0
KBIE 230035Z AUTO 13007KT 10SM CLR 22/09 A2951 RMK AO2 T02170085,KBIE,2022-10-23T00:35:00Z,40.28,-96.75,21.7,8.5,130,7,,10.0,29.509842,,,TRUE,TRUE,,,,,,,CLR,,,,,,,,VFR,,,,,,,,,,,,METAR,398.0
KBHC 230035Z AUTO 00000KT 10SM CLR A3012 RMK AO2,KBHC,2022-10-23T00:35:00Z,31.72,-82.4,,,0,0,,10.0,30.121063,,,TRUE,TRUE,,,,,,,CLR,,,,,,,,VFR,,,,,,,,,,,,METAR,61.0
KBGF 230035Z AUTO 16004KT 10SM FEW050 18/11 A3009 RMK A01,KBGF,2022-10-23T00:35:00Z,35.18,-86.07,18.0,11.0,160,4,,10.0,30.088583,,,TRUE,TRUE,,,,,,,FEW,5000,,,,,,,VFR,,,,,,,,,,,,SPECI,295.0
KBGE 230035Z AUTO 00000KT 10SM CLR 16/04 A3011 RMK AO2 T01600038,KBGE,2022-10-23T00:35:00Z,30.97,-84.63,16.0,3.8,0,0,,10.0,30.109253,,,TRUE,TRUE,,,,,,,CLR,,,,,,,,VFR,,,,,,,,,,,,METAR,40.0
KBEC 230035Z AUTO 15009KT 10SM CLR 25/04 A2951 RMK AO2 T02480042,KBEC,2022-10-23T00:35:00Z,37.7,-97.22,24.8,4.2,150,9,,10.0,29.509842,,,TRUE,TRUE,,,,,,,CLR,,,,,,,,VFR,,,,,,,,,,,,METAR,421.0
KBEA 230035Z AUTO 14007KT 10SM CLR 23/16 A2988 RMK AO2 T02330163 PWINO,KBEA,2022-10-23T00:35:00Z,28.37,-97.78,23.3,16.3,140,7,,10.0,29.878937,,,TRUE,TRUE,,,,,TRUE,,CLR,,,,,,,,VFR,,,,,,,,,,,,METAR,83.0
KBDU 230035Z AUTO 28003KT 10SM CLR 17/M05 A2945 RMK AO2,KBDU,2022-10-23T00:35:00Z,40.03,-105.23,17.0,-5.0,280,3,,10.0,29.450787,,,TRUE,TRUE,,,,,,,CLR,,,,,,,,VFR,,,,,,,,,,,,METAR,1614.0
KBDN 230035Z AUTO 32014KT 10SM FEW065 07/M04 A2978 RMK AO2,KBDN,2022-10-23T00:35:00Z,44.1,-121.2,7.0,-4.0,320,14,,10.0,29.778543,,,TRUE,TRUE,,,,,,,FEW,6500,,,,,,,VFR,,,,,,,,,,,,METAR,1044.0
KBDH 230035Z AUTO 13011KT 10SM CLR 18/04 A2950 RMK AO2,KBDH,2022-10-23T00:35:00Z,45.12,-95.13,18.0,4.0,130,11,,10.0,29.500984,,,TRUE,TRUE,,,,,,,CLR,,,,,,,,VFR,,,,,,,,,,,,METAR,341.0
KBDG 230035Z AUTO 20018G31KT 10SM 18/00 A2967 RMK AO1 T01791003,KBDG,2022-10-23T00:35:00Z,37.58,-109.47,17.9,-0.3,200,18,31,10.0,29.66929,,,TRUE,TRUE,,,,,,,,,,,,,,,,,,,,,,,,,,,SPECI,1778.0
KBCK 230035Z AUTO 13003KT 10SM CLR 13/07 A2966 RMK AO2 T01310071,KBCK,2022-10-23T00:35:00Z,44.25,-90.85,13.1,7.1,130,3,,10.0,29.660433,,,TRUE,TRUE,,,,,,,CLR,,,,,,,,VFR,,,,,,,,,,,,METAR,256.0
KBCB 230035Z AUTO 00000KT 10SM CLR 09/04 A3025 RMK AO2 T00870037,KBCB,2022-10-23T00:35:00Z,37.22,-80.42,8.7,3.7,0,0,,10.0,30.250984,,,TRUE,TRUE,,,,,,,CLR,,,,,,,,VFR,,,,,,,,,,,,METAR,642.0
KBBP 230035Z AUTO 00000KT 10SM CLR 12/09 A3015 RMK AO2,KBBP,2022-10-23T00:35:00Z,34.62,-79.73,12.0,9.0,0,0,,10.0,30.15059,,,TRUE,TRUE,,,,,,,CLR,,,,,,,,VFR,,,,,,,,,,,,METAR,44.0
KBBD 230035Z AUTO 17008KT 10SM CLR 25/10 A2981 RMK AO2,KBBD,2022-10-23T00:35:00Z,31.18,-99.32,25.0,10.0,170,8,,10.0,29.811024,,,TRUE,TRUE,,,,,,,CLR,,,,,,,,VFR,,,,,,,,,,,,SPECI,554.0
KBAX 230035Z AUTO 17009KT 10SM CLR 15/09 A2998 RMK AO2 T01520085,KBAX,2022-10-23T00:35:00Z,43.78,-82.98,15.2,8.5,170,9,,10.0,29.97933,,,TRUE,TRUE,,,,,,,CLR,,,,,,,,VFR,,,,,,,,,,,,METAR,229.0
KBAM 230035Z AUTO 33009KT 10SM BKN050 OVC060 05/01 A2969 RMK AO1,KBAM,2022-10-23T00:35:00Z,40.6,-116.87,5.0,1.0,330,9,,10.0,29.68996,,,TRUE,TRUE,,,,,,,BKN,5000,OVC,6000,,,,,VFR,,,,,,,,,,,,METAR,1381.0
KBAC 230035Z AUTO 04009KT 10SM CLR 11/03 A2948 RMK AO2,KBAC,2022-10-23T00:35:00Z,46.93,-98.02,11.0,3.0,40,9,,10.0,29.480314,,,TRUE,TRUE,,,,,,,CLR,,,,,,,,VFR,,,,,,,,,,,,METAR,423.0
KAZE 230035Z AUTO 00000KT 10SM CLR 13/09 A3011 RMK AO2 T01310087,KAZE,2022-10-23T00:35:00Z,31.88,-82.65,13.1,8.7,0,0,,10.0,30.109253,,,TRUE,TRUE,,,,,,,CLR,,,,,,,,VFR,,,,,,,,,,,,METAR,78.0
KAZC 230035Z AUTO 21018G29KT 10SM SCT080 SCT110 20/01 A2957 RMK AO2,KAZC,2022-10-23T00:35:00Z,36.97,-113.02,20.0,1.0,210,18,29,10.0,29.568897,,,TRUE,TRUE,,,,,,,SCT,8000,SCT,11000,,,,,VFR,,,,,,,,,,,,METAR,1476.0
KAYS 230035Z AUTO 00000KT 10SM CLR 13/12 A3011 RMK AO2 T01260116,KAYS,2022-10-23T00:35:00Z,31.25,-82.4,12.6,11.6,0,0,,10.0,30.109253,,,TRUE,TRUE,,,,,,,CLR,,,,,,,,VFR,,,,,,,,,,,,METAR,42.0
KAXX 230035Z AUTO 23011G19KT 10SM SCT065 SCT090 12/00 A2986 RMK AO2 T01200004,KAXX,2022-10-23T00:35:00Z,36.42,-105.28,12.0,0.4,230,11,19,10.0,29.861221,,,TRUE,TRUE,,,,,,,SCT,6500,SCT,9000,,,,,VFR,,,,,,,,,,,,METAR,2543.0
KAXV 230035Z AUTO 17007KT 10SM CLR 18/09 A3003 RMK AO2,KAXV,2022-10-23T00:35:00Z,40.5,-84.3,18.0,9.0,170,7,,10.0,30.029528,,,TRUE,TRUE,,,,,,,CLR,,,,,,,,VFR,,,,,,,,,,,,METAR,278.0
KAXS 230035Z AUTO 19010KT 10SM CLR 28/08 A2961 RMK AO2 T02810082,KAXS,2022-10-23T00:35:00Z,34.7,-99.33,28.1,8.2,190,10,,10.0,29.610237,,,TRUE,TRUE,,,,,,,CLR,,,,,,,,VFR,,,,,,,,,,,,METAR,433.0
KAXH 230035Z AUTO 17004KT 10SM SCT040 SCT050 24/16 A2993 RMK AO2 T02390160,KAXH,2022-10-23T00:35:00Z,29.52,-95.48,23.9,16.0,170,4,,10.0,29.929134,,,TRUE,TRUE,,,,,,,SCT,4000,SCT,5000,,,,,VFR,,,,,,,,,,,,METAR,18.0
KAXA 230035Z AUTO 16010KT 10SM CLR 21/09 A2955 RMK A01,KAXA,2022-10-23T00:35:00Z,43.07,-94.27,21.0,9.0,160,10,,10.0,29.551182,,,TRUE,TRUE,,,,,,,CLR,,,,,,,,VFR,,,,,,,,,,,,SPECI,371.0
KAWG 230035Z AUTO 16017G22KT 10SM CLR 23/09 A2966 RMK AO2,KAWG,2022-10-23T00:35:00Z,41.27,-91.67,23.0,9.0,160,17,22,10.0,29.660433,,,TRUE,TRUE,,,,,,,CLR,,,,,,,,VFR,,,,,,,,,,,,SPECI,229.0
KAVQ 230035Z AUTO 22012G20KT 10SM SCT080 SCT090 30/08 A2965 RMK AO2 T02990079,KAVQ,2022-10-23T00:35:00Z,32.4,-111.22,29.9,7.9,220,12,20,10.0,29.648623,,,TRUE,TRUE,,,,,,,SCT,8000,SCT,9000,,,,,VFR,,,,,,,,,,,,METAR,618.0
KAVK 230035Z AUTO 20009KT 10SM CLR 24/M02 A2949 RMK AO2 PWINO,KAVK,2022-10-23T00:35:00Z,36.77,-98.67,24.0,-2.0,200,9,,10.0,29.489174,,,TRUE,TRUE,,,,,TRUE,,CLR,,,,,,,,VFR,,,,,,,,,,,,METAR,450.0
KAVC 230035Z AUTO 00000KT 10SM CLR 14/10 A3026 RMK AO2 T01410095,KAVC,2022-10-23T00:35:00Z,36.68,-78.05,14.1,9.5,0,0,,10.0,30.259842,,,TRUE,TRUE,,,,,,,CLR,,,,,,,,VFR,,,,,,,,,,,,METAR,119.0
KAUN 230035Z AUTO 30011KT 10SM CLR 18/M06 A2972 RMK A01,KAUN,2022-10-23T00:35:00Z,38.95,-121.08,18.0,-6.0,300,11,,10.0,29.719488,,,TRUE,TRUE,,,,,,,CLR,,,,,,,,VFR,,,,,,,,,,,,SPECI,453.0
KAUH 230035Z AUTO 14008KT 10SM CLR 18/05 A2948 RMK AO2 T01770048,KAUH,2022-10-23T00:35:00Z,40.88,-98.0,17.7,4.8,140,8,,10.0,29.480314,,,TRUE,TRUE,,,,,,,CLR,,,,,,,,VFR,,,,,,,,,,,,SPECI,549.0
KATS 230035Z AUTO 22011KT 10SM CLR 24/12 A2978 RMK AO2,KATS,2022-10-23T00:35:00Z,32.85,-104.47,24.0,12.0,220,11,,10.0,29.778543,,,TRUE,TRUE,,,,,,,CLR,,,,,,,,VFR,,,,,,,,,,,,METAR,1073.0
KATP 230035Z AUTO 11011KT 10SM FEW041 24/16 A3004 RMK A01,KATP,2022-10-23T00:35:00Z,27.2,-90.03,24.0,16.0,110,11,,10.0,30.041338,,,TRUE,TRUE,,,,,,,FEW,4100,,,,,,,VFR,,,,,,,,,,,,METAR,50.0
KATA 230035Z AUTO 16005KT 10SM CLR 25/14 A2981 RMK AO2 SLP995 T02450140 $,KATA,2022-10-23T00:35:00Z,33.1,-94.2,24.5,14.0,160,5,,10.0,29.811024,999.5,,TRUE,TRUE,TRUE,,,,,,CLR,,,,,,,,VFR,,,,,,,,,,,,METAR,85.0
KASW 230035Z AUTO 17005KT 10SM CLR 19/10 A2996 RMK AO2 T01920106,KASW,2022-10-23T00:35:00Z,41.27,-85.83,19.2,10.6,170,5,,10.0,29.958662,,,TRUE,TRUE,,,,,,,CLR,,,,,,,,VFR,,,,,,,,,,,,METAR,253.0
KASN 230035Z AUTO 00000KT 10SM CLR 16/11 A3012 RMK AO2 T01570109,KASN,2022-10-23T00:35:00Z,33.57,-86.05,15.7,10.9,0,0,,10.0,30.121063,,,TRUE,TRUE,,,,,,,CLR,,,,,,,,VFR,,,,,,,,,,,,METAR,159.0
KASL 230035Z AUTO 00000KT 10SM CLR 25/14 A2983 RMK AO2 T02460141 TSNO $,KASL,2022-10-23T00:35:00Z,32.52,-94.3,24.6,14.1,0,0,,10.0,29.828741,,,TRUE,TRUE,TRUE,,TRUE,,,,CLR,,,,,,,,VFR,,,,,,,,,,,,METAR,104.0
KASJ 230035Z AUTO 02004KT 10SM CLR 14/10 A3019 RMK AO2 T01440100,KASJ,2022-10-23T00:35:00Z,36.28,-77.17,14.4,10.0,20,4,,10.0,30.188976,,,TRUE,TRUE,,,,,,,CLR,,,,,,,,VFR,,,,,,,,,,,,METAR,20.0
KARW 230035Z AUTO 36004KT 10SM SCT042 18/12 A3012 RMK AO2,KARW,2022-10-23T00:35:00Z,32.42,-80.63,18.0,12.0,360,4,,10.0,30.121063,,,TRUE,TRUE,,,,,,,SCT,4200,,,,,,,VFR,,,,,,,,,,,,METAR,2.0
KARV 230035Z AUTO 15006KT 10SM CLR 16/06 A2969 RMK AO2 T01590062,KARV,2022-10-23T00:35:00Z,45.92,-89.72,15.9,6.2,150,6,,10.0,29.68996,,,TRUE,TRUE,,,,,,,CLR,,,,,,,,VFR,,,,,,,,,,,,METAR,494.0
KARM 230035Z AUTO 16010G14KT 10SM CLR 24/16 A2993 RMK AO2 T02350158 TSNO,KARM,2022-10-23T00:35:00Z,29.25,-96.15,23.5,15.8,160,10,14,10.0,29.929134,,,TRUE,TRUE,,,TRUE,,,,CLR,,,,,,,,VFR,,,,,,,,,,,,METAR,29.0
KAQX 230035Z AUTO 00000KT 10SM CLR 13/06 A3013 RMK AO2,KAQX,2022-10-23T00:35:00Z,32.98,-81.27,13.0,6.0,0,0,,10.0,30.129921,,,TRUE,TRUE,,,,,,,CLR,,,,,,,,VFR,,,,,,,,,,,,METAR,48.0
KAQO 230035Z AUTO 16004KT 10SM CLR 26/11 A2982 RMK AO2,KAQO,2022-10-23T00:35:00Z,30.78,-98.67,26.0,11.0,160,4,,10.0,29.819881,,,TRUE,TRUE,,,,,,,CLR,,,,,,,,VFR,,,,,,,,,,,,SPECI,334.0
KANW 230035Z AUTO 09009KT 10SM CLR 19/M05 A2941 RMK AO2 T01941049,KANW,2022-10-23T00:35:00Z,42.57,-100.0,19.4,-4.9,90,9,,10.0,29.409449,,,TRUE,TRUE,,,,,,,CLR,,,,,,,,VFR,,,,,,,,,,,,METAR,788.0
KANQ 230035Z AUTO 16004KT 10SM SCT050 SCT055 17/09 A2998 RMK AO2,KANQ,2022-10-23T00:35:00Z,41.63,-85.08,17.0,9.0,160,4,,10.0,29.97933,,,TRUE,TRUE,,,,,,,SCT,5000,SCT,5500,,,,,VFR,,,,,,,,,,,,METAR,299.0
KAMN 230035Z AUTO 15005KT 10SM CLR 16/08 A2994 RMK AO2 T01610075,KAMN,2022-10-23T00:35:00Z,43.32,-84.68,16.1,7.5,150,5,,10.0,29.940945,,,TRUE,TRUE,,,,,,,CLR,,,,,,,,VFR,,,,,,,,,,,,METAR,228.0
KALX 230035Z AUTO 00000KT 10SM CLR 14/13 A3011 RMK AO2 T01380128,KALX,2022-10-23T00:35:00Z,32.92,-85.97,13.8,12.8,0,0,,10.0,30.109253,,,TRUE,TRUE,,,,,,,CLR,,,,,,,,VFR,,,,,,,,,,,,METAR,198.0
KALM 230035Z AUTO 16008KT 10SM BKN100 21/11 A2981 RMK AO2,KALM,2022-10-23T00:35:00Z,32.83,-105.98,21.0,11.0,160,8,,10.0,29.811024,,,TRUE,TRUE,,,,,,,BKN,10000,,,,,,,VFR,,,,,,,,,,,,METAR,1267.0
KAJZ 230035Z AUTO 21008G14KT 10SM BKN110 20/M01 A2955 RMK AO2 T02031015 PWINO,KAJZ,2022-10-23T00:35:00Z,38.78,-108.07,20.3,-1.5,210,8,14,10.0,29.551182,,,TRUE,TRUE,,,,,TRUE,,BKN,11000,,,,,,,VFR,,,,,,,,,,,,SPECI,1583.0
KAJR 230035Z AUTO 08005KT 7SM CLR 13/05 A3015 RMK AO2 T01250048,KAJR,2022-10-23T00:35:00Z,34.5,-83.55,12.5,4.8,80,5,,7.0,30.15059,,,TRUE,TRUE,,,,,,,CLR,,,,,,,,VFR,,,,,,,,,,,,METAR,441.0
KAJG 230035Z AUTO 18015G21KT 10SM CLR 22/10 A2996 RMK AO2 T02220099,KAJG,2022-10-23T00:35:00Z,38.62,-87.73,22.2,9.9,180,15,21,10.0,29.958662,,,TRUE,TRUE,,,,,,,CLR,,,,,,,,VFR,,,,,,,,,,,,METAR,130.0
KAIT 230035Z AUTO 08007KT 10SM CLR 12/06 A2955 RMK AO2,KAIT,2022-10-23T00:35:00Z,46.53,-93.67,12.0,6.0,80,7,,10.0,29.551182,,,TRUE,TRUE,,,,,,,CLR,,,,,,,,VFR,,,,,,,,,,,,METAR,367.0
KAIO 230035Z AUTO 18006KT 10SM CLR 20/10 A2956 RMK AO2,KAIO,2022-10-23T00:35:00Z,41.4,-95.03,20.0,10.0,180,6,,10.0,29.56004,,,TRUE,TRUE,,,,,,,CLR,,,,,,,,VFR,,,,,,,,,,,,METAR,349.0
KAIK 230035Z AUTO 00000KT 10SM CLR 10/03 A3015 RMK AO2 T01010027,KAIK,2022-10-23T00:35:00Z,33.65,-81.68,10.1,2.7,0,0,,10.0,30.15059,,,TRUE,TRUE,,,,,,,CLR,,,,,,,,VFR,,,,,,,,,,,,METAR,155.0
KAIG 230035Z AUTO 14011KT 10SM CLR 16/08 A2974 RMK AO2 T01570082,KAIG,2022-10-23T00:35:00Z,45.15,-89.12,15.7,8.2,140,11,,10.0,29.740158,,,TRUE,TRUE,,,,,,,CLR,,,,,,,,VFR,,,,,,,,,,,,METAR,462.0
KAHQ 230035Z AUTO 14009KT 10SM CLR 17/07 A2951 RMK AO2 T01700068,KAHQ,2022-10-23T00:35:00Z,41.23,-96.6,17.0,6.8,140,9,,10.0,29.509842,,,TRUE,TRUE,,,,,,,CLR,,,,,,,,VFR,,,,,,,,,,,,METAR,372.0
KAGO 230035Z AUTO 16005KT 10SM FEW048 SCT055 24/13 A2985 RMK A01,KAGO,2022-10-23T00:35:00Z,33.23,-93.22,24.0,13.0,160,5,,10.0,29.84941,,,TRUE,TRUE,,,,,,,FEW,4800,SCT,5500,,,,,VFR,,,,,,,,,,,,METAR,91.0
KAGI 230035Z AUTO 15014KT 10SM CLR 25/14 A2999 RMK AO2 T02460136,KAGI,2022-10-23T00:35:00Z,27.55,-92.45,24.6,13.6,150,14,,10.0,29.991142,,,TRUE,TRUE,,,,,,,CLR,,,,,,,,VFR,,,,,,,,,,,,METAR,41.0
KAFP 230035Z AUTO 00000KT 10SM CLR 11/08 A3016 RMK AO2 T01120077,KAFP,2022-10-23T00:35:00Z,35.02,-80.08,11.2,7.7,0,0,,10.0,30.159449,,,TRUE,TRUE,,,,,,,CLR,,,,,,,,VFR,,,,,,,,,,,,METAR,91.0
KAFO 230035Z AUTO 00000KT 2 1/2SM -SN BKN004 OVC016 00/M03 A2958 RMK AO2,KAFO,2022-10-23T00:35:00Z,42.72,-110.95,0.0,-3.0,0,0,,2.5,29.58071,,,TRUE,TRUE,,,,,,-SN,BKN,400,OVC,1600,,,,,LIFR,,,,,,,,,,,,METAR,1881.0
KAFK 230035Z AUTO 16006KT 10SM CLR 20/09 A2955 RMK AO2 T02030091,KAFK,2022-10-23T00:35:00Z,40.6,-95.85,20.3,9.1,160,6,,10.0,29.551182,,,TRUE,TRUE,,,,,,,CLR,,,,,,,,VFR,,,,,,,,,,,,METAR,353.0
KAEL 230035Z AUTO 17007KT 10SM CLR 21/08 A2958 RMK AO2,KAEL,2022-10-23T00:35:00Z,43.68,-93.37,21.0,8.0,170,7,,10.0,29.58071,,,TRUE,TRUE,,,,,,,CLR,,,,,,,,VFR,,,,,,,,,,,,METAR,382.0
KAEJ 230035Z AUTO 00000KT 10SM 15/M12 A2965 RMK AO2 T01481121,KAEJ,2022-10-23T00:35:00Z,38.82,-106.12,14.8,-12.1,0,0,,10.0,29.648623,,,TRUE,TRUE,,,,,,,,,,,,,,,,,,,,,,,,,,,METAR,2420.0
KADU 230035Z AUTO 00000KT 10SM SCT003 SCT032 SCT075 15/08 A2958 RMK AO2 PWINO,KADU,2022-10-23T00:35:00Z,41.7,-94.92,15.0,8.0,0,0,,10.0,29.58071,,,TRUE,TRUE,,,,,TRUE,,SCT,300,SCT,3200,SCT,7500,,,VFR,,,,,,,,,,,,METAR,391.0
KADT 230035Z AUTO 13005KT 10SM CLR 20/M08 A2947 RMK AO2 T01971076,KADT,2022-10-23T00:35:00Z,39.83,-101.05,19.7,-7.6,130,5,,10.0,29.471457,,,TRUE,TRUE,,,,,,,CLR,,,,,,,,VFR,,,,,,,,,,,,METAR,899.0
KADM 230035Z AUTO 16013G19KT 10SM CLR 26/14 A2965 RMK AO2,KADM,2022-10-23T00:35:00Z,34.3,-97.02,26.0,14.0,160,13,19,10.0,29.648623,,,TRUE,TRUE,,,,,,,CLR,,,,,,,,VFR,,,,,,,,,,,,METAR,223.0
KADH 230035Z AUTO 18015G24KT 10SM CLR 25/13 A2967 RMK AO2,KADH,2022-10-23T00:35:00Z,34.8,-96.67,25.0,13.0,180,15,24,10.0,29.66929,,,TRUE,TRUE,,,,,,,CLR,,,,,,,,VFR,,,,,,,,,,,,METAR,301.0
KADC 230035Z AUTO 11007KT 10SM CLR 17/02 A2949 RMK AO2 TSNO,KADC,2022-10-23T00:35:00Z,46.45,-95.22,17.0,2.0,110,7,,10.0,29.489174,,,TRUE,TRUE,,,TRUE,,,,CLR,,,,,,,,VFR,,,,,,,,,,,,METAR,416.0
KACQ 230035Z AUTO 14007KT 10SM CLR 19/06 A2957 RMK AO2,KACQ,2022-10-23T00:35:00Z,44.07,-93.55,19.0,6.0,140,7,,10.0,29.568897,,,TRUE,TRUE,,,,,,,CLR,,,,,,,,VFR,,,,,,,,,,,,METAR,339.0
KACP 230035Z AUTO 17004KT 10SM CLR 23/13 A2998 RMK AO2,KACP,2022-10-23T00:35:00Z,30.75,-92.68,23.0,13.0,170,4,,10.0,29.97933,,,TRUE,TRUE,,,,,,,CLR,,,,,,,,VFR,,,,,,,,,,,,METAR,31.0
KACJ 230035Z AUTO 00000KT 10SM CLR 12/06 A3011 RMK AO2 T01160059,KACJ,2022-10-23T00:35:00Z,32.12,-84.18,11.6,5.9,0,0,,10.0,30.109253,,,TRUE,TRUE,,,,,,,CLR,,,,,,,,VFR,,,,,,,,,,,,METAR,140.0
KACB 230035Z AUTO 00000KT 10SM CLR 13/10 A2986 RMK AO2 T01310104,KACB,2022-10-23T00:35:00Z,44.98,-85.2,13.1,10.4,0,0,,10.0,29.861221,,,TRUE,TRUE,,,,,,,CLR,,,,,,,,VFR,,,,,,,,,,,,METAR,189.0
KAAS 230035Z AUTO 16004KT 10SM CLR 17/10 A3012 RMK AO1,KAAS,2022-10-23T00:35:00Z,37.35,-85.32,17.0,10.0,160,4,,10.0,30.121063,,,TRUE,TRUE,,,,,,,CLR,,,,,,,,VFR,,,,,,,,,,,,METAR,270.0
KAAA 230035Z AUTO 17011KT 10SM CLR 21/13 A2983 RMK AO2 T02070130,KAAA,2022-10-23T00:35:00Z,40.17,-89.33,20.7,13.0,170,11,,10.0,29.828741,,,TRUE,TRUE,,,,,,,CLR,,,,,,,,VFR,,,,,,,,,,,,METAR,179.0
K9V9 230035Z AUTO 07006KT 10SM CLR 16/02 A2943 RMK AO2 T01550020,K9V9,2022-10-23T00:35:00Z,43.77,-99.32,15.5,2.0,70,6,,10.0,29.430119,,,TRUE,TRUE,,,,,,,CLR,,,,,,,,VFR,,,,,,,,,,,,METAR,511.0
K9MN 230035Z AUTO 13007KT 10SM CLR 22/07 A2960 RMK AO1 T02230065,K9MN,2022-10-23T00:35:00Z,44.02,-92.48,22.3,6.5,130,7,,10.0,29.601377,,,TRUE,TRUE,,,,,,,CLR,,,,,,,,VFR,,,,,,,,,,,,METAR,308.0
K9D7 230035Z AUTO 04017KT 10SM SCT120 07/06 A2959 RMK AO2 TSNO,K9D7,2022-10-23T00:35:00Z,48.48,-99.23,7.0,6.0,40,17,,10.0,29.589567,,,TRUE,TRUE,,,TRUE,,,,SCT,12000,,,,,,,VFR,,,,,,,,,,,,METAR,451.0
K9A5 230035Z AUTO 00000KT 10SM CLR 13/11 A3014 RMK AO2 T01270112,K9A5,2022-10-23T00:35:00Z,34.68,-85.28,12.7,11.2,0,0,,10.0,30.138779,,,TRUE,TRUE,,,,,,,CLR,,,,,,,,VFR,,,,,,,,,,,,METAR,234.0
K96D 230035Z AUTO 02010KT 10SM OVC008 08/08 A2961 RMK AO2,K96D,2022-10-23T00:35:00Z,48.93,-97.9,8.0,8.0,20,10,,10.0,29.610237,,,TRUE,TRUE,,,,,,,OVC,800,,,,,,,IFR,,,,,,,,,,,,METAR,290.0
K8W2 230035Z AUTO 00000KT 10SM CLR 07/03 A3022 RMK AO1 T00740026,K8W2,2022-10-23T00:35:00Z,38.65,-78.7,7.4,2.6,0,0,,10.0,30.221457,,,TRUE,TRUE,,,,,,,CLR,,,,,,,,VFR,,,,,,,,,,,,METAR,295.0
K8T6 230035Z AUTO 14010KT 10SM CLR 25/19 A2987 RMK AO2,K8T6,2022-10-23T00:35:00Z,28.37,-98.12,25.0,19.0,140,10,,10.0,29.870079,,,TRUE,TRUE,,,,,,,CLR,,,,,,,,VFR,,,,,,,,,,,,METAR,39.0
K8A3 230035Z AUTO 16006KT 10SM CLR 18/08 A3009 RMK A01,K8A3,2022-10-23T00:35:00Z,36.42,-85.32,18.0,8.0,160,6,,10.0,30.088583,,,TRUE,TRUE,,,,,,,CLR,,,,,,,,VFR,,,,,,,,,,,,METAR,413.0
K8A0 230035Z AUTO 15003KT 10SM CLR 17/10 A3011 RMK AO2,K8A0,2022-10-23T00:35:00Z,34.23,-86.25,17.0,10.0,150,3,,10.0,30.109253,,,TRUE,TRUE,,,,,,,CLR,,,,,,,,VFR,,,,,,,,,,,,SPECI,313.0
K82V 230035Z AUTO 15008KT 10SM CLR 14/M09 A2947 RMK AO2,K82V,2022-10-23T00:35:00Z,41.15,-104.13,14.0,-9.0,150,8,,10.0,29.471457,,,TRUE,TRUE,,,,,,,CLR,,,,,,,,VFR,,,,,,,,,,,,METAR,1563.0
K82C 230035Z AUTO 15003KT 10SM CLR 17/09 A2969 RMK AO2 T01720090,K82C,2022-10-23T00:35:00Z,43.83,-90.13,17.2,9.0,150,3,,10.0,29.68996,,,TRUE,TRUE,,,,,,,CLR,,,,,,,,VFR,,,,,,,,,,,,METAR,273.0
K81R 230035Z AUTO 19007KT 10SM CLR 26/12 A2981 RMK AO2 T02630118,K81R,2022-10-23T00:35:00Z,31.23,-98.72,26.3,11.8,190,7,,10.0,29.811024,,,TRUE,TRUE,,,,,,,CLR,,,,,,,,VFR,,,,,,,,,,,,METAR,381.0
K7W4 230035Z AUTO 00000KT 10SM CLR 11/07 A3023 RMK AO1 T01140066,K7W4,2022-10-23T00:35:00Z,37.97,-77.75,11.4,6.6,0,0,,10.0,30.230314,,,TRUE,TRUE,,,,,,,CLR,,,,,,,,VFR,,,,,,,,,,,,METAR,115.0
K7L2 230035Z AUTO 13004KT 10SM CLR 09/02 A2950 RMK AO2,K7L2,2022-10-23T00:35:00Z,46.22,-100.25,9.0,2.0,130,4,,10.0,29.500984,,,TRUE,TRUE,,,,,,,CLR,,,,,,,,VFR,,,,,,,,,,,,METAR,541.0
K7BM 230035Z AUTO 25011G27KT 10SM CLR 10/M11 A2976 RMK AO2,K7BM,2022-10-23T00:35:00Z,38.78,-106.22,10.0,-11.0,250,11,27,10.0,29.760826,,,TRUE,TRUE,,,,,,,CLR,,,,,,,,VFR,,,,,,,,,,,,METAR,2996.0
K74V 230035Z AUTO 01003KT 10SM 10/05 A2954 RMK AO2,K74V,2022-10-23T00:35:00Z,40.28,-110.05,10.0,5.0,10,3,,10.0,29.53937,,,TRUE,TRUE,,,,,,,,,,,,,,,,,,,,,,,,,,,SPECI,1567.0
K6S2 230035Z AUTO 00000KT 10SM FEW041 SCT060 BKN080 11/11 A2991 RMK AO2,K6S2,2022-10-23T00:35:00Z,43.98,-124.12,11.0,11.0,0,0,,10.0,29.911417,,,TRUE,TRUE,,,,,,,FEW,4100,SCT,6000,BKN,8000,,,VFR,,,,,,,,,,,,METAR,16.0
K6S0 230035Z AUTO 29008KT 10SM OVC055 06/04 A2941 RMK A01,K6S0,2022-10-23T00:35:00Z,45.8,-109.97,6.0,4.0,290,8,,10.0,29.409449,,,TRUE,TRUE,,,,,,,OVC,5500,,,,,,,VFR,,,,,,,,,,,,METAR,1364.0
K6P9 230035Z AUTO 18013G19KT 10SM CLR 26/11 A2974 RMK AO2 T02630105,K6P9,2022-10-23T00:35:00Z,32.43,-98.6,26.3,10.5,180,13,19,10.0,29.740158,,,TRUE,TRUE,,,,,,,CLR,,,,,,,,VFR,,,,,,,,,,,,SPECI,451.0
K6L4 230035Z AUTO 00000KT 10SM CLR 18/05 A3015 RMK AO2,K6L4,2022-10-23T00:35:00Z,37.85,-81.92,18.0,5.0,0,0,,10.0,30.15059,,,TRUE,TRUE,,,,,,,CLR,,,,,,,,VFR,,,,,,,,,,,,METAR,504.0
K6I2 230035Z AUTO 14006KT 10SM CLR 19/10 A3008 RMK AO2,K6I2,2022-10-23T00:35:00Z,37.63,-85.25,19.0,10.0,140,6,,10.0,30.079725,,,TRUE,TRUE,,,,,,,CLR,,,,,,,,VFR,,,,,,,,,,,,SPECI,258.0
K6B9 230035Z AUTO VRB03KT 10SM CLR 16/02 A3019 RMK AO2,K6B9,2022-10-23T00:35:00Z,42.92,-76.43,16.0,2.0,0,3,,10.0,30.188976,,,TRUE,TRUE,,,,,,,CLR,,,,,,,,VFR,,,,,,,,,,,,METAR,306.0
K6B0 230035Z AUTO 14003KT 10SM CLR 11/05 A3025 RMK AO2 T01060047,K6B0,2022-10-23T00:35:00Z,43.98,-73.1,10.6,4.7,140,3,,10.0,30.250984,,,TRUE,TRUE,,,,,,,CLR,,,,,,,,VFR,,,,,,,,,,,,METAR,149.0
K6A2 230035Z AUTO 00000KT 10SM CLR 11/04 A3014 RMK AO2,K6A2,2022-10-23T00:35:00Z,33.23,-84.27,11.0,4.0,0,0,,10.0,30.138779,,,TRUE,TRUE,,,,,,,CLR,,,,,,,,VFR,,,,,,,,,,,,METAR,290.0
K66R 230035Z AUTO 17007KT 10SM CLR 24/16 A2991 RMK AO2 T02370161,K66R,2022-10-23T00:35:00Z,29.65,-96.52,23.7,16.1,170,7,,10.0,29.911417,,,TRUE,TRUE,,,,,,,CLR,,,,,,,,VFR,,,,,,,,,,,,SPECI,70.0
K65S 230035Z AUTO 00000KT 3SM -RA BR BKN006 OVC009 04/03 A2963 RMK AO2,K65S,2022-10-23T00:35:00Z,48.73,-116.3,4.0,3.0,0,0,,3.0,29.630905,,,TRUE,TRUE,,,,,,-RA BR,BKN,600,OVC,900,,,,,IFR,,,,,,,,,,,,METAR,708.0
K63S 230035Z AUTO 30006KT 10SM OVC075 09/M03 A2962 RMK A01,K63S,2022-10-23T00:35:00Z,48.53,-117.88,9.0,-3.0,300,6,,10.0,29.619095,,,TRUE,TRUE,,,,,,,OVC,7500,,,,,,,VFR,,,,,,,,,,,,METAR,571.0
K5T9 230035Z AUTO 13005KT 10SM CLR 24/16 A2980 RMK A01,K5T9,2022-10-23T00:35:00Z,28.85,-100.52,24.0,16.0,130,5,,10.0,29.799213,,,TRUE,TRUE,,,,,,,CLR,,,,,,,,VFR,,,,,,,,,,,,METAR,269.0
K5SM 230035Z AUTO 22016G32KT 10SM SCT055 03/M06 A2979 RMK AO2,K5SM,2022-10-23T00:35:00Z,39.43,-107.38,3.0,-6.0,220,16,32,10.0,29.790354,,,TRUE,TRUE,,,,,,,SCT,5500,,,,,,,VFR,,,,,,,,,,,,METAR,3229.0
K5R8 230035Z AUTO 15007KT 10SM CLR 22/16 A2997 RMK AO2 T02150163,K5R8,2022-10-23T00:35:00Z,30.43,-93.47,21.5,16.3,150,7,,10.0,29.970472,,,TRUE,TRUE,,,,,,,CLR,,,,,,,,VFR,,,,,,,,,,,,METAR,26.0
K5M9 230035Z AUTO 16004KT 10SM CLR 18/10 A2999 RMK AO2 T01820103,K5M9,2022-10-23T00:35:00Z,37.33,-88.12,18.2,10.3,160,4,,10.0,29.991142,,,TRUE,TRUE,,,,,,,CLR,,,,,,,,VFR,,,,,,,,,,,,METAR,199.0
K5H4 230035Z AUTO 05012KT 10SM FEW033 FEW046 OVC100 09/M03 A2956 RMK AO2,K5H4,2022-10-23T00:35:00Z,47.78,-99.93,9.0,-3.0,50,12,,10.0,29.56004,,,TRUE,TRUE,,,,,,,FEW,3300,FEW,4600,OVC,10000,,,VFR,,,,,,,,,,,,METAR,490.0
K5C1 230035Z AUTO 18006KT 10SM CLR 24/12 A2988 RMK AO1,K5C1,2022-10-23T00:35:00Z,29.72,-98.7,24.0,12.0,180,6,,10.0,29.878937,,,TRUE,TRUE,,,,,,,CLR,,,,,,,,VFR,,,,,,,,,,,,METAR,422.0
K57C 230035Z AUTO 16009KT 10SM CLR 20/11 A2979 RMK AO2 T02010108,K57C,2022-10-23T00:35:00Z,42.8,-88.37,20.1,10.8,160,9,,10.0,29.790354,,,TRUE,TRUE,,,,,,,CLR,,,,,,,,VFR,,,,,,,,,,,,METAR,454.0
K54J 230035Z AUTO 00000KT 10SM CLR 17/06 A3010 RMK AO2 T01700057,K54J,2022-10-23T00:35:00Z,30.73,-86.15,17.0,5.7,0,0,,10.0,30.100393,,,TRUE,TRUE,,,,,,,CLR,,,,,,,,VFR,,,,,,,,,,,,METAR,87.0
K54A 230035Z AUTO 31004KT 10SM CLR 20/20 A3001 RMK AO2,K54A,2022-10-23T00:35:00Z,26.85,-82.25,20.0,20.0,310,4,,10.0,30.008858,,,TRUE,TRUE,,,,,,,CLR,,,,,,,,VFR,,,,,,,,,,,,METAR,2.0
K4V0 230035Z AUTO 28013G21KT 10SM -DZ SCT050 BKN065 OVC080 13/03 A2952 RMK AO2 T01250033,K4V0,2022-10-23T00:35:00Z,40.1,-108.77,12.5,3.3,280,13,21,10.0,29.518702,,,TRUE,TRUE,,,,,,-DZ,SCT,5000,BKN,6500,OVC,8000,,,VFR,,,,,,,,,,,,METAR,1602.0
K4S2 230035Z AUTO 00000KT 10SM SCT070 09/04 A2979 RMK AO2,K4S2,2022-10-23T00:35:00Z,45.68,-121.55,9.0,4.0,0,0,,10.0,29.790354,,,TRUE,TRUE,,,,,,,SCT,7000,,,,,,,VFR,,,,,,,,,,,,METAR,183.0
K4S1 230035Z AUTO 00000KT 2SM HZ CLR 12/08 A2994 RMK AO2,K4S1,2022-10-23T00:35:00Z,42.42,-124.42,12.0,8.0,0,0,,2.0,29.940945,,,TRUE,TRUE,,,,,,HZ,CLR,,,,,,,,IFR,,,,,,,,,,,,METAR,7.0
K4R5 230035Z AUTO 02004KT 10SM CLR 09/08 A2966 RMK AO2 T00910075,K4R5,2022-10-23T00:35:00Z,46.78,-90.77,9.1,7.5,20,4,,10.0,29.660433,,,TRUE,TRUE,,,,,,,CLR,,,,,,,,VFR,,,,,,,,,,,,METAR,195.0
K4O4 230035Z AUTO 16010KT 10SM CLR 24/12 A2978 RMK AO2,K4O4,2022-10-23T00:35:00Z,33.92,-94.87,24.0,12.0,160,10,,10.0,29.778543,,,TRUE,TRUE,,,,,,,CLR,,,,,,,,VFR,,,,,,,,,,,,METAR,148.0
K4M9 230035Z AUTO 14009KT 5SM HZ CLR 21/14 A2988 RMK AO2 PWINO,K4M9,2022-10-23T00:35:00Z,36.4,-90.65,21.0,14.0,140,9,,5.0,29.878937,,,TRUE,TRUE,,,,,TRUE,HZ,CLR,,,,,,,,MVFR,,,,,,,,,,,,METAR,86.0
K4I3 230035Z AUTO 14006KT 10SM CLR 16/09 A3012 RMK AO2,K4I3,2022-10-23T00:35:00Z,40.33,-82.53,16.0,9.0,140,6,,10.0,30.121063,,,TRUE,TRUE,,,,,,,CLR,,,,,,,,VFR,,,,,,,,,,,,METAR,361.0
K4F2 230035Z AUTO 16012G19KT 10SM CLR 25/16 A2987 RMK AO2 T02450157,K4F2,2022-10-23T00:35:00Z,32.18,-94.3,24.5,15.7,160,12,19,10.0,29.870079,,,TRUE,TRUE,,,,,,,CLR,,,,,,,,VFR,,,,,,,,,,,,METAR,76.0
K4BM 230035Z AUTO 16009G22KT 10SM CLR 06/M15 A2986 RMK AO2,K4BM,2022-10-23T00:35:00Z,39.05,-105.52,6.0,-15.0,160,9,22,10.0,29.861221,,,TRUE,TRUE,,,,,,,CLR,,,,,,,,VFR,,,,,,,,,,,,METAR,3432.0
K4A9 230035Z AUTO 04003KT 10SM CLR 14/12 A3012 RMK AO2 T01450116,K4A9,2022-10-23T00:35:00Z,34.47,-85.72,14.5,11.6,40,3,,10.0,30.121063,,,TRUE,TRUE,,,,,,,CLR,,,,,,,,VFR,,,,,,,,,,,,METAR,273.0
K4A6 230035Z AUTO 00000KT 10SM BKN042 BKN048 OVC055 16/13 A3011 RMK AO2,K4A6,2022-10-23T00:35:00Z,34.68,-86.0,16.0,13.0,0,0,,10.0,30.109253,,,TRUE,TRUE,,,,,,,BKN,4200,BKN,4800,OVC,5500,,,VFR,,,,,,,,,,,,METAR,191.0
K49A 230035Z AUTO 00000KT 10SM CLR 12/07 A3019 RMK AO2 T01230065,K49A,2022-10-23T00:35:00Z,34.63,-84.53,12.3,6.5,0,0,,10.0,30.188976,,,TRUE,TRUE,,,,,,,CLR,,,,,,,,VFR,,,,,,,,,,,,METAR,449.0
K48A 230035Z AUTO 00000KT 10SM CLR 11/06 A3012 RMK AO2 T01090058,K48A,2022-10-23T00:35:00Z,32.4,-83.27,10.9,5.8,0,0,,10.0,30.121063,,,TRUE,TRUE,,,,,,,CLR,,,,,,,,VFR,,,,,,,,,,,,METAR,115.0
K46U 230035Z AUTO 19004KT 3SM BR SCT003 OVC008 01/01 A2958 RMK A01,K46U,2022-10-23T00:35:00Z,43.18,-111.05,1.0,1.0,190,4,,3.0,29.58071,,,TRUE,TRUE,,,,,,BR,SCT,300,OVC,800,,,,,IFR,,,,,,,,,,,,METAR,1718.0
K46D 230035Z AUTO 07008G14KT 10SM CLR 11/04 A2953 RMK AO2,K46D,2022-10-23T00:35:00Z,47.45,-99.15,11.0,4.0,70,8,14,10.0,29.530512,,,TRUE,TRUE,,,,,,,CLR,,,,,,,,VFR,,,,,,,,,,,,METAR,488.0
K42J 230035Z AUTO 06005KT 10SM CLR 16/09 A3010 RMK A01,K42J,2022-10-23T00:35:00Z,29.85,-82.05,16.0,9.0,60,5,,10.0,30.100393,,,TRUE,TRUE,,,,,,,CLR,,,,,,,,VFR,,,,,,,,,,,,METAR,57.0
K41U 230035Z AUTO 06007KT 10SM BKN042 BKN050 OVC060 07/05 A2958 RMK AO1 T00690045,K41U,2022-10-23T00:35:00Z,39.33,-111.6,6.9,4.5,60,7,,10.0,29.58071,,,TRUE,TRUE,,,,,,,BKN,4200,BKN,5000,OVC,6000,,,VFR,,,,,,,,,,,,METAR,1676.0
K40U 230035Z AUTO 22018G39KT 7SM HZ SCT050 11/00 A2949 RMK AO2 T01120001,K40U,2022-10-23T00:35:00Z,40.98,-109.68,11.2,0.1,220,18,39,7.0,29.489174,,,TRUE,TRUE,,,,,,HZ,SCT,5000,,,,,,,VFR,,,,,,,,,,,,METAR,1882.0
K3S8 230035Z AUTO 00000KT 10SM FEW055 FEW070 SCT080 09/06 A2994 RMK AO2,K3S8,2022-10-23T00:35:00Z,42.5,-123.4,9.0,6.0,0,0,,10.0,29.940945,,,TRUE,TRUE,,,,,,,FEW,5500,FEW,7000,SCT,8000,,,VFR,,,,,,,,,,,,METAR,339.0
K3N8 230035Z AUTO 06008KT 10SM CLR 12/04 A2950 RMK AO2 T01150035,K3N8,2022-10-23T00:35:00Z,47.25,-95.92,11.5,3.5,60,8,,10.0,29.500984,,,TRUE,TRUE,,,,,,,CLR,,,,,,,,VFR,,,,,,,,,,,,METAR,379.0
K3LF 230035Z AUTO 16017G25KT 10SM CLR 20/12 A2986 RMK AO2 T01990115,K3LF,2022-10-23T00:35:00Z,39.17,-89.67,19.9,11.5,160,17,25,10.0,29.861221,,,TRUE,TRUE,,,,,,,CLR,,,,,,,,VFR,,,,,,,,,,,,METAR,207.0
K3K3 230035Z AUTO 13007KT 10SM CLR 18/M07 A2946 RMK AO2,K3K3,2022-10-23T00:35:00Z,38.0,-101.75,18.0,-7.0,130,7,,10.0,29.459646,,,TRUE,TRUE,,,,,,,CLR,,,,,,,,VFR,,,,,,,,,,,,METAR,1010.0
K3J7 230035Z AUTO 00000KT 10SM CLR 13/04 A3014 RMK AO2,K3J7,2022-10-23T00:35:00Z,33.6,-83.13,13.0,4.0,0,0,,10.0,30.138779,,,TRUE,TRUE,,,,,,,CLR,,,,,,,,VFR,,,,,,,,,,,,METAR,207.0
K3F3 230035Z AUTO 16012G25KT 10SM SCT046 25/16 A2993 RMK AO2 T02460156,K3F3,2022-10-23T00:35:00Z,32.07,-93.77,24.6,15.6,160,12,25,10.0,29.929134,,,TRUE,TRUE,,,,,,,SCT,4600,,,,,,,VFR,,,,,,,,,,,,METAR,96.0
K3D2 230035Z AUTO 19008G20KT 10SM CLR 15/10 A2978 RMK AO2 T01460096,K3D2,2022-10-23T00:35:00Z,45.13,-87.18,14.6,9.6,190,8,20,10.0,29.778543,,,TRUE,TRUE,,,,,,,CLR,,,,,,,,VFR,,,,,,,,,,,,METAR,233.0
K3AU 230035Z AUTO 15008KT 10SM CLR 25/02 A2952 RMK AO2,K3AU,2022-10-23T00:35:00Z,37.67,-97.08,25.0,2.0,150,8,,10.0,29.518702,,,TRUE,TRUE,,,,,,,CLR,,,,,,,,VFR,,,,,,,,,,,,METAR,403.0
K35A 230035Z AUTO 00000KT 10SM CLR 14/04 A3020 RMK A02 T01360036,K35A,2022-10-23T00:35:00Z,34.68,-81.63,13.6,3.6,0,0,,10.0,30.200787,,,TRUE,TRUE,,,,,,,CLR,,,,,,,,VFR,,,,,,,,,,,,METAR,186.0
K33V 230035Z AUTO 19013G17KT 10SM OVC090 10/M06 A2963 RMK AO1,K33V,2022-10-23T00:35:00Z,40.75,-106.28,10.0,-6.0,190,13,17,10.0,29.630905,,,TRUE,TRUE,,,,,,,OVC,9000,,,,,,,VFR,,,,,,,,,,,,SPECI,2486.0
K33N 230035Z AUTO 11003KT 10SM CLR 11/09 A3026 RMK A01,K33N,2022-10-23T00:35:00Z,39.22,-75.6,11.0,9.0,110,3,,10.0,30.259842,,,TRUE,TRUE,,,,,,,CLR,,,,,,,,VFR,,,,,,,,,,,,METAR,17.0
K2V5 230035Z AUTO 07006KT 10SM CLR 18/M08 A2942 RMK AO2,K2V5,2022-10-23T00:35:00Z,40.1,-102.25,18.0,-8.0,70,6,,10.0,29.421259,,,TRUE,TRUE,,,,,,,CLR,,,,,,,,VFR,,,,,,,,,,,,METAR,1117.0
K2R9 230035Z AUTO 14012G16KT 10SM CLR 25/18 A2989 RMK AO2 T02480177,K2R9,2022-10-23T00:35:00Z,28.82,-97.87,24.8,17.7,140,12,16,10.0,29.890747,,,TRUE,TRUE,,,,,,,CLR,,,,,,,,VFR,,,,,,,,,,,,METAR,88.0
K2P2 230035Z AUTO 19008G15KT 10SM CLR 12/11 A2979 RMK AO2 T01220112,K2P2,2022-10-23T00:35:00Z,45.38,-86.92,12.2,11.2,190,8,15,10.0,29.790354,,,TRUE,TRUE,,,,,,,CLR,,,,,,,,VFR,,,,,,,,,,,,METAR,182.0
K2M2 230035Z AUTO 15006KT 10SM FEW050 18/11 A3005 RMK A01,K2M2,2022-10-23T00:35:00Z,35.23,-87.25,18.0,11.0,150,6,,10.0,30.050198,,,TRUE,TRUE,,,,,,,FEW,5000,,,,,,,VFR,,,,,,,,,,,,METAR,286.0
K2J9 230035Z AUTO 00000KT 10SM BKN034 BKN039 13/08 A3011 RMK AO2,K2J9,2022-10-23T00:35:00Z,30.6,-84.55,13.0,8.0,0,0,,10.0,30.109253,,,TRUE,TRUE,,,,,,,BKN,3400,BKN,3900,,,,,VFR,,,,,,,,,,,,METAR,62.0
K2J5 230035Z AUTO 00000KT 10SM CLR 11/05 A3014 RMK AO2 T01050052,K2J5,2022-10-23T00:35:00Z,32.9,-81.97,10.5,5.2,0,0,,10.0,30.138779,,,TRUE,TRUE,,,,,,,CLR,,,,,,,,VFR,,,,,,,,,,,,SPECI,72.0
K2J3 230035Z AUTO 00000KT 10SM CLR 12/06 A3014 RMK AO2 T01220062,K2J3,2022-10-23T00:35:00Z,32.98,-82.38,12.2,6.2,0,0,,10.0,30.138779,,,TRUE,TRUE,,,,,,,CLR,,,,,,,,VFR,,,,,,,,,,,,METAR,97.0
K2G9 230035Z AUTO 15005KT 10SM CLR 11/01 A3022 RMK AO2,K2G9,2022-10-23T00:35:00Z,40.03,-79.02,11.0,1.0,150,5,,10.0,30.221457,,,TRUE,TRUE,,,,,,,CLR,,,,,,,,VFR,,,,,,,,,,,,METAR,677.0
K2G2 230035Z AUTO 14005KT 10SM CLR 16/07 A3015 RMK A01,K2G2,2022-10-23T00:35:00Z,,,16.0,7.0,140,5,,10.0,30.15059,,,TRUE,TRUE,,,,,,,CLR,,,,,,,,VFR,,,,,,,,,,,,METAR,
K2D5 230035Z AUTO 33006KT 5SM HZ OVC022 09/01 A2946 RMK AO2,K2D5,2022-10-23T00:35:00Z,46.17,-98.08,9.0,1.0,330,6,,5.0,29.459646,,,TRUE,TRUE,,,,,,HZ,OVC,2200,,,,,,,MVFR,,,,,,,,,,,,METAR,407.0
K2C8 230035Z AUTO 02010G16KT 10SM FEW060 BKN095 OVC110 09/09 A2959 RMK AO2,K2C8,2022-10-23T00:35:00Z,48.78,-97.63,9.0,9.0,20,10,16,10.0,29.589567,,,TRUE,TRUE,,,,,,,FEW,6000,BKN,9500,OVC,11000,,,VFR,,,,,,,,,,,,METAR,271.0
K2A0 230035Z AUTO 00000KT 10SM CLR 15/10 A3012 RMK A01,K2A0,2022-10-23T00:35:00Z,35.48,-84.93,15.0,10.0,0,0,,10.0,30.121063,,,TRUE,TRUE,,,,,,,CLR,,,,,,,,VFR,,,,,,,,,,,,METAR,219.0
K28J 230035Z AUTO 06003KT 10SM FEW050 15/10 A3010 RMK AO2 TSNO,K28J,2022-10-23T00:35:00Z,29.65,-81.68,15.0,10.0,60,3,,10.0,30.100393,,,TRUE,TRUE,,,TRUE,,,,FEW,5000,,,,,,,VFR,,,,,,,,,,,,METAR,9.0
K27K 230035Z AUTO 17005KT 10SM CLR 18/08 A3009 RMK AO1,K27K,2022-10-23T00:35:00Z,38.23,-84.43,18.0,8.0,170,5,,10.0,30.088583,,,TRUE,TRUE,,,,,,,CLR,,,,,,,,VFR,,,,,,,,,,,,METAR,283.0
K24J 230035Z AUTO 00000KT 10SM 13/05 A3009 RMK A01,K24J,2022-10-23T00:35:00Z,30.3,-83.03,13.0,5.0,0,0,,10.0,30.088583,,,TRUE,TRUE,,,,,,,,,,,,,,,,,,,,,,,,,,,METAR,30.0
K24A 230035Z AUTO 13004KT 10SM CLR 14/02 A3021 RMK AO2 T01360017,K24A,2022-10-23T00:35:00Z,35.32,-83.2,13.6,1.7,130,4,,10.0,30.209646,,,TRUE,TRUE,,,,,,,CLR,,,,,,,,VFR,,,,,,,,,,,,METAR,864.0
K22N 230035Z AUTO 00000KT 10SM CLR 06/03 A3028 RMK AO2,K22N,2022-10-23T00:35:00Z,40.8,-75.77,6.0,3.0,0,0,,10.0,30.280512,,,TRUE,TRUE,,,,,,,CLR,,,,,,,,VFR,,,,,,,,,,,,METAR,159.0
K21D 230035Z AUTO 13005KT 10SM CLR 19/06 A2956 RMK AO2,K21D,2022-10-23T00:35:00Z,45.0,-92.85,19.0,6.0,130,5,,10.0,29.56004,,,TRUE,TRUE,,,,,,,CLR,,,,,,,,VFR,,,,,,,,,,,,METAR,281.0
K20V 230035Z AUTO 22007KT 10SM SCT100 13/M05 A2964 RMK AO2,K20V,2022-10-23T00:35:00Z,40.05,-106.37,13.0,-5.0,220,7,,10.0,29.639763,,,TRUE,TRUE,,,,,,,SCT,10000,,,,,,,VFR,,,,,,,,,,,,METAR,2259.0
K20U 230035Z AUTO 09010KT 10SM FEW018 BKN027 BKN038 07/05 A2948 RMK AO2,K20U,2022-10-23T00:35:00Z,46.93,-103.98,7.0,5.0,90,10,,10.0,29.480314,,,TRUE,TRUE,,,,,,,FEW,1800,BKN,2700,BKN,3800,,,MVFR,,,,,,,,,,,,METAR,839.0
K1V6 230035Z AUTO 25019G31KT 10SM CLR 21/M04 A2952 RMK AO2,K1V6,2022-10-23T00:35:00Z,38.43,-105.1,21.0,-4.0,250,19,31,10.0,29.518702,,,TRUE,TRUE,,,,,,,CLR,,,,,,,,VFR,,,,,,,,,,,,METAR,1658.0
K1U7 230035Z AUTO 00000KT 10SM BKN024 01/01 A2958 RMK A01,K1U7,2022-10-23T00:35:00Z,42.25,-111.33,1.0,1.0,0,0,,10.0,29.58071,,,TRUE,TRUE,,,,,,,BKN,2400,,,,,,,MVFR,,,,,,,,,,,,METAR,1808.0
K1R7 230035Z AUTO 15009KT 10SM CLR 21/16 A3003 RMK AO2 PWINO,K1R7,2022-10-23T00:35:00Z,31.6,-90.42,21.0,16.0,150,9,,10.0,30.029528,,,TRUE,TRUE,,,,,TRUE,,CLR,,,,,,,,VFR,,,,,,,,,,,,METAR,142.0
K1P1 230035Z AUTO 00000KT 10SM CLR 06/05 A3028 RMK AO2 T00590047,K1P1,2022-10-23T00:35:00Z,43.78,-71.75,5.9,4.7,0,0,,10.0,30.280512,,,TRUE,TRUE,,,,,,,CLR,,,,,,,,VFR,,,,,,,,,,,,METAR,155.0
K1M5 230035Z AUTO 16004KT 10SM CLR 19/11 A3006 RMK A01,K1M5,2022-10-23T00:35:00Z,36.6,-86.48,19.0,11.0,160,4,,10.0,30.059055,,,TRUE,TRUE,,,,,,,CLR,,,,,,,,VFR,,,,,,,,,,,,METAR,239.0
K1K1 230035Z AUTO 15006KT 10SM CLR 24/04 A2952 RMK AO2 T02370036,K1K1,2022-10-23T00:35:00Z,37.77,-97.12,23.7,3.6,150,6,,10.0,29.518702,,,TRUE,TRUE,,,,,,,CLR,,,,,,,,VFR,,,,,,,,,,,,METAR,411.0
K1H2 230035Z AUTO 13006KT 10SM CLR 19/13 A2993 RMK AO2 T01900125,K1H2,2022-10-23T00:35:00Z,39.07,-88.53,19.0,12.5,130,6,,10.0,29.929134,,,TRUE,TRUE,,,,,,,CLR,,,,,,,,VFR,,,,,,,,,,,,METAR,174.0
K1F0 230035Z AUTO 17012G18KT 10SM CLR 26/14 A2966 RMK AO2 T02590141,K1F0,2022-10-23T00:35:00Z,34.15,-97.12,25.9,14.1,170,12,18,10.0,29.660433,,,TRUE,TRUE,,,,,,,CLR,,,,,,,,VFR,,,,,,,,,,,,METAR,256.0
K1D1 230035Z AUTO 23004KT 8SM CLR 14/01 A2946 RMK AO2,K1D1,2022-10-23T00:35:00Z,45.23,-96.57,14.0,1.0,230,4,,8.0,29.459646,,,TRUE,TRUE,,,,,,,CLR,,,,,,,,VFR,,,,,,,,,,,,METAR,341.0
K1A9 230035Z AUTO 00000KT 10SM CLR 14/11 A3009 RMK AO2 T01390112,K1A9,2022-10-23T00:35:00Z,32.43,-86.52,13.9,11.2,0,0,,10.0,30.088583,,,TRUE,TRUE,,,,,,,CLR,,,,,,,,VFR,,,,,,,,,,,,METAR,65.0
K1A6 230035Z AUTO 00000KT 10SM CLR 12/08 A3016 RMK AO2 T01190080,K1A6,2022-10-23T00:35:00Z,36.62,-83.73,11.9,8.0,0,0,,10.0,30.159449,,,TRUE,TRUE,,,,,,,CLR,,,,,,,,VFR,,,,,,,,,,,,METAR,348.0
K19S 230035Z AUTO 16008KT 7SM CLR 20/M03 A2947 RMK AO2 T02051026,K19S,2022-10-23T00:35:00Z,37.48,-100.83,20.5,-2.6,160,8,,7.0,29.471457,,,TRUE,TRUE,,,,,,,CLR,,,,,,,,VFR,,,,,,,,,,,,METAR,886.0
K18H 230035Z AUTO 11008G14KT 080V150 10SM SCT043 SCT050 26/16 A2997 RMK A01,K18H,2022-10-23T00:35:00Z,26.13,-92.03,26.0,16.0,110,8,14,10.0,29.970472,,,TRUE,TRUE,,,,,,,SCT,4300,SCT,5000,,,,,VFR,,,,,,,,,,,,METAR,30.0
K18A 230035Z AUTO 00000KT 10SM CLR 13/03 A3015 RMK AO2 T01250028,K18A,2022-10-23T00:35:00Z,34.35,-83.13,12.5,2.8,0,0,,10.0,30.15059,,,TRUE,TRUE,,,,,,,CLR,,,,,,,,VFR,,,,,,,,,,,,METAR,260.0
K17J 230035Z AUTO 00000KT 10SM CLR 14/05 A3011 RMK AO2 T01380047,K17J,2022-10-23T00:35:00Z,31.0,-84.87,13.8,4.7,0,0,,10.0,30.109253,,,TRUE,TRUE,,,,,,,CLR,,,,,,,,VFR,,,,,,,,,,,,METAR,42.0
K15M 230035Z AUTO 16004KT 10SM CLR 19/12 A3004 RMK AO2 T01930117 $,K15M,2022-10-23T00:35:00Z,34.77,-88.17,19.3,11.7,160,4,,10.0,30.041338,,,TRUE,TRUE,TRUE,,,,,,CLR,,,,,,,,VFR,,,,,,,,,,,,METAR,192.0
K14Y 230035Z AUTO 14006KT 10SM CLR 16/05 A2949 RMK AO2,K14Y,2022-10-23T00:35:00Z,45.9,-94.87,16.0,5.0,140,6,,10.0,29.489174,,,TRUE,TRUE,,,,,,,CLR,,,,,,,,VFR,,,,,,,,,,,,METAR,404.0
K13K 230035Z AUTO 14010KT 10SM CLR 24/10 A2957 RMK AO2 T02440104,K13K,2022-10-23T00:35:00Z,37.85,-96.3,24.4,10.4,140,10,,10.0,29.568897,,,TRUE,TRUE,,,,,,,CLR,,,,,,,,VFR,,,,,,,,,,,,METAR,367.0
K11R 230035Z AUTO 18009G15KT 10SM CLR 26/16 A2989 RMK AO2 T02580161,K11R,2022-10-23T00:35:00Z,30.22,-96.37,25.8,16.1,180,9,15,10.0,29.890747,,,TRUE,TRUE,,,,,,,CLR,,,,,,,,VFR,,,,,,,,,,,,SPECI,87.0
K10G 230035Z AUTO 15007KT 10SM CLR 18/07 A3013 RMK AO2,K10G,2022-10-23T00:35:00Z,,,18.0,7.0,150,7,,10.0,30.129921,,,TRUE,TRUE,,,,,,,CLR,,,,,,,,VFR,,,,,,,,,,,,METAR,
K0VG 230035Z AUTO 00000KT 10SM CLR 11/07 A3017 RMK AO2,K0VG,2022-10-23T00:35:00Z,36.65,-83.22,11.0,7.0,0,0,,10.0,30.171259,,,TRUE,TRUE,,,,,,,CLR,,,,,,,,VFR,,,,,,,,,,,,METAR,426.0
K0S9 230035Z AUTO 20003KT 10SM FEW060 OVC080 11/07 A2979 RMK AO2,K0S9,2022-10-23T00:35:00Z,48.05,-122.82,11.0,7.0,200,3,,10.0,29.790354,,,TRUE,TRUE,,,,,,,FEW,6000,OVC,8000,,,,,VFR,,,,,,,,,,,,METAR,33.0
K0R4 230035Z AUTO 17010KT 10SM CLR 23/14 A2998 RMK AO2 T02290135,K0R4,2022-10-23T00:35:00Z,31.57,-91.5,22.9,13.5,170,10,,10.0,29.97933,,,TRUE,TRUE,,,,,,,CLR,,,,,,,,VFR,,,,,,,,,,,,METAR,16.0
K0R0 230035Z AUTO 16008KT 10SM CLR 20/12 A3008 RMK AO2,K0R0,2022-10-23T00:35:00Z,31.3,-89.82,20.0,12.0,160,8,,10.0,30.079725,,,TRUE,TRUE,,,,,,,CLR,,,,,,,,VFR,,,,,,,,,,,,METAR,76.0
K0F2 230035Z AUTO 17014G22KT 10SM CLR 28/13 A2968 RMK AO2 T02760127,K0F2,2022-10-23T00:35:00Z,33.6,-97.78,27.6,12.7,170,14,22,10.0,29.681103,,,TRUE,TRUE,,,,,,,CLR,,,,,,,,VFR,,,,,,,,,,,,METAR,330.0
K0E0 230035Z AUTO 19012KT 10SM CLR 15/08 A2982 RMK AO2 T01510077 TSNO,K0E0,2022-10-23T00:35:00Z,34.98,-106.0,15.1,7.7,190,12,,10.0,29.819881,,,TRUE,TRUE,,,TRUE,,,,CLR,,,,,,,,VFR,,,,,,,,,,,,METAR,1887.0
K0CO 230035Z AUTO 23003G22KT 10SM CLR 00/M13 A2988 RMK AO2,K0CO,2022-10-23T00:35:00Z,39.8,-105.77,0.0,-13.0,230,3,22,10.0,29.878937,,,TRUE,TRUE,,,,,,,CLR,,,,,,,,VFR,,,,,,,,,,,,METAR,3804.0
K0A9 230035Z AUTO 00000KT 5SM HZ CLR 10/06 A3016 RMK A01,K0A9,2022-10-23T00:35:00Z,36.37,-82.17,10.0,6.0,0,0,,5.0,30.159449,,,TRUE,TRUE,,,,,,HZ,CLR,,,,,,,,MVFR,,,,,,,,,,,,METAR,479.0
K0A0 230035Z AUTO 21010G16KT 10SM SCT070 BKN090 BKN110 23/10 A2980 RMK AO2,K0A0,2022-10-23T00:35:00Z,32.98,-106.97,23.0,10.0,210,10,16,10.0,29.799213,,,TRUE,TRUE,,,,,,,SCT,7000,BKN,9000,BKN,11000,,,VFR,,,,,,,,,,,,METAR,1401.0
K08D 230035Z AUTO 07008KT 10SM 07/06 A2956 RMK AO2,K08D,2022-10-23T00:35:00Z,48.3,-102.4,7.0,6.0,70,8,,10.0,29.56004,,,TRUE,TRUE,,,,,,,,,,,,,,,,,,,,,,,,,,,METAR,683.0
K06D 230035Z AUTO 04014G20KT 10SM OVC095 06/05 A2960 RMK AO2,K06D,2022-10-23T00:35:00Z,48.88,-99.62,6.0,5.0,40,14,20,10.0,29.601377,,,TRUE,TRUE,,,,,,,OVC,9500,,,,,,,VFR,,,,,,,,,,,,METAR,554.0
K06C 230035Z AUTO 16009KT 10SM CLR 21/14 A2983 RMK AO2 T02120141,K06C,2022-10-23T00:35:00Z,41.98,-88.1,21.2,14.1,160,9,,10.0,29.828741,,,TRUE,TRUE,,,,,,,CLR,,,,,,,,VFR,,,,,,,,,,,,METAR,243.0
K05U 230035Z AUTO 00000KT 10SM 02/00 A2967 RMK A01,K05U,2022-10-23T00:35:00Z,39.6,-116.0,2.0,0.0,0,0,,10.0,29.66929,,,TRUE,TRUE,,,,,,,,,,,,,,,,,,,,,,,,,,,METAR,1813.0
K04W 230035Z AUTO 08005KT 10SM CLR 17/05 A2958 RMK AO2,K04W,2022-10-23T00:35:00Z,46.02,-92.9,17.0,5.0,80,5,,10.0,29.58071,,,TRUE,TRUE,,,,,,,CLR,,,,,,,,VFR,,,,,,,,,,,,METAR,310.0
K04V 230035Z AUTO 23019G25KT 10SM 12/M05 A2975 RMK AO2,K04V,2022-10-23T00:35:00Z,38.1,-106.17,12.0,-5.0,230,19,25,10.0,29.749016,,,TRUE,TRUE,,,,,,,,,,,,,,,,,,,,,,,,,,,SPECI,2389.0
ETAR 230035Z 00000KT 80000 BR FEW001 10/10 A3000 RMK AO2A VIS 1200V8000 VIS 0600 RWY08 SLP161 $,ETAR,2022-10-23T00:35:00Z,49.43,7.58,10.0,10.0,0,0,,0.0,30.0,1016.1,,,TRUE,TRUE,,,,,BR,FEW,100,,,,,,,LIFR,,,,,,,,,,,,METAR,231.0
CYYL 230035Z AUTO VRB02KT 9SM FEW023 BKN037 OVC044 00/M01 A2984 RMK SLP129,CYYL,2022-10-23T00:35:00Z,56.87,-101.07,0.0,-1.0,0,2,,9.0,29.840551,1012.9,,TRUE,,,,,,,,FEW,2300,BKN,3700,OVC,4400,,,VFR,,,,,,,,,,,,SPECI,351.0
PAKV 230034Z AUTO 00000KT 6SM BR BKN007 OVC012 M01/M01 A2993 RMK AO2 T10061006 TSNO,PAKV,2022-10-23T00:34:00Z,64.33,-158.72,-0.6,-0.6,0,0,,6.0,29.929134,,,TRUE,TRUE,,,TRUE,,,BR,BKN,700,OVC,1200,,,,,IFR,,,,,,,,,,,,METAR,53.0
KHWV 230034Z AUTO 05003KT 10SM SCT028 11/08 A3029 RMK AO2 T01060078,KHWV,2022-10-23T00:34:00Z,40.82,-72.87,10.6,7.8,50,3,,10.0,30.28937,,,TRUE,TRUE,,,,,,,SCT,2800,,,,,,,VFR,,,,,,,,,,,,METAR,20.0
KBAN 230034Z AUTO 36003KT 5SM -SN BKN033 03/M02 A2970 RMK AO2 RAB2355E27SNB27 P0001 T00331022 $,KBAN,2022-10-23T00:34:00Z,38.35,-119.52,3.3,-2.2,360,3,,5.0,29.698818,,,TRUE,TRUE,TRUE,,,,,-SN,BKN,3300,,,,,,,MVFR,,,,,,0.01,,,,,,METAR,2067.0
CYGW 230034Z AUTO 27013G22KT 9SM FEW016 BKN021 BKN029 OVC045 05/02 A2986 RMK SLP114,CYGW,2022-10-23T00:34:00Z,55.27,-77.77,5.0,2.0,270,13,22,9.0,29.861221,1011.4,,TRUE,,,,,,,,FEW,1600,BKN,2100,BKN,2900,OVC,4500,MVFR,,,,,,,,,,,,SPECI,13.0
YPWR 230033Z AUTO 16013KT 9999 // SCT014 BKN034 OVC049 15/12 Q1012,YPWR,2022-10-23T00:33:00Z,-31.15,136.82,15.0,12.0,160,13,,6.21,29.88189,,,TRUE,,,,,,,,SCT,1400,BKN,3400,OVC,4900,,,VFR,,,,,,,,,,,,SPECI,169.0
YAMB 230033Z AUTO 20012KT 9999 -SHRA SCT007 SCT013 BKN023 19/18 Q1008 RESHRA,YAMB,2022-10-23T00:33:00Z,-27.63,152.72,19.0,18.0,200,12,,6.21,29.763779,,,TRUE,,,,,,,-SHRA,SCT,700,SCT,1300,BKN,2300,,,MVFR,,,,,,,,,,,,SPECI,26.0
ROYN 230033Z AUTO 02020KT 4300 UP FEW013 OVC019 25/// Q1015 RMK A3000 RI005,ROYN,2022-10-23T00:33:00Z,24.47,122.97,,,20,20,,2.67,29.970472,,,TRUE,,,,,,,UP,FEW,1300,OVC,1900,,,,,IFR,,,,,,,,,,,,SPECI,21.0
RJSI 230033Z VRB02KT 4000 BR FEW002 SCT004 BKN/// 13/13 Q1012 RMK 1ST002 4ST004 A2988,RJSI,2022-10-23T00:33:00Z,39.42,141.13,13.0,13.0,0,2,,2.49,29.88189,,,,,,,,,,BR,FEW,200,SCT,400,,,,,IFR,,,,,,,,,,,,SPECI,89.0
KXVG 230033Z AUTO 09004KT 10SM CLR 14/04 A2954 RMK AO2,KXVG,2022-10-23T00:33:00Z,46.98,-94.2,14.0,4.0,90,4,,10.0,29.53937,,,TRUE,TRUE,,,,,,,CLR,,,,,,,,VFR,,,,,,,,,,,,SPECI,407.0
KOWA 230033Z AUTO 16009KT 10SM CLR 22/08 A2957 RMK AO2,KOWA,2022-10-23T00:33:00Z,44.12,-93.25,22.0,8.0,160,9,,10.0,29.568897,,,TRUE,TRUE,,,,,,,CLR,,,,,,,,VFR,,,,,,,,,,,,METAR,345.0
KORB 230033Z AUTO 11003KT 10SM CLR 12/04 A2962 RMK AO2,KORB,2022-10-23T00:33:00Z,48.02,-92.87,12.0,4.0,110,3,,10.0,29.619095,,,TRUE,TRUE,,,,,,,CLR,,,,,,,,VFR,,,,,,,,,,,,METAR,407.0
KFTK 230033Z AUTO 15007KT 10SM SCT210 19/10 A3004 RMK AO2 SLP173,KFTK,2022-10-23T00:33:00Z,37.9,-85.97,19.0,10.0,150,7,,10.0,30.041338,1017.3,,TRUE,TRUE,,,,,,,SCT,21000,,,,,,,VFR,,,,,,,,,,,,SPECI,225.0
KFOZ 230033Z AUTO 08008G16KT 10SM CLR 14/04 A2965 RMK AO2,KFOZ,2022-10-23T00:33:00Z,47.77,-93.65,14.0,4.0,80,8,16,10.0,29.648623,,,TRUE,TRUE,,,,,,,CLR,,,,,,,,VFR,,,,,,,,,,,,METAR,412.0
KETH 230033Z AUTO 21004KT 10SM 15/00 A2946 RMK AO2,KETH,2022-10-23T00:33:00Z,45.78,-96.55,15.0,0.0,210,4,,10.0,29.459646,,,TRUE,TRUE,,,,,,,,,,,,,,,,,,,,,,,,,,,METAR,309.0
KDVP 230033Z AUTO 17005KT 10SM CLR 15/01 A2951 RMK AO2 T01520014,KDVP,2022-10-23T00:33:00Z,43.98,-95.78,15.2,1.4,170,5,,10.0,29.509842,,,TRUE,TRUE,,,,,,,CLR,,,,,,,,VFR,,,,,,,,,,,,METAR,493.0
KCYD 230033Z AUTO 12011KT 10SM CLR 23/13 A3008 RMK A02 T02300135,KCYD,2022-10-23T00:33:00Z,28.17,-89.22,23.0,13.5,120,11,,10.0,30.079725,,,TRUE,TRUE,,,,,,,CLR,,,,,,,,VFR,,,,,,,,,,,,METAR,30.0
KCDD 230033Z AUTO 00000KT 10SM CLR 11/03 A2968 RMK AO2,KCDD,2022-10-23T00:33:00Z,48.27,-92.48,11.0,3.0,0,0,,10.0,29.681103,,,TRUE,TRUE,,,,,,,CLR,,,,,,,,VFR,,,,,,,,,,,,METAR,344.0
KAQP 230033Z AUTO 00000KT 4SM HZ 15/02 A2946 RMK AO2,KAQP,2022-10-23T00:33:00Z,45.22,-96.0,15.0,2.0,0,0,,4.0,29.459646,,,TRUE,TRUE,,,,,,HZ,,,,,,,,,,,,,,,,,,,,,METAR,312.0
CYKL 230033Z AUTO 24015G23KT 9SM -RA FEW023 SCT028 BKN071 06/05 A2975 RMK SLP095,CYKL,2022-10-23T00:33:00Z,54.8,-66.8,6.0,5.0,240,15,23,9.0,29.749016,1009.5,,TRUE,,,,,,,-RA,FEW,2300,SCT,2800,BKN,7100,,,VFR,,,,,,,,,,,,SPECI,507.0
YGFN 230032Z AUTO 16005KT 5000 -SHRA BKN014 OVC019 OVC031 19/18 Q1013,YGFN,2022-10-23T00:32:00Z,-29.77,153.03,19.0,18.0,160,5,,3.11,29.911417,,,TRUE,,,,,,,-SHRA,BKN,1400,OVC,1900,OVC,3100,,,MVFR,,,,,,,,,,,,SPECI,26.0
LHPP 230032Z AUTO 25003KT 200V280 2200 BR BKN002 13/12 Q1023,LHPP,2022-10-23T00:32:00Z,45.98,18.23,13.0,12.0,250,3,,1.37,30.206694,,,TRUE,,,,,,,BR,BKN,200,,,,,,,LIFR,,,,,,,,,,,,SPECI,193.0
KSUU 230032Z AUTO 33003KT 1 5/8SM HZ CLR 21/03 A2969 RMK AO2 SLP060 $,KSUU,2022-10-23T00:32:00Z,38.27,-121.93,21.0,3.0,330,3,,1.63,29.68996,1006.0,,TRUE,TRUE,TRUE,,,,,HZ,CLR,,,,,,,,IFR,,,,,,,,,,,,SPECI,9.0
KUIL 230031Z AUTO 00000KT 10SM BKN024 BKN031 11/07 A2980 RMK AO2 T01060067,KUIL,2022-10-23T00:31:00Z,47.93,-124.55,10.6,6.7,0,0,,10.0,29.799213,,,TRUE,TRUE,,,,,,,BKN,2400,BKN,3100,,,,,MVFR,,,,,,,,,,,,SPECI,58.0
KSGU 230031Z AUTO 23026G40KT 4SM HZ OVC090 23/02 A2942 RMK AO2 PK WND 21048/0002,KSGU,2022-10-23T00:31:00Z,37.03,-113.52,23.0,2.0,230,26,40,4.0,29.421259,,,TRUE,TRUE,,,,,,HZ,OVC,9000,,,,,,,MVFR,,,,,,,,,,,,SPECI,877.0
KDIJ 230031Z AUTO 19011KT 10SM -RA FEW018 BKN035 OVC049 01/00 A2956 RMK AO2 SNB07E16 P0001,KDIJ,2022-10-23T00:31:00Z,43.75,-111.1,1.0,0.0,190,11,,10.0,29.56004,,,TRUE,TRUE,,,,,,-RA,FEW,1800,BKN,3500,OVC,4900,,,VFR,,,,,,0.01,,,,,,SPECI,1896.0
KC99 230031Z AUTO 26005KT 10SM CLR 04/M14 A2980 RMK AO2,KC99,2022-10-23T00:31:00Z,39.87,-105.55,4.0,-14.0,260,5,,10.0,29.799213,,,TRUE,TRUE,,,,,,,CLR,,,,,,,,VFR,,,,,,,,,,,,METAR,3334.0
ZYTX 230030Z 23002MPS CAVOK 06/01 Q1024 NOSIG,ZYTX,2022-10-23T00:30:00Z,41.63,123.48,6.0,1.0,230,4,,6.21,30.236221,,,,,,TRUE,,,,,CAVOK,,,,,,,,VFR,,,,,,,,,,,,METAR,56.0
ZYTL 230030Z 26002MPS 210V320 CAVOK 15/06 Q1025 NOSIG,ZYTL,2022-10-23T00:30:00Z,38.97,121.55,15.0,6.0,260,4,,6.21,30.265747,,,,,,TRUE,,,,,CAVOK,,,,,,,,VFR,,,,,,,,,,,,METAR,33.0
ZWWW 230030Z 23002MPS 190V260 CAVOK 07/02 Q1020 NOSIG,ZWWW,2022-10-23T00:30:00Z,43.9,87.47,7.0,2.0,230,4,,6.21,30.11811,,,,,,TRUE,,,,,CAVOK,,,,,,,,VFR,,,,,,,,,,,,METAR,654.0
ZSSS 230030Z 01005MPS 9999 SCT016 20/15 Q1023 NOSIG,ZSSS,2022-10-23T00:30:00Z,31.2,121.33,20.0,15.0,10,10,,6.21,30.206694,,,,,,TRUE,,,,,SCT,1600,,,,,,,VFR,,,,,,,,,,,,METAR,2.0
ZSPD 230030Z 35006MPS CAVOK 20/16 Q1023 NOSIG,ZSPD,2022-10-23T00:30:00Z,31.15,121.8,20.0,16.0,350,12,,6.21,30.206694,,,,,,TRUE,,,,,CAVOK,,,,,,,,VFR,,,,,,,,,,,,METAR,4.0
ZSHC 230030Z 01005MPS 5000 BR BKN010 20/16 Q1023 NOSIG,ZSHC,2022-10-23T00:30:00Z,30.22,120.43,20.0,16.0,10,10,,3.11,30.206694,,,,,,TRUE,,,,BR,BKN,1000,,,,,,,MVFR,,,,,,,,,,,,METAR,8.0
ZMCK 230030Z 09004MPS CAVOK M01/M08 Q1024 NOSIG RMK QFE651.6 60,ZMCK,2022-10-23T00:30:00Z,47.65,106.82,-1.0,-8.0,90,8,,6.21,30.236221,,,,,,TRUE,,,,,CAVOK,,,,,,,,VFR,,,,,,,,,,,,METAR,1366.0
ZGGG 230030Z 36004MPS CAVOK 28/16 Q1017 NOSIG,ZGGG,2022-10-23T00:30:00Z,23.4,113.3,28.0,16.0,360,8,,6.21,30.029528,,,,,,TRUE,,,,,CAVOK,,,,,,,,VFR,,,,,,,,,,,,METAR,11.0
ZBYN 230030Z VRB01MPS CAVOK 08/M00 Q1030 NOSIG,ZBYN,2022-10-23T00:30:00Z,37.73,112.63,8.0,0.0,0,2,,6.21,30.413385,,,,,,TRUE,,,,,CAVOK,,,,,,,,VFR,,,,,,,,,,,,METAR,778.0
ZBTJ 230030Z 26002MPS 230V290 4000 BR NSC 13/09 Q1026 NOSIG,ZBTJ,2022-10-23T00:30:00Z,39.12,117.35,13.0,9.0,260,4,,2.49,30.295275,,,,,,TRUE,,,,BR,CLR,,,,,,,,IFR,,,,,,,,,,,,METAR,4.0
ZBAD 230030Z VRB01MPS CAVOK 11/03 Q1026 NOSIG,ZBAD,2022-10-23T00:30:00Z,39.5,116.42,11.0,3.0,0,2,,6.21,30.295275,,,,,,TRUE,,,,,CAVOK,,,,,,,,VFR,,,,,,,,,,,,METAR,25.0
ZBAA 230030Z 33003MPS CAVOK 12/00 Q1027 NOSIG,ZBAA,2022-10-23T00:30:00Z,40.07,116.6,12.0,0.0,330,6,,6.21,30.324802,,,,,,TRUE,,,,,CAVOK,,,,,,,,VFR,,,,,,,,,,,,METAR,31.0
YWHA 230030Z AUTO 19012KT 9999 -RA SCT014 OVC018 16/14 Q1011,YWHA,2022-10-23T00:30:00Z,-33.07,137.52,16.0,14.0,190,12,,6.21,29.852362,,,TRUE,,,,,,,-RA,SCT,1400,OVC,1800,,,,,MVFR,,,,,,,,,,,,SPECI,12.0
YSSY 230030Z 02009KT 9999 -DZ FEW014 SCT020 BKN030 21/18 Q1014,YSSY,2022-10-23T00:30:00Z,-33.95,151.17,21.0,18.0,20,9,,6.21,29.940945,,,,,,,,,,-DZ,FEW,1400,SCT,2000,BKN,3000,,,MVFR,,,,,,,,,,,,METAR,3.0
YSNW 230030Z AUTO 18012KT 9999 // OVC009 OVC017 18/17 Q1014,YSNW,2022-10-23T00:30:00Z,-34.95,150.53,18.0,17.0,180,12,,6.21,29.940945,,,TRUE,,,,,,,,OVC,900,OVC,1700,,,,,IFR,,,,,,,,,,,,SPECI,109.0
YPPH 230030Z 06007KT CAVOK 20/12 Q1011,YPPH,2022-10-23T00:30:00Z,-31.93,115.98,20.0,12.0,60,7,,6.21,29.852362,,,,,,,,,,,CAVOK,,,,,,,,VFR,,,,,,,,,,,,METAR,16.0
YPPD 230030Z AUTO 25012KT 9999 // NCD 31/14 Q1009 RF00.0/000.0,YPPD,2022-10-23T00:30:00Z,-20.37,118.62,31.0,14.0,250,12,,6.21,29.793306,,,TRUE,,,,,,,,CLR,,,,,,,,VFR,,,,,,,,,,,,METAR,6.0
YPLM 230030Z AUTO 21014KT 9999 // NCD 25/14 Q1012 RF00.0/000.0,YPLM,2022-10-23T00:30:00Z,-22.23,114.08,25.0,14.0,210,14,,6.21,29.88189,,,TRUE,,,,,,,,CLR,,,,,,,,VFR,,,,,,,,,,,,METAR,5.0
YPKG 230030Z AUTO 05012KT 9999 // NCD 16/06 Q1016 RF00.0/000.0,YPKG,2022-10-23T00:30:00Z,-30.78,121.45,16.0,6.0,50,12,,6.21,30.0,,,TRUE,,,,,,,,CLR,,,,,,,,VFR,,,,,,,,,,,,METAR,372.0
YPDN 230030Z 31007KT 9999 FEW028 33/26 Q1009,YPDN,2022-10-23T00:30:00Z,-12.42,130.9,33.0,26.0,310,7,,6.21,29.793306,,,,,,,,,,,FEW,2800,,,,,,,VFR,,,,,,,,,,,,METAR,32.0
YPCC 230030Z AUTO 15011KT 9999 // SCT048 27/21 Q1013 RF00.0/000.0,YPCC,2022-10-23T00:30:00Z,-12.18,96.83,27.0,21.0,150,11,,6.21,29.911417,,,TRUE,,,,,,,,SCT,4800,,,,,,,VFR,,,,,,,,,,,,METAR,3.0
YPAD 230030Z 14008KT 9000 RA FEW030 BKN090 15/14 Q1011,YPAD,2022-10-23T00:30:00Z,-34.95,138.52,15.0,14.0,140,8,,5.59,29.852362,,,,,,,,,,RA,FEW,3000,BKN,9000,,,,,VFR,,,,,,,,,,,,METAR,2.0
YMTG 230030Z AUTO 13013KT 9999 // OVC014 13/11 Q1016,YMTG,2022-10-23T00:30:00Z,-37.75,140.78,13.0,11.0,130,13,,6.21,30.0,,,TRUE,,,,,,,,OVC,1400,,,,,,,MVFR,,,,,,,,,,,,SPECI,65.0
YMML 230030Z 20009KT 9999 BKN012 BKN022 16/13 Q1016 RF00/0/000/0,YMML,2022-10-23T00:30:00Z,-37.67,144.82,16.0,13.0,200,9,,6.21,30.0,,,,,,,,,,,BKN,1200,BKN,2200,,,,,MVFR,,,,,,,,,,,,METAR,115.0
YMLT 230030Z AUTO 16017KT 9999 // OVC056 12/08 Q1020 RF00.0/000.4,YMLT,2022-10-23T00:30:00Z,-41.53,147.2,12.0,8.0,160,17,,6.21,30.11811,,,TRUE,,,,,,,,OVC,5600,,,,,,,VFR,,,,,,,,,,,,METAR,167.0
YMIA 230030Z AUTO 18009KT 9999 // BKN006 OVC105 18/16 Q1011,YMIA,2022-10-23T00:30:00Z,-34.23,142.08,18.0,16.0,180,9,,6.21,29.852362,,,TRUE,,,,,,,,BKN,600,OVC,10500,,,,,IFR,,,,,,,,,,,,SPECI,53.0
YMHB 230030Z 16016KT 9999 SCT033 BKN054 BKN280 12/06 Q1023 RF00.0/000.0,YMHB,2022-10-23T00:30:00Z,-42.83,147.52,12.0,6.0,160,16,,6.21,30.206694,,,,,,,,,,,SCT,3300,BKN,5400,BKN,28000,,,VFR,,,,,,,,,,,,METAR,2.0
YMEN 230030Z AUTO 18009KT 9999 // BKN016 OVC020 15/13 Q1016,YMEN,2022-10-23T00:30:00Z,-37.72,144.9,15.0,13.0,180,9,,6.21,30.0,,,TRUE,,,,,,,,BKN,1600,OVC,2000,,,,,MVFR,,,,,,,,,,,,SPECI,86.0
YMAV 230030Z AUTO 18009KT 9999 // OVC019 16/13 Q1016 RF00.0/000.0,YMAV,2022-10-23T00:30:00Z,-38.03,144.48,16.0,13.0,180,9,,6.21,30.0,,,TRUE,,,,,,,,OVC,1900,,,,,,,MVFR,,,,,,,,,,,,METAR,11.0
YLIS 230030Z AUTO 13009KT 2900 RA BKN011 OVC017 20/19 Q1010,YLIS,2022-10-23T00:30:00Z,-28.83,153.27,20.0,19.0,130,9,,1.8,29.822834,,,TRUE,,,,,,,RA,BKN,1100,OVC,1700,,,,,IFR,,,,,,,,,,,,SPECI,6.0
YCFS 230030Z AUTO 07012KT 4800 -RA SCT017 SCT026 SCT035 19/17 Q1014,YCFS,2022-10-23T00:30:00Z,-30.32,153.12,19.0,17.0,70,12,,2.98,29.940945,,,TRUE,,,,,,,-RA,SCT,1700,SCT,2600,SCT,3500,,,IFR,,,,,,,,,,,,SPECI,2.0
YBWW 230030Z AUTO 16007KT 9999 // SCT053 OVC069 19/17 Q1010,YBWW,2022-10-23T00:30:00Z,-27.55,151.8,19.0,17.0,160,7,,6.21,29.822834,,,TRUE,,,,,,,,SCT,5300,OVC,6900,,,,,VFR,,,,,,,,,,,,METAR,460.0
YBRM 230030Z AUTO 27012KT 9999 // NCD 30/23 Q1009 RF00.0/000.0,YBRM,2022-10-23T00:30:00Z,-17.93,122.23,30.0,23.0,270,12,,6.21,29.793306,,,TRUE,,,,,,,,CLR,,,,,,,,VFR,,,,,,,,,,,,METAR,11.0
YBRK 230030Z AUTO 27009KT 240V310 9999 // NCD 27/18 Q1009 RF00.0/000.0,YBRK,2022-10-23T00:30:00Z,-23.37,150.47,27.0,18.0,270,9,,6.21,29.793306,,,TRUE,,,,,,,,CLR,,,,,,,,VFR,,,,,,,,,,,,METAR,10.0
YBLN 230030Z AUTO 08003KT 9999 // ////// 17/12 Q1012 RF00.0/000.0,YBLN,2022-10-23T00:30:00Z,-33.68,115.4,17.0,12.0,80,3,,6.21,29.88189,,,TRUE,,,,,,,,,,,,,,,,,,,,,,,,,,,,METAR,17.0
YBCS 230030Z AUTO 02007KT 9999 // NCD 31/23 Q1009,YBCS,2022-10-23T00:30:00Z,-16.87,145.75,31.0,23.0,20,7,,6.21,29.793306,,,TRUE,,,,,,,,CLR,,,,,,,,VFR,,,,,,,,,,,,METAR,2.0
YBCG 230030Z AUTO 11019KT 9999 // BKN015 OVC019 22/19 Q1009,YBCG,2022-10-23T00:30:00Z,-28.17,153.5,22.0,19.0,110,19,,6.21,29.793306,,,TRUE,,,,,,,,BKN,1500,OVC,1900,,,,,MVFR,,,,,,,,,,,,METAR,5.0
YBBN 230030Z 14009KT 7000 -SHRA FEW005 SCT012 BKN028 22/20 Q1007,YBBN,2022-10-23T00:30:00Z,-27.38,153.13,22.0,20.0,140,9,,4.35,29.734253,,,,,,,,,,-SHRA,FEW,500,SCT,1200,BKN,2800,,,MVFR,,,,,,,,,,,,METAR,3.0
YBAS 230030Z AUTO 17009KT 140V200 9999 // NCD 25/14 Q1010 RF00.0/000.0,YBAS,2022-10-23T00:30:00Z,-23.8,133.9,25.0,14.0,170,9,,6.21,29.822834,,,TRUE,,,,,,,,CLR,,,,,,,,VFR,,,,,,,,,,,,METAR,549.0
WSSS 230030Z 33005KT 290V360 9999 -RA FEW018 BKN150 25/23 Q1012 NOSIG,WSSS,2022-10-23T00:30:00Z,1.37,103.97,25.0,23.0,330,5,,6.21,29.88189,,,,,,TRUE,,,,-RA,FEW,1800,BKN,15000,,,,,VFR,,,,,,,,,,,,METAR,17.0
WMKP 230030Z 04007KT 010V080 8000 -RA FEW010 SCT025 28/24 Q1012 NOSIG,WMKP,2022-10-23T00:30:00Z,5.28,100.27,28.0,24.0,40,7,,4.97,29.88189,,,,,,TRUE,,,,-RA,FEW,1000,SCT,2500,,,,,MVFR,,,,,,,,,,,,METAR,4.0
WMKK 230030Z 00000KT 9000 FEW010 FEW017CB 26/25 Q1012 NOSIG,WMKK,2022-10-23T00:30:00Z,2.75,101.72,26.0,25.0,0,0,,5.59,29.88189,,,,,,TRUE,,,,,FEW,1000,FEW,1700,,,,,VFR,,,,,,,,,,,,METAR,21.0
WIPP 230030Z 23003KT 8000 FEW010 25/24 Q1012 NOSIG,WIPP,2022-10-23T00:30:00Z,-2.88,104.7,25.0,24.0,230,3,,4.97,29.88189,,,,,,TRUE,,,,,FEW,1000,,,,,,,MVFR,,,,,,,,,,,,METAR,7.0
WIOO 230030Z 33002KT 9999 SCT012 25/24 Q1012 NOSIG,WIOO,2022-10-23T00:30:00Z,-0.15,109.4,25.0,24.0,330,2,,6.21,29.88189,,,,,,TRUE,,,,,SCT,1200,,,,,,,VFR,,,,,,,,,,,,METAR,4.0
WIMM 230030Z 17003KT 4000 -RA BR FEW016CB BKN017 24/24 Q1012 NOSIG,WIMM,2022-10-23T00:30:00Z,3.57,98.67,24.0,24.0,170,3,,2.49,29.88189,,,,,,TRUE,,,,-RA BR,FEW,1600,BKN,1700,,,,,IFR,,,,,,,,,,,,METAR,27.0
WIII 230030Z 22010KT 5000 HZ SCT020 27/25 Q1011 NOSIG,WIII,2022-10-23T00:30:00Z,-6.13,106.67,27.0,25.0,220,10,,3.11,29.852362,,,,,,TRUE,,,,HZ,SCT,2000,,,,,,,MVFR,,,,,,,,,,,,METAR,9.0
WIEE 230030Z VRB02KT 9999 FEW020 25/24 Q1011 NOSIG,WIEE,2022-10-23T00:30:00Z,-0.78,100.28,25.0,24.0,0,2,,6.21,29.852362,,,,,,TRUE,,,,,FEW,2000,,,,,,,VFR,,,,,,,,,,,,METAR,5.0
WIDD 230030Z 00000KT 9999 FEW014 26/24 Q1014 NOSIG,WIDD,2022-10-23T00:30:00Z,1.12,104.12,26.0,24.0,0,0,,6.21,29.940945,,,,,,TRUE,,,,,FEW,1400,,,,,,,VFR,,,,,,,,,,,,METAR,26.0
WIBB 230030Z 00000KT 8000 SCT013 25/23 Q1011,WIBB,2022-10-23T00:30:00Z,0.47,101.45,25.0,23.0,0,0,,4.97,29.852362,,,,,,,,,,,SCT,1300,,,,,,,MVFR,,,,,,,,,,,,METAR,41.0
WBSB 230030Z 18005KT 9999 FEW004 SCT140 BKN280 27/26 Q1012 NOSIG,WBSB,2022-10-23T00:30:00Z,4.93,114.92,27.0,26.0,180,5,,6.21,29.88189,,,,,,TRUE,,,,,FEW,400,SCT,14000,BKN,28000,,,VFR,,,,,,,,,,,,METAR,15.0
WBKK 230030Z 10004KT 010V160 9999 FEW014 28/25 Q1012 RETS NOSIG,WBKK,2022-10-23T00:30:00Z,5.93,116.05,28.0,25.0,100,4,,6.21,29.88189,,,,,,TRUE,,,,,FEW,1400,,,,,,,VFR,,,,,,,,,,,,METAR,9.0
WBGG 230030Z VRB01KT 9999 FEW020 25/24 Q1012 NOSIG,WBGG,2022-10-23T00:30:00Z,1.48,110.35,25.0,24.0,0,1,,6.21,29.88189,,,,,,TRUE,,,,,FEW,2000,,,,,,,VFR,,,,,,,,,,,,METAR,26.0
WARR 230030Z 24005KT 9999 FEW020 28/26 Q1011 NOSIG,WARR,2022-10-23T00:30:00Z,-7.37,112.78,28.0,26.0,240,5,,6.21,29.852362,,,,,,TRUE,,,,,FEW,2000,,,,,,,VFR,,,,,,,,,,,,METAR,3.0
WAPP 230030Z 17004KT 130V200 9999 FEW018 32/25 Q1010 NOSIG,WAPP,2022-10-23T00:30:00Z,-3.7,128.08,32.0,25.0,170,4,,6.21,29.822834,,,,,,TRUE,,,,,FEW,1800,,,,,,,VFR,,,,,,,,,,,,METAR,20.0
WAOO 230030Z 02005KT 9999 FEW020 27/24 Q1012 NOSIG,WAOO,2022-10-23T00:30:00Z,-3.45,114.77,27.0,24.0,20,5,,6.21,29.88189,,,,,,TRUE,,,,,FEW,2000,,,,,,,VFR,,,,,,,,,,,,METAR,23.0
WAMM 230030Z VRB02KT 9000 SCT018 28/25 Q1011 NOSIG,WAMM,2022-10-23T00:30:00Z,1.55,124.92,28.0,25.0,0,2,,5.59,29.852362,,,,,,TRUE,,,,,SCT,1800,,,,,,,VFR,,,,,,,,,,,,METAR,86.0
WALL 230030Z 20004KT 9999 FEW020 28/26 Q1011 NOSIG,WALL,2022-10-23T00:30:00Z,-1.27,116.9,28.0,26.0,200,4,,6.21,29.852362,,,,,,TRUE,,,,,FEW,2000,,,,,,,VFR,,,,,,,,,,,,METAR,3.0
WAKK 230030Z 24006KT 9999 SCT016 29/24 Q1010 NOSIG,WAKK,2022-10-23T00:30:00Z,-8.52,140.42,29.0,24.0,240,6,,6.21,29.822834,,,,,,TRUE,,,,,SCT,1600,,,,,,,VFR,,,,,,,,,,,,METAR,5.0
WAJJ 230030Z 16006KT 9999 FEW013 31/23 Q1009 NOSIG,WAJJ,2022-10-23T00:30:00Z,-2.58,140.52,31.0,23.0,160,6,,6.21,29.793306,,,,,,TRUE,,,,,FEW,1300,,,,,,,VFR,,,,,,,,,,,,METAR,93.0
WAHS 230030Z 15003KT 6000 SCT013 28/25 Q1011,WAHS,2022-10-23T00:30:00Z,-6.98,110.38,28.0,25.0,150,3,,3.73,29.852362,,,,,,,,,,,SCT,1300,,,,,,,MVFR,,,,,,,,,,,,METAR,3.0
WADL 230030Z VRB01KT 8000 FEW016 28/25 Q1012 NOSIG,WADL,2022-10-23T00:30:00Z,-8.75,116.28,28.0,25.0,0,1,,4.97,29.88189,,,,,,TRUE,,,,,FEW,1600,,,,,,,MVFR,,,,,,,,,,,,METAR,97.0
WADD 230030Z 32004KT 290V350 9999 FEW017 28/26 Q1011 NOSIG,WADD,2022-10-23T00:30:00Z,-8.73,115.17,28.0,26.0,320,4,,6.21,29.852362,,,,,,TRUE,,,,,FEW,1700,,,,,,,VFR,,,,,,,,,,,,METAR,3.0
WABB 230030Z 30005KT 120V300 9000 -RA SCT018 BKN100 28/26 Q1010 NOSIG,WABB,2022-10-23T00:30:00Z,-1.18,136.12,28.0,26.0,300,5,,5.59,29.822834,,,,,,TRUE,,,,-RA,SCT,1800,BKN,10000,,,,,VFR,,,,,,,,,,,,METAR,12.0
WAAA 230030Z 10002KT 9999 FEW019 28/22 Q1012 NOSIG,WAAA,2022-10-23T00:30:00Z,-5.07,119.55,28.0,22.0,100,2,,6.21,29.88189,,,,,,TRUE,,,,,FEW,1900,,,,,,,VFR,,,,,,,,,,,,METAR,13.0
VYYY 230030Z 04003KT 7000 SCT015 FEW020CB BKN100 26/25 Q1012 NOSIG,VYYY,2022-10-23T00:30:00Z,16.9,96.13,26.0,25.0,40,3,,4.35,29.88189,,,,,,TRUE,,,,,SCT,1500,FEW,2000,BKN,10000,,,MVFR,,,,,,,,,,,,METAR,31.0
VYMD 230030Z 00000KT 6000 FEW020 23/21 Q1012 NOSIG,VYMD,2022-10-23T00:30:00Z,21.7,95.98,23.0,21.0,0,0,,3.73,29.88189,,,,,,TRUE,,,,,FEW,2000,,,,,,,MVFR,,,,,,,,,,,,METAR,87.0
VVTS 230030Z VRB01KT 9999 FEW020 28/26 Q1012 NOSIG,VVTS,2022-10-23T00:30:00Z,10.82,106.67,28.0,26.0,0,1,,6.21,29.88189,,,,,,TRUE,,,,,FEW,2000,,,,,,,VFR,,,,,,,,,,,,METAR,10.0
VVPQ 230030Z 00000KT 9999 SCT015 28/24 Q1012 NOSIG,VVPQ,2022-10-23T00:30:00Z,10.23,103.97,28.0,24.0,0,0,,6.21,29.88189,,,,,,TRUE,,,,,SCT,1500,,,,,,,VFR,,,,,,,,,,,,METAR,8.0
VVPB 230030Z VRB02KT 9999 FEW015 BKN060 25/22 Q1017 NOSIG,VVPB,2022-10-23T00:30:00Z,16.38,107.7,25.0,22.0,0,2,,6.21,30.029528,,,,,,TRUE,,,,,FEW,1500,BKN,6000,,,,,VFR,,,,,,,,,,,,METAR,15.0
VVNB 230030Z 32003KT 7000 NSC 24/22 Q1017 NOSIG,VVNB,2022-10-23T00:30:00Z,21.22,105.8,24.0,22.0,320,3,,4.35,30.029528,,,,,,TRUE,,,,,CLR,,,,,,,,MVFR,,,,,,,,,,,,METAR,6.0
VVDN 230030Z 00000KT 8000 FEW015 BKN060 26/22 Q1016 NOSIG,VVDN,2022-10-23T00:30:00Z,16.03,108.2,26.0,22.0,0,0,,4.97,30.0,,,,,,TRUE,,,,,FEW,1500,BKN,6000,,,,,MVFR,,,,,,,,,,,,METAR,7.0
VVCT 230030Z 00000KT 8000 FEW013 SCT050 26/26 Q1013 NOSIG,VVCT,2022-10-23T00:30:00Z,10.08,105.72,26.0,26.0,0,0,,4.97,29.911417,,,,,,TRUE,,,,,FEW,1300,SCT,5000,,,,,MVFR,,,,,,,,,,,,METAR,6.0
VVCR 230030Z VRB02KT 9999 FEW015 28/23 Q1013 NOSIG,VVCR,2022-10-23T00:30:00Z,12.0,109.22,28.0,23.0,0,2,,6.21,29.911417,,,,,,TRUE,,,,,FEW,1500,,,,,,,VFR,,,,,,,,,,,,METAR,12.0
VVCI 230030Z VRB02KT 2600 BR NSC 26/24 Q1016 BECMG TL0100 4000 BR,VVCI,2022-10-23T00:30:00Z,20.82,106.73,26.0,24.0,0,2,,1.62,30.0,,,,,,,,,,BR,CLR,,,,,,,,IFR,,,,,,,,,,,,METAR,6.0
VTSS 230030Z 05003KT 9999 -RA SCT020 SCT028 BKN100 25/25 Q1012 NOSIG,VTSS,2022-10-23T00:30:00Z,6.92,100.38,25.0,25.0,50,3,,6.21,29.88189,,,,,,TRUE,,,,-RA,SCT,2000,SCT,2800,BKN,10000,,,VFR,,,,,,,,,,,,METAR,28.0
VTSP 230030Z 09010KT 9999 FEW020 26/25 Q1011 NOSIG,VTSP,2022-10-23T00:30:00Z,8.12,98.32,26.0,25.0,90,10,,6.21,29.852362,,,,,,TRUE,,,,,FEW,2000,,,,,,,VFR,,,,,,,,,,,,METAR,12.0
VTCC 230030Z 14006KT 9999 SCT012 OVC035 23/22 Q1017 NOSIG,VTCC,2022-10-23T00:30:00Z,18.77,98.97,23.0,22.0,140,6,,6.21,30.029528,,,,,,TRUE,,,,,SCT,1200,OVC,3500,,,,,VFR,,,,,,,,,,,,METAR,308.0
VTBU 230030Z 02005KT 5000 BR FEW020 SCT100 26/24 Q1013 NOSIG,VTBU,2022-10-23T00:30:00Z,12.68,101.0,26.0,24.0,20,5,,3.11,29.911417,,,,,,TRUE,,,,BR,FEW,2000,SCT,10000,,,,,MVFR,,,,,,,,,,,,METAR,12.0
VTBS 230030Z 03003KT 340V060 5000 BR FEW010 27/24 Q1013 NOSIG,VTBS,2022-10-23T00:30:00Z,13.68,100.75,27.0,24.0,30,3,,3.11,29.911417,,,,,,TRUE,,,,BR,FEW,1000,,,,,,,MVFR,,,,,,,,,,,,METAR,1.0
VTBD 230030Z VRB02KT 9000 FEW020 27/26 Q1013 NOSIG,VTBD,2022-10-23T00:30:00Z,13.92,100.6,27.0,26.0,0,2,,5.59,29.911417,,,,,,TRUE,,,,,FEW,2000,,,,,,,VFR,,,,,,,,,,,,METAR,6.0
VQPR 230030Z VRB02KT 9999 FEW030 03/02 Q1032,VQPR,2022-10-23T00:30:00Z,27.4,89.43,3.0,2.0,0,2,,6.21,30.47244,,,,,,,,,,,FEW,3000,,,,,,,VFR,,,,,,,,,,,,METAR,2227.0
VOVZ 230030Z 30003KT 4000 HZ FEW018 SCT080 24/18 Q1010 NOSIG,VOVZ,2022-10-23T00:30:00Z,17.72,83.22,24.0,18.0,300,3,,2.49,29.822834,,,,,,TRUE,,,,HZ,FEW,1800,SCT,8000,,,,,IFR,,,,,,,,,,,,METAR,4.0
VOTV 230030Z 00000KT 2500 BR SCT015 BKN080 26/24 Q1011 BECMG 3000 BR,VOTV,2022-10-23T00:30:00Z,8.48,76.92,26.0,24.0,0,0,,1.55,29.852362,,,,,,,,,,BR,SCT,1500,BKN,8000,,,,,IFR,,,,,,,,,,,,METAR,9.0
VOTR 230030Z VRB02KT 2000 BR SCT016 SCT100 24/23 Q1011 TEMPO 1500 BR,VOTR,2022-10-23T00:30:00Z,10.77,78.72,24.0,23.0,0,2,,1.24,29.852362,,,,,,,,,,BR,SCT,1600,SCT,10000,,,,,IFR,,,,,,,,,,,,METAR,90.0
VOTP 230030Z 33005KT 4000 BR FEW020 24/21 Q1011 NOSIG,VOTP,2022-10-23T00:30:00Z,13.63,79.55,24.0,21.0,330,5,,2.49,29.852362,,,,,,TRUE,,,,BR,FEW,2000,,,,,,,IFR,,,,,,,,,,,,METAR,103.0
VOTK 230030Z 00000KT 4000 BR FEW020 OVC080 26/24 Q1011 TEMPO 5000 HZ,VOTK,2022-10-23T00:30:00Z,8.72,78.02,26.0,24.0,0,0,,2.49,29.852362,,,,,,,,,,BR,FEW,2000,OVC,8000,,,,,IFR,,,,,,,,,,,,METAR,25.0
VORY 230030Z 35003KT 5000 BR NSC 24/22 Q1010 NOSIG,VORY,2022-10-23T00:30:00Z,17.1,81.82,24.0,22.0,350,3,,3.11,29.822834,,,,,,TRUE,,,,BR,CLR,,,,,,,,MVFR,,,,,,,,,,,,METAR,47.0
VOPC 230030Z VRB02KT 3000 BR SCT015 26/24 Q1011 BECMG 4000 BR,VOPC,2022-10-23T00:30:00Z,11.97,79.82,26.0,24.0,0,2,,1.86,29.852362,,,,,,,,,,BR,SCT,1500,,,,,,,IFR,,,,,,,,,,,,METAR,43.0
VOPB 230030Z 20008KT 5000 VCSH SCT012 OVC080 26/25 Q1006 TEMPO 4000 -RA,VOPB,2022-10-23T00:30:00Z,11.63,92.73,26.0,25.0,200,8,,3.11,29.704725,,,,,,,,,,VCSH,SCT,1200,OVC,8000,,,,,MVFR,,,,,,,,,,,,METAR,1.0
VOMM 230030Z 34005KT 4000 BR SCT020 SCT100 27/24 Q1010 TEMPO 3000 BR,VOMM,2022-10-23T00:30:00Z,13.0,80.17,27.0,24.0,340,5,,2.49,29.822834,,,,,,,,,,BR,SCT,2000,SCT,10000,,,,,IFR,,,,,,,,,,,,METAR,7.0
VOML 230030Z 08003KT 3000 BR FEW001 25/23 Q1011 NOSIG,VOML,2022-10-23T00:30:00Z,12.97,74.88,25.0,23.0,80,3,,1.86,29.852362,,,,,,TRUE,,,,BR,FEW,100,,,,,,,IFR,,,,,,,,,,,,METAR,100.0
VOKN 230030Z 11005KT 2500 BR FEW002 25/24 Q1011 NOSIG,VOKN,2022-10-23T00:30:00Z,11.92,75.55,25.0,24.0,110,5,,1.55,29.852362,,,,,,TRUE,,,,BR,FEW,200,,,,,,,IFR,,,,,,,,,,,,METAR,105.0
VOHS 230030Z 35004KT 5000 BR SCT015 19/16 Q1016 TEMPO 3000,VOHS,2022-10-23T00:30:00Z,17.23,78.43,19.0,16.0,350,4,,3.11,30.0,,,,,,,,,,BR,SCT,1500,,,,,,,MVFR,,,,,,,,,,,,METAR,607.0
VOHB 230030Z 00000KT 6000 SCT010 20/18 Q1014,VOHB,2022-10-23T00:30:00Z,15.37,75.08,20.0,18.0,0,0,,3.73,29.940945,,,,,,,,,,,SCT,1000,,,,,,,MVFR,,,,,,,,,,,,METAR,661.0
VOCL 230030Z 07004KT 4000 BR FEW008 SCT012 FEW025CB BKN080 23/22 Q1011 BECMG 5000 BR,VOCL,2022-10-23T00:30:00Z,11.13,75.95,23.0,22.0,70,4,,2.49,29.852362,,,,,,,,,,BR,FEW,800,SCT,1200,FEW,2500,BKN,8000,IFR,,,,,,,,,,,,METAR,104.0
VOCI 230030Z 10002KT 3000 BR FEW012 BKN080 24/24 Q1011 TEMPO 2500 BR,VOCI,2022-10-23T00:30:00Z,10.15,76.4,24.0,24.0,100,2,,1.86,29.852362,,,,,,,,,,BR,FEW,1200,BKN,8000,,,,,IFR,,,,,,,,,,,,METAR,8.0
VOCB 230030Z 21002KT 3000 BR FEW012 24/23 Q1013 NOSIG,VOCB,2022-10-23T00:30:00Z,11.02,77.03,24.0,23.0,210,2,,1.86,29.911417,,,,,,TRUE,,,,BR,FEW,1200,,,,,,,IFR,,,,,,,,,,,,METAR,394.0
VOBZ 230030Z 32004KT 4000 BR NSC 23/21 Q1010 NOSIG,VOBZ,2022-10-23T00:30:00Z,16.52,80.78,23.0,21.0,320,4,,2.49,29.822834,,,,,,TRUE,,,,BR,CLR,,,,,,,,IFR,,,,,,,,,,,,METAR,26.0
VOBL 230030Z 33004KT 4000 BR SCT012 19/19 Q1016 TEMPO 2000 BR,VOBL,2022-10-23T00:30:00Z,13.2,77.7,19.0,19.0,330,4,,2.49,30.0,,,,,,,,,,BR,SCT,1200,,,,,,,IFR,,,,,,,,,,,,METAR,908.0
VOBG 230030Z 00000KT 6000 FEW012 20/18 Q1016 NOSIG,VOBG,2022-10-23T00:30:00Z,12.95,77.65,20.0,18.0,0,0,,3.73,30.0,,,,,,TRUE,,,,,FEW,1200,,,,,,,MVFR,,,,,,,,,,,,METAR,884.0
VNKT 230030Z VRB02KT 7000 FEW015 12/10 Q1024 NOSIG,VNKT,2022-10-23T00:30:00Z,27.68,85.37,12.0,10.0,0,2,,4.35,30.236221,,,,,,TRUE,,,,,FEW,1500,,,,,,,MVFR,,,,,,,,,,,,METAR,1334.0
VMMC 230030Z 01002KT 9999 SCT035 26/24 Q1015 NOSIG,VMMC,2022-10-23T00:30:00Z,22.15,113.58,26.0,24.0,10,2,,6.21,29.970472,,,,,,TRUE,,,,,SCT,3500,,,,,,,VFR,,,,,,,,,,,,METAR,1.0
VLVT 230030Z 00000KT 6000 BKN050 26/24 Q1016 NOSIG,VLVT,2022-10-23T00:30:00Z,17.98,102.57,26.0,24.0,0,0,,3.73,30.0,,,,,,TRUE,,,,,BKN,5000,,,,,,,MVFR,,,,,,,,,,,,METAR,171.0
VISM 230030Z 00000KT 5000 NSC 14/07 Q1023,VISM,2022-10-23T00:30:00Z,31.08,77.07,14.0,7.0,0,0,,3.11,30.206694,,,,,,,,,,,CLR,,,,,,,,MVFR,,,,,,,,,,,,METAR,1537.0
VILK 230030Z 00000KT 2000 R27/1000 BR NSC 21/20 Q1015 NOSIG,VILK,2022-10-23T00:30:00Z,26.75,80.88,21.0,20.0,0,0,,1.24,29.970472,,,,,,TRUE,,,,BR,CLR,,,,,,,,IFR,,,,,,,,,,,,METAR,121.0
VIJP 230030Z 00000KT 2500 FU NSC 20/14 Q1018 NOSIG,VIJP,2022-10-23T00:30:00Z,26.82,75.8,20.0,14.0,0,0,,1.55,30.059055,,,,,,TRUE,,,,FU,CLR,,,,,,,,IFR,,,,,,,,,,,,METAR,383.0
VIDP 230030Z 27003KT 2700 HZ NSC 19/13 Q1017 NOSIG,VIDP,2022-10-23T00:30:00Z,28.57,77.12,19.0,13.0,270,3,,1.68,30.029528,,,,,,TRUE,,,,HZ,CLR,,,,,,,,IFR,,,,,,,,,,,,METAR,236.0
VIAR 230030Z VRB02KT 2500 BR NSC 15/14 Q1016 NOSIG,VIAR,2022-10-23T00:30:00Z,31.7,74.8,15.0,14.0,0,2,,1.55,30.0,,,,,,TRUE,,,,BR,CLR,,,,,,,,IFR,,,,,,,,,,,,METAR,226.0
VHHH 230030Z 30003KT 9999 FEW035 27/21 Q1016 NOSIG,VHHH,2022-10-23T00:30:00Z,22.32,113.92,27.0,21.0,300,3,,6.21,30.0,,,,,,TRUE,,,,,FEW,3500,,,,,,,VFR,,,,,,,,,,,,METAR,9.0
VGHS 230030Z 00000KT 3500 HZ SCT012 BKN100 27/23 Q1011 NOSIG,VGHS,2022-10-23T00:30:00Z,23.85,90.4,27.0,23.0,0,0,,2.17,29.852362,,,,,,TRUE,,,,HZ,SCT,1200,BKN,10000,,,,,IFR,,,,,,,,,,,,METAR,11.0
VERP 230030Z 35004KT 2500 BR NSC 20/18 Q1014 NOSIG,VERP,2022-10-23T00:30:00Z,21.18,81.73,20.0,18.0,350,4,,1.55,29.940945,,,,,,TRUE,,,,BR,CLR,,,,,,,,IFR,,,,,,,,,,,,METAR,318.0
VERC 230030Z 36005KT 3000 BR SCT100 20/17 Q1017 NOSIG,VERC,2022-10-23T00:30:00Z,23.32,85.32,20.0,17.0,360,5,,1.86,30.029528,,,,,,TRUE,,,,BR,SCT,10000,,,,,,,IFR,,,,,,,,,,,,METAR,646.0
VEPT 230030Z 00000KT 2500 BR SCT100 21/20 Q1013 NOSIG,VEPT,2022-10-23T00:30:00Z,25.6,85.08,21.0,20.0,0,0,,1.55,29.911417,,,,,,TRUE,,,,BR,SCT,10000,,,,,,,IFR,,,,,,,,,,,,METAR,53.0
VEMN 230030Z 02003KT 2500 BR SCT018 BKN100 22/19 Q1015 BECMG 4000 BR,VEMN,2022-10-23T00:30:00Z,27.47,95.02,22.0,19.0,20,3,,1.55,29.970472,,,,,,,,,,BR,SCT,1800,BKN,10000,,,,,IFR,,,,,,,,,,,,METAR,111.0
VEGT 230030Z 00000KT 3000 BR SCT018 SCT100 23/23 Q1013 NOSIG,VEGT,2022-10-23T00:30:00Z,26.1,91.58,23.0,23.0,0,0,,1.86,29.911417,,,,,,TRUE,,,,BR,SCT,1800,SCT,10000,,,,,IFR,,,,,,,,,,,,METAR,50.0
VECC 230030Z 01006KT 3000 HZ FEW020 SCT100 24/21 Q1011 NOSIG,VECC,2022-10-23T00:30:00Z,22.65,88.43,24.0,21.0,10,6,,1.86,29.852362,,,,,,TRUE,,,,HZ,FEW,2000,SCT,10000,,,,,IFR,,,,,,,,,,,,METAR,11.0
VEBS 230030Z 34008KT 3000 HZ FEW020 23/22 Q1012 NOSIG,VEBS,2022-10-23T00:30:00Z,20.25,85.82,23.0,22.0,340,8,,1.86,29.88189,,,,,,TRUE,,,,HZ,FEW,2000,,,,,,,IFR,,,,,,,,,,,,METAR,42.0
VEBN 230030Z VRB01KT 1000 R27/1200 BR NSC 20/20 Q1015 BECMG 0800 MIFG,VEBN,2022-10-23T00:30:00Z,25.45,82.85,20.0,20.0,0,1,,0.62,29.970472,,,,,,,,,,BR,CLR,,,,,,,,LIFR,,,,,,,,,,,,METAR,81.0
VDSV 230030Z VRB02KT 9999 FEW017 26/24 Q1012,VDSV,2022-10-23T00:30:00Z,10.58,103.63,26.0,24.0,0,2,,6.21,29.88189,,,,,,,,,,,FEW,1700,,,,,,,VFR,,,,,,,,,,,,METAR,1.0
VDSR 230030Z 33006KT 9999 SCT015 25/23 Q1012,VDSR,2022-10-23T00:30:00Z,13.42,103.8,25.0,23.0,330,6,,6.21,29.88189,,,,,,,,,,,SCT,1500,,,,,,,VFR,,,,,,,,,,,,METAR,16.0
VDPP 230030Z VRB02KT 9999 SCT015 SCT040 28/25 Q1012,VDPP,2022-10-23T00:30:00Z,11.55,104.83,28.0,25.0,0,2,,6.21,29.88189,,,,,,,,,,,SCT,1500,SCT,4000,,,,,VFR,,,,,,,,,,,,METAR,10.0
VANP 230030Z 35003KT 3000 HZ NSC 20/16 Q1016 NOSIG,VANP,2022-10-23T00:30:00Z,21.08,79.05,20.0,16.0,350,3,,1.86,30.0,,,,,,TRUE,,,,HZ,CLR,,,,,,,,IFR,,,,,,,,,,,,METAR,309.0
VAID 230030Z 00000KT 3500 HZ NSC 16/10 Q1018 NOSIG,VAID,2022-10-23T00:30:00Z,22.72,75.8,16.0,10.0,0,0,,2.17,30.059055,,,,,,TRUE,,,,HZ,CLR,,,,,,,,IFR,,,,,,,,,,,,METAR,564.0
VABO 230030Z 12002KT 4000 HZ NSC 19/17 Q1015 NOSIG,VABO,2022-10-23T00:30:00Z,22.33,73.22,19.0,17.0,120,2,,2.49,29.970472,,,,,,TRUE,,,,HZ,CLR,,,,,,,,IFR,,,,,,,,,,,,METAR,36.0
VABB 230030Z 00000KT 2500 FU FEW020 SCT100 25/17 Q1013 NOSIG,VABB,2022-10-23T00:30:00Z,19.1,72.87,25.0,17.0,0,0,,1.55,29.911417,,,,,,TRUE,,,,FU,FEW,2000,SCT,10000,,,,,IFR,,,,,,,,,,,,METAR,14.0
VAAH 230030Z 05004KT 4000 FU NSC 20/14 Q1014 NOSIG,VAAH,2022-10-23T00:30:00Z,23.07,72.63,20.0,14.0,50,4,,2.49,29.940945,,,,,,TRUE,,,,FU,CLR,,,,,,,,IFR,,,,,,,,,,,,METAR,52.0
UWWW 230030Z 20002MPS 160V220 9999 FEW033 M02/M06 Q1024 R33/CLRD60 NOSIG RMK QFE757/1010,UWWW,2022-10-23T00:30:00Z,53.5,50.17,-2.0,-6.0,200,4,,6.21,30.236221,,,,,,TRUE,,,,,FEW,3300,,,,,,,VFR,,,,,,,,,,,,METAR,124.0
UWUU 230030Z 27004MPS 9999 OVC040 M02/M06 Q1025 R32L/0///60 NOSIG,UWUU,2022-10-23T00:30:00Z,54.57,55.87,-2.0,-6.0,270,8,,6.21,30.265747,,,,,,TRUE,,,,,OVC,4000,,,,,,,VFR,,,,,,,,,,,,METAR,137.0
UWSG 230030Z 26001MPS 9999 BKN046 04/02 Q1025 R26/CLRD70 NOSIG RMK QFE766/1021,UWSG,2022-10-23T00:30:00Z,51.72,46.17,4.0,2.0,260,2,,6.21,30.265747,,,,,,TRUE,,,,,BKN,4600,,,,,,,VFR,,,,,,,,,,,,METAR,31.0
UWPS 230030Z 20002MPS 9999 OVC026 02/01 Q1022 R20/CLRD60 NOSIG RMK QFE749,UWPS,2022-10-23T00:30:00Z,54.12,45.2,2.0,1.0,200,4,,6.21,30.177166,,,,,,TRUE,,,,,OVC,2600,,,,,,,MVFR,,,,,,,,,,,,METAR,206.0
UWOO 230030Z 00000MPS CAVOK M06/M06 Q1028 R26/CLRD65 NOSIG RMK QFE760/1014,UWOO,2022-10-23T00:30:00Z,51.8,55.47,-6.0,-6.0,0,0,,6.21,30.35433,,,,,,TRUE,,,,,CAVOK,,,,,,,,VFR,,,,,,,,,,,,METAR,90.0
UWLL 230030Z 20002MPS 9999 BKN047 02/M02 Q1023 R20/090065 NOSIG RMK QFE757/1009,UWLL,2022-10-23T00:30:00Z,54.27,48.23,2.0,-2.0,200,4,,6.21,30.206694,,,,,,TRUE,,,,,BKN,4700,,,,,,,VFR,,,,,,,,,,,,METAR,119.0
UWKS 230030Z 19004MPS 9999 SCT040 01/M01 Q1021 R24/010060 NOSIG RMK QFE751,UWKS,2022-10-23T00:30:00Z,56.08,47.35,1.0,-1.0,190,8,,6.21,30.147638,,,,,,TRUE,,,,,SCT,4000,,,,,,,VFR,,,,,,,,,,,,METAR,165.0
UWKE 230030Z 21004MPS CAVOK M04/M06 Q1023 R21/090070 NOSIG RMK QFE750/1001,UWKE,2022-10-23T00:30:00Z,55.57,52.08,-4.0,-6.0,210,8,,6.21,30.206694,,,,,,TRUE,,,,,CAVOK,,,,,,,,VFR,,,,,,,,,,,,METAR,193.0
UWKD 230030Z 20003MPS 9999 BKN041 M00/M03 Q1022 R29/CLRD60 NOSIG RMK QFE755/1007,UWKD,2022-10-23T00:30:00Z,55.62,49.28,0.0,-3.0,200,6,,6.21,30.177166,,,,,,TRUE,,,,,BKN,4100,,,,,,,VFR,,,,,,,,,,,,METAR,114.0
UWGG 230030Z 21004MPS 9999 SCT020 03/M00 Q1020 R18L/090060 NOSIG,UWGG,2022-10-23T00:30:00Z,56.23,43.78,3.0,0.0,210,8,,6.21,30.11811,,,,,,TRUE,,,,,SCT,2000,,,,,,,VFR,,,,,,,,,,,,METAR,73.0
UUYY 230030Z 21004MPS CAVOK M03/M05 Q1011 R18/CLRD61 NOSIG RMK QFE750/1000,UUYY,2022-10-23T00:30:00Z,61.65,50.83,-3.0,-5.0,210,8,,6.21,29.852362,,,,,,TRUE,,,,,CAVOK,,,,,,,,VFR,,,,,,,,,,,,METAR,107.0
UUWW 230030Z 16003MPS 9999 BKN040 04/02 Q1016 R24/000070 NOSIG,UUWW,2022-10-23T00:30:00Z,55.6,37.27,4.0,2.0,160,6,,6.21,30.0,,,,,,TRUE,,,,,BKN,4000,,,,,,,VFR,,,,,,,,,,,,METAR,195.0
UUOO 230030Z 15003MPS 9999 BKN031 04/01 Q1020 R30/010070 NOSIG RMK QFE752,UUOO,2022-10-23T00:30:00Z,51.82,39.23,4.0,1.0,150,6,,6.21,30.11811,,,,,,TRUE,,,,,BKN,3100,,,,,,,VFR,,,,,,,,,,,,METAR,154.0
UUOL 230030Z 17005MPS 9999 OVC043 04/01 Q1020 R15/090060 NOSIG,UUOL,2022-10-23T00:30:00Z,52.7,39.53,4.0,1.0,170,10,,6.21,30.11811,,,,,,TRUE,,,,,OVC,4300,,,,,,,VFR,,,,,,,,,,,,METAR,176.0
UUOK 230030Z AUTO 16005MPS 9999 // 06/05 Q1017 RMK QFE744/0992,UUOK,2022-10-23T00:30:00Z,51.75,36.28,6.0,5.0,160,10,,6.21,30.029528,,,TRUE,,,,,,,,,,,,,,,,,,,,,,,,,,,,METAR,203.0
UUOB 230030Z 16004MPS CAVOK 07/04 Q1018 R11/010070 NOSIG,UUOB,2022-10-23T00:30:00Z,50.65,36.58,7.0,4.0,160,8,,6.21,30.059055,,,,,,TRUE,,,,,CAVOK,,,,,,,,VFR,,,,,,,,,,,,METAR,218.0
UUMO 230030Z 18003MPS CAVOK 05/04 Q1016 R25/CLRD60 NOSIG RMK QFE747/0996,UUMO,2022-10-23T00:30:00Z,55.52,37.5,5.0,4.0,180,6,,6.21,30.0,,,,,,TRUE,,,,,CAVOK,,,,,,,,VFR,,,,,,,,,,,,METAR,167.0
UUEE 230030Z 18004MPS 9999 BKN041 05/02 Q1016 R24L/CLRD62 NOSIG,UUEE,2022-10-23T00:30:00Z,55.97,37.42,5.0,2.0,180,8,,6.21,30.0,,,,,,TRUE,,,,,BKN,4100,,,,,,,VFR,,,,,,,,,,,,METAR,186.0
UUDL 230030Z 19003MPS 9999 BKN048 04/03 Q1016 R23/////// NOSIG RMK QFE754,UUDL,2022-10-23T00:30:00Z,57.57,40.17,4.0,3.0,190,6,,6.21,30.0,,,,,,TRUE,,,,,BKN,4800,,,,,,,VFR,,,,,,,,,,,,METAR,88.0
UUDD 230030Z 18003G08MPS 9999 OVC041 04/02 Q1017 R14R/CLRD60 NOSIG,UUDD,2022-10-23T00:30:00Z,55.4,37.9,4.0,2.0,180,6,16,6.21,30.029528,,,,,,TRUE,,,,,OVC,4100,,,,,,,VFR,,,,,,,,,,,,METAR,165.0
UUBW 230030Z 17003MPS 9999 BKN046 05/03 Q1017 R30/010060 NOSIG,UUBW,2022-10-23T00:30:00Z,55.55,38.15,5.0,3.0,170,6,,6.21,30.029528,,,,,,TRUE,,,,,BKN,4600,,,,,,,VFR,,,,,,,,,,,,METAR,111.0
UUBP 230030Z AUTO 12002MPS 9999 ///012 06/04 Q1014 RMK QFE742/0990,UUBP,2022-10-23T00:30:00Z,53.22,34.18,6.0,4.0,120,4,,6.21,29.940945,,,TRUE,,,,,,,,,,,,,,,,,,,,,,,,,,,,METAR,197.0
UUBC 230030Z AUTO 14003MPS 9999 // 01/00 Q1016 RMK QFE745/0993,UUBC,2022-10-23T00:30:00Z,54.55,36.37,1.0,0.0,140,6,,6.21,30.0,,,TRUE,,,,,,,,,,,,,,,,,,,,,,,,,,,,METAR,198.0
UTTT 230030Z 35010KT 320V040 9999 BKN060CB 11/04 Q1027 R08L/CLRD70 NOSIG,UTTT,2022-10-23T00:30:00Z,41.27,69.27,11.0,4.0,350,10,,6.21,30.324802,,,,,,TRUE,,,,,BKN,6000,,,,,,,VFR,,,,,,,,,,,,METAR,429.0
UTST 230030Z 22014KT 5000 HZ NSC 17/07 Q1025 R25/CLRD70 TEMPO 24016G26KT 2400 -DS,UTST,2022-10-23T00:30:00Z,37.28,67.32,17.0,7.0,220,14,,3.11,30.265747,,,,,,,,,,HZ,CLR,,,,,,,,MVFR,,,,,,,,,,,,METAR,311.0
UTSS 230030Z 33008KT 9999 BKN052CB 12/07 Q1027 R09/70D NOSIG,UTSS,2022-10-23T00:30:00Z,39.7,66.98,12.0,7.0,330,8,,6.21,30.324802,,,,,,TRUE,,,,,BKN,5200,,,,,,,VFR,,,,,,,,,,,,METAR,665.0
UTSK 230030Z 36006KT CAVOK 12/04 Q1027 R34/CLRD70,UTSK,2022-10-23T00:30:00Z,38.8,65.77,12.0,4.0,360,6,,6.21,30.324802,,,,,,,,,,,CAVOK,,,,,,,,VFR,,,,,,,,,,,,METAR,399.0
UTSB 230030Z 32004KT 9999 SCT050CB 10/09 Q1028 R01/190060 NOSIG,UTSB,2022-10-23T00:30:00Z,39.77,64.48,10.0,9.0,320,4,,6.21,30.35433,,,,,,TRUE,,,,,SCT,5000,,,,,,,VFR,,,,,,,,,,,,METAR,225.0
UTSA 230030Z 31006KT 9999 NSC 09/08 Q1028 R25/290560 NOSIG,UTSA,2022-10-23T00:30:00Z,40.12,65.17,9.0,8.0,310,6,,6.21,30.35433,,,,,,TRUE,,,,,CLR,,,,,,,,VFR,,,,,,,,,,,,METAR,346.0
UTNU 230030Z 30005KT CAVOK 04/02 Q1029 R31/CLRD70 NOSIG,UTNU,2022-10-23T00:30:00Z,41.58,60.63,4.0,2.0,300,5,,6.21,30.383858,,,,,,TRUE,,,,,CAVOK,,,,,,,,VFR,,,,,,,,,,,,METAR,97.0
UTNN 230030Z 31004KT 9999 BKN035 07/02 Q1030 R33/CLRD60 NOSIG,UTNN,2022-10-23T00:30:00Z,42.48,59.63,7.0,2.0,310,4,,6.21,30.413385,,,,,,TRUE,,,,,BKN,3500,,,,,,,VFR,,,,,,,,,,,,METAR,76.0
UTFN 230030Z VRB02KT 9999 NSC 10/05 Q1023 R28/CLRD70 NOSIG,UTFN,2022-10-23T00:30:00Z,40.98,71.57,10.0,5.0,0,2,,6.21,30.206694,,,,,,TRUE,,,,,CLR,,,,,,,,VFR,,,,,,,,,,,,METAR,477.0
UTFF 230030Z 25012KT 6000 NSC 14/06 Q1024 R99/CLRD70,UTFF,2022-10-23T00:30:00Z,40.37,71.73,14.0,6.0,250,12,,3.73,30.236221,,,,,,,,,,,CLR,,,,,,,,MVFR,,,,,,,,,,,,METAR,612.0
UTDT 230030Z VRB01MPS 9999 SCT090 12/07 Q1024 R35/CLRD70 RMK QFE728/0971,UTDT,2022-10-23T00:30:00Z,37.87,68.87,12.0,7.0,0,2,,6.21,30.236221,,,,,,,,,,,SCT,9000,,,,,,,VFR,,,,,,,,,,,,METAR,443.0
UTDL 230030Z 25009MPS 7000 SCT045CB OVC080 13/07 Q1026 R26/CLRD70 NOSIG RMK QFE731/0975,UTDL,2022-10-23T00:30:00Z,40.22,69.7,13.0,7.0,250,17,,4.35,30.295275,,,,,,TRUE,,,,,SCT,4500,OVC,8000,,,,,MVFR,,,,,,,,,,,,METAR,436.0
UTDK 230030Z 03005MPS 9999 NSC 14/04 Q1026 R01/09//70 RMK QFE712/0949,UTDK,2022-10-23T00:30:00Z,37.98,69.8,14.0,4.0,30,10,,6.21,30.295275,,,,,,,,,,,CLR,,,,,,,,VFR,,,,,,,,,,,,METAR,675.0
UTDD 230030Z 31002MPS 9999 FEW066CB BKN130 12/04 Q1026 R09/D NOSIG RMK QFE700/0934,UTDD,2022-10-23T00:30:00Z,38.53,68.82,12.0,4.0,310,4,,6.21,30.295275,,,,,,TRUE,,,,,FEW,6600,BKN,13000,,,,,VFR,,,,,,,,,,,,METAR,785.0
USTR 230030Z 29008MPS 9999 BKN038 00/M05 Q1013 R30/CLRD65 R21/CLRD65 TEMPO 28009G15MPS,USTR,2022-10-23T00:30:00Z,57.18,65.32,0.0,-5.0,290,16,,6.21,29.911417,,,,,,,,,,,BKN,3800,,,,,,,VFR,,,,,,,,,,,,METAR,93.0
USSS 230030Z 27008MPS 9000 -SHSN OVC034CB M00/M06 Q1017 R26R/010060 R26L/010060 NOSIG RMK QFE742/0990,USSS,2022-10-23T00:30:00Z,56.75,60.78,0.0,-6.0,270,16,,5.59,30.029528,,,,,,TRUE,,,,-SHSN,OVC,3400,,,,,,,VFR,,,,,,,,,,,,METAR,222.0
USRR 230030Z 28004MPS CAVOK M04/M05 Q0999 R25/32//55 NOSIG RMK QFE744,USRR,2022-10-23T00:30:00Z,61.33,73.42,-4.0,-5.0,280,8,,6.21,29.498032,,,,,,TRUE,,,,,CAVOK,,,,,,,,VFR,,,,,,,,,,,,METAR,52.0
USPP 230030Z 25004MPS 9999 BKN037 M01/M07 Q1019 R21/090060 TEMPO 30003G13MPS RMK QFE753,USPP,2022-10-23T00:30:00Z,57.92,56.02,-1.0,-7.0,250,8,,6.21,30.088583,,,,,,,,,,,BKN,3700,,,,,,,VFR,,,,,,,,,,,,METAR,120.0
USNN 230030Z 30002MPS 260V350 9999 SCT032 M01/M03 Q0998 R21/0///65 NOSIG RMK QFE743,USNN,2022-10-23T00:30:00Z,60.95,76.48,-1.0,-3.0,300,4,,6.21,29.468504,,,,,,TRUE,,,,,SCT,3200,,,,,,,VFR,,,,,,,,,,,,METAR,52.0
USHH 230030Z 27004MPS CAVOK M02/M03 Q1003 R24/010060 NOSIG,USHH,2022-10-23T00:30:00Z,61.03,69.08,-2.0,-3.0,270,8,,6.21,29.616142,,,,,,TRUE,,,,,CAVOK,,,,,,,,VFR,,,,,,,,,,,,METAR,46.0
USDA 230030Z 33006MPS 9999 -SN FEW008 M03/M03 Q0987 NOSIG RMK QFE739/0985,USDA,2022-10-23T00:30:00Z,71.2,72.05,-3.0,-3.0,330,12,,6.21,29.143702,,,,,,TRUE,,,,-SN,FEW,800,,,,,,,VFR,,,,,,,,,,,,METAR,5.0
USCM 230030Z 13002MPS 9999 SCT032 M03/M09 Q1022 R36/090060 NOSIG RMK QFE728,USCM,2022-10-23T00:30:00Z,53.4,58.75,-3.0,-9.0,130,4,,6.21,30.177166,,,,,,TRUE,,,,,SCT,3200,,,,,,,VFR,,,,,,,,,,,,METAR,425.0
USCC 230030Z 29007MPS 9999 BKN030 00/M07 Q1019 R27/000060 NOSIG RMK QFE744,USCC,2022-10-23T00:30:00Z,55.3,61.5,0.0,-7.0,290,14,,6.21,30.088583,,,,,,TRUE,,,,,BKN,3000,,,,,,,MVFR,,,,,,,,,,,,METAR,227.0
URWW 230030Z 18003MPS 9999 BKN046 04/01 Q1025 R24/010070 TEMPO 0300 FG OVC002,URWW,2022-10-23T00:30:00Z,48.78,44.33,4.0,1.0,180,6,,6.21,30.265747,,,,,,,,,,,BKN,4600,,,,,,,VFR,,,,,,,,,,,,METAR,131.0
URWI 230030Z AUTO 19004MPS 9999 // NSC 02/M03 Q1027,URWI,2022-10-23T00:30:00Z,46.37,44.33,2.0,-3.0,190,8,,6.21,30.324802,,,TRUE,,,,,,,,CLR,,,,,,,,VFR,,,,,,,,,,,,METAR,145.0
URWA 230030Z 00000MPS 7000 NSC 00/M00 Q1029 R27/010070 TEMPO 0400 FZFG OVC002 RMK QFE773/1031,URWA,2022-10-23T00:30:00Z,46.28,47.98,0.0,0.0,0,0,,4.35,30.383858,,,,,,,,,,,CLR,,,,,,,,MVFR,,,,,,,,,,,,METAR,-19.0
URSS 230030Z 04006MPS 9999 NSC 09/05 Q1024 R02/010070 R06/010070 NOSIG RMK R06/04003MPS QFE767,URSS,2022-10-23T00:30:00Z,43.45,39.92,9.0,5.0,40,12,,6.21,30.236221,,,,,,TRUE,,,,,CLR,,,,,,,,VFR,,,,,,,,,,,,METAR,4.0
URRP 230030Z 16002MPS 9999 FEW/// 07/03 Q1024 R23/CLRD70 NOSIG RMK QFE760/1014,URRP,2022-10-23T00:30:00Z,47.5,39.92,7.0,3.0,160,4,,6.21,30.236221,,,,,,TRUE,,,,,,,,,,,,,,,,,,,,,,,,,METAR,73.0
URMT 230030Z 22003MPS CAVOK 04/01 Q1025 R25/010070 NOSIG RMK QFE730,URMT,2022-10-23T00:30:00Z,45.12,42.12,4.0,1.0,220,6,,6.21,30.265747,,,,,,TRUE,,,,,CAVOK,,,,,,,,VFR,,,,,,,,,,,,METAR,448.0
URMO 230030Z AUTO 12002MPS 9999 // ///////// M01/M01 Q1027 RMK QFE726/0968,URMO,2022-10-23T00:30:00Z,43.2,44.6,-1.0,-1.0,120,4,,6.21,30.324802,,,TRUE,,,,,,,,,,,,,,,,,,,,,,,,,,,,METAR,505.0
URMM 230030Z 29002MPS 8000 NSC 01/01 Q1026 R30/090070 NOSIG RMK QFE741/0988,URMM,2022-10-23T00:30:00Z,44.22,43.07,1.0,1.0,290,4,,4.97,30.295275,,,,,,TRUE,,,,,CLR,,,,,,,,MVFR,,,,,,,,,,,,METAR,318.0
URML 230030Z 27001MPS 9000 BKN042 10/08 Q1028 R32/01//70 TEMPO 2000 BR SCT006 RMK QFE770/1027,URML,2022-10-23T00:30:00Z,42.82,47.65,10.0,8.0,270,2,,5.59,30.35433,,,,,,,,,,,BKN,4200,,,,,,,VFR,,,,,,,,,,,,METAR,4.0
URMG 230030Z 00000MPS CAVOK 02/01 Q1027 R26/090070 NOSIG RMK QFE756/1008,URMG,2022-10-23T00:30:00Z,43.38,45.7,2.0,1.0,0,0,,6.21,30.324802,,,,,,TRUE,,,,,CAVOK,,,,,,,,VFR,,,,,,,,,,,,METAR,160.0
URKK 230030Z 08002MPS 9000 FEW/// 03/02 Q1025 R05R/CLRD70 TEMPO 0200 FG BKN002 RMK QFE765,URKK,2022-10-23T00:30:00Z,45.03,39.15,3.0,2.0,80,4,,5.59,30.265747,,,,,,,,,,,,,,,,,,,,,,,,,,,,,,,METAR,29.0
URKA 230030Z 14004MPS 9999 FEW035 10/06 Q1023 R22/010070 NOSIG RMK QFE762/1016,URKA,2022-10-23T00:30:00Z,45.0,37.35,10.0,6.0,140,8,,6.21,30.206694,,,,,,TRUE,,,,,FEW,3500,,,,,,,VFR,,,,,,,,,,,,METAR,41.0
UOOO 230030Z 23004MPS 9999 -SHSN BKN019CB M03/M03 Q0988 R19/39//42 NOSIG RMK QFE725/0967,UOOO,2022-10-23T00:30:00Z,69.32,87.33,-3.0,-3.0,230,8,,6.21,29.17323,,,,,,TRUE,,,,-SHSN,BKN,1900,,,,,,,MVFR,,,,,,,,,,,,METAR,177.0
UNWW 230030Z 20017G27MPS 9999 -SHRA BKN030CB 15/04 Q1001 WS R19 R19/09//60 NOSIG RMK QFE724,UNWW,2022-10-23T00:30:00Z,53.82,86.88,15.0,4.0,200,33,52,6.21,29.557087,,,,,,TRUE,,,,-SHRA,BKN,3000,,,,,,,MVFR,,,,,,,,,,,,METAR,307.0
UNTT 230030Z 20009MPS 9999 BKN042CB 10/08 Q0989 R21/290250 NOSIG RMK QFE727,UNTT,2022-10-23T00:30:00Z,56.38,85.22,10.0,8.0,200,17,,6.21,29.202755,,,,,,TRUE,,,,,BKN,4200,,,,,,,VFR,,,,,,,,,,,,METAR,179.0
UNOO 230030Z 31007MPS 9999 BKN033CB M01/M03 Q1005 R25/690245 NOSIG RMK QFE745,UNOO,2022-10-23T00:30:00Z,54.97,73.32,-1.0,-3.0,310,14,,6.21,29.675198,,,,,,TRUE,,,,,BKN,3300,,,,,,,VFR,,,,,,,,,,,,METAR,85.0
UNNT 230030Z 23016G26MPS 6000 -SHRA BKN020CB OVC046 09/07 Q0992 R25/290155 R34/090070 NOSIG RMK QFE734/0979,UNNT,2022-10-23T00:30:00Z,55.02,82.65,9.0,7.0,230,31,50,3.73,29.291338,,,,,,TRUE,,,,-SHRA,BKN,2000,OVC,4600,,,,,MVFR,,,,,,,,,,,,METAR,106.0
UNKL 230030Z 22003MPS CAVOK 11/04 Q1000 R29/190060 NOSIG RMK QFE725,UNKL,2022-10-23T00:30:00Z,56.17,92.48,11.0,4.0,220,6,,6.21,29.52756,,,,,,TRUE,,,,,CAVOK,,,,,,,,VFR,,,,,,,,,,,,METAR,278.0
UNEE 230030Z 19010G17MPS 9999 SCT040CB 11/06 Q0994 R23/190055 NOSIG RMK QFE723,UNEE,2022-10-23T00:30:00Z,55.27,86.1,11.0,6.0,190,19,33,6.21,29.350393,,,,,,TRUE,,,,,SCT,4000,,,,,,,VFR,,,,,,,,,,,,METAR,261.0
UNBB 230030Z 23012G19MPS 9999 -SHRA BKN026CB 10/05 Q1000 R24/190057 NOSIG RMK QFE728,UNBB,2022-10-23T00:30:00Z,53.37,83.53,10.0,5.0,230,23,37,6.21,29.52756,,,,,,TRUE,,,,-SHRA,BKN,2600,,,,,,,MVFR,,,,,,,,,,,,METAR,249.0
UNAA 230030Z 35002MPS CAVOK 02/02 Q1005 R02/CLRD65 NOSIG RMK QFE731,UNAA,2022-10-23T00:30:00Z,53.75,91.4,2.0,2.0,350,4,,6.21,29.675198,,,,,,TRUE,,,,,CAVOK,,,,,,,,VFR,,,,,,,,,,,,METAR,249.0
UMKK 230030Z 25003MPS 4400 BR FEW009 OVC022 12/12 Q1012 R24/290095 NOSIG RMK QFE758/1010,UMKK,2022-10-23T00:30:00Z,54.88,20.57,12.0,12.0,250,6,,2.73,29.88189,,,,,,TRUE,,,,BR,FEW,900,OVC,2200,,,,,IFR,,,,,,,,,,,,METAR,6.0
ULMM 230030Z 26002MPS 230V300 9999 SCT007 BKN019CB 00/00 Q0985 R31/350138 NOSIG RMK OBST OBSC QFE732,ULMM,2022-10-23T00:30:00Z,68.78,32.75,0.0,0.0,260,4,,6.21,29.084646,,,,,,TRUE,,,,,SCT,700,BKN,1900,,,,,MVFR,,,,,,,,,,,,METAR,79.0
ULLI 230030Z 21003MPS 140V260 9999 SCT031 04/02 Q1008 R28L/090060 NOSIG,ULLI,2022-10-23T00:30:00Z,59.8,30.27,4.0,2.0,210,6,,6.21,29.763779,,,,,,TRUE,,,,,SCT,3100,,,,,,,VFR,,,,,,,,,,,,METAR,25.0
ULAA 230030Z 22005MPS 150V250 9999 BKN016 04/02 Q0996 R26/190065 NOSIG RMK QFE746/0995,ULAA,2022-10-23T00:30:00Z,64.6,40.72,4.0,2.0,220,10,,6.21,29.409449,,,,,,TRUE,,,,,BKN,1600,,,,,,,MVFR,,,,,,,,,,,,METAR,10.0
UIUU 230030Z VRB01MPS 7000 FEW001 M06/M07 Q1022 R26/CLRD60 NOSIG RMK QBB040 MT OBSC QFE722/0963,UIUU,2022-10-23T00:30:00Z,51.8,107.45,-6.0,-7.0,0,2,,4.35,30.177166,,,,,,TRUE,,,,,FEW,100,,,,,,,MVFR,,,,,,,,,,,,METAR,508.0
UIII 230030Z 15005MPS CAVOK 04/01 Q1016 R12/CLRD60 NOSIG RMK QFE720/0960,UIII,2022-10-23T00:30:00Z,52.27,104.37,4.0,1.0,150,10,,6.21,30.0,,,,,,TRUE,,,,,CAVOK,,,,,,,,VFR,,,,,,,,,,,,METAR,480.0
UIBB 230030Z 16005MPS 120V200 9999 NSC 05/02 Q1008 R30/CLRD60 NOSIG RMK QFE713/0951,UIBB,2022-10-23T00:30:00Z,56.37,101.7,5.0,2.0,160,10,,6.21,29.763779,,,,,,TRUE,,,,,CLR,,,,,,,,VFR,,,,,,,,,,,,METAR,485.0
UIAA 230030Z 35001MPS 9999 NSC M05/M08 Q1023 R29/CLRD70 NOSIG RMK QFE709/0945,UIAA,2022-10-23T00:30:00Z,52.02,113.32,-5.0,-8.0,350,2,,6.21,30.206694,,,,,,TRUE,,,,,CLR,,,,,,,,VFR,,,,,,,,,,,,METAR,650.0
UHWW 230030Z VRB01MPS 9999 NSC 07/M04 Q1020 R25L/0///70 NOSIG RMK QFE764,UHWW,2022-10-23T00:30:00Z,43.4,132.15,7.0,-4.0,0,2,,6.21,30.11811,,,,,,TRUE,,,,,CLR,,,,,,,,VFR,,,,,,,,,,,,METAR,11.0
UHSS 230030Z 01005MPS 9999 SCT024CB 04/02 Q1012 R01/70D NOSIG RMK MT OBSC QFE758/1011,UHSS,2022-10-23T00:30:00Z,46.88,142.72,4.0,2.0,10,10,,6.21,29.88189,,,,,,TRUE,,,,,SCT,2400,,,,,,,VFR,,,,,,,,,,,,METAR,14.0
UHPP 230030Z 31003MPS 260V340 CAVOK 04/M06 Q1009 R34L/CLRD65 NOSIG RMK QFE753/1004,UHPP,2022-10-23T00:30:00Z,53.17,158.45,4.0,-6.0,310,6,,6.21,29.793306,,,,,,TRUE,,,,,CAVOK,,,,,,,,VFR,,,,,,,,,,,,METAR,33.0
UHMM 230030Z 08001MPS 9999 FEW040 M10/M16 Q1010 R10/82//55 NOSIG RMK QFE743 R28/00000MPS,UHMM,2022-10-23T00:30:00Z,59.92,150.72,-10.0,-16.0,80,2,,6.21,29.822834,,,,,,TRUE,,,,,FEW,4000,,,,,,,VFR,,,,,,,,,,,,METAR,175.0
UHHH 230030Z 14002MPS 9000 OVC003 00/M00 Q1017 R23R/190050 NOSIG RMK QBB100 QFE757/1009,UHHH,2022-10-23T00:30:00Z,48.52,135.18,0.0,0.0,140,4,,5.59,30.029528,,,,,,TRUE,,,,,OVC,300,,,,,,,LIFR,,,,,,,,,,,,METAR,74.0
UHBB 230030Z 34003MPS CAVOK 00/M07 Q1021 R36/090060 NOSIG RMK QFE748/0997,UHBB,2022-10-23T00:30:00Z,50.43,127.42,0.0,-7.0,340,6,,6.21,30.147638,,,,,,TRUE,,,,,CAVOK,,,,,,,,VFR,,,,,,,,,,,,METAR,185.0
UGTB 230030Z 32003KT CAVOK 08/04 Q1029 NOSIG,UGTB,2022-10-23T00:30:00Z,41.67,44.95,8.0,4.0,320,3,,6.21,30.383858,,,,,,TRUE,,,,,CAVOK,,,,,,,,VFR,,,,,,,,,,,,METAR,468.0
UGSB 230030Z 13015KT CAVOK 10/08 Q1025 NOSIG,UGSB,2022-10-23T00:30:00Z,41.62,41.6,10.0,8.0,130,15,,6.21,30.265747,,,,,,TRUE,,,,,CAVOK,,,,,,,,VFR,,,,,,,,,,,,METAR,32.0
UGKO 230030Z VRB01KT CAVOK 04/04 Q1024 NOSIG,UGKO,2022-10-23T00:30:00Z,42.18,42.48,4.0,4.0,0,1,,6.21,30.236221,,,,,,TRUE,,,,,CAVOK,,,,,,,,VFR,,,,,,,,,,,,METAR,44.0
UEEE 230030Z 30002MPS 9999 -SHSN BKN022CB M04/M05 Q1017 R23L/450141 NOSIG RMK QFE754,UEEE,2022-10-23T00:30:00Z,62.08,129.77,-4.0,-5.0,300,4,,6.21,30.029528,,,,,,TRUE,,,,-SHSN,BKN,2200,,,,,,,MVFR,,,,,,,,,,,,METAR,106.0
UDYZ 230030Z 00000KT 9999 BKN036 09/08 Q1025 R09/010070 NOSIG,UDYZ,2022-10-23T00:30:00Z,40.15,44.4,9.0,8.0,0,0,,6.21,30.265747,,,,,,TRUE,,,,,BKN,3600,,,,,,,VFR,,,,,,,,,,,,METAR,851.0
UDSG 230030Z 25005KT 9999 SCT043 04/01 Q1026 R02/////// NOSIG,UDSG,2022-10-23T00:30:00Z,40.75,43.87,4.0,1.0,250,5,,6.21,30.295275,,,,,,TRUE,,,,,SCT,4300,,,,,,,VFR,,,,,,,,,,,,METAR,1515.0
UCFO 230030Z 21003MPS 9999 FEW050 12/00 Q1023 R12/0///95 NOSIG,UCFO,2022-10-23T00:30:00Z,40.6,72.8,12.0,0.0,210,6,,6.21,30.206694,,,,,,TRUE,,,,,FEW,5000,,,,,,,VFR,,,,,,,,,,,,METAR,881.0
UCFM 230030Z 30005MPS 9999 SCT050CB 11/05 Q1024 R26/0///95 TEMPO 30007G12MPS,UCFM,2022-10-23T00:30:00Z,43.07,74.48,11.0,5.0,300,10,,6.21,30.236221,,,,,,,,,,,SCT,5000,,,,,,,VFR,,,,,,,,,,,,METAR,632.0
UBBZ 230030Z AUTO 35004KT 330V030 9999 // ///005/// 10/09 Q1028,UBBZ,2022-10-23T00:30:00Z,,,10.0,9.0,350,4,,6.21,30.35433,,,TRUE,,,,,,,,,,,,,,,,,,,,,,,,,,,,METAR,
UBBN 230030Z 12006KT 9999 SCT040CB BKN100 10/07 Q1024 NOSIG RMK MT OP QFE692,UBBN,2022-10-23T00:30:00Z,39.18,45.45,10.0,7.0,120,6,,6.21,30.236221,,,,,,TRUE,,,,,SCT,4000,BKN,10000,,,,,VFR,,,,,,,,,,,,METAR,857.0
UBBG 230030Z 32004KT 9999 OVC040 11/10 Q1028 NOSIG,UBBG,2022-10-23T00:30:00Z,40.73,46.32,11.0,10.0,320,4,,6.21,30.35433,,,,,,TRUE,,,,,OVC,4000,,,,,,,VFR,,,,,,,,,,,,METAR,333.0
UBBF 230030Z AUTO 02004KT 2000 // ///004/// 10/10 Q1027,UBBF,2022-10-23T00:30:00Z,39.6,47.2,10.0,10.0,20,4,,1.24,30.324802,,,TRUE,,,,,,,,,,,,,,,,,,,,,,,,,,,,METAR,370.0
UBBB 230030Z 00000KT CAVOK 13/12 Q1028 NOSIG,UBBB,2022-10-23T00:30:00Z,40.47,50.07,13.0,12.0,0,0,,6.21,30.35433,,,,,,TRUE,,,,,CAVOK,,,,,,,,VFR,,,,,,,,,,,,METAR,94.0
UAUU 230030Z 28006MPS 9999 OVC040 M01/M03 Q1021 NOSIG RMK QFE750/1000,UAUU,2022-10-23T00:30:00Z,53.2,63.55,-1.0,-3.0,280,12,,6.21,30.147638,,,,,,TRUE,,,,,OVC,4000,,,,,,,VFR,,,,,,,,,,,,METAR,177.0
UASS 230030Z 23006MPS CAVOK 12/04 Q1008 NOSIG RMK QFE738/0984,UASS,2022-10-23T00:30:00Z,50.35,80.23,12.0,4.0,230,12,,6.21,29.763779,,,,,,TRUE,,,,,CAVOK,,,,,,,,VFR,,,,,,,,,,,,METAR,215.0
UASP 230030Z 25016G21MPS 9999 OVC038CB 07/02 Q1001 NOSIG RMK QFE739/0986,UASP,2022-10-23T00:30:00Z,52.2,77.07,7.0,2.0,250,31,41,6.21,29.557087,,,,,,TRUE,,,,,OVC,3800,,,,,,,VFR,,,,,,,,,,,,METAR,122.0
UASK 230030Z 23012MPS 9999 BKN036CB OVC110 20/M02 Q1009 NOSIG RMK QFE732/0976,UASK,2022-10-23T00:30:00Z,50.03,82.5,20.0,-2.0,230,23,,6.21,29.793306,,,,,,TRUE,,,,,BKN,3600,OVC,11000,,,,,VFR,,,,,,,,,,,,METAR,285.0
UARR 230030Z 15003MPS CAVOK M02/M04 Q1027 NOSIG RMK QFE767/1023,UARR,2022-10-23T00:30:00Z,51.15,51.53,-2.0,-4.0,150,6,,6.21,30.324802,,,,,,TRUE,,,,,CAVOK,,,,,,,,VFR,,,,,,,,,,,,METAR,33.0
UAOO 230030Z 26003MPS CAVOK 06/03 Q1026 NOSIG RMK QFE758/1010,UAOO,2022-10-23T00:30:00Z,44.7,65.6,6.0,3.0,260,6,,6.21,30.295275,,,,,,TRUE,,,,,CAVOK,,,,,,,,VFR,,,,,,,,,,,,METAR,130.0
UAIT 230030Z 28005MPS 9999 BKN030CB 08/06 Q1027 NOSIG RMK QFE743/0991,UAIT,2022-10-23T00:30:00Z,43.32,68.55,8.0,6.0,280,10,,6.21,30.324802,,,,,,TRUE,,,,,BKN,3000,,,,,,,MVFR,,,,,,,,,,,,METAR,301.0
UADD 230030Z 02002MPS 9999 SCT015 OVC050CB 08/04 Q1026 NOSIG RMK MT OBSC QFE711/0948,UADD,2022-10-23T00:30:00Z,42.85,71.3,8.0,4.0,20,4,,6.21,30.295275,,,,,,TRUE,,,,,SCT,1500,OVC,5000,,,,,VFR,,,,,,,,,,,,METAR,663.0
TFFR 230030Z AUTO VRB01KT CAVOK 24/23 Q1012,TFFR,2022-10-23T00:30:00Z,16.27,-61.53,24.0,23.0,0,1,,6.21,29.88189,,,TRUE,,,,,,,,CAVOK,,,,,,,,VFR,,,,,,,,,,,,METAR,6.0
TFFF 230030Z AUTO 07003KT CAVOK 27/24 Q1012,TFFF,2022-10-23T00:30:00Z,14.6,-61.0,27.0,24.0,70,3,,6.21,29.88189,,,TRUE,,,,,,,,CAVOK,,,,,,,,VFR,,,,,,,,,,,,METAR,3.0
SOCA 230030Z AUTO 11002KT 9999 FEW021 27/25 Q1011,SOCA,2022-10-23T00:30:00Z,4.82,-52.37,27.0,25.0,110,2,,6.21,29.852362,,,TRUE,,,,,,,,FEW,2100,,,,,,,VFR,,,,,,,,,,,,METAR,7.0
ROAH 230030Z 35015KT 9999 FEW005 SCT008 BKN150 27/25 Q1011 RMK 1ST005 4ST008 5AC150 A2987,ROAH,2022-10-23T00:30:00Z,26.18,127.65,27.0,25.0,350,15,,6.21,29.852362,,,,,,,,,,,FEW,500,SCT,800,BKN,15000,,,VFR,,,,,,,,,,,,METAR,6.0
RKSI 230030Z 35009KT CAVOK 13/05 Q1021 NOSIG,RKSI,2022-10-23T00:30:00Z,37.47,126.45,13.0,5.0,350,9,,6.21,30.147638,,,,,,TRUE,,,,,CAVOK,,,,,,,,VFR,,,,,,,,,,,,METAR,7.0
RJTT 230030Z 06004KT 9999 FEW030 19/12 Q1011 BECMG FM0100 10006KT RMK 1CU030 A2987,RJTT,2022-10-23T00:30:00Z,35.55,139.77,19.0,12.0,60,4,,6.21,29.852362,,,,,,,,,,,FEW,3000,,,,,,,VFR,,0.6,,,,,,,,,,METAR,5.0
RJGG 230030Z 33007KT 9999 FEW025 21/16 Q1013 NOSIG,RJGG,2022-10-23T00:30:00Z,34.87,136.8,21.0,16.0,330,7,,6.21,29.911417,,,,,,TRUE,,,,,FEW,2500,,,,,,,VFR,,,,,,,,,,,,METAR,5.0
RJFF 230030Z 30006KT 240V350 9999 FEW020 SCT030 22/15 Q1016 NOSIG RMK 1CU020 3CU030 A3000,RJFF,2022-10-23T00:30:00Z,33.58,130.45,22.0,15.0,300,6,,6.21,30.0,,,,,,TRUE,,,,,FEW,2000,SCT,3000,,,,,VFR,,,,,,,,,,,,METAR,7.0
RJCC 230030Z 02004KT 330V060 9999 -SHRA FEW015 BKN050 11/09 Q1010 RMK 1ST015 7CU050 A2985,RJCC,2022-10-23T00:30:00Z,42.77,141.68,11.0,9.0,20,4,,6.21,29.822834,,,,,,,,,,-SHRA,FEW,1500,BKN,5000,,,,,VFR,,,,,,,,,,,,SPECI,19.0
RJBB 230030Z 30009KT 9999 FEW020 22/15 Q1014 NOSIG,RJBB,2022-10-23T00:30:00Z,34.43,135.25,22.0,15.0,300,9,,6.21,29.940945,,,,,,TRUE,,,,,FEW,2000,,,,,,,VFR,,,,,,,,,,,,METAR,8.0
RJAA 230030Z 33006KT 290V360 9999 FEW030 19/14 Q1011 NOSIG RMK 1CU030 A2987,RJAA,2022-10-23T00:30:00Z,35.77,140.38,19.0,14.0,330,6,,6.21,29.852362,,,,,,TRUE,,,,,FEW,3000,,,,,,,VFR,,,,,,,,,,,,SPECI,36.0
RCTP 230030Z 04010KT 9000 -DZ FEW012 BKN020 BKN040 23/20 Q1018 NOSIG RMK A3006,RCTP,2022-10-23T00:30:00Z,25.07,121.22,23.0,20.0,40,10,,5.59,30.059055,,,,,,TRUE,,,,-DZ,FEW,1200,BKN,2000,BKN,4000,,,MVFR,,,,,,,,,,,,METAR,33.0
RCSS 230030Z VRB05G16KT 9999 -RA FEW016 BKN040 BKN080 22/19 Q1018 NOSIG RMK A3007,RCSS,2022-10-23T00:30:00Z,25.07,121.55,22.0,19.0,0,5,16,6.21,30.059055,,,,,,TRUE,,,,-RA,FEW,1600,BKN,4000,BKN,8000,,,VFR,,,,,,,,,,,,SPECI,8.0
RCNN 230030Z 02006KT 5000 BR FEW010 SCT021 BKN060 26/24 Q1014 NOSIG RMK A2996,RCNN,2022-10-23T00:30:00Z,22.93,120.2,26.0,24.0,20,6,,3.11,29.940945,,,,,,TRUE,,,,BR,FEW,1000,SCT,2100,BKN,6000,,,MVFR,,,,,,,,,,,,SPECI,15.0
RCMQ 230030Z 02014G24KT 9999 VCSH SCT008 BKN030 BKN060 23/19 Q1015 NOSIG RMK A2999 APCH CLD SCT008 VCSH SE,RCMQ,2022-10-23T00:30:00Z,24.27,120.62,23.0,19.0,20,14,24,6.21,29.970472,,,,,,TRUE,,,,VCSH,SCT,800,BKN,3000,BKN,6000,,,MVFR,,,,,,,,,,,,SPECI,202.0
RCKH 230030Z 34005KT 290V020 7000 FEW015 SCT200 29/23 Q1013 NOSIG RMK A2993,RCKH,2022-10-23T00:30:00Z,22.57,120.33,29.0,23.0,340,5,,4.35,29.911417,,,,,,TRUE,,,,,FEW,1500,SCT,20000,,,,,MVFR,,,,,,,,,,,,METAR,6.0
RCFN 230030Z 02004KT 340V070 9999 FEW015 BKN045 26/24 Q1016 NOSIG RMK A3001,RCFN,2022-10-23T00:30:00Z,22.77,121.1,26.0,24.0,20,4,,6.21,30.0,,,,,,TRUE,,,,,FEW,1500,BKN,4500,,,,,VFR,,,,,,,,,,,,SPECI,42.0
OTBD 230030Z AUTO 17004KT CAVOK 28/23 Q1015 NOSIG,OTBD,2022-10-23T00:30:00Z,25.25,51.57,28.0,23.0,170,4,,6.21,29.970472,,,TRUE,,,TRUE,,,,,CAVOK,,,,,,,,VFR,,,,,,,,,,,,METAR,13.0
OPPS 230030Z 23004KT 6000 HZ NSC 17/09 Q1017,OPPS,2022-10-23T00:30:00Z,33.98,71.52,17.0,9.0,230,4,,3.73,30.029528,,,,,,,,,,HZ,CLR,,,,,,,,MVFR,,,,,,,,,,,,METAR,356.0
OPKC 230030Z 03003KT 5000 FU NSC 20/13 Q1015 NOSIG,OPKC,2022-10-23T00:30:00Z,24.9,67.13,20.0,13.0,30,3,,3.11,29.970472,,,,,,TRUE,,,,FU,CLR,,,,,,,,MVFR,,,,,,,,,,,,METAR,20.0
OPIS 230030Z 00000KT 6000 NSC 13/10 Q1017 NOSIG,OPIS,2022-10-23T00:30:00Z,33.55,72.83,13.0,10.0,0,0,,3.73,30.029528,,,,,,TRUE,,,,,CLR,,,,,,,,MVFR,,,,,,,,,,,,METAR,542.0
OITT 230030Z 03004KT 9999 FEW015 SCT030 FEW032CB BKN080 11/09 Q1024 A3027,OITT,2022-10-23T00:30:00Z,38.13,46.23,11.0,9.0,30,4,,6.21,30.236221,,,,,,,,,,,FEW,1500,SCT,3000,FEW,3200,BKN,8000,VFR,,,,,,,,,,,,METAR,1353.0
OISS 230030Z 00000KT 8000 NSC 09/M02 Q1026 A3030,OISS,2022-10-23T00:30:00Z,29.53,52.58,9.0,-2.0,0,0,,4.97,30.295275,,,,,,,,,,,CLR,,,,,,,,MVFR,,,,,,,,,,,,METAR,1484.0
OIMM 230030Z 16004KT 9999 OVC022 13/09 Q1029 A3039,OIMM,2022-10-23T00:30:00Z,36.23,59.63,13.0,9.0,160,4,,6.21,30.383858,,,,,,,,,,,OVC,2200,,,,,,,MVFR,,,,,,,,,,,,METAR,995.0
OIII 230030Z 00000KT CAVOK 16/05 Q1023 A3022,OIII,2022-10-23T00:30:00Z,35.68,51.3,16.0,5.0,0,0,,6.21,30.206694,,,,,,,,,,,CAVOK,,,,,,,,VFR,,,,,,,,,,,,METAR,1182.0
OIFM 230030Z 27006KT 5000 HZ NSC 10/M02 Q1027 A3035,OIFM,2022-10-23T00:30:00Z,32.75,51.87,10.0,-2.0,270,6,,3.11,30.324802,,,,,,,,,,HZ,CLR,,,,,,,,MVFR,,,,,,,,,,,,METAR,1539.0
OBBI 230030Z 23003KT 180V270 CAVOK 29/24 Q1015 NOSIG,OBBI,2022-10-23T00:30:00Z,26.27,50.63,29.0,24.0,230,3,,6.21,29.970472,,,,,,TRUE,,,,,CAVOK,,,,,,,,VFR,,,,,,,,,,,,METAR,6.0
NZWN 230030Z AUTO 01023KT 9999 OVC022/// 16/10 Q1028 NOSIG,NZWN,2022-10-23T00:30:00Z,-41.32,174.8,16.0,10.0,10,23,,6.21,30.35433,,,TRUE,,,TRUE,,,,,OVC,2200,,,,,,,MVFR,,,,,,,,,,,,METAR,12.0
NZCH 230030Z AUTO 10011KT 070V140 9999 NCD 20/09 Q1019 BECMG FM0200 31012KT,NZCH,2022-10-23T00:30:00Z,-43.48,172.52,20.0,9.0,100,11,,6.21,30.088583,,,TRUE,,,,,,,,CLR,,,,,,,,VFR,,,,,,,,,,,,METAR,36.0
NZAA 230030Z AUTO 24008KT 9999 NCD 18/09 Q1031 NOSIG,NZAA,2022-10-23T00:30:00Z,-37.02,174.8,18.0,9.0,240,8,,6.21,30.442913,,,TRUE,,,TRUE,,,,,CLR,,,,,,,,VFR,,,,,,,,,,,,METAR,7.0
NWWW 230030Z AUTO 06011KT 030V100 9999 BKN050 BKN120 27/18 Q1013 TEMPO 3000 SHRA FEW020CB,NWWW,2022-10-23T00:30:00Z,-22.02,166.22,27.0,18.0,60,11,,6.21,29.911417,,,TRUE,,,,,,,,BKN,5000,BKN,12000,,,,,VFR,,,,,,,,,,,,METAR,16.0
NLWW 230030Z 09009KT 050V110 9999 SCT019 SCT026 30/25 Q1010 TEMPO 4000 SHRA BKN014 FEW020CB,NLWW,2022-10-23T00:30:00Z,-13.23,-176.18,30.0,25.0,90,9,,6.21,29.822834,,,,,,,,,,,SCT,1900,SCT,2600,,,,,VFR,,,,,,,,,,,,METAR,24.0
NCRG 230030Z AUTO 02004KT 350V070 9999 SCT012/// SCT017/// 27/23 Q1013,NCRG,2022-10-23T00:30:00Z,-21.2,-159.82,27.0,23.0,20,4,,6.21,29.911417,,,TRUE,,,,,,,,SCT,1200,SCT,1700,,,,,VFR,,,,,,,,,,,,METAR,7.0
LZZI 230030Z 16002KT 3000 BR BKN005 OVC012 10/09 Q1021,LZZI,2022-10-23T00:30:00Z,49.23,18.62,10.0,9.0,160,2,,1.86,30.147638,,,,,,,,,,BR,BKN,500,OVC,1200,,,,,IFR,,,,,,,,,,,,METAR,311.0
LZTT 230030Z 26011KT 9999 FEW020 BKN070 10/08 Q1018,LZTT,2022-10-23T00:30:00Z,49.07,20.25,10.0,8.0,260,11,,6.21,30.059055,,,,,,,,,,,FEW,2000,BKN,7000,,,,,VFR,,,,,,,,,,,,METAR,693.0
LZPP 230030Z AUTO 04002KT 0100 R01/0375N FG OVC001/// 06/05 Q1021,LZPP,2022-10-23T00:30:00Z,48.62,17.83,6.0,5.0,40,2,,0.06,30.147638,,,TRUE,,,,,,,FG,OVC,100,,,,,,,LIFR,,,,,,,,,,,,METAR,160.0
LZKZ 230030Z 25003KT 0500 R01/0400U FG FEW004 08/08 Q1019 NOSIG,LZKZ,2022-10-23T00:30:00Z,48.67,21.23,8.0,8.0,250,3,,0.31,30.088583,,,,,,TRUE,,,,FG,FEW,400,,,,,,,LIFR,,,,,,,,,,,,METAR,227.0
LZIB 230030Z 21005KT CAVOK 10/09 Q1021 NOSIG,LZIB,2022-10-23T00:30:00Z,48.17,17.22,10.0,9.0,210,5,,6.21,30.147638,,,,,,TRUE,,,,,CAVOK,,,,,,,,VFR,,,,,,,,,,,,METAR,129.0
LYTV 230030Z AUTO VRB02KT CAVOK 10/10 Q1024,LYTV,2022-10-23T00:30:00Z,42.4,18.72,10.0,10.0,0,2,,6.21,30.236221,,,TRUE,,,,,,,,CAVOK,,,,,,,,VFR,,,,,,,,,,,,SPECI,3.0
LYPG 230030Z 35005KT CAVOK 13/08 Q1025 NOSIG,LYPG,2022-10-23T00:30:00Z,42.37,19.25,13.0,8.0,350,5,,6.21,30.265747,,,,,,TRUE,,,,,CAVOK,,,,,,,,VFR,,,,,,,,,,,,SPECI,32.0
LYNI 230030Z VRB02KT CAVOK 16/08 Q1023 NOSIG,LYNI,2022-10-23T00:30:00Z,43.33,21.85,16.0,8.0,0,2,,6.21,30.206694,,,,,,TRUE,,,,,CAVOK,,,,,,,,VFR,,,,,,,,,,,,SPECI,197.0
LYBE 230030Z 27006KT 9999 SCT045 14/13 Q1023 NOSIG,LYBE,2022-10-23T00:30:00Z,44.82,20.28,14.0,13.0,270,6,,6.21,30.206694,,,,,,TRUE,,,,,SCT,4500,,,,,,,VFR,,,,,,,,,,,,SPECI,93.0
LUKK 230030Z 18003KT 150V210 CAVOK 11/08 Q1014 NOSIG,LUKK,2022-10-23T00:30:00Z,46.93,28.93,11.0,8.0,180,3,,6.21,29.940945,,,,,,TRUE,,,,,CAVOK,,,,,,,,VFR,,,,,,,,,,,,METAR,102.0
LTCJ 230030Z 20005KT 4500 BR NSC 10/10 Q1022 BECMG TL0130 BR TEMPO 1200 BCFG RMK RWY20 15005KT SKC,LTCJ,2022-10-23T00:30:00Z,37.93,41.12,10.0,10.0,200,5,,2.8,30.177166,,,,,,,,,,BR,CLR,,,,,,,,IFR,,,,,,,,,,,,METAR,559.0
LRTR 230030Z 27007KT 8000 FEW006 12/12 Q1021,LRTR,2022-10-23T00:30:00Z,45.82,21.33,12.0,12.0,270,7,,4.97,30.147638,,,,,,,,,,,FEW,600,,,,,,,MVFR,,,,,,,,,,,,METAR,104.0
LRTM 230030Z AUTO VRB02KT 8000 OVC033/// 12/11 Q1017,LRTM,2022-10-23T00:30:00Z,46.47,24.42,12.0,11.0,0,2,,4.97,30.029528,,,TRUE,,,,,,,,OVC,3300,,,,,,,MVFR,,,,,,,,,,,,METAR,289.0
LRTC 230030Z AUTO 17004KT 8000 FEW100/// 12/04 Q1015,LRTC,2022-10-23T00:30:00Z,45.07,28.72,12.0,4.0,170,4,,4.97,29.970472,,,TRUE,,,,,,,,FEW,10000,,,,,,,MVFR,,,,,,,,,,,,METAR,52.0
LRSV 230030Z 32005KT 9999 -RA BKN050 14/13 Q1014,LRSV,2022-10-23T00:30:00Z,47.68,26.35,14.0,13.0,320,5,,6.21,29.940945,,,,,,,,,,-RA,BKN,5000,,,,,,,VFR,,,,,,,,,,,,METAR,406.0
LRSM 230030Z AUTO 26008KT 5000 BR FEW030/// BKN035/// BKN041/// 11/10 Q1018,LRSM,2022-10-23T00:30:00Z,47.7,22.88,11.0,10.0,260,8,,3.11,30.059055,,,TRUE,,,,,,,BR,FEW,3000,BKN,3500,BKN,4100,,,MVFR,,,,,,,,,,,,METAR,123.0
LROP 230030Z 25007KT CAVOK 11/06 Q1016 NOSIG,LROP,2022-10-23T00:30:00Z,44.57,26.1,11.0,6.0,250,7,,6.21,30.0,,,,,,TRUE,,,,,CAVOK,,,,,,,,VFR,,,,,,,,,,,,METAR,92.0
LROD 230030Z AUTO 27008KT 6000 FEW005/// BKN007/// OVC009/// 12/11 Q1020,LROD,2022-10-23T00:30:00Z,47.03,21.88,12.0,11.0,270,8,,3.73,30.11811,,,TRUE,,,,,,,,FEW,500,BKN,700,OVC,900,,,IFR,,,,,,,,,,,,METAR,132.0
LRIA 230030Z 00000KT CAVOK 11/08 Q1014,LRIA,2022-10-23T00:30:00Z,47.17,27.62,11.0,8.0,0,0,,6.21,29.940945,,,,,,,,,,,CAVOK,,,,,,,,VFR,,,,,,,,,,,,METAR,71.0
LRCV 230030Z 26008KT CAVOK 09/06 Q1017,LRCV,2022-10-23T00:30:00Z,44.32,23.88,9.0,6.0,260,8,,6.21,30.029528,,,,,,,,,,,CAVOK,,,,,,,,VFR,,,,,,,,,,,,METAR,192.0
LRCL 230030Z 00000KT 5000 BR FEW010 OVC015 11/11 Q1017,LRCL,2022-10-23T00:30:00Z,46.78,23.68,11.0,11.0,0,0,,3.11,30.029528,,,,,,,,,,BR,FEW,1000,OVC,1500,,,,,MVFR,,,,,,,,,,,,METAR,313.0
LRCK 230030Z 23008KT CAVOK 11/06 Q1016 NOSIG,LRCK,2022-10-23T00:30:00Z,44.37,28.48,11.0,6.0,230,8,,6.21,30.0,,,,,,TRUE,,,,,CAVOK,,,,,,,,VFR,,,,,,,,,,,,METAR,108.0
LRBS 230030Z 26007KT CAVOK 12/06 Q1016 NOSIG,LRBS,2022-10-23T00:30:00Z,44.5,26.08,12.0,6.0,260,7,,6.21,30.0,,,,,,TRUE,,,,,CAVOK,,,,,,,,VFR,,,,,,,,,,,,METAR,91.0
LRBM 230030Z AUTO 26011KT 3500 DZ FEW002/// BKN006/// BKN012/// 11/11 Q1018,LRBM,2022-10-23T00:30:00Z,47.67,23.47,11.0,11.0,260,11,,2.17,30.059055,,,TRUE,,,,,,,DZ,FEW,200,BKN,600,BKN,1200,,,IFR,,,,,,,,,,,,METAR,180.0
LRBC 230030Z 35002KT 9999 SCT065 11/07 Q1014,LRBC,2022-10-23T00:30:00Z,46.52,26.92,11.0,7.0,350,2,,6.21,29.940945,,,,,,,,,,,SCT,6500,,,,,,,VFR,,,,,,,,,,,,METAR,183.0
LRAR 230030Z 25009KT CAVOK 12/11 Q1021,LRAR,2022-10-23T00:30:00Z,46.18,21.27,12.0,11.0,250,9,,6.21,30.147638,,,,,,,,,,,CAVOK,,,,,,,,VFR,,,,,,,,,,,,METAR,102.0
LQBK 230030Z VRB02KT 7000 NSC 14/14 Q1023 NOSIG,LQBK,2022-10-23T00:30:00Z,44.93,17.3,14.0,14.0,0,2,,4.35,30.206694,,,,,,TRUE,,,,,CLR,,,,,,,,MVFR,,,,,,,,,,,,METAR,114.0
LPPT 230030Z 23011KT 9999 FEW032 17/15 Q1011,LPPT,2022-10-23T00:30:00Z,38.77,-9.13,17.0,15.0,230,11,,6.21,29.852362,,,,,,,,,,,FEW,3200,,,,,,,VFR,,,,,,,,,,,,METAR,98.0
LPPS 230030Z 31007KT 9999 FEW014 19/16 Q1018,LPPS,2022-10-23T00:30:00Z,33.07,-16.35,19.0,16.0,310,7,,6.21,30.059055,,,,,,,,,,,FEW,1400,,,,,,,VFR,,,,,,,,,,,,METAR,89.0
LPPR 230030Z 18023KT 9999 SCT015 BKN026 16/14 Q1006,LPPR,2022-10-23T00:30:00Z,41.23,-8.68,16.0,14.0,180,23,,6.21,29.704725,,,,,,,,,,,SCT,1500,BKN,2600,,,,,MVFR,,,,,,,,,,,,METAR,64.0
LPPD 230030Z 32008KT 290V350 9999 FEW018 BKN040 18/12 Q1018,LPPD,2022-10-23T00:30:00Z,37.73,-25.68,18.0,12.0,320,8,,6.21,30.059055,,,,,,,,,,,FEW,1800,BKN,4000,,,,,VFR,,,,,,,,,,,,METAR,62.0
LPMA 230030Z 00000KT 9999 FEW016 20/14 Q1017,LPMA,2022-10-23T00:30:00Z,32.7,-16.77,20.0,14.0,0,0,,6.21,30.029528,,,,,,,,,,,FEW,1600,,,,,,,VFR,,,,,,,,,,,,METAR,54.0
LPFR 230030Z 22008KT 9999 FEW015 20/18 Q1014,LPFR,2022-10-23T00:30:00Z,37.02,-7.97,20.0,18.0,220,8,,6.21,29.940945,,,,,,,,,,,FEW,1500,,,,,,,VFR,,,,,,,,,,,,METAR,3.0
LPAZ 230030Z 31018KT 9999 SCT026 SCT045 19/12 Q1019,LPAZ,2022-10-23T00:30:00Z,36.97,-25.17,19.0,12.0,310,18,,6.21,30.088583,,,,,,,,,,,SCT,2600,SCT,4500,,,,,VFR,,,,,,,,,,,,METAR,96.0
LKTB 230030Z 03002KT 0200 R27/0400N FG VV002 07/06 Q1021 NOSIG,LKTB,2022-10-23T00:30:00Z,49.15,16.68,7.0,6.0,30,2,,0.12,30.147638,,,,,,TRUE,,,,FG,OVX,0,,,,,,,LIFR,,,,,,,,,,,200,METAR,233.0
LKPR 230030Z 22008KT CAVOK 10/10 Q1019 NOSIG,LKPR,2022-10-23T00:30:00Z,50.1,14.27,10.0,10.0,220,8,,6.21,30.088583,,,,,,TRUE,,,,,CAVOK,,,,,,,,VFR,,,,,,,,,,,,METAR,364.0
LKPD 230030Z 13003KT 0400 R27/0450N FG VV001 10/10 Q1020 RMK RED,LKPD,2022-10-23T00:30:00Z,50.02,15.73,10.0,10.0,130,3,,0.25,30.11811,,,,,,,,,,FG,OVX,0,,,,,,,LIFR,,,,,,,,,,,100,METAR,226.0
LKNA 230030Z 21004KT CAVOK 08/08 Q1021 RMK BLU,LKNA,2022-10-23T00:30:00Z,49.17,16.12,8.0,8.0,210,4,,6.21,30.147638,,,,,,,,,,,CAVOK,,,,,,,,VFR,,,,,,,,,,,,METAR,460.0
LKMT 230030Z 23005KT 2000 0650 R22/0800D R04/P2000N BR BCFG BKN007 08/08 Q1020 TEMPO 0800 FG,LKMT,2022-10-23T00:30:00Z,49.68,18.12,8.0,8.0,230,5,,1.24,30.11811,,,,,,,,,,BCFG BR,BKN,700,,,,,,,IFR,,,,,,,,,,,,METAR,251.0
LKCV 230030Z 13002KT 0900 R31/1900 FG FEW003 06/05 Q1020 NOSIG RMK AMB AMB,LKCV,2022-10-23T00:30:00Z,49.93,15.38,6.0,5.0,130,2,,0.56,30.11811,,,,,,TRUE,,,,FG,FEW,300,,,,,,,LIFR,,,,,,,,,,,,METAR,234.0
LJPZ 230030Z AUTO 08001KT 9999 SCT047/// BKN100/// 17/16 Q1021,LJPZ,2022-10-23T00:30:00Z,45.47,13.62,17.0,16.0,80,1,,6.21,30.147638,,,TRUE,,,,,,,,SCT,4700,BKN,10000,,,,,VFR,,,,,,,,,,,,METAR,2.0
LJMB 230030Z AUTO 00000KT 0150 R32/0800U FG VV002 07/07 Q1022,LJMB,2022-10-23T00:30:00Z,46.47,15.67,7.0,7.0,0,0,,0.09,30.177166,,,TRUE,,,,,,,FG,OVX,0,,,,,,,LIFR,,,,,,,,,,,200,METAR,263.0
LJLJ 230030Z VRB01KT 0500 R30/1100U FG BKN001 08/08 Q1023 BECMG VV001,LJLJ,2022-10-23T00:30:00Z,46.22,14.47,8.0,8.0,0,1,,0.31,30.206694,,,,,,,,,,FG,BKN,100,,,,,,,LIFR,,,,,,,,,,,,METAR,363.0
LJCE 230030Z AUTO 00000KT 2000 FG VV003 12/11 Q1023,LJCE,2022-10-23T00:30:00Z,45.9,15.52,12.0,11.0,0,0,,1.24,30.206694,,,TRUE,,,,,,,FG,OVX,0,,,,,,,LIFR,,,,,,,,,,,300,METAR,153.0
LHBP 230030Z 33004KT 290V360 6000 R31L/P2000N R31R/1100D MIFG FEW004 08/08 Q1021 TEMPO 2000 BCFG,LHBP,2022-10-23T00:30:00Z,47.43,19.27,8.0,8.0,330,4,,3.73,30.147638,,,,,,,,,,MIFG,FEW,400,,,,,,,MVFR,,,,,,,,,,,,METAR,141.0
LGKP 230030Z AUTO 31009KT //// // ////// 16/12 Q1021 RE//,LGKP,2022-10-23T00:30:00Z,35.42,27.15,16.0,12.0,310,9,,,30.147638,,,TRUE,,,,,,,,,,,,,,,,,,,,,,,,,,,,METAR,20.0
LFYR 230030Z AUTO 12006KT CAVOK 15/13 Q1009,LFYR,2022-10-23T00:30:00Z,47.32,1.68,15.0,13.0,120,6,,6.21,29.793306,,,TRUE,,,,,,,,CAVOK,,,,,,,,VFR,,,,,,,,,,,,METAR,83.0
LFVP 230030Z AUTO 24011KT 9999 SCT009 OVC015 12/11 Q1027 BECMG SCT010,LFVP,2022-10-23T00:30:00Z,46.77,-56.18,12.0,11.0,240,11,,6.21,30.324802,,,TRUE,,,,,,,,SCT,900,OVC,1500,,,,,MVFR,,,,,,,,,,,,METAR,5.0
LFTW 230030Z AUTO 12007KT 090V160 9999 BKN007 OVC011 20/19 Q1016,LFTW,2022-10-23T00:30:00Z,43.75,4.42,20.0,19.0,120,7,,6.21,30.0,,,TRUE,,,,,,,,BKN,700,OVC,1100,,,,,IFR,,,,,,,,,,,,METAR,91.0
LFTH 230030Z AUTO 02003KT 9999 BKN014 BKN021 OVC210 20/17 Q1019 TEMPO 4000 BR BKN004,LFTH,2022-10-23T00:30:00Z,43.1,6.15,20.0,17.0,20,3,,6.21,30.088583,,,TRUE,,,,,,,,BKN,1400,BKN,2100,OVC,21000,,,MVFR,,,,,,,,,,,,METAR,3.0
LFSX 230030Z AUTO 08006KT CAVOK 13/11 Q1016,LFSX,2022-10-23T00:30:00Z,47.77,6.35,13.0,11.0,80,6,,6.21,30.0,,,TRUE,,,,,,,,CAVOK,,,,,,,,VFR,,,,,,,,,,,,METAR,266.0
LFST 230030Z AUTO 00000KT 9999 0700 R23/0900D R05/P2000 BCFG NSC 11/11 Q1016 TEMPO 0400 FG VV///,LFST,2022-10-23T00:30:00Z,48.53,7.63,11.0,11.0,0,0,,6.21,30.0,,,TRUE,,,,,,,BCFG,CLR,,,,,,,,VFR,,,,,,,,,,,,METAR,149.0
LFSO 230030Z AUTO 00000KT CAVOK 13/12 Q1015,LFSO,2022-10-23T00:30:00Z,48.57,5.97,13.0,12.0,0,0,,6.21,29.970472,,,TRUE,,,,,,,,CAVOK,,,,,,,,VFR,,,,,,,,,,,,METAR,328.0
LFSN 230030Z AUTO 00000KT 6000 0700 R03/1000D BCFG NSC 10/10 Q1015,LFSN,2022-10-23T00:30:00Z,48.68,6.22,10.0,10.0,0,0,,3.73,29.970472,,,TRUE,,,,,,,BCFG,CLR,,,,,,,,MVFR,,,,,,,,,,,,METAR,214.0
LFSL 230030Z AUTO 15005KT 110V190 9999 ///TCU 18/13 Q1011,LFSL,2022-10-23T00:30:00Z,45.03,1.48,18.0,13.0,150,5,,6.21,29.852362,,,TRUE,,,,,,,,,,,,,,,,,,,,,,,,,,,,METAR,300.0
LFSI 230030Z AUTO 07005KT CAVOK 15/13 Q1013,LFSI,2022-10-23T00:30:00Z,48.62,4.9,15.0,13.0,70,5,,6.21,29.911417,,,TRUE,,,,,,,,CAVOK,,,,,,,,VFR,,,,,,,,,,,,METAR,136.0
LFSG 230030Z AUTO 00000KT 2500 BR VV/// 10/10 Q1015,LFSG,2022-10-23T00:30:00Z,48.33,6.07,10.0,10.0,0,0,,1.55,29.970472,,,TRUE,,,,,,,BR,OVX,0,,,,,,,LIFR,,,,,,,,,,,,METAR,320.0
LFSD 230030Z AUTO 33003KT 310V010 1400 R35/1300D BR ////// 12/12 Q1014,LFSD,2022-10-23T00:30:00Z,47.27,5.08,12.0,12.0,330,3,,0.87,29.940945,,,TRUE,,,,,,,BR,,,,,,,,,,,,,,,,,,,,,METAR,218.0
LFSB 230030Z AUTO 17005KT CAVOK 14/12 Q1017 NOSIG,LFSB,2022-10-23T00:30:00Z,47.6,7.52,14.0,12.0,170,5,,6.21,30.029528,,,TRUE,,,TRUE,,,,,CAVOK,,,,,,,,VFR,,,,,,,,,,,,METAR,262.0
LFRZ 230030Z AUTO 15010KT CAVOK 20/14 Q1003 TEMPO TSRA SCT030 BKN050CB,LFRZ,2022-10-23T00:30:00Z,47.32,-2.17,20.0,14.0,150,10,,6.21,29.616142,,,TRUE,,,,,,,,CAVOK,,,,,,,,VFR,,,,,,,,,,,,METAR,2.0
LFRV 230030Z AUTO 16008KT 9999 FEW045 BKN064 BKN082 17/14 Q1003,LFRV,2022-10-23T00:30:00Z,47.72,-2.72,17.0,14.0,160,8,,6.21,29.616142,,,TRUE,,,,,,,,FEW,4500,BKN,6400,BKN,8200,,,VFR,,,,,,,,,,,,METAR,132.0
LFRS 230030Z AUTO 15008KT CAVOK 19/13 Q1004 TEMPO TSRA SCT020 BKN050CB,LFRS,2022-10-23T00:30:00Z,47.17,-1.6,19.0,13.0,150,8,,6.21,29.64567,,,TRUE,,,,,,,,CAVOK,,,,,,,,VFR,,,,,,,,,,,,METAR,26.0
LFRQ 230030Z AUTO 19006KT 9999 FEW016/// BKN058/// BKN084/// //////CB 16/15 Q1002,LFRQ,2022-10-23T00:30:00Z,47.97,-4.17,16.0,15.0,190,6,,6.21,29.586615,,,TRUE,,,,,,,,FEW,1600,BKN,5800,BKN,8400,,,VFR,,,,,,,,,,,,METAR,94.0
LFRN 230030Z AUTO 11010KT CAVOK 18/13 Q1004 TEMPO 2000 TSRAGS BKN008 BKN015CB,LFRN,2022-10-23T00:30:00Z,48.07,-1.73,18.0,13.0,110,10,,6.21,29.64567,,,TRUE,,,,,,,,CAVOK,,,,,,,,VFR,,,,,,,,,,,,METAR,35.0
LFRM 230030Z AUTO 12007KT 090V150 CAVOK 18/12 Q1007,LFRM,2022-10-23T00:30:00Z,47.95,0.2,18.0,12.0,120,7,,6.21,29.734253,,,TRUE,,,,,,,,CAVOK,,,,,,,,VFR,,,,,,,,,,,,METAR,51.0
LFRL 230030Z AUTO 20008KT 160V230 9999 SCT007/// BKN011/// BKN018/// //////CB 16/15 Q1002,LFRL,2022-10-23T00:30:00Z,48.27,-4.43,16.0,15.0,200,8,,6.21,29.586615,,,TRUE,,,,,,,,SCT,700,BKN,1100,BKN,1800,,,MVFR,,,,,,,,,,,,METAR,80.0
LFRK 230030Z AUTO 11009KT CAVOK 15/13 Q1007,LFRK,2022-10-23T00:30:00Z,49.17,-0.45,15.0,13.0,110,9,,6.21,29.734253,,,TRUE,,,,,,,,CAVOK,,,,,,,,VFR,,,,,,,,,,,,METAR,66.0
LFRJ 230030Z AUTO 16006KT 9999 SCT021/// SCT064/// BKN078/// //////CB 15/15 Q1002,LFRJ,2022-10-23T00:30:00Z,48.52,-4.15,15.0,15.0,160,6,,6.21,29.586615,,,TRUE,,,,,,,,SCT,2100,SCT,6400,BKN,7800,,,VFR,,,,,,,,,,,,METAR,109.0
LFRI 230030Z AUTO 13005KT CAVOK 17/14 Q1005,LFRI,2022-10-23T00:30:00Z,46.7,-1.37,17.0,14.0,130,5,,6.21,29.675198,,,TRUE,,,,,,,,CAVOK,,,,,,,,VFR,,,,,,,,,,,,METAR,89.0
LFRH 230030Z AUTO 14007KT 9999 SCT027/// BKN046/// BKN074/// //////TCU 17/15 Q1003 TEMPO 2000 SHRA BKN008 BKN020CB,LFRH,2022-10-23T00:30:00Z,47.77,-3.45,17.0,15.0,140,7,,6.21,29.616142,,,TRUE,,,,,,,,SCT,2700,BKN,4600,BKN,7400,,,VFR,,,,,,,,,,,,METAR,46.0
LFRG 230030Z AUTO 13011KT CAVOK 16/13 Q1008,LFRG,2022-10-23T00:30:00Z,49.37,0.15,16.0,13.0,130,11,,6.21,29.763779,,,TRUE,,,,,,,,CAVOK,,,,,,,,VFR,,,,,,,,,,,,METAR,146.0
LFRD 230030Z AUTO 15012KT 110V180 CAVOK 18/13 Q1004 TEMPO 2000 TSRAGS BKN008 BKN015CB,LFRD,2022-10-23T00:30:00Z,48.58,-2.07,18.0,13.0,150,12,,6.21,29.64567,,,TRUE,,,,,,,,CAVOK,,,,,,,,VFR,,,,,,,,,,,,METAR,56.0
LFRC 230030Z AUTO 12008KT 090V150 9999 //////TCU 16/14 Q1006,LFRC,2022-10-23T00:30:00Z,49.63,-1.47,16.0,14.0,120,8,,6.21,29.704725,,,TRUE,,,,,,,,,,,,,,,,,,,,,,,,,,,,METAR,137.0
LFRB 230030Z AUTO 18010KT 9999 SCT013/// BKN023/// BKN033/// ///CB 16/15 Q1002 TEMPO VRB15G30KT 2000 TSRAGS BKN008 BKN015CB,LFRB,2022-10-23T00:30:00Z,48.45,-4.42,16.0,15.0,180,10,,6.21,29.586615,,,TRUE,,,,,,,,SCT,1300,BKN,2300,BKN,3300,,,MVFR,,,,,,,,,,,,METAR,91.0
LFQQ 230030Z AUTO 12005KT CAVOK 14/13 Q1011 NOSIG,LFQQ,2022-10-23T00:30:00Z,50.57,3.1,14.0,13.0,120,5,,6.21,29.852362,,,TRUE,,,TRUE,,,,,CAVOK,,,,,,,,VFR,,,,,,,,,,,,METAR,43.0
LFQB 230030Z AUTO 17005KT CAVOK 13/12 Q1012,LFQB,2022-10-23T00:30:00Z,48.32,4.02,13.0,12.0,170,5,,6.21,29.88189,,,TRUE,,,,,,,,CAVOK,,,,,,,,VFR,,,,,,,,,,,,METAR,107.0
LFQA 230030Z AUTO 09006KT CAVOK 13/12 Q1012,LFQA,2022-10-23T00:30:00Z,49.2,4.15,13.0,12.0,90,6,,6.21,29.88189,,,TRUE,,,,,,,,CAVOK,,,,,,,,VFR,,,,,,,,,,,,METAR,92.0
LFPV 230030Z AUTO 12007KT 080V140 CAVOK 16/13 Q1011 NOSIG,LFPV,2022-10-23T00:30:00Z,48.77,2.2,16.0,13.0,120,7,,6.21,29.852362,,,TRUE,,,TRUE,,,,,CAVOK,,,,,,,,VFR,,,,,,,,,,,,METAR,171.0
LFPT 230030Z AUTO 07004KT CAVOK 14/12 Q1010,LFPT,2022-10-23T00:30:00Z,49.1,2.03,14.0,12.0,70,4,,6.21,29.822834,,,TRUE,,,,,,,,CAVOK,,,,,,,,VFR,,,,,,,,,,,,METAR,91.0
LFPO 230030Z AUTO VRB02KT CAVOK 15/13 Q1011 NOSIG,LFPO,2022-10-23T00:30:00Z,48.72,2.38,15.0,13.0,0,2,,6.21,29.852362,,,TRUE,,,TRUE,,,,,CAVOK,,,,,,,,VFR,,,,,,,,,,,,METAR,88.0
LFPN 230030Z AUTO 12006KT CAVOK 15/13 Q1010,LFPN,2022-10-23T00:30:00Z,48.75,2.12,15.0,13.0,120,6,,6.21,29.822834,,,TRUE,,,,,,,,CAVOK,,,,,,,,VFR,,,,,,,,,,,,METAR,152.0
LFPM 230030Z AUTO 09007KT CAVOK 14/13 Q1011,LFPM,2022-10-23T00:30:00Z,48.62,2.67,14.0,13.0,90,7,,6.21,29.852362,,,TRUE,,,,,,,,CAVOK,,,,,,,,VFR,,,,,,,,,,,,METAR,91.0
LFPG 230030Z 11006KT CAVOK 16/13 Q1011 NOSIG,LFPG,2022-10-23T00:30:00Z,49.02,2.53,16.0,13.0,110,6,,6.21,29.852362,,,,,,TRUE,,,,,CAVOK,,,,,,,,VFR,,,,,,,,,,,,METAR,107.0
LFPB 230030Z AUTO 03005KT CAVOK 15/13 Q1011 NOSIG,LFPB,2022-10-23T00:30:00Z,48.97,2.42,15.0,13.0,30,5,,6.21,29.852362,,,TRUE,,,TRUE,,,,,CAVOK,,,,,,,,VFR,,,,,,,,,,,,METAR,50.0
LFOZ 230030Z AUTO 10006KT CAVOK 15/13 Q1010,LFOZ,2022-10-23T00:30:00Z,47.9,2.17,15.0,13.0,100,6,,6.21,29.822834,,,TRUE,,,,,,,,CAVOK,,,,,,,,VFR,,,,,,,,,,,,METAR,121.0
LFOV 230030Z AUTO 14009KT 110V170 CAVOK 17/12 Q1006,LFOV,2022-10-23T00:30:00Z,48.03,-0.75,17.0,12.0,140,9,,6.21,29.704725,,,TRUE,,,,,,,,CAVOK,,,,,,,,VFR,,,,,,,,,,,,METAR,99.0
LFOT 230030Z AUTO 12007KT CAVOK 17/12 Q1008 TEMPO 4000 SHRA SCT080CB,LFOT,2022-10-23T00:30:00Z,47.43,0.72,17.0,12.0,120,7,,6.21,29.763779,,,TRUE,,,,,,,,CAVOK,,,,,,,,VFR,,,,,,,,,,,,METAR,107.0
LFOP 230030Z AUTO 10009KT CAVOK 15/12 Q1009,LFOP,2022-10-23T00:30:00Z,49.37,1.17,15.0,12.0,100,9,,6.21,29.793306,,,TRUE,,,,,,,,CAVOK,,,,,,,,VFR,,,,,,,,,,,,METAR,149.0
LFOK 230030Z AUTO 15007KT CAVOK 14/13 Q1013 NOSIG,LFOK,2022-10-23T00:30:00Z,48.78,4.15,14.0,13.0,150,7,,6.21,29.911417,,,TRUE,,,TRUE,,,,,CAVOK,,,,,,,,VFR,,,,,,,,,,,,METAR,166.0
LFOJ 230030Z AUTO 12008KT CAVOK 16/13 Q1009 NOSIG,LFOJ,2022-10-23T00:30:00Z,47.98,1.75,16.0,13.0,120,8,,6.21,29.793306,,,TRUE,,,TRUE,,,,,CAVOK,,,,,,,,VFR,,,,,,,,,,,,METAR,122.0
LFOH 230030Z AUTO 11010KT CAVOK 16/13 Q1008,LFOH,2022-10-23T00:30:00Z,49.52,0.08,16.0,13.0,110,10,,6.21,29.763779,,,TRUE,,,,,,,,CAVOK,,,,,,,,VFR,,,,,,,,,,,,METAR,87.0
LFOE 230030Z AUTO 14007KT CAVOK 16/13 Q1010 NOSIG,LFOE,2022-10-23T00:30:00Z,49.02,1.22,16.0,13.0,140,7,,6.21,29.822834,,,TRUE,,,TRUE,,,,,CAVOK,,,,,,,,VFR,,,,,,,,,,,,METAR,132.0
LFOB 230030Z AUTO 11002KT CAVOK 13/12 Q1011 NOSIG,LFOB,2022-10-23T00:30:00Z,49.47,2.12,13.0,12.0,110,2,,6.21,29.852362,,,TRUE,,,TRUE,,,,,CAVOK,,,,,,,,VFR,,,,,,,,,,,,METAR,99.0
LFOA 230030Z AUTO 10008KT CAVOK 15/13 Q1011,LFOA,2022-10-23T00:30:00Z,47.05,2.63,15.0,13.0,100,8,,6.21,29.852362,,,TRUE,,,,,,,,CAVOK,,,,,,,,VFR,,,,,,,,,,,,METAR,174.0
LFMY 230030Z AUTO 08004KT CAVOK 18/15 Q1017,LFMY,2022-10-23T00:30:00Z,43.6,5.1,18.0,15.0,80,4,,6.21,30.029528,,,TRUE,,,,,,,,CAVOK,,,,,,,,VFR,,,,,,,,,,,,METAR,57.0
LFMV 230030Z AUTO 17006KT 9999 FEW028 SCT180 17/16 Q1017,LFMV,2022-10-23T00:30:00Z,43.9,4.9,17.0,16.0,170,6,,6.21,30.029528,,,TRUE,,,,,,,,FEW,2800,SCT,18000,,,,,VFR,,,,,,,,,,,,METAR,33.0
LFMU 230030Z AUTO 06006KT CAVOK 19/19 Q1015,LFMU,2022-10-23T00:30:00Z,43.32,3.35,19.0,19.0,60,6,,6.21,29.970472,,,TRUE,,,,,,,,CAVOK,,,,,,,,VFR,,,,,,,,,,,,METAR,14.0
LFMT 230030Z AUTO 12015KT 8000 BKN006 BKN015 OVC020 21/20 Q1016 BECMG FEW015,LFMT,2022-10-23T00:30:00Z,43.57,3.97,21.0,20.0,120,15,,4.97,30.0,,,TRUE,,,,,,,,BKN,600,BKN,1500,OVC,2000,,,IFR,,,,,,,,,,,,METAR,1.0
LFMP 230030Z AUTO VRB03KT CAVOK 15/14 Q1014,LFMP,2022-10-23T00:30:00Z,42.73,2.87,15.0,14.0,0,3,,6.21,29.940945,,,TRUE,,,,,,,,CAVOK,,,,,,,,VFR,,,,,,,,,,,,METAR,41.0
LFMO 230030Z AUTO VRB01KT CAVOK 15/13 Q1017 TEMPO 16015G25KT BECMG BKN012,LFMO,2022-10-23T00:30:00Z,44.13,4.87,15.0,13.0,0,1,,6.21,30.029528,,,TRUE,,,,,,,,CAVOK,,,,,,,,VFR,,,,,,,,,,,,METAR,56.0
LFMN 230030Z 34008KT CAVOK 19/14 Q1020 NOSIG,LFMN,2022-10-23T00:30:00Z,43.65,7.2,19.0,14.0,340,8,,6.21,30.11811,,,,,,TRUE,,,,,CAVOK,,,,,,,,VFR,,,,,,,,,,,,METAR,4.0
LFML 230030Z AUTO 12011KT 9999 FEW024 BKN190 22/18 Q1017 NOSIG,LFML,2022-10-23T00:30:00Z,43.45,5.22,22.0,18.0,120,11,,6.21,30.029528,,,TRUE,,,TRUE,,,,,FEW,2400,BKN,19000,,,,,VFR,,,,,,,,,,,,METAR,20.0
LFMK 230030Z AUTO 10011KT 060V150 CAVOK 18/16 Q1013,LFMK,2022-10-23T00:30:00Z,43.22,2.32,18.0,16.0,100,11,,6.21,29.911417,,,TRUE,,,,,,,,CAVOK,,,,,,,,VFR,,,,,,,,,,,,METAR,124.0
LFMI 230030Z AUTO 12009KT 9999 OVC017 21/18 Q1017 TEMPO BKN012,LFMI,2022-10-23T00:30:00Z,43.52,4.93,21.0,18.0,120,9,,6.21,30.029528,,,TRUE,,,,,,,,OVC,1700,,,,,,,MVFR,,,,,,,,,,,,METAR,20.0
LFMH 230030Z AUTO VRB03KT CAVOK 18/12 Q1014,LFMH,2022-10-23T00:30:00Z,45.52,4.28,18.0,12.0,0,3,,6.21,29.940945,,,TRUE,,,,,,,,CAVOK,,,,,,,,VFR,,,,,,,,,,,,METAR,400.0
LFMD 230030Z AUTO VRB02KT CAVOK 17/16 Q1019,LFMD,2022-10-23T00:30:00Z,43.53,6.95,17.0,16.0,0,2,,6.21,30.088583,,,TRUE,,,,,,,,CAVOK,,,,,,,,VFR,,,,,,,,,,,,METAR,2.0
LFMC 230030Z AUTO 06004KT 6000 ////// 18/18 Q1019,LFMC,2022-10-23T00:30:00Z,43.37,6.38,18.0,18.0,60,4,,3.73,30.088583,,,TRUE,,,,,,,,,,,,,,,,,,,,,,,,,,,,METAR,79.0
LFLY 230030Z AUTO 15010G20KT 120V190 CAVOK 19/14 Q1015 BECMG 18020G35KT,LFLY,2022-10-23T00:30:00Z,45.72,4.95,19.0,14.0,150,10,20,6.21,29.970472,,,TRUE,,,,,,,,CAVOK,,,,,,,,VFR,,,,,,,,,,,,METAR,197.0
LFLX 230030Z AUTO 09005KT CAVOK 14/12 Q1009 TEMPO SCT080TCU,LFLX,2022-10-23T00:30:00Z,46.87,1.73,14.0,12.0,90,5,,6.21,29.793306,,,TRUE,,,,,,,,CAVOK,,,,,,,,VFR,,,,,,,,,,,,METAR,157.0
LFLW 230030Z AUTO 09010KT CAVOK 15/10 Q1014,LFLW,2022-10-23T00:30:00Z,44.88,2.42,15.0,10.0,90,10,,6.21,29.940945,,,TRUE,,,,,,,,CAVOK,,,,,,,,VFR,,,,,,,,,,,,METAR,638.0
LFLS 230030Z AUTO 10004KT CAVOK 12/12 Q1017,LFLS,2022-10-23T00:30:00Z,45.37,5.32,12.0,12.0,100,4,,6.21,30.029528,,,TRUE,,,,,,,,CAVOK,,,,,,,,VFR,,,,,,,,,,,,METAR,386.0
LFLP 230030Z AUTO 04005KT 360V060 CAVOK 11/11 Q1019,LFLP,2022-10-23T00:30:00Z,45.92,6.1,11.0,11.0,40,5,,6.21,30.088583,,,TRUE,,,,,,,,CAVOK,,,,,,,,VFR,,,,,,,,,,,,METAR,460.0
LFLN 230030Z AUTO 16004KT CAVOK 15/12 Q1013,LFLN,2022-10-23T00:30:00Z,46.42,4.02,15.0,12.0,160,4,,6.21,29.911417,,,TRUE,,,,,,,,CAVOK,,,,,,,,VFR,,,,,,,,,,,,METAR,238.0
LFLL 230030Z 13008KT CAVOK 18/14 Q1016 BECMG 18015G25KT,LFLL,2022-10-23T00:30:00Z,45.72,5.07,18.0,14.0,130,8,,6.21,30.0,,,,,,,,,,,CAVOK,,,,,,,,VFR,,,,,,,,,,,,METAR,234.0
LFLC 230030Z AUTO 19010KT CAVOK 17/12 Q1013 NOSIG,LFLC,2022-10-23T00:30:00Z,45.78,3.17,17.0,12.0,190,10,,6.21,29.911417,,,TRUE,,,TRUE,,,,,CAVOK,,,,,,,,VFR,,,,,,,,,,,,METAR,325.0
LFLB 230030Z AUTO 00000KT CAVOK 11/11 Q1017,LFLB,2022-10-23T00:30:00Z,45.63,5.87,11.0,11.0,0,0,,6.21,30.029528,,,TRUE,,,,,,,,CAVOK,,,,,,,,VFR,,,,,,,,,,,,METAR,234.0
LFKS 230030Z AUTO 26005KT CAVOK 19/14 Q1020,LFKS,2022-10-23T00:30:00Z,41.92,9.4,19.0,14.0,260,5,,6.21,30.11811,,,TRUE,,,,,,,,CAVOK,,,,,,,,VFR,,,,,,,,,,,,METAR,22.0
LFKJ 230030Z AUTO 04008KT CAVOK 19/10 Q1020 NOSIG,LFKJ,2022-10-23T00:30:00Z,41.92,8.8,19.0,10.0,40,8,,6.21,30.11811,,,TRUE,,,TRUE,,,,,CAVOK,,,,,,,,VFR,,,,,,,,,,,,METAR,9.0
LFKF 230030Z AUTO 06005KT 030V110 CAVOK 19/15 Q1020,LFKF,2022-10-23T00:30:00Z,41.5,9.08,19.0,15.0,60,5,,6.21,30.11811,,,TRUE,,,,,,,,CAVOK,,,,,,,,VFR,,,,,,,,,,,,METAR,15.0
LFKC 230030Z AUTO 18003KT CAVOK 17/12 Q1020,LFKC,2022-10-23T00:30:00Z,42.52,8.8,17.0,12.0,180,3,,6.21,30.11811,,,TRUE,,,,,,,,CAVOK,,,,,,,,VFR,,,,,,,,,,,,METAR,38.0
LFKB 230030Z AUTO 22003KT 9999 SCT015 BKN150 BKN160 17/15 Q1020 BECMG BKN013,LFKB,2022-10-23T00:30:00Z,42.55,9.48,17.0,15.0,220,3,,6.21,30.11811,,,TRUE,,,,,,,,SCT,1500,BKN,15000,BKN,16000,,,VFR,,,,,,,,,,,,METAR,7.0
LFJR 230030Z AUTO 13006KT 9999 RA ///TCU 16/13 Q1007,LFJR,2022-10-23T00:30:00Z,47.57,-0.32,16.0,13.0,130,6,,6.21,29.734253,,,TRUE,,,,,,,RA,,,,,,,,,,,,,,,,,,,,,METAR,50.0
LFJL 230030Z AUTO 12011KT CAVOK 13/12 Q1015 TEMPO 4000 BR,LFJL,2022-10-23T00:30:00Z,48.97,6.25,13.0,12.0,120,11,,6.21,29.970472,,,TRUE,,,,,,,,CAVOK,,,,,,,,VFR,,,,,,,,,,,,METAR,259.0
LFGJ 230030Z AUTO 08006KT CAVOK 13/12 Q1015,LFGJ,2022-10-23T00:30:00Z,47.05,5.43,13.0,12.0,80,6,,6.21,29.970472,,,TRUE,,,,,,,,CAVOK,,,,,,,,VFR,,,,,,,,,,,,METAR,191.0
LFGA 230030Z AUTO VRB02KT CAVOK 13/11 Q1016,LFGA,2022-10-23T00:30:00Z,48.1,7.35,13.0,11.0,0,2,,6.21,30.0,,,TRUE,,,,,,,,CAVOK,,,,,,,,VFR,,,,,,,,,,,,METAR,191.0
LFCR 230030Z AUTO 12014KT CAVOK 16/12 Q1014 NOSIG,LFCR,2022-10-23T00:30:00Z,44.4,2.47,16.0,12.0,120,14,,6.21,29.940945,,,TRUE,,,TRUE,,,,,CAVOK,,,,,,,,VFR,,,,,,,,,,,,METAR,576.0
LFCK 230030Z AUTO 12022KT CAVOK 19/14 Q1013,LFCK,2022-10-23T00:30:00Z,43.55,2.28,19.0,14.0,120,22,,6.21,29.911417,,,TRUE,,,,,,,,CAVOK,,,,,,,,VFR,,,,,,,,,,,,METAR,223.0
LFBZ 230030Z AUTO 19008G18KT 130V250 CAVOK 23/11 Q1008 TEMPO 18015G30KT,LFBZ,2022-10-23T00:30:00Z,43.47,-1.53,23.0,11.0,190,8,18,6.21,29.763779,,,TRUE,,,,,,,,CAVOK,,,,,,,,VFR,,,,,,,,,,,,METAR,70.0
LFBY 230030Z AUTO 21007KT 9999 // ////// 23/12 Q1008,LFBY,2022-10-23T00:30:00Z,43.68,-1.07,23.0,12.0,210,7,,6.21,29.763779,,,TRUE,,,,,,,,,,,,,,,,,,,,,,,,,,,,METAR,32.0
LFBX 230030Z AUTO 13005KT 090V220 9999 //////TCU 20/14 Q1009,LFBX,2022-10-23T00:30:00Z,45.2,0.82,20.0,14.0,130,5,,6.21,29.793306,,,TRUE,,,,,,,,,,,,,,,,,,,,,,,,,,,,METAR,97.0
LFBU 230030Z AUTO 13010KT 090V210 CAVOK 18/14 Q1008,LFBU,2022-10-23T00:30:00Z,45.72,0.22,18.0,14.0,130,10,,6.21,29.763779,,,TRUE,,,,,,,,CAVOK,,,,,,,,VFR,,,,,,,,,,,,METAR,124.0
LFBT 230030Z AUTO VRB03KT CAVOK 16/10 Q1010 BECMG 18015G25KT,LFBT,2022-10-23T00:30:00Z,43.18,0.0,16.0,10.0,0,3,,6.21,29.822834,,,TRUE,,,,,,,,CAVOK,,,,,,,,VFR,,,,,,,,,,,,METAR,359.0
LFBP 230030Z AUTO 13004KT 090V160 CAVOK 17/12 Q1009 BECMG 20015G25KT,LFBP,2022-10-23T00:30:00Z,43.38,-0.42,17.0,12.0,130,4,,6.21,29.793306,,,TRUE,,,,,,,,CAVOK,,,,,,,,VFR,,,1.5,,,,,,,,,METAR,182.0
LFBO 230030Z AUTO 14016KT CAVOK 19/14 Q1010 NOSIG,LFBO,2022-10-23T00:30:00Z,43.62,1.37,19.0,14.0,140,16,,6.21,29.822834,,,TRUE,,,TRUE,,,,,CAVOK,,,,,,,,VFR,,,,,,,,,,,,METAR,150.0
LFBM 230030Z AUTO 10005KT 070V150 9999 // NSC 18/15 Q1008,LFBM,2022-10-23T00:30:00Z,43.92,-0.5,18.0,15.0,100,5,,6.21,29.763779,,,TRUE,,,,,,,,CLR,,,,,,,,VFR,,,,,,,,,,,,METAR,56.0
LFBL 230030Z AUTO 11005KT 080V140 9999 ///TCU 17/12 Q1011 BECMG NSC,LFBL,2022-10-23T00:30:00Z,45.87,1.17,17.0,12.0,110,5,,6.21,29.852362,,,TRUE,,,,,,,,,,,,,,,,,,,,,,,,,,,,METAR,402.0
LFBI 230030Z AUTO 15008KT 9999 ///TCU 18/13 Q1008 TEMPO 4000 SHRA SCT080CB,LFBI,2022-10-23T00:30:00Z,46.58,0.32,18.0,13.0,150,8,,6.21,29.763779,,,TRUE,,,,,,,,,,,,,,,,,,,,,,,,,,,,METAR,117.0
LFBH 230030Z AUTO 13010KT CAVOK 20/14 Q1005 TEMPO SCT070CB,LFBH,2022-10-23T00:30:00Z,46.18,-1.2,20.0,14.0,130,10,,6.21,29.675198,,,TRUE,,,,,,,,CAVOK,,,,,,,,VFR,,,,,,,,,,,,METAR,18.0
LFBG 230030Z AUTO 15012KT CAVOK 20/14 Q1007,LFBG,2022-10-23T00:30:00Z,45.67,-0.32,20.0,14.0,150,12,,6.21,29.734253,,,TRUE,,,,,,,,CAVOK,,,,,,,,VFR,,,,,,,,,,,,METAR,28.0
LFBE 230030Z AUTO 15011KT 120V190 9999 -RA //////TCU 20/14 Q1010 TEMPO 15015G25KT,LFBE,2022-10-23T00:30:00Z,44.82,0.52,20.0,14.0,150,11,,6.21,29.822834,,,TRUE,,,,,,,-RA,,,,,,,,,,,,,,,,,,,,,METAR,49.0
LFBD 230030Z AUTO 15009KT CAVOK 20/14 Q1007 NOSIG,LFBD,2022-10-23T00:30:00Z,44.82,-0.7,20.0,14.0,150,9,,6.21,29.734253,,,TRUE,,,TRUE,,,,,CAVOK,,,,,,,,VFR,,,,,,,,,,,,METAR,48.0
LFBC 230030Z AUTO 16007KT CAVOK 19/14 Q1007,LFBC,2022-10-23T00:30:00Z,44.52,-1.12,19.0,14.0,160,7,,6.21,29.734253,,,TRUE,,,,,,,,CAVOK,,,,,,,,VFR,,,,,,,,,,,,METAR,22.0
LFBA 230030Z AUTO 02004KT 320V050 9999 -RA ///TCU 18/15 Q1010,LFBA,2022-10-23T00:30:00Z,44.17,0.6,18.0,15.0,20,4,,6.21,29.822834,,,TRUE,,,,,,,-RA,,,,,,,,,,,,,,,,,,,,,METAR,68.0
LFAT 230030Z AUTO 11007KT CAVOK 15/13 Q1010,LFAT,2022-10-23T00:30:00Z,50.52,1.62,15.0,13.0,110,7,,6.21,29.822834,,,TRUE,,,,,,,,CAVOK,,,,,,,,VFR,,,,,,,,,,,,METAR,2.0
LFAQ 230030Z AUTO 12007KT CAVOK 14/13 Q1011,LFAQ,2022-10-23T00:30:00Z,49.97,2.7,14.0,13.0,120,7,,6.21,29.852362,,,TRUE,,,,,,,,CAVOK,,,,,,,,VFR,,,,,,,,,,,,METAR,107.0
LEZL 230030Z 22010KT 9999 FEW011 SCT032 21/19 Q1016 NOSIG,LEZL,2022-10-23T00:30:00Z,37.42,-5.9,21.0,19.0,220,10,,6.21,30.0,,,,,,TRUE,,,,,FEW,1100,SCT,3200,,,,,VFR,,,,,,,,,,,,METAR,26.0
LEZG 230030Z 10004KT CAVOK 19/13 Q1014,LEZG,2022-10-23T00:30:00Z,41.67,-1.02,19.0,13.0,100,4,,6.21,29.940945,,,,,,,,,,,CAVOK,,,,,,,,VFR,,,,,,,,,,,,METAR,245.0
LEXJ 230030Z AUTO 24007KT 190V280 CAVOK 21/10 Q1004,LEXJ,2022-10-23T00:30:00Z,43.42,-3.82,21.0,10.0,240,7,,6.21,29.64567,,,TRUE,,,,,,,,CAVOK,,,,,,,,VFR,,,,,,,,,,,,METAR,1.0
LEVX 230030Z 20021G32KT 170V230 9999 BKN029 BKN045 14/12 Q1003 TEMPO SHRA SCT020TCU,LEVX,2022-10-23T00:30:00Z,42.23,-8.62,14.0,12.0,200,21,32,6.21,29.616142,,,,,,,,,,,BKN,2900,BKN,4500,,,,,MVFR,,,,,,,,,,,,METAR,253.0
LEVT 230030Z 00000KT 9999 FEW070 13/10 Q1010,LEVT,2022-10-23T00:30:00Z,42.87,-2.72,13.0,10.0,0,0,,6.21,29.822834,,,,,,,,,,,FEW,7000,,,,,,,VFR,,,,,,,,,,,,METAR,501.0
LEVS 230030Z AUTO 14006KT CAVOK 15/13 Q1015,LEVS,2022-10-23T00:30:00Z,40.37,-3.78,15.0,13.0,140,6,,6.21,29.970472,,,TRUE,,,,,,,,CAVOK,,,,,,,,VFR,,,,,,,,,,,,METAR,683.0
LEVD 230030Z AUTO 20009KT 170V230 CAVOK 12/08 Q1011,LEVD,2022-10-23T00:30:00Z,41.72,-4.85,12.0,8.0,200,9,,6.21,29.852362,,,TRUE,,,,,,,,CAVOK,,,,,,,,VFR,,,,,,,,,,,,METAR,844.0
LEVC 230030Z 24002KT CAVOK 18/17 Q1016 NOSIG,LEVC,2022-10-23T00:30:00Z,39.5,-0.47,18.0,17.0,240,2,,6.21,30.0,,,,,,TRUE,,,,,CAVOK,,,,,,,,VFR,,,,,,,,,,,,METAR,58.0
LETU 230030Z AUTO 10011KT 9999 NCD 18/13 Q1013,LETU,2022-10-23T00:30:00Z,,,18.0,13.0,100,11,,6.21,29.911417,,,TRUE,,,,,,,,CLR,,,,,,,,VFR,,,,,,,,,,,,METAR,
LETO 230030Z VRB01KT CAVOK 16/12 Q1014 NOSIG,LETO,2022-10-23T00:30:00Z,40.48,-3.47,16.0,12.0,0,1,,6.21,29.940945,,,,,,TRUE,,,,,CAVOK,,,,,,,,VFR,,,,,,,,,,,,METAR,598.0
LETL 230030Z AUTO 14006KT CAVOK 14/12 Q1018,LETL,2022-10-23T00:30:00Z,40.42,-1.22,14.0,12.0,140,6,,6.21,30.059055,,,TRUE,,,,,,,,CAVOK,,,,,,,,VFR,,,,,,,,,,,,METAR,1024.0
LEST 230030Z 19018G29KT 160V240 9999 SCT023 FEW032TCU 14/10 Q1002 TEMPO 3000 SHRA SCT025TCU,LEST,2022-10-23T00:30:00Z,42.88,-8.42,14.0,10.0,190,18,29,6.21,29.586615,,,,,,,,,,,SCT,2300,FEW,3200,,,,,VFR,,,,,,,,,,,,METAR,363.0
LESO 230030Z AUTO 21014KT CAVOK 24/12 Q1007,LESO,2022-10-23T00:30:00Z,43.35,-1.8,24.0,12.0,210,14,,6.21,29.734253,,,TRUE,,,,,,,,CAVOK,,,,,,,,VFR,,,,,,,,,,,,METAR,3.0
LESB 230030Z AUTO 01003KT 9999 SCT009/// BKN011/// 19/13 Q1018,LESB,2022-10-23T00:30:00Z,39.6,2.7,19.0,13.0,10,3,,6.21,30.059055,,,TRUE,,,,,,,,SCT,900,BKN,1100,,,,,MVFR,,,,,,,,,,,,METAR,48.0
LESA 230030Z AUTO 22017KT 9999 FEW043 14/09 Q1011,LESA,2022-10-23T00:30:00Z,40.95,-5.5,14.0,9.0,220,17,,6.21,29.852362,,,TRUE,,,,,,,,FEW,4300,,,,,,,VFR,,,,,,,,,,,,METAR,788.0
LERS 230030Z AUTO 01006KT 9999 SCT020 OVC025 19/16 Q1016,LERS,2022-10-23T00:30:00Z,41.13,1.17,19.0,16.0,10,6,,6.21,30.0,,,TRUE,,,,,,,,SCT,2000,OVC,2500,,,,,MVFR,,,,,,,,,,,,METAR,68.0
LEPP 230030Z AUTO 20006KT 150V280 CAVOK 18/11 Q1011,LEPP,2022-10-23T00:30:00Z,42.77,-1.65,18.0,11.0,200,6,,6.21,29.852362,,,TRUE,,,,,,,,CAVOK,,,,,,,,VFR,,,,,,,,,,,,METAR,448.0
LEPA 230030Z VRB02KT 8000 BKN008 18/17 Q1017 NOSIG,LEPA,2022-10-23T00:30:00Z,39.55,2.73,18.0,17.0,0,2,,4.97,30.029528,,,,,,TRUE,,,,,BKN,800,,,,,,,IFR,,,,,,,,,,,,METAR,8.0
LEMO 230030Z 20005KT 160V230 9999 SCT021 18/15 Q1016 NOSIG,LEMO,2022-10-23T00:30:00Z,37.17,-5.62,18.0,15.0,200,5,,6.21,30.0,,,,,,TRUE,,,,,SCT,2100,,,,,,,VFR,,,,,,,,,,,,METAR,82.0
LEMI 230030Z AUTO 32008KT 9000 1700NE NCD 18/17 Q1017,LEMI,2022-10-23T00:30:00Z,37.8,-1.12,18.0,17.0,320,8,,5.59,30.029528,,,TRUE,,,,,,,,CLR,,,,,,,,VFR,,,,,,,,,,,,METAR,193.0
LEMH 230030Z AUTO 22007KT 8000 NCD 22/22 Q1018,LEMH,2022-10-23T00:30:00Z,39.87,4.22,22.0,22.0,220,7,,4.97,30.059055,,,TRUE,,,,,,,,CLR,,,,,,,,MVFR,,,,,,,,,,,,METAR,82.0
LEMG 230030Z 29004KT CAVOK 18/14 Q1016 NOSIG,LEMG,2022-10-23T00:30:00Z,36.67,-4.47,18.0,14.0,290,4,,6.21,30.0,,,,,,TRUE,,,,,CAVOK,,,,,,,,VFR,,,,,,,,,,,,METAR,5.0
LEMD 230030Z VRB01KT 9999 FEW080 15/13 Q1015 NOSIG,LEMD,2022-10-23T00:30:00Z,40.45,-3.57,15.0,13.0,0,1,,6.21,29.970472,,,,,,TRUE,,,,,FEW,8000,,,,,,,VFR,,,,,,,,,,,,METAR,589.0
LELO 230030Z AUTO 12011KT 100V160 CAVOK 18/11 Q1011,LELO,2022-10-23T00:30:00Z,42.45,-2.32,18.0,11.0,120,11,,6.21,29.852362,,,TRUE,,,,,,,,CAVOK,,,,,,,,VFR,,,,,,,,,,,,METAR,352.0
LELN 230030Z AUTO 22012KT 9999 -RA SCT025 BKN043 OVC050 11/11 Q1009,LELN,2022-10-23T00:30:00Z,42.58,-5.65,11.0,11.0,220,12,,6.21,29.793306,,,TRUE,,,,,,,-RA,SCT,2500,BKN,4300,OVC,5000,,,VFR,,,,,,,,,,,,METAR,911.0
LELL 230030Z AUTO VRB01KT CAVOK 16/12 Q1017,LELL,2022-10-23T00:30:00Z,41.52,2.1,16.0,12.0,0,1,,6.21,30.029528,,,TRUE,,,,,,,,CAVOK,,,,,,,,VFR,,,,,,,,,,,,METAR,136.0
LELC 230030Z AUTO VRB01KT 2500 BR NCD 19/18 Q1016,LELC,2022-10-23T00:30:00Z,37.77,-0.8,19.0,18.0,0,1,,1.55,30.0,,,TRUE,,,,,,,BR,CLR,,,,,,,,IFR,,,,,,,,,,,,METAR,3.0
LEJR 230030Z AUTO 17005KT 140V210 8000 OVC010 20/18 Q1016,LEJR,2022-10-23T00:30:00Z,36.75,-6.07,20.0,18.0,170,5,,4.97,30.0,,,TRUE,,,,,,,,OVC,1000,,,,,,,MVFR,,,,,,,,,,,,METAR,25.0
LEIB 230030Z 34004KT CAVOK 19/19 Q1016 NOSIG,LEIB,2022-10-23T00:30:00Z,38.87,1.38,19.0,19.0,340,4,,6.21,30.0,,,,,,TRUE,,,,,CAVOK,,,,,,,,VFR,,,,,,,,,,,,METAR,4.0
LEHC 230030Z AUTO 08007KT CAVOK 17/12 Q1016,LEHC,2022-10-23T00:30:00Z,42.08,-0.32,17.0,12.0,80,7,,6.21,30.0,,,TRUE,,,,,,,,CAVOK,,,,,,,,VFR,,,,,,,,,,,,METAR,540.0
LEGR 230030Z AUTO 00000KT CAVOK 18/05 Q1018,LEGR,2022-10-23T00:30:00Z,37.18,-3.78,18.0,5.0,0,0,,6.21,30.059055,,,TRUE,,,,,,,,CAVOK,,,,,,,,VFR,,,,,,,,,,,,METAR,560.0
LEGE 230030Z VRB01KT CAVOK 15/12 Q1016,LEGE,2022-10-23T00:30:00Z,41.9,2.77,15.0,12.0,0,1,,6.21,30.0,,,,,,,,,,,CAVOK,,,,,,,,VFR,,,,,,,,,,,,METAR,140.0
LEDA 230030Z AUTO 06010KT CAVOK 18/13 Q1016,LEDA,2022-10-23T00:30:00Z,41.73,0.53,18.0,13.0,60,10,,6.21,30.0,,,TRUE,,,,,,,,CAVOK,,,,,,,,VFR,,,,,,,,,,,,METAR,352.0
LECO 230030Z AUTO 17020G33KT 120V210 CAVOK 16/10 Q0998,LECO,2022-10-23T00:30:00Z,43.3,-8.37,16.0,10.0,170,20,33,6.21,29.468504,,,TRUE,,,,,,,,CAVOK,,,,,,,,VFR,,,,,,,,,,,,METAR,80.0
LECH 230030Z AUTO 00000KT 9000 NSC 16/15 Q1017,LECH,2022-10-23T00:30:00Z,40.2,0.07,16.0,15.0,0,0,,5.59,30.029528,,,TRUE,,,,,,,,CLR,,,,,,,,VFR,,,,,,,,,,,,METAR,360.0
LEBT 230030Z AUTO VRB02KT 9999 FEW016 16/15 Q1016,LEBT,2022-10-23T00:30:00Z,39.58,-0.45,16.0,15.0,0,2,,6.21,30.0,,,TRUE,,,,,,,,FEW,1600,,,,,,,VFR,,,,,,,,,,,,METAR,50.0
LEBR 230030Z AUTO 12017KT 9999 NSC 18/13 Q1013,LEBR,2022-10-23T00:30:00Z,42.2,-1.43,18.0,13.0,120,17,,6.21,29.911417,,,TRUE,,,,,,,,CLR,,,,,,,,VFR,,,,,,,,,,,,METAR,347.0
LEBL 230030Z 33008KT 9999 FEW020 19/13 Q1016 NOSIG,LEBL,2022-10-23T00:30:00Z,41.28,2.07,19.0,13.0,330,8,,6.21,30.0,,,,,,TRUE,,,,,FEW,2000,,,,,,,VFR,,,,,,,,,,,,METAR,2.0
LEBG 230030Z AUTO 18019KT CAVOK 14/09 Q1010,LEBG,2022-10-23T00:30:00Z,42.37,-3.62,14.0,9.0,180,19,,6.21,29.822834,,,TRUE,,,,,,,,CAVOK,,,,,,,,VFR,,,,,,,,,,,,METAR,892.0
LEBB 230030Z AUTO 12006KT 070V150 CAVOK 21/10 Q1006,LEBB,2022-10-23T00:30:00Z,43.28,-2.92,21.0,10.0,120,6,,6.21,29.704725,,,TRUE,,,,,,,,CAVOK,,,,,,,,VFR,,,,,,,,,,,,METAR,38.0
LEBA 230030Z AUTO 05001KT CAVOK 19/18 Q1015,LEBA,2022-10-23T00:30:00Z,37.85,-4.83,19.0,18.0,50,1,,6.21,29.970472,,,TRUE,,,,,,,,CAVOK,,,,,,,,VFR,,,,,,,,,,,,METAR,88.0
LEAS 230030Z AUTO 15004KT 080V220 9999 SCT076 15/14 Q1003,LEAS,2022-10-23T00:30:00Z,43.57,-6.03,15.0,14.0,150,4,,6.21,29.616142,,,TRUE,,,,,,,,SCT,7600,,,,,,,VFR,,,,,,,,,,,,METAR,120.0
LEAM 230030Z AUTO 33007KT CAVOK 22/13 Q1015,LEAM,2022-10-23T00:30:00Z,36.85,-2.37,22.0,13.0,330,7,,6.21,29.970472,,,TRUE,,,,,,,,CAVOK,,,,,,,,VFR,,,,,,,,,,,,METAR,16.0
LEAL 230030Z 01002KT 9000 SCT009 20/19 Q1016 NOSIG,LEAL,2022-10-23T00:30:00Z,38.27,-0.55,20.0,19.0,10,2,,5.59,30.0,,,,,,TRUE,,,,,SCT,900,,,,,,,VFR,,,,,,,,,,,,METAR,26.0
LEAG 230030Z AUTO VRB02KT 9999 FEW034 19/14 Q1017,LEAG,2022-10-23T00:30:00Z,36.12,-5.45,19.0,14.0,0,2,,6.21,30.029528,,,TRUE,,,,,,,,FEW,3400,,,,,,,VFR,,,,,,,,,,,,METAR,4.0
LEAB 230030Z 18005KT 160V220 CAVOK 19/11 Q1018 NOSIG,LEAB,2022-10-23T00:30:00Z,38.95,-1.85,19.0,11.0,180,5,,6.21,30.059055,,,,,,TRUE,,,,,CAVOK,,,,,,,,VFR,,,,,,,,,,,,METAR,704.0
LDZD 230030Z 15003KT 9999 SCT055 16/13 Q1023,LDZD,2022-10-23T00:30:00Z,44.1,15.33,16.0,13.0,150,3,,6.21,30.206694,,,,,,,,,,,SCT,5500,,,,,,,VFR,,,,,,,,,,,,METAR,82.0
LDZA 230030Z 00000KT 0800 R04/0650N R22/0600U BCFG FEW001 11/10 Q1023 BECMG 0400 FG,LDZA,2022-10-23T00:30:00Z,45.72,16.07,11.0,10.0,0,0,,0.5,30.206694,,,,,,,,,,BCFG,FEW,100,,,,,,,LIFR,,,,,,,,,,,,METAR,103.0
LDSP 230030Z AUTO VRB04KT 9999 SCT053/// 19/13 Q1023,LDSP,2022-10-23T00:30:00Z,43.53,16.3,19.0,13.0,0,4,,6.21,30.206694,,,TRUE,,,,,,,,SCT,5300,,,,,,,VFR,,,,,,,,,,,,METAR,16.0
LDRI 230030Z 12009KT 8000 -SHRA VCTS SCT020 FEW030CB BKN035 17/17 Q1022,LDRI,2022-10-23T00:30:00Z,45.22,14.57,17.0,17.0,120,9,,4.97,30.177166,,,,,,,,,,-SHRA VCTS,SCT,2000,FEW,3000,BKN,3500,,,MVFR,,,,,,,,,,,,METAR,80.0
LDPL 230030Z 10005KT 9999 FEW020 17/17 Q1021,LDPL,2022-10-23T00:30:00Z,44.88,13.92,17.0,17.0,100,5,,6.21,30.147638,,,,,,,,,,,FEW,2000,,,,,,,VFR,,,,,,,,,,,,METAR,63.0
LDOS 230030Z 23007KT 7000 NSC 13/12 Q1023,LDOS,2022-10-23T00:30:00Z,45.47,18.82,13.0,12.0,230,7,,4.35,30.206694,,,,,,,,,,,CLR,,,,,,,,MVFR,,,,,,,,,,,,METAR,82.0
LDDU 230030Z 07004KT 9999 SCT028 17/10 Q1024,LDDU,2022-10-23T00:30:00Z,42.57,18.27,17.0,10.0,70,4,,6.21,30.236221,,,,,,,,,,,SCT,2800,,,,,,,VFR,,,,,,,,,,,,METAR,156.0
LCPH 230030Z AUTO 01007KT CAVOK 18/10 Q1019,LCPH,2022-10-23T00:30:00Z,34.72,32.47,18.0,10.0,10,7,,6.21,30.088583,,,TRUE,,,,,,,,CAVOK,,,,,,,,VFR,,,,,,,,,,,,METAR,8.0
LCLK 230030Z 30007KT CAVOK 18/11 Q1019 NOSIG,LCLK,2022-10-23T00:30:00Z,34.87,33.62,18.0,11.0,300,7,,6.21,30.088583,,,,,,TRUE,,,,,CAVOK,,,,,,,,VFR,,,,,,,,,,,,METAR,2.0
LBWN 230030Z AUTO 30003KT 240V320 9999 NSC 12/05 Q1017 NOSIG,LBWN,2022-10-23T00:30:00Z,43.22,27.82,12.0,5.0,300,3,,6.21,30.029528,,,TRUE,,,TRUE,,,,,CLR,,,,,,,,VFR,,,,,,,,,,,,METAR,74.0
LBSF 230030Z AUTO 22003KT 120V230 9000 NCD 07/05 Q1022 TEMPO 5000 BR,LBSF,2022-10-23T00:30:00Z,42.65,23.37,7.0,5.0,220,3,,5.59,30.177166,,,TRUE,,,,,,,,CLR,,,,,,,,VFR,,,,,,,,,,,,METAR,592.0
LBPD 230030Z AUTO VRB01KT 9999 FEW240/// 08/03 Q1020,LBPD,2022-10-23T00:30:00Z,42.05,24.85,8.0,3.0,0,1,,6.21,30.11811,,,TRUE,,,,,,,,FEW,24000,,,,,,,VFR,,,,,,,,,,,,METAR,182.0
LBGO 230030Z AUTO VRB02KT 9999 FEW250/// 08/08 Q1017,LBGO,2022-10-23T00:30:00Z,43.15,25.72,8.0,8.0,0,2,,6.21,30.029528,,,TRUE,,,,,,,,FEW,25000,,,,,,,VFR,,,,,,,,,,,,METAR,84.0
LBBG 230030Z AUTO 27013KT 9999 NSC 14/05 Q1018 NOSIG,LBBG,2022-10-23T00:30:00Z,42.57,27.52,14.0,5.0,270,13,,6.21,30.059055,,,TRUE,,,TRUE,,,,,CLR,,,,,,,,VFR,,,,,,,,,,,,METAR,41.0
KWWR 230030Z AUTO 20008KT 10SM CLR 24/02 A2955 RMK AO2,KWWR,2022-10-23T00:30:00Z,36.45,-99.52,24.0,2.0,200,8,,10.0,29.551182,,,TRUE,TRUE,,,,,,,CLR,,,,,,,,VFR,,,,,,,,,,,,SPECI,664.0
KVCV 230030Z AUTO 19011G20KT 10SM CLR 17/09 A2968 RMK AO2,KVCV,2022-10-23T00:30:00Z,34.58,-117.38,17.0,9.0,190,11,20,10.0,29.681103,,,TRUE,TRUE,,,,,,,CLR,,,,,,,,VFR,,,,,,,,,,,,METAR,871.0
KTXW 230030Z AUTO 15012G20KT 10SM CLR 26/19 A2988 RMK AO2 T02600191,KTXW,2022-10-23T00:30:00Z,26.18,-97.97,26.0,19.1,150,12,20,10.0,29.878937,,,TRUE,TRUE,,,,,,,CLR,,,,,,,,VFR,,,,,,,,,,,,METAR,21.0
KTVL 230030Z AUTO VRB04KT 10SM SCT012 BKN021 OVC029 03/00 A2975 RMK AO2 RAE03SNB03E18 P0000 T00280000,KTVL,2022-10-23T00:30:00Z,38.9,-120.0,2.8,0.0,0,4,,10.0,29.749016,,,TRUE,TRUE,,,,,,,SCT,1200,BKN,2100,OVC,2900,,,MVFR,,,,,,0.005,,,,,,SPECI,1907.0
KTNB 230030Z AUTO 00000KT 10SM CLR 05/01 A3023 RMK AO2 T00530014,KTNB,2022-10-23T00:30:00Z,36.2,-81.65,5.3,1.4,0,0,,10.0,30.230314,,,TRUE,TRUE,,,,,,,CLR,,,,,,,,VFR,,,,,,,,,,,,METAR,958.0
KSLR 230030Z AUTO 17010G15KT 10SM CLR 25/12 A2979 RMK AO2 T02510120,KSLR,2022-10-23T00:30:00Z,33.17,-95.62,25.1,12.0,170,10,15,10.0,29.790354,,,TRUE,TRUE,,,,,,,CLR,,,,,,,,VFR,,,,,,,,,,,,METAR,144.0
KS21 230030Z AUTO 00000KT 10SM OVC035 04/M02 A2982 RMK AO2,KS21,2022-10-23T00:30:00Z,43.88,-121.45,4.0,-2.0,0,0,,10.0,29.819881,,,TRUE,TRUE,,,,,,,OVC,3500,,,,,,,VFR,,,,,,,,,,,,METAR,1269.0
KPVW 230030Z AUTO 23010G16KT 10SM CLR 23/10 A2972 RMK AO2 T02290099,KPVW,2022-10-23T00:30:00Z,34.17,-101.72,22.9,9.9,230,10,16,10.0,29.719488,,,TRUE,TRUE,,,,,,,CLR,,,,,,,,VFR,,,,,,,,,,,,METAR,1029.0
KOSA 230030Z AUTO 16010KT 10SM CLR 24/13 A2980 RMK AO2 T02420128,KOSA,2022-10-23T00:30:00Z,33.1,-94.97,24.2,12.8,160,10,,10.0,29.799213,,,TRUE,TRUE,,,,,,,CLR,,,,,,,,VFR,,,,,,,,,,,,METAR,108.0
KMYZ 230030Z AUTO 00000KT 10SM CLR 22/08 A2951 RMK AO2,KMYZ,2022-10-23T00:30:00Z,39.85,-96.63,22.0,8.0,0,0,,10.0,29.509842,,,TRUE,TRUE,,,,,,,CLR,,,,,,,,VFR,,,,,,,,,,,,SPECI,388.0
KMPZ 230030Z AUTO 16011G17KT 10SM CLR 23/11 A2970 RMK AO2,KMPZ,2022-10-23T00:30:00Z,40.95,-91.52,23.0,11.0,160,11,17,10.0,29.698818,,,TRUE,TRUE,,,,,,,CLR,,,,,,,,VFR,,,,,,,,,,,,METAR,222.0
KJDD 230030Z AUTO 17007KT 10SM CLR 26/13 A2980 RMK AO2,KJDD,2022-10-23T00:30:00Z,32.75,-95.5,26.0,13.0,170,7,,10.0,29.799213,,,TRUE,TRUE,,,,,,,CLR,,,,,,,,VFR,,,,,,,,,,,,METAR,127.0
KHSG 230030Z AUTO 17009KT 10SM CLR 14/M01 A2932 RMK AO2 T01401011,KHSG,2022-10-23T00:30:00Z,43.72,-108.38,14.0,-1.1,170,9,,10.0,29.320866,,,TRUE,TRUE,,,,,,,CLR,,,,,,,,VFR,,,,,,,,,,,,METAR,1497.0
KHBV 230030Z AUTO 15005KT 10SM CLR 26/16 A2986 RMK AO2 T02550159,KHBV,2022-10-23T00:30:00Z,27.35,-98.73,25.5,15.9,150,5,,10.0,29.861221,,,TRUE,TRUE,,,,,,,CLR,,,,,,,,VFR,,,,,,,,,,,,METAR,200.0
KGVW 230030Z AUTO 13013KT 10SM CLR 25/17 A2996 RMK A01,KGVW,2022-10-23T00:30:00Z,29.13,-94.55,25.0,17.0,130,13,,10.0,29.958662,,,TRUE,TRUE,,,,,,,CLR,,,,,,,,VFR,,,,,,,,,,,,SPECI,37.0
KFOT 230030Z AUTO 32011KT 9SM SCT031 BKN048 12/07 A2994 RMK AO1,KFOT,2022-10-23T00:30:00Z,40.55,-124.13,12.0,7.0,320,11,,9.0,29.940945,,,TRUE,TRUE,,,,,,,SCT,3100,BKN,4800,,,,,VFR,,,,,,,,,,,,METAR,118.0
KEAN 230030Z AUTO 00000KT 10SM CLR 16/M07 A2941 RMK AO2 T01631068,KEAN,2022-10-23T00:30:00Z,42.05,-104.93,16.3,-6.8,0,0,,10.0,29.409449,,,TRUE,TRUE,,,,,,,CLR,,,,,,,,VFR,,,,,,,,,,,,METAR,1452.0
KDWX 230030Z AUTO 25012G27KT 10SM BKN075 OVC090 13/M05 A2957 RMK AO2 T01301053,KDWX,2022-10-23T00:30:00Z,41.03,-107.5,13.0,-5.3,250,12,27,10.0,29.568897,,,TRUE,TRUE,,,,,,,BKN,7500,OVC,9000,,,,,VFR,,,,,,,,,,,,METAR,1974.0
KDVK 230030Z AUTO 00000KT 10SM CLR 16/09 A3011 RMK AO2,KDVK,2022-10-23T00:30:00Z,37.58,-84.77,16.0,9.0,0,0,,10.0,30.109253,,,TRUE,TRUE,,,,,,,CLR,,,,,,,,VFR,,,,,,,,,,,,SPECI,309.0
KCUH 230030Z AUTO 17011G19KT 10SM CLR 26/14 A2958 RMK AO2 T02620135,KCUH,2022-10-23T00:30:00Z,35.95,-96.77,26.2,13.5,170,11,19,10.0,29.58071,,,TRUE,TRUE,,,,,,,CLR,,,,,,,,VFR,,,,,,,,,,,,SPECI,274.0
KCHK 230030Z AUTO 19014G18KT 10SM CLR 29/09 A2956 RMK AO2 T02890094,KCHK,2022-10-23T00:30:00Z,35.1,-97.97,28.9,9.4,190,14,18,10.0,29.56004,,,TRUE,TRUE,,,,,,,CLR,,,,,,,,VFR,,,,,,,,,,,,SPECI,346.0
KCCB 230030Z AUTO 23011G17KT 10SM SCT020 SCT025 OVC031 16/11 A2976 RMK AO2,KCCB,2022-10-23T00:30:00Z,34.12,-117.68,16.0,11.0,230,11,17,10.0,29.760826,,,TRUE,TRUE,,,,,,,SCT,2000,SCT,2500,OVC,3100,,,VFR,,,,,,,,,,,,METAR,440.0
KBMC 230030Z AUTO 10SM SCT026 OVC033 05/02 A2963 RMK AO1 T00500018,KBMC,2022-10-23T00:30:00Z,41.55,-112.07,5.0,1.8,,,,10.0,29.630905,,,TRUE,TRUE,,,,,,,SCT,2600,OVC,3300,,,,,VFR,,,,,,,,,,,,METAR,1289.0
KANK 230030Z AUTO 20009KT 10SM CLR A2972 RMK AO1,KANK,2022-10-23T00:30:00Z,38.53,-106.05,,,200,9,,10.0,29.719488,,,TRUE,TRUE,,,,,,,CLR,,,,,,,,VFR,,,,,,,,,,,,METAR,2293.0
K4V1 230030Z AUTO 25019G30KT 10SM CLR 20/M03 A2962 RMK AO2 T02001026,K4V1,2022-10-23T00:30:00Z,37.7,-104.78,20.0,-2.6,250,19,30,10.0,29.619095,,,TRUE,TRUE,,,,,,,CLR,,,,,,,,VFR,,,,,,,,,,,,METAR,1847.0
K36K 230030Z AUTO 15004KT 10SM CLR 21/M06 A2949 RMK AO2,K36K,2022-10-23T00:30:00Z,37.97,-101.25,21.0,-6.0,150,4,,10.0,29.489174,,,TRUE,TRUE,,,,,,,CLR,,,,,,,,VFR,,,,,,,,,,,,METAR,938.0
HUEN 230030Z 01008KT 9999 FEW021 FEW023CB 20/20 Q1016 NOSIG,HUEN,2022-10-23T00:30:00Z,0.03,32.45,20.0,20.0,10,8,,6.21,30.0,,,,,,TRUE,,,,,FEW,2100,FEW,2300,,,,,VFR,,,,,,,,,,,,METAR,1147.0
HRYR 230030Z 21003KT 9999 SCT025 19/14 Q1019 NOSIG,HRYR,2022-10-23T00:30:00Z,-1.97,30.13,19.0,14.0,210,3,,6.21,30.088583,,,,,,TRUE,,,,,SCT,2500,,,,,,,VFR,,,,,,,,,,,,METAR,1493.0
HKJK 230030Z 08008KT CAVOK 15/13 Q1023 NOSIG,HKJK,2022-10-23T00:30:00Z,-1.32,36.92,15.0,13.0,80,8,,6.21,30.206694,,,,,,TRUE,,,,,CAVOK,,,,,,,,VFR,,,,,,,,,,,,METAR,1615.0
HECA 230030Z 35003KT 6000 FEW025 21/17 Q1018 NOSIG,HECA,2022-10-23T00:30:00Z,30.12,31.4,21.0,17.0,350,3,,3.73,30.059055,,,,,,TRUE,,,,,FEW,2500,,,,,,,MVFR,,,,,,,,,,,,METAR,68.0
GQNO 230030Z 35013KT 8000 NSC 26/20 Q1011 NOSIG,GQNO,2022-10-23T00:30:00Z,18.3,-15.97,26.0,20.0,350,13,,4.97,29.852362,,,,,,TRUE,,,,,CLR,,,,,,,,MVFR,,,,,,,,,,,,METAR,1.0
GOBD 230030Z 25003KT 9999 FEW015 26/26 Q1014 NOSIG,GOBD,2022-10-23T00:30:00Z,14.67,-17.07,26.0,26.0,250,3,,6.21,29.940945,,,,,,TRUE,,,,,FEW,1500,,,,,,,VFR,,,,,,,,,,,,METAR,90.0
GMTT 230030Z 19004KT 140V240 6000 NSC 21/18 Q1017 NOSIG,GMTT,2022-10-23T00:30:00Z,35.72,-5.9,21.0,18.0,190,4,,3.73,30.029528,,,,,,TRUE,,,,,CLR,,,,,,,,MVFR,,,,,,,,,,,,METAR,19.0
GMMX 230030Z VRB01KT CAVOK 20/11 Q1018 NOSIG,GMMX,2022-10-23T00:30:00Z,31.62,-8.03,20.0,11.0,0,1,,6.21,30.059055,,,,,,TRUE,,,,,CAVOK,,,,,,,,VFR,,,,,,,,,,,,METAR,465.0
GMMN 230030Z 22002KT CAVOK 17/16 Q1018 NOSIG,GMMN,2022-10-23T00:30:00Z,33.37,-7.58,17.0,16.0,220,2,,6.21,30.059055,,,,,,TRUE,,,,,CAVOK,,,,,,,,VFR,,,,,,,,,,,,METAR,196.0
GMFO 230030Z 17017KT CAVOK 25/01 Q1019 NOSIG,GMFO,2022-10-23T00:30:00Z,34.78,-1.92,25.0,1.0,170,17,,6.21,30.088583,,,,,,TRUE,,,,,CAVOK,,,,,,,,VFR,,,,,,,,,,,,METAR,452.0
GMFF 230030Z 21009KT CAVOK 19/04 Q1020 NOSIG,GMFF,2022-10-23T00:30:00Z,33.92,-4.97,19.0,4.0,210,9,,6.21,30.11811,,,,,,TRUE,,,,,CAVOK,,,,,,,,VFR,,,,,,,,,,,,METAR,575.0
GMAD 230030Z 06006KT CAVOK 20/07 Q1016 NOSIG,GMAD,2022-10-23T00:30:00Z,30.32,-9.42,20.0,7.0,60,6,,6.21,30.0,,,,,,TRUE,,,,,CAVOK,,,,,,,,VFR,,,,,,,,,,,,METAR,66.0
GLRB 230030Z 00000KT 9000 -TSRA SCT005 BKN011 FEW022CB 24/23 Q1014 TEMPO 4000 TSRA RMK CB/W THRU NE,GLRB,2022-10-23T00:30:00Z,6.25,-10.35,24.0,23.0,0,0,,5.59,29.940945,,,,,,,,,,-TSRA,SCT,500,BKN,1100,FEW,2200,,,MVFR,,,,,,,,,,,,METAR,12.0
GEML 230030Z AUTO 33005KT CAVOK 21/15 Q1016,GEML,2022-10-23T00:30:00Z,35.27,-2.95,21.0,15.0,330,5,,6.21,30.0,,,TRUE,,,,,,,,CAVOK,,,,,,,,VFR,,,,,,,,,,,,METAR,48.0
GECE 230030Z AUTO VRB02KT CAVOK 20/16 Q1016,GECE,2022-10-23T00:30:00Z,35.88,-5.3,20.0,16.0,0,2,,6.21,30.0,,,TRUE,,,,,,,,CAVOK,,,,,,,,VFR,,,,,,,,,,,,METAR,2.0
GCXO 230030Z AUTO 30013KT 9999 BKN004 BKN009 18/17 Q1020,GCXO,2022-10-23T00:30:00Z,28.48,-16.35,18.0,17.0,300,13,,6.21,30.11811,,,TRUE,,,,,,,,BKN,400,BKN,900,,,,,LIFR,,,,,,,,,,,,METAR,623.0
GCTS 230030Z 09003KT 9999 FEW020 BKN025 22/18 Q1018 NOSIG,GCTS,2022-10-23T00:30:00Z,28.05,-16.57,22.0,18.0,90,3,,6.21,30.059055,,,,,,TRUE,,,,,FEW,2000,BKN,2500,,,,,MVFR,,,,,,,,,,,,METAR,59.0
GCLP 230030Z 01012KT 9999 FEW020 22/19 Q1017 NOSIG,GCLP,2022-10-23T00:30:00Z,27.92,-15.38,22.0,19.0,10,12,,6.21,30.029528,,,,,,TRUE,,,,,FEW,2000,,,,,,,VFR,,,,,,,,,,,,METAR,16.0
GCLA 230030Z AUTO 32003KT 270V010 9999 FEW024 22/18 Q1018,GCLA,2022-10-23T00:30:00Z,28.62,-17.75,22.0,18.0,320,3,,6.21,30.059055,,,TRUE,,,,,,,,FEW,2400,,,,,,,VFR,,,,,,,,,,,,METAR,20.0
GCFV 230030Z AUTO 04008KT 9999 BKN012 OVC019 23/20 Q1017,GCFV,2022-10-23T00:30:00Z,28.43,-13.87,23.0,20.0,40,8,,6.21,30.029528,,,TRUE,,,,,,,,BKN,1200,OVC,1900,,,,,MVFR,,,,,,,,,,,,METAR,11.0
GABS 230030Z 00000KT 9999 FEW020 24/21 Q1015 NOSIG,GABS,2022-10-23T00:30:00Z,12.53,-7.95,24.0,21.0,0,0,,6.21,29.970472,,,,,,TRUE,,,,,FEW,2000,,,,,,,VFR,,,,,,,,,,,,METAR,375.0
FMMI 230030Z 04008KT 9999 FEW017 15/14 Q1022 NOSIG,FMMI,2022-10-23T00:30:00Z,-18.8,47.47,15.0,14.0,40,8,,6.21,30.177166,,,,,,TRUE,,,,,FEW,1700,,,,,,,VFR,,,,,,,,,,,,METAR,1269.0
FMEP 230030Z AUTO 01004KT CAVOK 21/15 Q1020,FMEP,2022-10-23T00:30:00Z,-21.32,55.42,21.0,15.0,10,4,,6.21,30.11811,,,TRUE,,,,,,,,CAVOK,,,,,,,,VFR,,,,,,,,,,,,METAR,21.0
FMEE 230030Z AUTO 18007KT 9999 OVC064/// 21/18 Q1020 TEMPO 4000 SHRA SCT020TCU,FMEE,2022-10-23T00:30:00Z,-20.88,55.52,21.0,18.0,180,7,,6.21,30.11811,,,TRUE,,,,,,,,OVC,6400,,,,,,,VFR,,,,,,,,,,,,SPECI,20.0
FMCZ 230030Z AUTO 36002KT CAVOK 23/20 Q1016 TEMPO 4500 SHRA,FMCZ,2022-10-23T00:30:00Z,-12.8,45.27,23.0,20.0,360,2,,6.21,30.0,,,TRUE,,,,,,,,CAVOK,,,,,,,,VFR,,,,,,,,,,,,SPECI,7.0
EPWR 230030Z 23005KT CAVOK 10/09 Q1018,EPWR,2022-10-23T00:30:00Z,51.1,16.88,10.0,9.0,230,5,,6.21,30.059055,,,,,,,,,,,CAVOK,,,,,,,,VFR,,,,,,,,,,,,METAR,118.0
EPWA 230030Z 28007KT 8000 BKN006 BKN030 13/12 Q1015 TEMPO 3000 BR BKN005,EPWA,2022-10-23T00:30:00Z,52.17,20.97,13.0,12.0,280,7,,4.97,29.970472,,,,,,,,,,,BKN,600,BKN,3000,,,,,IFR,,,,,,,,,,,,METAR,107.0
EPSY 230030Z 27004KT 240V300 3600 BR BKN005 12/12 Q1014,EPSY,2022-10-23T00:30:00Z,53.47,20.93,12.0,12.0,270,4,,2.24,29.940945,,,,,,,,,,BR,BKN,500,,,,,,,IFR,,,,,,,,,,,,METAR,136.0
EPSC 230030Z VRB02KT 0250 R31/0900D FG NSC 10/10 Q1015,EPSC,2022-10-23T00:30:00Z,53.58,14.9,10.0,10.0,0,2,,0.16,29.970472,,,,,,,,,,FG,CLR,,,,,,,,LIFR,,,,,,,,,,,,METAR,47.0
EPRZ 230030Z 28012KT 4000 -DZ BR OVC002 12/11 Q1016,EPRZ,2022-10-23T00:30:00Z,50.1,22.02,12.0,11.0,280,12,,2.49,30.0,,,,,,,,,,-DZ BR,OVC,200,,,,,,,LIFR,,,,,,,,,,,,METAR,206.0
EPPO 230030Z 23003KT 2800 BR OVC001 13/13 Q1016,EPPO,2022-10-23T00:30:00Z,52.42,16.83,13.0,13.0,230,3,,1.74,30.0,,,,,,,,,,BR,OVC,100,,,,,,,LIFR,,,,,,,,,,,,METAR,87.0
EPMO 230030Z 26008KT 6000 SCT006 BKN030 12/12 Q1015,EPMO,2022-10-23T00:30:00Z,52.45,20.65,12.0,12.0,260,8,,3.73,29.970472,,,,,,,,,,,SCT,600,BKN,3000,,,,,MVFR,,,,,,,,,,,,METAR,102.0
EPLL 230030Z 26009KT 4300 BR FEW004 BKN008 13/12 Q1017,EPLL,2022-10-23T00:30:00Z,51.72,19.4,13.0,12.0,260,9,,2.67,30.029528,,,,,,,,,,BR,FEW,400,BKN,800,,,,,IFR,,,,,,,,,,,,METAR,176.0
EPLB 230030Z 29008KT 8000 -DZ BKN003 OVC005 12/12 Q1015,EPLB,2022-10-23T00:30:00Z,51.23,22.72,12.0,12.0,290,8,,4.97,29.970472,,,,,,,,,,-DZ,BKN,300,OVC,500,,,,,LIFR,,,,,,,,,,,,METAR,206.0
EPKT 230030Z 25008KT 9000 FEW006 BKN014 11/10 Q1019,EPKT,2022-10-23T00:30:00Z,50.47,19.08,11.0,10.0,250,8,,5.59,30.088583,,,,,,,,,,,FEW,600,BKN,1400,,,,,MVFR,,,,,,,,,,,,METAR,296.0
EPKK 230030Z 25006KT 9999 BKN011 BKN018 11/10 Q1019,EPKK,2022-10-23T00:30:00Z,50.07,19.8,11.0,10.0,250,6,,6.21,30.088583,,,,,,,,,,,BKN,1100,BKN,1800,,,,,MVFR,,,,,,,,,,,,METAR,237.0
EPGD 230030Z 28009KT 9999 BKN009 BKN015 12/11 Q1013,EPGD,2022-10-23T00:30:00Z,54.37,18.47,12.0,11.0,280,9,,6.21,29.911417,,,,,,,,,,,BKN,900,BKN,1500,,,,,IFR,,,,,,,,,,,,METAR,136.0
EPBY 230030Z 27004KT 5000 BR OVC004 12/12 Q1016,EPBY,2022-10-23T00:30:00Z,53.1,18.0,12.0,12.0,270,4,,3.11,30.0,,,,,,,,,,BR,OVC,400,,,,,,,LIFR,,,,,,,,,,,,METAR,66.0
EINN 230030Z 11007KT 9999 -RA FEW013 BKN070 13/12 Q1000 NOSIG,EINN,2022-10-23T00:30:00Z,52.7,-8.92,13.0,12.0,110,7,,6.21,29.52756,,,,,,TRUE,,,,-RA,FEW,1300,BKN,7000,,,,,VFR,,,,,,,,,,,,METAR,20.0
EIDW 230030Z 13006KT 090V170 9000 -RA FEW007 BKN070 13/12 Q1003 TEMPO 2500 RA BKN005,EIDW,2022-10-23T00:30:00Z,53.42,-6.28,13.0,12.0,130,6,,5.59,29.616142,,,,,,,,,,-RA,FEW,700,BKN,7000,,,,,VFR,,,,,,,,,,,,METAR,75.0
EICK 230030Z 13010KT 6000 -RA SCT002 BKN003 BKN010 14/13 Q1000 TEMPO 2500 RA,EICK,2022-10-23T00:30:00Z,51.85,-8.47,14.0,13.0,130,10,,3.73,29.52756,,,,,,,,,,-RA,SCT,200,BKN,300,BKN,1000,,,LIFR,,,,,,,,,,,,METAR,158.0
DTTJ 230030Z 18006KT CAVOK 19/16 Q1023 NOSIG,DTTJ,2022-10-23T00:30:00Z,33.87,10.77,19.0,16.0,180,6,,6.21,30.206694,,,,,,TRUE,,,,,CAVOK,,,,,,,,VFR,,,,,,,,,,,,METAR,3.0
DTTA 230030Z 16006KT 9999 FEW026 22/16 Q1021,DTTA,2022-10-23T00:30:00Z,36.85,10.22,22.0,16.0,160,6,,6.21,30.147638,,,,,,,,,,,FEW,2600,,,,,,,VFR,,,,,,,,,,,,METAR,4.0
DTNH 230030Z 09001KT CAVOK 17/11 Q1022 NOSIG,DTNH,2022-10-23T00:30:00Z,36.07,10.43,17.0,11.0,90,1,,6.21,30.177166,,,,,,TRUE,,,,,CAVOK,,,,,,,,VFR,,,,,,,,,,,,METAR,1.0
DTMB 230030Z 17006KT CAVOK 21/17 Q1022,DTMB,2022-10-23T00:30:00Z,35.77,10.75,21.0,17.0,170,6,,6.21,30.177166,,,,,,,,,,,CAVOK,,,,,,,,VFR,,,,,,,,,,,,METAR,1.0
DIAP 230030Z 22007KT 8000 FEW013 27/26 Q1014 NOSIG,DIAP,2022-10-23T00:30:00Z,5.25,-3.92,27.0,26.0,220,7,,4.97,29.940945,,,,,,TRUE,,,,,FEW,1300,,,,,,,MVFR,,,,,,,,,,,,METAR,4.0
BKPR 230030Z VRB01KT CAVOK 07/06 Q1024 NOSIG,BKPR,2022-10-23T00:30:00Z,42.58,21.03,7.0,6.0,0,1,,6.21,30.236221,,,,,,TRUE,,,,,CAVOK,,,,,,,,VFR,,,,,,,,,,,,METAR,545.0
BIKF 230030Z 09005KT 4000 -DZ BR BKN003 OVC010 05/05 Q1012,BIKF,2022-10-23T00:30:00Z,63.98,-22.6,5.0,5.0,90,5,,2.49,29.88189,,,,,,,,,,-DZ BR,BKN,300,OVC,1000,,,,,LIFR,,,,,,,,,,,,METAR,49.0
KNFG 230029Z 22005KT 10SM FEW025 SCT030 OVC043 19/13 A2977 RMK AO2 T01940133,KNFG,2022-10-23T00:29:00Z,33.3,-117.35,19.4,13.3,220,5,,10.0,29.769686,,,,TRUE,,,,,,,FEW,2500,SCT,3000,OVC,4300,,,VFR,,,,,,,,,,,,METAR,21.0
CYVM 230029Z AUTO 00000KT 6SM -SN OVC016 M02/M02 A2918 RMK SLP885,CYVM,2022-10-23T00:29:00Z,67.55,-64.02,-2.0,-2.0,0,0,,6.0,29.179134,988.5,,TRUE,,,,,,,-SN,OVC,1600,,,,,,,MVFR,,,,,,,,,,,,SPECI,3.0
CYTE 230029Z AUTO 29010G15KT 9SM SCT013 M00/M01 A2924 RMK SLP908,CYTE,2022-10-23T00:29:00Z,64.22,-76.52,0.0,-1.0,290,10,15,9.0,29.241142,990.8,,TRUE,,,,,,,,SCT,1300,,,,,,,VFR,,,,,,,,,,,,SPECI,49.0
PAPB 230028Z AUTO 24011KT 10SM SCT016 07/ A3000 RMK AO2 T0067 TSNO $,PAPB,2022-10-23T00:28:00Z,56.58,-169.67,6.7,,240,11,,10.0,30.0,,,TRUE,TRUE,TRUE,,TRUE,,,,SCT,1600,,,,,,,VFR,,,,,,,,,,,,METAR,33.0
PAGA 230028Z AUTO 10SM BKN026 02/M02 A2992 RMK AO2 FZRANO $,PAGA,2022-10-23T00:28:00Z,64.73,-156.93,2.0,-2.0,,,,10.0,29.920275,,,TRUE,TRUE,TRUE,,,TRUE,,,BKN,2600,,,,,,,MVFR,,,,,,,,,,,,SPECI,39.0
PAFS 230028Z AUTO 01006KT 10SM BKN019 03/01 A2989 RMK AO2,PAFS,2022-10-23T00:28:00Z,63.02,-154.35,3.0,1.0,10,6,,10.0,29.890747,,,TRUE,TRUE,,,,,,,BKN,1900,,,,,,,MVFR,,,,,,,,,,,,SPECI,131.0
KPVU 230028Z 31014KT 6SM -RA BR SCT012 BKN019 OVC028 05/03 A2965 RMK AO2 P0006,KPVU,2022-10-23T00:28:00Z,40.22,-111.72,5.0,3.0,310,14,,6.0,29.648623,,,,TRUE,,,,,,-RA BR,SCT,1200,BKN,1900,OVC,2800,,,MVFR,,,,,,0.06,,,,,,SPECI,1370.0
KSHN 230027Z AUTO 01004KT 10SM BKN028 BKN035 12/07 A2976 RMK AO2 T01220072,KSHN,2022-10-23T00:27:00Z,47.23,-123.13,12.2,7.2,10,4,,10.0,29.760826,,,TRUE,TRUE,,,,,,,BKN,2800,BKN,3500,,,,,MVFR,,,,,,,,,,,,SPECI,84.0
KNTD 230027Z 27010KT 8SM FEW015 BKN022 BKN050 BKN150 19/13 A2975 RMK AO2 T01890133,KNTD,2022-10-23T00:27:00Z,34.12,-119.12,18.9,13.3,270,10,,8.0,29.749016,,,,TRUE,,,,,,,FEW,1500,BKN,2200,BKN,5000,BKN,15000,MVFR,,,,,,,,,,,,SPECI,1.0
PAWN 230025Z AUTO 13006KT 10SM BKN011 OVC040 01/M01 A2983 RMK AO2 RAE05 P0000 FZRANO,PAWN,2022-10-23T00:25:00Z,67.57,-162.98,1.0,-1.0,130,6,,10.0,29.828741,,,TRUE,TRUE,,,,TRUE,,,BKN,1100,OVC,4000,,,,,MVFR,,,,,,0.005,,,,,,SPECI,26.0
PALG 230025Z AUTO 21004KT 10SM SCT008 SCT014 04/01 A2991 RMK AO2,PALG,2022-10-23T00:25:00Z,61.53,-160.33,4.0,1.0,210,4,,10.0,29.911417,,,TRUE,TRUE,,,,,,,SCT,800,SCT,1400,,,,,VFR,,,,,,,,,,,,SPECI,13.0
PAKK 230025Z AUTO 18007KT 9SM -RA OVC004 01/00 A2983 RMK AO2 UPB12E17RAB17SNE12 CIG 003V007 P0000 FZRANO,PAKK,2022-10-23T00:25:00Z,64.93,-161.15,1.0,0.0,180,7,,9.0,29.828741,,,TRUE,TRUE,,,,TRUE,,-RA,OVC,400,,,,,,,LIFR,,,,,,0.005,,,,,,SPECI,56.0
OPLA 230025Z 00000KT 4000 FU NSC 19/14 Q1016 BECMG 3000 RMK QFE990 A30.01,OPLA,2022-10-23T00:25:00Z,31.52,74.4,19.0,14.0,0,0,,2.49,30.0,,,,,,,,,,FU,CLR,,,,,,,,IFR,,,,,,,,,,,,SPECI,217.0
KSDY 230025Z AUTO 05006KT 10SM BKN021 08/05 A2951 RMK AO2 PNO $,KSDY,2022-10-23T00:25:00Z,47.7,-104.2,8.0,5.0,50,6,,10.0,29.509842,,,TRUE,TRUE,TRUE,,,,,,BKN,2100,,,,,,,MVFR,,,,,,,,,,,,SPECI,600.0
KHIF 230025Z 10005KT 9SM -RA BKN016 03/03 A2962 RMK AO2A CIG 011 RWY14 SLP006,KHIF,2022-10-23T00:25:00Z,41.12,-111.97,3.0,3.0,100,5,,9.0,29.619095,1000.6,,,TRUE,,,,,,-RA,BKN,1600,,,,,,,MVFR,,,,,,,,,,,,SPECI,1461.0
EHWO 230025Z AUTO VRB02KT 9999 OVC150 11/11 Q1012 BLU,EHWO,2022-10-23T00:25:00Z,51.45,4.33,11.0,11.0,0,2,,6.21,29.88189,,,TRUE,,,,,,,,OVC,15000,,,,,,,VFR,,,,,,,,,,,,METAR,15.0
EHVL 230025Z AUTO 16007KT 9999 OVC150 12/12 Q1013 BLU,EHVL,2022-10-23T00:25:00Z,53.28,5.08,12.0,12.0,160,7,,6.21,29.911417,,,TRUE,,,,,,,,OVC,15000,,,,,,,VFR,,,,,,,,,,,,METAR,2.0
EHVK 230025Z AUTO 10003KT 9999 OVC160 11/11 Q1013 BLU,EHVK,2022-10-23T00:25:00Z,51.65,5.7,11.0,11.0,100,3,,6.21,29.911417,,,TRUE,,,,,,,,OVC,16000,,,,,,,VFR,,,,,,,,,,,,METAR,20.0
EHSC 230025Z AUTO 15011KT 9999 ///////// 16/14 Q1012 W16/H5,EHSC,2022-10-23T00:25:00Z,51.93,3.67,16.0,14.0,150,11,,6.21,29.88189,,,TRUE,,,,,,,,,,,,,,,,,,,,,,,,,,,,METAR,19.0
EHSA 230025Z AUTO 14010KT 9999 ///////// 16/14 Q1011 W17/H6,EHSA,2022-10-23T00:25:00Z,52.0,3.28,16.0,14.0,140,10,,6.21,29.852362,,,TRUE,,,,,,,,,,,,,,,,,,,,,,,,,,,,METAR,18.0
EHRD 230025Z AUTO 12002KT 9999 NSC 12/12 Q1012 NOSIG,EHRD,2022-10-23T00:25:00Z,51.95,4.45,12.0,12.0,120,2,,6.21,29.88189,,,TRUE,,,TRUE,,,,,CLR,,,,,,,,VFR,,,,,,,,,,,,METAR,-4.0
EHQE 230025Z AUTO /////KT 9999 NSC 16/14 Q1012,EHQE,2022-10-23T00:25:00Z,52.92,4.15,16.0,14.0,,,,6.21,29.88189,,,TRUE,,,,,,,,CLR,,,,,,,,VFR,,,,,,,,,,,,METAR,41.0
EHPG 230025Z AUTO 15011KT 9999 FEW029/// 16/14 Q1012,EHPG,2022-10-23T00:25:00Z,52.37,3.35,16.0,14.0,150,11,,6.21,29.88189,,,TRUE,,,,,,,,FEW,2900,,,,,,,VFR,,,,,,,,,,,,METAR,24.0
EHMG 230025Z AUTO 20014KT 9999 NSC 15/13 Q1014,EHMG,2022-10-23T00:25:00Z,53.62,4.97,15.0,13.0,200,14,,6.21,29.940945,,,TRUE,,,,,,,,CLR,,,,,,,,VFR,,,,,,,,,,,,METAR,30.0
EHMA 230025Z AUTO 20015KT 9999 NSC 12/11 Q1013,EHMA,2022-10-23T00:25:00Z,53.5,5.95,12.0,11.0,200,15,,6.21,29.911417,,,TRUE,,,,,,,,CLR,,,,,,,,VFR,,,,,,,,,,,,METAR,27.0
EHLW 230025Z AUTO 15004KT 090V160 9000 BR OVC160 11/11 Q1013 BLU,EHLW,2022-10-23T00:25:00Z,53.22,5.75,11.0,11.0,150,4,,5.59,29.911417,,,TRUE,,,,,,,BR,OVC,16000,,,,,,,VFR,,,,,,,,,,,,METAR,1.0
EHLE 230025Z AUTO 13005KT 9999 OVC034 11/11 Q1013,EHLE,2022-10-23T00:25:00Z,52.45,5.52,11.0,11.0,130,5,,6.21,29.911417,,,TRUE,,,,,,,,OVC,3400,,,,,,,VFR,,,,,,,,,,,,METAR,-3.0
EHKV 230025Z AUTO 19013KT 9999 NSC 16/14 Q1012,EHKV,2022-10-23T00:25:00Z,53.27,3.63,16.0,14.0,190,13,,6.21,29.88189,,,TRUE,,,,,,,,CLR,,,,,,,,VFR,,,,,,,,,,,,METAR,28.0
EHKD 230025Z AUTO VRB02KT 9999 OVC180 11/11 Q1013 BLU,EHKD,2022-10-23T00:25:00Z,52.92,4.77,11.0,11.0,0,2,,6.21,29.911417,,,TRUE,,,,,,,,OVC,18000,,,,,,,VFR,,,,,,,,,,,,METAR,1.0
EHJR 230025Z AUTO 18012KT //// // ///////// 16/15 Q1012 RE// W16/H9,EHJR,2022-10-23T00:25:00Z,53.22,3.22,16.0,15.0,180,12,,,29.88189,,,TRUE,,,,,,,,,,,,,,,,,,,,,,,,,,,,METAR,31.0
EHJA 230025Z AUTO 21014KT 9999 NSC 15/14 Q1011,EHJA,2022-10-23T00:25:00Z,53.82,2.95,15.0,14.0,210,14,,6.21,29.852362,,,TRUE,,,,,,,,CLR,,,,,,,,VFR,,,,,,,,,,,,METAR,34.0
EHHW 230025Z AUTO 20010KT 9999 FEW002/// SCT005/// 15/13 Q1013,EHHW,2022-10-23T00:25:00Z,54.03,6.03,15.0,13.0,200,10,,6.21,29.911417,,,TRUE,,,,,,,,FEW,200,SCT,500,,,,,VFR,,,,,,,,,,,,METAR,10.0
EHGR 230025Z AUTO 15004KT 9999 OVC150 12/12 Q1013 BLU,EHGR,2022-10-23T00:25:00Z,51.55,4.93,12.0,12.0,150,4,,6.21,29.911417,,,TRUE,,,,,,,,OVC,15000,,,,,,,VFR,,,,,,,,,,,,METAR,12.0
EHGG 230025Z AUTO VRB01KT 1900 BR NSC 09/09 Q1014,EHGG,2022-10-23T00:25:00Z,53.12,6.57,9.0,9.0,0,1,,1.18,29.940945,,,TRUE,,,,,,,BR,CLR,,,,,,,,IFR,,,,,,,,,,,,METAR,2.0
EHFS 230025Z AUTO 11006KT 9999 NSC 15/13 Q1012,EHFS,2022-10-23T00:25:00Z,51.45,3.6,15.0,13.0,110,6,,6.21,29.88189,,,TRUE,,,,,,,,CLR,,,,,,,,VFR,,,,,,,,,,,,METAR,1.0
EHFD 230025Z AUTO 22016KT 9999 NSC 14/13 Q1012,EHFD,2022-10-23T00:25:00Z,54.85,4.7,14.0,13.0,220,16,,6.21,29.88189,,,TRUE,,,,,,,,CLR,,,,,,,,VFR,,,,,,,,,,,,METAR,24.0
EHEH 230025Z AUTO 14004KT 120V190 9999 OVC160 12/11 Q1013 BLU,EHEH,2022-10-23T00:25:00Z,51.45,5.38,12.0,11.0,140,4,,6.21,29.911417,,,TRUE,,,,,,,,OVC,16000,,,,,,,VFR,,,,,,,,,,,,METAR,20.0
EHDV 230025Z AUTO 19012KT 9999 NSC 15/13 Q1011,EHDV,2022-10-23T00:25:00Z,54.32,2.93,15.0,13.0,190,12,,6.21,29.852362,,,TRUE,,,,,,,,CLR,,,,,,,,VFR,,,,,,,,,,,,METAR,36.0
EHDL 230025Z AUTO 10004KT 080V170 9999 OVC150 12/11 Q1014 BLU,EHDL,2022-10-23T00:25:00Z,52.07,5.88,12.0,11.0,100,4,,6.21,29.940945,,,TRUE,,,,,,,,OVC,15000,,,,,,,VFR,,,,,,,,,,,,METAR,49.0
EHBK 230025Z AUTO 16006KT 9999 NSC 13/11 Q1014,EHBK,2022-10-23T00:25:00Z,50.92,5.77,13.0,11.0,160,6,,6.21,29.940945,,,TRUE,,,,,,,,CLR,,,,,,,,VFR,,,,,,,,,,,,METAR,112.0
EHAM 230025Z 13004KT 100V160 9999 BKN035 13/12 Q1013 NOSIG,EHAM,2022-10-23T00:25:00Z,52.32,4.78,13.0,12.0,130,4,,6.21,29.911417,,,,,,TRUE,,,,,BKN,3500,,,,,,,VFR,,,,,,,,,,,,METAR,-2.0
EHAK 230025Z AUTO 22018KT 9999 NSC 14/12 Q1010,EHAK,2022-10-23T00:25:00Z,55.38,3.82,14.0,12.0,220,18,,6.21,29.822834,,,TRUE,,,,,,,,CLR,,,,,,,,VFR,,,,,,,,,,,,METAR,33.0
EBLB 230025Z AUTO VRB01KT 0100 FG OVC002/// 09/09 Q1016 RED,EBLB,2022-10-23T00:25:00Z,50.47,6.17,9.0,9.0,0,1,,0.06,30.0,,,TRUE,,,,,,,FG,OVC,200,,,,,,,LIFR,,,,,,,,,,,,METAR,563.0
EBFS 230025Z AUTO 15007KT 9999 SCT090/// BKN100/// BKN120/// 13/12 Q1013 BLU,EBFS,2022-10-23T00:25:00Z,50.23,4.65,13.0,12.0,150,7,,6.21,29.911417,,,TRUE,,,,,,,,SCT,9000,BKN,10000,BKN,12000,,,VFR,,,,,,,,,,,,METAR,276.0
EBFN 230025Z AUTO 14005KT 9999 BKN180/// 14/13 Q1011 BLU,EBFN,2022-10-23T00:25:00Z,51.08,2.65,14.0,13.0,140,5,,6.21,29.852362,,,TRUE,,,,,,,,BKN,18000,,,,,,,VFR,,,,,,,,,,,,SPECI,9.0
EBDT 230025Z AUTO 15005KT 9999 NCD 12/11 Q1013 BLU,EBDT,2022-10-23T00:25:00Z,51.02,5.07,12.0,11.0,150,5,,6.21,29.911417,,,TRUE,,,,,,,,CLR,,,,,,,,VFR,,,,,,,,,,,,METAR,25.0
EBCV 230025Z AUTO 14005KT 9999 BKN200/// BKN240/// 14/13 Q1012 BLU,EBCV,2022-10-23T00:25:00Z,50.57,3.82,14.0,13.0,140,5,,6.21,29.88189,,,TRUE,,,,,,,,BKN,20000,BKN,24000,,,,,VFR,,,,,,,,,,,,METAR,56.0
EBBL 230025Z AUTO VRB01KT 9999 BKN190/// 11/11 Q1013 BLU,EBBL,2022-10-23T00:25:00Z,51.17,5.47,11.0,11.0,0,1,,6.21,29.911417,,,TRUE,,,,,,,,BKN,19000,,,,,,,VFR,,,,,,,,,,,,METAR,50.0
EBBE 230025Z AUTO 16009KT 9999 NCD 14/12 Q1013 BLU,EBBE,2022-10-23T00:25:00Z,50.75,4.77,14.0,12.0,160,9,,6.21,29.911417,,,TRUE,,,,,,,,CLR,,,,,,,,VFR,,,,,,,,,,,,METAR,127.0
CYIK 230025Z 29012KT 15SM FEW005 BKN007 BKN010 OVC012 01/M00 A2933 RMK ST2ST4ST1ST1 LASTSTFD OB/NEXT 231200UTC SLP937,CYIK,2022-10-23T00:25:00Z,62.42,-77.93,1.0,0.0,290,12,,15.0,29.329725,993.7,,,,,,,,,,FEW,500,BKN,700,BKN,1000,OVC,1200,IFR,,,,,,,,,,,,SPECI,44.0
PGUA 230024Z AUTO 12011KT 8SM FEW015 SCT028 BKN040 OVC065 25/23 A2989 RMK AO2 RAB09E24 SLP112 $,PGUA,2022-10-23T00:24:00Z,13.57,144.92,25.0,23.0,120,11,,8.0,29.890747,1011.2,,TRUE,TRUE,TRUE,,,,,,FEW,1500,SCT,2800,BKN,4000,OVC,6500,VFR,,,,,,,,,,,,SPECI,159.0
PANA 230024Z AUTO 33003KT 1 1/4SM BR OVC002 02/02 A2992 RMK AO2 FZRANO TSNO $,PANA,2022-10-23T00:24:00Z,60.68,-161.98,2.0,2.0,330,3,,1.25,29.920275,,,TRUE,TRUE,TRUE,,TRUE,TRUE,,BR,OVC,200,,,,,,,LIFR,,,,,,,,,,,,METAR,7.0
KLGD 230024Z AUTO 00000KT 10SM SCT028 04/02 A2971 RMK AO2,KLGD,2022-10-23T00:24:00Z,45.28,-118.0,4.0,2.0,0,0,,10.0,29.71063,,,TRUE,TRUE,,,,,,,SCT,2800,,,,,,,VFR,,,,,,,,,,,,METAR,827.0
CYIO 230024Z AUTO 36002KT 6SM -SN OVC018 M07/M08 A2940 RMK SLP964,CYIO,2022-10-23T00:24:00Z,72.68,-77.97,-7.0,-8.0,360,2,,6.0,29.40059,996.4,,TRUE,,,,,,,-SN,OVC,1800,,,,,,,MVFR,,,,,,,,,,,,SPECI,61.0
PATL 230023Z AUTO 07007G130KT 010V080 10SM BKN003 OVC026 00/00 A2990 RMK AO2 SLP140 TSNO $,PATL,2022-10-23T00:23:00Z,62.9,-155.97,0.0,0.0,70,7,130,10.0,29.899607,1014.0,,TRUE,TRUE,TRUE,,TRUE,,,,BKN,300,OVC,2600,,,,,LIFR,,,,,,,,,,,,SPECI,261.0
KSFY 230023Z AUTO 15010KT 10SM CLR 21/10 A2972 RMK AO2,KSFY,2022-10-23T00:23:00Z,42.05,-90.12,21.0,10.0,150,10,,10.0,29.719488,,,TRUE,TRUE,,,,,,,CLR,,,,,,,,VFR,,,,,,,,,,,,SPECI,188.0
KGTF 230023Z 31010KT 8SM -RA BKN007 OVC015 02/02 A2952 RMK AO2 P0003 T00220017 $,KGTF,2022-10-23T00:23:00Z,47.47,-111.38,2.2,1.7,310,10,,8.0,29.518702,,,,TRUE,TRUE,,,,,-RA,BKN,700,OVC,1500,,,,,IFR,,,,,,0.03,,,,,,METAR,1117.0
KGPI 230023Z 00000KT 10SM -RA FEW016 OVC031 03/02 A2958 RMK AO2 P0000 T00330022,KGPI,2022-10-23T00:23:00Z,48.32,-114.25,3.3,2.2,0,0,,10.0,29.58071,,,,TRUE,,,,,,-RA,FEW,1600,OVC,3100,,,,,VFR,,,,,,0.005,,,,,,METAR,903.0
KCLM 230023Z AUTO 00000KT 10SM OVC030 11/06 A2980 RMK AO2 T01110056,KCLM,2022-10-23T00:23:00Z,48.12,-123.5,11.1,5.6,0,0,,10.0,29.799213,,,TRUE,TRUE,,,,,,,OVC,3000,,,,,,,MVFR,,,,,,,,,,,,METAR,81.0
UTO8 M M M 160/-10/-14/3017/M/ PK WND 2922 2354Z SOG 03 2013 38MM,UTO8,2022-10-23T00:22:00Z,,,,,,,,1.25,,,,,,,,,,,,,,,,,,,,,,,,,,,,,,,,METAR,
RKTI 230022Z 34001KT 4800 BR SCT030 14/12 A3011,RKTI,2022-10-23T00:22:00Z,37.02,127.88,14.0,12.0,340,1,,2.98,30.109253,,,,,,,,,,BR,SCT,3000,,,,,,,IFR,,,,,,,,,,,,SPECI,55.0
RJNY 230022Z 27013KT 9999 FEW025 SCT080 24/14 Q1011 RMK 1CU025 3AC080 A2988,RJNY,2022-10-23T00:22:00Z,34.82,138.3,24.0,14.0,270,13,,6.21,29.852362,,,,,,,,,,,FEW,2500,SCT,8000,,,,,VFR,,,,,,,,,,,,METAR,7.0
CYCO 230022Z 30005KT 15SM FEW010 BKN018 M11/M13 A3010 RMK SF1SC5 SLP198,CYCO,2022-10-23T00:22:00Z,67.82,-115.15,-11.0,-13.0,300,5,,15.0,30.100393,1019.8,,,,,,,,,,FEW,1000,BKN,1800,,,,,MVFR,,,,,,,,,,,,SPECI,20.0
CYBX 230022Z 24015G21KT 15SM BKN009 09/08 A3007 RMK SC7 SLP186,CYBX,2022-10-23T00:22:00Z,51.45,-57.18,9.0,8.0,240,15,21,15.0,30.070866,1018.6,,,,,,,,,,BKN,900,,,,,,,IFR,,,,,,,,,,,,SPECI,32.0
PAPH 230021Z AUTO 01009KT 10SM -RA FEW010 BKN015 BKN027 05/04 A2981 RMK AO2 P0001,PAPH,2022-10-23T00:21:00Z,56.95,-158.62,5.0,4.0,10,9,,10.0,29.811024,,,TRUE,TRUE,,,,,,-RA,FEW,1000,BKN,1500,BKN,2700,,,MVFR,,,,,,0.01,,,,,,SPECI,29.0
KGGW 230021Z AUTO 07009KT 10SM BKN027 OVC037 07/04 A2949 RMK AO2 T00720044,KGGW,2022-10-23T00:21:00Z,48.22,-106.62,7.2,4.4,70,9,,10.0,29.489174,,,TRUE,TRUE,,,,,,,BKN,2700,OVC,3700,,,,,MVFR,,,,,,,,,,,,SPECI,698.0
LXGB 230020Z AUTO 22006KT 9999 NCD 20/15 Q1016,LXGB,2022-10-23T00:20:00Z,36.15,-5.33,20.0,15.0,220,6,,6.21,30.0,,,TRUE,,,,,,,,CLR,,,,,,,,VFR,,,,,,,,,,,,METAR,5.0
LTFM 230020Z 18008KT CAVOK 14/09 Q1020 NOSIG RMK RWY17L 20012KT RWY34L 20012KT RWY16R 20011KT RWY36 20010KT RWY18 20015KT,LTFM,2022-10-23T00:20:00Z,41.27,28.75,14.0,9.0,180,8,,6.21,30.11811,,,,,,TRUE,,,,,CAVOK,,,,,,,,VFR,,,1.2,,,,,,,,,METAR,99.0
LTFJ 230020Z 24004KT 190V280 CAVOK 13/08 Q1021 NOSIG RMK RWY24 00000KT,LTFJ,2022-10-23T00:20:00Z,40.9,29.3,13.0,8.0,240,4,,6.21,30.147638,,,,,,TRUE,,,,,CAVOK,,,,,,,,VFR,,,,,,,,,,,,METAR,83.0
LTFE 230020Z 11003KT CAVOK 07/04 Q1021 NOSIG RMK RWY10 00000KT,LTFE,2022-10-23T00:20:00Z,37.25,27.67,7.0,4.0,110,3,,6.21,30.147638,,,,,,TRUE,,,,,CAVOK,,,,,,,,VFR,,,,,,,,,,,,METAR,6.0
LTFC 230020Z 00000KT CAVOK 03/M05 Q1024 RMK RWY23 VRB01KT,LTFC,2022-10-23T00:20:00Z,37.87,30.38,3.0,-5.0,0,0,,6.21,30.236221,,,,,,,,,,,CAVOK,,,,,,,,VFR,,,,,,,,,,,,METAR,862.0
LTCS 230020Z 06010KT CAVOK 11/09 Q1022 RMK RWY22 05008KT SKC,LTCS,2022-10-23T00:20:00Z,37.45,38.9,11.0,9.0,60,10,,6.21,30.177166,,,,,,,,,,,CAVOK,,,,,,,,VFR,,,,,,,,,,,,METAR,825.0
LTCG 230020Z 20006KT CAVOK 13/08 Q1024 NOSIG RMK RWY29 18006KT,LTCG,2022-10-23T00:20:00Z,41.0,39.77,13.0,8.0,200,6,,6.21,30.236221,,,,,,TRUE,,,,,CAVOK,,,,,,,,VFR,,,,,,,,,,,,METAR,28.0
LTCE 230020Z 00000KT 9000 NSC M03/M03 Q1026 NOSIG RMK RWY08R 00000KT RWY26R 23003KT RWY08L 00000KT SKC,LTCE,2022-10-23T00:20:00Z,39.95,41.17,-3.0,-3.0,0,0,,5.59,30.295275,,,,,,TRUE,,,,,CLR,,,,,,,,VFR,,,,,,,,,,,,METAR,1758.0
LTCC 230020Z VRB02KT CAVOK 08/08 Q1022 NOSIG RMK RWY16 00000KT SKC,LTCC,2022-10-23T00:20:00Z,37.88,40.2,8.0,8.0,0,2,,6.21,30.177166,,,,,,TRUE,,,,,CAVOK,,,,,,,,VFR,,,,,,,,,,,,METAR,676.0
LTBU 230020Z 00000KT CAVOK 10/08 Q1021 RMK RWY22 26007KT,LTBU,2022-10-23T00:20:00Z,41.13,27.92,10.0,8.0,0,0,,6.21,30.147638,,,,,,,,,,,CAVOK,,,,,,,,VFR,,,,,,,,,,,,METAR,165.0
LTBS 230020Z 04006KT CAVOK 12/10 Q1020 NOSIG RMK RWY19 35006KT SKC,LTBS,2022-10-23T00:20:00Z,36.7,28.78,12.0,10.0,40,6,,6.21,30.11811,,,,,,TRUE,,,,,CAVOK,,,,,,,,VFR,,,,,,,,,,,,METAR,2.0
LTBR 230020Z 00000KT CAVOK 03/03 Q1023 NOSIG RMK RWY07 VRB01KT,LTBR,2022-10-23T00:20:00Z,40.25,29.57,3.0,3.0,0,0,,6.21,30.206694,,,,,,TRUE,,,,,CAVOK,,,,,,,,VFR,,,,,,,,,,,,METAR,233.0
LTBJ 230020Z 36002KT CAVOK 09/03 Q1022 NOSIG RMK RWY16 00000KT,LTBJ,2022-10-23T00:20:00Z,38.28,27.15,9.0,3.0,360,2,,6.21,30.177166,,,,,,TRUE,,,,,CAVOK,,,,,,,,VFR,,,,,,,,,,,,METAR,123.0
LTBA 230020Z 21010KT CAVOK 16/10 Q1021 RMK RWY23 22010KT,LTBA,2022-10-23T00:20:00Z,40.97,28.82,16.0,10.0,210,10,,6.21,30.147638,,,,,,,,,,,CAVOK,,,,,,,,VFR,,,,,,,,,,,,METAR,33.0
LTAZ 230020Z 13004KT CAVOK M01/M04 Q1026 RMK RWY29 VRB02KT,LTAZ,2022-10-23T00:20:00Z,38.77,34.52,-1.0,-4.0,130,4,,6.21,30.295275,,,,,,,,,,,CAVOK,,,,,,,,VFR,,,,,,,,,,,,METAR,944.0
LTAU 230020Z 00000KT CAVOK M00/M01 Q1026 NOSIG RMK RWY07 03003KT,LTAU,2022-10-23T00:20:00Z,38.77,35.48,0.0,-1.0,0,0,,6.21,30.295275,,,,,,TRUE,,,,,CAVOK,,,,,,,,VFR,,,,,,,,,,,,METAR,1053.0
LTAT 230020Z 21005KT CAVOK 02/M01 Q1024 NOSIG RMK RWY03 21004KT,LTAT,2022-10-23T00:20:00Z,38.43,38.08,2.0,-1.0,210,5,,6.21,30.236221,,,,,,TRUE,,,,,CAVOK,,,,,,,,VFR,,,-0.4,,,,,,,,,METAR,850.0
LTAP 230020Z 00000KT CAVOK 02/01 Q1024 NOSIG RMK RWY23 34003KT,LTAP,2022-10-23T00:20:00Z,40.83,35.52,2.0,1.0,0,0,,6.21,30.236221,,,,,,TRUE,,,,,CAVOK,,,,,,,,VFR,,,,,,,,,,,,METAR,536.0
LTAJ 230020Z 00000KT CAVOK 10/08 Q1021 NOSIG RMK RWY10 32002KT SKC,LTAJ,2022-10-23T00:20:00Z,36.95,37.48,10.0,8.0,0,0,,6.21,30.147638,,,,,,TRUE,,,,,CAVOK,,,,,,,,VFR,,,,,,,,,,,,METAR,684.0
LTAI 230020Z 33003KT 310V040 CAVOK 14/00 Q1020 NOSIG RMK RWY18C 31005KT RWY36R 30005KT RWY18L VRB02KT,LTAI,2022-10-23T00:20:00Z,36.9,30.8,14.0,0.0,330,3,,6.21,30.11811,,,,,,TRUE,,,,,CAVOK,,,,,,,,VFR,,,,,,,,,,,,METAR,50.0
LTAG 230020Z 33003KT CAVOK 16/02 Q1018 NOSIG RMK SKC,LTAG,2022-10-23T00:20:00Z,37.0,35.42,16.0,2.0,330,3,,6.21,30.059055,,,,,,TRUE,,,,,CAVOK,,,,,,,,VFR,,,,,,,,,,,,SPECI,62.0
LTAF 230020Z 11003KT 070V130 CAVOK 18/03 Q1019 NOSIG RMK RWY23 06004KT SKC,LTAF,2022-10-23T00:20:00Z,36.98,35.28,18.0,3.0,110,3,,6.21,30.088583,,,,,,TRUE,,,,,CAVOK,,,,,,,,VFR,,,,,,,,,,,,METAR,19.0
LTAC 230020Z 04002KT CAVOK 00/M04 Q1026 NOSIG RMK RWY21L 06002KT RWY03L 03002KT RWY21R 07002KT,LTAC,2022-10-23T00:20:00Z,40.12,32.98,0.0,-4.0,40,2,,6.21,30.295275,,,,,,TRUE,,,,,CAVOK,,,,,,,,VFR,,,,,,,,,,,,METAR,952.0
LSZS 230020Z AUTO 00000KT 9999 BKN050 BKN060 01/01 Q1025,LSZS,2022-10-23T00:20:00Z,46.53,9.88,1.0,1.0,0,0,,6.21,30.265747,,,TRUE,,,,,,,,BKN,5000,BKN,6000,,,,,VFR,,,,,,,,,,,,METAR,1708.0
LSZR 230020Z AUTO 27003KT 9999 NCD 10/10 Q1018,LSZR,2022-10-23T00:20:00Z,47.48,9.57,10.0,10.0,270,3,,6.21,30.059055,,,TRUE,,,,,,,,CLR,,,,,,,,VFR,,,,,,,,,,,,METAR,396.0
LSZL 230020Z AUTO 04003KT 350V080 9999NDV BKN066 BKN079 14/13 Q1021 RMK,LSZL,2022-10-23T00:20:00Z,46.17,8.88,14.0,13.0,40,3,,,30.147638,,,TRUE,,,,,,,,BKN,6600,BKN,7900,,,,,,,,,,,,,,,,,METAR,198.0
LSZH 230020Z AUTO 28002KT 9999 0250N R14/P2000N R16/P2000N R28/P2000N R34/P2000N BCFG FEW000 09/09 Q1018 BECMG 2500,LSZH,2022-10-23T00:20:00Z,47.48,8.53,9.0,9.0,280,2,,6.21,30.059055,,,TRUE,,,,,,,BCFG,FEW,0,,,,,,,VFR,,,,,,,,,,,,METAR,424.0
LSZG 230020Z AUTO 13001KT 0350 FG VV001 10/10 Q1018,LSZG,2022-10-23T00:20:00Z,47.17,7.42,10.0,10.0,130,1,,0.22,30.059055,,,TRUE,,,,,,,FG,OVX,0,,,,,,,LIFR,,,,,,,,,,,100,METAR,428.0
LSZC 230020Z AUTO 25003KT 9999 NCD 10/10 Q1018,LSZC,2022-10-23T00:20:00Z,46.97,8.38,10.0,10.0,250,3,,6.21,30.059055,,,TRUE,,,,,,,,CLR,,,,,,,,VFR,,,,,,,,,,,,METAR,445.0
LSZB 230020Z AUTO VRB01KT 9999 NCD 09/09 Q1018,LSZB,2022-10-23T00:20:00Z,46.92,7.5,9.0,9.0,0,1,,6.21,30.059055,,,TRUE,,,,,,,,CLR,,,,,,,,VFR,,,,,,,,,,,,METAR,510.0
LSZA 230020Z AUTO VRB02KT 4300 +RA FEW027 SCT039 BKN043 15/15 Q1022,LSZA,2022-10-23T00:20:00Z,46.0,8.92,15.0,15.0,0,2,,2.67,30.177166,,,TRUE,,,,,,,+RA,FEW,2700,SCT,3900,BKN,4300,,,IFR,,,,,,,,,,,,METAR,276.0
LSMP 230020Z AUTO 00000KT 3300NDV NCD 11/10 Q1018 RMK,LSMP,2022-10-23T00:20:00Z,46.83,6.92,11.0,10.0,0,0,,,30.059055,,,TRUE,,,,,,,,CLR,,,,,,,,,,,,,,,,,,,,METAR,490.0
LSMM 230020Z AUTO VRB01KT 9999NDV NCD 07/07 Q1019 RMK,LSMM,2022-10-23T00:20:00Z,46.75,8.12,7.0,7.0,0,1,,,30.088583,,,TRUE,,,,,,,,CLR,,,,,,,,,,,,,,,,,,,,METAR,570.0
LSME 230020Z AUTO 00000KT 1300NDV R04/P2000N R22/1000VP2000D BCFG NCD 09/09 Q1018 RMK,LSME,2022-10-23T00:20:00Z,47.1,8.3,9.0,9.0,0,0,,1.24,30.059055,,,TRUE,,,,,,,BCFG,CLR,,,,,,,,IFR,,,,,,,,,,,,METAR,427.0
LSMD 230020Z AUTO 30001KT 9999NDV NCD 09/09 Q1018 RMK,LSMD,2022-10-23T00:20:00Z,47.4,8.65,9.0,9.0,300,1,,,30.059055,,,TRUE,,,,,,,,CLR,,,,,,,,,,,,,,,,,,,,METAR,436.0
LSMA 230020Z AUTO VRB02KT 9999NDV NCD 09/08 Q1018 RMK,LSMA,2022-10-23T00:20:00Z,46.95,8.28,9.0,8.0,0,2,,,30.059055,,,TRUE,,,,,,,,CLR,,,,,,,,,,,,,,,,,,,,METAR,441.0
LSGS 230020Z AUTO 05004KT CAVOK 11/08 Q1020,LSGS,2022-10-23T00:20:00Z,46.22,7.32,11.0,8.0,50,4,,6.21,30.11811,,,TRUE,,,,,,,,CAVOK,,,,,,,,VFR,,,,,,,,,,,,METAR,482.0
LSGG 230020Z AUTO VRB01KT 9999 NCD 11/10 Q1018 NOSIG,LSGG,2022-10-23T00:20:00Z,46.25,6.12,11.0,10.0,0,1,,6.21,30.059055,,,TRUE,,,TRUE,,,,,CLR,,,,,,,,VFR,,,,,,,,,,,,METAR,411.0
LSGC 230020Z AUTO VRB01KT 9999 NSC 08/08 Q1019,LSGC,2022-10-23T00:20:00Z,47.08,6.8,8.0,8.0,0,1,,6.21,30.088583,,,TRUE,,,,,,,,CLR,,,,,,,,VFR,,,,,,,,,,,,METAR,1018.0
LOWW 230020Z 15004KT 100V160 CAVOK 09/08 Q1021 BECMG FM0100 2000 BCFG,LOWW,2022-10-23T00:20:00Z,48.12,16.57,9.0,8.0,150,4,,6.21,30.147638,,,,,,,,,,,CAVOK,,,,,,,,VFR,,,,,,,,,,,,SPECI,179.0
LOWS 230020Z AUTO 14010KT 110V170 9999 NSC 10/09 Q1020,LOWS,2022-10-23T00:20:00Z,47.78,13.02,10.0,9.0,140,10,,6.21,30.11811,,,TRUE,,,,,,,,CLR,,,,,,,,VFR,,,,,,,,,,,,METAR,427.0
LOWL 230020Z AUTO 00000KT 0550 R26/0650D FG FEW001 BKN002 09/09 Q1021,LOWL,2022-10-23T00:20:00Z,48.22,14.18,9.0,9.0,0,0,,0.34,30.147638,,,TRUE,,,,,,,FG,FEW,100,BKN,200,,,,,LIFR,,,,,,,,,,,,SPECI,290.0
LOWK 230020Z AUTO 29003KT 250V310 9999 FEW001 SCT004 BKN020 11/11 Q1024,LOWK,2022-10-23T00:20:00Z,46.65,14.32,11.0,11.0,290,3,,6.21,30.236221,,,TRUE,,,,,,,,FEW,100,SCT,400,BKN,2000,,,MVFR,,,,,,,,,,,,METAR,450.0
LOWI 230020Z AUTO 25003KT 220V310 9999 FEW001 SCT004 08/08 Q1022,LOWI,2022-10-23T00:20:00Z,47.27,11.33,8.0,8.0,250,3,,6.21,30.177166,,,TRUE,,,,,,,,FEW,100,SCT,400,,,,,VFR,,,,,,,,,,,,METAR,570.0
LOWG 230020Z AUTO VRB01KT 0300 R16/0350N R34/0375N FG FEW000 BKN001 09/09 Q1022,LOWG,2022-10-23T00:20:00Z,47.0,15.43,9.0,9.0,0,1,,0.19,30.177166,,,TRUE,,,,,,,FG,FEW,0,BKN,100,,,,,LIFR,,,,,,,,,,,,SPECI,337.0
LLBG 230020Z VRB02KT CAVOK 20/16 Q1016 NOSIG,LLBG,2022-10-23T00:20:00Z,32.0,34.88,20.0,16.0,0,2,,6.21,30.0,,,,,,TRUE,,,,,CAVOK,,,,,,,,VFR,,,,,,,,,,,,METAR,35.0
LIRZ 230020Z AUTO 23003KT 9999 BKN030/// 19/16 Q1024,LIRZ,2022-10-23T00:20:00Z,43.1,12.5,19.0,16.0,230,3,,6.21,30.236221,,,TRUE,,,,,,,,BKN,3000,,,,,,,MVFR,,,,,,,,,,,,METAR,206.0
LIRQ 230020Z 10006KT 9999 FEW030 19/17 Q1022,LIRQ,2022-10-23T00:20:00Z,43.8,11.2,19.0,17.0,100,6,,6.21,30.177166,,,,,,,,,,,FEW,3000,,,,,,,VFR,,,,,,,,,,,,METAR,33.0
LIRN 230020Z 00000KT CAVOK 17/16 Q1025 NOSIG,LIRN,2022-10-23T00:20:00Z,40.88,14.3,17.0,16.0,0,0,,6.21,30.265747,,,,,,TRUE,,,,,CAVOK,,,,,,,,VFR,,,,,,,,,,,,METAR,76.0
LIRF 230020Z AUTO 12006KT 9999 BKN020/// 20/18 Q1023,LIRF,2022-10-23T00:20:00Z,41.78,12.23,20.0,18.0,120,6,,6.21,30.206694,,,TRUE,,,,,,,,BKN,2000,,,,,,,MVFR,,,,,,,,,,,,METAR,2.0
LIRA 230020Z 13003KT CAVOK 20/16 Q1024,LIRA,2022-10-23T00:20:00Z,41.8,12.58,20.0,16.0,130,3,,6.21,30.236221,,,,,,,,,,,CAVOK,,,,,,,,VFR,,,,,,,,,,,,METAR,101.0
LIPZ 230020Z 02005KT 9999 SCT035 15/13 Q1021 NOSIG,LIPZ,2022-10-23T00:20:00Z,45.5,12.35,15.0,13.0,20,5,,6.21,30.147638,,,,,,TRUE,,,,,SCT,3500,,,,,,,VFR,,,,,,,,,,,,METAR,3.0
LIPY 230020Z AUTO VRB02KT 9999 BKN140/// 20/14 Q1021,LIPY,2022-10-23T00:20:00Z,43.62,13.37,20.0,14.0,0,2,,6.21,30.147638,,,TRUE,,,,,,,,BKN,14000,,,,,,,VFR,,,,,,,,,,,,METAR,11.0
LIPR 230020Z AUTO 22004KT 180V240 9999 SCT140/// 21/15 Q1021,LIPR,2022-10-23T00:20:00Z,44.02,12.62,21.0,15.0,220,4,,6.21,30.147638,,,TRUE,,,,,,,,SCT,14000,,,,,,,VFR,,,,,,,,,,,,METAR,10.0
LIPQ 230020Z AUTO 02004KT 9999 BKN018/// BKN036/// 16/14 Q1021,LIPQ,2022-10-23T00:20:00Z,45.82,13.47,16.0,14.0,20,4,,6.21,30.147638,,,TRUE,,,,,,,,BKN,1800,BKN,3600,,,,,MVFR,,,,,,,,,,,,METAR,6.0
LIPO 230020Z AUTO 04008KT 9999 BKN059/// 17/14 Q1021,LIPO,2022-10-23T00:20:00Z,45.42,10.33,17.0,14.0,40,8,,6.21,30.147638,,,TRUE,,,,,,,,BKN,5900,,,,,,,VFR,,,,,,,,,,,,METAR,104.0
LIPH 230020Z AUTO 32001KT 9999 BKN050/// 15/14 Q1021,LIPH,2022-10-23T00:20:00Z,45.63,12.18,15.0,14.0,320,1,,6.21,30.147638,,,TRUE,,,,,,,,BKN,5000,,,,,,,VFR,,,,,,,,,,,,METAR,10.0
LIPE 230020Z VRB01KT CAVOK 15/14 Q1020,LIPE,2022-10-23T00:20:00Z,44.52,11.3,15.0,14.0,0,1,,6.21,30.11811,,,,,,,,,,,CAVOK,,,,,,,,VFR,,,,,,,,,,,,METAR,37.0
LIMZ 230020Z AUTO 34002KT 7000 FEW026/// BKN045/// 16/15 Q1021,LIMZ,2022-10-23T00:20:00Z,44.53,7.62,16.0,15.0,340,2,,4.35,30.147638,,,TRUE,,,,,,,,FEW,2600,BKN,4500,,,,,MVFR,,,,,,,,,,,,METAR,377.0
LIML 230020Z 08004KT 030V110 9999 BKN040 18/16 Q1021 NOSIG,LIML,2022-10-23T00:20:00Z,45.47,9.27,18.0,16.0,80,4,,6.21,30.147638,,,,,,TRUE,,,,,BKN,4000,,,,,,,VFR,,,,,,,,,,,,METAR,109.0
LIMJ 230020Z 13012KT 9999 SCT015 BKN050 22/21 Q1020,LIMJ,2022-10-23T00:20:00Z,44.42,8.83,22.0,21.0,130,12,,6.21,30.11811,,,,,,,,,,,SCT,1500,BKN,5000,,,,,VFR,,,,,,,,,,,,METAR,3.0
LIMF 230020Z 30003KT 9999 SCT030 18/14 Q1021,LIMF,2022-10-23T00:20:00Z,45.22,7.65,18.0,14.0,300,3,,6.21,30.147638,,,,,,,,,,,SCT,3000,,,,,,,VFR,,,,,,,,,,,,METAR,295.0
LIME 230020Z 04003KT 010V070 9999 BKN040 17/15 Q1021 NOSIG,LIME,2022-10-23T00:20:00Z,45.67,9.7,17.0,15.0,40,3,,6.21,30.147638,,,,,,TRUE,,,,,BKN,4000,,,,,,,VFR,,,,,,,,,,,,METAR,239.0
LIMC 230020Z 03005KT 9999 BKN020 17/15 Q1021 NOSIG,LIMC,2022-10-23T00:20:00Z,45.62,8.72,17.0,15.0,30,5,,6.21,30.147638,,,,,,TRUE,,,,,BKN,2000,,,,,,,MVFR,,,,,,,,,,,,METAR,221.0
LIEO 230020Z AUTO 17002KT 9999 NCD 14/13 Q1020,LIEO,2022-10-23T00:20:00Z,40.88,9.52,14.0,13.0,170,2,,6.21,30.11811,,,TRUE,,,,,,,,CLR,,,,,,,,VFR,,,,,,,,,,,,METAR,8.0
LIEE 230020Z 14007KT CAVOK 22/20 Q1021,LIEE,2022-10-23T00:20:00Z,39.25,9.07,22.0,20.0,140,7,,6.21,30.147638,,,,,,,,,,,CAVOK,,,,,,,,VFR,,,,,,,,,,,,METAR,1.0
LIEA 230020Z AUTO 05003KT 9999 NCD 18/16 Q1019,LIEA,2022-10-23T00:20:00Z,40.62,8.28,18.0,16.0,50,3,,6.21,30.088583,,,TRUE,,,,,,,,CLR,,,,,,,,VFR,,,,,,,,,,,,METAR,22.0
LICR 230020Z AUTO 01007KT 9999 NCD 20/14 Q1024,LICR,2022-10-23T00:20:00Z,38.07,15.65,20.0,14.0,10,7,,6.21,30.236221,,,TRUE,,,,,,,,CLR,,,,,,,,VFR,,,,,,,,,,,,METAR,16.0
LICJ 230020Z 18005KT CAVOK 18/13 Q1024,LICJ,2022-10-23T00:20:00Z,38.17,13.08,18.0,13.0,180,5,,6.21,30.236221,,,,,,,,,,,CAVOK,,,,,,,,VFR,,,,,,,,,,,,METAR,20.0
LICD 230020Z AUTO 17007KT 9999 NCD 23/17 Q1024,LICD,2022-10-23T00:20:00Z,35.5,12.62,23.0,17.0,170,7,,6.21,30.236221,,,TRUE,,,,,,,,CLR,,,,,,,,VFR,,,,,,,,,,,,METAR,20.0
LICC 230020Z 28003KT CAVOK 18/14 Q1024,LICC,2022-10-23T00:20:00Z,37.47,15.05,18.0,14.0,280,3,,6.21,30.236221,,,,,,,,,,,CAVOK,,,,,,,,VFR,,,,,,,,,,,,METAR,6.0
LICB 230020Z AUTO 06004KT 9999 NCD 14/14 Q1025,LICB,2022-10-23T00:20:00Z,37.0,14.62,14.0,14.0,60,4,,6.21,30.265747,,,TRUE,,,,,,,,CLR,,,,,,,,VFR,,,,,,,,,,,,METAR,212.0
LICA 230020Z AUTO 09003KT 9999 NCD 14/13 Q1024,LICA,2022-10-23T00:20:00Z,38.9,16.25,14.0,13.0,90,3,,6.21,30.236221,,,TRUE,,,,,,,,CLR,,,,,,,,VFR,,,,,,,,,,,,METAR,7.0
LIBR 230020Z 17003KT 8000 SCT010 19/18 Q1023,LIBR,2022-10-23T00:20:00Z,40.65,17.95,19.0,18.0,170,3,,4.97,30.206694,,,,,,,,,,,SCT,1000,,,,,,,MVFR,,,,,,,,,,,,METAR,5.0
LIBP 230020Z AUTO 00000KT 4900 BR BKN160/// BKN240/// 15/15 Q1022,LIBP,2022-10-23T00:20:00Z,42.42,14.18,15.0,15.0,0,0,,3.04,30.177166,,,TRUE,,,,,,,BR,BKN,16000,BKN,24000,,,,,MVFR,,,,,,,,,,,,METAR,10.0
LIBD 230020Z 21003KT CAVOK 16/13 Q1022,LIBD,2022-10-23T00:20:00Z,41.13,16.77,16.0,13.0,210,3,,6.21,30.177166,,,,,,,,,,,CAVOK,,,,,,,,VFR,,,,,,,,,,,,METAR,42.0
LGTS 230020Z 10005KT 9999 FEW020 11/11 Q1022 NOSIG,LGTS,2022-10-23T00:20:00Z,40.52,22.97,11.0,11.0,100,5,,6.21,30.177166,,,,,,TRUE,,,,,FEW,2000,,,,,,,VFR,,,,,,,,,,,,METAR,4.0
LGSR 230020Z 26004KT CAVOK 14/10 Q1022,LGSR,2022-10-23T00:20:00Z,36.4,25.48,14.0,10.0,260,4,,6.21,30.177166,,,,,,,,,,,CAVOK,,,,,,,,VFR,,,,,,,,,,,,METAR,31.0
LGSO 230020Z AUTO 27005KT //// // ////// 16/11 Q1022 RE//,LGSO,2022-10-23T00:20:00Z,37.42,24.95,16.0,11.0,270,5,,,30.177166,,,TRUE,,,,,,,,,,,,,,,,,,,,,,,,,,,,SPECI,71.0
LGRP 230020Z 21006KT CAVOK 18/12 Q1020 NOSIG,LGRP,2022-10-23T00:20:00Z,36.4,28.08,18.0,12.0,210,6,,6.21,30.11811,,,,,,TRUE,,,,,CAVOK,,,,,,,,VFR,,,,,,,,,,,,METAR,3.0
LGPA 230020Z AUTO 04005KT //// -RA ////// 14/09 Q1022 RE//,LGPA,2022-10-23T00:20:00Z,37.02,25.1,14.0,9.0,40,5,,,30.177166,,,TRUE,,,,,,,-RA,,,,,,,,,,,,,,,,,,,,,SPECI,42.0
LGKZ 230020Z AUTO 35004KT //// // ////// 10/07 Q1024 RE//,LGKZ,2022-10-23T00:20:00Z,40.28,21.83,10.0,7.0,350,4,,,30.236221,,,TRUE,,,,,,,,,,,,,,,,,,,,,,,,,,,,SPECI,615.0
LGKR 230020Z VRB02KT 9999 FEW018 14/13 Q1023 NOSIG,LGKR,2022-10-23T00:20:00Z,39.62,19.92,14.0,13.0,0,2,,6.21,30.206694,,,,,,TRUE,,,,,FEW,1800,,,,,,,VFR,,,,,,,,,,,,METAR,2.0
LGKO 230020Z 34004KT CAVOK 18/09 Q1021,LGKO,2022-10-23T00:20:00Z,36.8,27.08,18.0,9.0,340,4,,6.21,30.147638,,,,,,,,,,,CAVOK,,,,,,,,VFR,,,,,,,,,,,,METAR,130.0
LGKL 230020Z 34005KT CAVOK 12/10 Q1023,LGKL,2022-10-23T00:20:00Z,37.07,22.02,12.0,10.0,340,5,,6.21,30.206694,,,,,,,,,,,CAVOK,,,,,,,,VFR,,,,,,,,,,,,METAR,4.0
LGIR 230020Z 18007KT 9999 FEW025 12/10 Q1023 NOSIG,LGIR,2022-10-23T00:20:00Z,35.33,25.17,12.0,10.0,180,7,,6.21,30.206694,,,,,,TRUE,,,,,FEW,2500,,,,,,,VFR,,,,,,,,,,,,METAR,37.0
LGIO 230020Z AUTO 00000KT //// // ////// 07/07 Q1025 RE//,LGIO,2022-10-23T00:20:00Z,39.7,20.82,7.0,7.0,0,0,,,30.265747,,,TRUE,,,,,,,,,,,,,,,,,,,,,,,,,,,,METAR,476.0
LGEL 230020Z 00000KT CAVOK 14/09 Q1022,LGEL,2022-10-23T00:20:00Z,38.07,23.55,14.0,9.0,0,0,,6.21,30.177166,,,,,,,,,,,CAVOK,,,,,,,,VFR,,,,,,,,,,,,METAR,21.0
LGAV 230020Z 27003KT CAVOK 12/09 Q1022 NOSIG,LGAV,2022-10-23T00:20:00Z,37.93,23.95,12.0,9.0,270,3,,6.21,30.177166,,,,,,TRUE,,,,,CAVOK,,,,,,,,VFR,,,,,,,,,,,,METAR,83.0
LGAD 230020Z 00000KT CAVOK 13/11 Q1023,LGAD,2022-10-23T00:20:00Z,37.92,21.28,13.0,11.0,0,0,,6.21,30.206694,,,,,,,,,,,CAVOK,,,,,,,,VFR,,,,,,,,,,,,METAR,8.0
LCEN 230020Z 27009KT CAVOK 15/10 Q1019 NOSIG RMK RWY11 27007KT,LCEN,2022-10-23T00:20:00Z,35.15,33.5,15.0,10.0,270,9,,6.21,30.088583,,,,,,TRUE,,,,,CAVOK,,,,,,,,VFR,,,,,,,,,,,,METAR,91.0
KJSL 230020Z AUTO 11011G16KT 10SM FEW041 FEW050 A3000 RMK A01,KJSL,2022-10-23T00:20:00Z,26.23,-95.22,,,110,11,16,10.0,30.0,,,TRUE,TRUE,,,,,,,FEW,4100,FEW,5000,,,,,VFR,,,,,,,,,,,,METAR,45.0
KGZN 230020Z AUTO 17014G19KT 10SM CLR 27/11 A2971 RMK AO2,KGZN,2022-10-23T00:20:00Z,32.37,-99.02,27.0,11.0,170,14,19,10.0,29.71063,,,TRUE,TRUE,,,,,,,CLR,,,,,,,,VFR,,,,,,,,,,,,METAR,522.0
EYVI 230020Z 21004KT 0150 R19/0650N FG VV001 06/06 Q1011 NOSIG,EYVI,2022-10-23T00:20:00Z,54.63,25.28,6.0,6.0,210,4,,0.09,29.852362,,,,,,TRUE,,,,FG,OVX,0,,,,,,,LIFR,,,,,,,,,,,100,METAR,180.0
EYSA 230020Z AUTO 21006KT 7000NDV -SHRA SCT007 BKN009 OVC019 07/07 Q1010,EYSA,2022-10-23T00:20:00Z,55.9,23.4,7.0,7.0,210,6,,,29.822834,,,TRUE,,,,,,,-SHRA,SCT,700,BKN,900,OVC,1900,,,,,,,,,,,,,,,METAR,135.0
EYPA 230020Z 28006KT 250V320 9999 BKN008 12/11 Q1010,EYPA,2022-10-23T00:20:00Z,55.97,21.08,12.0,11.0,280,6,,6.21,29.822834,,,,,,,,,,,BKN,800,,,,,,,IFR,,,,,,,,,,,,METAR,15.0
EYKA 230020Z 20001KT 3800 -DZ BR OVC005 08/06 Q1011,EYKA,2022-10-23T00:20:00Z,54.97,24.08,8.0,6.0,200,1,,2.36,29.852362,,,,,,,,,,-DZ BR,OVC,500,,,,,,,IFR,,,,,,,,,,,,METAR,68.0
EVVA 230020Z AUTO 28006KT 9999 FEW007 BKN012 OVC027 11/11 Q1008,EVVA,2022-10-23T00:20:00Z,57.35,21.55,11.0,11.0,280,6,,6.21,29.763779,,,TRUE,,,,,,,,FEW,700,BKN,1200,OVC,2700,,,MVFR,,,,,,,,,,,,METAR,1.0
EVRA 230020Z 18004KT 9999 FEW044 06/05 Q1009 NOSIG,EVRA,2022-10-23T00:20:00Z,56.92,23.97,6.0,5.0,180,4,,6.21,29.793306,,,,,,TRUE,,,,,FEW,4400,,,,,,,VFR,,,,,,,,,,,,METAR,7.0
EVLA 230020Z AUTO 28005KT 250V320 9999 BKN007/// BKN018/// OVC030/// 11/10 Q1009,EVLA,2022-10-23T00:20:00Z,56.52,21.1,11.0,10.0,280,5,,6.21,29.793306,,,TRUE,,,,,,,,BKN,700,BKN,1800,OVC,3000,,,IFR,,,,,,,,,,,,METAR,5.0
ETWM 230020Z AUTO 05001KT //// // ////// 08/08 Q1014 ///,ETWM,2022-10-23T00:20:00Z,52.72,7.33,8.0,8.0,50,1,,,29.940945,,,TRUE,,,,,,,,,,,,,,,,,,,,,,,,,,,,SPECI,18.0
ETSN 230020Z 36002KT 2000 BCFG BKN220 09/09 Q1019 YLO,ETSN,2022-10-23T00:20:00Z,48.72,11.22,9.0,9.0,360,2,,1.24,30.088583,,,,,,,,,,BCFG,BKN,22000,,,,,,,IFR,,,,,,,,,,,,METAR,378.0
ETSL 230020Z AUTO 00000KT 0150 // ////// 06/06 Q1019 ///,ETSL,2022-10-23T00:20:00Z,48.18,10.87,6.0,6.0,0,0,,0.09,30.088583,,,TRUE,,,,,,,,,,,,,,,,,,,,,,,,,,,,SPECI,548.0
ETSI 230020Z AUTO 07004KT 0100 // ////// 10/09 Q1019 ///,ETSI,2022-10-23T00:20:00Z,48.72,11.53,10.0,9.0,70,4,,0.06,30.088583,,,TRUE,,,,,,,,,,,,,,,,,,,,,,,,,,,,METAR,366.0
ETSH 230020Z VRB02KT 9999 FEW040 SCT060 BKN300 11/10 Q1017 BLU+,ETSH,2022-10-23T00:20:00Z,51.77,13.17,11.0,10.0,0,2,,6.21,30.029528,,,,,,,,,,,FEW,4000,SCT,6000,BKN,30000,,,VFR,,,,,,,,,,,,METAR,79.0
ETSB 230020Z AUTO 19004KT //// // ////// 12/11 Q1016 ///,ETSB,2022-10-23T00:20:00Z,50.17,7.07,12.0,11.0,190,4,,,30.0,,,TRUE,,,,,,,,,,,,,,,,,,,,,,,,,,,,SPECI,477.0
ETNW 230020Z 17002KT 9999 SCT048 BKN210 10/10 Q1016 BLU+,ETNW,2022-10-23T00:20:00Z,52.45,9.42,10.0,10.0,170,2,,6.21,30.0,,,,,,,,,,,SCT,4800,BKN,21000,,,,,VFR,,,,,,,,,,,,METAR,57.0
ETNT 230020Z AUTO ///02KT //// // ////// 10/10 Q1014 ///,ETNT,2022-10-23T00:20:00Z,53.53,7.67,10.0,10.0,,,,,29.940945,,,TRUE,,,,,,,,,,,,,,,,,,,,,,,,,,,,SPECI,5.0
ETNS 230020Z AUTO 21007KT 4800 // ////// 11/11 Q1014 ///,ETNS,2022-10-23T00:20:00Z,54.47,9.52,11.0,11.0,210,7,,2.98,29.940945,,,TRUE,,,,,,,,,,,,,,,,,,,,,,,,,,,,SPECI,22.0
ETNN 230020Z 12002KT 9999 FEW170 BKN280 12/11 Q1014 BLU+,ETNN,2022-10-23T00:20:00Z,50.82,6.67,12.0,11.0,120,2,,6.21,29.940945,,,,,,,,,,,FEW,17000,BKN,28000,,,,,VFR,,,,,,,,,,,,METAR,108.0
ETNL 230020Z 24005KT 9999 BKN011 13/12 Q1015 GRN,ETNL,2022-10-23T00:20:00Z,53.92,12.27,13.0,12.0,240,5,,6.21,29.970472,,,,,,,,,,,BKN,1100,,,,,,,MVFR,,,,,,,,,,,,METAR,40.0
ETNH 230020Z AUTO 20004KT 0100 // ////// 12/11 Q1014 ///,ETNH,2022-10-23T00:20:00Z,54.32,9.55,12.0,11.0,200,4,,0.06,29.940945,,,TRUE,,,,,,,,,,,,,,,,,,,,,,,,,,,,SPECI,6.0
ETMN 230020Z AUTO 20005KT 7000 // ////// 11/10 Q1015 ///,ETMN,2022-10-23T00:20:00Z,53.77,8.67,11.0,10.0,200,5,,4.35,29.970472,,,TRUE,,,,,,,,,,,,,,,,,,,,,,,,,,,,METAR,23.0
ETHS 230020Z AUTO VRB01KT 0150 // ////// 07/07 Q1016 ///,ETHS,2022-10-23T00:20:00Z,52.92,10.18,7.0,7.0,0,1,,0.09,30.0,,,TRUE,,,,,,,,,,,,,,,,,,,,,,,,,,,,SPECI,71.0
ETHN 230020Z 15008KT 9999 BKN260 12/10 Q1018 BLU+,ETHN,2022-10-23T00:20:00Z,49.38,9.97,12.0,10.0,150,8,,6.21,30.059055,,,,,,,,,,,BKN,26000,,,,,,,VFR,,,,,,,,,,,,METAR,466.0
ETHL 230020Z AUTO 14002KT 6000 // ////// 08/08 Q1019 ///,ETHL,2022-10-23T00:20:00Z,48.22,9.92,8.0,8.0,140,2,,3.73,30.088583,,,TRUE,,,,,,,,,,,,,,,,,,,,,,,,,,,,SPECI,536.0
ETHF 230020Z AUTO 30002KT 0100 // ////// 09/08 Q1017 ///,ETHF,2022-10-23T00:20:00Z,51.12,9.28,9.0,8.0,300,2,,0.06,30.029528,,,TRUE,,,,,,,,,,,,,,,,,,,,,,,,,,,,SPECI,171.0
ETHC 230020Z AUTO 00000KT 0200 // ////// 09/09 Q1016 ///,ETHC,2022-10-23T00:20:00Z,52.6,10.02,9.0,9.0,0,0,,0.12,30.0,,,TRUE,,,,,,,,,,,,,,,,,,,,,,,,,,,,SPECI,35.0
ETHB 230020Z 19006KT 9999 SCT042 BKN210 13/10 Q1015 BLU+,ETHB,2022-10-23T00:20:00Z,52.27,9.07,13.0,10.0,190,6,,6.21,29.970472,,,,,,,,,,,SCT,4200,BKN,21000,,,,,VFR,,,,,,,,,,,,METAR,69.0
ETHA 230020Z AUTO 24003KT 9999 // ////// 07/07 Q1019 ///,ETHA,2022-10-23T00:20:00Z,47.83,10.87,7.0,7.0,240,3,,6.21,30.088583,,,TRUE,,,,,,,,,,,,,,,,,,,,,,,,,,,,SPECI,738.0
ETGG 230020Z AUTO 23008KT 9999 // ////// 12/12 Q1013 ///,ETGG,2022-10-23T00:20:00Z,54.83,9.5,12.0,12.0,230,8,,6.21,29.911417,,,TRUE,,,,,,,,,,,,,,,,,,,,,,,,,,,,SPECI,33.0
ESUT 230020Z AUTO 28010KT 9999 SG FEW013/// BKN028/// OVC038/// M00/M01 Q1004,ESUT,2022-10-23T00:20:00Z,65.8,15.08,0.0,-1.0,280,10,,6.21,29.64567,,,TRUE,,,,,,,SG,FEW,1300,BKN,2800,OVC,3800,,,MVFR,,,,,,,,,,,,METAR,457.0
ESUP 230020Z AUTO 25013KT //// NCD 01/M05 Q0995,ESUP,2022-10-23T00:20:00Z,67.25,23.07,1.0,-5.0,250,13,,,29.379921,,,TRUE,,,,,,,,CLR,,,,,,,,,,,,,,,,,,,,METAR,164.0
ESTL 230020Z AUTO 10002KT 0150 R29L/0600N FG VV000 11/11 Q1012,ESTL,2022-10-23T00:20:00Z,56.07,13.2,11.0,11.0,100,2,,0.09,29.88189,,,TRUE,,,,,,,FG,OVX,0,,,,,,,LIFR,,,,,,,,,,,0,METAR,39.0
ESTA 230020Z AUTO 12003KT 0200 R14/0650N R32/0700N FG VV002 11/11 Q1012,ESTA,2022-10-23T00:20:00Z,56.28,12.83,11.0,11.0,120,3,,0.12,29.88189,,,TRUE,,,,,,,FG,OVX,0,,,,,,,LIFR,,,,,,,,,,,200,METAR,19.0
ESSV 230020Z AUTO 30011KT 9999 OVC014/// 09/07 Q1010,ESSV,2022-10-23T00:20:00Z,57.67,18.35,9.0,7.0,300,11,,6.21,29.822834,,,TRUE,,,,,,,,OVC,1400,,,,,,,MVFR,,,,,,,,,,,,METAR,38.0
ESST 230020Z AUTO 00000KT 0100 R16/1100D R34/0250N FZFG OVC002/// M01/M01 Q1011,ESST,2022-10-23T00:20:00Z,60.15,12.98,-1.0,-1.0,0,0,,0.06,29.852362,,,TRUE,,,,,,,FZFG,OVC,200,,,,,,,LIFR,,,,,,,,,,,,METAR,110.0
ESSP 230020Z AUTO 29006KT 9999 OVC018/// 07/06 Q1011,ESSP,2022-10-23T00:20:00Z,58.58,16.25,7.0,6.0,290,6,,6.21,29.852362,,,TRUE,,,,,,,,OVC,1800,,,,,,,MVFR,,,,,,,,,,,,METAR,3.0
ESSL 230020Z AUTO 27005KT 9999 OVC018/// 08/06 Q1011,ESSL,2022-10-23T00:20:00Z,58.4,15.67,8.0,6.0,270,5,,6.21,29.852362,,,TRUE,,,,,,,,OVC,1800,,,,,,,MVFR,,,,,,,,,,,,METAR,51.0
ESSD 230020Z AUTO 26006KT 9999 NCD M01/M01 Q1009,ESSD,2022-10-23T00:20:00Z,60.42,15.5,-1.0,-1.0,260,6,,6.21,29.793306,,,TRUE,,,,,,,,CLR,,,,,,,,VFR,,,,,,,,,,,,METAR,151.0
ESSB 230020Z AUTO 26003KT 9999 BKN010/// OVC018/// 07/05 Q1009,ESSB,2022-10-23T00:20:00Z,59.35,17.93,7.0,5.0,260,3,,6.21,29.793306,,,TRUE,,,,,,,,BKN,1000,OVC,1800,,,,,MVFR,,,,,,,,,,,,METAR,14.0
ESSA 230020Z 26004KT 9999 SCT005 BKN019 04/04 Q1008 BECMG 0700 FG VV002,ESSA,2022-10-23T00:20:00Z,59.65,17.93,4.0,4.0,260,4,,6.21,29.763779,,,,,,,,,,,SCT,500,BKN,1900,,,,,MVFR,,,,,,,,,,,,METAR,36.0
ESPE 230020Z AUTO 34008KT 200V360 9999 NCD 01/M04 Q1002,ESPE,2022-10-23T00:20:00Z,65.88,20.15,1.0,-4.0,340,8,,6.21,29.586615,,,TRUE,,,,,,,,CLR,,,,,,,,VFR,,,,,,,,,,,,METAR,182.0
ESPA 230020Z AUTO 30013KT 9999 NCD 03/M04 Q1001,ESPA,2022-10-23T00:20:00Z,65.53,22.12,3.0,-4.0,300,13,,6.21,29.557087,,,TRUE,,,,,,,,CLR,,,,,,,,VFR,,,,,,,,,,,,METAR,12.0
ESOW 230020Z AUTO 27006KT 230V300 9999 FEW007/// 04/03 Q1010,ESOW,2022-10-23T00:20:00Z,59.58,16.63,4.0,3.0,270,6,,6.21,29.822834,,,TRUE,,,,,,,,FEW,700,,,,,,,VFR,,,,,,,,,,,,METAR,7.0
ESOK 230020Z AUTO 25003KT 4300 OVC072/// ///// Q1011,ESOK,2022-10-23T00:20:00Z,59.45,13.33,,,250,3,,2.67,29.852362,,,TRUE,,,,,,,,OVC,7200,,,,,,,IFR,,,,,,,,,,,,METAR,101.0
ESOH 230020Z AUTO 00000KT 0750 R18/P2000N FZFG BKN002/// OVC078/// M01/M01 Q1011,ESOH,2022-10-23T00:20:00Z,60.02,13.58,-1.0,-1.0,0,0,,0.47,29.852362,,,TRUE,,,,,,,FZFG,BKN,200,OVC,7800,,,,,LIFR,,,,,,,,,,,,METAR,145.0
ESOE 230020Z AUTO 26004KT 9999 FEW021/// 07/05 Q1010,ESOE,2022-10-23T00:20:00Z,59.22,15.05,7.0,5.0,260,4,,6.21,29.822834,,,TRUE,,,,,,,,FEW,2100,,,,,,,VFR,,,,,,,,,,,,METAR,57.0
ESNZ 230020Z AUTO 29012KT 9999 OVC014/// 05/03 Q1007,ESNZ,2022-10-23T00:20:00Z,63.18,14.5,5.0,3.0,290,12,,6.21,29.734253,,,TRUE,,,,,,,,OVC,1400,,,,,,,MVFR,,,,,,,,,,,,METAR,360.0
ESNX 230020Z AUTO 28014KT 9999 NCD 00/M04 Q1002,ESNX,2022-10-23T00:20:00Z,65.58,19.28,0.0,-4.0,280,14,,6.21,29.586615,,,TRUE,,,,,,,,CLR,,,,,,,,VFR,,,,,,,,,,,,METAR,380.0
ESNV 230020Z AUTO 29005KT 9999 FEW130/// ///// Q1005,ESNV,2022-10-23T00:20:00Z,64.58,16.83,,,290,5,,6.21,29.675198,,,TRUE,,,,,,,,FEW,13000,,,,,,,VFR,,,,,,,,,,,,METAR,348.0
ESNU 230020Z AUTO 29007KT 9999 FEW140/// 03/01 Q1004,ESNU,2022-10-23T00:20:00Z,63.78,20.28,3.0,1.0,290,7,,6.21,29.64567,,,TRUE,,,,,,,,FEW,14000,,,,,,,VFR,,,,,,,,,,,,METAR,8.0
ESNS 230020Z AUTO 29012KT 9999 OVC120/// 05/M02 Q1003,ESNS,2022-10-23T00:20:00Z,64.62,21.07,5.0,-2.0,290,12,,6.21,29.616142,,,TRUE,,,,,,,,OVC,12000,,,,,,,VFR,,,,,,,,,,,,METAR,41.0
ESNQ 230020Z AUTO 28015KT 9999 NCD 01/M05 Q0994,ESNQ,2022-10-23T00:20:00Z,67.82,20.33,1.0,-5.0,280,15,,6.21,29.350393,,,TRUE,,,,,,,,CLR,,,,,,,,VFR,,,,,,,,,,,,METAR,447.0
ESNO 230020Z AUTO 29007KT 9999 SCT150/// 03/02 Q1005,ESNO,2022-10-23T00:20:00Z,63.4,18.97,3.0,2.0,290,7,,6.21,29.675198,,,TRUE,,,,,,,,SCT,15000,,,,,,,VFR,,,,,,,,,,,,METAR,100.0
ESNN 230020Z AUTO 30002KT 9999 OVC082/// M00/M01 Q1007,ESNN,2022-10-23T00:20:00Z,62.52,17.43,0.0,-1.0,300,2,,6.21,29.734253,,,TRUE,,,,,,,,OVC,8200,,,,,,,VFR,,,,,,,,,,,,METAR,4.0
ESNL 230020Z AUTO 31008KT 9999 BKN029/// 03/M01 Q1004,ESNL,2022-10-23T00:20:00Z,64.55,18.72,3.0,-1.0,310,8,,6.21,29.64567,,,TRUE,,,,,,,,BKN,2900,,,,,,,MVFR,,,,,,,,,,,,METAR,220.0
ESNK 230020Z AUTO 35004KT 300V020 9999 NCD 00/00 Q1007,ESNK,2022-10-23T00:20:00Z,63.03,17.77,0.0,0.0,350,4,,6.21,29.734253,,,TRUE,,,,,,,,CLR,,,,,,,,VFR,,,,,,,,,,,,METAR,4.0
ESNG 230020Z AUTO 24016KT 9999 NCD 01/// Q0996,ESNG,2022-10-23T00:20:00Z,67.13,20.82,,,240,16,,6.21,29.409449,,,TRUE,,,,,,,,CLR,,,,,,,,VFR,,,,,,,,,,,,METAR,300.0
ESND 230020Z AUTO VRB02KT 9999 SCT220/// M06/M07 Q1009,ESND,2022-10-23T00:20:00Z,62.05,14.42,-6.0,-7.0,0,2,,6.21,29.793306,,,TRUE,,,,,,,,SCT,22000,,,,,,,VFR,,,,,,,,,,,,METAR,352.0
ESMX 230020Z AUTO 30003KT 9999 OVC004/// 09/09 Q1012,ESMX,2022-10-23T00:20:00Z,56.92,14.72,9.0,9.0,300,3,,6.21,29.88189,,,TRUE,,,,,,,,OVC,400,,,,,,,LIFR,,,,,,,,,,,,METAR,176.0
ESMV 230020Z AUTO 00000KT 9000 OVC007/// 08/// Q1012,ESMV,2022-10-23T00:20:00Z,57.28,14.13,,,0,0,,5.59,29.88189,,,TRUE,,,,,,,,OVC,700,,,,,,,IFR,,,,,,,,,,,,METAR,167.0
ESMT 230020Z AUTO 09002KT 2400 R01///// R19/P2000N BR OVC002/// 10/10 Q1012,ESMT,2022-10-23T00:20:00Z,56.68,12.82,10.0,10.0,90,2,,1.49,29.88189,,,TRUE,,,,,,,BR,OVC,200,,,,,,,LIFR,,,,,,,,,,,,METAR,24.0
ESMS 230020Z AUTO 23004KT 0600 R17/P2000N R35/1800U DZ OVC002/// 12/12 Q1012,ESMS,2022-10-23T00:20:00Z,55.53,13.37,12.0,12.0,230,4,,0.37,29.88189,,,TRUE,,,,,,,DZ,OVC,200,,,,,,,LIFR,,,,,,,,,,,,METAR,68.0
ESMQ 230020Z AUTO 27004KT 9999 OVC014/// 09/08 Q1012,ESMQ,2022-10-23T00:20:00Z,56.68,16.3,9.0,8.0,270,4,,6.21,29.88189,,,TRUE,,,,,,,,OVC,1400,,,,,,,MVFR,,,,,,,,,,,,METAR,3.0
ESMK 230020Z AUTO 06002KT 9000 OVC003/// 11/11 Q1012,ESMK,2022-10-23T00:20:00Z,55.92,14.08,11.0,11.0,60,2,,5.59,29.88189,,,TRUE,,,,,,,,OVC,300,,,,,,,LIFR,,,,,,,,,,,,METAR,20.0
ESKS 230020Z AUTO 08002KT 0350 R15/P2000N R33/1200U VV001 M04/M04 Q1009,ESKS,2022-10-23T00:20:00Z,61.17,12.83,-4.0,-4.0,80,2,,0.22,29.793306,,,TRUE,,,,,,,,OVX,0,,,,,,,LIFR,,,,,,,,,,,100,METAR,503.0
ESKN 230020Z 29010KT 9999 OVC015 07/04 Q1010,ESKN,2022-10-23T00:20:00Z,58.78,16.92,7.0,4.0,290,10,,6.21,29.822834,,,,,,,,,,,OVC,1500,,,,,,,MVFR,,,,,,,,,,,,METAR,41.0
ESKM 230020Z AUTO VRB02KT 9999 NCD M02/M02 Q1009,ESKM,2022-10-23T00:20:00Z,60.97,14.52,-2.0,-2.0,0,2,,6.21,29.793306,,,TRUE,,,,,,,,CLR,,,,,,,,VFR,,,,,,,,,,,,METAR,184.0
ESIB 230020Z AUTO 16003KT 4900 BKN008/// OVC012/// 08/08 Q1011,ESIB,2022-10-23T00:20:00Z,58.42,12.7,8.0,8.0,160,3,,3.04,29.852362,,,TRUE,,,,,,,,BKN,800,OVC,1200,,,,,IFR,,,,,,,,,,,,METAR,51.0
ESIA 230020Z AUTO 19002KT 9999 SCT006/// OVC016/// 07/07 Q1011,ESIA,2022-10-23T00:20:00Z,58.52,14.5,7.0,7.0,190,2,,6.21,29.852362,,,TRUE,,,,,,,,SCT,600,OVC,1600,,,,,MVFR,,,,,,,,,,,,METAR,94.0
ESGT 230020Z AUTO 11003KT 5000 BR OVC011/// 08/08 Q1011,ESGT,2022-10-23T00:20:00Z,58.32,12.33,8.0,8.0,110,3,,3.11,29.852362,,,TRUE,,,,,,,BR,OVC,1100,,,,,,,MVFR,,,,,,,,,,,,METAR,40.0
ESGP 230020Z AUTO 16003KT 9000 OVC005/// 10/09 Q1011,ESGP,2022-10-23T00:20:00Z,57.77,11.87,10.0,9.0,160,3,,5.59,29.852362,,,TRUE,,,,,,,,OVC,500,,,,,,,IFR,,,,,,,,,,,,METAR,15.0
ESGJ 230020Z AUTO 27003KT 9999 OVC009/// 08/08 Q1011,ESGJ,2022-10-23T00:20:00Z,57.77,14.07,8.0,8.0,270,3,,6.21,29.852362,,,TRUE,,,,,,,,OVC,900,,,,,,,IFR,,,,,,,,,,,,METAR,224.0
ESGG 230020Z 14004KT 0900 R03/P2000N R21/P2000N FG BKN002 08/08 Q1011,ESGG,2022-10-23T00:20:00Z,57.67,12.3,8.0,8.0,140,4,,0.56,29.852362,,,,,,,,,,FG,BKN,200,,,,,,,LIFR,,,,,,,,,,,,METAR,152.0
ESDF 230020Z AUTO 00000KT 9999 OVC006/// 10/10 Q1013,ESDF,2022-10-23T00:20:00Z,56.27,15.27,10.0,10.0,0,0,,6.21,29.911417,,,TRUE,,,,,,,,OVC,600,,,,,,,IFR,,,,,,,,,,,,METAR,52.0
ESCM 230020Z AUTO 25004KT 9000 NCD 03/03 Q1009,ESCM,2022-10-23T00:20:00Z,59.88,17.6,3.0,3.0,250,4,,5.59,29.793306,,,TRUE,,,,,,,,CLR,,,,,,,,VFR,,,,,,,,,,,,METAR,21.0
ESCF 230020Z AUTO VRB01KT 9999 SCT011/// OVC016/// 07/07 Q1011,ESCF,2022-10-23T00:20:00Z,58.38,15.52,7.0,7.0,0,1,,6.21,29.852362,,,TRUE,,,,,,,,SCT,1100,OVC,1600,,,,,MVFR,,,,,,,,,,,,METAR,86.0
ENZV 230020Z 16004KT 9999 BKN011 11/11 Q1009,ENZV,2022-10-23T00:20:00Z,58.88,5.63,11.0,11.0,160,4,,6.21,29.793306,,,,,,,,,,,BKN,1100,,,,,,,MVFR,,,,,,,,,,,,METAR,7.0
ENWV 230020Z AUTO 22019KT 9999NDV NCD 13/13 Q1010 W///S4,ENWV,2022-10-23T00:20:00Z,56.28,3.4,13.0,13.0,220,19,,,29.822834,,,TRUE,,,,,,,,CLR,,,,,,,,,,,,,,,,,,,,METAR,30.0
ENVD 230020Z AUTO 29016KT 9999 SCT190/// 00/M04 Q0982,ENVD,2022-10-23T00:20:00Z,70.07,29.85,0.0,-4.0,290,16,,6.21,28.996063,,,TRUE,,,,,,,,SCT,19000,,,,,,,VFR,,,,,,,,,,,,METAR,39.0
ENVA 230020Z 27009KT 9999 -DZ FEW007 BKN010 06/05 Q1010 RMK WIND 670FT 27011KT,ENVA,2022-10-23T00:20:00Z,63.47,10.92,6.0,5.0,270,9,,6.21,29.822834,,,,,,,,,,-DZ,FEW,700,BKN,1000,,,,,MVFR,,,,,,,,,,,,METAR,12.0
ENUG 230020Z AUTO 32029G44KT 270V340 5000NDV -SHRA BKN014/// BKN018/// BKN100/// 04/02 Q0979 W///S6,ENUG,2022-10-23T00:20:00Z,71.3,22.25,4.0,2.0,320,29,44,,28.90748,,,TRUE,,,,,,,-SHRA,BKN,1400,BKN,1800,BKN,10000,,,,,,,,,,,,,,,METAR,30.0
ENTO 230020Z AUTO 35002KT 9999 -DZ FEW011/// BKN039/// BKN057/// 03/03 Q1011,ENTO,2022-10-23T00:20:00Z,59.2,10.27,3.0,3.0,350,2,,6.21,29.852362,,,TRUE,,,,,,,-DZ,FEW,1100,BKN,3900,BKN,5700,,,VFR,,,,,,,,,,,,METAR,84.0
ENTC 230020Z 30027G41KT 9999 -SHRAGS TS FEW019 BKN034CB 04/M01 Q0993 RMK WIND 2600FT 32056G76KT,ENTC,2022-10-23T00:20:00Z,69.68,18.92,4.0,-1.0,300,27,41,6.21,29.320866,,,,,,,,,,-SHRA -SHGS TS,FEW,1900,BKN,3400,,,,,VFR,,,,,,,,,,,,METAR,9.0
ENSS 230020Z AUTO 26015KT 9999 NCD M01/M04 Q0982 RMK WIND 0500FT 26022KT,ENSS,2022-10-23T00:20:00Z,70.35,31.05,-1.0,-4.0,260,15,,6.21,28.996063,,,TRUE,,,,,,,,CLR,,,,,,,,VFR,,,,,,,,,,,,METAR,13.0
ENSR 230020Z AUTO 28015KT 250V310 9999 RA ///023/// 04/01 Q0987 RMK WIND RWY32 29014G26KT WIND 1118FT 28032G47KT,ENSR,2022-10-23T00:20:00Z,69.78,20.97,4.0,1.0,280,15,,6.21,29.143702,,,TRUE,,,,,,,RA,,,,,,,,,,,,,,,,,,,,,METAR,5.0
ENSL 230020Z AUTO 21015KT 9000NDV FEW006/// BKN019/// 12/12 Q1008 W10/S4,ENSL,2022-10-23T00:20:00Z,58.37,1.9,12.0,12.0,210,15,,,29.763779,,,TRUE,,,,,,,,FEW,600,BKN,1900,,,,,,,,,,,,,,,,,METAR,50.0
ENSK 230020Z AUTO 31014KT 270V330 9999 -RA FEW013/// SCT033/// 02/M01 Q1002,ENSK,2022-10-23T00:20:00Z,68.57,15.02,2.0,-1.0,310,14,,6.21,29.586615,,,TRUE,,,,,,,-RA,FEW,1300,SCT,3300,,,,,VFR,,,,,,,,,,,,METAR,3.0
ENSF 230020Z AUTO 05014KT 9999NDV SCT007/// BKN046/// 12/08 Q1009 W///S3,ENSF,2022-10-23T00:20:00Z,61.25,1.85,12.0,8.0,50,14,,,29.793306,,,TRUE,,,,,,,,SCT,700,BKN,4600,,,,,,,,,,,,,,,,,METAR,15.0
ENSE 230020Z AUTO 07014KT 9999NDV OVC008/// 10/09 Q1009 W///S3,ENSE,2022-10-23T00:20:00Z,61.45,2.15,10.0,9.0,70,14,,,29.793306,,,TRUE,,,,,,,,OVC,800,,,,,,,,,,,,,,,,,,,METAR,10.0
ENSD 230020Z AUTO 00000KT 9999 OVC070/// 04/03 Q1010 RMK WIND RWY26 VRB01KT WIND 1140FT VRB03KT,ENSD,2022-10-23T00:20:00Z,61.82,6.12,4.0,3.0,0,0,,6.21,29.822834,,,TRUE,,,,,,,,OVC,7000,,,,,,,VFR,,,,,,,,,,,,METAR,61.0
ENSB 230020Z 15003KT 120V180 9999 FEW020 SCT060 M08/M13 Q1003 RMK WIND 1400FT 04005KT,ENSB,2022-10-23T00:20:00Z,78.25,15.47,-8.0,-13.0,150,3,,6.21,29.616142,,,,,,,,,,,FEW,2000,SCT,6000,,,,,VFR,,,,,,,,,,,,METAR,30.0
ENRY 230020Z 04002KT 0050 R12/1000 R30/0225N FG VV001 00/M00 Q1011,ENRY,2022-10-23T00:20:00Z,59.37,10.77,0.0,0.0,40,2,,0.03,29.852362,,,,,,,,,,FG,OVX,0,,,,,,,LIFR,,,,,,,,,,,100,METAR,45.0
ENRS 230020Z AUTO 33023KT 9999 -SHRA FEW019 SCT026 BKN031 05/02 Q1006,ENRS,2022-10-23T00:20:00Z,67.52,12.1,5.0,2.0,330,23,,6.21,29.704725,,,TRUE,,,,,,,-SHRA,FEW,1900,SCT,2600,BKN,3100,,,VFR,,,,,,,,,,,,METAR,4.0
ENRO 230020Z AUTO 22007KT 9999 FEW020 BKN034 M04/M05 Q1008,ENRO,2022-10-23T00:20:00Z,62.57,11.33,-4.0,-5.0,220,7,,6.21,29.763779,,,TRUE,,,,,,,,FEW,2000,BKN,3400,,,,,VFR,,,,,,,,,,,,METAR,624.0
ENRM 230020Z AUTO VRB01KT 9999 FEW022 04/02 Q1010,ENRM,2022-10-23T00:20:00Z,64.83,11.13,4.0,2.0,0,1,,6.21,29.822834,,,TRUE,,,,,,,,FEW,2200,,,,,,,VFR,,,,,,,,,,,,METAR,4.0
ENRA 230020Z AUTO VRB04KT 9999 FEW057/// 01/M00 Q1006,ENRA,2022-10-23T00:20:00Z,66.37,14.3,1.0,0.0,0,4,,6.21,29.704725,,,TRUE,,,,,,,,FEW,5700,,,,,,,VFR,,,,,,,,,,,,METAR,66.0
ENQR 230020Z AUTO 08007KT 050V110 8000NDV OVC009/// 11/09 Q1009 W10/S3,ENQR,2022-10-23T00:20:00Z,61.52,2.22,11.0,9.0,80,7,,,29.793306,,,TRUE,,,,,,,,OVC,900,,,,,,,,,,,,,,,,,,,METAR,10.0
ENQA 230020Z AUTO 06009KT 9999NDV FEW051/// OVC069/// 10/06 Q1009 W17/S3,ENQA,2022-10-23T00:20:00Z,60.65,3.72,10.0,6.0,60,9,,,29.793306,,,TRUE,,,,,,,,FEW,5100,OVC,6900,,,,,,,,,,,,,,,,,METAR,90.0
ENOV 230020Z AUTO 00000KT 9999 SCT044/// OVC068/// 04/03 Q1010 RMK WIND RWY24 00000KT WIND 2090FT 00000KT,ENOV,2022-10-23T00:20:00Z,62.17,6.07,4.0,3.0,0,0,,6.21,29.822834,,,TRUE,,,,,,,,SCT,4400,OVC,6800,,,,,VFR,,,,,,,,,,,,METAR,72.0
ENOL 230020Z 32004KT 9999 -DZ BKN020 05/04 Q1011,ENOL,2022-10-23T00:20:00Z,63.7,9.6,5.0,4.0,320,4,,6.21,29.852362,,,,,,,,,,-DZ,BKN,2000,,,,,,,MVFR,,,,,,,,,,,,METAR,9.0
ENOA 230020Z 06014KT 030V090 9999 BKN035 11/09 Q1009 W///S3,ENOA,2022-10-23T00:20:00Z,60.5,2.83,11.0,9.0,60,14,,6.21,29.793306,,,,,,,,,,,BKN,3500,,,,,,,VFR,,,,,,,,,,,,METAR,5.0
ENNM 230020Z AUTO 28002KT 9999 OVC029 04/03 Q1010,ENNM,2022-10-23T00:20:00Z,64.47,11.57,4.0,3.0,280,2,,6.21,29.822834,,,TRUE,,,,,,,,OVC,2900,,,,,,,MVFR,,,,,,,,,,,,METAR,2.0
ENNE 230020Z AUTO 32013KT 9999NDV BKN038/// 04/M01 Q1010 W///S5,ENNE,2022-10-23T00:20:00Z,66.03,8.08,4.0,-1.0,320,13,,,29.822834,,,TRUE,,,,,,,,BKN,3800,,,,,,,,,,,,,,,,,,,METAR,10.0
ENNA 230020Z AUTO 26017G27KT 9999 FEW007/// SCT066/// 04/00 Q0983 RERA RMK WIND 1800FT 27041G57KT,ENNA,2022-10-23T00:20:00Z,70.07,24.97,4.0,0.0,260,17,27,6.21,29.02559,,,TRUE,,,,,,,,FEW,700,SCT,6600,,,,,VFR,,,,,,,,,,,,METAR,12.0
ENMS 230020Z AUTO VRB02KT 9999 BKN030/// BKN039/// 01/M00 Q1008 RMK WIND 412FT 00000KT,ENMS,2022-10-23T00:20:00Z,65.78,13.22,1.0,0.0,0,2,,6.21,29.763779,,,TRUE,,,,,,,,BKN,3000,BKN,3900,,,,,MVFR,,,,,,,,,,,,METAR,44.0
ENML 230020Z AUTO 05005KT 9999NDV SCT005/// OVC009/// 06/06 Q1011,ENML,2022-10-23T00:20:00Z,62.75,7.27,6.0,6.0,50,5,,,29.852362,,,TRUE,,,,,,,,SCT,500,OVC,900,,,,,,,,,,,,,,,,,METAR,3.0
ENMH 230020Z AUTO 19009KT 9999 -RA VV011 02/00 Q0980,ENMH,2022-10-23T00:20:00Z,71.02,27.82,2.0,0.0,190,9,,6.21,28.937008,,,TRUE,,,,,,,-RA,OVX,0,,,,,,,LIFR,,,,,,,,,,,1100,METAR,10.0
ENLE 230020Z 21017KT 9999 SCT040 13/11 Q1009 W13/S4,ENLE,2022-10-23T00:20:00Z,56.53,3.22,13.0,11.0,210,17,,6.21,29.793306,,,,,,,,,,,SCT,4000,,,,,,,VFR,,,,,,,,,,,,METAR,10.0
ENLA 230020Z AUTO 20016KT 9999NDV FEW031/// 12/12 Q1008 W///S4,ENLA,2022-10-23T00:20:00Z,57.1,2.83,12.0,12.0,200,16,,,29.763779,,,TRUE,,,,,,,,FEW,3100,,,,,,,,,,,,,,,,,,,METAR,10.0
ENKR 230020Z 26012KT CAVOK M01/M04 Q0983 RMK WIND 731FT 25031KT,ENKR,2022-10-23T00:20:00Z,69.72,29.88,-1.0,-4.0,260,12,,6.21,29.02559,,,,,,,,,,,CAVOK,,,,,,,,VFR,,,,,,,,,,,,METAR,86.0
ENKB 230020Z AUTO 04008KT 2000 DZ VV006 06/04 Q1011 RMK WIND 745FT 04012KT,ENKB,2022-10-23T00:20:00Z,63.12,7.82,6.0,4.0,40,8,,1.24,29.852362,,,TRUE,,,,,,,DZ,OVX,0,,,,,,,LIFR,,,,,,,,,,,600,METAR,62.0
ENHV 230020Z AUTO 23009KT 9999 -RA SCT011/// BKN028/// BKN076/// 03/01 Q0980,ENHV,2022-10-23T00:20:00Z,71.02,25.97,3.0,1.0,230,9,,6.21,28.937008,,,TRUE,,,,,,,-RA,SCT,1100,BKN,2800,BKN,7600,,,MVFR,,,,,,,,,,,,METAR,13.0
ENHM 230020Z AUTO 09019KT 070V130 3200NDV -SHRA BR FEW006/// BKN008/// BKN010/// 12/11 Q1007 W12/S/,ENHM,2022-10-23T00:20:00Z,59.57,2.23,12.0,11.0,90,19,,,29.734253,,,TRUE,,,,,,,-SHRA BR,FEW,600,BKN,800,BKN,1000,,,,,,,,,,,,,,,METAR,10.0
ENHK 230020Z AUTO 30031KT 9999 SCT029 06/01 Q0983,ENHK,2022-10-23T00:20:00Z,70.48,22.13,6.0,1.0,300,31,,6.21,29.02559,,,TRUE,,,,,,,,SCT,2900,,,,,,,VFR,,,,,,,,,,,,METAR,6.0
ENHF 230020Z AUTO 26015G26KT 220V290 9999 -DZ FEW014/// BKN022/// BKN030/// 04/01 Q0980 REDZ RMK WIND 1254FT 29045KT,ENHF,2022-10-23T00:20:00Z,70.67,23.67,4.0,1.0,260,15,26,6.21,28.937008,,,TRUE,,,,,,,-DZ,FEW,1400,BKN,2200,BKN,3000,,,MVFR,,,,,,,,,,,,METAR,79.0
ENHE 230020Z 36014KT 9999 FEW015 BKN025 03/01 Q1011 W///S5,ENHE,2022-10-23T00:20:00Z,65.33,2.33,3.0,1.0,360,14,,6.21,29.852362,,,,,,,,,,,FEW,1500,BKN,2500,,,,,MVFR,,,,,,,,,,,,METAR,10.0
ENHD 230020Z AUTO 11007KT 4900 DZ VV007 10/09 Q1008,ENHD,2022-10-23T00:20:00Z,59.35,5.22,10.0,9.0,110,7,,3.04,29.763779,,,TRUE,,,,,,,DZ,OVX,0,,,,,,,LIFR,,,,,,,,,,,700,METAR,22.0
ENGM 230020Z 01003KT 0800 R19R/1100U R01R/0800D R19L/1200U R01L/1300D FG VV002 01/01 Q1011,ENGM,2022-10-23T00:20:00Z,60.2,11.07,1.0,1.0,10,3,,0.5,29.852362,,,,,,,,,,FG,OVX,0,,,,,,,LIFR,,,,,,,,,,,200,METAR,204.0
ENFL 230020Z AUTO 01003KT 9999NDV BKN072/// 06/03 Q1009,ENFL,2022-10-23T00:20:00Z,61.57,5.02,6.0,3.0,10,3,,,29.793306,,,TRUE,,,,,,,,BKN,7200,,,,,,,,,,,,,,,,,,,METAR,1.0
ENFB 230020Z AUTO 05014KT 9999NDV FEW007/// BKN045/// 10/09 Q1009 W///S3,ENFB,2022-10-23T00:20:00Z,61.2,1.83,10.0,9.0,50,14,,,29.793306,,,TRUE,,,,,,,,FEW,700,BKN,4500,,,,,,,,,,,,,,,,,METAR,10.0
ENEV 230020Z 29009KT 230V340 9999 SCT010 BKN018 02/00 Q1001 RMK WIND 1400FT 27021KT,ENEV,2022-10-23T00:20:00Z,68.48,16.67,2.0,0.0,290,9,,6.21,29.557087,,,,,,,,,,,SCT,1000,BKN,1800,,,,,MVFR,,,,,,,,,,,,METAR,26.0
ENDU 230020Z 29023KT 9999 -SHSNRAGS FEW012 SCT020 BKN030 02/M00 Q0996 RMK WIND 1100FT 29026KT WIND 2200FT 29039G53KT,ENDU,2022-10-23T00:20:00Z,69.05,18.55,2.0,0.0,290,23,,6.21,29.409449,,,,,,,,,,-SHSN -SHRA -SHG,FEW,1200,SCT,2000,BKN,3000,,,MVFR,,,,,,,,,,,,METAR,65.0
ENDR 230020Z AUTO 34008KT 9999NDV -SHRA BKN025/// 06/01 Q1011 W///S5,ENDR,2022-10-23T00:20:00Z,64.35,7.77,6.0,1.0,340,8,,,29.852362,,,TRUE,,,,,,,-SHRA,BKN,2500,,,,,,,,,,,,,,,,,,,METAR,10.0
ENCN 230020Z AUTO VRB03KT 4400 DZ OVC005/// 08/08 Q1010 REDZ RERA,ENCN,2022-10-23T00:20:00Z,58.2,8.07,8.0,8.0,0,3,,2.73,29.822834,,,TRUE,,,,,,,DZ,OVC,500,,,,,,,IFR,,,,,,,,,,,,METAR,17.0
ENBV 230020Z AUTO 23019KT 9999 FEW049 01/M04 Q0981,ENBV,2022-10-23T00:20:00Z,70.87,29.02,1.0,-4.0,230,19,,6.21,28.966536,,,TRUE,,,,,,,,FEW,4900,,,,,,,VFR,,,,,,,,,,,,METAR,13.0
ENBS 230020Z AUTO 22018KT 9999 BKN046/// M02/M05 Q0980,ENBS,2022-10-23T00:20:00Z,70.62,29.68,-2.0,-5.0,220,18,,6.21,28.937008,,,TRUE,,,,,,,,BKN,4600,,,,,,,VFR,,,,,,,,,,,,METAR,144.0
ENBR 230020Z 00000KT 9999 -RA BKN018 08/07 Q1009 RMK WIND 1200FT 14009KT,ENBR,2022-10-23T00:20:00Z,60.28,5.22,8.0,7.0,0,0,,6.21,29.793306,,,,,,,,,,-RA,BKN,1800,,,,,,,MVFR,,,,,,,,,,,,METAR,49.0
ENBO 230020Z AUTO 31020KT 9999 FEW016/// SCT023/// BKN064/// 04/00 Q1005 REUP,ENBO,2022-10-23T00:20:00Z,67.27,14.37,4.0,0.0,310,20,,6.21,29.675198,,,TRUE,,,,,,,,FEW,1600,SCT,2300,BKN,6400,,,VFR,,,,,,,,,,,,METAR,13.0
ENBN 230020Z AUTO 31009KT 280V340 9999NDV -RA SCT017/// BKN030/// OVC037/// 04/02 Q1009,ENBN,2022-10-23T00:20:00Z,65.47,12.22,4.0,2.0,310,9,,,29.793306,,,TRUE,,,,,,,-RA,SCT,1700,BKN,3000,OVC,3700,,,,,,,,,,,,,,,METAR,3.0
ENAT 230020Z 22007KT 200V270 9999 -SHRASN SCT024 BKN032 03/02 Q0984 RMK WIND 700FT 28016G26KT,ENAT,2022-10-23T00:20:00Z,69.97,23.37,3.0,2.0,220,7,,6.21,29.055119,,,,,,,,,,-SHRA -SHSN,SCT,2400,BKN,3200,,,,,VFR,,,,,,,,,,,,METAR,3.0
ENAN 230020Z AUTO 31032KT 9999 FEW031/// SCT044/// 04/M03 Q0999 RERA,ENAN,2022-10-23T00:20:00Z,69.3,16.13,4.0,-3.0,310,32,,6.21,29.498032,,,TRUE,,,,,,,,FEW,3100,SCT,4400,,,,,VFR,,,,,,,,,,,,METAR,13.0
ENAL 230020Z AUTO 06009KT 9999 -RA OVC014/// 07/06 Q1010,ENAL,2022-10-23T00:20:00Z,62.57,6.12,7.0,6.0,60,9,,6.21,29.822834,,,TRUE,,,,,,,-RA,OVC,1400,,,,,,,MVFR,,,,,,,,,,,,METAR,21.0
ELLX 230020Z AUTO 08005KT 9999 FEW002/// 12/12 Q1015 NOSIG,ELLX,2022-10-23T00:20:00Z,49.63,6.2,12.0,12.0,80,5,,6.21,29.970472,,,TRUE,,,TRUE,,,,,FEW,200,,,,,,,VFR,,,,,,,,,,,,METAR,374.0
EKYT 230020Z AUTO 24008KT 9000 OVC008/// 12/12 Q1011,EKYT,2022-10-23T00:20:00Z,57.1,9.87,12.0,12.0,240,8,,5.59,29.852362,,,TRUE,,,,,,,,OVC,800,,,,,,,IFR,,,,,,,,,,,,METAR,2.0
EKVG 230020Z AUTO VRB02KT 9999 OVC020/// 06/04 Q1012 RMK OVC020/// WIND SKEID 06011KT,EKVG,2022-10-23T00:20:00Z,62.07,-7.27,6.0,4.0,0,2,,6.21,29.88189,,,TRUE,,,,,,,,OVC,2000,,,,,,,MVFR,,,,,,,,,,,,METAR,89.0
EKVD 230020Z AUTO 22006KT //// ///////// 11/11 Q1013,EKVD,2022-10-23T00:20:00Z,55.43,9.32,11.0,11.0,220,6,,,29.911417,,,TRUE,,,,,,,,,,,,,,,,,,,,,,,,,,,,METAR,41.0
EKSP 230020Z 21004KT 9999 FEW040 11/11 Q1013,EKSP,2022-10-23T00:20:00Z,55.22,9.27,11.0,11.0,210,4,,6.21,29.911417,,,,,,,,,,,FEW,4000,,,,,,,VFR,,,,,,,,,,,,METAR,40.0
EKSB 230020Z AUTO 22004KT 180V250 9999 BKN013/// BKN041/// 13/12 Q1013,EKSB,2022-10-23T00:20:00Z,54.97,9.8,13.0,12.0,220,4,,6.21,29.911417,,,TRUE,,,,,,,,BKN,1300,BKN,4100,,,,,MVFR,,,,,,,,,,,,METAR,23.0
EKRN 230020Z AUTO 20003KT 1700 BR OVC002/// 12/12 Q1013,EKRN,2022-10-23T00:20:00Z,55.07,14.75,12.0,12.0,200,3,,1.06,29.911417,,,TRUE,,,,,,,BR,OVC,200,,,,,,,LIFR,,,,,,,,,,,,METAR,14.0
EKRK 230020Z AUTO 26005KT 6000 OVC034/// 13/13 Q1013,EKRK,2022-10-23T00:20:00Z,55.58,12.13,13.0,13.0,260,5,,3.73,29.911417,,,TRUE,,,,,,,,OVC,3400,,,,,,,MVFR,,,,,,,,,,,,METAR,40.0
EKEB 230020Z AUTO 19005KT 9999 NCD 10/09 Q1013,EKEB,2022-10-23T00:20:00Z,55.52,8.55,10.0,9.0,190,5,,6.21,29.911417,,,TRUE,,,,,,,,CLR,,,,,,,,VFR,,,,,,,,,,,,METAR,29.0
EKCH 230020Z 22005KT 1500 -RA BKN004 13/13 Q1013 TEMPO 4000 BKN005,EKCH,2022-10-23T00:20:00Z,55.62,12.67,13.0,13.0,220,5,,0.93,29.911417,,,,,,,,,,-RA,BKN,400,,,,,,,LIFR,,,,,,,,,,,,METAR,4.0
EKBI 230020Z AUTO 18003KT 0200 R09/0900N R27/0600N FG VV002 10/10 Q1013,EKBI,2022-10-23T00:20:00Z,55.73,9.15,10.0,10.0,180,3,,0.12,29.911417,,,TRUE,,,,,,,FG,OVX,0,,,,,,,LIFR,,,,,,,,,,,200,METAR,67.0
EKAH 230020Z AUTO 23004KT 180V280 9999 FEW009/// OVC030/// 13/13 Q1012,EKAH,2022-10-23T00:20:00Z,56.28,10.62,13.0,13.0,230,4,,6.21,29.88189,,,TRUE,,,,,,,,FEW,900,OVC,3000,,,,,MVFR,,,,,,,,,,,,METAR,25.0
EGYM 230020Z AUTO 13005KT 9999 OVC140/// 14/13 Q1010,EGYM,2022-10-23T00:20:00Z,52.63,0.57,14.0,13.0,130,5,,6.21,29.822834,,,TRUE,,,,,,,,OVC,14000,,,,,,,VFR,,,,,,,,,,,,METAR,25.0
EGYH 230020Z AUTO 18005KT 9999 // SCT024/// BKN130/// 13/13 Q1009,EGYH,2022-10-23T00:20:00Z,52.87,0.15,13.0,13.0,180,5,,6.21,29.793306,,,TRUE,,,,,,,,SCT,2400,BKN,13000,,,,,VFR,,,,,,,,,,,,SPECI,5.0
EGYE 230020Z AUTO 17009KT //// VV/// ///// Q////,EGYE,2022-10-23T00:20:00Z,52.97,-0.57,,,170,9,,,,,,TRUE,,,,,,,,OVX,0,,,,,,,LIFR,,,,,,,,,,,,METAR,105.0
EGYD 230020Z AUTO 17008KT 9999 FEW020/// BKN070/// OVC100/// 13/13 Q1009,EGYD,2022-10-23T00:20:00Z,53.03,-0.5,13.0,13.0,170,8,,6.21,29.793306,,,TRUE,,,,,,,,FEW,2000,BKN,7000,OVC,10000,,,VFR,,,,,,,,,,,,METAR,65.0
EGXZ 230020Z AUTO 08001KT 9999 -RA SCT053/// BKN071/// 11/11 Q1008,EGXZ,2022-10-23T00:20:00Z,54.2,-1.38,11.0,11.0,80,1,,6.21,29.763779,,,TRUE,,,,,,,-RA,SCT,5300,BKN,7100,,,,,VFR,,,,,,,,,,,,METAR,24.0
EGXV 230020Z AUTO 16004KT 9999 OVC079/// 13/13 Q1008,EGXV,2022-10-23T00:20:00Z,53.87,-0.45,13.0,13.0,160,4,,6.21,29.763779,,,TRUE,,,,,,,,OVC,7900,,,,,,,VFR,,,,,,,,,,,,METAR,6.0
EGXT 230020Z AUTO 17003KT 8000 BR BKN099/// BKN180/// 13/12 Q1009,EGXT,2022-10-23T00:20:00Z,52.62,-0.47,13.0,12.0,170,3,,4.97,29.793306,,,TRUE,,,,,,,BR,BKN,9900,BKN,18000,,,,,MVFR,,,,,,,,,,,,METAR,74.0
EGXE 230020Z AUTO 15006KT 9999 FEW019/// BKN068/// 12/11 Q1007,EGXE,2022-10-23T00:20:00Z,54.28,-1.52,12.0,11.0,150,6,,6.21,29.734253,,,TRUE,,,,,,,,FEW,1900,BKN,6800,,,,,VFR,,,,,,,,,,,,METAR,30.0
EGXC 230020Z AUTO 13004KT 8000 -RA FEW064/// OVC078/// 13/13 Q1009,EGXC,2022-10-23T00:20:00Z,53.1,-0.17,13.0,13.0,130,4,,4.97,29.793306,,,TRUE,,,,,,,-RA,FEW,6400,OVC,7800,,,,,MVFR,,,,,,,,,,,,METAR,9.0
EGWU 230020Z AUTO 10004KT 9999 OVC120/// 14/13 Q1008,EGWU,2022-10-23T00:20:00Z,51.55,-0.42,14.0,13.0,100,4,,6.21,29.763779,,,TRUE,,,,,,,,OVC,12000,,,,,,,VFR,,,,,,,,,,,,METAR,33.0
EGVP 230020Z AUTO 10006KT 9999 FEW064/// OVC110/// 15/14 Q1007,EGVP,2022-10-23T00:20:00Z,51.13,-1.57,15.0,14.0,100,6,,6.21,29.734253,,,TRUE,,,,,,,,FEW,6400,OVC,11000,,,,,VFR,,,,,,,,,,,,METAR,80.0
EGVO 230020Z AUTO 11007KT 8000 BR OVC100/// 14/14 Q1008,EGVO,2022-10-23T00:20:00Z,51.23,-0.95,14.0,14.0,110,7,,4.97,29.763779,,,TRUE,,,,,,,BR,OVC,10000,,,,,,,MVFR,,,,,,,,,,,,METAR,118.0
EGUB 230020Z AUTO 11010KT 9999 OVC100/// 15/14 Q1008,EGUB,2022-10-23T00:20:00Z,51.62,-1.08,15.0,14.0,110,10,,6.21,29.763779,,,TRUE,,,,,,,,OVC,10000,,,,,,,VFR,,,,,,,,,,,,METAR,56.0
EGSY 230020Z AUTO 10009KT 9999 -DZ FEW007/// 15/14 Q1005,EGSY,2022-10-23T00:20:00Z,51.4,-3.43,15.0,14.0,100,9,,6.21,29.675198,,,TRUE,,,,,,,-DZ,FEW,700,,,,,,,VFR,,,,,,,,,,,,METAR,46.0
EGSS 230020Z AUTO 12005KT 9999 NCD 13/13 Q1010,EGSS,2022-10-23T00:20:00Z,51.88,0.22,13.0,13.0,120,5,,6.21,29.822834,,,TRUE,,,,,,,,CLR,,,,,,,,VFR,,,,,,,,,,,,METAR,101.0
EGSH 230020Z AUTO 16003KT 120V200 9999 NCD 13/12 Q1010,EGSH,2022-10-23T00:20:00Z,52.68,1.28,13.0,12.0,160,3,,6.21,29.822834,,,TRUE,,,,,,,,CLR,,,,,,,,VFR,,,,,,,,,,,,METAR,21.0
EGQK 230020Z AUTO 14002KT 0100 FG OVC001/// 10/10 Q1004,EGQK,2022-10-23T00:20:00Z,57.65,-3.57,10.0,10.0,140,2,,0.06,29.64567,,,TRUE,,,,,,,FG,OVC,100,,,,,,,LIFR,,,,,,,,,,,,METAR,5.0
EGPO 230020Z AUTO 07009KT 9999 BKN004/// 12/11 Q1003,EGPO,2022-10-23T00:20:00Z,58.22,-6.32,12.0,11.0,70,9,,6.21,29.616142,,,TRUE,,,,,,,,BKN,400,,,,,,,LIFR,,,,,,,,,,,,METAR,10.0
EGPL 230020Z AUTO 08005KT 4400 BR OVC000/// 12/12 Q1002,EGPL,2022-10-23T00:20:00Z,57.47,-7.37,12.0,12.0,80,5,,2.73,29.586615,,,TRUE,,,,,,,BR,OVC,0,,,,,,,LIFR,,,,,,,,,,,,METAR,3.0
EGPK 230020Z 16008KT 9999 -RA SCT023 BKN030 14/13 Q1004,EGPK,2022-10-23T00:20:00Z,55.5,-4.58,14.0,13.0,160,8,,6.21,29.64567,,,,,,,,,,-RA,SCT,2300,BKN,3000,,,,,MVFR,,,,,,,,,,,,METAR,14.0
EGPH 230020Z VRB01KT 9999 OVC048 08/08 Q1005,EGPH,2022-10-23T00:20:00Z,55.95,-3.35,8.0,8.0,0,1,,6.21,29.675198,,,,,,,,,,,OVC,4800,,,,,,,VFR,,,,,,,,,,,,METAR,29.0
EGPF 230020Z AUTO 05004KT 9999 BKN018/// OVC043/// //////TCU 12/11 Q1004,EGPF,2022-10-23T00:20:00Z,55.87,-4.42,12.0,11.0,50,4,,6.21,29.64567,,,TRUE,,,,,,,,BKN,1800,OVC,4300,,,,,MVFR,,,,,,,,,,,,METAR,8.0
EGPE 230020Z AUTO 00000KT 0150 FG VV/// 11/10 Q1004,EGPE,2022-10-23T00:20:00Z,57.53,-4.05,11.0,10.0,0,0,,0.09,29.64567,,,TRUE,,,,,,,FG,OVX,0,,,,,,,LIFR,,,,,,,,,,,,METAR,7.0
EGPD 230020Z AUTO 19010KT 9999 NCD 11/10 Q1005 NOSIG,EGPD,2022-10-23T00:20:00Z,57.2,-2.22,11.0,10.0,190,10,,6.21,29.675198,,,TRUE,,,TRUE,,,,,CLR,,,,,,,,VFR,,,,,,,,,,,,METAR,65.0
EGPC 230020Z AUTO 13003KT 0600 FG BKN001/// 12/11 Q1004,EGPC,2022-10-23T00:20:00Z,58.45,-3.08,12.0,11.0,130,3,,0.37,29.64567,,,TRUE,,,,,,,FG,BKN,100,,,,,,,LIFR,,,,,,,,,,,,METAR,38.0
EGPB 230020Z AUTO 09015KT 2600 DZ OVC004/// 11/10 Q1007,EGPB,2022-10-23T00:20:00Z,59.87,-1.3,11.0,10.0,90,15,,1.62,29.734253,,,TRUE,,,,,,,DZ,OVC,400,,,,,,,LIFR,,,,,,,,,,,,METAR,2.0
EGPA 230020Z AUTO 10007KT 9999 OVC001/// 12/11 Q1004,EGPA,2022-10-23T00:20:00Z,58.95,-2.9,12.0,11.0,100,7,,6.21,29.64567,,,TRUE,,,,,,,,OVC,100,,,,,,,LIFR,,,,,,,,,,,,METAR,15.0
EGOV 230020Z AUTO 16012KT 9999 -RA FEW027/// OVC032/// 15/13 Q1005,EGOV,2022-10-23T00:20:00Z,53.25,-4.53,15.0,13.0,160,12,,6.21,29.675198,,,TRUE,,,,,,,-RA,FEW,2700,OVC,3200,,,,,VFR,,,,,,,,,,,,METAR,11.0
EGOS 230020Z AUTO 12004KT 9999 -RA SCT013/// BKN076/// 14/13 Q1007,EGOS,2022-10-23T00:20:00Z,52.8,-2.67,14.0,13.0,120,4,,6.21,29.734253,,,TRUE,,,,,,,-RA,SCT,1300,BKN,7600,,,,,VFR,,,,,,,,,,,,METAR,76.0
EGOP 230020Z AUTO 12010KT 9999 SCT078/// BKN090/// 15/14 Q1004,EGOP,2022-10-23T00:20:00Z,51.72,-4.37,15.0,14.0,120,10,,6.21,29.64567,,,TRUE,,,,,,,,SCT,7800,BKN,9000,,,,,VFR,,,,,,,,,,,,METAR,8.0
EGOM 230020Z AUTO 16002KT 9999 OVC024/// 11/10 Q1006,EGOM,2022-10-23T00:20:00Z,55.05,-2.55,11.0,10.0,160,2,,6.21,29.704725,,,TRUE,,,,,,,,OVC,2400,,,,,,,MVFR,,,,,,,,,,,,METAR,286.0
EGNX 230020Z 15010KT 9999 SCT008 14/13 Q1008,EGNX,2022-10-23T00:20:00Z,52.82,-1.32,14.0,13.0,150,10,,6.21,29.763779,,,,,,,,,,,SCT,800,,,,,,,VFR,,,,,,,,,,,,METAR,91.0
EGNT 230020Z VRB02KT CAVOK 12/10 Q1007,EGNT,2022-10-23T00:20:00Z,55.03,-1.7,12.0,10.0,0,2,,6.21,29.734253,,,,,,,,,,,CAVOK,,,,,,,,VFR,,,,,,,,,,,,METAR,77.0
EGNM 230020Z 16007KT CAVOK 11/11 Q1008,EGNM,2022-10-23T00:20:00Z,53.87,-1.65,11.0,11.0,160,7,,6.21,29.763779,,,,,,,,,,,CAVOK,,,,,,,,VFR,,,,,,,,,,,,METAR,221.0
EGNJ 230020Z AUTO 19012KT 9999 -RA NCD 14/14 Q1009,EGNJ,2022-10-23T00:20:00Z,53.57,-0.35,14.0,14.0,190,12,,6.21,29.793306,,,TRUE,,,,,,,-RA,CLR,,,,,,,,VFR,,,,,,,,,,,,METAR,23.0
EGMD 230020Z AUTO 14008KT 9999 NCD 17/15 Q1010,EGMD,2022-10-23T00:20:00Z,50.95,0.93,17.0,15.0,140,8,,6.21,29.822834,,,TRUE,,,,,,,,CLR,,,,,,,,VFR,,,,,,,,,,,,METAR,4.0
EGLL 230020Z AUTO 09005KT 9999 NCD 14/13 Q1009,EGLL,2022-10-23T00:20:00Z,51.48,-0.45,14.0,13.0,90,5,,6.21,29.793306,,,TRUE,,,,,,,,CLR,,,,,,,,VFR,,,,,,,,,,,,METAR,26.0
EGLF 230020Z AUTO 13006KT 9999 NCD 15/13 Q1008,EGLF,2022-10-23T00:20:00Z,51.28,-0.77,15.0,13.0,130,6,,6.21,29.763779,,,TRUE,,,,,,,,CLR,,,,,,,,VFR,,,,,,,,,,,,METAR,65.0
EGLC 230020Z AUTO 08005KT 9999 NCD 15/13 Q1009,EGLC,2022-10-23T00:20:00Z,51.5,0.05,15.0,13.0,80,5,,6.21,29.793306,,,TRUE,,,,,,,,CLR,,,,,,,,VFR,,,,,,,,,,,,METAR,10.0
EGKK 230020Z 09004KT CAVOK 14/13 Q1009,EGKK,2022-10-23T00:20:00Z,51.13,-0.18,14.0,13.0,90,4,,6.21,29.793306,,,,,,,,,,,CAVOK,,,,,,,,VFR,,,,,,,,,,,,METAR,58.0
EGJJ 230020Z AUTO 12015KT 9999 NCD 17/15 Q1004,EGJJ,2022-10-23T00:20:00Z,49.22,-2.2,17.0,15.0,120,15,,6.21,29.64567,,,TRUE,,,,,,,,CLR,,,,,,,,VFR,,,,,,,,,,,,METAR,84.0
EGHQ 230020Z AUTO 12016KT 9999 NCD 16/14 Q1002 REDZ,EGHQ,2022-10-23T00:20:00Z,50.43,-5.0,16.0,14.0,120,16,,6.21,29.586615,,,TRUE,,,,,,,,CLR,,,,,,,,VFR,,,,,,,,,,,,METAR,101.0
EGGW 230020Z AUTO 12005KT 8000 NCD 13/11 Q1009,EGGW,2022-10-23T00:20:00Z,51.87,-0.37,13.0,11.0,120,5,,4.97,29.793306,,,TRUE,,,,,,,,CLR,,,,,,,,MVFR,,,,,,,,,,,,METAR,159.0
EGGP 230020Z 14007KT 110V170 9999 FEW038 14/13 Q1007,EGGP,2022-10-23T00:20:00Z,53.33,-2.85,14.0,13.0,140,7,,6.21,29.734253,,,,,,,,,,,FEW,3800,,,,,,,VFR,,,,,,,,,,,,METAR,23.0
EGGD 230020Z AUTO 09009KT 7000 -RA SCT002 14/14 Q1006,EGGD,2022-10-23T00:20:00Z,51.37,-2.72,14.0,14.0,90,9,,4.35,29.704725,,,TRUE,,,,,,,-RA,SCT,200,,,,,,,MVFR,,,,,,,,,,,,METAR,182.0
EGFF 230020Z AUTO 10009KT 9999 -RA NCD 15/14 Q1005,EGFF,2022-10-23T00:20:00Z,51.38,-3.35,15.0,14.0,100,9,,6.21,29.675198,,,TRUE,,,,,,,-RA,CLR,,,,,,,,VFR,,,,,,,,,,,,METAR,65.0
EGDY 230020Z AUTO 11010KT 9999 // OVC110/// 16/14 Q1005,EGDY,2022-10-23T00:20:00Z,51.0,-2.63,16.0,14.0,110,10,,6.21,29.675198,,,TRUE,,,,,,,,OVC,11000,,,,,,,VFR,,,,,,,,,,,,SPECI,21.0
EGDR 230020Z AUTO 11011KT 8000 -RA BKN021/// BKN079/// 16/14 Q1001,EGDR,2022-10-23T00:20:00Z,50.08,-5.25,16.0,14.0,110,11,,4.97,29.557087,,,TRUE,,,,,,,-RA,BKN,2100,BKN,7900,,,,,MVFR,,,,,,,,,,,,METAR,74.0
EGDM 230020Z AUTO 12009KT 9999 OVC100/// 14/14 Q1007,EGDM,2022-10-23T00:20:00Z,51.17,-1.75,14.0,14.0,120,9,,6.21,29.734253,,,TRUE,,,,,,,,OVC,10000,,,,,,,VFR,,,,,,,,,,,,METAR,122.0
EGCN 230020Z 16005KT CAVOK 13/12 Q1009,EGCN,2022-10-23T00:20:00Z,53.48,-1.0,13.0,12.0,160,5,,6.21,29.793306,,,,,,,,,,,CAVOK,,,,,,,,VFR,,,,,,,,,,,,METAR,9.0
EGCK 230020Z AUTO 16007KT 110V200 9999 FEW018/// SCT041/// 15/12 Q1005,EGCK,2022-10-23T00:20:00Z,53.1,-4.33,15.0,12.0,160,7,,6.21,29.675198,,,TRUE,,,,,,,,FEW,1800,SCT,4100,,,,,VFR,,,,,,,,,,,,METAR,6.0
EGCC 230020Z AUTO 17004KT 110V220 9999 NCD 14/12 Q1007 TEMPO RA,EGCC,2022-10-23T00:20:00Z,53.35,-2.27,14.0,12.0,170,4,,6.21,29.734253,,,TRUE,,,,,,,,CLR,,,,,,,,VFR,,,,,,,,,,,,SPECI,78.0
EGBB 230020Z 14006KT 9999 BKN008 14/13 Q1008,EGBB,2022-10-23T00:20:00Z,52.47,-1.75,14.0,13.0,140,6,,6.21,29.763779,,,,,,,,,,,BKN,800,,,,,,,IFR,,,,,,,,,,,,METAR,91.0
EGAC 230020Z AUTO VRB02KT 9999 BKN017 BKN023 12/12 Q1003,EGAC,2022-10-23T00:20:00Z,54.62,-5.87,12.0,12.0,0,2,,6.21,29.616142,,,TRUE,,,,,,,,BKN,1700,BKN,2300,,,,,MVFR,,,,,,,,,,,,METAR,2.0
EGAA 230020Z 19004KT 140V220 9999 BKN012 13/12 Q1003,EGAA,2022-10-23T00:20:00Z,54.65,-6.22,13.0,12.0,190,4,,6.21,29.616142,,,,,,,,,,,BKN,1200,,,,,,,MVFR,,,,,,,,,,,,METAR,65.0
EFVA 230020Z AUTO 24002KT CAVOK 03/02 Q1004,EFVA,2022-10-23T00:20:00Z,63.05,21.77,3.0,2.0,240,2,,6.21,29.64567,,,TRUE,,,,,,,,CAVOK,,,,,,,,VFR,,,,,,,,,,,,METAR,4.0
EFUT 230020Z AUTO 22005KT 9999 OVC024 05/04 Q1006,EFUT,2022-10-23T00:20:00Z,60.88,26.93,5.0,4.0,220,5,,6.21,29.704725,,,TRUE,,,,,,,,OVC,2400,,,,,,,MVFR,,,,,,,,,,,,METAR,104.0
EFTU 230020Z AUTO 26003KT 210V290 5000 FEW001 BKN024 07/07 Q1006,EFTU,2022-10-23T00:20:00Z,60.52,22.27,7.0,7.0,260,3,,3.11,29.704725,,,TRUE,,,,,,,,FEW,100,BKN,2400,,,,,MVFR,,,,,,,,,,,,METAR,47.0
EFTP 230020Z AUTO 23005KT 9999 OVC008 06/05 Q1005,EFTP,2022-10-23T00:20:00Z,61.42,23.62,6.0,5.0,230,5,,6.21,29.675198,,,TRUE,,,,,,,,OVC,800,,,,,,,IFR,,,,,,,,,,,,METAR,111.0
EFSI 230020Z AUTO 25004KT CAVOK 03/02 Q1004,EFSI,2022-10-23T00:20:00Z,62.7,22.83,3.0,2.0,250,4,,6.21,29.64567,,,TRUE,,,,,,,,CAVOK,,,,,,,,VFR,,,,,,,,,,,,METAR,90.0
EFSA 230020Z AUTO 23009KT 9999 OVC034 06/02 Q1004,EFSA,2022-10-23T00:20:00Z,61.95,28.93,6.0,2.0,230,9,,6.21,29.64567,,,TRUE,,,,,,,,OVC,3400,,,,,,,VFR,,,,,,,,,,,,METAR,90.0
EFRO 230020Z AUTO 25008KT CAVOK M02/M04 Q0995,EFRO,2022-10-23T00:20:00Z,66.57,25.82,-2.0,-4.0,250,8,,6.21,29.379921,,,TRUE,,,,,,,,CAVOK,,,,,,,,VFR,,,,,,,,,,,,METAR,201.0
EFPO 230020Z AUTO 29006KT 9999 SCT022 06/03 Q1006,EFPO,2022-10-23T00:20:00Z,61.47,21.8,6.0,3.0,290,6,,6.21,29.704725,,,TRUE,,,,,,,,SCT,2200,,,,,,,VFR,,,,,,,,,,,,METAR,10.0
EFOU 230020Z AUTO 30009KT 260V320 9999 BKN032 05/00 Q0999,EFOU,2022-10-23T00:20:00Z,64.92,25.37,5.0,0.0,300,9,,6.21,29.498032,,,TRUE,,,,,,,,BKN,3200,,,,,,,VFR,,,,,,,,,,,,METAR,15.0
EFMI 230020Z AUTO 23004KT 200V260 9999 OVC018 05/03 Q1005,EFMI,2022-10-23T00:20:00Z,61.68,27.2,5.0,3.0,230,4,,6.21,29.675198,,,TRUE,,,,,,,,OVC,1800,,,,,,,MVFR,,,,,,,,,,,,METAR,99.0
EFMA 230020Z AUTO VRB02KT 9999 OVC023 08/07 Q1008,EFMA,2022-10-23T00:20:00Z,60.12,19.9,8.0,7.0,0,2,,6.21,29.763779,,,TRUE,,,,,,,,OVC,2300,,,,,,,MVFR,,,,,,,,,,,,METAR,6.0
EFLP 230020Z AUTO 22005KT 9999 BKN028 05/04 Q1005,EFLP,2022-10-23T00:20:00Z,61.03,28.15,5.0,4.0,220,5,,6.21,29.675198,,,TRUE,,,,,,,,BKN,2800,,,,,,,MVFR,,,,,,,,,,,,METAR,102.0
EFKU 230020Z AUTO 25012KT 9999 BKN023 07/03 Q1001,EFKU,2022-10-23T00:20:00Z,63.02,27.8,7.0,3.0,250,12,,6.21,29.557087,,,TRUE,,,,,,,,BKN,2300,,,,,,,MVFR,,,,,,,,,,,,METAR,92.0
EFKT 230020Z AUTO 25013KT CAVOK 00/M05 Q0991,EFKT,2022-10-23T00:20:00Z,67.7,24.85,0.0,-5.0,250,13,,6.21,29.26181,,,TRUE,,,,,,,,CAVOK,,,,,,,,VFR,,,,,,,,,,,,METAR,190.0
EFKS 230020Z AUTO 25007KT 230V290 9999 SCT019 01/M02 Q0994,EFKS,2022-10-23T00:20:00Z,66.0,29.23,1.0,-2.0,250,7,,6.21,29.350393,,,TRUE,,,,,,,,SCT,1900,,,,,,,VFR,,,,,,,,,,,,METAR,270.0
EFKK 230020Z AUTO 23004KT CAVOK 03/02 Q1003,EFKK,2022-10-23T00:20:00Z,63.72,23.13,3.0,2.0,230,4,,6.21,29.616142,,,TRUE,,,,,,,,CAVOK,,,,,,,,VFR,,,,,,,,,,,,METAR,25.0
EFKI 230020Z AUTO 26013KT 9999 OVC013 04/02 Q0999,EFKI,2022-10-23T00:20:00Z,64.27,27.67,4.0,2.0,260,13,,6.21,29.498032,,,TRUE,,,,,,,,OVC,1300,,,,,,,MVFR,,,,,,,,,,,,METAR,132.0
EFKE 230020Z AUTO 27005KT CAVOK 02/M03 Q0998,EFKE,2022-10-23T00:20:00Z,65.78,24.57,2.0,-3.0,270,5,,6.21,29.468504,,,TRUE,,,,,,,,CAVOK,,,,,,,,VFR,,,,,,,,,,,,METAR,15.0
EFJY 230020Z AUTO 23005KT 200V270 9999 OVC031 06/03 Q1003,EFJY,2022-10-23T00:20:00Z,62.4,25.68,6.0,3.0,230,5,,6.21,29.616142,,,TRUE,,,,,,,,OVC,3100,,,,,,,VFR,,,,,,,,,,,,METAR,139.0
EFJO 230020Z AUTO 23008KT 200V260 9999 OVC031 06/02 Q1002,EFJO,2022-10-23T00:20:00Z,62.67,29.62,6.0,2.0,230,8,,6.21,29.586615,,,TRUE,,,,,,,,OVC,3100,,,,,,,VFR,,,,,,,,,,,,METAR,118.0
EFIV 230020Z AUTO 24015KT CAVOK 01/M04 Q0986,EFIV,2022-10-23T00:20:00Z,68.62,27.42,1.0,-4.0,240,15,,6.21,29.114174,,,TRUE,,,,,,,,CAVOK,,,,,,,,VFR,,,,,,,,,,,,METAR,145.0
EFHK 230020Z 23002KT 9999 BKN018 05/04 Q1006 NOSIG,EFHK,2022-10-23T00:20:00Z,60.32,24.97,5.0,4.0,230,2,,6.21,29.704725,,,,,,TRUE,,,,,BKN,1800,,,,,,,MVFR,,,,,,,,,,,,METAR,56.0
EFHA 230020Z AUTO 23005KT 200V260 9999 OVC017 06/04 Q1004,EFHA,2022-10-23T00:20:00Z,61.85,24.8,6.0,4.0,230,5,,6.21,29.64567,,,TRUE,,,,,,,,OVC,1700,,,,,,,MVFR,,,,,,,,,,,,METAR,144.0
EFET 230020Z AUTO 25011KT 220V280 9999 SCT034 00/M04 Q0989,EFET,2022-10-23T00:20:00Z,68.37,23.43,0.0,-4.0,250,11,,6.21,29.202755,,,TRUE,,,,,,,,SCT,3400,,,,,,,VFR,,,,,,,,,,,,METAR,300.0
EETU 230020Z AUTO VRB01KT 9999 NCD 00/M00 Q1008,EETU,2022-10-23T00:20:00Z,58.32,26.68,0.0,0.0,0,1,,6.21,29.763779,,,TRUE,,,,,,,,CLR,,,,,,,,VFR,,,,,,,,,,,,METAR,67.0
EETN 230020Z 21003KT 190V270 CAVOK 02/02 Q1007,EETN,2022-10-23T00:20:00Z,59.4,24.82,2.0,2.0,210,3,,6.21,29.734253,,,,,,,,,,,CAVOK,,,,,,,,VFR,,,,,,,,,,,,METAR,41.0
EEPU 230020Z AUTO VRB01KT 9999 FEW058/// BKN140/// BKN180/// 04/04 Q1008,EEPU,2022-10-23T00:20:00Z,58.42,24.47,4.0,4.0,0,1,,6.21,29.763779,,,TRUE,,,,,,,,FEW,5800,BKN,14000,BKN,18000,,,VFR,,,,,,,,,,,,METAR,13.0
EEKE 230020Z AUTO VRB02KT 9999NDV BKN011 OVC036 09/08 Q1008,EEKE,2022-10-23T00:20:00Z,58.23,22.52,9.0,8.0,0,2,,,29.763779,,,TRUE,,,,,,,,BKN,1100,OVC,3600,,,,,,,,,,,,,,,,,METAR,4.0
EDXW 230020Z AUTO 23008KT 9999 // BKN240/// 12/12 Q1013,EDXW,2022-10-23T00:20:00Z,54.92,8.33,12.0,12.0,230,8,,6.21,29.911417,,,TRUE,,,,,,,,BKN,24000,,,,,,,VFR,,,,,,,,,,,,SPECI,8.0
EDWE 230020Z AUTO 16004KT 130V190 6000 // FEW230/// 11/10 Q1014,EDWE,2022-10-23T00:20:00Z,53.38,7.23,11.0,10.0,160,4,,3.73,29.940945,,,TRUE,,,,,,,,FEW,23000,,,,,,,MVFR,,,,,,,,,,,,SPECI,0.0
EDVE 230020Z AUTO 00000KT 9999 BKN230/// 11/10 Q1016,EDVE,2022-10-23T00:20:00Z,52.32,10.55,11.0,10.0,0,0,,6.21,30.0,,,TRUE,,,,,,,,BKN,23000,,,,,,,VFR,,,,,,,,,,,,METAR,83.0
EDTY 230020Z AUTO 09004KT 9999 // NCD 08/08 Q1018,EDTY,2022-10-23T00:20:00Z,49.12,9.78,8.0,8.0,90,4,,6.21,30.059055,,,TRUE,,,,,,,,CLR,,,,,,,,VFR,,,,,,,,,,,,SPECI,398.0
EDTL 230020Z AUTO 17004KT 110V220 9999 // NCD 14/11 Q1016,EDTL,2022-10-23T00:20:00Z,48.37,7.83,14.0,11.0,170,4,,6.21,30.0,,,TRUE,,,,,,,,CLR,,,,,,,,VFR,,,,,,,,,,,,SPECI,152.0
EDSB 230020Z AUTO 00000KT 9000 0600 R03/1200D // FEW240/// 09/09 Q1016,EDSB,2022-10-23T00:20:00Z,48.78,8.08,9.0,9.0,0,0,,5.59,30.0,,,TRUE,,,,,,,,FEW,24000,,,,,,,VFR,,,,,,,,,,,,SPECI,122.0
EDQM 230020Z AUTO 21002KT 3700 // NCD 09/09 Q1019,EDQM,2022-10-23T00:20:00Z,50.3,11.85,9.0,9.0,210,2,,2.3,30.088583,,,TRUE,,,,,,,,CLR,,,,,,,,IFR,,,,,,,,,,,,SPECI,578.0
EDNY 230020Z AUTO 05006KT 010V080 9999 // NCD 11/09 Q1018,EDNY,2022-10-23T00:20:00Z,47.67,9.52,11.0,9.0,50,6,,6.21,30.059055,,,TRUE,,,,,,,,CLR,,,,,,,,VFR,,,,,,,,,,,,SPECI,411.0
EDMO 230020Z AUTO 17004KT 9999 // NCD 09/09 Q1019,EDMO,2022-10-23T00:20:00Z,48.07,11.27,9.0,9.0,170,4,,6.21,30.088583,,,TRUE,,,,,,,,CLR,,,,,,,,VFR,,,,,,,,,,,,SPECI,587.0
EDMA 230020Z AUTO 16002KT 1200 R25/1800D // FEW003/// 08/08 Q1019,EDMA,2022-10-23T00:20:00Z,48.42,10.92,8.0,8.0,160,2,,0.75,30.088583,,,TRUE,,,,,,,,FEW,300,,,,,,,LIFR,,,,,,,,,,,,SPECI,462.0
EDLW 230020Z AUTO 15006KT 9999 // NCD 13/11 Q1015,EDLW,2022-10-23T00:20:00Z,51.52,7.62,13.0,11.0,150,6,,6.21,29.970472,,,TRUE,,,,,,,,CLR,,,,,,,,VFR,,,,,,,,,,,,SPECI,122.0
EDLV 230020Z AUTO 13005KT 9999 // FEW180/// 12/11 Q1014,EDLV,2022-10-23T00:20:00Z,51.6,6.15,12.0,11.0,130,5,,6.21,29.940945,,,TRUE,,,,,,,,FEW,18000,,,,,,,VFR,,,,,,,,,,,,SPECI,27.0
EDLP 230020Z 17009KT CAVOK 14/10 Q1016,EDLP,2022-10-23T00:20:00Z,51.62,8.62,14.0,10.0,170,9,,6.21,30.0,,,,,,,,,,,CAVOK,,,,,,,,VFR,,,,,,,,,,,,METAR,211.0
EDLN 230020Z AUTO 10005KT 9999 // FEW200/// 11/10 Q1014,EDLN,2022-10-23T00:20:00Z,51.23,6.5,11.0,10.0,100,5,,6.21,29.940945,,,TRUE,,,,,,,,FEW,20000,,,,,,,VFR,,,,,,,,,,,,SPECI,38.0
EDJA 230020Z AUTO 12004KT 9999 0700 R24/P2000N // NCD 08/08 Q1019,EDJA,2022-10-23T00:20:00Z,47.98,10.23,8.0,8.0,120,4,,6.21,30.088583,,,TRUE,,,,,,,,CLR,,,,,,,,VFR,,,,,,,,,,,,SPECI,625.0
EDHL 230020Z AUTO 20003KT 160V250 8000 // BKN220/// 12/11 Q1015,EDHL,2022-10-23T00:20:00Z,53.8,10.72,12.0,11.0,200,3,,4.97,29.970472,,,TRUE,,,,,,,,BKN,22000,,,,,,,MVFR,,,,,,,,,,,,SPECI,13.0
EDHK 230020Z AUTO 22006KT 9999 // FEW018/// BKN240/// 11/11 Q1014,EDHK,2022-10-23T00:20:00Z,54.38,10.15,11.0,11.0,220,6,,6.21,29.940945,,,TRUE,,,,,,,,FEW,1800,BKN,24000,,,,,VFR,,,,,,,,,,,,METAR,24.0
EDHI 230020Z AUTO VRB01KT 0500 R23/1700D // FEW005/// SCT010/// 11/11 Q1015,EDHI,2022-10-23T00:20:00Z,53.53,9.83,11.0,11.0,0,1,,0.31,29.970472,,,TRUE,,,,,,,,FEW,500,SCT,1000,,,,,LIFR,,,,,,,,,,,,METAR,5.0
EDGS 230020Z AUTO 19006KT 9999 // NCD 12/11 Q1017,EDGS,2022-10-23T00:20:00Z,50.7,8.08,12.0,11.0,190,6,,6.21,30.029528,,,TRUE,,,,,,,,CLR,,,,,,,,VFR,,,,,,,,,,,,SPECI,595.0
EDFM 230020Z AUTO VRB01KT 9999 NCD 10/09 Q1017,EDFM,2022-10-23T00:20:00Z,49.47,8.52,10.0,9.0,0,1,,6.21,30.029528,,,TRUE,,,,,,,,CLR,,,,,,,,VFR,,,,,,,,,,,,METAR,94.0
EDFH 230020Z 13011KT 9999 0100W R21/P2000N PRFG NSC 11/11 Q1016,EDFH,2022-10-23T00:20:00Z,49.95,7.27,11.0,11.0,130,11,,6.21,30.0,,,,,,,,,,PRFG,CLR,,,,,,,,VFR,,,,,,,,,,,,SPECI,494.0
EDDW 230020Z AUTO 15002KT 0350 0250 R27/0750N FG NSC 10/09 Q1015,EDDW,2022-10-23T00:20:00Z,53.03,8.8,10.0,9.0,150,2,,0.22,29.970472,,,TRUE,,,,,,,FG,CLR,,,,,,,,LIFR,,,,,,,,,,,,SPECI,5.0
EDDV 230020Z AUTO VRB01KT CAVOK 11/10 Q1016,EDDV,2022-10-23T00:20:00Z,52.47,9.68,11.0,10.0,0,1,,6.21,30.0,,,TRUE,,,,,,,,CAVOK,,,,,,,,VFR,,,,,,,,,,,,METAR,53.0
EDDS 230020Z AUTO VRB01KT CAVOK 09/09 Q1017,EDDS,2022-10-23T00:20:00Z,48.68,9.22,9.0,9.0,0,1,,6.21,30.029528,,,TRUE,,,,,,,,CAVOK,,,,,,,,VFR,,,,,,,,,,,,METAR,374.0
EDDR 230020Z AUTO 09004KT CAVOK 12/11 Q1016,EDDR,2022-10-23T00:20:00Z,49.22,7.1,12.0,11.0,90,4,,6.21,30.0,,,TRUE,,,,,,,,CAVOK,,,,,,,,VFR,,,,,,,,,,,,METAR,317.0
EDDP 230020Z AUTO 18006KT CAVOK 12/10 Q1017 NOSIG,EDDP,2022-10-23T00:20:00Z,51.43,12.23,12.0,10.0,180,6,,6.21,30.029528,,,TRUE,,,TRUE,,,,,CAVOK,,,,,,,,VFR,,,,,,,,,,,,METAR,129.0
EDDN 230020Z AUTO 12004KT 9999 1000 R10/P2000N BR NSC 09/09 Q1019,EDDN,2022-10-23T00:20:00Z,49.5,11.05,9.0,9.0,120,4,,6.21,30.088583,,,TRUE,,,,,,,BR,CLR,,,,,,,,VFR,,,,,,,,,,,,SPECI,312.0
EDDM 230020Z AUTO 05001KT 0550 0250 R08L/0900N R08R/0600N FG NSC 07/07 Q1019 NOSIG,EDDM,2022-10-23T00:20:00Z,48.35,11.82,7.0,7.0,50,1,,0.34,30.088583,,,TRUE,,,TRUE,,,,FG,CLR,,,,,,,,LIFR,,,,,,,,,,,,SPECI,445.0
EDDL 230020Z AUTO 15009KT CAVOK 14/12 Q1014 NOSIG,EDDL,2022-10-23T00:20:00Z,51.3,6.77,14.0,12.0,150,9,,6.21,29.940945,,,TRUE,,,TRUE,,,,,CAVOK,,,,,,,,VFR,,,,,,,,,,,,METAR,37.0
EDDK 230020Z AUTO 10003KT 060V140 CAVOK 13/11 Q1015 NOSIG,EDDK,2022-10-23T00:20:00Z,50.87,7.15,13.0,11.0,100,3,,6.21,29.970472,,,TRUE,,,TRUE,,,,,CAVOK,,,,,,,,VFR,,,,,,,,,,,,METAR,92.0
EDDH 230020Z AUTO 22004KT 7000 2900 BR FEW028 11/11 Q1015 TEMPO 2000 BR,EDDH,2022-10-23T00:20:00Z,53.63,10.0,11.0,11.0,220,4,,4.35,29.970472,,,TRUE,,,,,,,BR,FEW,2800,,,,,,,MVFR,,,,,,,,,,,,SPECI,8.0
EDDG 230020Z AUTO VRB02KT CAVOK 10/10 Q1015 NOSIG,EDDG,2022-10-23T00:20:00Z,52.13,7.7,10.0,10.0,0,2,,6.21,29.970472,,,TRUE,,,TRUE,,,,,CAVOK,,,,,,,,VFR,,,,,,,,,,,,METAR,46.0
EDDF 230020Z AUTO VRB02KT CAVOK 10/10 Q1017 NOSIG,EDDF,2022-10-23T00:20:00Z,50.05,8.6,10.0,10.0,0,2,,6.21,30.029528,,,TRUE,,,TRUE,,,,,CAVOK,,,,,,,,VFR,,,,,,,,,,,,METAR,113.0
EDDE 230020Z AUTO 19007KT CAVOK 12/10 Q1017,EDDE,2022-10-23T00:20:00Z,50.98,10.97,12.0,10.0,190,7,,6.21,30.029528,,,TRUE,,,,,,,,CAVOK,,,,,,,,VFR,,,,,,,,,,,,METAR,314.0
EDDC 230020Z AUTO 21007KT CAVOK 12/10 Q1018,EDDC,2022-10-23T00:20:00Z,51.13,13.75,12.0,10.0,210,7,,6.21,30.059055,,,TRUE,,,,,,,,CAVOK,,,,,,,,VFR,,,,,,,,,,,,METAR,227.0
EDDB 230020Z AUTO 24006KT CAVOK 10/10 Q1017 NOSIG,EDDB,2022-10-23T00:20:00Z,52.38,13.53,10.0,10.0,240,6,,6.21,30.029528,,,TRUE,,,TRUE,,,,,CAVOK,,,,,,,,VFR,,,,,,,,,,,,METAR,48.0
EDBC 230020Z AUTO 22005KT 9999 // FEW051/// BKN220/// 10/09 Q1017,EDBC,2022-10-23T00:20:00Z,51.85,11.42,10.0,9.0,220,5,,6.21,30.029528,,,TRUE,,,,,,,,FEW,5100,BKN,22000,,,,,VFR,,,,,,,,,,,,METAR,178.0
EDAC 230020Z AUTO 14002KT 2500 // BKN250/// 10/10 Q1018,EDAC,2022-10-23T00:20:00Z,50.98,12.5,10.0,10.0,140,2,,1.55,30.059055,,,TRUE,,,,,,,,BKN,25000,,,,,,,IFR,,,,,,,,,,,,SPECI,193.0
EBOS 230020Z 14006KT CAVOK 13/12 Q1012 NOSIG,EBOS,2022-10-23T00:20:00Z,51.2,2.87,13.0,12.0,140,6,,6.21,29.88189,,,,,,TRUE,,,,,CAVOK,,,,,,,,VFR,,,,,,,,,,,,METAR,5.0
EBLG 230020Z 16007KT CAVOK 14/11 Q1014 NOSIG,EBLG,2022-10-23T00:20:00Z,50.63,5.45,14.0,11.0,160,7,,6.21,29.940945,,,,,,TRUE,,,,,CAVOK,,,,,,,,VFR,,,,,,,,,,,,METAR,187.0
EBCI 230020Z 16003KT CAVOK 14/11 Q1013 NOSIG,EBCI,2022-10-23T00:20:00Z,50.47,4.45,14.0,11.0,160,3,,6.21,29.911417,,,,,,TRUE,,,,,CAVOK,,,,,,,,VFR,,,,,,,,,,,,METAR,176.0
EBBR 230020Z 18008KT CAVOK 14/12 Q1013 NOSIG,EBBR,2022-10-23T00:20:00Z,50.9,4.52,14.0,12.0,180,8,,6.21,29.911417,,,,,,TRUE,,,,,CAVOK,,,,,,,,VFR,,,,,,,,,,,,METAR,49.0
EBAW 230020Z AUTO 11004KT CAVOK ///// Q1013,EBAW,2022-10-23T00:20:00Z,51.2,4.47,,,110,4,,6.21,29.911417,,,TRUE,,,,,,,,CAVOK,,,,,,,,VFR,,,,,,,,,,,,SPECI,7.0
PASL 230019Z AUTO 00000KT 10SM SCT002 02/02 A2992 RMK AO2 FZRANO,PASL,2022-10-23T00:19:00Z,61.68,-157.15,2.0,2.0,0,0,,10.0,29.920275,,,TRUE,TRUE,,,,TRUE,,,SCT,200,,,,,,,VFR,,,,,,,,,,,,METAR,64.0
KMEH 230019Z AUTO 26003KT 10SM FEW009 BKN014 OVC020 03/02 A2968 RMK AO2 T00330022,KMEH,2022-10-23T00:19:00Z,45.52,-118.42,3.3,2.2,260,3,,10.0,29.681103,,,TRUE,TRUE,,,,,,,FEW,900,BKN,1400,OVC,2000,,,MVFR,,,,,,,,,,,,METAR,1138.0
PADU 230018Z 34009KT 10SM FEW020 SCT028 OVC038 07/03 A3009 RMK AO2 P0001,PADU,2022-10-23T00:18:00Z,53.9,-166.53,7.0,3.0,340,9,,10.0,30.088583,,,,TRUE,,,,,,,FEW,2000,SCT,2800,OVC,3800,,,VFR,,,,,,0.01,,,,,,METAR,4.0
CYQI 230018Z VRB02KT 1/4SM FG SKC 09/09 A3032 RMK FG2 VIS 3SM N SLP271,CYQI,2022-10-23T00:18:00Z,43.83,-66.08,9.0,9.0,0,2,,0.25,30.318897,1027.1,,,,,,,,,FG,SKC,,,,,,,,LIFR,,,,,,,,,,,,SPECI,37.0
PALU 230017Z AUTO 18015G22KT 10SM -SHRA OVC055 03/M02 A2976 RMK AO2 SLP076,PALU,2022-10-23T00:17:00Z,68.88,-166.1,3.0,-2.0,180,15,22,10.0,29.760826,1007.6,,TRUE,TRUE,,,,,,-SHRA,OVC,5500,,,,,,,VFR,,,,,,,,,,,,METAR,8.0
KSDB 230017Z AUTO M1/4SM FG VV001 10/09 A2977 RMK AO2 T01000089 $,KSDB,2022-10-23T00:17:00Z,34.75,-118.72,10.0,8.9,,,,0.25,29.769686,,,TRUE,TRUE,TRUE,,,,,FG,OVX,0,,,,,,,LIFR,,,,,,,,,,,100,SPECI,1377.0
RJKA 230016Z 03017KT 9999 -SHRA FEW007 BKN009 BKN025 24/23 Q1013 RMK 2CU007 5CU009 7CU025 A2994,RJKA,2022-10-23T00:16:00Z,28.42,129.72,24.0,23.0,30,17,,6.21,29.911417,,,,,,,,,,-SHRA,FEW,700,BKN,900,BKN,2500,,,IFR,,,,,,,,,,,,METAR,7.0
RJBT 230016Z 15003KT 120V190 6000 BCFG FEW000 BKN/// 15/15 Q1015 RMK 1ST000 A2998 1200S FG BANK AROUND,RJBT,2022-10-23T00:16:00Z,35.5,134.8,15.0,15.0,150,3,,3.73,29.970472,,,,,,,,,,BCFG,FEW,0,,,,,,,MVFR,,,,,,,,,,,,SPECI,172.0
KDRA 230016Z AUTO 20025G38KT 9SM OVC030 21/03 A2940 RMK AO2 PK WND 20041/2356 T02110028,KDRA,2022-10-23T00:16:00Z,36.62,-116.03,21.1,2.8,200,25,38,9.0,29.40059,,,TRUE,TRUE,,,,,,,OVC,3000,,,,,,,MVFR,,,,,,,,,,,,SPECI,988.0
K40B 230016Z AUTO 16007G14KT 130V190 13/04 A3016 RMK AO1 SLP214 T01270043 10189 20121 51013,K40B,2022-10-23T00:16:00Z,46.62,-69.52,12.7,4.3,160,7,14,,30.159449,1021.4,,TRUE,TRUE,,,,,,,,,,,,,,,,1.3,18.9,12.1,,,,,,,,,SPECI,344.0
CZVL 230016Z AUTO 05002KT 6SM BR BKN014 OVC020 03/03 A2977 RMK SLP105,CZVL,2022-10-23T00:16:00Z,53.67,-113.85,3.0,3.0,50,2,,6.0,29.769686,1010.5,,TRUE,,,,,,,BR,BKN,1400,OVC,2000,,,,,MVFR,,,,,,,,,,,,SPECI,685.0
VEJT 230015Z VRB02KT 3000 -RA SCT015 BKN090 22/22 Q1014 BECMG 4000,VEJT,2022-10-23T00:15:00Z,26.73,94.17,22.0,22.0,0,2,,1.86,29.940945,,,,,,,,,,-RA,SCT,1500,BKN,9000,,,,,IFR,,,,,,,,,,,,METAR,95.0
LIRP 230015Z 15004KT 9999 SCT025 18/17 Q1021 NOSIG,LIRP,2022-10-23T00:15:00Z,43.68,10.38,18.0,17.0,150,4,,6.21,30.147638,,,,,,TRUE,,,,,SCT,2500,,,,,,,VFR,,,,,,,,,,,,METAR,1.0
LHSN 230015Z 27010KT 240V300 8000 NSC 12/10 Q1020 NOSIG RMK BLU,LHSN,2022-10-23T00:15:00Z,47.12,20.23,12.0,10.0,270,10,,4.97,30.11811,,,,,,TRUE,,,,,CLR,,,,,,,,MVFR,,,,,,,,,,,,METAR,89.0
LHSM 230015Z AUTO 00000KT 0250 R16/0350N -SHRA FG VV002 10/10 Q1022,LHSM,2022-10-23T00:15:00Z,46.68,17.17,10.0,10.0,0,0,,0.16,30.177166,,,TRUE,,,,,,,-SHRA FG,OVX,0,,,,,,,LIFR,,,,,,,,,,,200,METAR,119.0
LHPR 230015Z AUTO VRB02KT 0500 R29/0800U FG FEW003 07/07 Q1021,LHPR,2022-10-23T00:15:00Z,47.63,17.82,7.0,7.0,0,2,,0.31,30.147638,,,TRUE,,,,,,,FG,FEW,300,,,,,,,LIFR,,,,,,,,,,,,METAR,127.0
LHPA 230015Z 21008KT 170V230 0500 R16/P1500 FG BKN006 11/11 Q1022 NOSIG RMK RED,LHPA,2022-10-23T00:15:00Z,47.35,17.5,11.0,11.0,210,8,,0.31,30.177166,,,,,,TRUE,,,,FG,BKN,600,,,,,,,LIFR,,,,,,,,,,,,METAR,143.0
LHKE 230015Z 28008KT 2000 BR SCT003 12/11 Q1021 TEMPO 1500 RMK YLO,LHKE,2022-10-23T00:15:00Z,46.92,19.75,12.0,11.0,280,8,,1.24,30.147638,,,,,,,,,,BR,SCT,300,,,,,,,IFR,,,,,,,,,,,,METAR,113.0
LHDC 230015Z AUTO 26006KT 6000 BKN006 11/10 Q1019 NOSIG,LHDC,2022-10-23T00:15:00Z,47.48,21.62,11.0,10.0,260,6,,3.73,30.088583,,,TRUE,,,TRUE,,,,,BKN,600,,,,,,,IFR,,,,,,,,,,,,METAR,105.0
KVBG 230015Z AUTO 35009KT 9SM SCT013 BKN021 15/13 A2980 RMK AO2 SLP094 TSNO $,KVBG,2022-10-23T00:15:00Z,34.73,-120.58,15.0,13.0,350,9,,9.0,29.799213,1009.4,,TRUE,TRUE,TRUE,,TRUE,,,,SCT,1300,BKN,2100,,,,,MVFR,,,,,,,,,,,,METAR,96.0
KTFP 230015Z AUTO 18011KT 10SM CLR 25/19 A2989 RMK AO2 T02510187,KTFP,2022-10-23T00:15:00Z,27.92,-97.22,25.1,18.7,180,11,,10.0,29.890747,,,TRUE,TRUE,,,,,,,CLR,,,,,,,,VFR,,,,,,,,,,,,METAR,5.0
KRFI 230015Z AUTO 16010G19KT 10SM CLR 27/10 A2985 RMK AO2 T02710100,KRFI,2022-10-23T00:15:00Z,32.15,-94.85,27.1,10.0,160,10,19,10.0,29.84941,,,TRUE,TRUE,,,,,,,CLR,,,,,,,,VFR,,,,,,,,,,,,SPECI,133.0
KPWT 230015Z AUTO 10004KT 10SM FEW025 OVC032 09/07 A2980 RMK AO2,KPWT,2022-10-23T00:15:00Z,47.5,-122.77,9.0,7.0,100,4,,10.0,29.799213,,,TRUE,TRUE,,,,,,,FEW,2500,OVC,3200,,,,,VFR,,,,,,,,,,,,SPECI,143.0
KMFV 230015Z AUTO 06005KT 10SM CLR 10/07 A3022 RMK AO2 T01030068,KMFV,2022-10-23T00:15:00Z,37.63,-75.77,10.3,6.8,60,5,,10.0,30.221457,,,TRUE,TRUE,,,,,,,CLR,,,,,,,,VFR,,,,,,,,,,,,METAR,13.0
KFYG 230015Z AUTO 14012G23KT 10SM CLR 23/12 A2977 RMK AO2,KFYG,2022-10-23T00:15:00Z,38.58,-91.0,23.0,12.0,140,12,23,10.0,29.769686,,,TRUE,TRUE,,,,,,,CLR,,,,,,,,VFR,,,,,,,,,,,,METAR,147.0
KEOE 230015Z AUTO 11003KT 10SM CLR 11/03 A3018 RMK AO2,KEOE,2022-10-23T00:15:00Z,34.32,-81.63,11.0,3.0,110,3,,10.0,30.180119,,,TRUE,TRUE,,,,,,,CLR,,,,,,,,VFR,,,,,,,,,,,,SPECI,166.0
CYZP 230015Z AUTO 07003KT 9SM SCT042 SCT060 BKN080 09/05 A2995 RMK SLP144,CYZP,2022-10-23T00:15:00Z,53.25,-131.82,9.0,5.0,70,3,,9.0,29.949802,1014.4,,TRUE,,,,,,,,SCT,4200,SCT,6000,BKN,8000,,,VFR,,,,,,,,,,,,SPECI,7.0
YCBA 230014Z AUTO 08008KT 9999 // OVC016 23/18 Q1010,YCBA,2022-10-23T00:14:00Z,-31.53,145.8,23.0,18.0,80,8,,6.21,29.822834,,,TRUE,,,,,,,,OVC,1600,,,,,,,MVFR,,,,,,,,,,,,SPECI,219.0
KLPC 230014Z AUTO 31012KT 10SM SCT017 OVC025 17/13 A2979 RMK AO2,KLPC,2022-10-23T00:14:00Z,34.67,-120.47,17.0,13.0,310,12,,10.0,29.790354,,,TRUE,TRUE,,,,,,,SCT,1700,OVC,2500,,,,,MVFR,,,,,,,,,,,,METAR,26.0
KDUB 230014Z AUTO 30014KT 10SM DZ SCT022 BKN038 OVC047 02/00 A2947 RMK AO2,KDUB,2022-10-23T00:14:00Z,43.55,-109.68,2.0,0.0,300,14,,10.0,29.471457,,,TRUE,TRUE,,,,,,DZ,SCT,2200,BKN,3800,OVC,4700,,,VFR,,,,,,,,,,,,SPECI,2205.0
CZMT 230014Z 32005KT 10SM -SHRA BKN030TCU BKN260 10/05 A2993 RMK TCU5CI1 SLP138,CZMT,2022-10-23T00:14:00Z,54.03,-132.13,10.0,5.0,320,5,,10.0,29.929134,1013.8,,,,,,,,,-SHRA,BKN,3000,BKN,26000,,,,,MVFR,,,,,,,,,,,,SPECI,11.0
CYFS 230014Z 27003KT 220V280 15SM BKN012 BKN130 BKN250 M04/M07 A3006 RMK SC7AC1CI1 AC TR CI TR CIG RAG SLP196,CYFS,2022-10-23T00:14:00Z,61.75,-121.22,-4.0,-7.0,270,3,,15.0,30.059055,1019.6,,,,,,,,,,BKN,1200,BKN,13000,BKN,25000,,,MVFR,,,,,,,,,,,,SPECI,174.0
KHHR 230012Z 23007KT 10SM SCT030 OVC041 19/13 A2975 RMK AO2 T01940128,KHHR,2022-10-23T00:12:00Z,33.92,-118.33,19.4,12.8,230,7,,10.0,29.749016,,,,TRUE,,,,,,,SCT,3000,OVC,4100,,,,,VFR,,,,,,,,,,,,METAR,21.0
PFSH 230011Z AUTO 20012KT 9SM BKN012 BKN020 OVC037 03/02 A2989 RMK AO2,PFSH,2022-10-23T00:11:00Z,64.37,-161.22,3.0,2.0,200,12,,9.0,29.890747,,,TRUE,TRUE,,,,,,,BKN,1200,BKN,2000,OVC,3700,,,MVFR,,,,,,,,,,,,SPECI,6.0
PFEL 230011Z AUTO 21007KT 10SM FEW019 SCT039 SCT055 02/02 A2986 RMK AO2 FZRANO,PFEL,2022-10-23T00:11:00Z,64.62,-162.27,2.0,2.0,210,7,,10.0,29.861221,,,TRUE,TRUE,,,,TRUE,,,FEW,1900,SCT,3900,SCT,5500,,,VFR,,,,,,,,,,,,SPECI,50.0
VCRI 230010Z VRB01KT 9999 SCT018 BKN080 24/24 Q1010 NOSIG,VCRI,2022-10-23T00:10:00Z,6.28,81.13,24.0,24.0,0,1,,6.21,29.822834,,,,,,TRUE,,,,,SCT,1800,BKN,8000,,,,,VFR,,,,,,,,,,,,METAR,50.0
VCBI 230010Z 12003KT 060V160 9000 FEW010 SCT016 FEW018CB 24/24 Q1011 NOSIG RMK CB N/NW,VCBI,2022-10-23T00:10:00Z,7.17,79.88,24.0,24.0,120,3,,5.59,29.852362,,,,,,TRUE,,,,,FEW,1000,SCT,1600,FEW,1800,,,VFR,,,,,,,,,,,,METAR,10.0
RJSR 230010Z 00000KT 8000 PRFG FEW001 SCT006 BKN/// 13/13 Q1012 RMK 1ST001 3ST006 A2990 3000NW-NE,RJSR,2022-10-23T00:10:00Z,40.18,140.37,13.0,13.0,0,0,,4.97,29.88189,,,,,,,,,,PRFG,FEW,100,SCT,600,,,,,MVFR,,,,,,,,,,,,SPECI,83.0
K1R8 230010Z AUTO 00000KT 10SM CLR 16/10 A3008 RMK AO2,K1R8,2022-10-23T00:10:00Z,30.87,-87.82,16.0,10.0,0,0,,10.0,30.079725,,,TRUE,TRUE,,,,,,,CLR,,,,,,,,VFR,,,,,,,,,,,,SPECI,76.0
CYET 230010Z AUTO 05005KT 9SM BKN026 03/M00 A2974 RMK SLP103,CYET,2022-10-23T00:10:00Z,53.57,-116.47,3.0,0.0,50,5,,9.0,29.740158,1010.3,,TRUE,,,,,,,,BKN,2600,,,,,,,MVFR,,,,,,,,,,,,SPECI,925.0
PAWI 230009Z AUTO 09014KT 7SM CLR M07/M08 A2984 RMK AO2 T10671083 TSNO $,PAWI,2022-10-23T00:09:00Z,70.63,-160.02,-6.7,-8.3,90,14,,7.0,29.840551,,,TRUE,TRUE,TRUE,,TRUE,,,,CLR,,,,,,,,VFR,,,,,,,,,,,,METAR,12.0
PATC 230009Z AUTO 20017KT 180V250 OVC011 02/01 A2969 RMK AO2 SLP060 PWINO FZRANO $,PATC,2022-10-23T00:09:00Z,65.57,-167.92,2.0,1.0,200,17,,,29.68996,1006.0,,TRUE,TRUE,TRUE,,,TRUE,TRUE,,OVC,1100,,,,,,,,,,,,,,,,,,,SPECI,77.0
PAOM 230009Z 17010KT 7SM -RA SCT016 BKN027 OVC048 03/00 A2980 RMK AO2 P0000 T00280000,PAOM,2022-10-23T00:09:00Z,64.5,-165.43,2.8,0.0,170,10,,7.0,29.799213,,,,TRUE,,,,,,-RA,SCT,1600,BKN,2700,OVC,4800,,,MVFR,,,,,,0.005,,,,,,SPECI,6.0
CPIN 230008Z AUTO 27009KT ////SM OVC025 ///// A////,CPIN,2022-10-23T00:08:00Z,,,,,270,9,,,,,,TRUE,,,,,,,,OVC,2500,,,,,,,,,,,,,,,,,,,SPECI,
RJSC 230007Z 01005KT 6000 FEW003 SCT004 BKN050 14/14 Q1012 RMK 1ST003 3ST004 5CU050 A2990,RJSC,2022-10-23T00:07:00Z,38.42,140.37,14.0,14.0,10,5,,3.73,29.88189,,,,,,,,,,,FEW,300,SCT,400,BKN,5000,,,MVFR,,,,,,,,,,,,METAR,104.0
KIDA 230007Z 19016G28KT 10SM FEW016 BKN020 BKN027 05/02 A2951 RMK AO2 PK WND 18028/2359 T00500017,KIDA,2022-10-23T00:07:00Z,43.52,-112.07,5.0,1.7,190,16,28,10.0,29.509842,,,,TRUE,,,,,,,FEW,1600,BKN,2000,BKN,2700,,,MVFR,,,,,,,,,,,,METAR,1444.0
CYXS 230007Z AUTO 13003KT 8SM FEW022 SCT034 02/01 A2979 RMK SLP117,CYXS,2022-10-23T00:07:00Z,53.88,-122.68,2.0,1.0,130,3,,8.0,29.790354,1011.7,,TRUE,,,,,,,,FEW,2200,SCT,3400,,,,,VFR,,,,,,,,,,,,SPECI,685.0
LIVC 230006Z AUTO 22027KT ///// 08/06 Q1028,LIVC,2022-10-23T00:06:00Z,44.2,10.68,8.0,6.0,220,27,,,30.35433,,,TRUE,,,,,,,,,,,,,,,,,,,,,,,,,,,,METAR,2139.0
KXWA 230006Z AUTO 07012KT 10SM OVC032 08/03 A2953 RMK AO2 T00830028,KXWA,2022-10-23T00:06:00Z,48.27,-103.75,8.3,2.8,70,12,,10.0,29.530512,,,TRUE,TRUE,,,,,,,OVC,3200,,,,,,,VFR,,,,,,,,,,,,METAR,717.0
PANN 230005Z AUTO 09003KT 10SM SCT009 OVC041 01/M01 A2990 RMK AO2 T00061011 TSNO,PANN,2022-10-23T00:05:00Z,64.55,-149.08,0.6,-1.1,90,3,,10.0,29.899607,,,TRUE,TRUE,,,TRUE,,,,SCT,900,OVC,4100,,,,,VFR,,,,,,,,,,,,METAR,110.0
ETIH 230005Z AUTO 00000KT 1200 BR VV000 07/06 A3011 RMK AO2 VIS 1200V9999 SLP198 RVRNO $,ETIH,2022-10-23T00:05:00Z,49.22,11.83,7.0,6.0,0,0,,0.75,30.109253,1019.8,,TRUE,TRUE,TRUE,,,,,BR,OVX,0,,,,,,,LIFR,,,,,,,,,,,0,SPECI,436.0
RJCO 230004Z 29008KT 8000 -SHRA FEW010 BKN020 BKN050 10/07 Q1012 RMK 1ST010 5CU020 7CU050 A2990,RJCO,2022-10-23T00:04:00Z,43.12,141.37,10.0,7.0,290,8,,4.97,29.88189,,,,,,,,,,-SHRA,FEW,1000,BKN,2000,BKN,5000,,,MVFR,,,,,,,,,,,,SPECI,7.0
KRPX 230004Z AUTO 05007KT 08/04 A2936 RMK Roundup ,KRPX,2022-10-23T00:04:00Z,46.47,-108.55,8.0,4.0,50,7,,,29.359253,,,TRUE,,,,,,,,,,,,,,,,,,,,,,,,,,,,METAR,1062.0
CWLI 230004Z AUTO 09007KT ////SM OVC024 M08/M09 A3012,CWLI,2022-10-23T00:04:00Z,69.6,-130.9,-8.0,-9.0,90,7,,,30.121063,,,TRUE,,,,,,,,OVC,2400,,,,,,,,,,,,,,,,,,,SPECI,92.0
SVVA 230003Z AUTO 00000KT NCD 29/23 Q1009,SVVA,2022-10-23T00:03:00Z,10.15,-67.92,29.0,23.0,0,0,,,29.793306,,,TRUE,,,,,,,,CLR,,,,,,,,,,,,,,,,,,,,METAR,428.0
SVSR 230003Z AUTO NIL,SVSR,2022-10-23T00:03:00Z,7.87,-67.43,,,,,,,,,,TRUE,,,,,,,,,,,,,,,,,,,,,,,,,,,,METAR,49.0
SVPR 230003Z AUTO 13007KT NCD 26/20 Q1011,SVPR,2022-10-23T00:03:00Z,8.3,-62.77,26.0,20.0,130,7,,,29.852362,,,TRUE,,,,,,,,CLR,,,,,,,,,,,,,,,,,,,,METAR,140.0
SVPA 230003Z AUTO NIL,SVPA,2022-10-23T00:03:00Z,5.62,-67.6,,,,,,,,,,TRUE,,,,,,,,,,,,,,,,,,,,,,,,,,,,METAR,77.0
SVMT 230003Z AUTO 10007KT NCD 27/24 Q1010,SVMT,2022-10-23T00:03:00Z,9.75,-63.17,27.0,24.0,100,7,,,29.822834,,,TRUE,,,,,,,,CLR,,,,,,,,,,,,,,,,,,,,METAR,67.0
SVMI 230003Z AUTO 09006KT NCD ///// Q1010,SVMI,2022-10-23T00:03:00Z,10.6,-67.0,,,90,6,,,29.822834,,,TRUE,,,,,,,,CLR,,,,,,,,,,,,,,,,,,,,METAR,48.0
SVMG 230003Z AUTO 09012KT NCD 29/25 Q1009,SVMG,2022-10-23T00:03:00Z,10.92,-63.97,29.0,25.0,90,12,,,29.793306,,,TRUE,,,,,,,,CLR,,,,,,,,,,,,,,,,,,,,METAR,16.0
SVMC 230003Z AUTO NIL,SVMC,2022-10-23T00:03:00Z,10.57,-71.72,,,,,,,,,,TRUE,,,,,,,,,,,,,,,,,,,,,,,,,,,,METAR,76.0
SVLO 230003Z AUTO NIL,SVLO,2022-10-23T00:03:00Z,11.8,-66.18,,,,,,,,,,TRUE,,,,,,,,,,,,,,,,,,,,,,,,,,,,METAR,3.0
SVJM 230003Z AUTO 30003KT NCD 27/22 Q1009,SVJM,2022-10-23T00:03:00Z,9.92,-67.38,27.0,22.0,300,3,,,29.793306,,,TRUE,,,,,,,,CLR,,,,,,,,,,,,,,,,,,,,METAR,448.0
SVGU 230003Z AUTO NIL,SVGU,2022-10-23T00:03:00Z,9.03,-69.75,,,,,,,,,,TRUE,,,,,,,,,,,,,,,,,,,,,,,,,,,,METAR,165.0
SVGD 230003Z AUTO 03001KT NCD 27/26 Q1008,SVGD,2022-10-23T00:03:00Z,7.22,-70.75,27.0,26.0,30,1,,,29.763779,,,TRUE,,,,,,,,CLR,,,,,,,,,,,,,,,,,,,,METAR,129.0
SVFM 230003Z AUTO 00000KT NCD 24/20 Q1012,SVFM,2022-10-23T00:03:00Z,10.48,-66.83,24.0,20.0,0,0,,,29.88189,,,TRUE,,,,,,,,CLR,,,,,,,,,,,,,,,,,,,,METAR,852.0
SVCS 230003Z AUTO 07007KT NCD ///47 Q1013,SVCS,2022-10-23T00:03:00Z,10.3,-66.82,,,70,7,,,29.911417,,,TRUE,,,,,,,,CLR,,,,,,,,,,,,,,,,,,,,METAR,656.0
SVCJ 230003Z AUTO NIL,SVCJ,2022-10-23T00:03:00Z,9.65,-68.58,,,,,,,,,,TRUE,,,,,,,,,,,,,,,,,,,,,,,,,,,,METAR,156.0
SVCB 230003Z AUTO 06010KT NCD 29/22 Q1008,SVCB,2022-10-23T00:03:00Z,8.12,-63.53,29.0,22.0,60,10,,,29.763779,,,TRUE,,,,,,,,CLR,,,,,,,,,,,,,,,,,,,,METAR,47.0
SVBS 230003Z AUTO 07001KT NCD 27/// Q1010,SVBS,2022-10-23T00:03:00Z,10.25,-67.65,,,70,1,,,29.822834,,,TRUE,,,,,,,,CLR,,,,,,,,,,,,,,,,,,,,METAR,435.0
SVBM 230003Z AUTO NIL,SVBM,2022-10-23T00:03:00Z,10.05,-69.37,,,,,,,,,,TRUE,,,,,,,,,,,,,,,,,,,,,,,,,,,,METAR,624.0
SVBI 230003Z AUTO 02003KT NCD 29/23 Q1011,SVBI,2022-10-23T00:03:00Z,8.62,-70.22,29.0,23.0,20,3,,,29.852362,,,TRUE,,,,,,,,CLR,,,,,,,,,,,,,,,,,,,,METAR,185.0
SVBC 230003Z AUTO 04004KT NCD 30/23 Q1009,SVBC,2022-10-23T00:03:00Z,10.12,-64.68,30.0,23.0,40,4,,,29.793306,,,TRUE,,,,,,,,CLR,,,,,,,,,,,,,,,,,,,,METAR,7.0
CYYN 230003Z AUTO 06014KT 9SM -RA BKN038 06/M01 A2960 RMK SLP041 DENSITY ALT 2700FT,CYYN,2022-10-23T00:03:00Z,50.28,-107.68,6.0,-1.0,60,14,,9.0,29.601377,1004.1,,TRUE,,,,,,,-RA,BKN,3800,,,,,,,VFR,,,,,,,,,,,,SPECI,814.0
CYPE 230003Z 01010KT 2 1/2SM -RASN SCT006 OVC030 01/00 A2983 RMK SN3ST1SC4 SLP132,CYPE,2022-10-23T00:03:00Z,56.22,-117.45,1.0,0.0,10,10,,2.5,29.828741,1013.2,,,,,,,,,-RA -SN,SCT,600,OVC,3000,,,,,IFR,,,,,,,,,,,,SPECI,572.0
PAHX 230002Z AUTO 01003KT 10SM OVC008 03/03 A2992 RMK AO2 SLP134 T00280028 10028 20011 53000,PAHX,2022-10-23T00:02:00Z,62.7,-159.57,2.8,2.8,10,3,,10.0,29.920275,1013.4,,TRUE,TRUE,,,,,,,OVC,800,,,,,,,IFR,0.0,2.8,1.1,,,,,,,,,SPECI,20.0
KTHM 230002Z AUTO 00000KT 10SM 06/04 A2968 RMK Thompson Falls ,KTHM,2022-10-23T00:02:00Z,47.57,-115.28,6.0,4.0,0,0,,10.0,29.681103,,,TRUE,,,,,,,,,,,,,,,,,,,,,,,,,,,,METAR,751.0
CYUA 230002Z AUTO 09006KT ////SM FEW006 OVC040 M09/M10 A3004,CYUA,2022-10-23T00:02:00Z,68.92,-137.23,-9.0,-10.0,90,6,,,30.041338,,,TRUE,,,,,,,,FEW,600,OVC,4000,,,,,,,,,,,,,,,,,SPECI,25.0
CYPH 230002Z AUTO 28022G28KT 9SM FEW026 OVC034 02/M03 A2957 RMK SLP019,CYPH,2022-10-23T00:02:00Z,58.47,-78.08,2.0,-3.0,280,22,28,9.0,29.568897,1001.9,,TRUE,,,,,,,,FEW,2600,OVC,3400,,,,,VFR,,,,,,,,,,,,SPECI,24.0
PHHI 230001Z AUTO 10011G15KT 10SM FEW034 28/18 A3002 RMK AO2 WSHFT 2359 SLP154 $,PHHI,2022-10-23T00:01:00Z,21.48,-158.05,28.0,18.0,100,11,15,10.0,30.02067,1015.4,,TRUE,TRUE,TRUE,,,,,,FEW,3400,,,,,,,VFR,,,,,,,,,,,,METAR,246.0
KMOT 230001Z 04007KT 10SM BKN014 08/06 A2957 RMK AO2 T00830056,KMOT,2022-10-23T00:01:00Z,48.25,-101.27,8.3,5.6,40,7,,10.0,29.568897,,,,TRUE,,,,,,,BKN,1400,,,,,,,MVFR,,,,,,,,,,,,SPECI,507.0
KEVW 230001Z AUTO 30011KT 1/2SM SN FG VV007 01/M01 A2960 RMK AO2 P0000 T00061011 $,KEVW,2022-10-23T00:01:00Z,41.27,-111.03,0.6,-1.1,300,11,,0.5,29.601377,,,TRUE,TRUE,TRUE,,,,,SN FG,OVX,0,,,,,,,LIFR,,,,,,0.005,,,,,700,SPECI,2178.0
ZYHB 230000Z 32004MPS 260V350 CAVOK 05/01 Q1020 NOSIG,ZYHB,2022-10-23T00:00:00Z,45.62,126.25,5.0,1.0,320,8,,6.21,30.11811,,,,,,TRUE,,,,,CAVOK,,,,,,,,VFR,,,,,,,,,,,,METAR,134.0
ZYCC 230000Z 29002MPS 240V330 9999 SCT026 04/00 Q1019 NOSIG,ZYCC,2022-10-23T00:00:00Z,43.98,125.68,4.0,0.0,290,4,,6.21,30.088583,,,,,,TRUE,,,,,SCT,2600,,,,,,,VFR,,,,,,,,,,,,METAR,211.0
ZWSH 230000Z AUTO 35004MPS 290V360 9000 // ///////// 09/M04 Q1025,ZWSH,2022-10-23T00:00:00Z,39.55,76.02,9.0,-4.0,350,8,,5.59,30.265747,,,TRUE,,,,,,,,,,,,,,,,,,,,,,,,,,,,METAR,1374.0
ZUUU 230000Z VRB01MPS 6000 NSC 20/16 Q1024 NOSIG,ZUUU,2022-10-23T00:00:00Z,30.58,103.95,20.0,16.0,0,2,,3.73,30.236221,,,,,,TRUE,,,,,CLR,,,,,,,,MVFR,,,,,,,,,,,,METAR,494.0
ZUTF 230000Z VRB01MPS 8000 NSC 19/15 Q1023 NOSIG,ZUTF,2022-10-23T00:00:00Z,30.3,104.43,19.0,15.0,0,2,,4.97,30.206694,,,,,,TRUE,,,,,CLR,,,,,,,,MVFR,,,,,,,,,,,,METAR,443.0
ZUGY 230000Z 02003MPS CAVOK 17/09 Q1026 NOSIG,ZUGY,2022-10-23T00:00:00Z,26.53,106.8,17.0,9.0,20,6,,6.21,30.295275,,,,,,TRUE,,,,,CAVOK,,,,,,,,VFR,,,,,,,,,,,,METAR,1130.0
ZUCK 230000Z 36002MPS 6000 NSC 20/14 Q1024 NOSIG,ZUCK,2022-10-23T00:00:00Z,29.72,106.63,20.0,14.0,360,4,,3.73,30.236221,,,,,,TRUE,,,,,CLR,,,,,,,,MVFR,,,,,,,,,,,,METAR,416.0
ZSQD 230000Z 30003MPS 8000 NSC 10/08 Q1027 NOSIG,ZSQD,2022-10-23T00:00:00Z,36.27,120.38,10.0,8.0,300,6,,4.97,30.324802,,,,,,TRUE,,,,,CLR,,,,,,,,MVFR,,,,,,,,,,,,METAR,8.0
ZSOF 230000Z VRB01MPS 4000 BR NSC 15/13 Q1025 NOSIG,ZSOF,2022-10-23T00:00:00Z,31.98,116.97,15.0,13.0,0,2,,2.49,30.265747,,,,,,TRUE,,,,BR,CLR,,,,,,,,IFR,,,,,,,,,,,,METAR,23.0
ZSNJ 230000Z 08003MPS 0100 R06/0250N R07/0350 FG VV001 14/14 Q1025 BECMG TL0120 0500 SCT003,ZSNJ,2022-10-23T00:00:00Z,31.75,118.87,14.0,14.0,80,6,,0.06,30.265747,,,,,,,,,,FG,OVX,0,,,,,,,LIFR,,,,,,,,,,,100,METAR,27.0
ZSNB 230000Z 35004MPS 320V020 9000 SCT016 20/16 Q1022 NOSIG,ZSNB,2022-10-23T00:00:00Z,29.83,121.47,20.0,16.0,350,8,,5.59,30.177166,,,,,,TRUE,,,,,SCT,1600,,,,,,,VFR,,,,,,,,,,,,METAR,5.0
ZSFZ 230000Z 04006MPS CAVOK 23/17 Q1019 NOSIG,ZSFZ,2022-10-23T00:00:00Z,25.93,119.67,23.0,17.0,40,12,,6.21,30.088583,,,,,,TRUE,,,,,CAVOK,,,,,,,,VFR,,,,,,,,,,,,METAR,14.0
ZSAM 230000Z 07005MPS CAVOK 24/18 Q1018 NOSIG,ZSAM,2022-10-23T00:00:00Z,24.53,118.13,24.0,18.0,70,10,,6.21,30.059055,,,,,,TRUE,,,,,CAVOK,,,,,,,,VFR,,,,,,,,,,,,METAR,13.0
ZPPP 230000Z VRB01MPS 9999 -SHRA SCT023 OVC040 15/14 Q1031 NOSIG,ZPPP,2022-10-23T00:00:00Z,25.0,102.65,15.0,14.0,0,2,,6.21,30.442913,,,,,,TRUE,,,,-SHRA,SCT,2300,OVC,4000,,,,,VFR,,,,,,,,,,,,METAR,1885.0
ZMUB 230000Z 00000MPS CAVOK M09/M12 Q1024 NOSIG RMK QFE660.1 79,ZMUB,2022-10-23T00:00:00Z,47.83,106.75,-9.0,-12.0,0,0,,6.21,30.236221,,,,,,TRUE,,,,,CAVOK,,,,,,,,VFR,,,,,,,,,,,,METAR,1300.0
ZLXY 230000Z 04002MPS 020V090 2500 BR NSC 11/10 Q1027 BECMG TL0050 3000,ZLXY,2022-10-23T00:00:00Z,34.43,108.75,11.0,10.0,40,4,,1.55,30.324802,,,,,,,,,,BR,CLR,,,,,,,,IFR,,,,,,,,,,,,METAR,478.0
ZLLL 230000Z 34002MPS CAVOK 04/M03 Q1030 NOSIG,ZLLL,2022-10-23T00:00:00Z,36.52,103.62,4.0,-3.0,340,4,,6.21,30.413385,,,,,,TRUE,,,,,CAVOK,,,,,,,,VFR,,,,,,,,,,,,METAR,1939.0
ZJSY 230000Z 00000MPS 9999 FEW043 22/20 Q1015 NOSIG,ZJSY,2022-10-23T00:00:00Z,18.3,109.42,22.0,20.0,0,0,,6.21,29.970472,,,,,,TRUE,,,,,FEW,4300,,,,,,,VFR,,,,,,,,,,,,METAR,27.0
ZJHK 230000Z VRB01MPS 3500 BR NSC 24/23 Q1015 NOSIG,ZJHK,2022-10-23T00:00:00Z,19.93,110.43,24.0,23.0,0,2,,2.17,29.970472,,,,,,TRUE,,,,BR,CLR,,,,,,,,IFR,,,,,,,,,,,,METAR,21.0
ZHHH 230000Z 06002MPS 7000 NSC 19/10 Q1024 NOSIG,ZHHH,2022-10-23T00:00:00Z,30.78,114.22,19.0,10.0,60,4,,4.35,30.236221,,,,,,TRUE,,,,,CLR,,,,,,,,MVFR,,,,,,,,,,,,METAR,33.0
ZHCC 230000Z 31002MPS 4000 HZ NSC 15/09 Q1027 NOSIG,ZHCC,2022-10-23T00:00:00Z,34.52,113.83,15.0,9.0,310,4,,2.49,30.324802,,,,,,TRUE,,,,HZ,CLR,,,,,,,,IFR,,,,,,,,,,,,METAR,149.0
ZGSZ 230000Z 03005MPS CAVOK 28/16 Q1016 NOSIG,ZGSZ,2022-10-23T00:00:00Z,22.63,113.8,28.0,16.0,30,10,,6.21,30.0,,,,,,TRUE,,,,,CAVOK,,,,,,,,VFR,,,,,,,,,,,,METAR,18.0
ZGOW 230000Z 05002MPS 5000 BR FEW050 24/23 Q1016 NOSIG,ZGOW,2022-10-23T00:00:00Z,23.55,116.5,24.0,23.0,50,4,,3.11,30.0,,,,,,TRUE,,,,BR,FEW,5000,,,,,,,MVFR,,,,,,,,,,,,METAR,4.0
ZGNN 230000Z VRB01MPS 7000 NSC 21/20 Q1018 NOSIG,ZGNN,2022-10-23T00:00:00Z,22.62,108.17,21.0,20.0,0,2,,4.35,30.059055,,,,,,TRUE,,,,,CLR,,,,,,,,MVFR,,,,,,,,,,,,METAR,128.0
ZGKL 230000Z 00000MPS CAVOK 22/14 Q1021 BECMG FM0130 05005MPS,ZGKL,2022-10-23T00:00:00Z,25.22,110.03,22.0,14.0,0,0,,6.21,30.147638,,,,,,,,,,,CAVOK,,,,,,,,VFR,,,,,,,,,,,,METAR,151.0
ZGHA 230000Z 33003MPS CAVOK 20/11 Q1022 NOSIG,ZGHA,2022-10-23T00:00:00Z,28.18,113.22,20.0,11.0,330,6,,6.21,30.177166,,,,,,TRUE,,,,,CAVOK,,,,,,,,VFR,,,,,,,,,,,,METAR,61.0
ZBSJ 230000Z 30003MPS CAVOK 12/04 Q1026 NOSIG,ZBSJ,2022-10-23T00:00:00Z,38.28,114.7,12.0,4.0,300,6,,6.21,30.295275,,,,,,TRUE,,,,,CAVOK,,,,,,,,VFR,,,,,,,,,,,,METAR,70.0
ZBHH 230000Z 12001MPS CAVOK 01/M09 Q1030 NOSIG,ZBHH,2022-10-23T00:00:00Z,40.85,111.82,1.0,-9.0,120,2,,6.21,30.413385,,,,,,TRUE,,,,,CAVOK,,,,,,,,VFR,,,,,,,,,,,,METAR,1081.0
WSSL 230000Z 03005KT 9999 FEW018 BKN150 25/23 Q1012,WSSL,2022-10-23T00:00:00Z,1.42,103.87,25.0,23.0,30,5,,6.21,29.88189,,,,,,,,,,,FEW,1800,BKN,15000,,,,,VFR,,,,,,,,,,,,METAR,11.0
WSAP 230000Z 34004KT 9999 -RA FEW016 BKN150 25/22 Q1012,WSAP,2022-10-23T00:00:00Z,1.37,103.92,25.0,22.0,340,4,,6.21,29.88189,,,,,,,,,,-RA,FEW,1600,BKN,15000,,,,,VFR,,,,,,,,,,,,METAR,20.0
WMSA 230000Z 31004KT 280V010 9999 FEW017CB 26/24 Q1012,WMSA,2022-10-23T00:00:00Z,3.13,101.55,26.0,24.0,310,4,,6.21,29.88189,,,,,,,,,,,FEW,1700,,,,,,,VFR,,,,,,,,,,,,METAR,19.0
WMKN 230000Z VRB02KT 9999 FEW020 25/24 Q1012,WMKN,2022-10-23T00:00:00Z,5.37,103.1,25.0,24.0,0,2,,6.21,29.88189,,,,,,,,,,,FEW,2000,,,,,,,VFR,,,,,,,,,,,,METAR,12.0
WMKM 230000Z 00000KT 9999 FEW012 24/23 Q1013,WMKM,2022-10-23T00:00:00Z,2.27,102.25,24.0,23.0,0,0,,6.21,29.911417,,,,,,,,,,,FEW,1200,,,,,,,VFR,,,,,,,,,,,,METAR,9.0
WMKL 230000Z VRB02KT 9999 FEW020 28/25 Q1011,WMKL,2022-10-23T00:00:00Z,6.32,99.72,28.0,25.0,0,2,,6.21,29.852362,,,,,,,,,,,FEW,2000,,,,,,,VFR,,,,,,,,,,,,METAR,4.0
WMKJ 230000Z VRB02KT 9999 FEW019 24/23 Q1011,WMKJ,2022-10-23T00:00:00Z,1.63,103.67,24.0,23.0,0,2,,6.21,29.852362,,,,,,,,,,,FEW,1900,,,,,,,VFR,,,,,,,,,,,,METAR,38.0
WMKI 230000Z 03005KT 350V060 9999 SCT025 25/23 Q1011,WMKI,2022-10-23T00:00:00Z,4.57,101.08,25.0,23.0,30,5,,6.21,29.852362,,,,,,,,,,,SCT,2500,,,,,,,VFR,,,,,,,,,,,,METAR,37.0
WMKE 230000Z 00000KT 9999 FEW009 SCT020 25/24 Q1011,WMKE,2022-10-23T00:00:00Z,4.53,103.43,25.0,24.0,0,0,,6.21,29.852362,,,,,,,,,,,FEW,900,SCT,2000,,,,,VFR,,,,,,,,,,,,METAR,5.0
WMKD 230000Z VRB01KT 6000 -RA FEW000 SCT024 25/23 Q1012 NOSIG,WMKD,2022-10-23T00:00:00Z,3.77,103.22,25.0,23.0,0,1,,3.73,29.88189,,,,,,TRUE,,,,-RA,FEW,0,SCT,2400,,,,,MVFR,,,,,,,,,,,,METAR,18.0
WMKC 230000Z 00000KT 9000 SCT020 24/23 Q1012,WMKC,2022-10-23T00:00:00Z,6.17,102.28,24.0,23.0,0,0,,5.59,29.88189,,,,,,,,,,,SCT,2000,,,,,,,VFR,,,,,,,,,,,,METAR,7.0
WMKB 230000Z 06006KT 7000 -RA FEW010 25/25 Q1011 NOSIG,WMKB,2022-10-23T00:00:00Z,5.47,100.38,25.0,25.0,60,6,,4.35,29.852362,,,,,,TRUE,,,,-RA,FEW,1000,,,,,,,MVFR,,,,,,,,,,,,METAR,4.0
WMKA 230000Z VRB04KT 9999 FEW020 26/24 Q1011,WMKA,2022-10-23T00:00:00Z,6.2,100.4,26.0,24.0,0,4,,6.21,29.852362,,,,,,,,,,,FEW,2000,,,,,,,VFR,,,,,,,,,,,,METAR,5.0
WMBA 230000Z VRB02KT 9000 SCT030 25/24 Q1011,WMBA,2022-10-23T00:00:00Z,4.22,100.7,25.0,24.0,0,2,,5.59,29.852362,,,,,,,,,,,SCT,3000,,,,,,,VFR,,,,,,,,,,,,METAR,9.0
WMAU 230000Z 32007KT 290V040 8000 -RA SCT025 25/24 Q1012,WMAU,2022-10-23T00:00:00Z,2.38,103.88,25.0,24.0,320,7,,4.97,29.88189,,,,,,,,,,-RA,SCT,2500,,,,,,,MVFR,,,,,,,,,,,,METAR,5.0
WBKW 230000Z VRB01KT 9999 FEW016 26/24 Q1011,WBKW,2022-10-23T00:00:00Z,4.32,118.12,26.0,24.0,0,1,,6.21,29.852362,,,,,,,,,,,FEW,1600,,,,,,,VFR,,,,,,,,,,,,METAR,17.0
WBKT 230000Z 24005KT 150V280 9999 FEW014 FEW015CB 27/26 Q1012,WBKT,2022-10-23T00:00:00Z,6.92,116.83,27.0,26.0,240,5,,6.21,29.88189,,,,,,,,,,,FEW,1400,FEW,1500,,,,,VFR,,,,,,,,,,,,METAR,11.0
WBKS 230000Z VRB03KT 9999 FEW016 FEW017CB 27/24 Q1011,WBKS,2022-10-23T00:00:00Z,5.9,118.07,27.0,24.0,0,3,,6.21,29.852362,,,,,,,,,,,FEW,1600,FEW,1700,,,,,VFR,,,,,,,,,,,,METAR,13.0
WBKL 230000Z 00000KT 9999 FEW013 26/25 Q1012,WBKL,2022-10-23T00:00:00Z,5.3,115.25,26.0,25.0,0,0,,6.21,29.88189,,,,,,,,,,,FEW,1300,,,,,,,VFR,,,,,,,,,,,,METAR,29.0
WBGY 230000Z 00000KT 6000 FEW001 26/25 Q1012,WBGY,2022-10-23T00:00:00Z,1.22,111.45,26.0,25.0,0,0,,3.73,29.88189,,,,,,,,,,,FEW,100,,,,,,,MVFR,,,,,,,,,,,,METAR,13.0
WBGS 230000Z VRB02KT 6000 SCT002 SCT018 25/24 Q1012,WBGS,2022-10-23T00:00:00Z,2.27,111.98,25.0,24.0,0,2,,3.73,29.88189,,,,,,,,,,,SCT,200,SCT,1800,,,,,MVFR,,,,,,,,,,,,METAR,26.0
WBGR 230000Z 16004KT 130V210 9999 SCT014 26/25 Q1012,WBGR,2022-10-23T00:00:00Z,4.32,113.98,26.0,25.0,160,4,,6.21,29.88189,,,,,,,,,,,SCT,1400,,,,,,,VFR,,,,,,,,,,,,METAR,18.0
WBGB 230000Z VRB03KT 9999 FEW015CB 27/25 Q1012,WBGB,2022-10-23T00:00:00Z,3.12,113.02,27.0,25.0,0,3,,6.21,29.88189,,,,,,,,,,,FEW,1500,,,,,,,VFR,,,,,,,,,,,,METAR,34.0
WAQQ 230000Z 29004KT 9999 FEW012 28/25 Q1011 NOSIG,WAQQ,2022-10-23T00:00:00Z,3.33,117.57,28.0,25.0,290,4,,6.21,29.852362,,,,,,TRUE,,,,,FEW,1200,,,,,,,VFR,,,,,,,,,,,,METAR,6.0
VYNT 230000Z 26003KT 6000 SCT018 SCT110 24/23 Q1012 NOSIG,VYNT,2022-10-23T00:00:00Z,19.62,96.2,24.0,23.0,260,3,,3.73,29.88189,,,,,,TRUE,,,,,SCT,1800,SCT,11000,,,,,MVFR,,,,,,,,,,,,METAR,610.0
VTUW 230000Z VRB01KT 9999 FEW030 BKN100 25/19 Q1015 NOSIG,VTUW,2022-10-23T00:00:00Z,17.38,104.63,25.0,19.0,0,1,,6.21,29.970472,,,,,,TRUE,,,,,FEW,3000,BKN,10000,,,,,VFR,,,,,,,,,,,,METAR,167.0
VTUV 230000Z 03007KT 8000 FEW035 BKN070 24/19 Q1015 NOSIG,VTUV,2022-10-23T00:00:00Z,16.12,103.78,24.0,19.0,30,7,,4.97,29.970472,,,,,,TRUE,,,,,FEW,3500,BKN,7000,,,,,MVFR,,,,,,,,,,,,METAR,136.0
VTUU 230000Z 02004KT 9999 FEW020 BKN070 24/23 Q1014 NOSIG,VTUU,2022-10-23T00:00:00Z,15.25,104.87,24.0,23.0,20,4,,6.21,29.940945,,,,,,TRUE,,,,,FEW,2000,BKN,7000,,,,,VFR,,,,,,,,,,,,METAR,119.0
VTUQ 230000Z 00000KT 6000 BKN040 23/23 Q1015 NOSIG,VTUQ,2022-10-23T00:00:00Z,14.95,102.32,23.0,23.0,0,0,,3.73,29.970472,,,,,,TRUE,,,,,BKN,4000,,,,,,,MVFR,,,,,,,,,,,,METAR,225.0
VTUO 230000Z 03005KT 8000 NSC 24/23 Q1015 NOSIG,VTUO,2022-10-23T00:00:00Z,15.23,103.25,24.0,23.0,30,5,,4.97,29.970472,,,,,,TRUE,,,,,CLR,,,,,,,,MVFR,,,,,,,,,,,,METAR,182.0
VTUL 230000Z 24002KT 9999 OVC030 23/23 Q1016 NOSIG,VTUL,2022-10-23T00:00:00Z,17.43,101.72,23.0,23.0,240,2,,6.21,30.0,,,,,,TRUE,,,,,OVC,3000,,,,,,,MVFR,,,,,,,,,,,,METAR,257.0
VTUK 230000Z 36006KT 9000 FEW030 BKN080 24/20 Q1016 NOSIG,VTUK,2022-10-23T00:00:00Z,16.47,102.78,24.0,20.0,360,6,,5.59,30.0,,,,,,TRUE,,,,,FEW,3000,BKN,8000,,,,,VFR,,,,,,,,,,,,METAR,190.0
VTUI 230000Z VRB02KT 7000 NSC 25/22 Q1015 NOSIG,VTUI,2022-10-23T00:00:00Z,17.2,104.12,25.0,22.0,0,2,,4.35,29.970472,,,,,,TRUE,,,,,CLR,,,,,,,,MVFR,,,,,,,,,,,,METAR,162.0
VTUD 230000Z 00000KT 8000 FEW035 BKN060 24/21 Q1016 NOSIG,VTUD,2022-10-23T00:00:00Z,17.37,102.78,24.0,21.0,0,0,,4.97,30.0,,,,,,TRUE,,,,,FEW,3500,BKN,6000,,,,,MVFR,,,,,,,,,,,,METAR,177.0
VTST 230000Z 35003KT 320V040 9999 -RA FEW030 SCT100 24/24 Q1011 NOSIG,VTST,2022-10-23T00:00:00Z,7.52,99.62,24.0,24.0,350,3,,6.21,29.852362,,,,,,TRUE,,,,-RA,FEW,3000,SCT,10000,,,,,VFR,,,,,,,,,,,,METAR,17.0
VTSR 230000Z 00000KT 9999 BKN030 24/24 Q1011 NOSIG,VTSR,2022-10-23T00:00:00Z,9.78,98.58,24.0,24.0,0,0,,6.21,29.852362,,,,,,TRUE,,,,,BKN,3000,,,,,,,MVFR,,,,,,,,,,,,METAR,23.0
VTSM 230000Z 00000KT 9999 FEW020 BKN100 25/25 Q1012 NOSIG,VTSM,2022-10-23T00:00:00Z,9.55,100.07,25.0,25.0,0,0,,6.21,29.88189,,,,,,TRUE,,,,,FEW,2000,BKN,10000,,,,,VFR,,,,,,,,,,,,METAR,12.0
VTSG 230000Z 05003KT 360V090 6000 FEW020 BKN100 24/23 Q1012 NOSIG,VTSG,2022-10-23T00:00:00Z,8.1,98.98,24.0,23.0,50,3,,3.73,29.88189,,,,,,TRUE,,,,,FEW,2000,BKN,10000,,,,,MVFR,,,,,,,,,,,,METAR,32.0
VTSF 230000Z 20003KT 9999 SCT018 SCT020 26/26 Q1012 NOSIG,VTSF,2022-10-23T00:00:00Z,8.53,99.95,26.0,26.0,200,3,,6.21,29.88189,,,,,,TRUE,,,,,SCT,1800,SCT,2000,,,,,VFR,,,,,,,,,,,,METAR,6.0
VTSE 230000Z VRB02KT 9000 FEW020 25/25 Q1011 NOSIG,VTSE,2022-10-23T00:00:00Z,10.72,99.37,25.0,25.0,0,2,,5.59,29.852362,,,,,,TRUE,,,,,FEW,2000,,,,,,,VFR,,,,,,,,,,,,METAR,8.0
VTSC 230000Z 27005KT 4000 TSRA FEW010 FEW018CB SCT030 BKN100 23/23 Q1013 RERA BECMG TL0020 7000 NSW,VTSC,2022-10-23T00:00:00Z,6.52,101.75,23.0,23.0,270,5,,2.49,29.911417,,,,,,,,,,TSRA,FEW,1000,FEW,1800,SCT,3000,BKN,10000,IFR,,,,,,,,,,,,METAR,5.0
VTSB 230000Z 00000KT 9999 FEW002 24/24 Q1012 NOSIG,VTSB,2022-10-23T00:00:00Z,9.12,99.15,24.0,24.0,0,0,,6.21,29.88189,,,,,,TRUE,,,,,FEW,200,,,,,,,VFR,,,,,,,,,,,,METAR,10.0
VTPP 230000Z VRB02KT CAVOK 25/22 Q1014 NOSIG,VTPP,2022-10-23T00:00:00Z,16.78,100.28,25.0,22.0,0,2,,6.21,29.940945,,,,,,TRUE,,,,,CAVOK,,,,,,,,VFR,,,,,,,,,,,,METAR,45.0
VTPO 230000Z VRB02KT 8000 FEW025 25/24 Q1014 NOSIG,VTPO,2022-10-23T00:00:00Z,17.23,99.82,25.0,24.0,0,2,,4.97,29.940945,,,,,,TRUE,,,,,FEW,2500,,,,,,,MVFR,,,,,,,,,,,,METAR,58.0
VTPM 230000Z 04006KT 9999 FEW046 BKN065 24/23 Q1013 NOSIG,VTPM,2022-10-23T00:00:00Z,16.7,98.53,24.0,23.0,40,6,,6.21,29.911417,,,,,,TRUE,,,,,FEW,4600,BKN,6500,,,,,VFR,,,,,,,,,,,,METAR,211.0
VTPH 230000Z 35004KT 300V030 9000 FEW030 25/24 Q1012 NOSIG,VTPH,2022-10-23T00:00:00Z,12.63,99.95,25.0,24.0,350,4,,5.59,29.88189,,,,,,TRUE,,,,,FEW,3000,,,,,,,VFR,,,,,,,,,,,,METAR,12.0
VTPB 230000Z VRB02KT 9999 FEW030 24/23 Q1015 NOSIG,VTPB,2022-10-23T00:00:00Z,16.67,101.2,24.0,23.0,0,2,,6.21,29.970472,,,,,,TRUE,,,,,FEW,3000,,,,,,,VFR,,,,,,,,,,,,METAR,134.0
VTCT 230000Z 00000KT 9999 FEW010 BKN100 23/23 Q1017 NOSIG,VTCT,2022-10-23T00:00:00Z,19.95,99.88,23.0,23.0,0,0,,6.21,30.029528,,,,,,TRUE,,,,,FEW,1000,BKN,10000,,,,,VFR,,,,,,,,,,,,METAR,389.0
VTCP 230000Z VRB02KT 9999 FEW008 BKN080 24/23 Q1015 NOSIG,VTCP,2022-10-23T00:00:00Z,18.13,100.17,24.0,23.0,0,2,,6.21,29.970472,,,,,,TRUE,,,,,FEW,800,BKN,8000,,,,,VFR,,,,,,,,,,,,METAR,166.0
VTCN 230000Z 00000KT 7000 FEW005 SCT012 23/23 Q1016 NOSIG,VTCN,2022-10-23T00:00:00Z,18.82,100.78,23.0,23.0,0,0,,4.35,30.0,,,,,,TRUE,,,,,FEW,500,SCT,1200,,,,,MVFR,,,,,,,,,,,,METAR,211.0
VTCL 230000Z VRB02KT 9999 FEW010 BKN025 23/22 Q1016 NOSIG,VTCL,2022-10-23T00:00:00Z,18.27,99.52,23.0,22.0,0,2,,6.21,30.0,,,,,,TRUE,,,,,FEW,1000,BKN,2500,,,,,MVFR,,,,,,,,,,,,METAR,240.0
VTCH 230000Z 00000KT 2000 BR FEW010 BKN025 23/22 Q1015 BECMG 4000 BR,VTCH,2022-10-23T00:00:00Z,19.3,97.98,23.0,22.0,0,0,,1.24,29.970472,,,,,,,,,,BR,FEW,1000,BKN,2500,,,,,IFR,,,,,,,,,,,,METAR,266.0
"VRMM 230000Z 22012KT 9999 SCT016 FEW017CB OVC100 26/24 Q1011 CB WSW,W TEMPO 5000 SHRA",VRMM,2022-10-23T00:00:00Z,4.2,73.52,26.0,24.0,220,12,,6.21,29.852362,,,,,,,,,,,SCT,1600,FEW,1700,OVC,10000,,,VFR,,,,,,,,,,,,METAR,2.0
VRMH 230000Z 25005KT 9999 FEW018TCU SCT270 27/25 Q1011,VRMH,2022-10-23T00:00:00Z,6.75,73.17,27.0,25.0,250,5,,6.21,29.852362,,,,,,,,,,,FEW,1800,SCT,27000,,,,,VFR,,,,,,,,,,,,METAR,1.0
VRMG 230000Z 22004KT 9999 FEW018 SCT270 25/24 Q1012 NOSIG,VRMG,2022-10-23T00:00:00Z,-0.7,73.15,25.0,24.0,220,4,,6.21,29.88189,,,,,,TRUE,,,,,FEW,1800,SCT,27000,,,,,VFR,,,,,,,,,,,,METAR,3.0
VOMD 230000Z 00000KT 3500 BR FEW020 SCT100 26/25 Q1011 NOSIG,VOMD,2022-10-23T00:00:00Z,9.83,78.08,26.0,25.0,0,0,,2.17,29.852362,,,,,,TRUE,,,,BR,FEW,2000,SCT,10000,,,,,IFR,,,,,,,,,,,,METAR,135.0
VOGO 230000Z 05005KT 6000 FEW015 SCT020 BKN090 26/22 Q1011 NOSIG,VOGO,2022-10-23T00:00:00Z,15.38,73.83,26.0,22.0,50,5,,3.73,29.852362,,,,,,TRUE,,,,,FEW,1500,SCT,2000,BKN,9000,,,MVFR,,,,,,,,,,,,METAR,56.0
VODX 230000Z 12015G25KT 1000 +SHRA SCT008 SCT016 FEW022CB OH SE OVC070 26/25 Q1007 TEMPO 0800,VODX,2022-10-23T00:00:00Z,,,26.0,25.0,120,15,25,0.62,29.734253,,,,,,,,,,+SHRA,SCT,800,SCT,1600,FEW,2200,OVC,7000,LIFR,,,,,,,,,,,,METAR,
VOBX 230000Z VRB02KT 6000 CLOUDY SCT014 OVC090 26/25 Q1010 NOSIG,VOBX,2022-10-23T00:00:00Z,,,26.0,25.0,0,2,,3.73,29.822834,,,,,,TRUE,,,,,SCT,1400,OVC,9000,,,,,MVFR,,,,,,,,,,,,METAR,
VOBM 230000Z 00000KT 6000 SCT015 17/15 Q1017,VOBM,2022-10-23T00:00:00Z,15.85,74.62,17.0,15.0,0,0,,3.73,30.029528,,,,,,,,,,,SCT,1500,,,,,,,MVFR,,,,,,,,,,,,METAR,758.0
VLSK 230000Z 27004KT 4000 BR SCT018 SCT040 BKN100 22/20 Q1015 NOSIG,VLSK,2022-10-23T00:00:00Z,16.55,104.75,22.0,20.0,270,4,,2.49,29.970472,,,,,,TRUE,,,,BR,SCT,1800,SCT,4000,BKN,10000,,,IFR,,,,,,,,,,,,METAR,148.0
VLPS 230000Z 36006KT 9999 FEW023 SCT200 24/21 Q1014 NOSIG,VLPS,2022-10-23T00:00:00Z,15.13,105.78,24.0,21.0,360,6,,6.21,29.940945,,,,,,TRUE,,,,,FEW,2300,SCT,20000,,,,,VFR,,,,,,,,,,,,METAR,102.0
VLLN 230000Z 18002KT 1000 BR OVC010 20/20 Q1018 NOSIG,VLLN,2022-10-23T00:00:00Z,20.97,101.4,20.0,20.0,180,2,,0.62,30.059055,,,,,,TRUE,,,,BR,OVC,1000,,,,,,,LIFR,,,,,,,,,,,,METAR,548.0
VLLB 230000Z 00000KT 9999 SCT0017 BKN080 22/20 Q1016 NOSIG,VLLB,2022-10-23T00:00:00Z,19.9,102.17,22.0,20.0,0,0,,6.21,30.0,,,,,,TRUE,,,,,BKN,8000,,,,,,,VFR,,,,,,,,,,,,METAR,297.0
VELR 230000Z 00000KT 8000 BKN090 20/20 Q1014,VELR,2022-10-23T00:00:00Z,27.3,94.1,20.0,20.0,0,0,,4.97,29.940945,,,,,,,,,,,BKN,9000,,,,,,,MVFR,,,,,,,,,,,,METAR,101.0
VEJS 230000Z 32006KT 2500 HZ NSC 23/19 Q1013,VEJS,2022-10-23T00:00:00Z,22.82,86.17,23.0,19.0,320,6,,1.55,29.911417,,,,,,,,,,HZ,CLR,,,,,,,,IFR,,,,,,,,,,,,METAR,151.0
VEIM 230000Z 00000KT 3000 BR FEW008 SCT018 BKN100 18/17 Q1020 NOSIG,VEIM,2022-10-23T00:00:00Z,24.77,93.9,18.0,17.0,0,0,,1.86,30.11811,,,,,,TRUE,,,,BR,FEW,800,SCT,1800,BKN,10000,,,IFR,,,,,,,,,,,,METAR,777.0
VEGY 230000Z 00000KT 1300 BR NSC 19/17 Q1014,VEGY,2022-10-23T00:00:00Z,24.75,84.95,19.0,17.0,0,0,,0.81,29.940945,,,,,,,,,,BR,CLR,,,,,,,,LIFR,,,,,,,,,,,,METAR,115.0
VEAT 230000Z 00000KT 2500 BR FEW020 BKN100 25/24 Q1010 NOSIG,VEAT,2022-10-23T00:00:00Z,23.88,91.25,25.0,24.0,0,0,,1.55,29.822834,,,,,,TRUE,,,,BR,FEW,2000,BKN,10000,,,,,IFR,,,,,,,,,,,,METAR,20.0
VAUD 230000Z 05003KT 4000 HZ NSC 15/12 Q1018 NOSIG,VAUD,2022-10-23T00:00:00Z,24.62,73.9,15.0,12.0,50,3,,2.49,30.059055,,,,,,TRUE,,,,HZ,CLR,,,,,,,,IFR,,,,,,,,,,,,METAR,506.0
VARK 230000Z 14006KT 6000 NSC 24/13 Q1015 NOSIG,VARK,2022-10-23T00:00:00Z,22.3,70.77,24.0,13.0,140,6,,3.73,29.970472,,,,,,TRUE,,,,,CLR,,,,,,,,MVFR,,,,,,,,,,,,METAR,125.0
VABP 230000Z 32002KT 6000 NSC 17/09 Q1017 NOSIG,VABP,2022-10-23T00:00:00Z,23.28,77.33,17.0,9.0,320,2,,3.73,30.029528,,,,,,TRUE,,,,,CLR,,,,,,,,MVFR,,,,,,,,,,,,METAR,520.0
VAAU 230000Z 00000KT 3000 HZ SCT020 16/14 Q1016 NOSIG,VAAU,2022-10-23T00:00:00Z,19.85,75.4,16.0,14.0,0,0,,1.86,30.0,,,,,,TRUE,,,,HZ,SCT,2000,,,,,,,IFR,,,,,,,,,,,,METAR,578.0
UWOR 230000Z 24004MPS CAVOK M06/M07 Q1026 R25/290155 NOSIG RMK QFE746/0994,UWOR,2022-10-23T00:00:00Z,51.07,58.6,-6.0,-7.0,240,8,,6.21,30.295275,,,,,,TRUE,,,,,CAVOK,,,,,,,,VFR,,,,,,,,,,,,METAR,270.0
UWLW 230000Z VRB01MPS CAVOK 01/M01 Q1023 R20/CLRD60 NOSIG RMK QFE762/1016,UWLW,2022-10-23T00:00:00Z,54.4,48.8,1.0,-1.0,0,2,,6.21,30.206694,,,,,,TRUE,,,,,CAVOK,,,,,,,,VFR,,,,,,,,,,,,METAR,67.0
UTAV 230000Z 01008KT 6000 -SHRA SCT033CB SCT100 10/08 Q1028 R31/CLRD70 NOSIG,UTAV,2022-10-23T00:00:00Z,39.08,63.62,10.0,8.0,10,8,,3.73,30.35433,,,,,,TRUE,,,,-SHRA,SCT,3300,SCT,10000,,,,,MVFR,,,,,,,,,,,,METAR,187.0
UTAT 230000Z 29002KT CAVOK 05/01 Q1030 R26/CLRD70 NOSIG,UTAT,2022-10-23T00:00:00Z,41.77,59.83,5.0,1.0,290,2,,6.21,30.413385,,,,,,TRUE,,,,,CAVOK,,,,,,,,VFR,,,,,,,,,,,,METAR,84.0
UTAM 230000Z 36008KT 6000 SCT100 SCT230 13/06 Q1029 R88/CLRD70 NOSIG,UTAM,2022-10-23T00:00:00Z,37.62,61.9,13.0,6.0,360,8,,3.73,30.383858,,,,,,TRUE,,,,,SCT,10000,SCT,23000,,,,,MVFR,,,,,,,,,,,,METAR,218.0
UTAK 230000Z 08008KT CAVOK 11/06 Q1028 R16R/CLRD70 NOSIG,UTAK,2022-10-23T00:00:00Z,40.05,53.0,11.0,6.0,80,8,,6.21,30.35433,,,,,,TRUE,,,,,CAVOK,,,,,,,,VFR,,,,,,,,,,,,METAR,83.0
UTAA 230000Z 10006KT 9999 FEW006CB OVC033 11/10 Q1029 R88/190060 NOSIG,UTAA,2022-10-23T00:00:00Z,37.98,58.37,11.0,10.0,100,6,,6.21,30.383858,,,,,,TRUE,,,,,FEW,600,OVC,3300,,,,,VFR,,,,,,,,,,,,METAR,207.0
URMN 230000Z 21003MPS 9999 NSC 05/02 Q1025 R24/////// NOSIG RMK QFE732,URMN,2022-10-23T00:00:00Z,43.52,43.63,5.0,2.0,210,6,,6.21,30.265747,,,,,,TRUE,,,,,CLR,,,,,,,,VFR,,,,,,,,,,,,METAR,424.0
UMII 230000Z 16001MPS 4400 BR BKN004 OVC013 04/03 Q1011 TEMPO 2000 BKN003,UMII,2022-10-23T00:00:00Z,55.13,30.35,4.0,3.0,160,2,,2.73,29.852362,,,,,,,,,,BR,BKN,400,OVC,1300,,,,,LIFR,,,,,,,,,,,,METAR,208.0
UMGG 230000Z 14003MPS 6000 -SHRA OVC043CB 07/07 Q1013 NOSIG,UMGG,2022-10-23T00:00:00Z,52.53,31.02,7.0,7.0,140,6,,3.73,29.911417,,,,,,TRUE,,,,-SHRA,OVC,4300,,,,,,,MVFR,,,,,,,,,,,,METAR,135.0
ULPB 230000Z AUTO 19006MPS 9999 // 05/02 Q1006 RMK QFE750/1001,ULPB,2022-10-23T00:00:00Z,61.88,34.15,5.0,2.0,190,12,,6.21,29.704725,,,TRUE,,,,,,,,,,,,,,,,,,,,,,,,,,,,METAR,41.0
ULOO 230000Z 12001MPS 9000 2100E BR NSC M01/M01 Q1010 NOSIG RMK QFE753,ULOO,2022-10-23T00:00:00Z,57.78,28.4,-1.0,-1.0,120,2,,5.59,29.822834,,,,,,TRUE,,,,BR,CLR,,,,,,,,VFR,,,,,,,,,,,,METAR,46.0
UHMA 230000Z 27004MPS 9999 SCT011 BKN036 M04/M06 Q1005 R01/////// NOSIG RMK TDZ R01/27004G05MPS END R01/27004G06MPS MT OBSC QFE750/1000,UHMA,2022-10-23T00:00:00Z,64.73,177.73,-4.0,-6.0,270,8,,6.21,29.675198,,,,,,TRUE,,,,,SCT,1100,BKN,3600,,,,,VFR,,,,,,,,,,,,METAR,53.0
UERR 230000Z 18002MPS 9999 OVC021 M04/M05 Q1011 R25/910050 NOSIG RMK QFE727/0970,UERR,2022-10-23T00:00:00Z,62.53,114.05,-4.0,-5.0,180,4,,6.21,29.852362,,,,,,TRUE,,,,,OVC,2100,,,,,,,MVFR,,,,,,,,,,,,METAR,352.0
UERP 230000Z 16006G12MPS 9999 FEW040 BKN100 M05/M08 Q1001 RMK QFE707,UERP,2022-10-23T00:00:00Z,66.4,112.03,-5.0,-8.0,160,12,23,6.21,29.557087,,,,,,,,,,,FEW,4000,BKN,10000,,,,,VFR,,,,,,,,,,,,METAR,514.0
UCFL 230000Z 35004MPS 9999 SCT030 05/02 Q1025 R07/CLRD95,UCFL,2022-10-23T00:00:00Z,42.58,76.7,5.0,2.0,350,8,,6.21,30.265747,,,,,,,,,,,SCT,3000,,,,,,,VFR,,,,,,,,,,,,METAR,1654.0
UBBY 230000Z 00000KT 9999 SCT100 08/07 Q1031 NOSIG RMK MT OP,UBBY,2022-10-23T00:00:00Z,41.57,46.67,8.0,7.0,0,0,,6.21,30.442913,,,,,,TRUE,,,,,SCT,10000,,,,,,,VFR,,,,,,,,,,,,METAR,383.0
UBBQ 230000Z 00000KT 9999 BKN025 OVC065 11/08 Q1028 NOSIG RMK MT OBSC,UBBQ,2022-10-23T00:00:00Z,40.82,47.72,11.0,8.0,0,0,,6.21,30.35433,,,,,,TRUE,,,,,BKN,2500,OVC,6500,,,,,MVFR,,,,,,,,,,,,METAR,339.0
UBBL 230000Z 32007KT 6000 -RA OVC030 13/13 Q1027 NOSIG RMK MT OBSC,UBBL,2022-10-23T00:00:00Z,38.75,48.82,13.0,13.0,320,7,,3.73,30.324802,,,,,,TRUE,,,,-RA,OVC,3000,,,,,,,MVFR,,,,,,,,,,,,METAR,-11.0
TUPJ 230000Z 06005KT 10SM SCT019 28/25 A2991 RMK Q1012 VIS16KM,TUPJ,2022-10-23T00:00:00Z,18.43,-64.53,28.0,25.0,60,5,,10.0,29.911417,,,,,,,,,,,SCT,1900,,,,,,,VFR,,,,,,,,,,,,METAR,6.0
TTPP 230000Z 06005KT 9999 -SHRA SCT014 25/24 Q1011 RERA NOSIG,TTPP,2022-10-23T00:00:00Z,10.58,-61.35,25.0,24.0,60,5,,6.21,29.852362,,,,,,TRUE,,,,-SHRA,SCT,1400,,,,,,,VFR,,,,,,,,,,,,METAR,11.0
TTCP 230000Z 07005KT 9999 VCTS FEW012CB 28/24 Q1011 NOSIG RMK CB SW,TTCP,2022-10-23T00:00:00Z,11.15,-60.85,28.0,24.0,70,5,,6.21,29.852362,,,,,,TRUE,,,,VCTS,FEW,1200,,,,,,,VFR,,,,,,,,,,,,METAR,13.0
TNCM 230000Z 06005KT 9999 SCT016 27/24 Q1013 NOSIG ,TNCM,2022-10-23T00:00:00Z,18.05,-63.12,27.0,24.0,60,5,,6.21,29.911417,,,,,,TRUE,,,,,SCT,1600,,,,,,,VFR,,,,,,,,,,,,METAR,9.0
TNCC 230000Z 08011KT 9999 FEW020 28/24 Q1009 NOSIG,TNCC,2022-10-23T00:00:00Z,12.2,-68.97,28.0,24.0,80,11,,6.21,29.793306,,,,,,TRUE,,,,,FEW,2000,,,,,,,VFR,,,,,,,,,,,,METAR,10.0
TNCA 230000Z 07013KT 9999 FEW018 29/24 Q1009 NOSIG,TNCA,2022-10-23T00:00:00Z,12.5,-70.0,29.0,24.0,70,13,,6.21,29.793306,,,,,,TRUE,,,,,FEW,1800,,,,,,,VFR,,,,,,,,,,,,METAR,7.0
TLPL 230000Z 07015KT 9999 FEW026 28/23 Q1012 NOSIG,TLPL,2022-10-23T00:00:00Z,13.75,-60.95,28.0,23.0,70,15,,6.21,29.88189,,,,,,TRUE,,,,,FEW,2600,,,,,,,VFR,,,,,,,,,,,,METAR,13.0
TLPC 230000Z 08003KT 9999 FEW024 27/24 Q1012 NOISG,TLPC,2022-10-23T00:00:00Z,14.02,-61.0,27.0,24.0,80,3,,6.21,29.88189,,,,,,,,,,SG,FEW,2400,,,,,,,VFR,,,,,,,,,,,,METAR,8.0
TKPK 230000Z 06009KT 9999 FEW021 27/23 Q1012,TKPK,2022-10-23T00:00:00Z,17.3,-62.72,27.0,23.0,60,9,,6.21,29.88189,,,,,,,,,,,FEW,2100,,,,,,,VFR,,,,,,,,,,,,METAR,62.0
TGPY 230000Z 09008KT 9999 FEW014CB 28/25 Q1011 NOSIG RMK CB-SE,TGPY,2022-10-23T00:00:00Z,12.0,-61.78,28.0,25.0,90,8,,6.21,29.852362,,,,,,TRUE,,,,,FEW,1400,,,,,,,VFR,,,,,,,,,,,,METAR,12.0
TBPB 230000Z 10009KT 9999 VCSH FEW018 27/24 Q1011 NOSIG,TBPB,2022-10-23T00:00:00Z,13.07,-59.48,27.0,24.0,100,9,,6.21,29.852362,,,,,,TRUE,,,,VCSH,FEW,1800,,,,,,,VFR,,,,,,,,,,,,METAR,55.0
TAPA 230000Z 08008KT 040V110 9999 SCT020 27/22 Q1012 NOSIG,TAPA,2022-10-23T00:00:00Z,17.13,-61.78,27.0,22.0,80,8,,6.21,29.88189,,,,,,TRUE,,,,,SCT,2000,,,,,,,VFR,,,,,,,,,,,,METAR,15.0
SYCJ 230000Z 05004KT 9999 FEW016 27/25 Q1010 NOSIG,SYCJ,2022-10-23T00:00:00Z,6.5,-58.25,27.0,25.0,50,4,,6.21,29.822834,,,,,,TRUE,,,,,FEW,1600,,,,,,,VFR,,,,,,,,,,,,METAR,30.0
SUMU 230000Z 17012KT 9999 BKN014 12/11 Q1021 TEMPO RADZ,SUMU,2022-10-23T00:00:00Z,-34.83,-56.02,12.0,11.0,170,12,,6.21,30.147638,,,,,,,,,,,BKN,1400,,,,,,,MVFR,,,,,,,,,,,,METAR,32.0
SULS 230000Z 15010KT 6000 -DZ OVC008 12/08 Q1020,SULS,2022-10-23T00:00:00Z,-34.87,-55.1,12.0,8.0,150,10,,3.73,30.11811,,,,,,,,,,-DZ,OVC,800,,,,,,,IFR,,,,,,,,,,,,METAR,22.0
SPZO 230000Z 10005KT 9999 NSC17/05 Q1027 NOSIG RMK BIRD HAZARD RWY 10/28 PP000,SPZO,2022-10-23T00:00:00Z,-13.55,-71.93,17.0,5.0,100,5,,6.21,30.324802,,,,,,TRUE,,,,,,,,,,,,,,,,,,,,,,,,,METAR,3249.0
SPTU 230000Z 00000KT CAVOK 22/21 Q1010 RMK BKN150 BIRD HAZARD RWY 01/19 PP000,SPTU,2022-10-23T00:00:00Z,-12.62,-69.22,22.0,21.0,0,0,,6.21,29.822834,,,,,,,,,,,CAVOK,,,,,,,,VFR,,,,,,,,,,,,METAR,213.0
SPTN 230000Z 20003KT 170V230 CAVOK 14/10 Q1017 RMK PP000,SPTN,2022-10-23T00:00:00Z,-18.03,-70.28,14.0,10.0,200,3,,6.21,30.029528,,,,,,,,,,,CAVOK,,,,,,,,VFR,,,,,,,,,,,,METAR,459.0
SPST 230000Z 00000KT 9999 SCT025 SCT080 26/25 Q1007 RMK BIRD HAZARD RWY 17/35 PP000,SPST,2022-10-23T00:00:00Z,-6.52,-76.37,26.0,25.0,0,0,,6.21,29.734253,,,,,,,,,,,SCT,2500,SCT,8000,,,,,VFR,,,,,,,,,,,,METAR,282.0
SPSO 230000Z 21011KT CAVOK 16/13 Q1014 RMK PP000,SPSO,2022-10-23T00:00:00Z,-13.73,-76.22,16.0,13.0,210,11,,6.21,29.940945,,,,,,,,,,,CAVOK,,,,,,,,VFR,,,,,,,,,,,,METAR,8.0
SPRU 230000Z 15008KT 6000 BCFG OVC017 16/14 Q1014 RMK PP000,SPRU,2022-10-23T00:00:00Z,-8.08,-79.12,16.0,14.0,150,8,,3.73,29.940945,,,,,,,,,,BCFG,OVC,1700,,,,,,,MVFR,,,,,,,,,,,,METAR,23.0
SPQU 230000Z 27005KT CAVOK 13/M02 Q1028 NOSIG RMK PP000,SPQU,2022-10-23T00:00:00Z,-16.33,-71.57,13.0,-2.0,270,5,,6.21,30.35433,,,,,,TRUE,,,,,CAVOK,,,,,,,,VFR,,,,,,,,,,,,METAR,2527.0
SPQT 230000Z VRB02KT 9999 FEW015 BKN100 26/23 Q1008 NOSIG RMK PP000,SPQT,2022-10-23T00:00:00Z,-3.78,-73.32,26.0,23.0,0,2,,6.21,29.763779,,,,,,TRUE,,,,,FEW,1500,BKN,10000,,,,,VFR,,,,,,,,,,,,METAR,92.0
SPME 230000Z 29004KT 9999 BKN013 22/20 Q1011 RMK BIRD HAZARD RWY 32/14 PP000,SPME,2022-10-23T00:00:00Z,-3.55,-80.4,22.0,20.0,290,4,,6.21,29.852362,,,,,,,,,,,BKN,1300,,,,,,,MVFR,,,,,,,,,,,,METAR,26.0
SPJC 230000Z 16005KT 9999 OVC013 16/12 Q1015 NOSIG RMK PP000,SPJC,2022-10-23T00:00:00Z,-12.02,-77.12,16.0,12.0,160,5,,6.21,29.970472,,,,,,TRUE,,,,,OVC,1300,,,,,,,MVFR,,,,,,,,,,,,METAR,26.0
SPCL 230000Z 20003KT 9999 SCT015 BKN070 24/24 Q1008 RMK TS/SW PP000,SPCL,2022-10-23T00:00:00Z,-8.38,-74.58,24.0,24.0,200,3,,6.21,29.763779,,,,,,,,,,,SCT,1500,BKN,7000,,,,,VFR,,,,,,,,,,,,METAR,154.0
SMZO 230000Z 03005KT 9999 FEW010 27/23 Q1010 NOSIG,SMZO,2022-10-23T00:00:00Z,5.82,-55.18,27.0,23.0,30,5,,6.21,29.822834,,,,,,TRUE,,,,,FEW,1000,,,,,,,VFR,,,,,,,,,,,,METAR,7.0
SMJP 230000Z 04007KT 9999 FEW015 28/24 Q1010 NOSIG,SMJP,2022-10-23T00:00:00Z,5.45,-55.18,28.0,24.0,40,7,,6.21,29.822834,,,,,,TRUE,,,,,FEW,1500,,,,,,,VFR,,,,,,,,,,,,METAR,14.0
SLVR 230000Z 27003KT 9999 SCT023 SCT070 26/20 Q1013,SLVR,2022-10-23T00:00:00Z,-17.63,-63.13,26.0,20.0,270,3,,6.21,29.911417,,,,,,,,,,,SCT,2300,SCT,7000,,,,,VFR,,,,,,,,,,,,METAR,377.0
SLLP 230000Z 08005KT 9999 FEW070 SCT200 09/M03 Q1035,SLLP,2022-10-23T00:00:00Z,-16.52,-68.17,9.0,-3.0,80,5,,6.21,30.561024,,,,,,,,,,,FEW,7000,SCT,20000,,,,,VFR,,,,,,,,,,,,METAR,4061.0
SLCB 230000Z 02004KT 320V060 9999 FEW033 BKN200 18/07 Q1024,SLCB,2022-10-23T00:00:00Z,-17.42,-66.18,18.0,7.0,20,4,,6.21,30.236221,,,,,,,,,,,FEW,3300,BKN,20000,,,,,VFR,,,,,,,,,,,,METAR,2560.0
SKVP 230000Z 00000KT 7000 TSRA SCT015CB SCT080 26/25 RMK A2986,SKVP,2022-10-23T00:00:00Z,10.43,-73.25,26.0,25.0,0,0,,4.35,,,,,,,,,,,TSRA,SCT,1500,SCT,8000,,,,,MVFR,,,,,,,,,,,,SPECI,137.0
SKUI 230000Z VRB02KT 5000 -DZ BKN012 SCT100 24/24 Q1010 RMK A2984,SKUI,2022-10-23T00:00:00Z,5.68,-76.63,24.0,24.0,0,2,,3.11,29.822834,,,,,,,,,,-DZ,BKN,1200,SCT,10000,,,,,MVFR,,,,,,,,,,,,SPECI,55.0
SKUC 230000Z VRB02KT 9999 SCT023 27/25 Q1008 RMK A2977,SKUC,2022-10-23T00:00:00Z,7.07,-70.73,27.0,25.0,0,2,,6.21,29.763779,,,,,,,,,,,SCT,2300,,,,,,,VFR,,,,,,,,,,,,SPECI,127.0
SKSP 230000Z 05007KT 9999 FEW017 29/25 Q1010 RMK A2983,SKSP,2022-10-23T00:00:00Z,12.58,-81.72,29.0,25.0,50,7,,6.21,29.822834,,,,,,,,,,,FEW,1700,,,,,,,VFR,,,,,,,,,,,,METAR,6.0
SKSM 230000Z 01010KT 9999 SCT017 SCT070 27/24 Q1009 RMK A2982 METAR ,SKSM,2022-10-23T00:00:00Z,11.12,-74.22,27.0,24.0,10,10,,6.21,29.793306,,,,,,,,,,,SCT,1700,SCT,7000,,,,,VFR,,,,,,,,,,,,SPECI,5.0
SKRG 230000Z 22004KT 6000 -TSRA SCT012CB OVC080 14/14 Q1025 TEMPO FM0040 DZ BKN015 RMK CB/SE/S A3027,SKRG,2022-10-23T00:00:00Z,6.17,-75.42,14.0,14.0,220,4,,3.73,30.265747,,,,,,,,,,-TSRA,SCT,1200,OVC,8000,,,,,MVFR,,,,,,,,,,,,METAR,2132.0
SKPV 230000Z 02006KT 9999 FEW017 BKN200 29/25 Q1011 RMK A2985,SKPV,2022-10-23T00:00:00Z,13.37,-81.35,29.0,25.0,20,6,,6.21,29.852362,,,,,,,,,,,FEW,1700,BKN,20000,,,,,VFR,,,,,,,,,,,,SPECI,7.0
SKPE 230000Z VRB02KT 8000 VCFG SCT010 SCT070 20/19 Q1017 RMK A3004,SKPE,2022-10-23T00:00:00Z,4.82,-75.73,20.0,19.0,0,2,,4.97,30.029528,,,,,,,,,,VCFG,SCT,1000,SCT,7000,,,,,MVFR,,,,,,,,,,,,METAR,1341.0
SKNV 230000Z 00000KT 9999 FEW030 SCT110 27/23 Q1009 RMK/A2981,SKNV,2022-10-23T00:00:00Z,2.93,-75.28,27.0,23.0,0,0,,6.21,29.793306,,,,,,,,,,,FEW,3000,SCT,11000,,,,,VFR,,,,,,,,,,,,SPECI,449.0
SKMR 230000Z 33005KT 9999 SCT020 27/23 Q1008 RMK A2979,SKMR,2022-10-23T00:00:00Z,8.82,-75.83,27.0,23.0,330,5,,6.21,29.763779,,,,,,,,,,,SCT,2000,,,,,,,VFR,,,,,,,,,,,,SPECI,12.0
SKLT 230000Z VRB02KT 9999 SCT015CB SCT080 28/25 Q1007 RMK CB/LTNG/SE A2975,SKLT,2022-10-23T00:00:00Z,-4.2,-69.93,28.0,25.0,0,2,,6.21,29.734253,,,,,,,,,,,SCT,1500,SCT,8000,,,,,VFR,,,,,,,,,,,,METAR,78.0
SKIB 230000Z 33003KT 9999 FEW020 SCT100 24/22 Q1016 RMK A3000,SKIB,2022-10-23T00:00:00Z,4.42,-75.12,24.0,22.0,330,3,,6.21,30.0,,,,,,,,,,,FEW,2000,SCT,10000,,,,,VFR,,,,,,,,,,,,SPECI,899.0
SKCL 230000Z 34007KT 9999 SCT020 BKN070 23/19 Q1014 TEMPO DZ,SKCL,2022-10-23T00:00:00Z,3.53,-76.37,23.0,19.0,340,7,,6.21,29.940945,,,,,,,,,,,SCT,2000,BKN,7000,,,,,VFR,,,,,,,,,,,,METAR,967.0
SKCG 230000Z 25003KT 230V030 9999 FEW018 28/25 Q1008 RMK A2979,SKCG,2022-10-23T00:00:00Z,10.43,-75.52,28.0,25.0,250,3,,6.21,29.763779,,,,,,,,,,,FEW,1800,,,,,,,VFR,,,,,,,,,,,,SPECI,6.0
SKCC 230000Z VRB02KT 9999 SCT017 SCT080 26/24 Q1012 RMK A2988,SKCC,2022-10-23T00:00:00Z,7.92,-72.52,26.0,24.0,0,2,,6.21,29.88189,,,,,,,,,,,SCT,1700,SCT,8000,,,,,VFR,,,,,,,,,,,,SPECI,308.0
SKBQ 230000Z VRB02KT 9999 FEW015 26/25 Q1009 NOSIG RMK A2981,SKBQ,2022-10-23T00:00:00Z,10.87,-74.77,26.0,25.0,0,2,,6.21,29.793306,,,,,,TRUE,,,,,FEW,1500,,,,,,,VFR,,,,,,,,,,,,METAR,23.0
SKBO 230000Z 30003KT 8000 VCSH SCT015 BKN040 15/12 Q1024 NOSIG RMK VCSH/SE A3027,SKBO,2022-10-23T00:00:00Z,4.7,-74.15,15.0,12.0,300,3,,4.97,30.236221,,,,,,TRUE,,,,VCSH,SCT,1500,BKN,4000,,,,,MVFR,,,,,,,,,,,,METAR,2547.0
SKBG 230000Z 34004KT 9999 SCT010 SCT070 20/19 Q1014 RMK A2994,SKBG,2022-10-23T00:00:00Z,7.13,-73.18,20.0,19.0,340,4,,6.21,29.940945,,,,,,,,,,,SCT,1000,SCT,7000,,,,,VFR,,,,,,,,,,,,METAR,1187.0
SKAR 230000Z 00000KT 9999 5000N -DZ BCFG BKN017 BKN080 19/18 Q1018 RMK A3008,SKAR,2022-10-23T00:00:00Z,4.45,-75.77,19.0,18.0,0,0,,6.21,30.059055,,,,,,,,,,BCFG -DZ,BKN,1700,BKN,8000,,,,,MVFR,,,,,,,,,,,,SPECI,1214.0
SGSP 230000Z 23002KT 9999 SCT033 29/18 Q1009,SGSP,2022-10-23T00:00:00Z,-24.03,-57.02,29.0,18.0,230,2,,6.21,29.793306,,,,,,,,,,,SCT,3300,,,,,,,VFR,,,,,,,,,,,,METAR,81.0
SGSJ 230000Z 14006KT CAVOK 24/16 Q1012,SGSJ,2022-10-23T00:00:00Z,-26.67,-57.13,24.0,16.0,140,6,,6.21,29.88189,,,,,,,,,,,CAVOK,,,,,,,,VFR,,,,,,,,,,,,METAR,131.0
SGPJ 230000Z 19012KT CAVOK 26/14 Q1013,SGPJ,2022-10-23T00:00:00Z,-22.63,-55.83,26.0,14.0,190,12,,6.21,29.911417,,,,,,,,,,,CAVOK,,,,,,,,VFR,,,,,,,,,,,,METAR,571.0
SGPI 230000Z 14002KT 9999 SCT027 27/14 Q1014,SGPI,2022-10-23T00:00:00Z,-26.87,-58.32,27.0,14.0,140,2,,6.21,29.940945,,,,,,,,,,,SCT,2700,,,,,,,VFR,,,,,,,,,,,,METAR,59.0
SGPC 230000Z 16006KT CAVOK 31/19 Q1010,SGPC,2022-10-23T00:00:00Z,-23.5,-58.78,31.0,19.0,160,6,,6.21,29.822834,,,,,,,,,,,CAVOK,,,,,,,,VFR,,,,,,,,,,,,METAR,98.0
SGME 230000Z 14010KT 9999 FEW040 34/07 Q1009,SGME,2022-10-23T00:00:00Z,-22.03,-60.62,34.0,7.0,140,10,,6.21,29.793306,,,,,,,,,,,FEW,4000,,,,,,,VFR,,,,,,,,,,,,METAR,166.0
SGGR 230000Z 18014KT 9999 FEW030 26/16 Q1012,SGGR,2022-10-23T00:00:00Z,-24.03,-54.35,26.0,16.0,180,14,,6.21,29.88189,,,,,,,,,,,FEW,3000,,,,,,,VFR,,,,,,,,,,,,METAR,297.0
SGCO 230000Z 22010KT CAVOK 28/15 Q1011,SGCO,2022-10-23T00:00:00Z,-23.43,-57.42,28.0,15.0,220,10,,6.21,29.852362,,,,,,,,,,,CAVOK,,,,,,,,VFR,,,,,,,,,,,,METAR,74.0
SEMT 230000Z 26005KT 9999 BKN020 BKN100 23/21 Q1012 RMK A2989,SEMT,2022-10-23T00:00:00Z,-0.95,-80.67,23.0,21.0,260,5,,6.21,29.88189,,,,,,,,,,,BKN,2000,BKN,10000,,,,,MVFR,,,,,,,,,,,,METAR,13.0
SELT 230000Z 35002KT 9999 VCSH BKN030 BKN100 12/09 Q1028,SELT,2022-10-23T00:00:00Z,-0.92,-78.62,12.0,9.0,350,2,,6.21,30.35433,,,,,,,,,,VCSH,BKN,3000,BKN,10000,,,,,MVFR,,,,,,,,,,,,METAR,2779.0
SEGU 230000Z 20014KT CAVOK 26/20 Q1009 NOSIG RMK A2981,SEGU,2022-10-23T00:00:00Z,-2.15,-79.88,26.0,20.0,200,14,,6.21,29.793306,,,,,,TRUE,,,,,CAVOK,,,,,,,,VFR,,,,,,,,,,,,METAR,6.0
SECU 230000Z 23008KT 9999 BKN033 14/11 Q1024,SECU,2022-10-23T00:00:00Z,-2.88,-78.98,14.0,11.0,230,8,,6.21,30.236221,,,,,,,,,,,BKN,3300,,,,,,,VFR,,,,,,,,,,,,METAR,2516.0
SCVM 230000Z 27006KT 250V320 7000 OVC008 11/09 Q1018,SCVM,2022-10-23T00:00:00Z,-32.95,-71.48,11.0,9.0,270,6,,4.35,30.059055,,,,,,,,,,,OVC,800,,,,,,,IFR,,,,,,,,,,,,METAR,136.0
SCVD 230000Z AUTO 28003KT 220V350 9999 NCD 12/02 Q1016,SCVD,2022-10-23T00:00:00Z,-39.65,-73.08,12.0,2.0,280,3,,6.21,30.0,,,TRUE,,,,,,,,CLR,,,,,,,,VFR,,,,,,,,,,,,METAR,19.0
SCTN 230000Z AUTO VRB02KT //// R/////// NCD 09/07 Q1014,SCTN,2022-10-23T00:00:00Z,-42.92,-72.7,9.0,7.0,0,2,,,29.940945,,,TRUE,,,,,,,,CLR,,,,,,,,,,,,,,,,,,,,METAR,8.0
SCTE 230000Z 24007KT 9999 FEW050 09/06 Q1015 NOSIG,SCTE,2022-10-23T00:00:00Z,-41.43,-73.08,9.0,6.0,240,7,,6.21,29.970472,,,,,,TRUE,,,,,FEW,5000,,,,,,,VFR,,,,,,,,,,,,METAR,85.0
SCSN 230000Z 30004KT 7000 BKN010 12/11 Q1019,SCSN,2022-10-23T00:00:00Z,-33.65,-71.62,12.0,11.0,300,4,,4.35,30.088583,,,,,,,,,,,BKN,1000,,,,,,,MVFR,,,,,,,,,,,,METAR,73.0
SCSE 230000Z AUTO 27005KT 240V320 9999 OVC009/// 12/11 Q1017,SCSE,2022-10-23T00:00:00Z,-29.92,-71.2,12.0,11.0,270,5,,6.21,30.029528,,,TRUE,,,,,,,,OVC,900,,,,,,,IFR,,,,,,,,,,,,METAR,141.0
SCRM 230000Z 27026KT 8000 VCFG SCT033 M03/M06 Q0984 NOSIG,SCRM,2022-10-23T00:00:00Z,-62.18,-58.98,-3.0,-6.0,270,26,,4.97,29.055119,,,,,,TRUE,,,,VCFG,SCT,3300,,,,,,,MVFR,,,,,,,,,,,,METAR,45.0
SCQP 230000Z 27006KT 240V310 CAVOK 11/06 Q1016,SCQP,2022-10-23T00:00:00Z,-38.92,-72.65,11.0,6.0,270,6,,6.21,30.0,,,,,,,,,,,CAVOK,,,,,,,,VFR,,,,,,,,,,,,METAR,97.0
SCPQ 230000Z AUTO VRB02KT CAVOK 09/06 Q1014,SCPQ,2022-10-23T00:00:00Z,-42.33,-73.72,9.0,6.0,0,2,,6.21,29.940945,,,TRUE,,,,,,,,CAVOK,,,,,,,,VFR,,,,,,,,,,,,METAR,166.0
SCPD 230000Z AUTO 13008KT //// ///////// 20/08 Q1016,SCPD,2022-10-23T00:00:00Z,,,20.0,8.0,130,8,,,30.0,,,TRUE,,,,,,,,,,,,,,,,,,,,,,,,,,,,METAR,
SCON 230000Z AUTO 00000KT 9999 BKN190/// 06/05 Q1015,SCON,2022-10-23T00:00:00Z,-43.13,-73.62,6.0,5.0,0,0,,6.21,29.970472,,,TRUE,,,,,,,,BKN,19000,,,,,,,VFR,,,,,,,,,,,,METAR,11.0
SCMK 230000Z AUTO 24006KT //// // NCD 07/03 Q1014,SCMK,2022-10-23T00:00:00Z,-43.9,-73.73,7.0,3.0,240,6,,,29.940945,,,TRUE,,,,,,,,CLR,,,,,,,,,,,,,,,,,,,,METAR,22.0
SCJO 230000Z AUTO 26005KT 220V290 9999 FEW063/// 13/03 Q1014,SCJO,2022-10-23T00:00:00Z,-40.6,-73.05,13.0,3.0,260,5,,6.21,29.940945,,,TRUE,,,,,,,,FEW,6300,,,,,,,VFR,,,,,,,,,,,,METAR,61.0
SCIP 230000Z 15008KT 100V210 9999 FEW035 20/11 Q1020 NOSIG,SCIP,2022-10-23T00:00:00Z,-27.17,-109.43,20.0,11.0,150,8,,6.21,30.11811,,,,,,TRUE,,,,,FEW,3500,,,,,,,VFR,,,,,,,,,,,,METAR,48.0
SCIE 230000Z 26007KT 9999 SCT010 11/10 Q1017,SCIE,2022-10-23T00:00:00Z,-36.77,-73.07,11.0,10.0,260,7,,6.21,30.029528,,,,,,,,,,,SCT,1000,,,,,,,VFR,,,,,,,,,,,,METAR,8.0
SCFT 230000Z AUTO 28006KT 240V300 9999 BKN210/// 14/02 Q1012,SCFT,2022-10-23T00:00:00Z,-43.18,-71.85,14.0,2.0,280,6,,6.21,29.88189,,,TRUE,,,,,,,,BKN,21000,,,,,,,VFR,,,,,,,,,,,,METAR,345.0
SCFA 230000Z 19007KT 9999 BKN017 14/10 Q1016 NOSIG,SCFA,2022-10-23T00:00:00Z,-23.43,-70.43,14.0,10.0,190,7,,6.21,30.0,,,,,,TRUE,,,,,BKN,1700,,,,,,,MVFR,,,,,,,,,,,,METAR,113.0
SCEL 230000Z 15011KT CAVOK 18/06 Q1016 NOSIG,SCEL,2022-10-23T00:00:00Z,-33.38,-70.78,18.0,6.0,150,11,,6.21,30.0,,,,,,TRUE,,,,,CAVOK,,,,,,,,VFR,,,,,,,,,,,,METAR,478.0
SCDA 230000Z 21010KT 9999 FEW025 16/11 Q1016,SCDA,2022-10-23T00:00:00Z,-20.53,-70.17,16.0,11.0,210,10,,6.21,30.0,,,,,,,,,,,FEW,2500,,,,,,,VFR,,,,,,,,,,,,METAR,41.0
SCCY 230000Z AUTO VRB03KT 2000 BR NCD 10/M04 Q1010,SCCY,2022-10-23T00:00:00Z,-45.58,-72.1,10.0,-4.0,0,3,,1.24,29.822834,,,TRUE,,,,,,,BR,CLR,,,,,,,,IFR,,,,,,,,,,,,METAR,301.0
SCCI 230000Z 33007KT 9999 OVC030 07/05 Q0995 NOSIG,SCCI,2022-10-23T00:00:00Z,-53.0,-70.85,7.0,5.0,330,7,,6.21,29.379921,,,,,,TRUE,,,,,OVC,3000,,,,,,,MVFR,,,,,,,,,,,,METAR,37.0
SCCH 230000Z AUTO 24005KT CAVOK 14/04 Q1016,SCCH,2022-10-23T00:00:00Z,-36.57,-72.02,14.0,4.0,240,5,,6.21,30.0,,,TRUE,,,,,,,,CAVOK,,,,,,,,VFR,,,,,,,,,,,,METAR,148.0
SCCF 230000Z 24011KT CAVOK 15/M17 Q1027,SCCF,2022-10-23T00:00:00Z,-22.5,-68.9,15.0,-17.0,240,11,,6.21,30.324802,,,,,,,,,,,CAVOK,,,,,,,,VFR,,,,,,,,,,,,METAR,2290.0
SCBA 230000Z AUTO 29016KT 9999 NCD 10/M09 Q1009,SCBA,2022-10-23T00:00:00Z,-45.92,-71.68,10.0,-9.0,290,16,,6.21,29.793306,,,TRUE,,,,,,,,CLR,,,,,,,,VFR,,,,,,,,,,,,METAR,516.0
SCAT 230000Z AUTO 27005KT 9999 OVC013/// 13/10 Q1016,SCAT,2022-10-23T00:00:00Z,-27.27,-70.77,13.0,10.0,270,5,,6.21,30.0,,,TRUE,,,,,,,,OVC,1300,,,,,,,MVFR,,,,,,,,,,,,METAR,209.0
SCAR 230000Z 20005KT CAVOK 16/12 Q1016,SCAR,2022-10-23T00:00:00Z,-18.35,-70.33,16.0,12.0,200,5,,6.21,30.0,,,,,,,,,,,CAVOK,,,,,,,,VFR,,,,,,,,,,,,METAR,57.0
SCAP 230000Z AUTO /////KT ///V/// //// // ////// ///// Q////,SCAP,2022-10-23T00:00:00Z,-43.62,-71.8,,,,,,,,,,TRUE,,,,,,,,,,,,,,,,,,,,,,,,,,,,METAR,252.0
SBYS 230000Z 17012KT CAVOK 22/17 Q1016,SBYS,2022-10-23T00:00:00Z,-21.97,-47.33,22.0,17.0,170,12,,6.21,30.0,,,,,,,,,,,CAVOK,,,,,,,,VFR,,,,,,,,,,,,METAR,600.0
SBVT 230000Z 01009KT 9999 FEW030 25/22 Q1014,SBVT,2022-10-23T00:00:00Z,-20.25,-40.28,25.0,22.0,10,9,,6.21,29.940945,,,,,,,,,,,FEW,3000,,,,,,,VFR,,,,,,,,,,,,METAR,4.0
SBUR 230000Z 04005KT CAVOK 25/17 Q1016,SBUR,2022-10-23T00:00:00Z,-19.77,-47.97,25.0,17.0,40,5,,6.21,30.0,,,,,,,,,,,CAVOK,,,,,,,,VFR,,,,,,,,,,,,METAR,807.0
SBUL 230000Z 13006KT CAVOK 21/17 Q1017,SBUL,2022-10-23T00:00:00Z,-18.87,-48.22,21.0,17.0,130,6,,6.21,30.029528,,,,,,,,,,,CAVOK,,,,,,,,VFR,,,,,,,,,,,,METAR,945.0
SBTU 230000Z AUTO 22005KT //// // SCT035/// BKN120/// 26/23 Q1013,SBTU,2022-10-23T00:00:00Z,-3.78,-49.72,26.0,23.0,220,5,,,29.911417,,,TRUE,,,,,,,,SCT,3500,BKN,12000,,,,,,,,,,,,,,,,,METAR,250.0
SBTE 230000Z 34006KT CAVOK 31/21 Q1009,SBTE,2022-10-23T00:00:00Z,-5.05,-42.82,31.0,21.0,340,6,,6.21,29.793306,,,,,,,,,,,CAVOK,,,,,,,,VFR,,,,,,,,,,,,METAR,60.0
SBSV 230000Z 07014KT 9999 SCT020 26/22 Q1015,SBSV,2022-10-23T00:00:00Z,-12.9,-38.32,26.0,22.0,70,14,,6.21,29.970472,,,,,,,,,,,SCT,2000,,,,,,,VFR,,,,,,,,,,,,METAR,9.0
SBSR 230000Z 22004KT CAVOK 26/15 Q1015,SBSR,2022-10-23T00:00:00Z,-20.8,-49.4,26.0,15.0,220,4,,6.21,29.970472,,,,,,,,,,,CAVOK,,,,,,,,VFR,,,,,,,,,,,,METAR,537.0
SBSP 230000Z 17010KT 9999 SCT015 BKN021 17/13 Q1021,SBSP,2022-10-23T00:00:00Z,-23.62,-46.65,17.0,13.0,170,10,,6.21,30.147638,,,,,,,,,,,SCT,1500,BKN,2100,,,,,MVFR,,,,,,,,,,,,METAR,802.0
SBSN 230000Z 06002KT CAVOK 25/25 Q1009,SBSN,2022-10-23T00:00:00Z,-2.42,-54.78,25.0,25.0,60,2,,6.21,29.793306,,,,,,,,,,,CAVOK,,,,,,,,VFR,,,,,,,,,,,,METAR,57.0
SBSM 230000Z 00000KT CAVOK 16/14 Q1017,SBSM,2022-10-23T00:00:00Z,-29.72,-53.7,16.0,14.0,0,0,,6.21,30.029528,,,,,,,,,,,CAVOK,,,,,,,,VFR,,,,,,,,,,,,METAR,86.0
SBSL 230000Z 04010KT CAVOK 28/24 Q1012,SBSL,2022-10-23T00:00:00Z,-2.58,-44.23,28.0,24.0,40,10,,6.21,29.88189,,,,,,,,,,,CAVOK,,,,,,,,VFR,,,,,,,,,,,,METAR,53.0
SBSJ 230000Z 20002KT 9999 SCT025 BKN050TCU 18/13 Q1020,SBSJ,2022-10-23T00:00:00Z,-23.22,-45.87,18.0,13.0,200,2,,6.21,30.11811,,,,,,,,,,,SCT,2500,BKN,5000,,,,,VFR,,,,,,,,,,,,METAR,640.0
SBSC 230000Z 17009KT 9999 BKN014 OVC040 23/20 Q1017,SBSC,2022-10-23T00:00:00Z,-22.92,-43.72,23.0,20.0,170,9,,6.21,30.029528,,,,,,,,,,,BKN,1400,OVC,4000,,,,,MVFR,,,,,,,,,,,,METAR,6.0
SBRP 230000Z 24004KT 210V270 CAVOK 26/15 Q1014,SBRP,2022-10-23T00:00:00Z,-21.13,-47.77,26.0,15.0,240,4,,6.21,29.940945,,,,,,,,,,,CAVOK,,,,,,,,VFR,,,,,,,,,,,,METAR,550.0
SBRJ 230000Z 20008KT 9999 -RA SCT018 SCT035 OVC060 23/20 Q1016,SBRJ,2022-10-23T00:00:00Z,-22.9,-43.17,23.0,20.0,200,8,,6.21,30.0,,,,,,,,,,-RA,SCT,1800,SCT,3500,OVC,6000,,,VFR,,,,,,,,,,,,METAR,6.0
SBRF 230000Z 06006KT 9999 SCT023 27/21 Q1015,SBRF,2022-10-23T00:00:00Z,-8.13,-34.92,27.0,21.0,60,6,,6.21,29.970472,,,,,,,,,,,SCT,2300,,,,,,,VFR,,,,,,,,,,,,METAR,10.0
SBRB 230000Z 10002KT CAVOK 24/23 Q1012,SBRB,2022-10-23T00:00:00Z,-9.87,-67.88,24.0,23.0,100,2,,6.21,29.88189,,,,,,,,,,,CAVOK,,,,,,,,VFR,,,,,,,,,,,,METAR,190.0
SBPV 230000Z /////KT 9999 VCTS FEW040 FEW045CB 25/23 Q1010,SBPV,2022-10-23T00:00:00Z,-8.72,-63.9,25.0,23.0,,,,6.21,29.822834,,,,,,,,,,VCTS,FEW,4000,FEW,4500,,,,,VFR,,,,,,,,,,,,METAR,89.0
SBPS 230000Z 04009KT 9999 SCT020 25/22 Q1015,SBPS,2022-10-23T00:00:00Z,-16.43,-39.07,25.0,22.0,40,9,,6.21,29.970472,,,,,,,,,,,SCT,2000,,,,,,,VFR,,,,,,,,,,,,METAR,44.0
SBPL 230000Z 18007KT CAVOK 31/13 Q1013,SBPL,2022-10-23T00:00:00Z,-9.37,-40.57,31.0,13.0,180,7,,6.21,29.911417,,,,,,,,,,,CAVOK,,,,,,,,VFR,,,,,,,,,,,,METAR,386.0
SBPK 230000Z 06006KT CAVOK 18/16 Q1016,SBPK,2022-10-23T00:00:00Z,-31.72,-52.33,18.0,16.0,60,6,,6.21,30.0,,,,,,,,,,,CAVOK,,,,,,,,VFR,,,,,,,,,,,,METAR,17.0
SBPJ 230000Z 08006KT 8000 -TSRA FEW025 FEW033CB BKN050 OVC080 25/22 Q1015,SBPJ,2022-10-23T00:00:00Z,-10.28,-48.37,25.0,22.0,80,6,,4.97,29.970472,,,,,,,,,,-TSRA,FEW,2500,FEW,3300,BKN,5000,OVC,8000,MVFR,,,,,,,,,,,,METAR,226.0
SBPF 230000Z 00000KT CAVOK 16/13 Q1018,SBPF,2022-10-23T00:00:00Z,-28.25,-52.33,16.0,13.0,0,0,,6.21,30.059055,,,,,,,,,,,CAVOK,,,,,,,,VFR,,,,,,,,,,,,METAR,720.0
SBPA 230000Z 10008KT CAVOK 19/16 Q1017,SBPA,2022-10-23T00:00:00Z,-30.0,-51.17,19.0,16.0,100,8,,6.21,30.029528,,,,,,,,,,,CAVOK,,,,,,,,VFR,,,,,,,,,,,,METAR,3.0
SBNT 230000Z 09010KT 9999 SCT020 25/21 Q1014,SBNT,2022-10-23T00:00:00Z,-5.92,-35.25,25.0,21.0,90,10,,6.21,29.940945,,,,,,,,,,,SCT,2000,,,,,,,VFR,,,,,,,,,,,,METAR,51.0
SBNF 230000Z 12009KT 9999 SCT015 BKN040 21/17 Q1018,SBNF,2022-10-23T00:00:00Z,-26.88,-48.65,21.0,17.0,120,9,,6.21,30.059055,,,,,,,,,,,SCT,1500,BKN,4000,,,,,VFR,,,,,,,,,,,,METAR,5.0
SBMY 230000Z AUTO 14003KT 090V210 9999 FEW015 BKN030 26/25 Q1011,SBMY,2022-10-23T00:00:00Z,-5.82,-61.28,26.0,25.0,140,3,,6.21,29.852362,,,TRUE,,,,,,,,FEW,1500,BKN,3000,,,,,MVFR,,,,,,,,,,,,METAR,44.0
SBMT 230000Z 14007KT 9999 BKN019 18/15 Q1020,SBMT,2022-10-23T00:00:00Z,-23.52,-46.63,18.0,15.0,140,7,,6.21,30.11811,,,,,,,,,,,BKN,1900,,,,,,,MVFR,,,,,,,,,,,,METAR,722.0
SBMS 230000Z 06009KT 9999 FEW030 28/21 Q1013,SBMS,2022-10-23T00:00:00Z,-5.2,-37.37,28.0,21.0,60,9,,6.21,29.911417,,,,,,,,,,,FEW,3000,,,,,,,VFR,,,,,,,,,,,,METAR,23.0
SBMQ 230000Z 07013KT 9999 BKN020 29/25 Q1011,SBMQ,2022-10-23T00:00:00Z,0.05,-51.07,29.0,25.0,70,13,,6.21,29.852362,,,,,,,,,,,BKN,2000,,,,,,,MVFR,,,,,,,,,,,,METAR,15.0
SBMO 230000Z 06004KT 9999 FEW019 23/22 Q1015,SBMO,2022-10-23T00:00:00Z,-9.52,-35.78,23.0,22.0,60,4,,6.21,29.970472,,,,,,,,,,,FEW,1900,,,,,,,VFR,,,,,,,,,,,,METAR,116.0
SBMN 230000Z 06001KT CAVOK 26/24 Q1009,SBMN,2022-10-23T00:00:00Z,-3.13,-59.98,26.0,24.0,60,1,,6.21,29.793306,,,,,,,,,,,CAVOK,,,,,,,,VFR,,,,,,,,,,,,METAR,71.0
SBMK 230000Z 11005KT CAVOK 27/14 Q1015,SBMK,2022-10-23T00:00:00Z,-16.7,-43.82,27.0,14.0,110,5,,6.21,29.970472,,,,,,,,,,,CAVOK,,,,,,,,VFR,,,,,,,,,,,,METAR,665.0
SBMG 230000Z 00000KT CAVOK 23/15 Q1014,SBMG,2022-10-23T00:00:00Z,-23.48,-52.02,23.0,15.0,0,0,,6.21,29.940945,,,,,,,,,,,CAVOK,,,,,,,,VFR,,,,,,,,,,,,METAR,543.0
SBME 230000Z 26004KT 8000 -RA BKN020 OVC080 23/23 Q1016,SBME,2022-10-23T00:00:00Z,-22.35,-41.77,23.0,23.0,260,4,,4.97,30.0,,,,,,,,,,-RA,BKN,2000,OVC,8000,,,,,MVFR,,,,,,,,,,,,METAR,2.0
SBMA 230000Z 24002KT CAVOK 26/25 Q1012,SBMA,2022-10-23T00:00:00Z,-5.37,-49.13,26.0,25.0,240,2,,6.21,29.88189,,,,,,,,,,,CAVOK,,,,,,,,VFR,,,,,,,,,,,,METAR,110.0
SBLS 230000Z 14005KT 080V140 CAVOK 20/18 Q1018,SBLS,2022-10-23T00:00:00Z,-19.67,-43.88,20.0,18.0,140,5,,6.21,30.059055,,,,,,,,,,,CAVOK,,,,,,,,VFR,,,,,,,,,,,,METAR,850.0
SBLO 230000Z 21002KT CAVOK 24/14 Q1015,SBLO,2022-10-23T00:00:00Z,-23.33,-51.12,24.0,14.0,210,2,,6.21,29.970472,,,,,,,,,,,CAVOK,,,,,,,,VFR,,,,,,,,,,,,METAR,563.0
SBLE 230000Z AUTO 08009KT CAVOK 26/17 Q1016,SBLE,2022-10-23T00:00:00Z,-12.48,-41.28,26.0,17.0,80,9,,6.21,30.0,,,TRUE,,,,,,,,CAVOK,,,,,,,,VFR,,,,,,,,,,,,METAR,495.0
SBLB 230000Z AUTO 02023KT 9999 FEW074 SCT094 25/22 Q1015 W/////,SBLB,2022-10-23T00:00:00Z,-22.1,-39.92,25.0,22.0,20,23,,6.21,29.970472,,,TRUE,,,,,,,,FEW,7400,SCT,9400,,,,,VFR,,,,,,,,,,,,METAR,10.0
SBKP 230000Z 13016KT CAVOK 19/15 Q1017,SBKP,2022-10-23T00:00:00Z,-23.0,-47.13,19.0,15.0,130,16,,6.21,30.029528,,,,,,,,,,,CAVOK,,,,,,,,VFR,,,,,,,,,,,,METAR,659.0
SBKG 230000Z 10014KT 9999 BKN015 23/20 Q1017,SBKG,2022-10-23T00:00:00Z,-7.27,-35.88,23.0,20.0,100,14,,6.21,30.029528,,,,,,,,,,,BKN,1500,,,,,,,MVFR,,,,,,,,,,,,METAR,499.0
SBJV 230000Z 03002KT 9999 BKN030 21/18 Q1018,SBJV,2022-10-23T00:00:00Z,-26.22,-48.8,21.0,18.0,30,2,,6.21,30.059055,,,,,,,,,,,BKN,3000,,,,,,,MVFR,,,,,,,,,,,,METAR,3.0
SBJU 230000Z 13003KT 9999 SCT020 32/16 Q1015,SBJU,2022-10-23T00:00:00Z,-7.22,-39.27,32.0,16.0,130,3,,6.21,29.970472,,,,,,,,,,,SCT,2000,,,,,,,VFR,,,,,,,,,,,,METAR,407.0
SBJP 230000Z 08007KT 9999 FEW020 26/22 Q1015,SBJP,2022-10-23T00:00:00Z,-7.15,-34.95,26.0,22.0,80,7,,6.21,29.970472,,,,,,,,,,,FEW,2000,,,,,,,VFR,,,,,,,,,,,,METAR,66.0
SBIP 230000Z AUTO 33004KT 300V010 CAVOK 23/16 Q1015,SBIP,2022-10-23T00:00:00Z,-19.47,-42.48,23.0,16.0,330,4,,6.21,29.970472,,,TRUE,,,,,,,,CAVOK,,,,,,,,VFR,,,,,,,,,,,,METAR,240.0
SBIL 230000Z 07006KT 9999 SCT020 26/24 Q1015,SBIL,2022-10-23T00:00:00Z,-14.8,-39.02,26.0,24.0,70,6,,6.21,29.970472,,,,,,,,,,,SCT,2000,,,,,,,VFR,,,,,,,,,,,,METAR,9.0
SBIH 230000Z 00000KT 9999 FEW018 BKN080 27/24 Q1009,SBIH,2022-10-23T00:00:00Z,-4.25,-56.0,27.0,24.0,0,0,,6.21,29.793306,,,,,,,,,,,FEW,1800,BKN,8000,,,,,VFR,,,,,,,,,,,,METAR,30.0
SBGR 230000Z 14006KT 9999 BKN019 18/14 Q1020,SBGR,2022-10-23T00:00:00Z,-23.42,-46.47,18.0,14.0,140,6,,6.21,30.11811,,,,,,,,,,,BKN,1900,,,,,,,MVFR,,,,,,,,,,,,METAR,745.0
SBGO 230000Z 15005KT CAVOK 25/17 Q1016,SBGO,2022-10-23T00:00:00Z,-16.62,-49.22,25.0,17.0,150,5,,6.21,30.0,,,,,,,,,,,CAVOK,,,,,,,,VFR,,,,,,,,,,,,METAR,740.0
SBGL 230000Z 25006KT 9999 SCT029 SCT035 OVC060 24/19 Q1017,SBGL,2022-10-23T00:00:00Z,-22.82,-43.25,24.0,19.0,250,6,,6.21,30.029528,,,,,,,,,,,SCT,2900,SCT,3500,OVC,6000,,,VFR,,,,,,,,,,,,METAR,3.0
SBFZ 230000Z 09010KT 9999 SCT020 27/23 Q1013,SBFZ,2022-10-23T00:00:00Z,-3.77,-38.52,27.0,23.0,90,10,,6.21,29.911417,,,,,,,,,,,SCT,2000,,,,,,,VFR,,,,,,,,,,,,METAR,32.0
SBFN 230000Z AUTO 13006KT 080V180 9999 SCT019 26/22 Q1015,SBFN,2022-10-23T00:00:00Z,-3.85,-32.42,26.0,22.0,130,6,,6.21,29.970472,,,TRUE,,,,,,,,SCT,1900,,,,,,,VFR,,,,,,,,,,,,METAR,52.0
SBFL 230000Z 14008KT CAVOK 20/16 Q1018,SBFL,2022-10-23T00:00:00Z,-27.67,-48.53,20.0,16.0,140,8,,6.21,30.059055,,,,,,,,,,,CAVOK,,,,,,,,VFR,,,,,,,,,,,,METAR,5.0
SBFI 230000Z 16003KT CAVOK 20/17 Q1015,SBFI,2022-10-23T00:00:00Z,-25.6,-54.48,20.0,17.0,160,3,,6.21,29.970472,,,,,,,,,,,CAVOK,,,,,,,,VFR,,,,,,,,,,,,METAR,233.0
SBEG 230000Z 00000KT CAVOK 25/24 Q1009,SBEG,2022-10-23T00:00:00Z,-3.03,-60.03,25.0,24.0,0,0,,6.21,29.793306,,,,,,,,,,,CAVOK,,,,,,,,VFR,,,,,,,,,,,,METAR,69.0
SBDN 230000Z 00000KT CAVOK 22/15 Q1014,SBDN,2022-10-23T00:00:00Z,-22.18,-51.43,22.0,15.0,0,0,,6.21,29.940945,,,,,,,,,,,CAVOK,,,,,,,,VFR,,,,,,,,,,,,METAR,438.0
SBCY 230000Z 21010G20KT 9999 -RA FEW025TCU SCT100 26/23 Q1013,SBCY,2022-10-23T00:00:00Z,-15.65,-56.12,26.0,23.0,210,10,20,6.21,29.911417,,,,,,,,,,-RA,FEW,2500,SCT,10000,,,,,VFR,,,,,,,,,,,,METAR,182.0
SBCT 230000Z 12008KT 9999 BKN004 OVC007 14/14 Q1020,SBCT,2022-10-23T00:00:00Z,-25.52,-49.17,14.0,14.0,120,8,,6.21,30.11811,,,,,,,,,,,BKN,400,OVC,700,,,,,LIFR,,,,,,,,,,,,METAR,914.0
SBCP 230000Z 20012KT 9999 -RA SCT025 BKN080 24/23 Q1015,SBCP,2022-10-23T00:00:00Z,-21.7,-41.3,24.0,23.0,200,12,,6.21,29.970472,,,,,,,,,,-RA,SCT,2500,BKN,8000,,,,,VFR,,,,,,,,,,,,METAR,15.0
SBCO 230000Z 10006KT CAVOK 17/15 Q1017,SBCO,2022-10-23T00:00:00Z,-29.95,-51.15,17.0,15.0,100,6,,6.21,30.029528,,,,,,,,,,,CAVOK,,,,,,,,VFR,,,,,,,,,,,,METAR,8.0
SBCG 230000Z 19004KT 160V240 CAVOK 22/15 Q1015,SBCG,2022-10-23T00:00:00Z,-20.47,-54.67,22.0,15.0,190,4,,6.21,29.970472,,,,,,,,,,,CAVOK,,,,,,,,VFR,,,,,,,,,,,,METAR,556.0
SBCF 230000Z 16003KT CAVOK 19/16 Q1018,SBCF,2022-10-23T00:00:00Z,-19.63,-43.97,19.0,16.0,160,3,,6.21,30.059055,,,,,,,,,,,CAVOK,,,,,,,,VFR,,,,,,,,,,,,METAR,825.0
SBBV 230000Z 12007KT 9999 VCTS FEW040 FEW045CB 31/22 Q1009,SBBV,2022-10-23T00:00:00Z,2.85,-60.7,31.0,22.0,120,7,,6.21,29.793306,,,,,,,,,,VCTS,FEW,4000,FEW,4500,,,,,VFR,,,,,,,,,,,,METAR,80.0
SBBU 230000Z 19005KT CAVOK 25/14 Q1015,SBBU,2022-10-23T00:00:00Z,-22.33,-49.07,25.0,14.0,190,5,,6.21,29.970472,,,,,,,,,,,CAVOK,,,,,,,,VFR,,,,,,,,,,,,METAR,616.0
SBBR 230000Z 10004KT 9999 FEW040 BKN090 23/17 Q1018,SBBR,2022-10-23T00:00:00Z,-15.87,-47.92,23.0,17.0,100,4,,6.21,30.059055,,,,,,,,,,,FEW,4000,BKN,9000,,,,,VFR,,,,,,,,,,,,METAR,1051.0
SBBI 230000Z 10007KT 080V140 8000 OVC005 15/13 Q1020,SBBI,2022-10-23T00:00:00Z,-25.4,-49.23,15.0,13.0,100,7,,4.97,30.11811,,,,,,,,,,,OVC,500,,,,,,,IFR,,,,,,,,,,,,METAR,928.0
SBBH 230000Z 10006KT CAVOK 20/17 Q1017,SBBH,2022-10-23T00:00:00Z,-19.85,-43.95,20.0,17.0,100,6,,6.21,30.029528,,,,,,,,,,,CAVOK,,,,,,,,VFR,,,,,,,,,,,,METAR,799.0
SBBG 230000Z AUTO 29005KT CAVOK 17/14 Q1017,SBBG,2022-10-23T00:00:00Z,-31.38,-54.12,17.0,14.0,290,5,,6.21,30.029528,,,TRUE,,,,,,,,CAVOK,,,,,,,,VFR,,,,,,,,,,,,METAR,182.0
SBBE 230000Z 06008KT CAVOK 26/23 Q1012,SBBE,2022-10-23T00:00:00Z,-1.37,-48.47,26.0,23.0,60,8,,6.21,29.88189,,,,,,,,,,,CAVOK,,,,,,,,VFR,,,,,,,,,,,,METAR,16.0
SBAX 230000Z AUTO 20002KT CAVOK 25/14 Q1017,SBAX,2022-10-23T00:00:00Z,-19.57,-46.97,25.0,14.0,200,2,,6.21,30.029528,,,TRUE,,,,,,,,CAVOK,,,,,,,,VFR,,,,,,,,,,,,METAR,989.0
SBAR 230000Z 09011KT CAVOK 26/23 Q1014,SBAR,2022-10-23T00:00:00Z,-10.98,-37.07,26.0,23.0,90,11,,6.21,29.940945,,,,,,,,,,,CAVOK,,,,,,,,VFR,,,,,,,,,,,,METAR,4.0
SBAN 230000Z 12009KT 9999 FEW030 21/17 Q1018,SBAN,2022-10-23T00:00:00Z,-16.22,-48.97,21.0,17.0,120,9,,6.21,30.059055,,,,,,,,,,,FEW,3000,,,,,,,VFR,,,,,,,,,,,,METAR,1131.0
SAZS 230000Z 29007KT 9999 FEW050 SCT100 BKN200 13/00 Q1013 RMK PP///,SAZS,2022-10-23T00:00:00Z,-41.15,-71.17,13.0,0.0,290,7,,6.21,29.911417,,,,,,,,,,,FEW,5000,SCT,10000,BKN,20000,,,VFR,,,,,,,,,,,,METAR,843.0
SAZN 230000Z 09008KT CAVOK 17/03 Q1015,SAZN,2022-10-23T00:00:00Z,-38.95,-68.15,17.0,3.0,90,8,,6.21,29.970472,,,,,,,,,,,CAVOK,,,,,,,,VFR,,,,,,,,,,,,METAR,273.0
SAZM 230000Z 12004KT 9999 SCT033 09/02 Q1025 RMK PP///,SAZM,2022-10-23T00:00:00Z,-37.92,-57.57,9.0,2.0,120,4,,6.21,30.265747,,,,,,,,,,,SCT,3300,,,,,,,VFR,,,,,,,,,,,,METAR,17.0
SAWH 230000Z 08010KT 9999 FEW025 SCT038 OVC080 07/04 Q0994 RMK PP000,SAWH,2022-10-23T00:00:00Z,-54.85,-68.3,7.0,4.0,80,10,,6.21,29.350393,,,,,,,,,,,FEW,2500,SCT,3800,OVC,8000,,,VFR,,,,,,,,,,,,METAR,22.0
SAWG 230000Z 16007KT 9999 SCT025 SCT070 11/01 Q0996,SAWG,2022-10-23T00:00:00Z,-51.62,-69.27,11.0,1.0,160,7,,6.21,29.409449,,,,,,,,,,,SCT,2500,SCT,7000,,,,,VFR,,,,,,,,,,,,METAR,15.0
SAVC 230000Z VRB06KT CAVOK 12/M07 Q1008 RMK PP000,SAVC,2022-10-23T00:00:00Z,-45.78,-67.47,12.0,-7.0,0,6,,6.21,29.763779,,,,,,,,,,,CAVOK,,,,,,,,VFR,,,,,,,,,,,,METAR,58.0
SASA 230000Z 12005KT 9999 OVC050 20/09 Q1022 RMK PP000,SASA,2022-10-23T00:00:00Z,-24.85,-65.48,20.0,9.0,120,5,,6.21,30.177166,,,,,,,,,,,OVC,5000,,,,,,,VFR,,,,,,,,,,,,METAR,1235.0
SARP 230000Z 18003KT CAVOK 22/16 Q1016,SARP,2022-10-23T00:00:00Z,-27.38,-55.97,22.0,16.0,180,3,,6.21,30.0,,,,,,,,,,,CAVOK,,,,,,,,VFR,,,,,,,,,,,,METAR,123.0
SARL 230000Z 18017KT 9999 FEW016 20/17 Q1018,SARL,2022-10-23T00:00:00Z,-29.68,-57.15,20.0,17.0,180,17,,6.21,30.059055,,,,,,,,,,,FEW,1600,,,,,,,VFR,,,,,,,,,,,,METAR,70.0
SARI 230000Z 17003KT 140V210 CAVOK 21/17 Q1015 RMK PP000,SARI,2022-10-23T00:00:00Z,-25.73,-54.47,21.0,17.0,170,3,,6.21,29.970472,,,,,,,,,,,CAVOK,,,,,,,,VFR,,,,,,,,,,,,METAR,268.0
SARF 230000Z 14003KT CAVOK 22/17 Q1015,SARF,2022-10-23T00:00:00Z,-26.22,-58.22,22.0,17.0,140,3,,6.21,29.970472,,,,,,,,,,,CAVOK,,,,,,,,VFR,,,,,,,,,,,,METAR,65.0
SARE 230000Z 16005KT CAVOK 23/16 Q1015 RMK PP///,SARE,2022-10-23T00:00:00Z,-27.43,-59.05,23.0,16.0,160,5,,6.21,29.970472,,,,,,,,,,,CAVOK,,,,,,,,VFR,,,,,,,,,,,,METAR,52.0
SARC 230000Z 11005KT CAVOK 23/16 Q1015,SARC,2022-10-23T00:00:00Z,-27.43,-58.77,23.0,16.0,110,5,,6.21,29.970472,,,,,,,,,,,CAVOK,,,,,,,,VFR,,,,,,,,,,,,METAR,60.0
SAOC 230000Z 05010KT CAVOK 12/05 Q1021,SAOC,2022-10-23T00:00:00Z,-33.08,-64.27,12.0,5.0,50,10,,6.21,30.147638,,,,,,,,,,,CAVOK,,,,,,,,VFR,,,,,,,,,,,,METAR,422.0
SANT 230000Z 25003KT 8000 NSC 17/11 Q1019 RMK PP000,SANT,2022-10-23T00:00:00Z,-26.85,-65.1,17.0,11.0,250,3,,4.97,30.088583,,,,,,,,,,,CLR,,,,,,,,MVFR,,,,,,,,,,,,METAR,446.0
SAME 230000Z 00000KT CAVOK 16/07 Q1018,SAME,2022-10-23T00:00:00Z,-32.82,-68.78,16.0,7.0,0,0,,6.21,30.059055,,,,,,,,,,,CAVOK,,,,,,,,VFR,,,,,,,,,,,,METAR,709.0
SAEZ 230000Z 13006KT 9999 FEW039 12/08 Q1023 NOSIG RMK PP000,SAEZ,2022-10-23T00:00:00Z,-34.82,-58.53,12.0,8.0,130,6,,6.21,30.206694,,,,,,TRUE,,,,,FEW,3900,,,,,,,VFR,,,,,,,,,,,,METAR,16.0
SADF 230000Z 16004KT 9999 FEW030 SCT047 14/07 Q1022 RMK PP000,SADF,2022-10-23T00:00:00Z,-34.45,-58.58,14.0,7.0,160,4,,6.21,30.177166,,,,,,,,,,,FEW,3000,SCT,4700,,,,,VFR,,,,,,,,,,,,METAR,4.0
SACO 230000Z 08004KT CAVOK 11/05 Q1022 NOSIG RMK PP000,SACO,2022-10-23T00:00:00Z,-31.32,-64.22,11.0,5.0,80,4,,6.21,30.177166,,,,,,TRUE,,,,,CAVOK,,,,,,,,VFR,,,,,,,,,,,,METAR,474.0
SABE 230000Z 14007KT 110V180 9999 FEW030 BKN048 13/07 Q1022 NOSIG RMK PP000,SABE,2022-10-23T00:00:00Z,-34.57,-58.42,13.0,7.0,140,7,,6.21,30.177166,,,,,,TRUE,,,,,FEW,3000,BKN,4800,,,,,VFR,,,,,,,,,,,,METAR,3.0
SAAR 230000Z 16008KT CAVOK 13/07 Q1021 RMK PP000,SAAR,2022-10-23T00:00:00Z,-32.92,-60.77,13.0,7.0,160,8,,6.21,30.147638,,,,,,,,,,,CAVOK,,,,,,,,VFR,,,,,,,,,,,,METAR,24.0
RPVM 230000Z 02006KT 9999 FEW020 BKN300 29/26 Q1011 RMK A2985,RPVM,2022-10-23T00:00:00Z,10.32,123.98,29.0,26.0,20,6,,6.21,29.852362,,,,,,,,,,,FEW,2000,BKN,30000,,,,,VFR,,,,,,,,,,,,METAR,9.0
RPMZ 230000Z 25006KT 220V290 9000 FEW016CB BKN090 27/23 Q1012 RMK A2988 CB SE-W,RPMZ,2022-10-23T00:00:00Z,6.92,122.07,27.0,23.0,250,6,,5.59,29.88189,,,,,,,,,,,FEW,1600,BKN,9000,,,,,VFR,,,,,,,,,,,,METAR,8.0
RPMD 230000Z 01006KT 330V030 9999 FEW016 BKN090 BKN260 27/26 Q1011 RMK A2985,RPMD,2022-10-23T00:00:00Z,7.12,125.65,27.0,26.0,10,6,,6.21,29.852362,,,,,,,,,,,FEW,1600,BKN,9000,BKN,26000,,,VFR,,,,,,,,,,,,METAR,19.0
RPLL 230000Z VRB02KT 9999 FEW025 BKN100 29/24 Q1012 NOSIG RMK A2988,RPLL,2022-10-23T00:00:00Z,14.52,121.0,29.0,24.0,0,2,,6.21,29.88189,,,,,,TRUE,,,,,FEW,2500,BKN,10000,,,,,VFR,,,,,,,,,,,,METAR,15.0
RPLI 230000Z 09003KT 050V150 9999 FEW018 28/25 Q1012 NOSIG RMK A2988,RPLI,2022-10-23T00:00:00Z,18.17,120.52,28.0,25.0,90,3,,6.21,29.88189,,,,,,TRUE,,,,,FEW,1800,,,,,,,VFR,,,,,,,,,,,,METAR,5.0
RPLB 230000Z 05004KT 360V090 9999 FEW020 SCT080 27/24 Q1013 RMK A2991,RPLB,2022-10-23T00:00:00Z,14.8,120.27,27.0,24.0,50,4,,6.21,29.911417,,,,,,,,,,,FEW,2000,SCT,8000,,,,,VFR,,,,,,,,,,,,METAR,19.0
RORY 230000Z AUTO 36004KT 310V050 9999 SCT008 25/23 Q1011,RORY,2022-10-23T00:00:00Z,27.05,128.4,25.0,23.0,360,4,,6.21,29.852362,,,TRUE,,,,,,,,SCT,800,,,,,,,VFR,,,,,,,,,,,,METAR,13.0
RORS 230000Z 01014KT 9999 -SHRA FEW011 SCT030 BKN140 25/24 Q1014,RORS,2022-10-23T00:00:00Z,24.82,125.15,25.0,24.0,10,14,,6.21,29.940945,,,,,,,,,,-SHRA,FEW,1100,SCT,3000,BKN,14000,,,VFR,,,,,,,,,,,,METAR,13.0
RORK 230000Z AUTO 24005KT 210V280 9999 FEW028 SCT034 BKN037 //////CB 27/26 Q1012,RORK,2022-10-23T00:00:00Z,25.93,131.32,27.0,26.0,240,5,,6.21,29.88189,,,TRUE,,,,,,,,FEW,2800,SCT,3400,BKN,3700,,,VFR,,,,,,,,,,,,METAR,11.0
ROMY 230000Z 36007KT 330V030 9999 -SHRA FEW008 SCT014 BKN070 25/24 Q1014,ROMY,2022-10-23T00:00:00Z,24.78,125.27,25.0,24.0,360,7,,6.21,29.940945,,,,,,,,,,-SHRA,FEW,800,SCT,1400,BKN,7000,,,VFR,,,,,,,,,,,,METAR,38.0
RKTU 230000Z 33001KT 4800 BR FEW010 BKN030 14/13 Q1019,RKTU,2022-10-23T00:00:00Z,36.7,127.5,14.0,13.0,330,1,,2.98,30.088583,,,,,,,,,,BR,FEW,1000,BKN,3000,,,,,IFR,,,,,,,,,,,,METAR,46.0
RKTN 230000Z 30002KT 9999 FEW040 15/10 Q1018,RKTN,2022-10-23T00:00:00Z,35.88,128.65,15.0,10.0,300,2,,6.21,30.059055,,,,,,,,,,,FEW,4000,,,,,,,VFR,,,,,,,,,,,,METAR,25.0
RKSS 230000Z 33010KT CAVOK 12/08 Q1020 NOSIG,RKSS,2022-10-23T00:00:00Z,37.55,126.78,12.0,8.0,330,10,,6.21,30.11811,,,,,,TRUE,,,,,CAVOK,,,,,,,,VFR,,,,,,,,,,,,METAR,18.0
RKSM 230000Z 30007KT 9999 SKC 13/10 A3013,RKSM,2022-10-23T00:00:00Z,37.43,127.12,13.0,10.0,300,7,,6.21,30.129921,,,,,,,,,,,SKC,,,,,,,,VFR,,,,,,,,,,,,METAR,18.0
RKPK 230000Z 05004KT CAVOK 16/09 Q1018,RKPK,2022-10-23T00:00:00Z,35.17,128.93,16.0,9.0,50,4,,6.21,30.059055,,,,,,,,,,,CAVOK,,,,,,,,VFR,,,,,,,,,,,,METAR,3.0
RKPC 230000Z 33005KT 290V360 7000 BKN030 18/14 Q1020 NOSIG,RKPC,2022-10-23T00:00:00Z,33.5,126.48,18.0,14.0,330,5,,4.35,30.11811,,,,,,TRUE,,,,,BKN,3000,,,,,,,MVFR,,,,,,,,,,,,METAR,23.0
RKNY 230000Z 02010KT 4000 -RA BR BKN010 OVC025 12/11 Q1020 NOSIG,RKNY,2022-10-23T00:00:00Z,38.07,128.67,12.0,11.0,20,10,,2.49,30.11811,,,,,,TRUE,,,,-RA BR,BKN,1000,OVC,2500,,,,,IFR,,,,,,,,,,,,METAR,76.0
RKJB 230000Z 34011KT CAVOK 16/10 Q1020 NOSIG,RKJB,2022-10-23T00:00:00Z,34.98,126.38,16.0,10.0,340,11,,6.21,30.11811,,,,,,TRUE,,,,,CAVOK,,,,,,,,VFR,,,,,,,,,,,,METAR,16.0
RJTO 230000Z 24008KT 190V280 9999 FEW025 23/16 Q1011,RJTO,2022-10-23T00:00:00Z,34.77,139.37,23.0,16.0,240,8,,6.21,29.852362,,,,,,,,,,,FEW,2500,,,,,,,VFR,,,,,,,,,,,,METAR,37.0
RJTI 230000Z 32004KT 250V030 CAVOK 19/12 Q1011,RJTI,2022-10-23T00:00:00Z,35.63,139.83,19.0,12.0,320,4,,6.21,29.852362,,,,,,,,,,,CAVOK,,,,,,,,VFR,,,,,,,,,,,,METAR,4.0
RJTF 230000Z 34003KT 300V030 9999 FEW030 18/11 Q1011,RJTF,2022-10-23T00:00:00Z,35.67,139.52,18.0,11.0,340,3,,6.21,29.852362,,,,,,,,,,,FEW,3000,,,,,,,VFR,,,,,,,,,,,,METAR,37.0
RJSY 230000Z VRB01KT 9999 FEW010 SCT030 BKN050 17/13 Q1012,RJSY,2022-10-23T00:00:00Z,38.82,139.78,17.0,13.0,0,1,,6.21,29.88189,,,,,,,,,,,FEW,1000,SCT,3000,BKN,5000,,,VFR,,,,,,,,,,,,METAR,17.0
RJSS 230000Z 06004KT 9999 FEW020 SCT050 BKN100 18/15 Q1011,RJSS,2022-10-23T00:00:00Z,38.13,140.92,18.0,15.0,60,4,,6.21,29.852362,,,,,,,,,,,FEW,2000,SCT,5000,BKN,10000,,,VFR,,,,,,,,,,,,METAR,5.0
RJSN 230000Z 21008KT 9999 VCSH FEW015 SCT020 BKN030 18/16 Q1013,RJSN,2022-10-23T00:00:00Z,37.95,139.12,18.0,16.0,210,8,,6.21,29.911417,,,,,,,,,,VCSH,FEW,1500,SCT,2000,BKN,3000,,,MVFR,,,,,,,,,,,,METAR,4.0
RJSM 230000Z 30007KT 9999 FEW020 BKN050 BKN070 14/08 Q1012,RJSM,2022-10-23T00:00:00Z,40.7,141.37,14.0,8.0,300,7,,6.21,29.88189,,,,,,,,,,,FEW,2000,BKN,5000,BKN,7000,,,VFR,,,,,,,,,,,,METAR,31.0
RJSK 230000Z 28004KT 200V320 9999 FEW000 SCT002 14/14 Q1012,RJSK,2022-10-23T00:00:00Z,39.62,140.22,14.0,14.0,280,4,,6.21,29.88189,,,,,,,,,,,FEW,0,SCT,200,,,,,VFR,,,,,,,,,,,,METAR,95.0
RJSF 230000Z 36012KT 9999 FEW020 BKN/// 16/12 Q1012,RJSF,2022-10-23T00:00:00Z,37.22,140.42,16.0,12.0,360,12,,6.21,29.88189,,,,,,,,,,,FEW,2000,,,,,,,VFR,,,,,,,,,,,,METAR,373.0
RJSA 230000Z 21004KT 9999 -SHRA FEW005 SCT010 BKN040 10/09 Q1012,RJSA,2022-10-23T00:00:00Z,40.72,140.68,10.0,9.0,210,4,,6.21,29.88189,,,,,,,,,,-SHRA,FEW,500,SCT,1000,BKN,4000,,,VFR,,,,,,,,,,,,METAR,196.0
RJOY 230000Z VRB01KT 9999 FEW005 SCT070 21/18 Q1014,RJOY,2022-10-23T00:00:00Z,34.6,135.6,21.0,18.0,0,1,,6.21,29.940945,,,,,,,,,,,FEW,500,SCT,7000,,,,,VFR,,,,,,,,,,,,METAR,10.0
RJOW 230000Z 16005KT 9999 FEW025 SCT/// 19/16 Q1015,RJOW,2022-10-23T00:00:00Z,34.67,131.8,19.0,16.0,160,5,,6.21,29.970472,,,,,,,,,,,FEW,2500,,,,,,,VFR,,,,,,,,,,,,METAR,54.0
RJOT 230000Z 27004KT 240V300 9999 FEW015 SCT025 BKN050 19/18 Q1016,RJOT,2022-10-23T00:00:00Z,34.22,134.02,19.0,18.0,270,4,,6.21,30.0,,,,,,,,,,,FEW,1500,SCT,2500,BKN,5000,,,VFR,,,,,,,,,,,,METAR,181.0
RJOS 230000Z 29005KT 9999 FEW030 SCT045 20/17 Q1014,RJOS,2022-10-23T00:00:00Z,34.12,134.62,20.0,17.0,290,5,,6.21,29.940945,,,,,,,,,,,FEW,3000,SCT,4500,,,,,VFR,,,,,,,,,,,,METAR,3.0
RJOR 230000Z 16003KT 130V210 9999 FEW025 BKN/// 18/13 Q1015,RJOR,2022-10-23T00:00:00Z,35.52,134.17,18.0,13.0,160,3,,6.21,29.970472,,,,,,,,,,,FEW,2500,,,,,,,VFR,,,,,,,,,,,,METAR,11.0
RJOO 230000Z 34006KT 9999 FEW015 21/16 Q1014 RMK 1CU015 A2996,RJOO,2022-10-23T00:00:00Z,34.78,135.43,21.0,16.0,340,6,,6.21,29.940945,,,,,,,,,,,FEW,1500,,,,,,,VFR,,,,,,,,,,,,METAR,11.0
RJOM 230000Z 29007KT 9999 FEW015 22/15 Q1015,RJOM,2022-10-23T00:00:00Z,33.82,132.68,22.0,15.0,290,7,,6.21,29.970472,,,,,,,,,,,FEW,1500,,,,,,,VFR,,,,,,,,,,,,METAR,3.0
RJOK 230000Z 36006KT 320V040 9999 FEW025 22/15 Q1014,RJOK,2022-10-23T00:00:00Z,33.53,133.67,22.0,15.0,360,6,,6.21,29.940945,,,,,,,,,,,FEW,2500,,,,,,,VFR,,,,,,,,,,,,METAR,7.0
RJOH 230000Z 19003KT 9999 FEW030 BKN300 16/14 Q1015,RJOH,2022-10-23T00:00:00Z,35.48,133.25,16.0,14.0,190,3,,6.21,29.970472,,,,,,,,,,,FEW,3000,BKN,30000,,,,,VFR,,,,,,,,,,,,METAR,6.0
RJOC 230000Z 17005KT 9999 FEW020 SCT/// 17/14 Q1015,RJOC,2022-10-23T00:00:00Z,35.42,132.88,17.0,14.0,170,5,,6.21,29.970472,,,,,,,,,,,FEW,2000,,,,,,,VFR,,,,,,,,,,,,METAR,2.0
RJOB 230000Z VRB03KT 9999 FEW020 SCT/// 18/11 Q1015,RJOB,2022-10-23T00:00:00Z,34.75,133.85,18.0,11.0,0,3,,6.21,29.970472,,,,,,,,,,,FEW,2000,,,,,,,VFR,,,,,,,,,,,,METAR,242.0
RJOA 230000Z 30005KT 9999 FEW025 18/10 Q1016,RJOA,2022-10-23T00:00:00Z,34.43,132.92,18.0,10.0,300,5,,6.21,30.0,,,,,,,,,,,FEW,2500,,,,,,,VFR,,,,,,,,,,,,METAR,318.0
RJNW 230000Z 22004KT 9999 FEW010 SCT025 BKN/// 17/15 Q1014,RJNW,2022-10-23T00:00:00Z,37.3,136.97,17.0,15.0,220,4,,6.21,29.940945,,,,,,,,,,,FEW,1000,SCT,2500,,,,,VFR,,,,,,,,,,,,METAR,222.0
RJNT 230000Z VRB02KT 9999 FEW020 SCT/// 19/14 Q1014,RJNT,2022-10-23T00:00:00Z,36.63,137.18,19.0,14.0,0,2,,6.21,29.940945,,,,,,,,,,,FEW,2000,,,,,,,VFR,,,,,,,,,,,,METAR,30.0
RJNS 230000Z 25010KT 9999 FEW030 BKN070 21/13 Q1012,RJNS,2022-10-23T00:00:00Z,34.8,138.18,21.0,13.0,250,10,,6.21,29.88189,,,,,,,,,,,FEW,3000,BKN,7000,,,,,VFR,,,,,,,,,,,,METAR,133.0
RJNK 230000Z 18008KT 9999 SCT030 21/14 Q1014,RJNK,2022-10-23T00:00:00Z,36.38,136.42,21.0,14.0,180,8,,6.21,29.940945,,,,,,,,,,,SCT,3000,,,,,,,VFR,,,,,,,,,,,,METAR,7.0
RJKI 230000Z AUTO 06009KT 9999 FEW013 BKN044 OVC060 //////CB 24/23 Q1013,RJKI,2022-10-23T00:00:00Z,28.32,129.92,24.0,23.0,60,9,,6.21,29.911417,,,TRUE,,,,,,,,FEW,1300,BKN,4400,OVC,6000,,,VFR,,,,,,,,,,,,METAR,6.0
RJFU 230000Z 31005KT 9999 FEW025 22/16 Q1016,RJFU,2022-10-23T00:00:00Z,32.92,129.92,22.0,16.0,310,5,,6.21,30.0,,,,,,,,,,,FEW,2500,,,,,,,VFR,,,,,,,,,,,,METAR,2.0
RJFT 230000Z VRB03KT 9999 FEW020 SCT040 BKN050 20/17 Q1016,RJFT,2022-10-23T00:00:00Z,32.83,130.85,20.0,17.0,0,3,,6.21,30.0,,,,,,,,,,,FEW,2000,SCT,4000,BKN,5000,,,VFR,,,,,,,,,,,,METAR,188.0
RJFS 230000Z VRB01KT 9999 FEW035 SCT/// 21/18 Q1016,RJFS,2022-10-23T00:00:00Z,33.15,130.3,21.0,18.0,0,1,,6.21,30.0,,,,,,,,,,,FEW,3500,,,,,,,VFR,,,,,,,,,,,,METAR,2.0
RJFR 230000Z 03005KT 9999 FEW020 SCT035 21/18 Q1016,RJFR,2022-10-23T00:00:00Z,33.83,131.03,21.0,18.0,30,5,,6.21,30.0,,,,,,,,,,,FEW,2000,SCT,3500,,,,,VFR,,,,,,,,,,,,METAR,9.0
RJFO 230000Z 26003KT 190V340 9999 FEW025 21/17 Q1015,RJFO,2022-10-23T00:00:00Z,33.47,131.73,21.0,17.0,260,3,,6.21,29.970472,,,,,,,,,,,FEW,2500,,,,,,,VFR,,,,,,,,,,,,METAR,3.0
RJFM 230000Z 32006KT 9999 FEW030 SCT090 23/17 Q1015,RJFM,2022-10-23T00:00:00Z,31.87,131.43,23.0,17.0,320,6,,6.21,29.970472,,,,,,,,,,,FEW,3000,SCT,9000,,,,,VFR,,,,,,,,,,,,METAR,10.0
RJFK 230000Z 33005KT 280V360 9999 FEW010 21/17 Q1016 RMK 1CU010 A3001,RJFK,2022-10-23T00:00:00Z,31.8,130.72,21.0,17.0,330,5,,6.21,30.0,,,,,,,,,,,FEW,1000,,,,,,,VFR,,,,,,,,,,,,METAR,271.0
RJFG 230000Z 31004KT 9999 -RA FEW020 BKN060 20/19 Q1016,RJFG,2022-10-23T00:00:00Z,30.62,130.98,20.0,19.0,310,4,,6.21,30.0,,,,,,,,,,-RA,FEW,2000,BKN,6000,,,,,VFR,,,,,,,,,,,,METAR,234.0
RJFE 230000Z 34011KT 9999 FEW025 20/14 Q1017,RJFE,2022-10-23T00:00:00Z,32.67,128.82,20.0,14.0,340,11,,6.21,30.029528,,,,,,,,,,,FEW,2500,,,,,,,VFR,,,,,,,,,,,,METAR,80.0
RJEC 230000Z 18006KT 9999 -SHRA FEW004 SCT015 BKN020 08/07 Q1009,RJEC,2022-10-23T00:00:00Z,43.67,142.43,8.0,7.0,180,6,,6.21,29.793306,,,,,,,,,,-SHRA,FEW,400,SCT,1500,BKN,2000,,,MVFR,,,,,,,,,,,,METAR,209.0
RJEB 230000Z 32009KT 9999 -SHRA FEW012 BKN015 BKN020 09/09 Q1010,RJEB,2022-10-23T00:00:00Z,44.3,143.4,9.0,9.0,320,9,,6.21,29.822834,,,,,,,,,,-SHRA,FEW,1200,BKN,1500,BKN,2000,,,MVFR,,,,,,,,,,,,METAR,24.0
RJDT 230000Z 34005KT 300V020 9999 FEW025 19/13 Q1017,RJDT,2022-10-23T00:00:00Z,34.28,129.32,19.0,13.0,340,5,,6.21,30.029528,,,,,,,,,,,FEW,2500,,,,,,,VFR,,,,,,,,,,,,METAR,61.0
RJDC 230000Z 34005KT 300V030 9999 FEW020 21/15 Q1015,RJDC,2022-10-23T00:00:00Z,33.92,131.27,21.0,15.0,340,5,,6.21,29.970472,,,,,,,,,,,FEW,2000,,,,,,,VFR,,,,,,,,,,,,METAR,5.0
RJDB 230000Z AUTO 34003KT 290V050 9999 FEW033 22/16 Q1016,RJDB,2022-10-23T00:00:00Z,33.75,129.78,22.0,16.0,340,3,,6.21,30.0,,,TRUE,,,,,,,,FEW,3300,,,,,,,VFR,,,,,,,,,,,,METAR,13.0
RJCW 230000Z 06011KT 9999 FEW015 SCT025 BKN035 07/04 Q1011,RJCW,2022-10-23T00:00:00Z,45.4,141.8,7.0,4.0,60,11,,6.21,29.852362,,,,,,,,,,,FEW,1500,SCT,2500,BKN,3500,,,VFR,,,,,,,,,,,,METAR,11.0
RJCN 230000Z VRB02KT 9999 FEW020 13/06 Q1008,RJCN,2022-10-23T00:00:00Z,43.57,144.97,13.0,6.0,0,2,,6.21,29.763779,,,,,,,,,,,FEW,2000,,,,,,,VFR,,,,,,,,,,,,METAR,62.0
RJCM 230000Z 33007KT 270V360 9999 FEW015 SCT030 BKN070 10/06 Q1010,RJCM,2022-10-23T00:00:00Z,43.88,144.17,10.0,6.0,330,7,,6.21,29.822834,,,,,,,,,,,FEW,1500,SCT,3000,BKN,7000,,,VFR,,,,,,,,,,,,METAR,30.0
RJCK 230000Z 10003KT 020V180 9999 FEW050 SCT100 13/07 Q1009,RJCK,2022-10-23T00:00:00Z,43.03,144.18,13.0,7.0,100,3,,6.21,29.793306,,,,,,,,,,,FEW,5000,SCT,10000,,,,,VFR,,,,,,,,,,,,METAR,94.0
RJCH 230000Z 27010KT 9999 FEW020 BKN040 BKN080 12/04 Q1012,RJCH,2022-10-23T00:00:00Z,41.77,140.82,12.0,4.0,270,10,,6.21,29.88189,,,,,,,,,,,FEW,2000,BKN,4000,BKN,8000,,,VFR,,,,,,,,,,,,METAR,36.0
RJCB 230000Z 03004KT 350V090 9999 FEW040 12/06 Q1009,RJCB,2022-10-23T00:00:00Z,42.72,143.22,12.0,6.0,30,4,,6.21,29.793306,,,,,,,,,,,FEW,4000,,,,,,,VFR,,,,,,,,,,,,METAR,149.0
RJBE 230000Z 25004KT 190V300 9999 FEW015 22/16 Q1014,RJBE,2022-10-23T00:00:00Z,34.63,135.23,22.0,16.0,250,4,,6.21,29.940945,,,,,,,,,,,FEW,1500,,,,,,,VFR,,,,,,,,,,,,METAR,5.0
RJBD 230000Z 34009KT 9999 FEW030 22/18 Q1014,RJBD,2022-10-23T00:00:00Z,33.67,135.37,22.0,18.0,340,9,,6.21,29.940945,,,,,,,,,,,FEW,3000,,,,,,,VFR,,,,,,,,,,,,METAR,91.0
RJAW 230000Z 29005KT 250V340 9999 SCT015 29/24 Q1013 RMK 3CU015 A2992,RJAW,2022-10-23T00:00:00Z,24.78,141.32,29.0,24.0,290,5,,6.21,29.911417,,,,,,,,,,,SCT,1500,,,,,,,VFR,,,,,,,,,,,,METAR,116.0
RJAH 230000Z VRB01KT 8000 FEW030 BKN250 18/14 Q1011,RJAH,2022-10-23T00:00:00Z,36.17,140.42,18.0,14.0,0,1,,4.97,29.852362,,,,,,,,,,,FEW,3000,BKN,25000,,,,,MVFR,,,,,,,,,,,,METAR,31.0
RJAF 230000Z 35003KT 320V020 9999 FEW005 SCT060 10/09 Q1014,RJAF,2022-10-23T00:00:00Z,36.17,137.92,10.0,9.0,350,3,,6.21,29.940945,,,,,,,,,,,FEW,500,SCT,6000,,,,,VFR,,,,,,,,,,,,METAR,652.0
PLCH 230000Z 11009KT 9999 SCT019 SCT042 29/22 Q1008,PLCH,2022-10-23T00:00:00Z,1.98,-157.35,29.0,22.0,110,9,,6.21,29.763779,,,,,,,,,,,SCT,1900,SCT,4200,,,,,VFR,,,,,,,,,,,,METAR,5.0
PHLI 230000Z 07012KT 10SM SCT018 29/23 A3002 RMK AO2 T02890233 $,PHLI,2022-10-23T00:00:00Z,21.97,-159.33,28.9,23.3,70,12,,10.0,30.02067,,,,TRUE,TRUE,,,,,,SCT,1800,,,,,,,VFR,,,,,,,,,,,,SPECI,32.0
OTHH 230000Z AUTO 22002KT CAVOK 25/22 Q1014 NOSIG,OTHH,2022-10-23T00:00:00Z,25.27,51.6,25.0,22.0,220,2,,6.21,29.940945,,,TRUE,,,TRUE,,,,,CAVOK,,,,,,,,VFR,,,,,,,,,,,,METAR,3.0
ORSU 230000Z 30005KT CAVOK 17/17 Q1021,ORSU,2022-10-23T00:00:00Z,35.57,45.32,17.0,17.0,300,5,,6.21,30.147638,,,,,,,,,,,CAVOK,,,,,,,,VFR,,,,,,,,,,,,METAR,760.0
ORMM 230000Z 12008KT 0300 FG NSC 25/25 Q1015 NOSIG,ORMM,2022-10-23T00:00:00Z,30.53,47.67,25.0,25.0,120,8,,0.19,29.970472,,,,,,TRUE,,,,FG,CLR,,,,,,,,LIFR,,,,,,,,,,,,METAR,2.0
ORBI 230000Z 32006KT 9999 SCT035 20/12 Q1014,ORBI,2022-10-23T00:00:00Z,33.27,44.23,20.0,12.0,320,6,,6.21,29.940945,,,,,,,,,,,SCT,3500,,,,,,,VFR,,,,,,,,,,,,METAR,37.0
OPST 230000Z 00000KT 4000 FU NSC 17/14 Q1017 NOSIG 80%,OPST,2022-10-23T00:00:00Z,32.53,74.37,17.0,14.0,0,0,,2.49,30.029528,,,,,,TRUE,,,,FU,CLR,,,,,,,,IFR,,,,,,,,,,,,METAR,234.0
OPSK 230000Z 00000KT 3000 HZ NSC 21/18 Q1014 NOSIG,OPSK,2022-10-23T00:00:00Z,27.72,68.8,21.0,18.0,0,0,,1.86,29.940945,,,,,,TRUE,,,,HZ,CLR,,,,,,,,IFR,,,,,,,,,,,,METAR,62.0
OMSJ 230000Z 09004KT CAVOK 23/20 Q1015 NOSIG,OMSJ,2022-10-23T00:00:00Z,25.32,55.52,23.0,20.0,90,4,,6.21,29.970472,,,,,,TRUE,,,,,CAVOK,,,,,,,,VFR,,,,,,,,,,,,METAR,33.0
OMRK 230000Z 21003KT CAVOK 20/17 Q1015 A3000,OMRK,2022-10-23T00:00:00Z,25.62,55.93,20.0,17.0,210,3,,6.21,29.970472,,,,,,,,,,,CAVOK,,,,,,,,VFR,,,,,,,,,,,,METAR,18.0
OMFJ 230000Z 29005KT 6000 NSC 26/22 Q1015 A2999,OMFJ,2022-10-23T00:00:00Z,25.1,56.32,26.0,22.0,290,5,,3.73,29.970472,,,,,,,,,,,CLR,,,,,,,,MVFR,,,,,,,,,,,,METAR,27.0
OMDW 230000Z 11007KT 4000 HZ NSC 23/22 Q1016 BECMG 3000,OMDW,2022-10-23T00:00:00Z,24.9,55.17,23.0,22.0,110,7,,2.49,30.0,,,,,,,,,,HZ,CLR,,,,,,,,IFR,,,,,,,,,,,,METAR,34.0
OMDB 230000Z 12006KT CAVOK 28/19 Q1015 NOSIG,OMDB,2022-10-23T00:00:00Z,25.25,55.37,28.0,19.0,120,6,,6.21,29.970472,,,,,,TRUE,,,,,CAVOK,,,,,,,,VFR,,,,,,,,,,,,METAR,5.0
OMAL 230000Z 16010KT CAVOK 26/14 Q1017 NOSIG,OMAL,2022-10-23T00:00:00Z,24.25,55.6,26.0,14.0,160,10,,6.21,30.029528,,,,,,TRUE,,,,,CAVOK,,,,,,,,VFR,,,,,,,,,,,,METAR,247.0
OMAD 230000Z 27001KT CAVOK 27/24 Q1015 NOSIG,OMAD,2022-10-23T00:00:00Z,24.42,54.47,27.0,24.0,270,1,,6.21,29.970472,,,,,,TRUE,,,,,CAVOK,,,,,,,,VFR,,,,,,,,,,,,METAR,9.0
OMAA 230000Z VRB03KT 8000 NSC 26/23 Q1014 NOSIG,OMAA,2022-10-23T00:00:00Z,24.42,54.65,26.0,23.0,0,3,,4.97,29.940945,,,,,,TRUE,,,,,CLR,,,,,,,,MVFR,,,,,,,,,,,,METAR,13.0
OLBA 230000Z 11004KT 8000 NSC 23/16 Q1019 NOSIG,OLBA,2022-10-23T00:00:00Z,33.82,35.48,23.0,16.0,110,4,,4.97,30.088583,,,,,,TRUE,,,,,CLR,,,,,,,,MVFR,,,,,,,,,,,,METAR,29.0
OKBK 230000Z 00000KT 5000 HZ NSC 21/17 Q1015 NOSIG,OKBK,2022-10-23T00:00:00Z,29.22,47.97,21.0,17.0,0,0,,3.11,29.970472,,,,,,TRUE,,,,HZ,CLR,,,,,,,,MVFR,,,,,,,,,,,,METAR,55.0
OJAQ 230000Z 35006KT 5000 HZ NSC 23/17 Q1015 NOSIG,OJAQ,2022-10-23T00:00:00Z,29.62,35.02,23.0,17.0,350,6,,3.11,29.970472,,,,,,TRUE,,,,HZ,CLR,,,,,,,,MVFR,,,,,,,,,,,,METAR,45.0
OJAM 230000Z 00000KT 6000 NSC 16/13 Q1020 NOSIG,OJAM,2022-10-23T00:00:00Z,31.98,35.98,16.0,13.0,0,0,,3.73,30.11811,,,,,,TRUE,,,,,CLR,,,,,,,,MVFR,,,,,,,,,,,,METAR,765.0
OJAI 230000Z 00000KT 6000 NSC 14/09 Q1019 NOSIG,OJAI,2022-10-23T00:00:00Z,31.72,36.0,14.0,9.0,0,0,,3.73,30.088583,,,,,,TRUE,,,,,CLR,,,,,,,,MVFR,,,,,,,,,,,,METAR,723.0
OIZJ 230000Z 25002KT 6000 NSC 25/23 Q1014,OIZJ,2022-10-23T00:00:00Z,25.65,57.8,25.0,23.0,250,2,,3.73,29.940945,,,,,,,,,,,CLR,,,,,,,,MVFR,,,,,,,,,,,,METAR,6.0
OIZI 230000Z 04004KT CAVOK 21/M01 Q1020,OIZI,2022-10-23T00:00:00Z,27.23,60.72,21.0,-1.0,40,4,,6.21,30.11811,,,,,,,,,,,CAVOK,,,,,,,,VFR,,,,,,,,,,,,METAR,622.0
OIZH 230000Z 19004KT CAVOK 10/M09 Q1024 A3027,OIZH,2022-10-23T00:00:00Z,29.47,60.92,10.0,-9.0,190,4,,6.21,30.236221,,,,,,,,,,,CAVOK,,,,,,,,VFR,,,,,,,,,,,,METAR,1378.0
OIZB 230000Z 34018KT CAVOK 19/10 Q1019,OIZB,2022-10-23T00:00:00Z,31.1,61.55,19.0,10.0,340,18,,6.21,30.088583,,,,,,,,,,,CAVOK,,,,,,,,VFR,,,,,,,,,,,,METAR,483.0
OITR 230000Z 14004KT 9999 FEW035CB SCT040 BKN090 09/09 Q1023,OITR,2022-10-23T00:00:00Z,37.67,45.07,9.0,9.0,140,4,,6.21,30.206694,,,,,,,,,,,FEW,3500,SCT,4000,BKN,9000,,,VFR,,,,,,,,,,,,METAR,1312.0
OITP 230000Z 17004KT 8000 BKN035 OVC070 12/12 Q1028,OITP,2022-10-23T00:00:00Z,39.6,47.88,12.0,12.0,170,4,,4.97,30.35433,,,,,,,,,,,BKN,3500,OVC,7000,,,,,MVFR,,,,,,,,,,,,METAR,72.0
OITM 230000Z 08006KT 9999 FEW035 SCT170 11/08 Q1022,OITM,2022-10-23T00:00:00Z,37.35,46.15,11.0,8.0,80,6,,6.21,30.177166,,,,,,,,,,,FEW,3500,SCT,17000,,,,,VFR,,,,,,,,,,,,METAR,1340.0
OITL 230000Z 18004KT 8000 VCFG SCT004 BKN030 FEW040CB BKN070 08/08 Q1026,OITL,2022-10-23T00:00:00Z,38.33,48.42,8.0,8.0,180,4,,4.97,30.295275,,,,,,,,,,VCFG,SCT,400,BKN,3000,FEW,4000,BKN,7000,MVFR,,,,,,,,,,,,METAR,1314.0
OISY 230000Z 00000KT CAVOK 10/M04 Q1029,OISY,2022-10-23T00:00:00Z,30.7,51.55,10.0,-4.0,0,0,,6.21,30.383858,,,,,,,,,,,CAVOK,,,,,,,,VFR,,,,,,,,,,,,METAR,1800.0
OISL 230000Z 25006KT CAVOK 19/06 Q1019 A3010,OISL,2022-10-23T00:00:00Z,27.67,54.37,19.0,6.0,250,6,,6.21,30.088583,,,,,,,,,,,CAVOK,,,,,,,,VFR,,,,,,,,,,,,METAR,804.0
OISF 230000Z 32004KT CAVOK 11/M03 Q1024 A3026,OISF,2022-10-23T00:00:00Z,28.9,53.72,11.0,-3.0,320,4,,6.21,30.236221,,,,,,,,,,,CAVOK,,,,,,,,VFR,,,,,,,,,,,,METAR,1305.0
OINR 230000Z 32006KT 9999 SCT025 OVC080 16/15 Q1025,OINR,2022-10-23T00:00:00Z,36.9,50.67,16.0,15.0,320,6,,6.21,30.265747,,,,,,,,,,,SCT,2500,OVC,8000,,,,,VFR,,,,,,,,,,,,METAR,-19.0
OINN 230000Z 26002KT 9999 FEW022CB BKN026 OVC080 16/16 Q1024,OINN,2022-10-23T00:00:00Z,36.67,51.47,16.0,16.0,260,2,,6.21,30.236221,,,,,,,,,,,FEW,2200,BKN,2600,OVC,8000,,,MVFR,,,,,,,,,,,,METAR,-25.0
OING 230000Z 00000KT 2000 BR FEW030 SCT090 15/14 Q1026,OING,2022-10-23T00:00:00Z,36.9,54.4,15.0,14.0,0,0,,1.24,30.295275,,,,,,,,,,BR,FEW,3000,SCT,9000,,,,,IFR,,,,,,,,,,,,METAR,0.0
OINE 230000Z 00000KT CAVOK 15/14 Q1024,OINE,2022-10-23T00:00:00Z,37.38,55.45,15.0,14.0,0,0,,6.21,30.236221,,,,,,,,,,,CAVOK,,,,,,,,VFR,,,,,,,,,,,,METAR,125.0
OIMT 230000Z AUTO 11002KT //// // ////// 19/M05 Q1019,OIMT,2022-10-23T00:00:00Z,33.67,56.88,19.0,-5.0,110,2,,,30.088583,,,TRUE,,,,,,,,,,,,,,,,,,,,,,,,,,,,METAR,693.0
OIMS 230000Z 08016KT CAVOK 15/11 Q1026,OIMS,2022-10-23T00:00:00Z,36.17,57.6,15.0,11.0,80,16,,6.21,30.295275,,,,,,,,,,,CAVOK,,,,,,,,VFR,,,,,,,,,,,,METAR,920.0
OIMN 230000Z 32008KT 9999 FEW015 BKN060 13/11 Q1027,OIMN,2022-10-23T00:00:00Z,37.48,57.3,13.0,11.0,320,8,,6.21,30.324802,,,,,,,,,,,FEW,1500,BKN,6000,,,,,VFR,,,,,,,,,,,,METAR,1065.0
OIMJ 230000Z AUTO 03011KT //// // ////// 12/08 Q1026,OIMJ,2022-10-23T00:00:00Z,36.43,55.1,12.0,8.0,30,11,,,30.295275,,,TRUE,,,,,,,,,,,,,,,,,,,,,,,,,,,,METAR,1285.0
OIMB 230000Z 11006KT CAVOK 10/M11 Q1024 A3026,OIMB,2022-10-23T00:00:00Z,32.9,59.28,10.0,-11.0,110,6,,6.21,30.236221,,,,,,,,,,,CAVOK,,,,,,,,VFR,,,,,,,,,,,,METAR,1512.0
OIKQ 230000Z 12006KT 6000 NSC 23/21 Q1015,OIKQ,2022-10-23T00:00:00Z,26.75,55.9,23.0,21.0,120,6,,3.73,29.970472,,,,,,,,,,,CLR,,,,,,,,MVFR,,,,,,,,,,,,METAR,9.0
OIKK 230000Z 00000KT CAVOK 08/M08 Q1027 A3034,OIKK,2022-10-23T00:00:00Z,30.25,56.97,8.0,-8.0,0,0,,6.21,30.324802,,,,,,,,,,,CAVOK,,,,,,,,VFR,,,,,,,,,,,,METAR,1749.0
OIKB 230000Z 36004KT 5000 BR NSC 25/22 Q1015 A2999,OIKB,2022-10-23T00:00:00Z,27.22,56.37,25.0,22.0,360,4,,3.11,29.970472,,,,,,,,,,BR,CLR,,,,,,,,MVFR,,,,,,,,,,,,METAR,6.0
OIIP 230000Z 31010KT CAVOK 09/06 Q1023 A3022,OIIP,2022-10-23T00:00:00Z,35.78,50.83,9.0,6.0,310,10,,6.21,30.206694,,,,,,,,,,,CAVOK,,,,,,,,VFR,,,,,,,,,,,,METAR,1270.0
OIIE 230000Z 31005KT CAVOK 14/07 Q1023,OIIE,2022-10-23T00:00:00Z,35.42,51.15,14.0,7.0,310,5,,6.21,30.206694,,,,,,,,,,,CAVOK,,,,,,,,VFR,,,,,,,,,,,,METAR,993.0
OIHM 230000Z 09008KT CAVOK 15/M04 Q1025,OIHM,2022-10-23T00:00:00Z,34.28,48.82,15.0,-4.0,90,8,,6.21,30.265747,,,,,,,,,,,CAVOK,,,,,,,,VFR,,,,,,,,,,,,METAR,1744.0
OIHH 230000Z 04002KT CAVOK 04/00 Q1026 A3031,OIHH,2022-10-23T00:00:00Z,34.87,48.55,4.0,0.0,40,2,,6.21,30.295275,,,,,,,,,,,CAVOK,,,,,,,,VFR,,,,,,,,,,,,METAR,1742.0
OIGG 230000Z 22004KT 4000 -RA SCT007 FEW010CB OVC070 15/15 Q1025,OIGG,2022-10-23T00:00:00Z,37.33,49.6,15.0,15.0,220,4,,2.49,30.265747,,,,,,,,,,-RA,SCT,700,FEW,1000,OVC,7000,,,IFR,,,,,,,,,,,,METAR,-16.0
OIFS 230000Z 31002KT CAVOK 05/M08 Q1030,OIFS,2022-10-23T00:00:00Z,32.28,50.85,5.0,-8.0,310,2,,6.21,30.413385,,,,,,,,,,,CAVOK,,,,,,,,VFR,,,,,,,,,,,,METAR,2042.0
OICS 230000Z 24004KT 9999 FEW040 13/09 Q1023 A3023,OICS,2022-10-23T00:00:00Z,35.25,47.02,13.0,9.0,240,4,,6.21,30.206694,,,,,,,,,,,FEW,4000,,,,,,,VFR,,,,,,,,,,,,METAR,1369.0
OICK 230000Z 12008KT CAVOK 12/M03 Q1022,OICK,2022-10-23T00:00:00Z,33.43,48.28,12.0,-3.0,120,8,,6.21,30.177166,,,,,,,,,,,CAVOK,,,,,,,,VFR,,,,,,,,,,,,METAR,1156.0
OICI 230000Z 10004KT CAVOK 17/05 Q1025 A3027,OICI,2022-10-23T00:00:00Z,33.58,46.4,17.0,5.0,100,4,,6.21,30.265747,,,,,,,,,,,CAVOK,,,,,,,,VFR,,,,,,,,,,,,METAR,1323.0
OICC 230000Z 00000KT 9999 SCT090 14/03 Q1023 A3023,OICC,2022-10-23T00:00:00Z,34.35,47.17,14.0,3.0,0,0,,6.21,30.206694,,,,,,,,,,,SCT,9000,,,,,,,VFR,,,,,,,,,,,,METAR,1310.0
OIBP 230000Z 25006KT CAVOK 21/16 Q1014 A2995,OIBP,2022-10-23T00:00:00Z,27.38,52.73,21.0,16.0,250,6,,6.21,29.940945,,,,,,,,,,,CAVOK,,,,,,,,VFR,,,,,,,,,,,,METAR,13.0
OIBL 230000Z 03004KT 6000 NSC 26/20 Q1014,OIBL,2022-10-23T00:00:00Z,26.53,54.82,26.0,20.0,30,4,,3.73,29.940945,,,,,,,,,,,CLR,,,,,,,,MVFR,,,,,,,,,,,,METAR,25.0
OIBK 230000Z 02006KT CAVOK 26/20 Q1014,OIBK,2022-10-23T00:00:00Z,26.53,53.98,26.0,20.0,20,6,,6.21,29.940945,,,,,,,,,,,CAVOK,,,,,,,,VFR,,,,,,,,,,,,METAR,27.0
OIBJ 230000Z AUTO VRB01KT //// // ////// 18/02 Q1020,OIBJ,2022-10-23T00:00:00Z,27.82,52.35,18.0,2.0,0,1,,,30.11811,,,TRUE,,,,,,,,,,,,,,,,,,,,,,,,,,,,METAR,647.0
OIBB 230000Z 00000KT 3000 BR NSC 26/22 Q1015 A2998,OIBB,2022-10-23T00:00:00Z,28.93,50.83,26.0,22.0,0,0,,1.86,29.970472,,,,,,,,,,BR,CLR,,,,,,,,IFR,,,,,,,,,,,,METAR,15.0
OIAW 230000Z 13002KT 4000 HZ NSC 21/16 Q1015,OIAW,2022-10-23T00:00:00Z,31.33,48.77,21.0,16.0,130,2,,2.49,29.970472,,,,,,,,,,HZ,CLR,,,,,,,,IFR,,,,,,,,,,,,METAR,25.0
OIAM 230000Z 00000KT 2000 BR NSC 25/23 Q1015,OIAM,2022-10-23T00:00:00Z,30.55,49.15,25.0,23.0,0,0,,1.24,29.970472,,,,,,,,,,BR,CLR,,,,,,,,IFR,,,,,,,,,,,,METAR,7.0
OIAH 230000Z 00000KT CAVOK 19/09 Q1021,OIAH,2022-10-23T00:00:00Z,30.33,50.83,19.0,9.0,0,0,,6.21,30.147638,,,,,,,,,,,CAVOK,,,,,,,,VFR,,,,,,,,,,,,METAR,730.0
OIAA 230000Z 13004KT 0600 FG NSC 26/26 Q1015,OIAA,2022-10-23T00:00:00Z,30.35,48.22,26.0,26.0,130,4,,0.37,29.970472,,,,,,,,,,FG,CLR,,,,,,,,LIFR,,,,,,,,,,,,METAR,4.0
OEYN 230000Z 10002KT CAVOK 25/22 Q1010 NOSIG,OEYN,2022-10-23T00:00:00Z,24.13,38.07,25.0,22.0,100,2,,6.21,29.822834,,,,,,TRUE,,,,,CAVOK,,,,,,,,VFR,,,,,,,,,,,,METAR,20.0
OEWJ 230000Z 32012KT CAVOK 27/14 Q1013 NOSIG,OEWJ,2022-10-23T00:00:00Z,26.18,36.47,27.0,14.0,320,12,,6.21,29.911417,,,,,,TRUE,,,,,CAVOK,,,,,,,,VFR,,,,,,,,,,,,METAR,8.0
OEWD 230000Z 10002KT CAVOK 21/07 Q1018 NOSIG,OEWD,2022-10-23T00:00:00Z,20.5,45.2,21.0,7.0,100,2,,6.21,30.059055,,,,,,TRUE,,,,,CAVOK,,,,,,,,VFR,,,,,,,,,,,,METAR,629.0
OETR 230000Z 06004KT CAVOK 16/10 Q1019 NOSIG,OETR,2022-10-23T00:00:00Z,31.7,38.73,16.0,10.0,60,4,,6.21,30.088583,,,,,,TRUE,,,,,CAVOK,,,,,,,,VFR,,,,,,,,,,,,METAR,854.0
OETF 230000Z 18004KT CAVOK 18/M05 Q1024 NOSIG,OETF,2022-10-23T00:00:00Z,21.47,40.53,18.0,-5.0,180,4,,6.21,30.236221,,,,,,TRUE,,,,,CAVOK,,,,,,,,VFR,,,,,,,,,,,,METAR,1460.0
OETB 230000Z 31006KT CAVOK 21/09 Q1017 NOSIG,OETB,2022-10-23T00:00:00Z,28.37,36.62,21.0,9.0,310,6,,6.21,30.029528,,,,,,TRUE,,,,,CAVOK,,,,,,,,VFR,,,,,,,,,,,,METAR,770.0
OESK 230000Z 01003KT CAVOK 21/02 Q1019 NOSIG,OESK,2022-10-23T00:00:00Z,29.78,40.1,21.0,2.0,10,3,,6.21,30.088583,,,,,,TRUE,,,,,CAVOK,,,,,,,,VFR,,,,,,,,,,,,METAR,671.0
OESH 230000Z 00000KT CAVOK 20/02 Q1017 NOSIG,OESH,2022-10-23T00:00:00Z,17.47,47.12,20.0,2.0,0,0,,6.21,30.029528,,,,,,TRUE,,,,,CAVOK,,,,,,,,VFR,,,,,,,,,,,,METAR,720.0
OERR 230000Z 01008KT CAVOK 19/10 Q1016 NOSIG,OERR,2022-10-23T00:00:00Z,30.9,41.13,19.0,10.0,10,8,,6.21,30.0,,,,,,TRUE,,,,,CAVOK,,,,,,,,VFR,,,,,,,,,,,,METAR,554.0
OERK 230000Z 00000KT CAVOK 19/03 Q1020 NOSIG,OERK,2022-10-23T00:00:00Z,24.95,46.72,19.0,3.0,0,0,,6.21,30.11811,,,,,,TRUE,,,,,CAVOK,,,,,,,,VFR,,,,,,,,,,,,METAR,618.0
OERF 230000Z 18011KT CAVOK 25/M06 Q1015 NOSIG,OERF,2022-10-23T00:00:00Z,29.62,43.48,25.0,-6.0,180,11,,6.21,29.970472,,,,,,TRUE,,,,,CAVOK,,,,,,,,VFR,,,,,,,,,,,,METAR,441.0
OEPA 230000Z 00000KT CAVOK 22/04 Q1017 NOSIG,OEPA,2022-10-23T00:00:00Z,28.33,46.12,22.0,4.0,0,0,,6.21,30.029528,,,,,,TRUE,,,,,CAVOK,,,,,,,,VFR,,,,,,,,,,,,METAR,361.0
OENG 230000Z 00000KT CAVOK 17/M02 Q1021 NOSIG,OENG,2022-10-23T00:00:00Z,17.62,44.42,17.0,-2.0,0,0,,6.21,30.147638,,,,,,TRUE,,,,,CAVOK,,,,,,,,VFR,,,,,,,,,,,,METAR,1210.0
OEMN 230000Z 00000KT CAVOK 28/19 Q1015,OEMN,2022-10-23T00:00:00Z,,,28.0,19.0,0,0,,6.21,29.970472,,,,,,,,,,,CAVOK,,,,,,,,VFR,,,,,,,,,,,,METAR,
OEMA 230000Z 00000KT CAVOK 25/M07 Q1018 NOSIG,OEMA,2022-10-23T00:00:00Z,24.55,39.7,25.0,-7.0,0,0,,6.21,30.059055,,,,,,TRUE,,,,,CAVOK,,,,,,,,VFR,,,,,,,,,,,,METAR,639.0
OEKM 230000Z 00000KT CAVOK 14/M10 Q1027 NOSIG,OEKM,2022-10-23T00:00:00Z,18.3,42.78,14.0,-10.0,0,0,,6.21,30.324802,,,,,,TRUE,,,,,CAVOK,,,,,,,,VFR,,,,,,,,,,,,METAR,2038.0
OEKJ 230000Z 26006KT CAVOK 23/M02 Q1021,OEKJ,2022-10-23T00:00:00Z,24.07,47.58,23.0,-2.0,260,6,,6.21,30.147638,,,,,,,,,,,CAVOK,,,,,,,,VFR,,,,,,,,,,,,METAR,487.0
OEJN 230000Z 33005KT CAVOK 27/24 Q1012 NOSIG,OEJN,2022-10-23T00:00:00Z,21.68,39.15,27.0,24.0,330,5,,6.21,29.88189,,,,,,TRUE,,,,,CAVOK,,,,,,,,VFR,,,,,,,,,,,,METAR,8.0
OEJB 230000Z AUTO 08010KT CAVOK 24/14 Q1015 NOSIG,OEJB,2022-10-23T00:00:00Z,27.05,49.4,24.0,14.0,80,10,,6.21,29.970472,,,TRUE,,,TRUE,,,,,CAVOK,,,,,,,,VFR,,,,,,,,,,,,METAR,6.0
OEHL 230000Z 24008KT CAVOK 19/M04 Q1020,OEHL,2022-10-23T00:00:00Z,27.43,41.68,19.0,-4.0,240,8,,6.21,30.11811,,,,,,,,,,,CAVOK,,,,,,,,VFR,,,,,,,,,,,,METAR,1002.0
OEGT 230000Z 31011KT CAVOK 16/11 Q1017 NOSIG,OEGT,2022-10-23T00:00:00Z,31.42,37.27,16.0,11.0,310,11,,6.21,30.029528,,,,,,TRUE,,,,,CAVOK,,,,,,,,VFR,,,,,,,,,,,,METAR,512.0
OEGS 230000Z 20003KT CAVOK 22/03 Q1017,OEGS,2022-10-23T00:00:00Z,26.3,43.77,22.0,3.0,200,3,,6.21,30.029528,,,,,,,,,,,CAVOK,,,,,,,,VFR,,,,,,,,,,,,METAR,647.0
OEGN 230000Z 09004KT 9999 FEW030 30/25 Q1012 NOSIG,OEGN,2022-10-23T00:00:00Z,16.9,42.58,30.0,25.0,90,4,,6.21,29.88189,,,,,,TRUE,,,,,FEW,3000,,,,,,,VFR,,,,,,,,,,,,METAR,5.0
OEDR 230000Z 26004KT CAVOK 24/23 Q1014,OEDR,2022-10-23T00:00:00Z,26.27,50.17,24.0,23.0,260,4,,6.21,29.940945,,,,,,,,,,,CAVOK,,,,,,,,VFR,,,,,,,,,,,,METAR,17.0
OEDF 230000Z 21005KT CAVOK 22/16 Q1015 NOSIG,OEDF,2022-10-23T00:00:00Z,26.43,49.82,22.0,16.0,210,5,,6.21,29.970472,,,,,,TRUE,,,,,CAVOK,,,,,,,,VFR,,,,,,,,,,,,METAR,15.0
OEBH 230000Z 19002KT CAVOK 18/M03 Q1021 NOSIG,OEBH,2022-10-23T00:00:00Z,19.98,42.62,18.0,-3.0,190,2,,6.21,30.147638,,,,,,TRUE,,,,,CAVOK,,,,,,,,VFR,,,,,,,,,,,,METAR,1167.0
OEBA 230000Z 15003KT CAVOK 18/00 Q1024 NOSIG,OEBA,2022-10-23T00:00:00Z,20.3,41.63,18.0,0.0,150,3,,6.21,30.236221,,,,,,TRUE,,,,,CAVOK,,,,,,,,VFR,,,,,,,,,,,,METAR,1659.0
OEAO 230000Z 00000KT CAVOK 24/04 Q1017 NOSIG,OEAO,2022-10-23T00:00:00Z,26.48,38.12,24.0,4.0,0,0,,6.21,30.029528,,,,,,TRUE,,,,,CAVOK,,,,,,,,VFR,,,,,,,,,,,,METAR,615.0
OEAH 230000Z 22006KT CAVOK 23/07 Q1016 NOSIG,OEAH,2022-10-23T00:00:00Z,25.28,49.48,23.0,7.0,220,6,,6.21,30.0,,,,,,TRUE,,,,,CAVOK,,,,,,,,VFR,,,,,,,,,,,,METAR,180.0
OEAB 230000Z 00000KT CAVOK 13/M09 Q1027 NOSIG,OEAB,2022-10-23T00:00:00Z,18.23,42.65,13.0,-9.0,0,0,,6.21,30.324802,,,,,,TRUE,,,,,CAVOK,,,,,,,,VFR,,,,,,,,,,,,METAR,2092.0
NVVW 230000Z 09012KT 9999 -DZ SCT020 BKN110 27/23 Q1013,NVVW,2022-10-23T00:00:00Z,-19.45,169.22,27.0,23.0,90,12,,6.21,29.911417,,,,,,,,,,-DZ,SCT,2000,BKN,11000,,,,,VFR,,,,,,,,,,,,METAR,5.0
NVVV 230000Z 08008KT 9999 BKN020 OVC110 25/23 Q1012 RESHRA,NVVV,2022-10-23T00:00:00Z,-17.68,168.3,25.0,23.0,80,8,,6.21,29.88189,,,,,,,,,,,BKN,2000,OVC,11000,,,,,MVFR,,,,,,,,,,,,METAR,23.0
NVVA 230000Z 36008KT 9999 BKN020 26/19 Q1015,NVVA,2022-10-23T00:00:00Z,-20.25,169.77,26.0,19.0,360,8,,6.21,29.970472,,,,,,,,,,,BKN,2000,,,,,,,MVFR,,,,,,,,,,,,METAR,7.0
NVSS 230000Z 35006KT 7000 SHRA FEW012 BKN018 OVC100 23/23 Q1011,NVSS,2022-10-23T00:00:00Z,-15.52,167.22,23.0,23.0,350,6,,4.35,29.852362,,,,,,,,,,SHRA,FEW,1200,BKN,1800,OVC,10000,,,MVFR,,,,,,,,,,,,METAR,47.0
NVSL 230000Z AUTO 08009KT //// // NCD 24/24 Q1011,NVSL,2022-10-23T00:00:00Z,-16.45,167.83,24.0,24.0,80,9,,,29.852362,,,TRUE,,,,,,,,CLR,,,,,,,,,,,,,,,,,,,,METAR,9.0
NVSG 230000Z AUTO 00000KT //// // NCD 26/25 Q1012,NVSG,2022-10-23T00:00:00Z,-15.3,167.97,26.0,25.0,0,0,,,29.88189,,,TRUE,,,,,,,,CLR,,,,,,,,,,,,,,,,,,,,METAR,31.0
NVSC 230000Z 00000KT 4000 +RA SCT015 BKN018 OVC100 24/23 Q1012,NVSC,2022-10-23T00:00:00Z,-13.85,167.55,24.0,23.0,0,0,,2.49,29.88189,,,,,,,,,,+RA,SCT,1500,BKN,1800,OVC,10000,,,IFR,,,,,,,,,,,,METAR,11.0
NSFA 230000Z 05008KT 010V080 9999 FEW020TCU FEW024 BKN260 32/23 Q1010 RMK TCU TO NW,NSFA,2022-10-23T00:00:00Z,-13.83,-172.0,32.0,23.0,50,8,,6.21,29.822834,,,,,,,,,,,FEW,2000,FEW,2400,BKN,26000,,,VFR,,,,,,,,,,,,METAR,6.0
NIUE 230000Z AUTO 02003KT 24/23 Q1011,NIUE,2022-10-23T00:00:00Z,-19.07,-169.92,24.0,23.0,20,3,,,29.852362,,,TRUE,,,,,,,,,,,,,,,,,,,,,,,,,,,,METAR,22.0
NGTA 230000Z 11007KT 9999 SCT020 30/24 Q1009,NGTA,2022-10-23T00:00:00Z,1.37,173.13,30.0,24.0,110,7,,6.21,29.793306,,,,,,,,,,,SCT,2000,,,,,,,VFR,,,,,,,,,,,,METAR,8.0
NGFU 230000Z 03010KT 9999 FEW018TCU SCT020 BKN300 30/24 Q1010,NGFU,2022-10-23T00:00:00Z,-8.52,179.18,30.0,24.0,30,10,,6.21,29.822834,,,,,,,,,,,FEW,1800,SCT,2000,BKN,30000,,,VFR,,,,,,,,,,,,METAR,2.0
NFTV 230000Z 36006KT 9999 FEW017 SCT120 BKN290 27/24 Q1011,NFTV,2022-10-23T00:00:00Z,-18.58,-173.97,27.0,24.0,360,6,,6.21,29.852362,,,,,,,,,,,FEW,1700,SCT,12000,BKN,29000,,,VFR,,,,,,,,,,,,METAR,71.0
NFTL 230000Z 00000KT 9999 -RA SCT008 BKN016TCU BKN100 23/21 Q1012,NFTL,2022-10-23T00:00:00Z,-19.78,-174.33,23.0,21.0,0,0,,6.21,29.88189,,,,,,,,,,-RA,SCT,800,BKN,1600,BKN,10000,,,MVFR,,,,,,,,,,,,METAR,10.0
NFTF 230000Z 14016G26KT 9999 FEW010 SCT016 BKN040 23/20 Q1014,NFTF,2022-10-23T00:00:00Z,-21.23,-175.15,23.0,20.0,140,16,26,6.21,29.940945,,,,,,,,,,,FEW,1000,SCT,1600,BKN,4000,,,VFR,,,,,,,,,,,,SPECI,38.0
NFNA 230000Z 16010KT 110V200 9999 3500NW -SHRA FEW014 SCT018TCU BKN045 27/22 Q1013,NFNA,2022-10-23T00:00:00Z,-18.05,178.57,27.0,22.0,160,10,,6.21,29.911417,,,,,,,,,,-SHRA,FEW,1400,SCT,1800,BKN,4500,,,VFR,,,,,,,,,,,,METAR,6.0
NFFN 230000Z 16011KT 9999 FEW028 BKN290 30/22 Q1012 NOSIG,NFFN,2022-10-23T00:00:00Z,-17.75,177.45,30.0,22.0,160,11,,6.21,29.88189,,,,,,TRUE,,,,,FEW,2800,BKN,29000,,,,,VFR,,,,,,,,,,,,METAR,14.0
NCSW 230000Z AUTO 08002KT //// ////// 29/23 Q1011,NCSW,2022-10-23T00:00:00Z,,,29.0,23.0,80,2,,,29.852362,,,TRUE,,,,,,,,,,,,,,,,,,,,,,,,,,,,METAR,
NCRK 230000Z AUTO 04004KT //// ////// 31/23 Q1010,NCRK,2022-10-23T00:00:00Z,-10.02,-161.1,31.0,23.0,40,4,,,29.822834,,,TRUE,,,,,,,,,,,,,,,,,,,,,,,,,,,,METAR,7.0
NCPY 230000Z AUTO 04015KT //// ////// 29/22 Q1010,NCPY,2022-10-23T00:00:00Z,-9.02,-158.03,29.0,22.0,40,15,,,29.822834,,,TRUE,,,,,,,,,,,,,,,,,,,,,,,,,,,,METAR,2.0
NCPL 230000Z AUTO NIL,NCPL,2022-10-23T00:00:00Z,1.98,-157.48,,,,,,,,,,TRUE,,,,,,,,,,,,,,,,,,,,,,,,,,,,METAR,3.0
NCPK 230000Z AUTO NIL,NCPK,2022-10-23T00:00:00Z,-10.9,-165.83,,,,,,,,,,TRUE,,,,,,,,,,,,,,,,,,,,,,,,,,,,METAR,5.0
NCNS 230000Z AUTO 01006KT //// ////// 30/24 Q1010,NCNS,2022-10-23T00:00:00Z,,,30.0,24.0,10,6,,,29.822834,,,TRUE,,,,,,,,,,,,,,,,,,,,,,,,,,,,METAR,
NCMR 230000Z AUTO 01004KT //// ////// ///// Q1013,NCMR,2022-10-23T00:00:00Z,-19.85,-157.7,,,10,4,,,29.911417,,,TRUE,,,,,,,,,,,,,,,,,,,,,,,,,,,,METAR,8.0
NCMK 230000Z AUTO NIL,NCMK,2022-10-23T00:00:00Z,-20.15,-157.33,,,,,,,,,,TRUE,,,,,,,,,,,,,,,,,,,,,,,,,,,,METAR,13.0
NCMH 230000Z AUTO 03002KT //// ////// ///// Q1011,NCMH,2022-10-23T00:00:00Z,-10.38,-161.0,,,30,2,,,29.852362,,,TRUE,,,,,,,,,,,,,,,,,,,,,,,,,,,,METAR,1.0
NCMG 230000Z AUTO 32006KT //// ////// ///// Q////,NCMG,2022-10-23T00:00:00Z,-21.88,-157.9,,,320,6,,,,,,TRUE,,,,,,,,,,,,,,,,,,,,,,,,,,,,METAR,14.0
NCAT 230000Z AUTO 04005KT //// ////// ///// Q////,NCAT,2022-10-23T00:00:00Z,-19.97,-158.12,,,40,5,,,,,,TRUE,,,,,,,,,,,,,,,,,,,,,,,,,,,,METAR,11.0
NCAI 230000Z AUTO 09002KT //// ////// 29/24 Q1013,NCAI,2022-10-23T00:00:00Z,-18.82,-159.77,29.0,24.0,90,2,,,29.911417,,,TRUE,,,,,,,,,,,,,,,,,,,,,,,,,,,,METAR,7.0
MZBZ 230000Z 07007KT 9999 FEW024 SCT046 27/20 A2992 Q1013 NOSIG,MZBZ,2022-10-23T00:00:00Z,17.53,-88.3,27.0,20.0,70,7,,6.21,29.911417,,,,,,TRUE,,,,,FEW,2400,SCT,4600,,,,,VFR,,,,,,,,,,,,METAR,6.0
MYNN 230000Z 03009KT 9999 FEW030 27/21 A2998,MYNN,2022-10-23T00:00:00Z,25.03,-77.47,27.0,21.0,30,9,,6.21,29.97933,,,,,,,,,,,FEW,3000,,,,,,,VFR,,,,,,,,,,,,METAR,5.0
MYGF 230000Z 02010KT 9999 FEW025 SCT035 25/20 A2999,MYGF,2022-10-23T00:00:00Z,26.55,-78.7,25.0,20.0,20,10,,6.21,29.991142,,,,,,,,,,,FEW,2500,SCT,3500,,,,,VFR,,,,,,,,,,,,METAR,2.0
MWCR 230000Z 03007KT 360V060 8000 -SHRA BKN014 26/24 Q1012,MWCR,2022-10-23T00:00:00Z,19.3,-81.37,26.0,24.0,30,7,,4.97,29.88189,,,,,,,,,,-SHRA,BKN,1400,,,,,,,MVFR,,,,,,,,,,,,METAR,4.0
MWCB 230000Z 04008KT 9999 SCT014CB 27/24 Q1012,MWCB,2022-10-23T00:00:00Z,19.68,-79.88,27.0,24.0,40,8,,6.21,29.88189,,,,,,,,,,,SCT,1400,,,,,,,VFR,,,,,,,,,,,,METAR,7.0
MTPP 230000Z 28008KT 9000 SCT024CB 27/22 Q1012 A2988 RMK/CB/NE/SE,MTPP,2022-10-23T00:00:00Z,18.57,-72.3,27.0,22.0,280,8,,5.59,29.88189,,,,,,,,,,,SCT,2400,,,,,,,VFR,,,,,,,,,,,,METAR,36.0
MRPV 230000Z 09002KT 9999 BCFG FEW005 BKN030 21/19 A3000 NOSIG,MRPV,2022-10-23T00:00:00Z,9.95,-84.15,21.0,19.0,90,2,,6.21,30.0,,,,,,TRUE,,,,BCFG,FEW,500,BKN,3000,,,,,MVFR,,,,,,,,,,,,METAR,998.0
MROC 230000Z VRB02KT 9999 VCFG FEW008 BKN045 22/20 A3001 NOSIG,MROC,2022-10-23T00:00:00Z,10.0,-84.22,22.0,20.0,0,2,,6.21,30.008858,,,,,,TRUE,,,,VCFG,FEW,800,BKN,4500,,,,,VFR,,,,,,,,,,,,METAR,900.0
MRLM 230000Z 00000KT CAVOK 25/24 A2985,MRLM,2022-10-23T00:00:00Z,9.97,-83.03,25.0,24.0,0,0,,6.21,29.84941,,,,,,,,,,,CAVOK,,,,,,,,VFR,,,,,,,,,,,,METAR,2.0
MPDA 230000Z VRB02KT 8000 -RA BKN007 25/25 Q1010,MPDA,2022-10-23T00:00:00Z,8.4,-82.43,25.0,25.0,0,2,,4.97,29.822834,,,,,,,,,,-RA,BKN,700,,,,,,,IFR,,,,,,,,,,,,METAR,15.0
MNMG 230000Z 00000KT 9999 FEW020CB SCT300 28/26 Q1008 A2978 CB/NE/E/SE/S/W/NW BECMG 7000 DZ/TSRA,MNMG,2022-10-23T00:00:00Z,12.15,-86.17,28.0,26.0,0,0,,6.21,29.763779,,,,,,,,,,,FEW,2000,SCT,30000,,,,,VFR,,,,,,,,,,,,METAR,59.0
MKJS 230000Z 14005KT 9999 VCTS FEW020 FEW022CB 26/22 Q1011,MKJS,2022-10-23T00:00:00Z,18.5,-77.92,26.0,22.0,140,5,,6.21,29.852362,,,,,,,,,,VCTS,FEW,2000,FEW,2200,,,,,VFR,,,,,,,,,,,,METAR,3.0
MKJP 230000Z 33007KT 9999 FEW020 27/22 Q1012,MKJP,2022-10-23T00:00:00Z,17.93,-76.78,27.0,22.0,330,7,,6.21,29.88189,,,,,,,,,,,FEW,2000,,,,,,,VFR,,,,,,,,,,,,METAR,3.0
MHYR 230000Z 00000KT 9999 SCT022 BKN080 23/20,MHYR,2022-10-23T00:00:00Z,15.13,-87.13,23.0,20.0,0,0,,6.21,,,,,,,,,,,,SCT,2200,BKN,8000,,,,,VFR,,,,,,,,,,,,METAR,682.0
MHTR 230000Z 27004KT 3000 RA SCT018 OVC070 23/22,MHTR,2022-10-23T00:00:00Z,15.93,-85.93,23.0,22.0,270,4,,1.86,,,,,,,,,,,RA,SCT,1800,OVC,7000,,,,,IFR,,,,,,,,,,,,METAR,3.0
MHTG 230000Z 04010KT 010V080 9999 BKN034 23/18 Q1016 A3000 NOSIG,MHTG,2022-10-23T00:00:00Z,14.07,-87.22,23.0,18.0,40,10,,6.21,30.0,,,,,,TRUE,,,,,BKN,3400,,,,,,,VFR,,,,,,,,,,,,METAR,1001.0
MHTE 230000Z 35004KT 8000 -DZ SCT026TCU FEW032CB BKN080 24/24 Q1011,MHTE,2022-10-23T00:00:00Z,15.78,-87.48,24.0,24.0,350,4,,4.97,29.852362,,,,,,,,,,-DZ,SCT,2600,FEW,3200,BKN,8000,,,MVFR,,,,,,,,,,,,METAR,7.0
MHSR 230000Z 36004KT 4000 -DZ SCT006 OVC020 19/19,MHSR,2022-10-23T00:00:00Z,14.78,-88.78,19.0,19.0,360,4,,2.49,,,,,,,,,,,-DZ,SCT,600,OVC,2000,,,,,IFR,,,,,,,,,,,,METAR,1087.0
MHRO 230000Z 02004KT 9999 BKN028 BKN080 28/21 Q1013 A2992 NOSIG,MHRO,2022-10-23T00:00:00Z,16.32,-86.53,28.0,21.0,20,4,,6.21,29.911417,,,,,,TRUE,,,,,BKN,2800,BKN,8000,,,,,MVFR,,,,,,,,,,,,METAR,6.0
MHPL 230000Z 05008KT 9999 SCT025TCU 28/24 Q1012,MHPL,2022-10-23T00:00:00Z,15.27,-83.78,28.0,24.0,50,8,,6.21,29.88189,,,,,,,,,,,SCT,2500,,,,,,,VFR,,,,,,,,,,,,METAR,13.0
MHNO 230000Z 35006KT 9999 FEW040 21/18,MHNO,2022-10-23T00:00:00Z,14.43,-89.18,21.0,18.0,350,6,,6.21,,,,,,,,,,,,FEW,4000,,,,,,,VFR,,,,,,,,,,,,METAR,790.0
MHLM 230000Z 05008KT 2000 -RA FEW006 BKN018 OVC070 23/22 Q1013 A2992 NOSIG,MHLM,2022-10-23T00:00:00Z,15.45,-87.93,23.0,22.0,50,8,,1.24,29.911417,,,,,,TRUE,,,,-RA,FEW,600,BKN,1800,OVC,7000,,,IFR,,,,,,,,,,,,METAR,32.0
MHLE 230000Z 05004KT 9999 SCT024 17/15,MHLE,2022-10-23T00:00:00Z,14.28,-88.17,17.0,15.0,50,4,,6.21,,,,,,,,,,,,SCT,2400,,,,,,,VFR,,,,,,,,,,,,METAR,1688.0
MHLC 230000Z 00000KT 9999 FEW025 BKN070 23/22 Q1013 A2992 NOSIG,MHLC,2022-10-23T00:00:00Z,15.75,-86.85,23.0,22.0,0,0,,6.21,29.911417,,,,,,TRUE,,,,,FEW,2500,BKN,7000,,,,,VFR,,,,,,,,,,,,METAR,13.0
MHGS 230000Z 00000KT 4000 -DZ SCT028 BKN042 22/19,MHGS,2022-10-23T00:00:00Z,14.57,-88.6,22.0,19.0,0,0,,2.49,,,,,,,,,,,-DZ,SCT,2800,BKN,4200,,,,,IFR,,,,,,,,,,,,METAR,913.0
MHCH 230000Z 00000KT 9999 FEW030TCU FEW032CB BKN070 29/24,MHCH,2022-10-23T00:00:00Z,13.32,-87.15,29.0,24.0,0,0,,6.21,,,,,,,,,,,,FEW,3000,FEW,3200,BKN,7000,,,VFR,,,,,,,,,,,,METAR,58.0
MHCA 230000Z 00000KT 9999 SCT028 SCT030CB BKN070 25/23 RMK CB NE S NW,MHCA,2022-10-23T00:00:00Z,14.87,-85.78,25.0,23.0,0,0,,6.21,,,,,,,,,,,,SCT,2800,SCT,3000,BKN,7000,,,VFR,,,,,,,,,,,,METAR,386.0
MGZA 230000Z 00000KT 9999 SCT035 BKN060 25/20 QFE987/9,MGZA,2022-10-23T00:00:00Z,14.97,-89.53,25.0,20.0,0,0,,6.21,,,,,,,,,,,,SCT,3500,BKN,6000,,,,,VFR,,,,,,,,,,,,METAR,195.0
MGSJ 230000Z 00000KT 9999 SCT030 FEW042CB SCT200 29/25 Q1011 A2985 CB NNE/NE,MGSJ,2022-10-23T00:00:00Z,13.93,-90.83,29.0,25.0,0,0,,6.21,29.852362,,,,,,,,,,,SCT,3000,FEW,4200,SCT,20000,,,VFR,,,,,,,,,,,,METAR,7.0
MGQZ 230000Z 00000KT 9999 OVC020 16/10 QFE771/9,MGQZ,2022-10-23T00:00:00Z,14.87,-91.5,16.0,10.0,0,0,,6.21,,,,,,,,,,,,OVC,2000,,,,,,,MVFR,,,,,,,,,,,,METAR,2378.0
MGPB 230000Z 00000KT 9000 -DZ SCT016 OVC080 23/22 Q1012 A2988,MGPB,2022-10-23T00:00:00Z,15.73,-88.58,23.0,22.0,0,0,,5.59,29.88189,,,,,,,,,,-DZ,SCT,1600,OVC,8000,,,,,VFR,,,,,,,,,,,,METAR,6.0
MGHT 230000Z 11014KT 9999 OVC025 20/14,MGHT,2022-10-23T00:00:00Z,15.32,-91.5,20.0,14.0,110,14,,6.21,,,,,,,,,,,,OVC,2500,,,,,,,MVFR,,,,,,,,,,,,METAR,1875.0
MGGT 230000Z 02010KT 9999 BKN016 SCT090 19/17 Q1020 A3012,MGGT,2022-10-23T00:00:00Z,14.58,-90.53,19.0,17.0,20,10,,6.21,30.11811,,,,,,,,,,,BKN,1600,SCT,9000,,,,,MVFR,,,,,,,,,,,,METAR,1497.0
MDST 230000Z 14006KT 9999 FEW018CB FEW020 SCT300 26/23 Q1012 CB/S/SW/W,MDST,2022-10-23T00:00:00Z,19.4,-70.6,26.0,23.0,140,6,,6.21,29.88189,,,,,,,,,,,FEW,1800,FEW,2000,SCT,30000,,,VFR,,,,,,,,,,,,METAR,175.0
MDSD 230000Z 00000KT 9999 BKN018 27/24 Q1012,MDSD,2022-10-23T00:00:00Z,18.42,-69.67,27.0,24.0,0,0,,6.21,29.88189,,,,,,,,,,,BKN,1800,,,,,,,MVFR,,,,,,,,,,,,METAR,18.0
MDPP 230000Z 00000KT 9999 FEW016CB BKN018 26/25 Q1012 CB/S/SW,MDPP,2022-10-23T00:00:00Z,19.75,-70.57,26.0,25.0,0,0,,6.21,29.88189,,,,,,,,,,,FEW,1600,BKN,1800,,,,,MVFR,,,,,,,,,,,,METAR,9.0
MDPC 230000Z 04003KT 9999 FEW022 27/23 Q1012,MDPC,2022-10-23T00:00:00Z,18.57,-68.37,27.0,23.0,40,3,,6.21,29.88189,,,,,,,,,,,FEW,2200,,,,,,,VFR,,,,,,,,,,,,METAR,10.0
LWSK 230000Z 00000KT CAVOK 07/07 Q1023 NOSIG,LWSK,2022-10-23T00:00:00Z,41.97,21.63,7.0,7.0,0,0,,6.21,30.206694,,,,,,TRUE,,,,,CAVOK,,,,,,,,VFR,,,,,,,,,,,,METAR,232.0
LRSB 230000Z 28016KT 9999 SCT044 SCT070 16/09 Q1018,LRSB,2022-10-23T00:00:00Z,45.78,24.08,16.0,9.0,280,16,,6.21,30.059055,,,,,,,,,,,SCT,4400,SCT,7000,,,,,VFR,,,,,,,,,,,,METAR,442.0
LQTZ 230000Z VRB01KT CAVOK 12/12 Q1023,LQTZ,2022-10-23T00:00:00Z,44.47,18.73,12.0,12.0,0,1,,6.21,30.206694,,,,,,,,,,,CAVOK,,,,,,,,VFR,,,,,,,,,,,,METAR,242.0
LQSA 230000Z VRB01KT 9999 -RA SCT045 13/09 Q1024,LQSA,2022-10-23T00:00:00Z,43.82,18.32,13.0,9.0,0,1,,6.21,30.236221,,,,,,,,,,-RA,SCT,4500,,,,,,,VFR,,,,,,,,,,,,METAR,505.0
LQMO 230000Z VRB02KT 9999 BKN042 13/09 Q1023,LQMO,2022-10-23T00:00:00Z,43.28,17.83,13.0,9.0,0,2,,6.21,30.206694,,,,,,,,,,,BKN,4200,,,,,,,VFR,,,,,,,,,,,,METAR,49.0
LPMT 230000Z 21011KT 180V240 9999 FEW020 BKN045 17/14 Q1011,LPMT,2022-10-23T00:00:00Z,38.7,-9.05,17.0,14.0,210,11,,6.21,29.852362,,,,,,,,,,,FEW,2000,BKN,4500,,,,,VFR,,,,,,,,,,,,METAR,4.0
LPMR 230000Z 18009KT 9999 FEW045 16/13 Q1010,LPMR,2022-10-23T00:00:00Z,39.82,-8.88,16.0,13.0,180,9,,6.21,29.822834,,,,,,,,,,,FEW,4500,,,,,,,VFR,,,,,,,,,,,,METAR,50.0
LPLA 230000Z /////KT 9999 SCT020 BKN030 18/16 Q1019,LPLA,2022-10-23T00:00:00Z,38.77,-27.1,18.0,16.0,,,,6.21,30.088583,,,,,,,,,,,SCT,2000,BKN,3000,,,,,MVFR,,,,,,,,,,,,METAR,60.0
LPBJ 230000Z 20009KT 9999 FEW010 17/16 Q1014,LPBJ,2022-10-23T00:00:00Z,38.08,-7.93,17.0,16.0,200,9,,6.21,29.940945,,,,,,,,,,,FEW,1000,,,,,,,VFR,,,,,,,,,,,,METAR,196.0
LKLN 230000Z AUTO 33002KT 2400 BR NCD 07/07 Q1020,LKLN,2022-10-23T00:00:00Z,49.68,13.27,7.0,7.0,330,2,,1.49,30.11811,,,TRUE,,,,,,,BR,CLR,,,,,,,,IFR,,,,,,,,,,,,METAR,353.0
LKKV 230000Z 10003KT 9999 R29/0700D BCFG NSC 07/06 Q1019,LKKV,2022-10-23T00:00:00Z,50.2,12.92,7.0,6.0,100,3,,6.21,30.088583,,,,,,,,,,BCFG,CLR,,,,,,,,VFR,,,,,,,,,,,,METAR,600.0
LKKB 230000Z 19004KT 9999 FEW045 10/10 Q1019,LKKB,2022-10-23T00:00:00Z,50.12,14.53,10.0,10.0,190,4,,6.21,30.088583,,,,,,,,,,,FEW,4500,,,,,,,VFR,,,,,,,,,,,,METAR,281.0
KVGT 230000Z 21014G33KT 170V250 4SM HZ BKN029 OVC036 26/02 A2939 RMK AO2 PK WND 23033/2356 T02610022 $,KVGT,2022-10-23T00:00:00Z,36.22,-115.2,26.1,2.2,210,14,33,4.0,29.388779,,,,TRUE,TRUE,,,,,HZ,BKN,2900,OVC,3600,,,,,MVFR,,,,,,,,,,,,SPECI,664.0
KTCM 230000Z AUTO 08007KT 10SM SCT024 BKN030 BKN036 OVC050 10/06 A2979 RMK AO2 SLP092 $,KTCM,2022-10-23T00:00:00Z,47.13,-122.47,10.0,6.0,80,7,,10.0,29.790354,1009.2,,TRUE,TRUE,TRUE,,,,,,SCT,2400,BKN,3000,BKN,3600,OVC,5000,MVFR,,,,,,,,,,,,SPECI,87.0
KS34 230000Z AUTO 00000KT 10SM 07/M22 A2963 RMK Plains ,KS34,2022-10-23T00:00:00Z,47.47,-114.9,7.0,-22.0,0,0,,10.0,29.630905,,,TRUE,,,,,,,,,,,,,,,,,,,,,,,,,,,,METAR,750.0
KQFX 230000Z AUTO 36001KT 3200 BR OVC005 18/16 / RMK A02 TSNO,KQFX,2022-10-23T00:00:00Z,,,18.0,16.0,360,1,,1.99,,,,TRUE,TRUE,,,TRUE,,,BR,OVC,500,,,,,,,IFR,,,,,,,,,,,,METAR,
KQFW 230000Z AUTO 23001KT 4800 FEW012 BKN025 09/09 A2995 RMK A02 TSNO,KQFW,2022-10-23T00:00:00Z,,,9.0,9.0,230,1,,2.98,29.949802,,,TRUE,TRUE,,,TRUE,,,,FEW,1200,BKN,2500,,,,,IFR,,,,,,,,,,,,METAR,
KQFV 230000Z AUTO 10002KT 6000 CLR 10/08 A3014 RMK A02 TSNO,KQFV,2022-10-23T00:00:00Z,,,10.0,8.0,100,2,,3.73,30.138779,,,TRUE,TRUE,,,TRUE,,,,CLR,,,,,,,,MVFR,,,,,,,,,,,,METAR,
KQFU 230000Z AUTO 33003KT 8000 OVC013 11/10 A3017 RMK A02 TSNO,KQFU,2022-10-23T00:00:00Z,,,11.0,10.0,330,3,,4.97,30.171259,,,TRUE,TRUE,,,TRUE,,,,OVC,1300,,,,,,,MVFR,,,,,,,,,,,,METAR,
KQFT 230000Z AUTO 36001KT M0400 FG CLR 11/11 A3011 RMK A02 TSNO,KQFT,2022-10-23T00:00:00Z,,,11.0,11.0,360,1,,0.25,30.109253,,,TRUE,TRUE,,,TRUE,,,FG,CLR,,,,,,,,LIFR,,,,,,,,,,,,METAR,
KQFB 230000Z AUTO 29001KT 6000 HZ CLR 12/09 A3014 RMK A02 TSNO,KQFB,2022-10-23T00:00:00Z,,,12.0,9.0,290,1,,3.73,30.138779,,,TRUE,TRUE,,,TRUE,,,HZ,CLR,,,,,,,,MVFR,,,,,,,,,,,,METAR,
KQEY 230000Z AUTO 16001KT 6000 HZ BKN013 12/09 A2983 RMK A02 TSNO,KQEY,2022-10-23T00:00:00Z,,,12.0,9.0,160,1,,3.73,29.828741,,,TRUE,TRUE,,,TRUE,,,HZ,BKN,1300,,,,,,,MVFR,,,,,,,,,,,,METAR,
KQEV 230000Z AUTO 33001KT 1200 BR BKN002 11/12 / RMK A02 TSNO,KQEV,2022-10-23T00:00:00Z,,,11.0,12.0,330,1,,0.75,,,,TRUE,TRUE,,,TRUE,,,BR,BKN,200,,,,,,,LIFR,,,,,,,,,,,,METAR,
KQER 230000Z AUTO 16002KT 4000 BR FEW003 11/10 A3009 RMK A02 TSNO,KQER,2022-10-23T00:00:00Z,,,11.0,10.0,160,2,,2.49,30.088583,,,TRUE,TRUE,,,TRUE,,,BR,FEW,300,,,,,,,IFR,,,,,,,,,,,,METAR,
KQEJ 230000Z AUTO 00000KT 2800 // OVC002 21/21 / RMK A02 TSNO,KQEJ,2022-10-23T00:00:00Z,,,21.0,21.0,0,0,,1.74,,,,TRUE,TRUE,,,TRUE,,,,OVC,200,,,,,,,LIFR,,,,,,,,,,,,METAR,
KNEL 230000Z AUTO 00000KT 10SM CLR 09/07 A3026 RMK AO2 SLP246 T00890072 10200 20089 51004 $,KNEL,2022-10-23T00:00:00Z,40.03,-74.33,8.9,7.2,0,0,,10.0,30.259842,1024.6,,TRUE,TRUE,TRUE,,,,,,CLR,,,,,,,,VFR,0.4,20.0,8.9,,,,,,,,,SPECI,26.0
HTZA 230000Z 12005KT 9999 FEW010 SCT070 23/22 Q1015 NOSIG,HTZA,2022-10-23T00:00:00Z,-6.22,39.22,23.0,22.0,120,5,,6.21,29.970472,,,,,,TRUE,,,,,FEW,1000,SCT,7000,,,,,VFR,,,,,,,,,,,,METAR,19.0
HTTB 230000Z 09018KT CAVOK 22/11 Q1019 NOSIG,HTTB,2022-10-23T00:00:00Z,-5.07,32.82,22.0,11.0,90,18,,6.21,30.088583,,,,,,TRUE,,,,,CAVOK,,,,,,,,VFR,,,,,,,,,,,,METAR,1185.0
HTSU 230000Z 00000KT 9999 SKC 18/07 Q1023,HTSU,2022-10-23T00:00:00Z,-7.95,31.6,18.0,7.0,0,0,,6.21,30.206694,,,,,,,,,,,SKC,,,,,,,,VFR,,,,,,,,,,,,METAR,1820.0
HTSO 230000Z 03003KT 9999 SKC 19/11 Q1020,HTSO,2022-10-23T00:00:00Z,-10.67,35.58,19.0,11.0,30,3,,6.21,30.11811,,,,,,,,,,,SKC,,,,,,,,VFR,,,,,,,,,,,,METAR,1058.0
HTMW 230000Z 00000KT 9999 FEW018 FEW019CB 18/16 Q1016 NOSIG,HTMW,2022-10-23T00:00:00Z,-2.43,32.92,18.0,16.0,0,0,,6.21,30.0,,,,,,TRUE,,,,,FEW,1800,FEW,1900,,,,,VFR,,,,,,,,,,,,METAR,1144.0
HTMU 230000Z 00000KT 9999 FEW018 FEW020CB 22/19 Q1018,HTMU,2022-10-23T00:00:00Z,-1.5,33.8,22.0,19.0,0,0,,6.21,30.059055,,,,,,,,,,,FEW,1800,FEW,2000,,,,,VFR,,,,,,,,,,,,METAR,1154.0
HTMG 230000Z 00000KT 9999 SCT020 22/19 Q1017,HTMG,2022-10-23T00:00:00Z,-6.78,37.65,22.0,19.0,0,0,,6.21,30.029528,,,,,,,,,,,SCT,2000,,,,,,,VFR,,,,,,,,,,,,METAR,512.0
HTKA 230000Z 00000KT 9999 SKC 19/15 Q1013 NOSIG,HTKA,2022-10-23T00:00:00Z,-4.88,29.67,19.0,15.0,0,0,,6.21,29.911417,,,,,,TRUE,,,,,SKC,,,,,,,,VFR,,,,,,,,,,,,METAR,819.0
HTJN 230000Z AUTO 09803KT //// 18/11 Q1020,HTJN,2022-10-23T00:00:00Z,,,18.0,11.0,98,3,,,30.11811,,,TRUE,,,,,,,,,,,,,,,,,,,,,,,,,,,,METAR,
HTIR 230000Z 00000KT 9999 FEW018 15/10 Q1021,HTIR,2022-10-23T00:00:00Z,-7.67,35.75,15.0,10.0,0,0,,6.21,30.147638,,,,,,,,,,,FEW,1800,,,,,,,VFR,,,,,,,,,,,,METAR,1432.0
HTIB 230000Z 00000KTBCAVOK 23/06 Q1016,HTIB,2022-10-23T00:00:00Z,,,23.0,6.0,,,,6.21,30.0,,,,,,,,,,,CAVOK,,,,,,,,VFR,,,,,,,,,,,,METAR,
HTDO 230000Z 08010KT CAVOK 19/15 Q1019 NOSIG,HTDO,2022-10-23T00:00:00Z,-6.17,35.77,19.0,15.0,80,10,,6.21,30.088583,,,,,,TRUE,,,,,CAVOK,,,,,,,,VFR,,,,,,,,,,,,METAR,1119.0
HTDA 230000Z 20005KT 9999 BKN011 23/21 Q1016 NOSIG,HTDA,2022-10-23T00:00:00Z,-6.88,39.2,23.0,21.0,200,5,,6.21,30.0,,,,,,TRUE,,,,,BKN,1100,,,,,,,MVFR,,,,,,,,,,,,METAR,53.0
HTBU 230000Z 27005KT CAVOK 19/17 Q1015,HTBU,2022-10-23T00:00:00Z,-1.32,31.82,19.0,17.0,270,5,,6.21,29.970472,,,,,,,,,,,CAVOK,,,,,,,,VFR,,,,,,,,,,,,METAR,1144.0
HTAR 230000Z 11010KT 9999 BKN022 18/15 Q1022 NOSIG,HTAR,2022-10-23T00:00:00Z,-3.37,36.63,18.0,15.0,110,10,,6.21,30.177166,,,,,,TRUE,,,,,BKN,2200,,,,,,,MVFR,,,,,,,,,,,,METAR,1386.0
HKNI 230000Z 17002KT 9999 FEW017 SCT080 15/11,HKNI,2022-10-23T00:00:00Z,-0.33,36.92,15.0,11.0,170,2,,6.21,,,,,,,,,,,,FEW,1700,SCT,8000,,,,,VFR,,,,,,,,,,,,METAR,1769.0
HKKT 230000Z 00000KT CAVOK 15/11,HKKT,2022-10-23T00:00:00Z,0.97,34.97,15.0,11.0,0,0,,6.21,,,,,,,,,,,,CAVOK,,,,,,,,VFR,,,,,,,,,,,,METAR,1829.0
HKKI 230000Z 03002KT CAVOK 20/17 Q1017,HKKI,2022-10-23T00:00:00Z,-0.1,34.75,20.0,17.0,30,2,,6.21,30.029528,,,,,,,,,,,CAVOK,,,,,,,,VFR,,,,,,,,,,,,METAR,1152.0
HETR 230000Z 36009KT CAVOK 23/16 Q1015,HETR,2022-10-23T00:00:00Z,28.22,33.65,23.0,16.0,360,9,,6.21,29.970472,,,,,,,,,,,CAVOK,,,,,,,,VFR,,,,,,,,,,,,SPECI,35.0
HESW 230000Z 02008KT CAVOK 16/11 Q1021,HESW,2022-10-23T00:00:00Z,29.35,25.5,16.0,11.0,20,8,,6.21,30.147638,,,,,,,,,,,CAVOK,,,,,,,,VFR,,,,,,,,,,,,SPECI,101.0
HESN 230000Z 33007KT CAVOK 22/08 Q1017 NOSIG,HESN,2022-10-23T00:00:00Z,23.97,32.82,22.0,8.0,330,7,,6.21,30.029528,,,,,,TRUE,,,,,CAVOK,,,,,,,,VFR,,,,,,,,,,,,METAR,197.0
HESH 230000Z 30004KT CAVOK 24/17 Q1015 NOSIG,HESH,2022-10-23T00:00:00Z,27.97,34.38,24.0,17.0,300,4,,6.21,29.970472,,,,,,TRUE,,,,,CAVOK,,,,,,,,VFR,,,,,,,,,,,,METAR,50.0
HESG 230000Z 27006KT CAVOK 20/09 Q1017 NOSIG,HESG,2022-10-23T00:00:00Z,26.33,31.75,20.0,9.0,270,6,,6.21,30.029528,,,,,,TRUE,,,,,CAVOK,,,,,,,,VFR,,,,,,,,,,,,METAR,70.0
HEPS 230000Z 03009KT CAVOK 23/19 Q1018 NOSIG,HEPS,2022-10-23T00:00:00Z,31.28,32.25,23.0,19.0,30,9,,6.21,30.059055,,,,,,TRUE,,,,,CAVOK,,,,,,,,VFR,,,,,,,,,,,,METAR,2.0
HEMM 230000Z 32009KT 9999 FEW020 21/17 Q1020 NOSIG,HEMM,2022-10-23T00:00:00Z,31.32,27.22,21.0,17.0,320,9,,6.21,30.11811,,,,,,TRUE,,,,,FEW,2000,,,,,,,VFR,,,,,,,,,,,,METAR,26.0
HEMA 230000Z 27007KT CAVOK 23/14 Q1015 NOSIG,HEMA,2022-10-23T00:00:00Z,25.55,34.58,23.0,14.0,270,7,,6.21,29.970472,,,,,,TRUE,,,,,CAVOK,,,,,,,,VFR,,,,,,,,,,,,METAR,77.0
HELX 230000Z 21002KT CAVOK 21/10 Q1017 NOSIG,HELX,2022-10-23T00:00:00Z,25.67,32.7,21.0,10.0,210,2,,6.21,30.029528,,,,,,TRUE,,,,,CAVOK,,,,,,,,VFR,,,,,,,,,,,,METAR,86.0
HEGN 230000Z 32004KT CAVOK 23/10 Q1015 NOSIG,HEGN,2022-10-23T00:00:00Z,27.18,33.8,23.0,10.0,320,4,,6.21,29.970472,,,,,,TRUE,,,,,CAVOK,,,,,,,,VFR,,,,,,,,,,,,METAR,14.0
HEBL 230000Z 35007KT CAVOK 22/09 Q1017 NOSIG,HEBL,2022-10-23T00:00:00Z,22.38,31.62,22.0,9.0,350,7,,6.21,30.029528,,,,,,TRUE,,,,,CAVOK,,,,,,,,VFR,,,,,,,,,,,,METAR,184.0
HEBA 230000Z 21004KT 9999 SCT020 19/14 Q1018 NOSIG,HEBA,2022-10-23T00:00:00Z,30.92,29.7,19.0,14.0,210,4,,6.21,30.059055,,,,,,TRUE,,,,,SCT,2000,,,,,,,VFR,,,,,,,,,,,,METAR,41.0
HEAT 230000Z 35010KT CAVOK 19/12 Q1020 NOSIG,HEAT,2022-10-23T00:00:00Z,27.05,31.02,19.0,12.0,350,10,,6.21,30.11811,,,,,,TRUE,,,,,CAVOK,,,,,,,,VFR,,,,,,,,,,,,METAR,229.0
HAAB 230000Z 11008KT 9999 FEW025 15/05 Q1028 NOSIG,HAAB,2022-10-23T00:00:00Z,8.97,38.78,15.0,5.0,110,8,,6.21,30.35433,,,,,,TRUE,,,,,FEW,2500,,,,,,,VFR,,,,,,,,,,,,METAR,2319.0
GVSV 230000Z 05025KT 9999 FEW018 26/21 Q1015 NOSIG,GVSV,2022-10-23T00:00:00Z,16.83,-25.07,26.0,21.0,50,25,,6.21,29.970472,,,,,,TRUE,,,,,FEW,1800,,,,,,,VFR,,,,,,,,,,,,METAR,16.0
GVAC 230000Z 01013KT 9999 FEW013 25/22 Q1016 NOSIG,GVAC,2022-10-23T00:00:00Z,16.73,-22.93,25.0,22.0,10,13,,6.21,30.0,,,,,,TRUE,,,,,FEW,1300,,,,,,,VFR,,,,,,,,,,,,METAR,54.0
GQPP 230000Z 01020KT 4000 BR SCT006 22/19 Q1015 NOSIG,GQPP,2022-10-23T00:00:00Z,20.92,-17.02,22.0,19.0,10,20,,2.49,29.970472,,,,,,TRUE,,,,BR,SCT,600,,,,,,,IFR,,,,,,,,,,,,METAR,5.0
GOTT 230000Z 06008KT 9999 VCTS SCT013 FEW026CB 27/25 Q1014,GOTT,2022-10-23T00:00:00Z,13.73,-13.65,27.0,25.0,60,8,,6.21,29.940945,,,,,,,,,,VCTS,SCT,1300,FEW,2600,,,,,VFR,,,,,,,,,,,,METAR,53.0
GOTK 230000Z 28004KT 9999 TS FEW030CB 26/24 Q1013,GOTK,2022-10-23T00:00:00Z,12.57,-12.22,26.0,24.0,280,4,,6.21,29.911417,,,,,,,,,,TS,FEW,3000,,,,,,,VFR,,,,,,,,,,,,METAR,165.0
GOSS 230000Z 28006KT 250V320 9999 SCT010 28/26 Q1013,GOSS,2022-10-23T00:00:00Z,16.05,-16.45,28.0,26.0,280,6,,6.21,29.911417,,,,,,,,,,,SCT,1000,,,,,,,VFR,,,,,,,,,,,,METAR,3.0
GOSP 230000Z 24002KT CAVOK 30/23 Q1012,GOSP,2022-10-23T00:00:00Z,16.68,-14.97,30.0,23.0,240,2,,6.21,29.88189,,,,,,,,,,,CAVOK,,,,,,,,VFR,,,,,,,,,,,,METAR,10.0
GOSM 230000Z 00000KT CAVOK 29/24 Q1011,GOSM,2022-10-23T00:00:00Z,15.6,-13.33,29.0,24.0,0,0,,6.21,29.852362,,,,,,,,,,,CAVOK,,,,,,,,VFR,,,,,,,,,,,,METAR,28.0
GOOY 230000Z 22002KT 9999 FEW013 26/25 Q1013,GOOY,2022-10-23T00:00:00Z,14.73,-17.5,26.0,25.0,220,2,,6.21,29.911417,,,,,,,,,,,FEW,1300,,,,,,,VFR,,,,,,,,,,,,METAR,21.0
GOOK 230000Z 28006KT CAVOK 28/27 Q1014,GOOK,2022-10-23T00:00:00Z,14.15,-16.07,28.0,27.0,280,6,,6.21,29.940945,,,,,,,,,,,CAVOK,,,,,,,,VFR,,,,,,,,,,,,METAR,8.0
GOOG 230000Z 27004KT CAVOK 30/25 Q1010,GOOG,2022-10-23T00:00:00Z,15.4,-15.08,30.0,25.0,270,4,,6.21,29.822834,,,,,,,,,,,CAVOK,,,,,,,,VFR,,,,,,,,,,,,METAR,38.0
GOOD 230000Z 00000KT CAVOK 27/26 Q1013,GOOD,2022-10-23T00:00:00Z,14.65,-16.22,27.0,26.0,0,0,,6.21,29.911417,,,,,,,,,,,CAVOK,,,,,,,,VFR,,,,,,,,,,,,METAR,9.0
GOGS 230000Z VRB02KT CAVOK 25/25 Q1013,GOGS,2022-10-23T00:00:00Z,12.4,-16.75,25.0,25.0,0,2,,6.21,29.911417,,,,,,,,,,,CAVOK,,,,,,,,VFR,,,,,,,,,,,,METAR,13.0
GOGK 230000Z 00000KT CAVOK 26/25 Q1011,GOGK,2022-10-23T00:00:00Z,12.9,-14.97,26.0,25.0,0,0,,6.21,29.852362,,,,,,,,,,,CAVOK,,,,,,,,VFR,,,,,,,,,,,,METAR,37.0
GOGG 230000Z 26002KT CAVOK 26/26 Q1014,GOGG,2022-10-23T00:00:00Z,12.55,-16.27,26.0,26.0,260,2,,6.21,29.940945,,,,,,,,,,,CAVOK,,,,,,,,VFR,,,,,,,,,,,,METAR,24.0
GMTN 230000Z VRB02KT CAVOK 17/15 Q1016 NOSIG,GMTN,2022-10-23T00:00:00Z,35.58,-5.32,17.0,15.0,0,2,,6.21,30.0,,,,,,TRUE,,,,,CAVOK,,,,,,,,VFR,,,,,,,,,,,,METAR,10.0
GMTA 230000Z 13003KT 100V180 CAVOK 18/15 Q1015 NOSIG,GMTA,2022-10-23T00:00:00Z,35.17,-3.85,18.0,15.0,130,3,,6.21,29.970472,,,,,,TRUE,,,,,CAVOK,,,,,,,,VFR,,,,,,,,,,,,METAR,14.0
GMMZ 230000Z VRB01KT CAVOK 19/M02 Q1024 NOSIG,GMMZ,2022-10-23T00:00:00Z,30.93,-6.9,19.0,-2.0,0,1,,6.21,30.236221,,,,,,TRUE,,,,,CAVOK,,,,,,,,VFR,,,,,,,,,,,,METAR,1139.0
GMMW 230000Z 27004KT 6000 NSC 18/15 Q1017 NOSIG,GMMW,2022-10-23T00:00:00Z,34.98,-3.02,18.0,15.0,270,4,,3.73,30.029528,,,,,,TRUE,,,,,CLR,,,,,,,,MVFR,,,,,,,,,,,,METAR,174.0
GMFK 230000Z 00000KT CAVOK 19/M01 Q1027 NOSIG,GMFK,2022-10-23T00:00:00Z,31.95,-4.4,19.0,-1.0,0,0,,6.21,30.324802,,,,,,TRUE,,,,,CAVOK,,,,,,,,VFR,,,,,,,,,,,,METAR,1033.0
GFLL 230000Z 30006KT 9999 FEW010 FEW027CB 26/23 Q1013 RMK CB NE,GFLL,2022-10-23T00:00:00Z,8.62,-13.18,26.0,23.0,300,6,,6.21,29.911417,,,,,,,,,,,FEW,1000,FEW,2700,,,,,VFR,,,,,,,,,,,,SPECI,28.0
GCRR 230000Z 02006KT 350V050 9999 FEW020 22/20 Q1017,GCRR,2022-10-23T00:00:00Z,28.95,-13.58,22.0,20.0,20,6,,6.21,30.029528,,,,,,,,,,,FEW,2000,,,,,,,VFR,,,,,,,,,,,,METAR,9.0
GBYD 230000Z 00000KT CAVOK 25/24 Q1013,GBYD,2022-10-23T00:00:00Z,13.33,-16.65,25.0,24.0,0,0,,6.21,29.911417,,,,,,,,,,,CAVOK,,,,,,,,VFR,,,,,,,,,,,,METAR,29.0
GANR 230000Z 20004KT CAVOK 27/21 Q1014,GANR,2022-10-23T00:00:00Z,15.23,-9.58,27.0,21.0,200,4,,6.21,29.940945,,,,,,,,,,,CAVOK,,,,,,,,VFR,,,,,,,,,,,,METAR,237.0
GAMB 230000Z 08002KT CAVOK 27/22 Q1013,GAMB,2022-10-23T00:00:00Z,14.52,-4.08,27.0,22.0,80,2,,6.21,29.911417,,,,,,,,,,,CAVOK,,,,,,,,VFR,,,,,,,,,,,,METAR,271.0
GAKD 230000Z 24004KT CAVOK 28/24 Q1013,GAKD,2022-10-23T00:00:00Z,14.48,-11.4,28.0,24.0,240,4,,6.21,29.911417,,,,,,,,,,,CAVOK,,,,,,,,VFR,,,,,,,,,,,,METAR,53.0
FYWW 230000Z AUTO 07001KT //// // ////// 20/08 Q1022,FYWW,2022-10-23T00:00:00Z,-22.57,17.1,20.0,8.0,70,1,,,30.177166,,,TRUE,,,,,,,,,,,,,,,,,,,,,,,,,,,,SPECI,1672.0
FYWB 230000Z AUTO 36007KT //// // ////// 14/12 Q1015,FYWB,2022-10-23T00:00:00Z,-22.98,14.65,14.0,12.0,360,7,,,29.970472,,,TRUE,,,,,,,,,,,,,,,,,,,,,,,,,,,,SPECI,87.0
FYOA 230000Z AUTO 07007KT //// // ////// 24/03 Q1013,FYOA,2022-10-23T00:00:00Z,-17.88,15.97,24.0,3.0,70,7,,,29.911417,,,TRUE,,,,,,,,,,,,,,,,,,,,,,,,,,,,SPECI,1099.0
FYLZ 230000Z AUTO 16007KT //// // ////// 14/13 Q1013,FYLZ,2022-10-23T00:00:00Z,-26.68,15.25,14.0,13.0,160,7,,,29.911417,,,TRUE,,,,,,,,,,,,,,,,,,,,,,,,,,,,METAR,129.0
FYKM 230000Z AUTO 04003KT //// // ////// 24/08 Q1014,FYKM,2022-10-23T00:00:00Z,-17.63,24.18,24.0,8.0,40,3,,,29.940945,,,TRUE,,,,,,,,,,,,,,,,,,,,,,,,,,,,METAR,959.0
FYGF 230000Z AUTO 27003KT //// // ////// 21/12 Q1021,FYGF,2022-10-23T00:00:00Z,-19.6,18.12,21.0,12.0,270,3,,,30.147638,,,TRUE,,,,,,,,,,,,,,,,,,,,,,,,,,,,METAR,1407.0
FWKI 230000Z 12009KT CAVOK 20/10 Q1019 NOSIG,FWKI,2022-10-23T00:00:00Z,-13.78,33.78,20.0,10.0,120,9,,6.21,30.088583,,,,,,TRUE,,,,,CAVOK,,,,,,,,VFR,,,,,,,,,,,,METAR,1225.0
FTTJ 230000Z 17002KT 8000 NSC 27/22 Q1012 NOSIG,FTTJ,2022-10-23T00:00:00Z,12.13,15.03,27.0,22.0,170,2,,4.97,29.88189,,,,,,TRUE,,,,,CLR,,,,,,,,MVFR,,,,,,,,,,,,METAR,295.0
FSIA 230000Z 14011KT 9999 FEW020 27/23 Q1013 NOSIG,FSIA,2022-10-23T00:00:00Z,-4.67,55.52,27.0,23.0,140,11,,6.21,29.911417,,,,,,TRUE,,,,,FEW,2000,,,,,,,VFR,,,,,,,,,,,,METAR,3.0
FQXA 230000Z 15003KT 090V200 9999 SCT020 BKN070 22/21 Q1020,FQXA,2022-10-23T00:00:00Z,-25.05,33.62,22.0,21.0,150,3,,6.21,30.11811,,,,,,,,,,,SCT,2000,BKN,7000,,,,,VFR,,,,,,,,,,,,METAR,3.0
FQTT 230000Z 13007KT 9999 FEW020 29/17 Q1013,FQTT,2022-10-23T00:00:00Z,-16.1,33.63,29.0,17.0,130,7,,6.21,29.911417,,,,,,,,,,,FEW,2000,,,,,,,VFR,,,,,,,,,,,,METAR,146.0
FQNP 230000Z 02010KT CAVOK 21/17 Q1017,FQNP,2022-10-23T00:00:00Z,-15.1,39.27,21.0,17.0,20,10,,6.21,30.029528,,,,,,,,,,,CAVOK,,,,,,,,VFR,,,,,,,,,,,,METAR,434.0
FQMA 230000Z 23006KT 9999 FEW009 BKN020 19/17 Q1019 NOSIG,FQMA,2022-10-23T00:00:00Z,-25.92,32.57,19.0,17.0,230,6,,6.21,30.088583,,,,,,TRUE,,,,,FEW,900,BKN,2000,,,,,MVFR,,,,,,,,,,,,METAR,34.0
FQBR 230000Z 08004KT 9999 FEW020 25/23 Q1016,FQBR,2022-10-23T00:00:00Z,-19.8,34.9,25.0,23.0,80,4,,6.21,30.0,,,,,,,,,,,FEW,2000,,,,,,,VFR,,,,,,,,,,,,METAR,14.0
FOOL 230000Z 24006KT 9999 SCT010 FEW020CB 27/24 Q1012 NOSIG,FOOL,2022-10-23T00:00:00Z,0.45,9.42,27.0,24.0,240,6,,6.21,29.88189,,,,,,TRUE,,,,,SCT,1000,FEW,2000,,,,,VFR,,,,,,,,,,,,METAR,9.0
FNLU 230000Z 19007KT 9000 SCT017 BKN020 25/22 Q1012,FNLU,2022-10-23T00:00:00Z,-8.85,13.22,25.0,22.0,190,7,,5.59,29.88189,,,,,,,,,,,SCT,1700,BKN,2000,,,,,MVFR,,,,,,,,,,,,METAR,75.0
FMSD 230000Z 00000KT 9999 FEW016 21/19 Q1016,FMSD,2022-10-23T00:00:00Z,-25.03,46.95,21.0,19.0,0,0,,6.21,30.0,,,,,,,,,,,FEW,1600,,,,,,,VFR,,,,,,,,,,,,METAR,7.0
FMNM 230000Z VRB02KT 9999 FEW040 21/19 Q1016,FMNM,2022-10-23T00:00:00Z,-15.67,46.35,21.0,19.0,0,2,,6.21,30.0,,,,,,,,,,,FEW,4000,,,,,,,VFR,,,,,,,,,,,,METAR,18.0
FMMT 230000Z 32003KT 9999 FEW017 SCT033 18/17 Q1018 NOSIG,FMMT,2022-10-23T00:00:00Z,-18.12,49.38,18.0,17.0,320,3,,6.21,30.059055,,,,,,TRUE,,,,,FEW,1700,SCT,3300,,,,,VFR,,,,,,,,,,,,METAR,13.0
FKYS 230000Z 00000KT 9999 SCT006 FEW016CB 22/22 Q1017 RETS NOSIG,FKYS,2022-10-23T00:00:00Z,3.82,11.52,22.0,22.0,0,0,,6.21,30.029528,,,,,,TRUE,,,,,SCT,600,FEW,1600,,,,,VFR,,,,,,,,,,,,METAR,694.0
FKKD 230000Z VRB02KT 1200 +TSRA SCT004 OVC010 FEW015CB 25/25 Q1013 TEMPO 2000 TSRA,FKKD,2022-10-23T00:00:00Z,4.0,9.72,25.0,25.0,0,2,,0.75,29.911417,,,,,,,,,,+TSRA,SCT,400,OVC,1000,FEW,1500,,,LIFR,,,,,,,,,,,,METAR,10.0
FIMP 230000Z 34002KT 9999 SCT017 21/19 Q1021,FIMP,2022-10-23T00:00:00Z,-20.43,57.68,21.0,19.0,340,2,,6.21,30.147638,,,,,,,,,,,SCT,1700,,,,,,,VFR,,,,,,,,,,,,METAR,57.0
FGSL 230000Z VRB02KT 8000 -TSRA SCT008 FEW020CB BKN030 25/24 Q1013 NOSIG,FGSL,2022-10-23T00:00:00Z,3.75,8.72,25.0,24.0,0,2,,4.97,29.911417,,,,,,TRUE,,,,-TSRA,SCT,800,FEW,2000,BKN,3000,,,MVFR,,,,,,,,,,,,METAR,23.0
FEFF 230000Z VRB03KT 6000 FEW007 24/23 Q1011 NOSIG,FEFF,2022-10-23T00:00:00Z,4.4,18.52,24.0,23.0,0,3,,3.73,29.852362,,,,,,TRUE,,,,,FEW,700,,,,,,,MVFR,,,,,,,,,,,,METAR,364.0
FDST 230000Z AUTO 09009KT //// // ////// 14/14 Q1020,FDST,2022-10-23T00:00:00Z,-26.43,31.95,14.0,14.0,90,9,,,30.11811,,,TRUE,,,,,,,,,,,,,,,,,,,,,,,,,,,,METAR,642.0
FDBB 230000Z AUTO 25002KT //// // ////// 19/16 Q1019,FDBB,2022-10-23T00:00:00Z,-26.8,31.93,19.0,16.0,250,2,,,30.088583,,,TRUE,,,,,,,,,,,,,,,,,,,,,,,,,,,,METAR,106.0
FCPP 230000Z 20005KT 9000 FEW009 BKN021 26/24 Q1012 NOSIG,FCPP,2022-10-23T00:00:00Z,-4.82,11.9,26.0,24.0,200,5,,5.59,29.88189,,,,,,TRUE,,,,,FEW,900,BKN,2100,,,,,MVFR,,,,,,,,,,,,METAR,18.0
FCBB 230000Z 25005KT 8000 NSC 25/22 Q1013 NOSIG,FCBB,2022-10-23T00:00:00Z,-4.25,15.25,25.0,22.0,250,5,,4.97,29.911417,,,,,,TRUE,,,,,CLR,,,,,,,,MVFR,,,,,,,,,,,,METAR,316.0
FAUP 230000Z 36006KT CAVOK 21/15 Q1015 NOSIG,FAUP,2022-10-23T00:00:00Z,-28.38,21.27,21.0,15.0,360,6,,6.21,29.970472,,,,,,TRUE,,,,,CAVOK,,,,,,,,VFR,,,,,,,,,,,,METAR,845.0
FAPP 230000Z AUTO 28004KT //// // ////// 16/16 Q1026,FAPP,2022-10-23T00:00:00Z,-23.83,29.45,16.0,16.0,280,4,,,30.295275,,,TRUE,,,,,,,,,,,,,,,,,,,,,,,,,,,,METAR,1238.0
FAPE 230000Z 08011KT CAVOK 18/15 Q1019 NOSIG,FAPE,2022-10-23T00:00:00Z,-33.98,25.6,18.0,15.0,80,11,,6.21,30.088583,,,,,,TRUE,,,,,CAVOK,,,,,,,,VFR,,,,,,,,,,,,METAR,58.0
FAOR 230000Z 07009KT 8000 OVC007 14/13 Q1026 NOSIG,FAOR,2022-10-23T00:00:00Z,-26.13,28.23,14.0,13.0,70,9,,4.97,30.295275,,,,,,TRUE,,,,,OVC,700,,,,,,,IFR,,,,,,,,,,,,METAR,1684.0
FAMM 230000Z AUTO 04009KT //// // ////// 18/13 Q1021,FAMM,2022-10-23T00:00:00Z,-25.8,25.53,18.0,13.0,40,9,,,30.147638,,,TRUE,,,,,,,,,,,,,,,,,,,,,,,,,,,,METAR,1280.0
FALW 230000Z AUTO 24003KT //// // ////// 15/12 Q1014,FALW,2022-10-23T00:00:00Z,-32.97,18.17,15.0,12.0,240,3,,,29.940945,,,TRUE,,,,,,,,,,,,,,,,,,,,,,,,,,,,METAR,31.0
FALE 230000Z 21002KT CAVOK 17/15 Q1021 NOSIG,FALE,2022-10-23T00:00:00Z,-29.62,31.12,17.0,15.0,210,2,,6.21,30.147638,,,,,,TRUE,,,,,CAVOK,,,,,,,,VFR,,,,,,,,,,,,METAR,109.0
FALA 230000Z AUTO 09009KT //// // ////// 17/14 Q1025,FALA,2022-10-23T00:00:00Z,-25.93,27.92,17.0,14.0,90,9,,,30.265747,,,TRUE,,,,,,,,,,,,,,,,,,,,,,,,,,,,METAR,1365.0
FAGG 230000Z AUTO 04003KT 010V080 9999 // SCT008/// 16/15 Q1019,FAGG,2022-10-23T00:00:00Z,-34.0,22.37,16.0,15.0,40,3,,6.21,30.088583,,,TRUE,,,,,,,,SCT,800,,,,,,,VFR,,,,,,,,,,,,METAR,196.0
FACT 230000Z 16011KT CAVOK 18/14 Q1015 NOSIG,FACT,2022-10-23T00:00:00Z,-33.97,18.6,18.0,14.0,160,11,,6.21,29.970472,,,,,,TRUE,,,,,CAVOK,,,,,,,,VFR,,,,,,,,,,,,METAR,48.0
FABL 230000Z AUTO 03007KT //// R02///// // ///////// 14/13 Q1023,FABL,2022-10-23T00:00:00Z,-29.1,26.3,14.0,13.0,30,7,,,30.206694,,,TRUE,,,,,,,,,,,,,,,,,,,,,,,,,,,,METAR,1348.0
EIME 230000Z VRB02KT 9999 -RA BKN070 13/11 Q1003,EIME,2022-10-23T00:00:00Z,53.3,-6.45,13.0,11.0,0,2,,6.21,29.616142,,,,,,,,,,-RA,BKN,7000,,,,,,,VFR,,,,,,,,,,,,METAR,90.0
DXXX 230000Z VRB03KT 9999 SCT012 27/24 Q1014 NOSIG,DXXX,2022-10-23T00:00:00Z,6.17,1.25,27.0,24.0,0,3,,6.21,29.940945,,,,,,TRUE,,,,,SCT,1200,,,,,,,VFR,,,,,,,,,,,,METAR,22.0
DXSK 230000Z 00000KT 9000 NSC 24/23 Q////,DXSK,2022-10-23T00:00:00Z,9.0,1.15,24.0,23.0,0,0,,5.59,,,,,,,,,,,,CLR,,,,,,,,VFR,,,,,,,,,,,,METAR,381.0
DXNG 230000Z 02004KT CAVOK 22/19 Q1015,DXNG,2022-10-23T00:00:00Z,9.77,1.1,22.0,19.0,20,4,,6.21,29.970472,,,,,,,,,,,CAVOK,,,,,,,,VFR,,,,,,,,,,,,METAR,343.0
DTTZ 230000Z 19008KT CAVOK 22/08 Q1022,DTTZ,2022-10-23T00:00:00Z,33.93,8.1,22.0,8.0,190,8,,6.21,30.177166,,,,,,,,,,,CAVOK,,,,,,,,VFR,,,,,,,,,,,,METAR,87.0
DTTX 230000Z 18006KT CAVOK 23/16 Q1023,DTTX,2022-10-23T00:00:00Z,34.72,10.68,23.0,16.0,180,6,,6.21,30.206694,,,,,,,,,,,CAVOK,,,,,,,,VFR,,,,,,,,,,,,METAR,17.0
DTTN 230000Z 23003KT 8000 NSC 15/05 Q1021,DTTN,2022-10-23T00:00:00Z,36.47,8.8,15.0,5.0,230,3,,4.97,30.147638,,,,,,,,,,,CLR,,,,,,,,MVFR,,,,,,,,,,,,METAR,145.0
DTTL 230000Z 15006KT 100V220 9999 FEW020 24/20 Q1022,DTTL,2022-10-23T00:00:00Z,36.85,11.07,24.0,20.0,150,6,,6.21,30.177166,,,,,,,,,,,FEW,2000,,,,,,,VFR,,,,,,,,,,,,METAR,18.0
DTTK 230000Z 19002KT 8000 NSC 20/15 Q1022,DTTK,2022-10-23T00:00:00Z,35.67,10.08,20.0,15.0,190,2,,4.97,30.177166,,,,,,,,,,,CLR,,,,,,,,MVFR,,,,,,,,,,,,METAR,65.0
DTTF 230000Z 19006KT 8000 NSC 20/07 Q1024 NOSIG,DTTF,2022-10-23T00:00:00Z,34.42,8.82,20.0,7.0,190,6,,4.97,30.236221,,,,,,TRUE,,,,,CLR,,,,,,,,MVFR,,,,,,,,,,,,METAR,314.0
DTTD 230000Z AUTO 00000KT NCD 18/05 Q1025,DTTD,2022-10-23T00:00:00Z,32.32,10.4,18.0,5.0,0,0,,,30.265747,,,TRUE,,,,,,,,CLR,,,,,,,,,,,,,,,,,,,,METAR,306.0
DTTB 230000Z 15005KT CAVOK 20/14 Q1021,DTTB,2022-10-23T00:00:00Z,37.25,9.8,20.0,14.0,150,5,,6.21,30.147638,,,,,,,,,,,CAVOK,,,,,,,,VFR,,,,,,,,,,,,METAR,4.0
DTKA 230000Z 08007KT 9999 FEW020 18/07 Q1020 NOSIG,DTKA,2022-10-23T00:00:00Z,36.98,8.88,18.0,7.0,80,7,,6.21,30.11811,,,,,,TRUE,,,,,FEW,2000,,,,,,,VFR,,,,,,,,,,,,METAR,70.0
DRRT 230000Z 06004KT CAVOK 25/04 Q1015,DRRT,2022-10-23T00:00:00Z,14.87,5.27,25.0,4.0,60,4,,6.21,29.970472,,,,,,,,,,,CAVOK,,,,,,,,VFR,,,,,,,,,,,,METAR,387.0
DRRN 230000Z 00000KT CAVOK 27/09 Q1014 NOSIG,DRRN,2022-10-23T00:00:00Z,13.47,2.17,27.0,9.0,0,0,,6.21,29.940945,,,,,,TRUE,,,,,CAVOK,,,,,,,,VFR,,,,,,,,,,,,METAR,223.0
DNMN 230000Z 10002KT 9999 FEW009 25/22 Q1012,DNMN,2022-10-23T00:00:00Z,9.65,6.47,25.0,22.0,100,2,,6.21,29.88189,,,,,,,,,,,FEW,900,,,,,,,VFR,,,,,,,,,,,,METAR,268.0
DNMM 230000Z VRB02KT 9999 -TSRA FEW009 FEW020CB 25/24 Q1014 TEMPO 5000 -TSRA,DNMM,2022-10-23T00:00:00Z,6.57,3.32,25.0,24.0,0,2,,6.21,29.940945,,,,,,,,,,-TSRA,FEW,900,FEW,2000,,,,,VFR,,,,,,,,,,,,SPECI,27.0
DNKN 230000Z 00000KT CAVOK 19/14 Q1017 NOSIG,DNKN,2022-10-23T00:00:00Z,12.05,8.52,19.0,14.0,0,0,,6.21,30.029528,,,,,,TRUE,,,,,CAVOK,,,,,,,,VFR,,,,,,,,,,,,METAR,471.0
DNIB 230000Z 30005KT 9999 BKN008 24/23 Q1014,DNIB,2022-10-23T00:00:00Z,7.37,3.98,24.0,23.0,300,5,,6.21,29.940945,,,,,,,,,,,BKN,800,,,,,,,IFR,,,,,,,,,,,,METAR,220.0
DNEN 230000Z 00000KT 9999 FEW010 27/23 Q1013 NOSIG,DNEN,2022-10-23T00:00:00Z,6.47,7.55,27.0,23.0,0,0,,6.21,29.911417,,,,,,TRUE,,,,,FEW,1000,,,,,,,VFR,,,,,,,,,,,,METAR,142.0
DNAA 230000Z 08003KT 9999 NSC 25/24 Q1014 NOSIG,DNAA,2022-10-23T00:00:00Z,9.0,7.27,25.0,24.0,80,3,,6.21,29.940945,,,,,,TRUE,,,,,CLR,,,,,,,,VFR,,,,,,,,,,,,METAR,338.0
DIYO 230000Z 22004KT 8000 NSC 24/23 Q1014 NOSIG,DIYO,2022-10-23T00:00:00Z,6.9,-5.35,24.0,23.0,220,4,,4.97,29.940945,,,,,,TRUE,,,,,CLR,,,,,,,,MVFR,,,,,,,,,,,,METAR,202.0
DIBK 230000Z 14002KT 8000 SCT011 24/24 Q1014 NOSIG,DIBK,2022-10-23T00:00:00Z,7.73,-5.07,24.0,24.0,140,2,,4.97,29.940945,,,,,,TRUE,,,,,SCT,1100,,,,,,,MVFR,,,,,,,,,,,,METAR,363.0
DGAA 230000Z 19006KT 9999 FEW012 26/25 Q1013 NOSIG,DGAA,2022-10-23T00:00:00Z,5.58,-0.17,26.0,25.0,190,6,,6.21,29.911417,,,,,,TRUE,,,,,FEW,1200,,,,,,,VFR,,,,,,,,,,,,METAR,68.0
DFOO 230000Z 00000KT CAVOK 24/21 Q1015,DFOO,2022-10-23T00:00:00Z,11.17,-4.32,24.0,21.0,0,0,,6.21,29.970472,,,,,,,,,,,CAVOK,,,,,,,,VFR,,,,,,,,,,,,METAR,461.0
DFFD 230000Z 15005KT 8000 NSC 26/19 Q1014 NOSIG,DFFD,2022-10-23T00:00:00Z,12.35,-1.52,26.0,19.0,150,5,,4.97,29.940945,,,,,,TRUE,,,,,CLR,,,,,,,,MVFR,,,,,,,,,,,,METAR,309.0
DBBB 230000Z VRB03KT 9999 TS NSC 26/24 Q1013 TEMPO BKN009 FEW019CB,DBBB,2022-10-23T00:00:00Z,6.35,2.38,26.0,24.0,0,3,,6.21,29.911417,,,,,,,,,,TS,CLR,,,,,,,,VFR,,,,,,,,,,,,METAR,4.0
DAUU 230000Z 00000KT CAVOK 19/04 Q1022,DAUU,2022-10-23T00:00:00Z,31.92,5.4,19.0,4.0,0,0,,6.21,30.177166,,,,,,,,,,,CAVOK,,,,,,,,VFR,,,,,,,,,,,,METAR,147.0
DAUT 230000Z 09011KT CAVOK 19/00 Q1021,DAUT,2022-10-23T00:00:00Z,29.25,0.27,19.0,0.0,90,11,,6.21,30.147638,,,,,,,,,,,CAVOK,,,,,,,,VFR,,,,,,,,,,,,METAR,307.0
DAUO 230000Z 20004KT CAVOK 20/07 Q1023,DAUO,2022-10-23T00:00:00Z,33.5,6.78,20.0,7.0,200,4,,6.21,30.206694,,,,,,,,,,,CAVOK,,,,,,,,VFR,,,,,,,,,,,,METAR,55.0
DAUK 230000Z 15005KT CAVOK 20/06 Q1023,DAUK,2022-10-23T00:00:00Z,33.08,6.08,20.0,6.0,150,5,,6.21,30.206694,,,,,,,,,,,CAVOK,,,,,,,,VFR,,,,,,,,,,,,METAR,83.0
DAUI 230000Z 07016KT CAVOK 24/01 Q1020,DAUI,2022-10-23T00:00:00Z,27.25,2.52,24.0,1.0,70,16,,6.21,30.11811,,,,,,,,,,,CAVOK,,,,,,,,VFR,,,,,,,,,,,,METAR,271.0
DAUH 230000Z VRB01KT CAVOK 18/03 Q1023,DAUH,2022-10-23T00:00:00Z,31.67,6.15,18.0,3.0,0,1,,6.21,30.206694,,,,,,,,,,,CAVOK,,,,,,,,VFR,,,,,,,,,,,,METAR,141.0
DAUG 230000Z VRB02KT CAVOK 21/04 Q1025,DAUG,2022-10-23T00:00:00Z,32.38,3.78,21.0,4.0,0,2,,6.21,30.265747,,,,,,,,,,,CAVOK,,,,,,,,VFR,,,,,,,,,,,,METAR,444.0
DAUE 230000Z 35003KT CAVOK 15/02 Q1024,DAUE,2022-10-23T00:00:00Z,30.57,2.87,15.0,2.0,350,3,,6.21,30.236221,,,,,,,,,,,CAVOK,,,,,,,,VFR,,,,,,,,,,,,METAR,396.0
DAUB 230000Z 08005KT CAVOK 22/05 Q1023,DAUB,2022-10-23T00:00:00Z,34.78,5.73,22.0,5.0,80,5,,6.21,30.206694,,,,,,,,,,,CAVOK,,,,,,,,VFR,,,,,,,,,,,,METAR,75.0
DAUA 230000Z 08010KT CAVOK 22/M02 Q1019,DAUA,2022-10-23T00:00:00Z,27.83,-0.18,22.0,-2.0,80,10,,6.21,30.088583,,,,,,,,,,,CAVOK,,,,,,,,VFR,,,,,,,,,,,,METAR,278.0
DAOR 230000Z 10004KT CAVOK 20/M01 Q1027,DAOR,2022-10-23T00:00:00Z,31.65,-2.27,20.0,-1.0,100,4,,6.21,30.324802,,,,,,,,,,,CAVOK,,,,,,,,VFR,,,,,,,,,,,,METAR,809.0
DAOO 230000Z 22012KT CAVOK 27/02 Q1017,DAOO,2022-10-23T00:00:00Z,35.62,-0.62,27.0,2.0,220,12,,6.21,30.029528,,,,,,,,,,,CAVOK,,,,,,,,VFR,,,,,,,,,,,,METAR,87.0
DAON 230000Z 20012KT 8000 NSC 20/M05 Q1017,DAON,2022-10-23T00:00:00Z,35.02,-1.47,20.0,-5.0,200,12,,4.97,30.029528,,,,,,,,,,,CLR,,,,,,,,MVFR,,,,,,,,,,,,METAR,245.0
DAOF 230000Z 08005KT CAVOK 22/M04 Q1019,DAOF,2022-10-23T00:00:00Z,27.7,-8.17,22.0,-4.0,80,5,,6.21,30.088583,,,,,,,,,,,CAVOK,,,,,,,,VFR,,,,,,,,,,,,METAR,441.0
DAOB 230000Z 15006KT CAVOK 17/00 Q1026,DAOB,2022-10-23T00:00:00Z,35.33,1.47,17.0,0.0,150,6,,6.21,30.295275,,,,,,,,,,,CAVOK,,,,,,,,VFR,,,,,,,,,,,,METAR,976.0
DABT 230000Z 00000KT CAVOK 14/06 Q1026,DABT,2022-10-23T00:00:00Z,35.75,6.32,14.0,6.0,0,0,,6.21,30.295275,,,,,,,,,,,CAVOK,,,,,,,,VFR,,,,,,,,,,,,METAR,813.0
DABC 230000Z VRB02KT CAVOK 17/04 Q1025,DABC,2022-10-23T00:00:00Z,36.27,6.62,17.0,4.0,0,2,,6.21,30.265747,,,,,,,,,,,CAVOK,,,,,,,,VFR,,,,,,,,,,,,METAR,686.0
DABB 230000Z 20005KT CAVOK 19/08 Q1019,DABB,2022-10-23T00:00:00Z,36.82,7.82,19.0,8.0,200,5,,6.21,30.088583,,,,,,,,,,,CAVOK,,,,,,,,VFR,,,,,,,,,,,,METAR,3.0
DAAY 230000Z 19010KT CAVOK 16/02 Q1027,DAAY,2022-10-23T00:00:00Z,33.53,-0.25,16.0,2.0,190,10,,6.21,30.324802,,,,,,,,,,,CAVOK,,,,,,,,VFR,,,,,,,,,,,,METAR,1116.0
DAAV 230000Z 16003KT CAVOK 21/11 Q1019,DAAV,2022-10-23T00:00:00Z,36.8,5.88,21.0,11.0,160,3,,6.21,30.088583,,,,,,,,,,,CAVOK,,,,,,,,VFR,,,,,,,,,,,,METAR,11.0
DAAT 230000Z 08014KT CAVOK 18/M01 Q1026,DAAT,2022-10-23T00:00:00Z,22.82,5.47,18.0,-1.0,80,14,,6.21,30.295275,,,,,,,,,,,CAVOK,,,,,,,,VFR,,,,,,,,,,,,METAR,1376.0
DAAP 230000Z 10005KT CAVOK 18/05 Q1024,DAAP,2022-10-23T00:00:00Z,26.72,8.62,18.0,5.0,100,5,,6.21,30.236221,,,,,,,,,,,CAVOK,,,,,,,,VFR,,,,,,,,,,,,METAR,542.0
DAAJ 230000Z 09007KT CAVOK 17/04 Q1025,DAAJ,2022-10-23T00:00:00Z,24.28,9.47,17.0,4.0,90,7,,6.21,30.265747,,,,,,,,,,,CAVOK,,,,,,,,VFR,,,,,,,,,,,,METAR,962.0
DAAG 230000Z 17005KT 140V200 CAVOK 29/07 Q1019,DAAG,2022-10-23T00:00:00Z,36.68,3.22,29.0,7.0,170,5,,6.21,30.088583,,,,,,,,,,,CAVOK,,,,,,,,VFR,,,,,,,,,,,,METAR,18.0
DAAE 230000Z 25010KT CAVOK 25/07 Q1019,DAAE,2022-10-23T00:00:00Z,36.72,5.07,25.0,7.0,250,10,,6.21,30.088583,,,,,,,,,,,CAVOK,,,,,,,,VFR,,,,,,,,,,,,METAR,1.0
CZZJ 230000Z AUTO 05005KT 03/M01 RMK AO1 SLP107 T00301008 53019,CZZJ,2022-10-23T00:00:00Z,53.58,-116.47,3.0,-0.8,50,5,,,,1010.7,,TRUE,TRUE,,,,,,,,,,,,,,,,1.9,,,,,,,,,,,METAR,927.0
CZUM 230000Z AUTO 23006KT 180V260 9SM FEW100 OVC180 08/03 A2986 RMK SLP128,CZUM,2022-10-23T00:00:00Z,53.55,-64.1,8.0,3.0,230,6,,9.0,29.861221,1012.8,,TRUE,,,,,,,,FEW,10000,OVC,18000,,,,,VFR,,,,,,,,,,,,METAR,431.0
CZTB 230000Z AUTO 08011KT 10/06 RMK AO1 PK WND 06017/2330 SLP090 T00970060 51017,CZTB,2022-10-23T00:00:00Z,48.37,-89.32,9.7,6.0,80,11,,,,1009.0,,TRUE,TRUE,,,,,,,,,,,,,,,,1.7,,,,,,,,,,,METAR,197.0
CZST 230000Z VRB02KT 15SM FEW075 07/03 A2991 RMK AC2 SLP132,CZST,2022-10-23T00:00:00Z,55.93,-129.98,7.0,3.0,0,2,,15.0,29.911417,1013.2,,,,,,,,,,FEW,7500,,,,,,,VFR,,,,,,,,,,,,METAR,10.0
CZSP 230000Z AUTO 21006KT 10/07 RMK AO1 SLP252 T01010069 51013,CZSP,2022-10-23T00:00:00Z,46.45,-62.58,10.1,6.9,210,6,,,,1025.2,,TRUE,TRUE,,,,,,,,,,,,,,,,1.3,,,,,,,,,,,METAR,31.0
CZSM 230000Z AUTO 01003KT M02/M08 RMK AO1 SLP163 T10201075 52015,CZSM,2022-10-23T00:00:00Z,60.03,-111.93,-2.0,-7.5,10,3,,,,1016.3,,TRUE,TRUE,,,,,,,,,,,,,,,,1.5,,,,,,,,,,,METAR,203.0
CZSJ 230000Z AUTO 00000KT 9SM CLR 00/M01 A2981 RMK SLP115,CZSJ,2022-10-23T00:00:00Z,53.07,-93.35,0.0,-1.0,0,0,,9.0,29.811024,1011.5,,TRUE,,,,,,,,CLR,,,,,,,,VFR,,,,,,,,,,,,METAR,286.0
CZRP 230000Z AUTO 33016KT M20/M22 RMK AO1 SOG 54 8007 PK WND 34022/2301 SLP069 T11981217,CZRP,2022-10-23T00:00:00Z,75.37,-105.72,-19.8,-21.7,330,16,,,,1006.9,,TRUE,TRUE,,,,,,,,,,,,,,,,,,,,,,,,,,,METAR,6.0
CZPS 230000Z AUTO 03004KT 02/M01 RMK AO1 T00161011 50005,CZPS,2022-10-23T00:00:00Z,52.43,-113.6,1.6,-1.1,30,4,,,,,,TRUE,TRUE,,,,,,,,,,,,,,,,0.5,,,,,,,,,,,METAR,953.0
CZPC 230000Z AUTO 35015KT 3/4SM -SN BKN002 OVC006 M00/M01 A2965 RMK ICE PAST HR PCPN 0.8MM PAST HR SLP080,CZPC,2022-10-23T00:00:00Z,49.52,-114.0,0.0,-1.0,350,15,,0.75,29.648623,1008.0,,TRUE,,,,,,,-SN,BKN,200,OVC,600,,,,,LIFR,,,,,,,,,,,,METAR,1187.0
CZOL 230000Z AUTO 11001KT 04/04 RMK AO1 T00350035,CZOL,2022-10-23T00:00:00Z,53.65,-113.35,3.5,3.5,110,1,,,,,,TRUE,TRUE,,,,,,,,,,,,,,,,,,,,,,,,,,,METAR,645.0
CZMJ 230000Z AUTO 05009KT 09/M02 RMK AO1 SLP051 T00881019 53008,CZMJ,2022-10-23T00:00:00Z,50.33,-105.53,8.8,-1.9,50,9,,,,1005.1,,TRUE,TRUE,,,,,,,,,,,,,,,,0.8,,,,,,,,,,,METAR,571.0
CZMD 230000Z AUTO 05003KT 9SM FEW038 02/00 A2983 RMK SLP119,CZMD,2022-10-23T00:00:00Z,53.43,-91.77,2.0,0.0,50,3,,9.0,29.828741,1011.9,,TRUE,,,,,,,,FEW,3800,,,,,,,VFR,,,,,,,,,,,,METAR,276.0
CZKD 230000Z AUTO 28003KT 02/M02 RMK AO1 SLP117 T00151019 53027,CZKD,2022-10-23T00:00:00Z,56.03,-96.52,1.5,-1.9,280,3,,,,1011.7,,TRUE,TRUE,,,,,,,,,,,,,,,,2.7,,,,,,,,,,,METAR,190.0
CZHY 230000Z AUTO 35004KT M01/M08 RMK AO1 SLP175 T10101076 52013,CZHY,2022-10-23T00:00:00Z,60.83,-115.78,-1.0,-7.6,350,4,,,,1017.5,,TRUE,TRUE,,,,,,,,,,,,,,,,1.3,,,,,,,,,,,METAR,159.0
CZFS 230000Z AUTO 24002KT M04/M07 RMK AO1 SOG 01 3007 SLP193 T10441072,CZFS,2022-10-23T00:00:00Z,61.77,-121.23,-4.4,-7.2,240,2,,,,1019.3,,TRUE,TRUE,,,,,,,,,,,,,,,,,,,,,,,,,,,METAR,174.0
CZEV 230000Z AUTO 08006KT M10/M11 RMK AO1 SOG 07 0000 SLP194 T10991114,CZEV,2022-10-23T00:00:00Z,68.32,-133.48,-9.9,-11.4,80,6,,,,1019.4,,TRUE,TRUE,,,,,,,,,,,,,,,,,,,,,,,,,,,METAR,92.0
CZEL 230000Z AUTO 13003KT 14/07 RMK AO1 SLP194 T01410074 53016,CZEL,2022-10-23T00:00:00Z,43.65,-80.42,14.1,7.4,130,3,,,,1019.4,,TRUE,TRUE,,,,,,,,,,,,,,,,1.6,,,,,,,,,,,METAR,370.0
CZDB 230000Z AUTO 30001KT 07/ RMK AO1 SLP271 T0069 51013,CZDB,2022-10-23T00:00:00Z,45.42,-63.47,6.9,,300,1,,,,1027.1,,TRUE,TRUE,,,,,,,,,,,,,,,,1.3,,,,,,,,,,,METAR,38.0
CZCR 230000Z AUTO 00000KT 06/03 RMK AO1 SLP203 T00610031 51015,CZCR,2022-10-23T00:00:00Z,47.98,-66.33,6.1,3.1,0,0,,,,1020.3,,TRUE,TRUE,,,,,,,,,,,,,,,,1.5,,,,,,,,,,,METAR,39.0
CZCP 230000Z AUTO 00000KT ////SM //// OVC026 M08/M12 A3013,CZCP,2022-10-23T00:00:00Z,70.17,-124.68,-8.0,-12.0,0,0,,,30.129921,,,TRUE,,,,,,,,OVC,2600,,,,,,,,,,,,,,,,,,,METAR,23.0
CZBF 230000Z AUTO 20005KT 9SM CLR 13/06 A3015 RMK SLP214,CZBF,2022-10-23T00:00:00Z,47.62,-65.75,13.0,6.0,200,5,,9.0,30.15059,1021.4,,TRUE,,,,,,,,CLR,,,,,,,,VFR,,,,,,,,,,,,METAR,60.0
CYZY 230000Z AUTO 01004G15KT 340V050 9SM SCT096 BKN110 BKN140 04/M05 A2981 RMK SLP122,CYZY,2022-10-23T00:00:00Z,55.3,-123.13,4.0,-5.0,10,4,15,9.0,29.811024,1012.2,,TRUE,,,,,,,,SCT,9600,BKN,11000,BKN,14000,,,VFR,,,,,,,,,,,,METAR,694.0
CYZX 230000Z 26002KT 15SM SKC 09/07 A3032 RMK SLP270,CYZX,2022-10-23T00:00:00Z,44.98,-64.92,9.0,7.0,260,2,,15.0,30.318897,1027.0,,,,,,,,,,SKC,,,,,,,,VFR,,,,,,,,,,,,METAR,28.0
CYZW 230000Z 16006KT 25SM FEW008 SCT038 OVC057 03/M00 A2982 RMK SF1SC3SC4 LAST STFD OBS/NXT 231600Z SLP134,CYZW,2022-10-23T00:00:00Z,60.17,-132.75,3.0,0.0,160,6,,25.0,29.819881,1013.4,,,,,,,,,,FEW,800,SCT,3800,OVC,5700,,,VFR,,,,,,,,,,,,METAR,700.0
CYZV 230000Z 06005KT 15SM FEW070 FEW130 FEW220 06/04 A3005 RMK AC1AC1CI1 AC TR CI TR SLP179,CYZV,2022-10-23T00:00:00Z,50.22,-66.27,6.0,4.0,60,5,,15.0,30.050198,1017.9,,,,,,,,,,FEW,7000,FEW,13000,FEW,22000,,,VFR,,,,,,,,,,,,METAR,43.0
CYZU 230000Z 04004KT 15SM SCT006 BKN060 02/02 A2978 RMK SC4SC3 SLP117,CYZU,2022-10-23T00:00:00Z,54.15,-115.78,2.0,2.0,40,4,,15.0,29.778543,1011.7,,,,,,,,,,SCT,600,BKN,6000,,,,,VFR,,,,,,,,,,,,SPECI,785.0
CYZT 230000Z 30009G15KT 20SM SCT030 SCT200 10/05 A2988 RMK CU3CI1 CI TR SLP122,CYZT,2022-10-23T00:00:00Z,50.68,-127.37,10.0,5.0,300,9,15,20.0,29.878937,1012.2,,,,,,,,,,SCT,3000,SCT,20000,,,,,VFR,,,,,,,,,,,,METAR,13.0
CYZS 230000Z VRB02KT 15SM OVC011 M01/M01 A2934 RMK SC8 SLP943,CYZS,2022-10-23T00:00:00Z,64.2,-83.35,-1.0,-1.0,0,2,,15.0,29.338583,994.3,,,,,,,,,,OVC,1100,,,,,,,MVFR,,,,,,,,,,,,METAR,60.0
CYZR 230000Z AUTO 16010KT 9SM CLR 17/10 A3001 RMK SLP165 DENSITY ALT 900FT,CYZR,2022-10-23T00:00:00Z,43.0,-82.3,17.0,10.0,160,10,,9.0,30.008858,1016.5,,TRUE,,,,,,,,CLR,,,,,,,,VFR,,,,,,,,,,,,METAR,181.0
CYZF 230000Z 36005KT 15SM BKN030 BKN200 M03/M09 A3001 RMK SC5CI1 CI TR SLP181,CYZF,2022-10-23T00:00:00Z,62.47,-114.45,-3.0,-9.0,360,5,,15.0,30.008858,1018.1,,,,,,,,,,BKN,3000,BKN,20000,,,,,MVFR,,,,,,,,,,,,METAR,202.0
CYZE 230000Z AUTO 15012KT 9SM CLR 13/09 A2990 RMK SLP131,CYZE,2022-10-23T00:00:00Z,45.88,-82.57,13.0,9.0,150,12,,9.0,29.899607,1013.1,,TRUE,,,,,,,,CLR,,,,,,,,VFR,,,,,,,,,,,,METAR,189.0
CYYZ 230000Z 14006KT 15SM SKC 14/07 A3008 RMK SLP190,CYYZ,2022-10-23T00:00:00Z,43.67,-79.62,14.0,7.0,140,6,,15.0,30.079725,1019.0,,,,,,,,,,SKC,,,,,,,,VFR,,,,,,,,,,,,METAR,171.0
CYYY 230000Z 24006KT 30SM SKC 16/04 A3007 RMK SLP187,CYYY,2022-10-23T00:00:00Z,48.6,-68.22,16.0,4.0,240,6,,30.0,30.070866,1018.7,,,,,,,,,,SKC,,,,,,,,VFR,,,,,,,,,,,,METAR,43.0
CYYW 230000Z AUTO 00000KT 9SM -RA OVC086 07/07 A2983 RMK SLP109,CYYW,2022-10-23T00:00:00Z,50.3,-88.9,7.0,7.0,0,0,,9.0,29.828741,1010.9,,TRUE,,,,,,,-RA,OVC,8600,,,,,,,VFR,,,,,,,,,,,,METAR,320.0
CYYU 230000Z 11003KT 15SM BKN160 08/07 A2991 RMK AC7 SLP142,CYYU,2022-10-23T00:00:00Z,49.42,-82.47,8.0,7.0,110,3,,15.0,29.911417,1014.2,,,,,,,,,,BKN,16000,,,,,,,VFR,,,,,,,,,,,,METAR,228.0
CYYT 230000Z 26013KT 15SM SKC 10/09 A3029 RMK SLP261,CYYT,2022-10-23T00:00:00Z,47.62,-52.73,10.0,9.0,260,13,,15.0,30.28937,1026.1,,,,,,,,,,SKC,,,,,,,,VFR,,,,,,,,,,,,METAR,128.0
CYYR 230000Z 18005KT 15SM BKN055 OVC085 11/03 A2988 RMK SC7AC1 SLP121,CYYR,2022-10-23T00:00:00Z,53.32,-60.42,11.0,3.0,180,5,,15.0,29.878937,1012.1,,,,,,,,,,BKN,5500,OVC,8500,,,,,VFR,,,,,,,,,,,,METAR,42.0
CYYQ 230000Z 33011KT 15SM BKN021 00/M03 A2980 RMK SC7 SLP096,CYYQ,2022-10-23T00:00:00Z,58.75,-94.07,0.0,-3.0,330,11,,15.0,29.799213,1009.6,,,,,,,,,,BKN,2100,,,,,,,MVFR,,,,,,,,,,,,METAR,20.0
CYYJ 230000Z 12004KT 30SM FEW030TCU FEW045 12/05 A2978 RMK TCU1SC1 SLP087,CYYJ,2022-10-23T00:00:00Z,48.63,-123.42,12.0,5.0,120,4,,30.0,29.778543,1008.7,,,,,,,,,,FEW,3000,FEW,4500,,,,,VFR,,,,,,,,,,,,METAR,16.0
CYYH 230000Z 32018KT 15SM DRSN FEW020 FEW040 SCT220 M13/M15 A2955 RMK SC1SC1CI1 SLP010,CYYH,2022-10-23T00:00:00Z,69.53,-93.57,-13.0,-15.0,320,18,,15.0,29.551182,1001.0,,,,,,,,,DRSN,FEW,2000,FEW,4000,SCT,22000,,,VFR,,,,,,,,,,,,METAR,19.0
CYYG 230000Z 22007KT 15SM SKC 12/08 A3027 RMK SLP253,CYYG,2022-10-23T00:00:00Z,46.28,-63.12,12.0,8.0,220,7,,15.0,30.268702,1025.3,,,,,,,,,,SKC,,,,,,,,VFR,,,,,,,,,,,,METAR,48.0
CYYD 230000Z 34007KT 25SM SCT065 BKN080 06/M01 A2984 RMK SC3AC3 SLP123,CYYD,2022-10-23T00:00:00Z,54.82,-127.18,6.0,-1.0,340,7,,25.0,29.840551,1012.3,,,,,,,,,,SCT,6500,BKN,8000,,,,,VFR,,,,,,,,,,,,METAR,527.0
CYYC 230000Z 36009KT 2 1/4SM -SN BR OVC005 00/M00 A2970 RMK SC8 SLP104,CYYC,2022-10-23T00:00:00Z,51.12,-114.02,0.0,0.0,360,9,,2.25,29.698818,1010.4,,,,,,,,,-SN BR,OVC,500,,,,,,,IFR,,,,,,,,,,,,METAR,1085.0
CYYB 230000Z 17010KT 25SM SCT260 15/08 A3000 RMK CI3 SLP166 DENSITY ALT 1500FT,CYYB,2022-10-23T00:00:00Z,46.35,-79.42,15.0,8.0,170,10,,25.0,30.0,1016.6,,,,,,,,,,SCT,26000,,,,,,,VFR,,,,,,,,,,,,METAR,360.0
CYXZ 230000Z VRB02KT 15SM SCT190 BKN230 09/06 A2986 RMK AC4CC3 LAST OBS/NEXT 231100UTC SLP123,CYXZ,2022-10-23T00:00:00Z,47.97,-84.77,9.0,6.0,0,2,,15.0,29.861221,1012.3,,,,,,,,,,SCT,19000,BKN,23000,,,,,VFR,,,,,,,,,,,,METAR,287.0
CYXY 230000Z 00000KT 40SM FEW011 BKN050 02/M01 A2980 RMK SF1SC6 SLP128,CYXY,2022-10-23T00:00:00Z,60.72,-135.07,2.0,-1.0,0,0,,40.0,29.799213,1012.8,,,,,,,,,,FEW,1100,BKN,5000,,,,,VFR,,,,,,,,,,,,METAR,677.0
CYXX 230000Z 22003KT 20SM FEW020 FEW023TCU SCT058 SCT160 SCT220 11/05 A2978 RMK CF1TCU1SC2AC1CI1 CF TR CI TR SLP087,CYXX,2022-10-23T00:00:00Z,49.03,-122.38,11.0,5.0,220,3,,20.0,29.778543,1008.7,,,,,,,,,,FEW,2000,FEW,2300,SCT,5800,SCT,16000,VFR,,,,,,,,,,,,METAR,54.0
CYXU 230000Z 14006KT 15SM SKC 13/08 A3007 RMK SLP187,CYXU,2022-10-23T00:00:00Z,43.03,-81.15,13.0,8.0,140,6,,15.0,30.070866,1018.7,,,,,,,,,,SKC,,,,,,,,VFR,,,,,,,,,,,,METAR,278.0
CYXT 230000Z 00000KT 20SM SCT050 08/02 A2989 RMK CU3 SLP129,CYXT,2022-10-23T00:00:00Z,54.47,-128.57,8.0,2.0,0,0,,20.0,29.890747,1012.9,,,,,,,,,,SCT,5000,,,,,,,VFR,,,,,,,,,,,,METAR,213.0
CYXR 230000Z AUTO 13006KT 9SM OVC230 12/09 A2994 RMK SLP148,CYXR,2022-10-23T00:00:00Z,47.7,-79.85,12.0,9.0,130,6,,9.0,29.940945,1014.8,,TRUE,,,,,,,,OVC,23000,,,,,,,VFR,,,,,,,,,,,,METAR,244.0
CYXL 230000Z 08006KT 050V110 15SM -RA BKN090 OVC110 08/07 A2974 RMK AC5AC3 SLP087,CYXL,2022-10-23T00:00:00Z,50.12,-91.9,8.0,7.0,80,6,,15.0,29.740158,1008.7,,,,,,,,,-RA,BKN,9000,OVC,11000,,,,,VFR,,,,,,,,,,,,METAR,381.0
CYXJ 230000Z 33009KT 15SM BKN024 M00/M05 A2989 RMK SC7 SLP157,CYXJ,2022-10-23T00:00:00Z,56.25,-120.73,0.0,-5.0,330,9,,15.0,29.890747,1015.7,,,,,,,,,,BKN,2400,,,,,,,MVFR,,,,,,,,,,,,METAR,700.0
CYXH 230000Z 05012G19KT 4SM -RA BR BKN021 OVC032 04/02 A2963 RMK SC6SC2 SLP053,CYXH,2022-10-23T00:00:00Z,50.02,-110.72,4.0,2.0,50,12,19,4.0,29.630905,1005.3,,,,,,,,,-RA BR,BKN,2100,OVC,3200,,,,,MVFR,,,,,,,,,,,,METAR,717.0
CYXE 230000Z 03011KT 15SM FEW050 BKN220 06/M01 A2970 RMK SC1CI6 FU ALF SLP082,CYXE,2022-10-23T00:00:00Z,52.17,-106.7,6.0,-1.0,30,11,,15.0,29.698818,1008.2,,,,,,,,,,FEW,5000,BKN,22000,,,,,VFR,,,,,,,,,,,,METAR,504.0
CYXC 230000Z 36004KT 300V010 15SM -RA FEW010 BKN040 OVC055 04/02 A2962 RMK SF1SC4SC3 SLP053,CYXC,2022-10-23T00:00:00Z,49.6,-115.78,4.0,2.0,360,4,,15.0,29.619095,1005.3,,,,,,,,,-RA,FEW,1000,BKN,4000,OVC,5500,,,VFR,,,,,,,,,,,,METAR,928.0
CYWL 230000Z 29007KT 15SM FEW007 SCT040 02/M01 A2975 RMK SF1SC4 SF TR SLP110,CYWL,2022-10-23T00:00:00Z,52.18,-122.07,2.0,-1.0,290,7,,15.0,29.749016,1011.0,,,,,,,,,,FEW,700,SCT,4000,,,,,VFR,,,,,,,,,,,,METAR,942.0
CYWK 230000Z 22008KT 15SM SCT070 BKN100 07/03 A2989 RMK AC3AC3 SLP144,CYWK,2022-10-23T00:00:00Z,52.92,-66.87,7.0,3.0,220,8,,15.0,29.890747,1014.4,,,,,,,,,,SCT,7000,BKN,10000,,,,,VFR,,,,,,,,,,,,METAR,547.0
CYWH 230000Z 18002KT 15SM BKN040 10/06 A2979 RMK CU5 SLP091,CYWH,2022-10-23T00:00:00Z,48.42,-123.38,10.0,6.0,180,2,,15.0,29.790354,1009.1,,,,,,,,,,BKN,4000,,,,,,,VFR,,,,,,,,,,,,METAR,4.0
CYWG 230000Z 05011KT 15SM OVC075 08/05 A2967 RMK AC8 SLP057,CYWG,2022-10-23T00:00:00Z,49.9,-97.23,8.0,5.0,50,11,,15.0,29.66929,1005.7,,,,,,,,,,OVC,7500,,,,,,,VFR,,,,,,,,,,,,METAR,238.0
CYWE 230000Z AUTO 33006KT 9SM FEW027 BKN037 M07/M11 A2997 RMK ICE MISG SLP184,CYWE,2022-10-23T00:00:00Z,64.18,-114.08,-7.0,-11.0,330,6,,9.0,29.970472,1018.4,,TRUE,,,,,,,,FEW,2700,BKN,3700,,,,,VFR,,,,,,,,,,,,METAR,374.0
CYVV 230000Z 19014G19KT 15SM SKC 17/10 A2997 RMK SLP154 DENSITY ALT 1100FT,CYVV,2022-10-23T00:00:00Z,44.75,-81.1,17.0,10.0,190,14,19,15.0,29.970472,1015.4,,,,,,,,,,SKC,,,,,,,,VFR,,,,,,,,,,,,METAR,221.0
CYVT 230000Z AUTO 03007KT 9SM OVC081 04/00 A2982 RMK SLP122,CYVT,2022-10-23T00:00:00Z,55.83,-108.42,4.0,0.0,30,7,,9.0,29.819881,1012.2,,TRUE,,,,,,,,OVC,8100,,,,,,,VFR,,,,,,,,,,,,METAR,438.0
CYVR 230000Z 29005KT 15SM FEW060TCU FEW080 FEW230 11/07 A2978 RMK TCU1AC1CI1 AC TR CI TR SLP087,CYVR,2022-10-23T00:00:00Z,49.17,-123.17,11.0,7.0,290,5,,15.0,29.778543,1008.7,,,,,,,,,,FEW,6000,FEW,8000,FEW,23000,,,VFR,,,,,,,,,,,,METAR,2.0
CYVQ 230000Z 07002KT 10SM -SN FEW014 SCT032 BKN051 BKN073 M04/M06 A3006 RMK SC2SC1SC3AC1 /S01/ SLP188,CYVQ,2022-10-23T00:00:00Z,65.27,-126.78,-4.0,-6.0,70,2,,10.0,30.059055,1018.8,,,,,,,,,-SN,FEW,1400,SCT,3200,BKN,5100,BKN,7300,VFR,,,,,,,,,,,,METAR,63.0
CYVP 230000Z 24009G21KT 220V280 15SM SCT030 BKN072 OVC120 05/01 A2955 RMK SC3AC2AC3 SLP012,CYVP,2022-10-23T00:00:00Z,58.12,-68.42,5.0,1.0,240,9,21,15.0,29.551182,1001.2,,,,,,,,,,SCT,3000,BKN,7200,OVC,12000,,,VFR,,,,,,,,,,,,METAR,28.0
CYVO 230000Z 17003KT 15SM BKN240 12/07 A2998 RMK CC7 SLP167,CYVO,2022-10-23T00:00:00Z,48.07,-77.77,12.0,7.0,170,3,,15.0,29.97933,1016.7,,,,,,,,,,BKN,24000,,,,,,,VFR,,,,,,,,,,,,METAR,329.0
CYVC 230000Z 18002KT 15SM FEW040 FEW250 02/M04 A2983 RMK SC1CI1 SLP127,CYVC,2022-10-23T00:00:00Z,55.15,-105.27,2.0,-4.0,180,2,,15.0,29.828741,1012.7,,,,,,,,,,FEW,4000,FEW,25000,,,,,VFR,,,,,,,,,,,,METAR,378.0
CYUY 230000Z 13004KT 15SM FEW190 BKN230 13/07 A2997 RMK AC2CI5 SLP160,CYUY,2022-10-23T00:00:00Z,48.2,-78.82,13.0,7.0,130,4,,15.0,29.970472,1016.0,,,,,,,,,,FEW,19000,BKN,23000,,,,,VFR,,,,,,,,,,,,METAR,304.0
CYUL 230000Z 14008KT 15SM FEW250 15/06 A3014 RMK CI1 CI TR SLP210,CYUL,2022-10-23T00:00:00Z,45.47,-73.73,15.0,6.0,140,8,,15.0,30.138779,1021.0,,,,,,,,,,FEW,25000,,,,,,,VFR,,,,,,,,,,,,METAR,31.0
CYUB 230000Z 11006KT 15SM FEW110 M08/M10 A3012 RMK AC1 AC TR SLP202,CYUB,2022-10-23T00:00:00Z,69.43,-133.02,-8.0,-10.0,110,6,,15.0,30.121063,1020.2,,,,,,,,,,FEW,11000,,,,,,,VFR,,,,,,,,,,,,METAR,5.0
CYTZ 230000Z AUTO 06014KT 050V140 9SM CLR 11/07 A3009 RMK SLP192,CYTZ,2022-10-23T00:00:00Z,43.63,-79.4,11.0,7.0,60,14,,9.0,30.088583,1019.2,,TRUE,,,,,,,,CLR,,,,,,,,VFR,,,,,,,,,,,,METAR,76.0
CYTS 230000Z 04006KT 15SM SCT230 08/05 A2991 RMK CI4 SLP142,CYTS,2022-10-23T00:00:00Z,48.57,-81.37,8.0,5.0,40,6,,15.0,29.911417,1014.2,,,,,,,,,,SCT,23000,,,,,,,VFR,,,,,,,,,,,,METAR,290.0
CYTR 230000Z 22002KT 15SM SKC 11/07 A3012 RMK DENSITY ALT -184FT SLP201,CYTR,2022-10-23T00:00:00Z,44.12,-77.52,11.0,7.0,220,2,,15.0,30.121063,1020.1,,,,,,,,,,SKC,,,,,,,,VFR,,,,,,,,,,,,METAR,80.0
CYTL 230000Z AUTO 31002KT 9SM OVC034 00/M01 A2985 RMK SLP125,CYTL,2022-10-23T00:00:00Z,53.82,-89.88,0.0,-1.0,310,2,,9.0,29.84941,1012.5,,TRUE,,,,,,,,OVC,3400,,,,,,,VFR,,,,,,,,,,,,METAR,218.0
CYTH 230000Z 35002KT 15SM SCT045 BKN065 01/M03 A2983 RMK SC3SC3 SLP117,CYTH,2022-10-23T00:00:00Z,55.8,-97.83,1.0,-3.0,350,2,,15.0,29.828741,1011.7,,,,,,,,,,SCT,4500,BKN,6500,,,,,VFR,,,,,,,,,,,,METAR,212.0
CYSN 230000Z 18011KT 15SM SKC 16/07 A3008 RMK SLP189 DENSITY ALT 400FT,CYSN,2022-10-23T00:00:00Z,43.2,-79.17,16.0,7.0,180,11,,15.0,30.079725,1018.9,,,,,,,,,,SKC,,,,,,,,VFR,,,,,,,,,,,,METAR,96.0
CYSM 230000Z 01004KT 15SM OVC029 M02/M08 A2997 RMK SC8 SLP166,CYSM,2022-10-23T00:00:00Z,60.03,-111.92,-2.0,-8.0,10,4,,15.0,29.970472,1016.6,,,,,,,,,,OVC,2900,,,,,,,MVFR,,,,,,,,,,,,METAR,203.0
CYSJ 230000Z 19003KT 15SM FEW005 09/09 A3030 RMK SC2 SLP266,CYSJ,2022-10-23T00:00:00Z,45.32,-65.88,9.0,9.0,190,3,,15.0,30.301182,1026.6,,,,,,,,,,FEW,500,,,,,,,VFR,,,,,,,,,,,,METAR,89.0
CYSF 230000Z AUTO 29002KT 9SM CLR M04/M07 A2991 RMK SLP147,CYSF,2022-10-23T00:00:00Z,59.25,-105.83,-4.0,-7.0,290,2,,9.0,29.911417,1014.7,,TRUE,,,,,,,,CLR,,,,,,,,VFR,,,,,,,,,,,,METAR,238.0
CYSB 230000Z 17005KT 15SM SCT150 12/07 A2996 RMK AC3 SLP157,CYSB,2022-10-23T00:00:00Z,46.63,-80.8,12.0,7.0,170,5,,15.0,29.958662,1015.7,,,,,,,,,,SCT,15000,,,,,,,VFR,,,,,,,,,,,,SPECI,349.0
CYRV 230000Z AUTO 03007KT 9SM BKN110 BKN130 10/01 A2964 RMK SLP048 DENSITY ALT 1600FT,CYRV,2022-10-23T00:00:00Z,50.97,-118.17,10.0,1.0,30,7,,9.0,29.639763,1004.8,,TRUE,,,,,,,,BKN,11000,BKN,13000,,,,,VFR,,,,,,,,,,,,METAR,456.0
CYRT 230000Z 34017KT 15SM BKN120 M04/M06 A2962 RMK AC7 SLP037,CYRT,2022-10-23T00:00:00Z,62.82,-92.12,-4.0,-6.0,340,17,,15.0,29.619095,1003.7,,,,,,,,,,BKN,12000,,,,,,,VFR,,,,,,,,,,,,METAR,29.0
CYRQ 230000Z AUTO 21004KT 150V230 9SM CLR 12/06 A3014 RMK SLP210,CYRQ,2022-10-23T00:00:00Z,46.35,-72.68,12.0,6.0,210,4,,9.0,30.138779,1021.0,,TRUE,,,,,,,,CLR,,,,,,,,VFR,,,,,,,,,,,,METAR,58.0
CYRL 230000Z 05004KT 030V100 15SM SCT050 BKN090 06/02 A2976 RMK SC3AC4 SLP096,CYRL,2022-10-23T00:00:00Z,51.07,-93.78,6.0,2.0,50,4,,15.0,29.760826,1009.6,,,,,,,,,,SCT,5000,BKN,9000,,,,,VFR,,,,,,,,,,,,METAR,370.0
CYRJ 230000Z 22008KT 25SM BKN210 13/05 A3007 RMK CI5 SLP189,CYRJ,2022-10-23T00:00:00Z,48.52,-72.27,13.0,5.0,220,8,,25.0,30.070866,1018.9,,,,,,,,,,BKN,21000,,,,,,,VFR,,,,,,,,,,,,METAR,173.0
CYRB 230000Z 35011KT 15SM SKC M21/M24 A2954 RMK SLP015,CYRB,2022-10-23T00:00:00Z,74.72,-94.97,-21.0,-24.0,350,11,,15.0,29.53937,1001.5,,,,,,,,,,SKC,,,,,,,,VFR,,,,,,,,,,,,METAR,59.0
CYQZ 230000Z AUTO 32003KT 9SM OVC060 04/02 A2979 RMK SLP115,CYQZ,2022-10-23T00:00:00Z,53.02,-122.52,4.0,2.0,320,3,,9.0,29.790354,1011.5,,TRUE,,,,,,,,OVC,6000,,,,,,,VFR,,,,,,,,,,,,METAR,548.0
CYQY 230000Z 22011KT 15SM FEW090 SCT240 11/11 A3031 RMK AC1CI2 CIG ESTD SLP268,CYQY,2022-10-23T00:00:00Z,46.17,-60.03,11.0,11.0,220,11,,15.0,30.31004,1026.8,,,,,,,,,,FEW,9000,SCT,24000,,,,,VFR,,,,,,,,,,,,METAR,58.0
CYQX 230000Z 24016G23KT 20SM SKC 11/06 A3022 RMK PRESRR SLP241,CYQX,2022-10-23T00:00:00Z,48.95,-54.58,11.0,6.0,240,16,23,20.0,30.221457,1024.1,,,,,,,,,,SKC,,,,,,,,VFR,,,,,,,,,,,,METAR,144.0
CYQW 230000Z AUTO 07007KT 9SM CLR 04/M01 A2974 RMK SLP098,CYQW,2022-10-23T00:00:00Z,52.77,-108.25,4.0,-1.0,70,7,,9.0,29.740158,1009.8,,TRUE,,,,,,,,CLR,,,,,,,,VFR,,,,,,,,,,,,METAR,545.0
CYQV 230000Z AUTO 05006KT 9SM BKN170 BKN190 05/M00 A2970 RMK SLP080,CYQV,2022-10-23T00:00:00Z,51.27,-102.47,5.0,0.0,50,6,,9.0,29.698818,1008.0,,TRUE,,,,,,,,BKN,17000,BKN,19000,,,,,VFR,,,,,,,,,,,,METAR,493.0
CYQU 230000Z 35011KT 20SM -SHRA FEW015 BKN035 OVC080 03/00 A2981 RMK CF1SC5AC2 SLP128,CYQU,2022-10-23T00:00:00Z,55.18,-118.88,3.0,0.0,350,11,,20.0,29.811024,1012.8,,,,,,,,,-SHRA,FEW,1500,BKN,3500,OVC,8000,,,VFR,,,,,,,,,,,,METAR,668.0
CYQT 230000Z 08011KT 15SM OVC230 09/05 A2977 RMK CS8 SLP088,CYQT,2022-10-23T00:00:00Z,48.37,-89.32,9.0,5.0,80,11,,15.0,29.769686,1008.8,,,,,,,,,,OVC,23000,,,,,,,VFR,,,,,,,,,,,,METAR,197.0
CYQR 230000Z 07011G17KT 15SM FEW100 OVC140 09/M01 A2962 RMK AC1AS7 SLP053 DENSITY ALT 2000FT,CYQR,2022-10-23T00:00:00Z,50.43,-104.67,9.0,-1.0,70,11,17,15.0,29.619095,1005.3,,,,,,,,,,FEW,10000,OVC,14000,,,,,VFR,,,,,,,,,,,,METAR,576.0
CYQQ 230000Z 36006KT 20SM FEW040 FEW070 12/05 A2978 RMK SC2AC1 CB DIST NE SLP085,CYQQ,2022-10-23T00:00:00Z,49.72,-124.9,12.0,5.0,360,6,,20.0,29.778543,1008.5,,,,,,,,,,FEW,4000,FEW,7000,,,,,VFR,,,,,,,,,,,,METAR,24.0
CYQM 230000Z 20012KT 15SM FEW220 11/06 A3025 RMK CI1 SLP247,CYQM,2022-10-23T00:00:00Z,46.12,-64.67,11.0,6.0,200,12,,15.0,30.250984,1024.7,,,,,,,,,,FEW,22000,,,,,,,VFR,,,,,,,,,,,,METAR,67.0
CYQL 230000Z 04012G19KT 4SM -RASN OVC009 01/01 A2963 RMK ST8 SLP064,CYQL,2022-10-23T00:00:00Z,49.63,-112.8,1.0,1.0,40,12,19,4.0,29.630905,1006.4,,,,,,,,,-RA -SN,OVC,900,,,,,,,IFR,,,,,,,,,,,,METAR,923.0
CYQK 230000Z 07010KT 15SM -SHRA OVC110 08/06 A2970 RMK AC8 CVCTV CLD EMBD SLP069,CYQK,2022-10-23T00:00:00Z,49.78,-94.37,8.0,6.0,70,10,,15.0,29.698818,1006.9,,,,,,,,,-SHRA,OVC,11000,,,,,,,VFR,,,,,,,,,,,,METAR,413.0
CYQH 230000Z 11007KT 20SM -SN SCT035 OVC045 02/M02 A2986 RMK SC4SC4 CLIMAT 1.6/0.9/0.0MM/TR CM/TR MWE SLP145,CYQH,2022-10-23T00:00:00Z,60.12,-128.82,2.0,-2.0,110,7,,20.0,29.861221,1014.5,,,,,,,,,-SN,SCT,3500,OVC,4500,,,,,VFR,,,,,,,,,,,,METAR,692.0
CYQG 230000Z AUTO 16007KT 9SM CLR 16/09 A3001 RMK SLP167 DENSITY ALT 800FT,CYQG,2022-10-23T00:00:00Z,42.27,-82.97,16.0,9.0,160,7,,9.0,30.008858,1016.7,,TRUE,,,,,,,,CLR,,,,,,,,VFR,,,,,,,,,,,,METAR,189.0
CYQF 230000Z AUTO 04008KT 9SM OVC036 03/M00 A2973 RMK SLP106,CYQF,2022-10-23T00:00:00Z,52.17,-113.9,3.0,0.0,40,8,,9.0,29.731298,1010.6,,TRUE,,,,,,,,OVC,3600,,,,,,,VFR,,,,,,,,,,,,METAR,912.0
CYQD 230000Z AUTO 08004KT 9SM CLR 04/M05 A2982 RMK SLP111,CYQD,2022-10-23T00:00:00Z,53.97,-101.08,4.0,-5.0,80,4,,9.0,29.819881,1011.1,,TRUE,,,,,,,,CLR,,,,,,,,VFR,,,,,,,,,,,,METAR,268.0
CYQB 230000Z VRB02KT 15SM SKC 09/05 A3014 RMK SLP212,CYQB,2022-10-23T00:00:00Z,46.78,-71.38,9.0,5.0,0,2,,15.0,30.138779,1021.2,,,,,,,,,,SKC,,,,,,,,VFR,,,,,,,,,,,,METAR,73.0
CYQA 230000Z AUTO 14006KT 9SM CLR 14/07 A3005 RMK SLP184,CYQA,2022-10-23T00:00:00Z,44.97,-79.3,14.0,7.0,140,6,,9.0,30.050198,1018.4,,TRUE,,,,,,,,CLR,,,,,,,,VFR,,,,,,,,,,,,METAR,277.0
CYPY 230000Z AUTO 36005KT 9SM BKN032 OVC096 00/M06 A2993 RMK SLP151,CYPY,2022-10-23T00:00:00Z,58.77,-111.12,0.0,-6.0,360,5,,9.0,29.929134,1015.1,,TRUE,,,,,,,,BKN,3200,OVC,9600,,,,,VFR,,,,,,,,,,,,METAR,225.0
CYPW 230000Z VRB04KT 25SM FEW049 12/03 A2977 RMK CU1 SLP085,CYPW,2022-10-23T00:00:00Z,49.83,-124.5,12.0,3.0,0,4,,25.0,29.769686,1008.5,,,,,,,,,,FEW,4900,,,,,,,VFR,,,,,,,,,,,,METAR,122.0
CYPR 230000Z AUTO 35004KT 9SM CLR 08/02 A2992 RMK SLP136,CYPR,2022-10-23T00:00:00Z,54.28,-130.45,8.0,2.0,350,4,,9.0,29.920275,1013.6,,TRUE,,,,,,,,CLR,,,,,,,,VFR,,,,,,,,,,,,METAR,30.0
CYPQ 230000Z AUTO 20002KT 9SM CLR 08/05 A3011 RMK SLP202,CYPQ,2022-10-23T00:00:00Z,44.22,-78.37,8.0,5.0,200,2,,9.0,30.109253,1020.2,,TRUE,,,,,,,,CLR,,,,,,,,VFR,,,,,,,,,,,,METAR,190.0
CYPO 230000Z AUTO 24004KT 9SM CLR 01/M02 A2987 RMK SLP121,CYPO,2022-10-23T00:00:00Z,54.98,-85.43,1.0,-2.0,240,4,,9.0,29.870079,1012.1,,TRUE,,,,,,,,CLR,,,,,,,,VFR,,,,,,,,,,,,METAR,49.0
CYPL 230000Z AUTO 08005KT 9SM SCT180 BKN200 BKN220 05/M01 A2982 RMK SLP117,CYPL,2022-10-23T00:00:00Z,51.43,-90.22,5.0,-1.0,80,5,,9.0,29.819881,1011.7,,TRUE,,,,,,,,SCT,18000,BKN,20000,BKN,22000,,,VFR,,,,,,,,,,,,METAR,390.0
CYPA 230000Z 01007KT 15SM FEW040 FEW071 SCT220 03/M02 A2979 RMK SC1AC1CI3 SC TR SLP110,CYPA,2022-10-23T00:00:00Z,53.22,-105.67,3.0,-2.0,10,7,,15.0,29.790354,1011.0,,,,,,,,,,FEW,4000,FEW,7100,SCT,22000,,,VFR,,,,,,,,,,,,METAR,428.0
CYOW 230000Z 17002KT 15SM SKC 13/04 A3014 RMK SLP209,CYOW,2022-10-23T00:00:00Z,45.32,-75.67,13.0,4.0,170,2,,15.0,30.138779,1020.9,,,,,,,,,,SKC,,,,,,,,VFR,,,,,,,,,,,,METAR,111.0
CYOO 230000Z AUTO 10005KT 9SM CLR 10/06 A3010 RMK SLP198,CYOO,2022-10-23T00:00:00Z,43.92,-78.9,10.0,6.0,100,5,,9.0,30.100393,1019.8,,TRUE,,,,,,,,CLR,,,,,,,,VFR,,,,,,,,,,,,METAR,136.0
CYOD 230000Z 12004KT 15SM BKN031 05/M01 A2978 RMK SC6 DENSITY ALT 1212FT SLP107,CYOD,2022-10-23T00:00:00Z,54.4,-110.28,5.0,-1.0,120,4,,15.0,29.778543,1010.7,,,,,,,,,,BKN,3100,,,,,,,VFR,,,,,,,,,,,,METAR,540.0
CYOC 230000Z 06007KT 10SM BKN019 OVC035 M05/M07 A2995 RMK SC6SC2 SLP165,CYOC,2022-10-23T00:00:00Z,67.57,-139.83,-5.0,-7.0,60,7,,10.0,29.949802,1016.5,,,,,,,,,,BKN,1900,OVC,3500,,,,,MVFR,,,,,,,,,,,,METAR,253.0
CYNM 230000Z AUTO 19002KT 9SM SCT130 OVC160 07/05 A2998 RMK SLP167,CYNM,2022-10-23T00:00:00Z,49.77,-77.78,7.0,5.0,190,2,,9.0,29.97933,1016.7,,TRUE,,,,,,,,SCT,13000,OVC,16000,,,,,VFR,,,,,,,,,,,,METAR,276.0
CYNE 230000Z AUTO 00000KT 9SM CLR 01/M02 A2983 RMK SLP117,CYNE,2022-10-23T00:00:00Z,53.97,-97.83,1.0,-2.0,0,0,,9.0,29.828741,1011.7,,TRUE,,,,,,,,CLR,,,,,,,,VFR,,,,,,,,,,,,METAR,220.0
CYND 230000Z 33002KT 15SM SKC 11/05 A3013 RMK SLP207,CYND,2022-10-23T00:00:00Z,45.52,-75.57,11.0,5.0,330,2,,15.0,30.129921,1020.7,,,,,,,,,,SKC,,,,,,,,VFR,,,,,,,,,,,,METAR,57.0
CYNA 230000Z AUTO 19006KT 9SM CLR 08/07 A3007 RMK ICE MISG SLP186,CYNA,2022-10-23T00:00:00Z,50.18,-61.78,8.0,7.0,190,6,,9.0,30.070866,1018.6,,TRUE,,,,,,,,CLR,,,,,,,,VFR,,,,,,,,,,,,METAR,9.0
CYMX 230000Z 21002KT 25SM SKC 13/04 A3014 RMK SLP212,CYMX,2022-10-23T00:00:00Z,45.67,-74.03,13.0,4.0,210,2,,25.0,30.138779,1021.2,,,,,,,,,,SKC,,,,,,,,VFR,,,,,,,,,,,,METAR,78.0
CYMT 230000Z AUTO 17003KT 9SM OVC130 07/05 A3002 RMK SLP181,CYMT,2022-10-23T00:00:00Z,49.77,-74.52,7.0,5.0,170,3,,9.0,30.02067,1018.1,,TRUE,,,,,,,,OVC,13000,,,,,,,VFR,,,,,,,,,,,,METAR,388.0
CYMO 230000Z AUTO 20005KT 9SM BKN130 09/06 A2993 RMK SLP136,CYMO,2022-10-23T00:00:00Z,51.28,-80.62,9.0,6.0,200,5,,9.0,29.929134,1013.6,,TRUE,,,,,,,,BKN,13000,,,,,,,VFR,,,,,,,,,,,,METAR,8.0
CYMH 230000Z AUTO 24012G18KT 9SM CLR 09/06 A3001 RMK SLP163,CYMH,2022-10-23T00:00:00Z,52.3,-55.82,9.0,6.0,240,12,18,9.0,30.008858,1016.3,,TRUE,,,,,,,,CLR,,,,,,,,VFR,,,,,,,,,,,,METAR,18.0
CYMA 230000Z 01004KT 20SM FEW011 OVC053 00/M04 A2984 RMK ST1SC8 ST TR CLIMAT 0.2/-1.2/0.0 SOGTR SLP138,CYMA,2022-10-23T00:00:00Z,63.62,-135.87,0.0,-4.0,10,4,,20.0,29.840551,1013.8,,,,,,,,,,FEW,1100,OVC,5300,,,,,VFR,,,,,,,,,,,,METAR,519.0
CYLW 230000Z AUTO 20004KT 9SM 10/02 A2967 RMK CLD MISG SLP062 DENSITY ALT 1500FT,CYLW,2022-10-23T00:00:00Z,49.95,-119.37,10.0,2.0,200,4,,9.0,29.66929,1006.2,,TRUE,,,,,,,,,,,,,,,,,,,,,,,,,,,,METAR,420.0
CYLL 230000Z 03006KT 15SM BKN043 BKN260 03/01 A2976 RMK SC5CI1 SLP106,CYLL,2022-10-23T00:00:00Z,53.32,-110.07,3.0,1.0,30,6,,15.0,29.760826,1010.6,,,,,,,,,,BKN,4300,BKN,26000,,,,,VFR,,,,,,,,,,,,METAR,664.0
CYLJ 230000Z 13006KT 15SM FEW010 BKN038 03/01 A2979 RMK SC2SC5 LAST STFD OB/NXT 231200UTC SLP111,CYLJ,2022-10-23T00:00:00Z,54.12,-108.52,3.0,1.0,130,6,,15.0,29.790354,1011.1,,,,,,,,,,FEW,1000,BKN,3800,,,,,VFR,,,,,,,,,,,,METAR,481.0
CYLH 230000Z AUTO 07002KT 9SM FEW240 M00/ A2986 RMK DP MISG SLP129,CYLH,2022-10-23T00:00:00Z,52.2,-87.93,0.0,,70,2,,9.0,29.861221,1012.9,,TRUE,,,,,,,,FEW,24000,,,,,,,VFR,,,,,,,,,,,,METAR,245.0
CYLD 230000Z 00000KT 15SM OVC230 05/05 A2987 RMK CS8 SLP137,CYLD,2022-10-23T00:00:00Z,47.82,-83.35,5.0,5.0,0,0,,15.0,29.870079,1013.7,,,,,,,,,,OVC,23000,,,,,,,VFR,,,,,,,,,,,,METAR,449.0
CYKY 230000Z 36009KT 15SM OVC120 07/M03 A2965 RMK AC8 SLP068,CYKY,2022-10-23T00:00:00Z,51.52,-109.17,7.0,-3.0,360,9,,15.0,29.648623,1006.8,,,,,,,,,,OVC,12000,,,,,,,VFR,,,,,,,,,,,,METAR,692.0
CYKJ 230000Z AUTO 36005KT 9SM OVC034 M00/M04 A2984 RMK SLP135,CYKJ,2022-10-23T00:00:00Z,57.25,-105.62,0.0,-4.0,360,5,,9.0,29.840551,1013.5,,TRUE,,,,,,,,OVC,3400,,,,,,,VFR,,,,,,,,,,,,METAR,519.0
CYKF 230000Z AUTO 14006KT 9SM CLR 13/07 A3008 RMK SLP193,CYKF,2022-10-23T00:00:00Z,43.47,-80.38,13.0,7.0,140,6,,9.0,30.079725,1019.3,,TRUE,,,,,,,,CLR,,,,,,,,VFR,,,,,,,,,,,,METAR,312.0
CYKA 230000Z 27014G21KT 40SM SCT065TCU 10/M00 A2970 RMK TCU4 SLP069,CYKA,2022-10-23T00:00:00Z,50.7,-120.45,10.0,0.0,270,14,21,40.0,29.698818,1006.9,,,,,,,,,,SCT,6500,,,,,,,VFR,,,,,,,,,,,,METAR,344.0
CYJT 230000Z 00000KT 15SM SKC 09/05 A3025 RMK SLP245,CYJT,2022-10-23T00:00:00Z,48.55,-58.57,9.0,5.0,0,0,,15.0,30.250984,1024.5,,,,,,,,,,SKC,,,,,,,,VFR,,,,,,,,,,,,METAR,7.0
CYIV 230000Z AUTO VRB02KT 9SM OVC039 04/01 A2983 RMK SLP114,CYIV,2022-10-23T00:00:00Z,53.85,-94.65,4.0,1.0,0,2,,9.0,29.828741,1011.4,,TRUE,,,,,,,,OVC,3900,,,,,,,VFR,,,,,,,,,,,,METAR,234.0
CYIN 230000Z AUTO 32013G18KT 9SM OVC044 03/M04 A2972 RMK SLP099,CYIN,2022-10-23T00:00:00Z,51.27,-121.68,3.0,-4.0,320,13,18,9.0,29.719488,1009.9,,TRUE,,,,,,,,OVC,4400,,,,,,,VFR,,,,,,,,,,,,METAR,1127.0
CYHY 230000Z VRB02KT 15SM BKN030 BKN210 M01/M09 A3002 RMK SC5CI1 SLP179,CYHY,2022-10-23T00:00:00Z,60.83,-115.77,-1.0,-9.0,0,2,,15.0,30.02067,1017.9,,,,,,,,,,BKN,3000,BKN,21000,,,,,MVFR,,,,,,,,,,,,METAR,159.0
CYHU 230000Z AUTO 20005KT 9SM CLR 14/05 A3015 RMK SLP212,CYHU,2022-10-23T00:00:00Z,45.52,-73.42,14.0,5.0,200,5,,9.0,30.15059,1021.2,,TRUE,,,,,,,,CLR,,,,,,,,VFR,,,,,,,,,,,,METAR,26.0
CYHM 230000Z 17008KT 15SM SKC 15/09 A3009 RMK SLP193 DENSITY ALT 800FT,CYHM,2022-10-23T00:00:00Z,43.17,-79.93,15.0,9.0,170,8,,15.0,30.088583,1019.3,,,,,,,,,,SKC,,,,,,,,VFR,,,,,,,,,,,,METAR,237.0
CYHK 230000Z AUTO 32017KT 9SM -SN BKN015 M13/M15 A2964 RMK SLP044,CYHK,2022-10-23T00:00:00Z,68.62,-95.85,-13.0,-15.0,320,17,,9.0,29.639763,1004.4,,TRUE,,,,,,,-SN,BKN,1500,,,,,,,MVFR,,,,,,,,,,,,METAR,36.0
CYHI 230000Z 32015KT 15SM FEW008 FEW015 SCT140 BKN250 M13/M15 A3006 RMK SF1SC1AS2CI4 SF TR LAST STFD OBS/ NXT 23-1400Z/ S00 AFT 1400Z/ SNW CVR/ TR LOOSE SLP187,CYHI,2022-10-23T00:00:00Z,70.77,-117.78,-13.0,-15.0,320,15,,15.0,30.059055,1018.7,,,,,,,,,,FEW,800,FEW,1500,SCT,14000,BKN,25000,VFR,,,,,,,,,,,,METAR,33.0
CYHE 230000Z AUTO 23003KT 180V300 9SM CLR 08/05 A2977 RMK SLP083,CYHE,2022-10-23T00:00:00Z,49.37,-121.5,8.0,5.0,230,3,,9.0,29.769686,1008.3,,TRUE,,,,,,,,CLR,,,,,,,,VFR,,,,,,,,,,,,METAR,43.0
CYHD 230000Z AUTO 07008KT 9SM SCT120 BKN140 BKN160 07/06 A2971 RMK SLP078,CYHD,2022-10-23T00:00:00Z,49.82,-92.75,7.0,6.0,70,8,,9.0,29.71063,1007.8,,TRUE,,,,,,,,SCT,12000,BKN,14000,BKN,16000,,,VFR,,,,,,,,,,,,METAR,414.0
CYGX 230000Z 26006KT 15SM BKN021 01/M00 A2983 RMK SC7 SLP113,CYGX,2022-10-23T00:00:00Z,56.35,-94.7,1.0,0.0,260,6,,15.0,29.828741,1011.3,,,,,,,,,,BKN,2100,,,,,,,MVFR,,,,,,,,,,,,METAR,145.0
CYGV 230000Z AUTO VRB02KT 9SM SCT130 SCT220 04/03 A3005 RMK SLP180,CYGV,2022-10-23T00:00:00Z,50.28,-63.62,4.0,3.0,0,2,,9.0,30.050198,1018.0,,TRUE,,,,,,,,SCT,13000,SCT,22000,,,,,VFR,,,,,,,,,,,,METAR,32.0
CYGR 230000Z 23012G18KT 15SM SKC 13/08 A3023 RMK SLP239,CYGR,2022-10-23T00:00:00Z,47.42,-61.77,13.0,8.0,230,12,18,15.0,30.230314,1023.9,,,,,,,,,,SKC,,,,,,,,VFR,,,,,,,,,,,,METAR,4.0
CYGP 230000Z 29011G16KT 15SM SKC 15/05 A3009 RMK SLP194,CYGP,2022-10-23T00:00:00Z,48.77,-64.47,15.0,5.0,290,11,16,15.0,30.088583,1019.4,,,,,,,,,,SKC,,,,,,,,VFR,,,,,,,,,,,,METAR,31.0
CYGL 230000Z 25007KT 15SM OVC030 05/02 A2990 RMK SC8 SLP137,CYGL,2022-10-23T00:00:00Z,53.62,-77.7,5.0,2.0,250,7,,15.0,29.899607,1013.7,,,,,,,,,,OVC,3000,,,,,,,MVFR,,,,,,,,,,,,METAR,192.0
CYGK 230000Z 18006KT 15SM SKC 14/09 A3014 RMK SLP209,CYGK,2022-10-23T00:00:00Z,44.22,-76.58,14.0,9.0,180,6,,15.0,30.138779,1020.9,,,,,,,,,,SKC,,,,,,,,VFR,,,,,,,,,,,,METAR,91.0
CYGE 230000Z 23003KT 20SM VCSH FEW035 BKN055 BKN080 07/M02 A2966 RMK SC1ST4AC2 VCSH ALQDS LAST STFD OBS/NEXT 231200Z SLP066,CYGE,2022-10-23T00:00:00Z,51.3,-116.98,7.0,-2.0,230,3,,20.0,29.660433,1006.6,,,,,,,,,VCSH,FEW,3500,BKN,5500,BKN,8000,,,VFR,,,,,,,,,,,,METAR,786.0
CYFC 230000Z AUTO 20005KT 9SM CLR 10/07 A3025 RMK SLP247,CYFC,2022-10-23T00:00:00Z,45.87,-66.53,10.0,7.0,200,5,,9.0,30.250984,1024.7,,TRUE,,,,,,,,CLR,,,,,,,,VFR,,,,,,,,,,,,METAR,16.0
CYFB 230000Z 17006KT 15SM BKN035 00/00 A2912 RMK SC5 SLP867,CYFB,2022-10-23T00:00:00Z,63.75,-68.55,0.0,0.0,170,6,,15.0,29.120079,986.7,,,,,,,,,,BKN,3500,,,,,,,VFR,,,,,,,,,,,,METAR,23.0
CYEV 230000Z 08006KT 15SM FEW080 M10/M12 A3007 RMK AC2 SLP193,CYEV,2022-10-23T00:00:00Z,68.32,-133.5,-10.0,-12.0,80,6,,15.0,30.070866,1019.3,,,,,,,,,,FEW,8000,,,,,,,VFR,,,,,,,,,,,,METAR,74.0
CYER 230000Z AUTO 36002KT 9SM SCT240 M01/M02 A2986 RMK SLP114,CYER,2022-10-23T00:00:00Z,56.02,-87.68,-1.0,-2.0,360,2,,9.0,29.861221,1011.4,,TRUE,,,,,,,,SCT,24000,,,,,,,VFR,,,,,,,,,,,,METAR,11.0
CYEN 230000Z AUTO 07008KT 9SM OVC055 08/03 A2959 RMK SLP042 DENSITY ALT 2000FT,CYEN,2022-10-23T00:00:00Z,49.22,-102.97,8.0,3.0,70,8,,9.0,29.589567,1004.2,,TRUE,,,,,,,,OVC,5500,,,,,,,VFR,,,,,,,,,,,,METAR,580.0
CYEK 230000Z AUTO /////KT RMK WIND MISG CLD MISG WX MISG VIS MISG PCPN MISG PRES MISG T MISG DP MISG ICE MISG DENSITY ALT MISG,CYEK,2022-10-23T00:00:00Z,61.1,-94.07,,,,,,,,,,TRUE,,,,,,,,,,,,,,,,,,,,,,,,,,,,METAR,7.0
CYEG 230000Z 35003KT 20SM BKN015 BKN022 OVC033 03/02 A2976 RMK SC5SC1SC2 SLP105,CYEG,2022-10-23T00:00:00Z,53.3,-113.58,3.0,2.0,350,3,,20.0,29.760826,1010.5,,,,,,,,,,BKN,1500,BKN,2200,OVC,3300,,,MVFR,,,,,,,,,,,,METAR,710.0
CYDQ 230000Z AUTO 34009KT 9SM OVC030 01/M04 A2987 RMK SLP151,CYDQ,2022-10-23T00:00:00Z,55.75,-120.18,1.0,-4.0,340,9,,9.0,29.870079,1015.1,,TRUE,,,,,,,,OVC,3000,,,,,,,MVFR,,,,,,,,,,,,METAR,658.0
CYDN 230000Z AUTO 04006KT 9SM CLR 06/00 A2975 RMK SLP089,CYDN,2022-10-23T00:00:00Z,51.1,-100.05,6.0,0.0,40,6,,9.0,29.749016,1008.9,,TRUE,,,,,,,,CLR,,,,,,,,VFR,,,,,,,,,,,,METAR,302.0
CYDL 230000Z AUTO 00000KT 9SM BKN029 01/M00 A2983 RMK SLP129,CYDL,2022-10-23T00:00:00Z,58.42,-130.02,1.0,0.0,0,0,,9.0,29.828741,1012.9,,TRUE,,,,,,,,BKN,2900,,,,,,,MVFR,,,,,,,,,,,,METAR,804.0
CYDF 230000Z 00000KT 15SM SKC 04/04 A3021 RMK SLP234,CYDF,2022-10-23T00:00:00Z,49.22,-57.4,4.0,4.0,0,0,,15.0,30.209646,1023.4,,,,,,,,,,SKC,,,,,,,,VFR,,,,,,,,,,,,METAR,15.0
CYDC 230000Z 00000KT 20SM FEW015 SCT079 SCT200 06/01 A2970 RMK ST1AC3CI1 ST TR CI TR SLP074,CYDC,2022-10-23T00:00:00Z,49.47,-120.52,6.0,1.0,0,0,,20.0,29.698818,1007.4,,,,,,,,,,FEW,1500,SCT,7900,SCT,20000,,,VFR,,,,,,,,,,,,METAR,703.0
CYDB 230000Z AUTO 30008KT 9SM OVC038 M01/M03 A2976 RMK SLP125,CYDB,2022-10-23T00:00:00Z,61.37,-139.02,-1.0,-3.0,300,8,,9.0,29.760826,1012.5,,TRUE,,,,,,,,OVC,3800,,,,,,,VFR,,,,,,,,,,,,METAR,807.0
CYCY 230000Z AUTO 32008KT 9SM OVC020 M05/M06 A2940 RMK SLP961,CYCY,2022-10-23T00:00:00Z,70.48,-68.52,-5.0,-6.0,320,8,,9.0,29.40059,996.1,,TRUE,,,,,,,,OVC,2000,,,,,,,MVFR,,,,,,,,,,,,METAR,73.0
CYCQ 230000Z 00000KT 10SM OVC029 02/M02 A2989 RMK SC8 PCPN DIST W SLP155,CYCQ,2022-10-23T00:00:00Z,55.7,-121.62,2.0,-2.0,0,0,,10.0,29.890747,1015.5,,,,,,,,,,OVC,2900,,,,,,,MVFR,,,,,,,,,,,,METAR,614.0
CYCK 230000Z AUTO 18015KT 9SM CLR 17/10 A3004 RMK SLP174 DENSITY ALT 1000FT,CYCK,2022-10-23T00:00:00Z,42.3,-82.08,17.0,10.0,180,15,,9.0,30.041338,1017.4,,TRUE,,,,,,,,CLR,,,,,,,,VFR,,,,,,,,,,,,METAR,196.0
CYCG 230000Z 05004KT 15SM -RA OVC038 07/03 A2964 RMK SC8 VIS NW-NE 12 SLP049,CYCG,2022-10-23T00:00:00Z,49.28,-117.63,7.0,3.0,50,4,,15.0,29.639763,1004.9,,,,,,,,,-RA,OVC,3800,,,,,,,VFR,,,,,,,,,,,,METAR,487.0
CYCD 230000Z 36007KT 25SM FEW036 12/03 A2978 RMK CU1 SLP085,CYCD,2022-10-23T00:00:00Z,49.05,-123.87,12.0,3.0,360,7,,25.0,29.778543,1008.5,,,,,,,,,,FEW,3600,,,,,,,VFR,,,,,,,,,,,,METAR,30.0
CYCB 230000Z 30011KT 15SM BKN015 M17/M20 A2984 RMK SC6 SLP112,CYCB,2022-10-23T00:00:00Z,69.1,-105.12,-17.0,-20.0,300,11,,15.0,29.840551,1011.2,,,,,,,,,,BKN,1500,,,,,,,MVFR,,,,,,,,,,,,METAR,19.0
CYCA 230000Z AUTO 22011G18KT 9SM FEW240 10/03 A2988 RMK SLP122,CYCA,2022-10-23T00:00:00Z,53.68,-57.03,10.0,3.0,220,11,18,9.0,29.878937,1012.2,,TRUE,,,,,,,,FEW,24000,,,,,,,VFR,,,,,,,,,,,,METAR,12.0
CYBR 230000Z 07014G22KT 15SM BKN140 OVC180 08/02 A2966 RMK AC5AC3 PRESRR SLP066,CYBR,2022-10-23T00:00:00Z,49.92,-99.95,8.0,2.0,70,14,22,15.0,29.660433,1006.6,,,,,,,,,,BKN,14000,OVC,18000,,,,,VFR,,,,,,,,,,,,METAR,405.0
CYBL 230000Z 35011KT 30SM FEW050 13/00 A2977 RMK CU1 SLP084 DENSITY ALT 400FT,CYBL,2022-10-23T00:00:00Z,49.95,-125.27,13.0,0.0,350,11,,30.0,29.769686,1008.4,,,,,,,,,,FEW,5000,,,,,,,VFR,,,,,,,,,,,,METAR,94.0
CYBK 230000Z 32014KT 15SM FEW011 FEW017 SCT110 M07/M10 A2973 RMK SC1SC1AC1 SLP071,CYBK,2022-10-23T00:00:00Z,64.3,-96.07,-7.0,-10.0,320,14,,15.0,29.731298,1007.1,,,,,,,,,,FEW,1100,FEW,1700,SCT,11000,,,VFR,,,,,,,,,,,,METAR,14.0
CYBG 230000Z 22007KT 25SM FEW200 14/04 A3009 RMK CI1 SLP195,CYBG,2022-10-23T00:00:00Z,48.33,-70.98,14.0,4.0,220,7,,25.0,30.088583,1019.5,,,,,,,,,,FEW,20000,,,,,,,VFR,,,,,,,,,,,,METAR,151.0
CYBD 230000Z 29005KT 12SM FEW035 SCT080 08/06 A2988 RMK SC1AC2 SLP120,CYBD,2022-10-23T00:00:00Z,52.38,-126.58,8.0,6.0,290,5,,12.0,29.878937,1012.0,,,,,,,,,,FEW,3500,SCT,8000,,,,,VFR,,,,,,,,,,,,METAR,40.0
CYBC 230000Z AUTO 25006KT 9SM CLR 08/05 A3006 RMK SLP181,CYBC,2022-10-23T00:00:00Z,49.13,-68.2,8.0,5.0,250,6,,9.0,30.059055,1018.1,,TRUE,,,,,,,,CLR,,,,,,,,VFR,,,,,,,,,,,,METAR,20.0
CYBB 230000Z 30014KT 10SM -FZDZ OVC017 M05/M07 A2948 RMK SC8 LAST STFD OBS/NXT/231700Z/RIME SLP985,CYBB,2022-10-23T00:00:00Z,68.53,-89.78,-5.0,-7.0,300,14,,10.0,29.480314,998.5,,,,,,,,,-FZDZ,OVC,1700,,,,,,,MVFR,,,,,,,,,,,,METAR,13.0
CYAZ 230000Z 31011KT 15SM SKC 13/05 A2976 RMK SLP079,CYAZ,2022-10-23T00:00:00Z,49.08,-125.77,13.0,5.0,310,11,,15.0,29.760826,1007.9,,,,,,,,,,SKC,,,,,,,,VFR,,,,,,,,,,,,METAR,26.0
CYAY 230000Z AUTO 23021G29KT 9SM OVC140 10/07 A3007 RMK SLP186,CYAY,2022-10-23T00:00:00Z,51.38,-56.07,10.0,7.0,230,21,29,9.0,30.070866,1018.6,,TRUE,,,,,,,,OVC,14000,,,,,,,VFR,,,,,,,,,,,,METAR,23.0
CYAT 230000Z AUTO 33002KT 9SM CLR 00/00 A2991 RMK SLP131,CYAT,2022-10-23T00:00:00Z,52.93,-82.43,0.0,0.0,330,2,,9.0,29.911417,1013.1,,TRUE,,,,,,,,CLR,,,,,,,,VFR,,,,,,,,,,,,METAR,4.0
CYAM 230000Z 09005KT 20SM SCT240 SCT280 12/08 A2984 RMK CI3CI1 SLP112,CYAM,2022-10-23T00:00:00Z,46.48,-84.52,12.0,8.0,90,5,,20.0,29.840551,1011.2,,,,,,,,,,SCT,24000,SCT,28000,,,,,VFR,,,,,,,,,,,,METAR,186.0
CYAH 230000Z AUTO 26015KT 9SM FEW046 06/00 A2986 RMK SLP128,CYAH,2022-10-23T00:00:00Z,53.75,-73.67,6.0,0.0,260,15,,9.0,29.861221,1012.8,,TRUE,,,,,,,,FEW,4600,,,,,,,VFR,,,,,,,,,,,,METAR,298.0
CXZV 230000Z AUTO 05003KT 05/04 RMK AO1 SLP175 T00530037 51019,CXZV,2022-10-23T00:00:00Z,50.22,-66.25,5.3,3.7,50,3,,,,1017.5,,TRUE,TRUE,,,,,,,,,,,,,,,,1.9,,,,,,,,,,,METAR,43.0
CXZC 230000Z AUTO 18002KT 09/06 RMK AO1 SLP137 T00940059 51026,CXZC,2022-10-23T00:00:00Z,51.3,-80.62,9.4,5.9,180,2,,,,1013.7,,TRUE,TRUE,,,,,,,,,,,,,,,,2.6,,,,,,,,,,,METAR,8.0
CXYH 230000Z AUTO 19004KT M01/M04 RMK AO1 SLP166 T10141042 55000,CXYH,2022-10-23T00:00:00Z,61.25,-123.75,-1.4,-4.2,190,4,,,,1016.6,,TRUE,TRUE,,,,,,,,,,,,,,,,0.0,,,,,,,,,,,METAR,197.0
CXWN 230000Z AUTO 04004KT 09/05 RMK AO1 SLP057 T00920048 53007,CXWN,2022-10-23T00:00:00Z,49.88,-97.13,9.2,4.8,40,4,,,,1005.7,,TRUE,TRUE,,,,,,,,,,,,,,,,0.7,,,,,,,,,,,METAR,232.0
CXWM 230000Z AUTO 03014KT 01/M00 RMK AO1 8PAST HR M PK WND 04022/2304 P0003 T00061002 50039,CXWM,2022-10-23T00:00:00Z,49.5,-112.12,0.6,-0.2,30,14,,,,,,TRUE,TRUE,,,,,,,,,,,,,,,,3.9,,,,,0.03,,,,,,METAR,947.0
CXVW 230000Z AUTO 29004KT 02/01 RMK AO1 SLP111 T00150014 53018,CXVW,2022-10-23T00:00:00Z,55.1,-117.2,1.5,1.4,290,4,,,,1011.1,,TRUE,TRUE,,,,,,,,,,,,,,,,1.8,,,,,,,,,,,METAR,696.0
CXVN 230000Z AUTO 19006KT 16/08 RMK AO1 SLP190 T01640075 53013,CXVN,2022-10-23T00:00:00Z,43.18,-79.4,16.4,7.5,190,6,,,,1019.0,,TRUE,TRUE,,,,,,,,,,,,,,,,1.3,,,,,,,,,,,METAR,86.0
CXVM 230000Z AUTO 06008KT 04/02 RMK AO1 T00440022,CXVM,2022-10-23T00:00:00Z,53.35,-110.88,4.4,2.2,60,8,,,,,,TRUE,TRUE,,,,,,,,,,,,,,,,,,,,,,,,,,,METAR,622.0
CXTV 230000Z AUTO 05002KT M10/M11 RMK AO1 SOG 07 6001 SLP198 T10981112 50007,CXTV,2022-10-23T00:00:00Z,68.75,-133.5,-9.8,-11.2,50,2,,,,1019.8,,TRUE,TRUE,,,,,,,,,,,,,,,,0.7,,,,,,,,,,,METAR,91.0
CXTP 230000Z AUTO 23007KT 09/07 RMK AO1 SLP236 T00870070 50001,CXTP,2022-10-23T00:00:00Z,48.55,-53.97,8.7,7.0,230,7,,,,1023.6,,TRUE,TRUE,,,,,,,,,,,,,,,,0.1,,,,,,,,,,,METAR,104.0
CXTO 230000Z AUTO 14/07 RMK AO1 SLP192 T01430070 53012,CXTO,2022-10-23T00:00:00Z,43.67,-79.4,14.3,7.0,,,,,,1019.2,,TRUE,TRUE,,,,,,,,,,,,,,,,1.2,,,,,,,,,,,METAR,115.0
CXTN 230000Z AUTO 06001KT M13/M15 RMK AO1 SOG 22 1002 SLP211 T11291146,CXTN,2022-10-23T00:00:00Z,69.2,-122.35,-12.9,-14.6,60,1,,,,1021.1,,TRUE,TRUE,,,,,,,,,,,,,,,,,,,,,,,,,,,METAR,564.0
CXTH 230000Z AUTO 36004KT 04/02 RMK AO1 T00370015,CXTH,2022-10-23T00:00:00Z,53.63,-111.68,3.7,1.5,360,4,,,,,,TRUE,TRUE,,,,,,,,,,,,,,,,,,,,,,,,,,,METAR,679.0
CXTD 230000Z AUTO 19010KT 12/10 RMK AO1 PK WND 19017/2313 SLP277 T01160096 53003,CXTD,2022-10-23T00:00:00Z,45.62,-61.68,11.6,9.6,190,10,,,,1027.7,,TRUE,TRUE,,,,,,,,,,,,,,,,0.3,,,,,,,,,,,METAR,58.0
CXSP 230000Z AUTO 03004KT 04/M01 RMK AO1 T00441008,CXSP,2022-10-23T00:00:00Z,54.02,-111.27,4.4,-0.8,30,4,,,,,,TRUE,TRUE,,,,,,,,,,,,,,,,,,,,,,,,,,,METAR,652.0
CXSL 230000Z AUTO 00000KT 02/01 RMK AO1 T00220005,CXSL,2022-10-23T00:00:00Z,54.28,-112.5,2.2,0.5,0,0,,,,,,TRUE,TRUE,,,,,,,,,,,,,,,,,,,,,,,,,,,METAR,680.0
CXSH 230000Z AUTO 01001KT 10/05 RMK AO1 SLP208 T00950054 51018,CXSH,2022-10-23T00:00:00Z,46.55,-72.73,9.5,5.4,10,1,,,,1020.8,,TRUE,TRUE,,,,,,,,,,,,,,,,1.8,,,,,,,,,,,METAR,106.0
CXSE 230000Z AUTO 32012KT M18/M20 RMK AO1 SOG 05 SLP074 T11791198,CXSE,2022-10-23T00:00:00Z,73.77,-105.28,-17.9,-19.8,320,12,,,,1007.4,,TRUE,TRUE,,,,,,,,,,,,,,,,,,,,,,,,,,,METAR,11.0
CXSC 230000Z AUTO 04010KT 05/M00 RMK AO1 PK WND 03021/2316 T00471001,CXSC,2022-10-23T00:00:00Z,50.3,-110.08,4.7,-0.1,40,10,,,,,,TRUE,TRUE,,,,,,,,,,,,,,,,,,,,,,,,,,,METAR,809.0
CXRL 230000Z AUTO 30002KT 01/M00 RMK AO1 T00131002,CXRL,2022-10-23T00:00:00Z,54.5,-111.7,1.3,-0.2,300,2,,,,,,TRUE,TRUE,,,,,,,,,,,,,,,,,,,,,,,,,,,METAR,585.0
CXRH 230000Z AUTO 23013G19KT 11/07 RMK AO1 PK WND 22024/2328 SLP223 T01140066 51004,CXRH,2022-10-23T00:00:00Z,49.57,-57.88,11.4,6.6,230,13,19,,,1022.3,,TRUE,TRUE,,,,,,,,,,,,,,,,0.4,,,,,,,,,,,METAR,68.0
CXRB 230000Z AUTO 35008KT M21/M24 RMK AO1 SOG 04 1007 PK WND 33017/2305 SLP012 T12121242,CXRB,2022-10-23T00:00:00Z,74.72,-94.98,-21.2,-24.2,350,8,,,,1001.2,,TRUE,TRUE,,,,,,,,,,,,,,,,,,,,,,,,,,,METAR,30.0
CXPL 230000Z AUTO 01007KT 05/M01 RMK AO1 T00541006,CXPL,2022-10-23T00:00:00Z,51.13,-111.7,5.4,-0.6,10,7,,,,,,TRUE,TRUE,,,,,,,,,,,,,,,,,,,,,,,,,,,METAR,735.0
CXPC 230000Z AUTO 15/09 RMK AO1 SLP166 T01540088 53016,CXPC,2022-10-23T00:00:00Z,45.35,-80.05,15.4,8.8,,,,,,1016.6,,TRUE,TRUE,,,,,,,,,,,,,,,,1.6,,,,,,,,,,,METAR,176.0
CXPA 230000Z AUTO 33008KT 03/01 RMK AO1 T00250006,CXPA,2022-10-23T00:00:00Z,55.62,-118.3,2.5,0.6,330,8,,,,,,TRUE,TRUE,,,,,,,,,,,,,,,,,,,,,,,,,,,METAR,628.0
CXOY 230000Z AUTO 03009KT 05/M03 RMK AO1 T00451030,CXOY,2022-10-23T00:00:00Z,51.35,-110.35,4.5,-3.0,30,9,,,,,,TRUE,TRUE,,,,,,,,,,,,,,,,,,,,,,,,,,,METAR,784.0
CXOX 230000Z AUTO 18001KT 03/M04 RMK AO1 SLP117 T00311044 53020,CXOX,2022-10-23T00:00:00Z,55.15,-105.27,3.1,-4.4,180,1,,,,1011.7,,TRUE,TRUE,,,,,,,,,,,,,,,,2.0,,,,,,,,,,,METAR,381.0
CXOL 230000Z AUTO 33003KT M00/M00 RMK AO1 4PAST HR M P0002 T10041004 50014,CXOL,2022-10-23T00:00:00Z,51.77,-114.08,-0.4,-0.4,330,3,,,,,,TRUE,TRUE,,,,,,,,,,,,,,,,1.4,,,,,0.02,,,,,,METAR,1026.0
CXNP 230000Z AUTO 19007KT 10/07 RMK AO1 SLP256 T01030066 51015,CXNP,2022-10-23T00:00:00Z,45.75,-64.23,10.3,6.6,190,7,,,,1025.6,,TRUE,TRUE,,,,,,,,,,,,,,,,1.5,,,,,,,,,,,METAR,19.0
CXNM 230000Z AUTO 24011G17KT 09/06 RMK AO1 SOG 01 PK WND 24017/2358 T00930063,CXNM,2022-10-23T00:00:00Z,46.82,-60.67,9.3,6.3,240,11,17,,,,,TRUE,TRUE,,,,,,,,,,,,,,,,,,,,,,,,,,,METAR,452.0
CXMY 230000Z AUTO 08/07 RMK AO1 T00770074,CXMY,2022-10-23T00:00:00Z,44.98,-62.48,7.7,7.4,,,,,,,,TRUE,TRUE,,,,,,,,,,,,,,,,,,,,,,,,,,,METAR,37.0
CXMO 230000Z AUTO 03008KT 03/00 RMK AO1 T00340000,CXMO,2022-10-23T00:00:00Z,51.67,-112.68,3.4,0.0,30,8,,,,,,TRUE,TRUE,,,,,,,,,,,,,,,,,,,,,,,,,,,METAR,837.0
CXMM 230000Z AUTO 33005KT 03/M00 RMK AO1 3021 SLP127 T00251001 50004,CXMM,2022-10-23T00:00:00Z,56.65,-111.22,2.5,-0.1,330,5,,,,1012.7,,TRUE,TRUE,,,,,,,,,,,,,,,,0.4,,,,,,,,,,,METAR,372.0
CXMI 230000Z AUTO 18004KT 13/13 RMK AO1 SLP268 T01250126 51005,CXMI,2022-10-23T00:00:00Z,44.6,-63.53,12.5,12.6,180,4,,,,1026.8,,TRUE,TRUE,,,,,,,,,,,,,,,,0.5,,,,,,,,,,,METAR,15.0
CXMG 230000Z AUTO 32007KT 01/M00 RMK AO1 T00051001,CXMG,2022-10-23T00:00:00Z,56.97,-117.45,0.5,-0.1,320,7,,,,,,TRUE,TRUE,,,,,,,,,,,,,,,,,,,,,,,,,,,METAR,467.0
CXMD 230000Z AUTO 03010KT 08/06 RMK AO1 SLP041 T00760063 53005,CXMD,2022-10-23T00:00:00Z,49.18,-98.08,7.6,6.3,30,10,,,,1004.1,,TRUE,TRUE,,,,,,,,,,,,,,,,0.5,,,,,,,,,,,METAR,297.0
CXLL 230000Z AUTO 14001KT M03/M04 RMK AO1 SOG 03 3003 SLP191 T10271042,CXLL,2022-10-23T00:00:00Z,61.12,-122.85,-2.7,-4.2,140,1,,,,1019.1,,TRUE,TRUE,,,,,,,,,,,,,,,,,,,,,,,,,,,METAR,180.0
CXLB 230000Z AUTO 25003KT 13/12 RMK AO1 SLP267 T01270118 51007,CXLB,2022-10-23T00:00:00Z,44.37,-64.3,12.7,11.8,250,3,,,,1026.7,,TRUE,TRUE,,,,,,,,,,,,,,,,0.7,,,,,,,,,,,METAR,4.0
CXKT 230000Z AUTO 25004KT 09/06 RMK AO1 SLP267 T00890064 53014,CXKT,2022-10-23T00:00:00Z,45.07,-64.48,8.9,6.4,250,4,,,,1026.7,,TRUE,TRUE,,,,,,,,,,,,,,,,1.4,,,,,,,,,,,METAR,48.0
CXKM 230000Z AUTO 36006KT 01/M02 RMK AO1 T00131018,CXKM,2022-10-23T00:00:00Z,52.83,-111.87,1.3,-1.8,360,6,,,,,,TRUE,TRUE,,,,,,,,,,,,,,,,,,,,,,,,,,,METAR,679.0
CXKI 230000Z AUTO 00017KT 12/08 RMK AO1 SLP144 T01210078 52013,CXKI,2022-10-23T00:00:00Z,48.13,-80.0,12.1,7.8,0,17,,,,1014.4,,TRUE,TRUE,,,,,,,,,,,,,,,,1.3,,,,,,,,,,,METAR,328.0
CXKE 230000Z AUTO 16002KT 11/04 RMK AO1 SLP208 T01080043 53016,CXKE,2022-10-23T00:00:00Z,45.0,-75.63,10.8,4.3,160,2,,,,1020.8,,TRUE,TRUE,,,,,,,,,,,,,,,,1.6,,,,,,,,,,,METAR,99.0
CXKA 230000Z AUTO 09002KT 08/07 RMK AO1 SLP141 T00780070 53015,CXKA,2022-10-23T00:00:00Z,49.4,-82.45,7.8,7.0,90,2,,,,1014.1,,TRUE,TRUE,,,,,,,,,,,,,,,,1.5,,,,,,,,,,,METAR,221.0
CXIB 230000Z AUTO 23001KT 07/05 RMK AO1 SLP252 T00680049 51008,CXIB,2022-10-23T00:00:00Z,46.67,-60.4,6.8,4.9,230,1,,,,1025.2,,TRUE,TRUE,,,,,,,,,,,,,,,,0.8,,,,,,,,,,,METAR,6.0
CXHR 230000Z AUTO 01008KT 03/M01 RMK AO1 T00321009,CXHR,2022-10-23T00:00:00Z,51.18,-112.5,3.2,-0.9,10,8,,,,,,TRUE,TRUE,,,,,,,,,,,,,,,,,,,,,,,,,,,METAR,975.0
CXHP 230000Z AUTO 05002KT 03/01 RMK AO1 T00340014,CXHP,2022-10-23T00:00:00Z,55.4,-116.48,3.4,1.4,50,2,,,,,,TRUE,TRUE,,,,,,,,,,,,,,,,,,,,,,,,,,,METAR,601.0
CXHM 230000Z AUTO 24001KT 15/08 RMK AO1 SLP191 T01490077 53011,CXHM,2022-10-23T00:00:00Z,43.28,-79.9,14.9,7.7,240,1,,,,1019.1,,TRUE,TRUE,,,,,,,,,,,,,,,,1.1,,,,,,,,,,,METAR,105.0
CXHD 230000Z AUTO 05004KT 04/M00 RMK AO1 T00371001,CXHD,2022-10-23T00:00:00Z,53.18,-112.25,3.7,-0.1,50,4,,,,,,TRUE,TRUE,,,,,,,,,,,,,,,,,,,,,,,,,,,METAR,688.0
CXHA 230000Z AUTO 18007KT 18/09 RMK AO1 SLP167 T01750091 53016,CXHA,2022-10-23T00:00:00Z,42.03,-82.9,17.5,9.1,180,7,,,,1016.7,,TRUE,TRUE,,,,,,,,,,,,,,,,1.6,,,,,,,,,,,METAR,193.0
CXGH 230000Z AUTO 02012KT 08/06 RMK AO1 SLP072 T00810058 53008,CXGH,2022-10-23T00:00:00Z,50.63,-97.0,8.1,5.8,20,12,,,,1007.2,,TRUE,TRUE,,,,,,,,,,,,,,,,0.8,,,,,,,,,,,METAR,217.0
CXFR 230000Z AUTO 34005KT 02/02 RMK AO1 T00210020 50007,CXFR,2022-10-23T00:00:00Z,56.08,-118.43,2.1,2.0,340,5,,,,,,TRUE,TRUE,,,,,,,,,,,,,,,,0.7,,,,,,,,,,,METAR,657.0
CXFM 230000Z AUTO 03014KT 01/01 RMK AO1 2PAST HR M PK WND 02020/2359 P0005 T00130008 50056,CXFM,2022-10-23T00:00:00Z,49.48,-111.48,1.3,0.8,30,14,,,,,,TRUE,TRUE,,,,,,,,,,,,,,,,5.6,,,,,0.05,,,,,,METAR,884.0
CXET 230000Z AUTO 15006KT 14/08 RMK AO1 SLP186 T01420077 53017,CXET,2022-10-23T00:00:00Z,44.23,-79.78,14.2,7.7,150,6,,,,1018.6,,TRUE,TRUE,,,,,,,,,,,,,,,,1.7,,,,,,,,,,,METAR,250.0
CXEG 230000Z AUTO 35003KT 03/01 RMK AO1 SLP102 T00320013 53021,CXEG,2022-10-23T00:00:00Z,53.3,-113.6,3.2,1.3,350,3,,,,1010.2,,TRUE,TRUE,,,,,,,,,,,,,,,,2.1,,,,,,,,,,,METAR,706.0
CXEC 230000Z AUTO 06002KT 03/02 RMK AO1 2PAST HR 3021 SLP101 P0001 T00250017 50002,CXEC,2022-10-23T00:00:00Z,53.57,-113.52,2.5,1.7,60,2,,,,1010.1,,TRUE,TRUE,,,,,,,,,,,,,,,,0.2,,,,,0.01,,,,,,METAR,666.0
CXEA 230000Z AUTO 06005KT 07/06 RMK AO1 1PAST HR 3004 SLP075 P0000 T00740055 50001,CXEA,2022-10-23T00:00:00Z,50.63,-93.22,7.4,5.5,60,5,,,,1007.5,,TRUE,TRUE,,,,,,,,,,,,,,,,0.1,,,,,0.005,,,,,,METAR,351.0
CXDW 230000Z AUTO 03009KT 07/05 RMK AO1 SLP050 T00710054 53009,CXDW,2022-10-23T00:00:00Z,49.4,-98.32,7.1,5.4,30,9,,,,1005.0,,TRUE,TRUE,,,,,,,,,,,,,,,,0.9,,,,,,,,,,,METAR,341.0
CXDK 230000Z AUTO M01/M06 RMK AO1 SLP170 T10121064 50000,CXDK,2022-10-23T00:00:00Z,61.27,-124.47,-1.2,-6.4,,,,,,1017.0,,TRUE,TRUE,,,,,,,,,,,,,,,,0.0,,,,,,,,,,,METAR,269.0
CXDI 230000Z AUTO 18004KT 15/08 RMK AO1 SLP189 T01530084 53011,CXDI,2022-10-23T00:00:00Z,42.87,-80.55,15.3,8.4,180,4,,,,1018.9,,TRUE,TRUE,,,,,,,,,,,,,,,,1.1,,,,,,,,,,,METAR,234.0
CXDE 230000Z AUTO 08002KT M04/M07 RMK AO1 SOG 02 3002 SLP187 T10371073,CXDE,2022-10-23T00:00:00Z,65.22,-123.43,-3.7,-7.3,80,2,,,,1018.7,,TRUE,TRUE,,,,,,,,,,,,,,,,,,,,,,,,,,,METAR,208.0
CXDB 230000Z AUTO 02013KT M00/M00 RMK AO1 5PAST HR M PK WND 02018/2349 P0002 T10031004 50056,CXDB,2022-10-23T00:00:00Z,49.05,-112.82,-0.3,-0.4,20,13,,,,,,TRUE,TRUE,,,,,,,,,,,,,,,,5.6,,,,,0.02,,,,,,METAR,1311.0
CXCS 230000Z AUTO 02009KT 04/M02 RMK AO1 T00401020,CXCS,2022-10-23T00:00:00Z,51.93,-110.72,4.0,-2.0,20,9,,,,,,TRUE,TRUE,,,,,,,,,,,,,,,,,,,,,,,,,,,METAR,771.0
CXCP 230000Z AUTO 36009KT 01/01 RMK AO1 T00090005 50028,CXCP,2022-10-23T00:00:00Z,50.28,-113.35,0.9,0.5,360,9,,,,,,TRUE,TRUE,,,,,,,,,,,,,,,,2.8,,,,,,,,,,,METAR,999.0
CXCK 230000Z AUTO 00000KT 02/M01 RMK AO1 SLP125 T00221006 56007,CXCK,2022-10-23T00:00:00Z,62.12,-136.2,2.2,-0.6,0,0,,,,1012.5,,TRUE,TRUE,,,,,,,,,,,,,,,,-0.7,,,,,,,,,,,METAR,526.0
CXCD 230000Z AUTO 32007KT 01/M04 RMK AO1 T00111041,CXCD,2022-10-23T00:00:00Z,56.32,-119.75,1.1,-4.1,320,7,,,,,,TRUE,TRUE,,,,,,,,,,,,,,,,,,,,,,,,,,,METAR,628.0
CXCA 230000Z AUTO 36002KT 08/07 RMK AO1 SLP102 T00790068 53018,CXCA,2022-10-23T00:00:00Z,49.15,-88.35,7.9,6.8,360,2,,,,1010.2,,TRUE,TRUE,,,,,,,,,,,,,,,,1.8,,,,,,,,,,,METAR,228.0
CXBW 230000Z AUTO 05011KT 03/03 RMK AO1 PK WND 05019/2305 T00270026 50053,CXBW,2022-10-23T00:00:00Z,49.8,-112.3,2.7,2.6,50,11,,,,,,TRUE,TRUE,,,,,,,,,,,,,,,,5.3,,,,,,,,,,,METAR,823.0
CXBR 230000Z AUTO 36018KT RMK AO1 PK WND 00026/2332 50004,CXBR,2022-10-23T00:00:00Z,49.62,-113.82,,,360,18,,,,,,TRUE,TRUE,,,,,,,,,,,,,,,,0.4,,,,,,,,,,,METAR,1137.0
CXBO 230000Z AUTO 17002KT 13/07 RMK AO1 T01300070,CXBO,2022-10-23T00:00:00Z,46.83,-71.2,13.0,7.0,170,2,,,,,,TRUE,TRUE,,,,,,,,,,,,,,,,,,,,,,,,,,,METAR,8.0
CXBK 230000Z AUTO 07011KT 09/M03 RMK AO1 SOG 01 3013 SLP046 T00881026,CXBK,2022-10-23T00:00:00Z,50.2,-104.7,8.8,-2.6,70,11,,,,1004.6,,TRUE,TRUE,,,,,,,,,,,,,,,,,,,,,,,,,,,METAR,585.0
CXBI 230000Z AUTO 18006KT 15/07 RMK AO1 SLP193 T01460074 53017,CXBI,2022-10-23T00:00:00Z,44.48,-79.55,14.6,7.4,180,6,,,,1019.3,,TRUE,TRUE,,,,,,,,,,,,,,,,1.7,,,,,,,,,,,METAR,287.0
CXBA 230000Z AUTO 02006KT 04/M02 RMK AO1 T00401015,CXBA,2022-10-23T00:00:00Z,52.12,-110.1,4.0,-1.5,20,6,,,,,,TRUE,TRUE,,,,,,,,,,,,,,,,,,,,,,,,,,,METAR,696.0
CXAT 230000Z AUTO 07008KT M07/M13 RMK AO1 SOG 04 1007 SLP962 T10741129,CXAT,2022-10-23T00:00:00Z,73.0,-85.03,-7.4,-12.9,70,8,,,,996.2,,TRUE,TRUE,,,,,,,,,,,,,,,,,,,,,,,,,,,METAR,10.0
CXAK 230000Z AUTO 34007KT 03/03 RMK AO1 T00320030,CXAK,2022-10-23T00:00:00Z,52.35,-112.6,3.2,3.0,340,7,,,,,,TRUE,TRUE,,,,,,,,,,,,,,,,,,,,,,,,,,,METAR,799.0
CXAJ 230000Z AUTO 08002KT 04/02 RMK AO1 T00370017,CXAJ,2022-10-23T00:00:00Z,54.78,-112.82,3.7,1.7,80,2,,,,,,TRUE,TRUE,,,,,,,,,,,,,,,,,,,,,,,,,,,METAR,586.0
CXAG 230000Z AUTO 04001KT 04/01 RMK AO1 T00360009,CXAG,2022-10-23T00:00:00Z,53.92,-112.28,3.6,0.9,40,1,,,,,,TRUE,TRUE,,,,,,,,,,,,,,,,,,,,,,,,,,,METAR,632.0
CXAF 230000Z AUTO 10004KT 03/01 RMK AO1 T00280008 50004,CXAF,2022-10-23T00:00:00Z,54.28,-112.97,2.8,0.8,100,4,,,,,,TRUE,TRUE,,,,,,,,,,,,,,,,0.4,,,,,,,,,,,METAR,667.0
CWZW 230000Z AUTO 18004KT 03/M00 RMK AO1 SLP137 T00271001 51001,CWZW,2022-10-23T00:00:00Z,60.17,-132.73,2.7,-0.1,180,4,,,,1013.7,,TRUE,TRUE,,,,,,,,,,,,,,,,0.1,,,,,,,,,,,METAR,683.0
CWZQ 230000Z AUTO 18009KT 13/08 RMK AO1 SLP258 T01260077 52009,CWZQ,2022-10-23T00:00:00Z,46.53,-61.05,12.6,7.7,180,9,,,,1025.8,,TRUE,TRUE,,,,,,,,,,,,,,,,0.9,,,,,,,,,,,METAR,13.0
CWZO 230000Z AUTO 00000KT RMK AO1,CWZO,2022-10-23T00:00:00Z,48.57,-123.25,,,0,0,,,,,,TRUE,TRUE,,,,,,,,,,,,,,,,,,,,,,,,,,,METAR,5.0
CWZN 230000Z AUTO 24013KT 11/10 RMK AO1 PK WND 24021/2316 SLP261 T01120102 53003,CWZN,2022-10-23T00:00:00Z,47.37,-55.8,11.2,10.2,240,13,,,,1026.1,,TRUE,TRUE,,,,,,,,,,,,,,,,0.3,,,,,,,,,,,METAR,63.0
CWZL 230000Z AUTO 28006KT 11/04 RMK AO1 SLP147 T01110037 53003,CWZL,2022-10-23T00:00:00Z,53.03,-131.6,11.1,3.7,280,6,,,,1014.7,,TRUE,TRUE,,,,,,,,,,,,,,,,0.3,,,,,,,,,,,METAR,17.0
CWZG 230000Z AUTO 03004KT M01/M02 RMK AO1 1PAST HR SOG 03 3021 SLP085 P0000 T10101022 50001,CWZG,2022-10-23T00:00:00Z,51.2,-115.55,-1.0,-2.2,30,4,,,,1008.5,,TRUE,TRUE,,,,,,,,,,,,,,,,0.1,,,,,0.005,,,,,,METAR,1402.0
CWZA 230000Z AUTO 23001KT 11/04 RMK AO1 SLP085 T01100043 53008,CWZA,2022-10-23T00:00:00Z,49.25,-121.77,11.0,4.3,230,1,,,,1008.5,,TRUE,TRUE,,,,,,,,,,,,,,,,0.8,,,,,,,,,,,METAR,18.0
CWYY 230000Z AUTO 33007KT 12/M00 RMK AO1 SLP049 T01201004 53015,CWYY,2022-10-23T00:00:00Z,49.03,-119.43,12.0,-0.4,330,7,,,,1004.9,,TRUE,TRUE,,,,,,,,,,,,,,,,1.5,,,,,,,,,,,METAR,284.0
CWYL 230000Z AUTO 09006KT M00/M04 RMK AO1 SLP070 T10031043 53019,CWYL,2022-10-23T00:00:00Z,51.45,-116.33,-0.3,-4.3,90,6,,,,1007.0,,TRUE,TRUE,,,,,,,,,,,,,,,,1.9,,,,,,,,,,,METAR,1602.0
CWYJ 230000Z AUTO 20002KT 09/06 RMK AO1 SLP091 T00920058 53011,CWYJ,2022-10-23T00:00:00Z,48.45,-123.3,9.2,5.8,200,2,,,,1009.1,,TRUE,TRUE,,,,,,,,,,,,,,,,1.1,,,,,,,,,,,METAR,59.0
CWXL 230000Z AUTO 04014KT 03/01 RMK AO1 6PAST HR 3024 PK WND 06018/2308 SLP055 P0002 T00260014 50037,CWXL,2022-10-23T00:00:00Z,49.73,-111.45,2.6,1.4,40,14,,,,1005.5,,TRUE,TRUE,,,,,,,,,,,,,,,,3.7,,,,,0.02,,,,,,METAR,815.0
CWXI 230000Z AUTO 22025G31KT 10/09 RMK AO1 PK WND 22033/2314 SLP180 T01030090 51014,CWXI,2022-10-23T00:00:00Z,51.02,-57.1,10.3,9.0,220,25,31,,,1018.0,,TRUE,TRUE,,,,,,,,,,,,,,,,1.4,,,,,,,,,,,METAR,15.0
CWXC 230000Z AUTO 19004KT 13/05 RMK AO1 SLP194 T01250049 51031,CWXC,2022-10-23T00:00:00Z,48.88,-71.03,12.5,4.9,190,4,,,,1019.4,,TRUE,TRUE,,,,,,,,,,,,,,,,3.1,,,,,,,,,,,METAR,306.0
CWXA 230000Z AUTO 00007KT 01/M02 RMK AO1 SLP118 T00051016 53020,CWXA,2022-10-23T00:00:00Z,51.07,-115.07,0.5,-1.6,0,7,,,,1011.8,,TRUE,TRUE,,,,,,,,,,,,,,,,2.0,,,,,,,,,,,METAR,1303.0
CWWZ 230000Z AUTO 15004KT 16/08 RMK AO1 SLP188 T01600077 53010,CWWZ,2022-10-23T00:00:00Z,43.25,-79.22,16.0,7.7,150,4,,,,1018.8,,TRUE,TRUE,,,,,,,,,,,,,,,,1.0,,,,,,,,,,,METAR,75.0
CWWS 230000Z AUTO 01010KT 05/M00 RMK AO1 SLP108 T00501004 53014,CWWS,2022-10-23T00:00:00Z,52.82,-97.62,5.0,-0.4,10,10,,,,1010.8,,TRUE,TRUE,,,,,,,,,,,,,,,,1.4,,,,,,,,,,,METAR,220.0
CWWL 230000Z AUTO 36013KT 10/05 RMK AO1 SLP134 T00970049 52009,CWWL,2022-10-23T00:00:00Z,53.5,-130.63,9.7,4.9,360,13,,,,1013.4,,TRUE,TRUE,,,,,,,,,,,,,,,,0.9,,,,,,,,,,,METAR,8.0
CWWK 230000Z AUTO 21001KT 12/06 RMK AO1 SLP089 T01180059 53008,CWWK,2022-10-23T00:00:00Z,49.02,-122.78,11.8,5.9,210,1,,,,1008.9,,TRUE,TRUE,,,,,,,,,,,,,,,,0.8,,,,,,,,,,,METAR,10.0
CWWF 230000Z AUTO 12008KT 08/01 RMK AO1 SLP042 T00830013 53014,CWWF,2022-10-23T00:00:00Z,49.7,-103.8,8.3,1.3,120,8,,,,1004.2,,TRUE,TRUE,,,,,,,,,,,,,,,,1.4,,,,,,,,,,,METAR,583.0
CWWE 230000Z AUTO 22003KT 11/10 RMK AO1 SLP272 T01070103 52006,CWWE,2022-10-23T00:00:00Z,43.98,-64.67,10.7,10.3,220,3,,,,1027.2,,TRUE,TRUE,,,,,,,,,,,,,,,,0.6,,,,,,,,,,,METAR,4.0
CWWB 230000Z AUTO 16005KT 18/08 RMK AO1 SLP189 T01820084 53011,CWWB,2022-10-23T00:00:00Z,43.3,-79.78,18.2,8.4,160,5,,,,1018.9,,TRUE,TRUE,,,,,,,,,,,,,,,,1.1,,,,,,,,,,,METAR,77.0
CWWA 230000Z AUTO 21001KT 10/06 RMK AO1 SLP087 T01000056 53010,CWWA,2022-10-23T00:00:00Z,49.35,-123.18,10.0,5.6,210,1,,,,1008.7,,TRUE,TRUE,,,,,,,,,,,,,,,,1.0,,,,,,,,,,,METAR,172.0
CWVU 230000Z AUTO 18005KT 12/10 RMK AO1 SLP265 T01160103 53006,CWVU,2022-10-23T00:00:00Z,44.28,-66.33,11.6,10.3,180,5,,,,1026.5,,TRUE,TRUE,,,,,,,,,,,,,,,,0.6,,,,,,,,,,,METAR,4.0
CWVT 230000Z AUTO 02007KT 04/M00 RMK AO1 SLP136 T00441002 53021,CWVT,2022-10-23T00:00:00Z,55.83,-108.42,4.4,-0.2,20,7,,,,1013.6,,TRUE,TRUE,,,,,,,,,,,,,,,,2.1,,,,,,,,,,,METAR,431.0
CWVQ 230000Z AUTO 16004KT 15/06 RMK AO1 SLP209 T01540062 53017,CWVQ,2022-10-23T00:00:00Z,45.42,-73.92,15.4,6.2,160,4,,,,1020.9,,TRUE,TRUE,,,,,,,,,,,,,,,,1.7,,,,,,,,,,,METAR,38.0
CWVP 230000Z AUTO 05008KT 00/M01 RMK AO1 0PAST HR 3017 SLP029 P0004 T00001006 50059,CWVP,2022-10-23T00:00:00Z,49.63,-109.52,0.0,-0.6,50,8,,,,1002.9,,TRUE,TRUE,,,,,,,,,,,,,,,,5.9,,,,,0.04,,,,,,METAR,1269.0
CWVN 230000Z AUTO 05007KT 05/03 RMK AO1 5PAST HR 3015 SLP021 P0006 T00480029 50030,CWVN,2022-10-23T00:00:00Z,49.07,-107.58,4.8,2.9,50,7,,,,1002.1,,TRUE,TRUE,,,,,,,,,,,,,,,,3.0,,,,,0.06,,,,,,METAR,792.0
CWVI 230000Z AUTO 33001KT 04/M00 RMK AO1 SLP103 T00401001 53023,CWVI,2022-10-23T00:00:00Z,53.52,-112.1,4.0,-0.1,330,1,,,,1010.3,,TRUE,TRUE,,,,,,,,,,,,,,,,2.3,,,,,,,,,,,METAR,640.0
CWVH 230000Z AUTO 10014KT ////SM OVC003 ///// A////,CWVH,2022-10-23T00:00:00Z,68.9,-133.93,,,100,14,,,,,,TRUE,,,,,,,,OVC,300,,,,,,,,,,,,,,,,,,,METAR,246.0
CWVF 230000Z AUTO 36004KT 11/06 RMK AO1 T01090057,CWVF,2022-10-23T00:00:00Z,49.1,-123.3,10.9,5.7,360,4,,,,,,TRUE,TRUE,,,,,,,,,,,,,,,,,,,,,,,,,,,METAR,13.0
CWUX 230000Z AUTO 22006KT 10/04 RMK AO1 SLP199 T01030036 51032,CWUX,2022-10-23T00:00:00Z,48.3,-70.93,10.3,3.6,220,6,,,,1019.9,,TRUE,TRUE,,,,,,,,,,,,,,,,3.2,,,,,,,,,,,METAR,150.0
CWUW 230000Z AUTO 04009KT 010V080 ////SM BKN055 OVC065 M06/M06 A2916,CWUW,2022-10-23T00:00:00Z,68.62,-71.12,-6.0,-6.0,40,9,,,29.161417,,,TRUE,,,,,,,,BKN,5500,OVC,6500,,,,,,,,,,,,,,,,,METAR,173.0
CWUS 230000Z AUTO 25003KT 08/M00 RMK AO1 SLP065 T00751003 53013,CWUS,2022-10-23T00:00:00Z,49.57,-119.65,7.5,-0.3,250,3,,,,1006.5,,TRUE,TRUE,,,,,,,,,,,,,,,,1.3,,,,,,,,,,,METAR,455.0
CWTY 230000Z AUTO 22011KT 16/06 RMK AO1 SLP208 T01590061 53019,CWTY,2022-10-23T00:00:00Z,46.35,-72.52,15.9,6.1,220,11,,,,1020.8,,TRUE,TRUE,,,,,,,,,,,,,,,,1.9,,,,,,,,,,,METAR,8.0
CWTT 230000Z AUTO 31001KT 12/08 RMK AO1 T01150081,CWTT,2022-10-23T00:00:00Z,45.27,-72.17,11.5,8.1,310,1,,,,,,TRUE,TRUE,,,,,,,,,,,,,,,,,,,,,,,,,,,METAR,210.0
CWTN 230000Z AUTO 29001KT 10/06 RMK AO1 SLP200 T00980062 51016,CWTN,2022-10-23T00:00:00Z,47.07,-70.78,9.8,6.2,290,1,,,,1020.0,,TRUE,TRUE,,,,,,,,,,,,,,,,1.6,,,,,,,,,,,METAR,5.0
CWTG 230000Z AUTO 26011KT 08/05 RMK AO1 SLP178 T00800053 51025,CWTG,2022-10-23T00:00:00Z,49.32,-67.37,8.0,5.3,260,11,,,,1017.8,,TRUE,TRUE,,,,,,,,,,,,,,,,2.5,,,,,,,,,,,METAR,6.0
CWTA 230000Z AUTO 19003KT 15/06 RMK AO1 SLP211 T01470055 53016,CWTA,2022-10-23T00:00:00Z,45.5,-73.58,14.7,5.5,190,3,,,,1021.1,,TRUE,TRUE,,,,,,,,,,,,,,,,1.6,,,,,,,,,,,METAR,71.0
CWSW 230000Z 36004KT 6SM BR FEW014 OVC040 03/M02 A2963 RMK ST2NS6 SLP064,CWSW,2022-10-23T00:00:00Z,49.83,-114.87,3.0,-2.0,360,4,,6.0,29.630905,1006.4,,,,,,,,,BR,FEW,1400,OVC,4000,,,,,VFR,,,,,,,,,,,,METAR,1173.0
CWST 230000Z AUTO 20001KT 14/05 RMK AO1 SLP199 T01350049 53026,CWST,2022-10-23T00:00:00Z,47.35,-70.02,13.5,4.9,200,1,,,,1019.9,,TRUE,TRUE,,,,,,,,,,,,,,,,2.6,,,,,,,,,,,METAR,31.0
CWSS 230000Z AUTO 11002KT 07/06 RMK AO1 SLP254 T00720061 51013,CWSS,2022-10-23T00:00:00Z,45.2,-67.25,7.2,6.1,110,2,,,,1025.4,,TRUE,TRUE,,,,,,,,,,,,,,,,1.3,,,,,,,,,,,METAR,27.0
CWSR 230000Z AUTO 05006KT 03/00 RMK AO1 1025 SLP100 T00260000 50008,CWSR,2022-10-23T00:00:00Z,53.37,-107.55,2.6,0.0,50,6,,,,1010.0,,TRUE,TRUE,,,,,,,,,,,,,,,,0.8,,,,,,,,,,,METAR,589.0
CWSP 230000Z AUTO 29011KT 11/06 RMK AO1 SLP085 T01090059 53008,CWSP,2022-10-23T00:00:00Z,48.38,-123.92,10.9,5.9,290,11,,,,1008.5,,TRUE,TRUE,,,,,,,,,,,,,,,,0.8,,,,,,,,,,,METAR,2.0
CWSL 230000Z AUTO 18002KT 09/01 RMK AO1 SLP059 T00900007 53007,CWSL,2022-10-23T00:00:00Z,50.7,-119.28,9.0,0.7,180,2,,,,1005.9,,TRUE,TRUE,,,,,,,,,,,,,,,,0.7,,,,,,,,,,,METAR,353.0
CWSK 230000Z AUTO 13004KT 11/03 RMK AO1 SLP077 T01140032 53008,CWSK,2022-10-23T00:00:00Z,49.78,-123.17,11.4,3.2,130,4,,,,1007.7,,TRUE,TRUE,,,,,,,,,,,,,,,,0.8,,,,,,,,,,,METAR,59.0
CWSG 230000Z AUTO 09/03 RMK AO1 SLP180 T00870027 51016,CWSG,2022-10-23T00:00:00Z,49.12,-66.65,8.7,2.7,,,,,,1018.0,,TRUE,TRUE,,,,,,,,,,,,,,,,1.6,,,,,,,,,,,METAR,5.0
CWSF 230000Z AUTO 20011G21KT 16/04 RMK AO1 0013 PK WND 22021/2357 SLP173 T01580035 50006,CWSF,2022-10-23T00:00:00Z,49.25,-65.32,15.8,3.5,200,11,21,,,1017.3,,TRUE,TRUE,,,,,,,,,,,,,,,,0.6,,,,,,,,,,,METAR,15.0
CWSD 230000Z AUTO 21010KT 12/06 RMK AO1 SLP248 T01210063 51014,CWSD,2022-10-23T00:00:00Z,46.43,-63.85,12.1,6.3,210,10,,,,1024.8,,TRUE,TRUE,,,,,,,,,,,,,,,,1.4,,,,,,,,,,,METAR,12.0
CWSA 230000Z AUTO 12007KT 8SM CLR 13/12 A3036 RMK SLP281,CWSA,2022-10-23T00:00:00Z,43.93,-60.0,13.0,12.0,120,7,,8.0,30.360237,1028.1,,TRUE,,,,,,,,CLR,,,,,,,,VFR,,,,,,,,,,,,METAR,4.0
CWRZ 230000Z AUTO 25011KT 11/07 RMK AO1 PK WND 27017/2346 SLP201 T01120071 51017,CWRZ,2022-10-23T00:00:00Z,48.42,-64.32,11.2,7.1,250,11,,,,1020.1,,TRUE,TRUE,,,,,,,,,,,,,,,,1.7,,,,,,,,,,,METAR,16.0
CWRY 230000Z AUTO 03015KT M00/M00 RMK AO1 5PAST HR 3022 PK WND 04019/2357 SLP043 P0002 T10031001 50050,CWRY,2022-10-23T00:00:00Z,49.12,-112.05,-0.3,-0.1,30,15,,,,1004.3,,TRUE,TRUE,,,,,,,,,,,,,,,,5.0,,,,,0.02,,,,,,METAR,1048.0
CWRX 230000Z AUTO ///// ////SM FEW035 OVC046 M02/M03 A2929,CWRX,2022-10-23T00:00:00Z,69.07,-79.07,-2.0,-3.0,,,,,29.291338,,,TRUE,,,,,,,,FEW,3500,OVC,4600,,,,,,,,,,,,,,,,,METAR,39.0
CWRU 230000Z AUTO 01023KT 10/ RMK AO1 3010 PK WND 00029/2302 SLP116 T0096 50002,CWRU,2022-10-23T00:00:00Z,50.12,-127.93,9.6,,10,23,,,,1011.6,,TRUE,TRUE,,,,,,,,,,,,,,,,0.2,,,,,,,,,,,METAR,76.0
CWRT 230000Z AUTO 15001KT M00/M01 RMK AO1 SLP072 T10041009 53023,CWRT,2022-10-23T00:00:00Z,49.62,-114.47,-0.4,-0.9,150,1,,,,1007.2,,TRUE,TRUE,,,,,,,,,,,,,,,,2.3,,,,,,,,,,,METAR,1311.0
CWRO 230000Z AUTO 32005KT 10/ RMK AO1 SLP135 T0099 51004,CWRO,2022-10-23T00:00:00Z,54.17,-131.67,9.9,,320,5,,,,1013.5,,TRUE,TRUE,,,,,,,,,,,,,,,,0.4,,,,,,,,,,,METAR,7.0
CWRN 230000Z AUTO 19010KT 13/12 RMK AO1 SLP267 T01280116 50000,CWRN,2022-10-23T00:00:00Z,45.35,-60.98,12.8,11.6,190,10,,,,1026.7,,TRUE,TRUE,,,,,,,,,,,,,,,,0.0,,,,,,,,,,,METAR,8.0
CWRM 230000Z AUTO 13002KT 01/01 RMK AO1 2021 SLP082 T00110006 50020,CWRM,2022-10-23T00:00:00Z,52.42,-114.92,1.1,0.6,130,2,,,,1008.2,,TRUE,TRUE,,,,,,,,,,,,,,,,2.0,,,,,,,,,,,METAR,986.0
CWRK 230000Z AUTO 00000KT 09/06 RMK AO1 SLP202 T00860055 53021,CWRK,2022-10-23T00:00:00Z,45.07,-77.87,8.6,5.5,0,0,,,,1020.2,,TRUE,TRUE,,,,,,,,,,,,,,,,2.1,,,,,,,,,,,METAR,328.0
CWRJ 230000Z AUTO 04007KT 08/M02 RMK AO1 SLP067 T00751022 53012,CWRJ,2022-10-23T00:00:00Z,51.57,-107.92,7.5,-2.2,40,7,,,,1006.7,,TRUE,TRUE,,,,,,,,,,,,,,,,1.2,,,,,,,,,,,METAR,586.0
CWRH 230000Z AUTO 21033G40KT ////SM ////// ///// A2924,CWRH,2022-10-23T00:00:00Z,61.58,-64.65,,,210,33,40,,29.241142,,,TRUE,,,,,,,,,,,,,,,,,,,,,,,,,,,,METAR,343.0
CWRA 230000Z AUTO 00025KT 10/09 RMK AO1 SLP271 T01030094 51004,CWRA,2022-10-23T00:00:00Z,46.65,-53.07,10.3,9.4,0,25,,,,1027.1,,TRUE,TRUE,,,,,,,,,,,,,,,,0.4,,,,,,,,,,,METAR,4.0
CWQV 230000Z AUTO 08002KT 11/06 RMK AO1 T01060058,CWQV,2022-10-23T00:00:00Z,48.27,-70.12,10.6,5.8,80,2,,,,,,TRUE,TRUE,,,,,,,,,,,,,,,,,,,,,,,,,,,METAR,4.0
CWQS 230000Z AUTO 35014KT 10/06 RMK AO1 PK WND 30024/2302 SLP144 T00990057 53005,CWQS,2022-10-23T00:00:00Z,53.32,-132.77,9.9,5.7,350,14,,,,1014.4,,TRUE,TRUE,,,,,,,,,,,,,,,,0.5,,,,,,,,,,,METAR,10.0
CWQR 230000Z AUTO 14003KT 09/06 RMK AO1 T00910055,CWQR,2022-10-23T00:00:00Z,50.22,-64.22,9.1,5.5,140,3,,,,,,TRUE,TRUE,,,,,,,,,,,,,,,,,,,,,,,,,,,METAR,9.0
CWQO 230000Z AUTO 25014KT 09/05 RMK AO1 PK WND 21022/2305 T00880048,CWQO,2022-10-23T00:00:00Z,48.42,-68.9,8.8,4.8,250,14,,,,,,TRUE,TRUE,,,,,,,,,,,,,,,,,,,,,,,,,,,METAR,7.0
CWQK 230000Z AUTO 12005KT 12/ RMK AO1 SLP089 T0118 52015,CWQK,2022-10-23T00:00:00Z,48.3,-123.53,11.8,,120,5,,,,1008.9,,TRUE,TRUE,,,,,,,,,,,,,,,,1.5,,,,,,,,,,,METAR,5.0
CWQH 230000Z AUTO 00000KT 13/04 RMK AO1 SLP230 T01270044 53017,CWQH,2022-10-23T00:00:00Z,45.37,-71.82,12.7,4.4,0,0,,,,1023.0,,TRUE,TRUE,,,,,,,,,,,,,,,,1.7,,,,,,,,,,,METAR,181.0
CWPZ 230000Z AUTO 28004KT 05/M04 RMK AO1 SLP120 T00531037 53015,CWPZ,2022-10-23T00:00:00Z,54.38,-125.97,5.3,-3.7,280,4,,,,1012.0,,TRUE,TRUE,,,,,,,,,,,,,,,,1.5,,,,,,,,,,,METAR,715.0
CWPR 230000Z AUTO 00000KT 06/01 RMK AO1 SLP071 T00620009 53006,CWPR,2022-10-23T00:00:00Z,49.47,-120.52,6.2,0.9,0,0,,,,1007.1,,TRUE,TRUE,,,,,,,,,,,,,,,,0.6,,,,,,,,,,,METAR,703.0
CWPO 230000Z AUTO 05012KT 07/06 RMK AO1 PK WND 05017/2345 SLP055 T00660057 53016,CWPO,2022-10-23T00:00:00Z,49.2,-98.9,6.6,5.7,50,12,,,,1005.5,,TRUE,TRUE,,,,,,,,,,,,,,,,1.6,,,,,,,,,,,METAR,471.0
CWPK 230000Z AUTO 12001KT 11/05 RMK AO1 SLP195 T01060054 51020,CWPK,2022-10-23T00:00:00Z,47.92,-74.62,10.6,5.4,120,1,,,,1019.5,,TRUE,TRUE,,,,,,,,,,,,,,,,2.0,,,,,,,,,,,METAR,443.0
CWPE 230000Z AUTO 21007KT 13/10 RMK AO1 SLP262 T01310101 51012,CWPE,2022-10-23T00:00:00Z,45.07,-66.47,13.1,10.1,210,7,,,,1026.2,,TRUE,TRUE,,,,,,,,,,,,,,,,1.2,,,,,,,,,,,METAR,9.0
CWPD 230000Z AUTO 16002KT 07/02 RMK AO1 SLP215 T00660023 51025,CWPD,2022-10-23T00:00:00Z,47.57,-71.22,6.6,2.3,160,2,,,,1021.5,,TRUE,TRUE,,,,,,,,,,,,,,,,2.5,,,,,,,,,,,METAR,795.0
CWPC 230000Z AUTO 18014KT 17/08 RMK AO1 SLP210 T01710084 53014,CWPC,2022-10-23T00:00:00Z,42.87,-79.25,17.1,8.4,180,14,,,,1021.0,,TRUE,TRUE,,,,,,,,,,,,,,,,1.4,,,,,,,,,,,METAR,174.0
CWOY 230000Z AUTO 08006KT 06/M01 RMK AO1 SLP081 T00621011 53020,CWOY,2022-10-23T00:00:00Z,51.77,-104.2,6.2,-1.1,80,6,,,,1008.1,,TRUE,TRUE,,,,,,,,,,,,,,,,2.0,,,,,,,,,,,METAR,557.0
CWOE 230000Z AUTO 04007KT M00/M00 RMK AO1 4PAST HR 3018 SLP031 P0005 T10031002 50076,CWOE,2022-10-23T00:00:00Z,49.12,-110.47,-0.3,-0.2,40,7,,,,1003.1,,TRUE,TRUE,,,,,,,,,,,,,,,,7.6,,,,,0.05,,,,,,METAR,931.0
CWOD 230000Z AUTO 16005KT 11/07 RMK AO1 SLP185 T01060069 51030,CWOD,2022-10-23T00:00:00Z,48.85,-72.55,10.6,6.9,160,5,,,,1018.5,,TRUE,TRUE,,,,,,,,,,,,,,,,3.0,,,,,,,,,,,METAR,150.0
CWOC 230000Z AUTO 23004KT 12/07 RMK AO1 SLP205 T01200070 51013,CWOC,2022-10-23T00:00:00Z,48.02,-65.32,12.0,7.0,230,4,,,,1020.5,,TRUE,TRUE,,,,,,,,,,,,,,,,1.3,,,,,,,,,,,METAR,42.0
CWOB 230000Z AUTO 22022G29KT ////SM OVC002 M01/M01 A2911,CWOB,2022-10-23T00:00:00Z,63.33,-64.15,-1.0,-1.0,220,22,29,,29.111221,,,TRUE,,,,,,,,OVC,200,,,,,,,,,,,,,,,,,,,METAR,369.0
CWNZ 230000Z AUTO 07001KT 05/04 RMK AO1 SLP137 T00490035 53018,CWNZ,2022-10-23T00:00:00Z,49.75,-84.17,4.9,3.5,70,1,,,,1013.7,,TRUE,TRUE,,,,,,,,,,,,,,,,1.8,,,,,,,,,,,METAR,261.0
CWNQ 230000Z AUTO 19006KT 16/05 RMK AO1 SLP206 T01600046 52019,CWNQ,2022-10-23T00:00:00Z,46.22,-72.65,16.0,4.6,190,6,,,,1020.6,,TRUE,TRUE,,,,,,,,,,,,,,,,1.9,,,,,,,,,,,METAR,9.0
CWNP 230000Z AUTO 10001KT 08/02 RMK AO1 SLP050 T00780020 53020,CWNP,2022-10-23T00:00:00Z,50.27,-117.82,7.8,2.0,100,1,,,,1005.0,,TRUE,TRUE,,,,,,,,,,,,,,,,2.0,,,,,,,,,,,METAR,517.0
CWNM 230000Z AUTO 30002KT 07/04 RMK AO1 2PAST HR 3022 SLP047 P0001 T00660043 50008,CWNM,2022-10-23T00:00:00Z,49.5,-117.3,6.6,4.3,300,2,,,,1004.7,,TRUE,TRUE,,,,,,,,,,,,,,,,0.8,,,,,0.01,,,,,,METAR,533.0
CWNK 230000Z AUTO 04009KT 08/06 RMK AO1 SLP049 T00790056 53008,CWNK,2022-10-23T00:00:00Z,49.5,-98.03,7.9,5.6,40,9,,,,1004.9,,TRUE,TRUE,,,,,,,,,,,,,,,,0.8,,,,,,,,,,,METAR,271.0
CWNH 230000Z AUTO 18005KT 14/04 RMK AO1 SLP199 T01410040 51024,CWNH,2022-10-23T00:00:00Z,47.8,-69.53,14.1,4.0,180,5,,,,1019.9,,TRUE,TRUE,,,,,,,,,,,,,,,,2.4,,,,,,,,,,,METAR,147.0
CWNE 230000Z AUTO 21015G23KT 14/07 RMK AO1 PK WND 22023/2354 SLP228 T01370073 51010,CWNE,2022-10-23T00:00:00Z,47.07,-64.0,13.7,7.3,210,15,23,,,1022.8,,TRUE,TRUE,,,,,,,,,,,,,,,,1.0,,,,,,,,,,,METAR,5.0
CWND 230000Z AUTO 11013KT M07/M08 RMK AO1 SLP167 T10661084 58002,CWND,2022-10-23T00:00:00Z,69.63,-135.43,-6.6,-8.4,110,13,,,,1016.7,,TRUE,TRUE,,,,,,,,,,,,,,,,-0.2,,,,,,,,,,,METAR,14.0
CWNC 230000Z AUTO 07003KT 12/06 RMK AO1 SLP197 T01240060 53008,CWNC,2022-10-23T00:00:00Z,43.95,-78.17,12.4,6.0,70,3,,,,1019.7,,TRUE,TRUE,,,,,,,,,,,,,,,,0.8,,,,,,,,,,,METAR,71.0
CWMZ 230000Z AUTO 15015KT 17/11 RMK AO1 PK WND 17018/2303 SLP166 T01660108 52015,CWMZ,2022-10-23T00:00:00Z,45.02,-80.37,16.6,10.8,150,15,,,,1016.6,,TRUE,TRUE,,,,,,,,,,,,,,,,1.5,,,,,,,,,,,METAR,175.0
CWMT 230000Z AUTO 02005KT M06/M08 RMK AO1 SLP189 T10551075 53009,CWMT,2022-10-23T00:00:00Z,63.13,-117.25,-5.5,-7.5,20,5,,,,1018.9,,TRUE,TRUE,,,,,,,,,,,,,,,,0.9,,,,,,,,,,,METAR,274.0
CWMQ 230000Z AUTO 06012KT 04/02 RMK AO1 4PAST HR 3023 PK WND 05023/2338 SLP048 P0005 T00360021 50040,CWMQ,2022-10-23T00:00:00Z,49.9,-109.47,3.6,2.1,60,12,,,,1004.8,,TRUE,TRUE,,,,,,,,,,,,,,,,4.0,,,,,0.05,,,,,,METAR,767.0
CWMM 230000Z AUTO 20002KT 12/06 RMK AO1 SLP088 T01200060 53009,CWMM,2022-10-23T00:00:00Z,49.22,-122.68,12.0,6.0,200,2,,,,1008.8,,TRUE,TRUE,,,,,,,,,,,,,,,,0.9,,,,,,,,,,,METAR,2.0
CWMJ 230000Z AUTO 17005KT 15/06 RMK AO1 SLP195 T01530059 53019,CWMJ,2022-10-23T00:00:00Z,46.27,-76.0,15.3,5.9,170,5,,,,1019.5,,TRUE,TRUE,,,,,,,,,,,,,,,,1.9,,,,,,,,,,,METAR,198.0
CWME 230000Z AUTO 19002KT 09/06 RMK AO1 SLP118 T00890063 53010,CWME,2022-10-23T00:00:00Z,52.18,-127.47,8.9,6.3,190,2,,,,1011.8,,TRUE,TRUE,,,,,,,,,,,,,,,,1.0,,,,,,,,,,,METAR,23.0
CWLY 230000Z AUTO 18005KT 140V210 9SM BKN055 OVC092 09/03 A2975 RMK SLP082,CWLY,2022-10-23T00:00:00Z,50.22,-121.58,9.0,3.0,180,5,,9.0,29.749016,1008.2,,TRUE,,,,,,,,BKN,5500,OVC,9200,,,,,VFR,,,,,,,,,,,,METAR,228.0
CWLX 230000Z AUTO ///// ////SM ////// M06/M09 A2929,CWLX,2022-10-23T00:00:00Z,68.9,-75.15,-6.0,-9.0,,,,,29.291338,,,TRUE,,,,,,,,,,,,,,,,,,,,,,,,,,,,METAR,129.0
CWLS 230000Z AUTO 16006KT 14/08 RMK AO1 SLP183 T01430082 53016,CWLS,2022-10-23T00:00:00Z,43.97,-80.75,14.3,8.2,160,6,,,,1018.3,,TRUE,TRUE,,,,,,,,,,,,,,,,1.6,,,,,,,,,,,METAR,413.0
CWLM 230000Z AUTO 19004KT 09/06 RMK AO1 2PAST HR 3011 SLP089 P0001 T00930059 50002,CWLM,2022-10-23T00:00:00Z,48.42,-123.32,9.3,5.9,190,4,,,,1008.9,,TRUE,TRUE,,,,,,,,,,,,,,,,0.2,,,,,0.01,,,,,,METAR,62.0
CWLE 230000Z AUTO 05009KT 08/M03 RMK AO1 SLP060 T00801029 53011,CWLE,2022-10-23T00:00:00Z,50.95,-107.15,8.0,-2.9,50,9,,,,1006.0,,TRUE,TRUE,,,,,,,,,,,,,,,,1.1,,,,,,,,,,,METAR,666.0
CWLC 230000Z AUTO 32004KT 10/03 RMK AO1 T00970029,CWLC,2022-10-23T00:00:00Z,54.3,-130.62,9.7,2.9,320,4,,,,,,TRUE,TRUE,,,,,,,,,,,,,,,,,,,,,,,,,,,METAR,27.0
CWLB 230000Z AUTO 01002KT 05/01 RMK AO1 SLP106 T00530006 53018,CWLB,2022-10-23T00:00:00Z,54.77,-112.02,5.3,0.6,10,2,,,,1010.6,,TRUE,TRUE,,,,,,,,,,,,,,,,1.8,,,,,,,,,,,METAR,561.0
CWKX 230000Z AUTO 04001KT 01/M00 RMK AO1 SLP145 T00091004 50002,CWKX,2022-10-23T00:00:00Z,58.43,-130.02,0.9,-0.4,40,1,,,,1014.5,,TRUE,TRUE,,,,,,,,,,,,,,,,0.2,,,,,,,,,,,METAR,807.0
CWKP 230000Z AUTO 29008KT ////SM FEW013 OVC020 M11/M12 A3004,CWKP,2022-10-23T00:00:00Z,69.67,-121.67,-11.0,-12.0,290,8,,,30.041338,,,TRUE,,,,,,,,FEW,1300,OVC,2000,,,,,,,,,,,,,,,,,METAR,322.0
CWKO 230000Z AUTO 06003KT 04/02 RMK AO1 5PAST HR 3010 SLP033 P0002 T00400020 50008,CWKO,2022-10-23T00:00:00Z,49.17,-105.97,4.0,2.0,60,3,,,,1003.3,,TRUE,TRUE,,,,,,,,,,,,,,,,0.8,,,,,0.02,,,,,,METAR,914.0
CWKM 230000Z AUTO 11015G22KT ////SM NCD M09/M11 A3002,CWKM,2022-10-23T00:00:00Z,69.6,-140.17,-9.0,-11.0,110,15,22,,30.02067,,,TRUE,,,,,,,,CLR,,,,,,,,,,,,,,,,,,,,METAR,8.0
CWKK 230000Z AUTO 08008KT 09/ RMK AO1 SLP113 T0094 53013,CWKK,2022-10-23T00:00:00Z,49.72,-88.33,9.4,,80,8,,,,1011.3,,TRUE,TRUE,,,,,,,,,,,,,,,,1.3,,,,,,,,,,,METAR,259.0
CWKH 230000Z AUTO 08/05 RMK AO1 SLP079 T00830046 53011,CWKH,2022-10-23T00:00:00Z,48.57,-123.55,8.3,4.6,,,,,,1007.9,,TRUE,TRUE,,,,,,,,,,,,,,,,1.1,,,,,,,,,,,METAR,327.0
CWKG 230000Z AUTO 26001KT 08/07 RMK AO1 SLP270 T00820067 50004,CWKG,2022-10-23T00:00:00Z,44.43,-65.2,8.2,6.7,260,1,,,,1027.0,,TRUE,TRUE,,,,,,,,,,,,,,,,0.4,,,,,,,,,,,METAR,154.0
CWKD 230000Z AUTO 09/05 RMK AO1 SLP176 T00870054 51028,CWKD,2022-10-23T00:00:00Z,50.73,-71.02,8.7,5.4,,,,,,1017.6,,TRUE,TRUE,,,,,,,,,,,,,,,,2.8,,,,,,,,,,,METAR,496.0
CWJX 230000Z AUTO 03009KT 07/M04 RMK AO1 SLP055 T00711044 53012,CWJX,2022-10-23T00:00:00Z,50.88,-109.5,7.1,-4.4,30,9,,,,1005.5,,TRUE,TRUE,,,,,,,,,,,,,,,,1.2,,,,,,,,,,,METAR,671.0
CWJW 230000Z AUTO 32007KT 03/M04 RMK AO1 PK WND 29019/2305 SLP093 T00271036 53017,CWJW,2022-10-23T00:00:00Z,52.93,-118.03,2.7,-3.6,320,7,,,,1009.3,,TRUE,TRUE,,,,,,,,,,,,,,,,1.7,,,,,,,,,,,METAR,1022.0
CWJV 230000Z AUTO 19001KT 09/02 RMK AO1 SLP060 T00900016 53009,CWJV,2022-10-23T00:00:00Z,50.22,-119.18,9.0,1.6,190,1,,,,1006.0,,TRUE,TRUE,,,,,,,,,,,,,,,,0.9,,,,,,,,,,,METAR,487.0
CWJU 230000Z AUTO 29010KT 10/06 RMK AO1 SLP142 T01020060 51001,CWJU,2022-10-23T00:00:00Z,54.25,-133.07,10.2,6.0,290,10,,,,1014.2,,TRUE,TRUE,,,,,,,,,,,,,,,,0.1,,,,,,,,,,,METAR,47.0
CWJR 230000Z AUTO 32006KT 05/04 RMK AO1 4PAST HR 3021 SLP047 P0002 T00480039 50033,CWJR,2022-10-23T00:00:00Z,49.03,-116.5,4.8,3.9,320,6,,,,1004.7,,TRUE,TRUE,,,,,,,,,,,,,,,,3.3,,,,,0.02,,,,,,METAR,642.0
CWJO 230000Z AUTO 12004KT 12/04 RMK AO1 SLP193 T01220043 51032,CWJO,2022-10-23T00:00:00Z,48.43,-71.15,12.2,4.3,120,4,,,,1019.3,,TRUE,TRUE,,,,,,,,,,,,,,,,3.2,,,,,,,,,,,METAR,113.0
CWJI 230000Z AUTO 08010KT 08/M02 RMK AO1 SLP035 T00771019 53012,CWJI,2022-10-23T00:00:00Z,49.72,-105.93,7.7,-1.9,80,10,,,,1003.5,,TRUE,TRUE,,,,,,,,,,,,,,,,1.2,,,,,,,,,,,METAR,724.0
CWJH 230000Z AUTO 04004KT 03/M00 RMK AO1 SLP122 T00291001 52029,CWJH,2022-10-23T00:00:00Z,56.32,-103.27,2.9,-0.1,40,4,,,,1012.2,,TRUE,TRUE,,,,,,,,,,,,,,,,2.9,,,,,,,,,,,METAR,345.0
CWJD 230000Z AUTO 09002KT M00/M04 RMK AO1 SLP110 T10011039 53015,CWJD,2022-10-23T00:00:00Z,53.18,-99.27,-0.1,-3.9,90,2,,,,1011.0,,TRUE,TRUE,,,,,,,,,,,,,,,,1.5,,,,,,,,,,,METAR,222.0
CWJC 230000Z AUTO 35020KT M04/M06 RMK AO1 SOG 09 3031 PK WND 34028/2325 SLP124 T10441056,CWJC,2022-10-23T00:00:00Z,61.13,-100.9,-4.4,-5.6,350,20,,,,1012.4,,TRUE,TRUE,,,,,,,,,,,,,,,,,,,,,,,,,,,METAR,340.0
CWJB 230000Z AUTO 34009KT 11/05 RMK AO1 T01120054,CWJB,2022-10-23T00:00:00Z,46.78,-71.28,11.2,5.4,340,9,,,,,,TRUE,TRUE,,,,,,,,,,,,,,,,,,,,,,,,,,,METAR,90.0
CWIZ 230000Z AUTO 18007KT 14/06 RMK AO1 T01380056,CWIZ,2022-10-23T00:00:00Z,45.28,-73.33,13.8,5.6,180,7,,,,,,TRUE,TRUE,,,,,,,,,,,,,,,,,,,,,,,,,,,METAR,45.0
CWIX 230000Z AUTO 21005KT 13/05 RMK AO1 SLP184 T01290051 51029,CWIX,2022-10-23T00:00:00Z,48.6,-71.72,12.9,5.1,210,5,,,,1018.4,,TRUE,TRUE,,,,,,,,,,,,,,,,2.9,,,,,,,,,,,METAR,109.0
CWIW 230000Z AUTO 05011KT 08/M00 RMK AO1 SLP073 T00791004 53018,CWIW,2022-10-23T00:00:00Z,51.67,-105.4,7.9,-0.4,50,11,,,,1007.3,,TRUE,TRUE,,,,,,,,,,,,,,,,1.8,,,,,,,,,,,METAR,524.0
CWIT 230000Z AUTO 13002KT 11/06 RMK AO1 SLP209 T01140056 53017,CWIT,2022-10-23T00:00:00Z,45.17,-73.67,11.4,5.6,130,2,,,,1020.9,,TRUE,TRUE,,,,,,,,,,,,,,,,1.7,,,,,,,,,,,METAR,53.0
CWIS 230000Z AUTO 26007KT 11/02 RMK AO1 PK WND 25020/2300 SLP213 T01110020 51013,CWIS,2022-10-23T00:00:00Z,47.28,-70.63,11.1,2.0,260,7,,,,1021.3,,TRUE,TRUE,,,,,,,,,,,,,,,,1.3,,,,,,,,,,,METAR,720.0
CWIP 230000Z AUTO 10003KT 07/05 RMK AO1 T00740047,CWIP,2022-10-23T00:00:00Z,50.17,-66.43,7.4,4.7,100,3,,,,,,TRUE,TRUE,,,,,,,,,,,,,,,,,,,,,,,,,,,METAR,27.0
CWIL 230000Z AUTO ///// ////SM BKN008 OVC013 ///// A////,CWIL,2022-10-23T00:00:00Z,68.32,-100.07,,,,,,,,,,TRUE,,,,,,,,BKN,800,OVC,1300,,,,,,,,,,,,,,,,,METAR,28.0
CWIK 230000Z AUTO 06009KT 08/01 RMK AO1 SLP056 T00810005 53009,CWIK,2022-10-23T00:00:00Z,50.37,-102.58,8.1,0.5,60,9,,,,1005.6,,TRUE,TRUE,,,,,,,,,,,,,,,,0.9,,,,,,,,,,,METAR,597.0
CWIJ 230000Z AUTO 31012KT M11/M14 RMK AO1 SOG 07 1010 PK WND 29019/2313 SLP180 T11081142,CWIJ,2022-10-23T00:00:00Z,65.77,-111.23,-10.8,-14.2,310,12,,,,1018.0,,TRUE,TRUE,,,,,,,,,,,,,,,,,,,,,,,,,,,METAR,490.0
CWIG 230000Z AUTO 22013G18KT RMK AO1 PK WND 22019/2334,CWIG,2022-10-23T00:00:00Z,47.07,-70.53,,,220,13,18,,,,,TRUE,TRUE,,,,,,,,,,,,,,,,,,,,,,,,,,,METAR,12.0
CWID 230000Z AUTO 34002KT M02/M09 RMK AO1 SLP184 T10221091 53009,CWID,2022-10-23T00:00:00Z,61.32,-117.6,-2.2,-9.1,340,2,,,,1018.4,,TRUE,TRUE,,,,,,,,,,,,,,,,0.9,,,,,,,,,,,METAR,160.0
CWHV 230000Z AUTO 17003KT 13/04 RMK AO1 SLP220 T01320044 51015,CWHV,2022-10-23T00:00:00Z,46.2,-70.78,13.2,4.4,170,3,,,,1022.0,,TRUE,TRUE,,,,,,,,,,,,,,,,1.5,,,,,,,,,,,METAR,227.0
CWHT 230000Z AUTO 14001KT 03/M02 RMK AO1 SLP115 T00331019 56014,CWHT,2022-10-23T00:00:00Z,60.77,-137.58,3.3,-1.9,140,1,,,,1011.5,,TRUE,TRUE,,,,,,,,,,,,,,,,-1.4,,,,,,,,,,,METAR,601.0
CWHQ 230000Z AUTO 34001KT 07/05 RMK AO1 T00680049,CWHQ,2022-10-23T00:00:00Z,46.68,-71.97,6.8,4.9,340,1,,,,,,TRUE,TRUE,,,,,,,,,,,,,,,,,,,,,,,,,,,METAR,56.0
CWHP 230000Z AUTO 20019KT 10/08 RMK AO1 PK WND 20023/2328 SLP197 T00990077 51005,CWHP,2022-10-23T00:00:00Z,49.08,-61.7,9.9,7.7,200,19,,,,1019.7,,TRUE,TRUE,,,,,,,,,,,,,,,,0.5,,,,,,,,,,,METAR,7.0
CWHO 230000Z AUTO 00021KT 08/03 RMK AO1 SLP077 T00780031 51008,CWHO,2022-10-23T00:00:00Z,55.45,-60.22,7.8,3.1,0,21,,,,1007.7,,TRUE,TRUE,,,,,,,,,,,,,,,,0.8,,,,,,,,,,,METAR,16.0
CWHL 230000Z AUTO 34008KT 09/01 RMK AO1 SLP129 T00910014 53005,CWHL,2022-10-23T00:00:00Z,54.17,-130.35,9.1,1.4,340,8,,,,1012.9,,TRUE,TRUE,,,,,,,,,,,,,,,,0.5,,,,,,,,,,,METAR,5.0
CWHI 230000Z AUTO 36007KT 03/M01 RMK AO1 T00301010,CWHI,2022-10-23T00:00:00Z,51.7,-113.22,3.0,-1.0,360,7,,,,,,TRUE,TRUE,,,,,,,,,,,,,,,,,,,,,,,,,,,METAR,906.0
CWGY 230000Z AUTO 02006KT 05/M04 RMK AO1 SLP075 T00451040 51014,CWGY,2022-10-23T00:00:00Z,51.67,-110.2,4.5,-4.0,20,6,,,,1007.5,,TRUE,TRUE,,,,,,,,,,,,,,,,1.4,,,,,,,,,,,METAR,709.0
CWGW 230000Z AUTO 36004KT 03/M02 RMK AO1 SLP063 T00281019 53024,CWGW,2022-10-23T00:00:00Z,49.75,-114.9,2.8,-1.9,360,4,,,,1006.3,,TRUE,TRUE,,,,,,,,,,,,,,,,2.4,,,,,,,,,,,METAR,1137.0
CWGT 230000Z AUTO 29009KT 14/06 RMK AO1 SLP085 T01420058 52007,CWGT,2022-10-23T00:00:00Z,49.48,-124.43,14.2,5.8,290,9,,,,1008.5,,TRUE,TRUE,,,,,,,,,,,,,,,,0.7,,,,,,,,,,,METAR,5.0
CWGR 230000Z AUTO 22011KT 13/08 RMK AO1 PK WND 21018/2322 SLP238 T01340075 50008,CWGR,2022-10-23T00:00:00Z,47.42,-61.77,13.4,7.5,220,11,,,,1023.8,,TRUE,TRUE,,,,,,,,,,,,,,,,0.8,,,,,,,,,,,METAR,4.0
CWGM 230000Z AUTO 01006KT M01/M02 RMK AO1 3PAST HR SOG 12 3025 SLP070 P0005 T10091017 50072,CWGM,2022-10-23T00:00:00Z,49.13,-113.8,-0.9,-1.7,10,6,,,,1007.0,,TRUE,TRUE,,,,,,,,,,,,,,,,7.2,,,,,0.05,,,,,,METAR,1292.0
CWGL 230000Z AUTO 16012KT 15/08 RMK AO1 SLP171 T01510081 53016,CWGL,2022-10-23T00:00:00Z,44.53,-79.22,15.1,8.1,160,12,,,,1017.1,,TRUE,TRUE,,,,,,,,,,,,,,,,1.6,,,,,,,,,,,METAR,220.0
CWGH 230000Z AUTO 21002KT 17/04 RMK AO1 SLP207 T01650044 53012,CWGH,2022-10-23T00:00:00Z,44.42,-75.85,16.5,4.4,210,2,,,,1020.7,,TRUE,TRUE,,,,,,,,,,,,,,,,1.2,,,,,,,,,,,METAR,76.0
CWGD 230000Z AUTO 15007KT 16/09 RMK AO1 SLP166 T01620086 52021,CWGD,2022-10-23T00:00:00Z,43.77,-81.72,16.2,8.6,150,7,,,,1016.6,,TRUE,TRUE,,,,,,,,,,,,,,,,2.1,,,,,,,,,,,METAR,214.0
CWGB 230000Z AUTO 26003KT 12/ RMK AO1 SLP081 T0124 52008,CWGB,2022-10-23T00:00:00Z,49.35,-124.13,12.4,,260,3,,,,1008.1,,TRUE,TRUE,,,,,,,,,,,,,,,,0.8,,,,,,,,,,,METAR,6.0
CWFQ 230000Z AUTO 17006KT 16/01 RMK AO1 SLP222 T01580014 53016,CWFQ,2022-10-23T00:00:00Z,45.03,-72.85,15.8,1.4,170,6,,,,1022.2,,TRUE,TRUE,,,,,,,,,,,,,,,,1.6,,,,,,,,,,,METAR,190.0
CWFJ 230000Z AUTO 33010KT M00/M01 RMK AO1 7PAST HR M P0003 T10041007 50053,CWFJ,2022-10-23T00:00:00Z,49.2,-113.27,-0.4,-0.7,330,10,,,,,,TRUE,TRUE,,,,,,,,,,,,,,,,5.3,,,,,0.03,,,,,,METAR,1142.0
CWFF 230000Z AUTO 05004KT 03/M04 RMK AO1 SLP095 T00311042 53020,CWFF,2022-10-23T00:00:00Z,52.82,-104.6,3.1,-4.2,50,4,,,,1009.5,,TRUE,TRUE,,,,,,,,,,,,,,,,2.0,,,,,,,,,,,METAR,482.0
CWFD 230000Z AUTO ///// ////SM OVC002 M04/M04 A2905,CWFD,2022-10-23T00:00:00Z,66.58,-61.58,-4.0,-4.0,,,,,29.049213,,,TRUE,,,,,,,,OVC,200,,,,,,,,,,,,,,,,,,,METAR,375.0
CWEZ 230000Z AUTO 29002KT 10/06 RMK AO1 SLP084 T00980058 53009,CWEZ,2022-10-23T00:00:00Z,48.78,-123.05,9.8,5.8,290,2,,,,1008.4,,TRUE,TRUE,,,,,,,,,,,,,,,,0.9,,,,,,,,,,,METAR,23.0
CWEW 230000Z AUTO 18005KT 15/05 RMK AO1 SLP215 T01480052 53019,CWEW,2022-10-23T00:00:00Z,45.82,-73.43,14.8,5.2,180,5,,,,1021.5,,TRUE,TRUE,,,,,,,,,,,,,,,,1.9,,,,,,,,,,,METAR,17.0
CWEU 230000Z 02012KT 15SM IC FEW160 M21/M25 A2968 RMK AC1 SLP067,CWEU,2022-10-23T00:00:00Z,80.0,-85.93,-21.0,-25.0,20,12,,15.0,29.681103,1006.7,,,,,,,,,IC,FEW,16000,,,,,,,VFR,,,,,,,,,,,,METAR,2.0
CWER 230000Z AUTO 27006KT RMK AO1,CWER,2022-10-23T00:00:00Z,47.0,-70.82,,,270,6,,,,,,TRUE,TRUE,,,,,,,,,,,,,,,,,,,,,,,,,,,METAR,4.0
CWEQ 230000Z AUTO 05007KT 03/M02 RMK AO1 SLP099 T00331024 53022,CWEQ,2022-10-23T00:00:00Z,52.12,-101.22,3.3,-2.4,50,7,,,,1009.9,,TRUE,TRUE,,,,,,,,,,,,,,,,2.2,,,,,,,,,,,METAR,331.0
CWEP 230000Z AUTO 20009KT 13/11 RMK AO1 SLP257 T01330111 53012,CWEP,2022-10-23T00:00:00Z,46.45,-61.98,13.3,11.1,200,9,,,,1025.7,,TRUE,TRUE,,,,,,,,,,,,,,,,1.2,,,,,,,,,,,METAR,9.0
CWEL 230000Z AUTO 32005KT 11/05 RMK AO1 SLP084 T01140052 52009,CWEL,2022-10-23T00:00:00Z,49.22,-123.8,11.4,5.2,320,5,,,,1008.4,,TRUE,TRUE,,,,,,,,,,,,,,,,0.9,,,,,,,,,,,METAR,0.0
CWEK 230000Z AUTO 31007KT 09/ RMK AO1 SLP102 T0094 53004,CWEK,2022-10-23T00:00:00Z,54.58,-130.7,9.4,,310,7,,,,1010.2,,TRUE,TRUE,,,,,,,,,,,,,,,,0.4,,,,,,,,,,,METAR,8.0
CWEH 230000Z AUTO 07016KT 02/M00 RMK AO1 2PAST HR 3017 PK WND 07022/2339 SLP025 P0009 T00161003 50088,CWEH,2022-10-23T00:00:00Z,49.43,-108.98,1.6,-0.3,70,16,,,,1002.5,,TRUE,TRUE,,,,,,,,,,,,,,,,8.8,,,,,0.09,,,,,,METAR,1077.0
CWEF 230000Z AUTO 19014KT 14/06 RMK AO1 PK WND 21018/2340 SLP240 T01380062 55000,CWEF,2022-10-23T00:00:00Z,47.22,-60.13,13.8,6.2,190,14,,,,1024.0,,TRUE,TRUE,,,,,,,,,,,,,,,,0.0,,,,,,,,,,,METAR,27.0
CWEE 230000Z AUTO 08/06 RMK AO1 SLP176 T00770058 53025,CWEE,2022-10-23T00:00:00Z,49.27,-73.35,7.7,5.8,,,,,,1017.6,,TRUE,TRUE,,,,,,,,,,,,,,,,2.5,,,,,,,,,,,METAR,302.0
CWEB 230000Z AUTO 00032KT 12/06 RMK AO1 SLP091 T01190061 53006,CWEB,2022-10-23T00:00:00Z,49.38,-126.55,11.9,6.1,0,32,,,,1009.1,,TRUE,TRUE,,,,,,,,,,,,,,,,0.6,,,,,,,,,,,METAR,1.0
CWDZ 230000Z AUTO 02006KT 05/M00 RMK AO1 SLP083 T00541004 53020,CWDZ,2022-10-23T00:00:00Z,51.43,-112.67,5.4,-0.4,20,6,,,,1008.3,,TRUE,TRUE,,,,,,,,,,,,,,,,2.0,,,,,,,,,,,METAR,689.0
CWDV 230000Z AUTO 08004KT 09/04 RMK AO1 SLP082 T00870035 51007,CWDV,2022-10-23T00:00:00Z,49.02,-90.47,8.7,3.5,80,4,,,,1008.2,,TRUE,TRUE,,,,,,,,,,,,,,,,0.7,,,,,,,,,,,METAR,487.0
CWDT 230000Z AUTO 23004KT RMK AO1 51027,CWDT,2022-10-23T00:00:00Z,49.83,-71.17,,,230,4,,,,,,TRUE,TRUE,,,,,,,,,,,,,,,,2.7,,,,,,,,,,,METAR,389.0
CWDQ 230000Z AUTO 14003KT 12/05 RMK AO1 SLP202 T01170047 51024,CWDQ,2022-10-23T00:00:00Z,47.42,-72.78,11.7,4.7,140,3,,,,1020.2,,TRUE,TRUE,,,,,,,,,,,,,,,,2.4,,,,,,,,,,,METAR,174.0
CWDO 230000Z AUTO 23014G20KT 11/06 RMK AO1 PK WND 24020/2330 SLP212 T01140058 53006,CWDO,2022-10-23T00:00:00Z,49.68,-54.78,11.4,5.8,230,14,20,,,1021.2,,TRUE,TRUE,,,,,,,,,,,,,,,,0.6,,,,,,,,,,,METAR,89.0
CWDM 230000Z AUTO 21009KT 09/08 RMK AO1 SLP190 T00870078 51006,CWDM,2022-10-23T00:00:00Z,50.47,-59.63,8.7,7.8,210,9,,,,1019.0,,TRUE,TRUE,,,,,,,,,,,,,,,,0.6,,,,,,,,,,,METAR,2.0
CWDK 230000Z AUTO 35010KT M00/M01 RMK AO1 4PAST HR SOG 13 3024 PK WND 34017/2300 SLP085 P0002 T10011006 50063,CWDK,2022-10-23T00:00:00Z,50.02,-113.62,-0.1,-0.6,350,10,,,,1008.5,,TRUE,TRUE,,,,,,,,,,,,,,,,6.3,,,,,0.02,,,,,,METAR,1014.0
CWDJ 230000Z AUTO 08012KT 09/M02 RMK AO1 PK WND 09018/2326 SLP048 T00911021 53014,CWDJ,2022-10-23T00:00:00Z,50.4,-104.58,9.1,-2.1,80,12,,,,1004.8,,TRUE,TRUE,,,,,,,,,,,,,,,,1.4,,,,,,,,,,,METAR,576.0
CWDC 230000Z AUTO 03003KT M03/M09 RMK AO1 SLP151 T10291087 53021,CWDC,2022-10-23T00:00:00Z,59.57,-108.48,-2.9,-8.7,30,3,,,,1015.1,,TRUE,TRUE,,,,,,,,,,,,,,,,2.1,,,,,,,,,,,METAR,311.0
CWDA 230000Z AUTO 26009KT 10/ RMK AO1 T0099,CWDA,2022-10-23T00:00:00Z,50.72,-56.12,9.9,,260,9,,,,,,TRUE,TRUE,,,,,,,,,,,,,,,,,,,,,,,,,,,METAR,30.0
CWCT 230000Z AUTO 35009KT 04/M02 RMK AO1 SLP098 T00361020 51020,CWCT,2022-10-23T00:00:00Z,52.07,-111.43,3.6,-2.0,350,9,,,,1009.8,,TRUE,TRUE,,,,,,,,,,,,,,,,2.0,,,,,,,,,,,METAR,793.0
CWCO 230000Z AUTO 15003KT 18/09 RMK AO1 SLP167 T01750088 53016,CWCO,2022-10-23T00:00:00Z,44.5,-80.22,17.5,8.8,150,3,,,,1016.7,,TRUE,TRUE,,,,,,,,,,,,,,,,1.6,,,,,,,,,,,METAR,182.0
CWCJ 230000Z AUTO 04006KT 10/07 RMK AO1 SLP109 T00990073 53017,CWCJ,2022-10-23T00:00:00Z,48.6,-86.28,9.9,7.3,40,6,,,,1010.9,,TRUE,TRUE,,,,,,,,,,,,,,,,1.7,,,,,,,,,,,METAR,207.0
CWCI 230000Z AUTO 14012KT 10/07 RMK AO1 PK WND 16021/2325 SLP095 T00980071 53016,CWCI,2022-10-23T00:00:00Z,47.33,-85.82,9.8,7.1,140,12,,,,1009.5,,TRUE,TRUE,,,,,,,,,,,,,,,,1.6,,,,,,,,,,,METAR,167.0
CWCF 230000Z AUTO 35004KT 02/M02 RMK AO1 SLP109 T00231023 53013,CWCF,2022-10-23T00:00:00Z,52.35,-97.03,2.3,-2.3,350,4,,,,1010.9,,TRUE,TRUE,,,,,,,,,,,,,,,,1.3,,,,,,,,,,,METAR,219.0
CWBZ 230000Z AUTO 00000KT 08/05 RMK AO1 SLP205 T00830053 53017,CWBZ,2022-10-23T00:00:00Z,45.12,-74.28,8.3,5.3,0,0,,,,1020.5,,TRUE,TRUE,,,,,,,,,,,,,,,,1.7,,,,,,,,,,,METAR,49.0
CWBY 230000Z AUTO 07004KT 07/05 RMK AO1 SLP181 T00710053 51010,CWBY,2022-10-23T00:00:00Z,49.83,-64.28,7.1,5.3,70,4,,,,1018.1,,TRUE,TRUE,,,,,,,,,,,,,,,,1.0,,,,,,,,,,,METAR,56.0
CWBV 230000Z AUTO 21008KT 14/13 RMK AO1 SLP262 T01360130 50002,CWBV,2022-10-23T00:00:00Z,44.82,-62.33,13.6,13.0,210,8,,,,1026.2,,TRUE,TRUE,,,,,,,,,,,,,,,,0.2,,,,,,,,,,,METAR,16.0
CWBU 230000Z AUTO 02006KT 02/M06 RMK AO1 SLP104 T00181063 53019,CWBU,2022-10-23T00:00:00Z,53.33,-104.02,1.8,-6.3,20,6,,,,1010.4,,TRUE,TRUE,,,,,,,,,,,,,,,,1.9,,,,,,,,,,,METAR,369.0
CWBT 230000Z AUTO 36002KT 05/05 RMK AO1 SLP180 T00530053 51009,CWBT,2022-10-23T00:00:00Z,50.27,-64.23,5.3,5.3,360,2,,,,1018.0,,TRUE,TRUE,,,,,,,,,,,,,,,,0.9,,,,,,,,,,,METAR,12.0
CWBS 230000Z AUTO 20012KT 15/06 RMK AO1 T01520063,CWBS,2022-10-23T00:00:00Z,46.18,-72.92,15.2,6.3,200,12,,,,,,TRUE,TRUE,,,,,,,,,,,,,,,,,,,,,,,,,,,METAR,3.0
CWBO 230000Z AUTO 04005KT 06/M01 RMK AO1 SLP066 T00591010 53016,CWBO,2022-10-23T00:00:00Z,50.53,-111.83,5.9,-1.0,40,5,,,,1006.6,,TRUE,TRUE,,,,,,,,,,,,,,,,1.6,,,,,,,,,,,METAR,752.0
CWBK 230000Z AUTO 22006KT 13/09 RMK AO1 SLP265 T01260089 51013,CWBK,2022-10-23T00:00:00Z,45.77,-62.67,12.6,8.9,220,6,,,,1026.5,,TRUE,TRUE,,,,,,,,,,,,,,,,1.3,,,,,,,,,,,METAR,2.0
CWBA 230000Z AUTO 00000KT 11/08 RMK AO1 T01110081,CWBA,2022-10-23T00:00:00Z,46.72,-79.1,11.1,8.1,0,0,,,,,,TRUE,TRUE,,,,,,,,,,,,,,,,,,,,,,,,,,,METAR,181.0
CWAV 230000Z AUTO 05001KT M00/M00 RMK AO1 SLP101 T10031003 53017,CWAV,2022-10-23T00:00:00Z,51.77,-114.67,-0.3,-0.3,50,1,,,,1010.1,,TRUE,TRUE,,,,,,,,,,,,,,,,1.7,,,,,,,,,,,METAR,1115.0
CWAR 230000Z AUTO 20016KT 12/11 RMK AO1 PK WND 20020/2320 SLP266 T01230107 53006,CWAR,2022-10-23T00:00:00Z,47.28,-54.0,12.3,10.7,200,16,,,,1026.6,,TRUE,TRUE,,,,,,,,,,,,,,,,0.6,,,,,,,,,,,METAR,6.0
CWAQ 230000Z AUTO 07011G17KT 07/02 RMK AO1 PK WND 08019/2309 SLP024 T00680020 52010,CWAQ,2022-10-23T00:00:00Z,49.05,-105.48,6.8,2.0,70,11,17,,,1002.4,,TRUE,TRUE,,,,,,,,,,,,,,,,1.0,,,,,,,,,,,METAR,761.0
CWAJ 230000Z AUTO 16009KT RMK AO1 53013,CWAJ,2022-10-23T00:00:00Z,42.25,-81.9,,,160,9,,,,,,TRUE,TRUE,,,,,,,,,,,,,,,,1.3,,,,,,,,,,,METAR,177.0
CWAF 230000Z AUTO 21015KT 09/06 RMK AO1 PK WND 20021/2302 T00920056,CWAF,2022-10-23T00:00:00Z,48.07,-69.55,9.2,5.6,210,15,,,,,,TRUE,TRUE,,,,,,,,,,,,,,,,,,,,,,,,,,,METAR,6.0
CWAE 230000Z 18003KT 15SM OVC032 06/02 A2975 RMK CU8 WIND ESTD SLP086,CWAE,2022-10-23T00:00:00Z,50.13,-122.95,6.0,2.0,180,3,,15.0,29.749016,1008.6,,,,,,,,,,OVC,3200,,,,,,,VFR,,,,,,,,,,,,METAR,658.0
CTRA 230000Z AUTO 06006KT 08/06 RMK AO1 SLP068 T00770057 53001,CTRA,2022-10-23T00:00:00Z,49.67,-93.73,7.7,5.7,60,6,,,,1006.8,,TRUE,TRUE,,,,,,,,,,,,,,,,0.1,,,,,,,,,,,METAR,432.0
CTNK 230000Z AUTO 01001KT 11/08 RMK AO1 SLP195 T01060078 51022,CTNK,2022-10-23T00:00:00Z,45.53,-78.27,10.6,7.8,10,1,,,,1019.5,,TRUE,TRUE,,,,,,,,,,,,,,,,2.2,,,,,,,,,,,METAR,405.0
CTCK 230000Z AUTO 20001KT 08/04 RMK AO1 SLP207 T00750041 53019,CTCK,2022-10-23T00:00:00Z,45.25,-74.97,7.5,4.1,200,1,,,,1020.7,,TRUE,TRUE,,,,,,,,,,,,,,,,1.9,,,,,,,,,,,METAR,84.0
CPSV 230000Z AUTO 05013KT 03/02 RMK AO1 7PAST HR M PK WND 03022/2320 P0003 T00310019 50029,CPSV,2022-10-23T00:00:00Z,49.92,-110.92,3.1,1.9,50,13,,,,,,TRUE,TRUE,,,,,,,,,,,,,,,,2.9,,,,,0.03,,,,,,METAR,766.0
CPST 230000Z AUTO 01010KT 02/01 RMK AO1 T00200012,CPST,2022-10-23T00:00:00Z,51.03,-113.28,2.0,1.2,10,10,,,,,,TRUE,TRUE,,,,,,,,,,,,,,,,,,,,,,,,,,,METAR,1005.0
CPRY 230000Z AUTO 05012KT 01/01 RMK AO1 1PAST HR M PK WND 03020/2324 P0004 T00140009 50070,CPRY,2022-10-23T00:00:00Z,49.48,-112.68,1.4,0.9,50,12,,,,,,TRUE,TRUE,,,,,,,,,,,,,,,,7.0,,,,,0.04,,,,,,METAR,947.0
CPRO 230000Z AUTO 01008KT 06/M01 RMK AO1 T00581009,CPRO,2022-10-23T00:00:00Z,50.83,-112.05,5.8,-0.9,10,8,,,,,,TRUE,TRUE,,,,,,,,,,,,,,,,,,,,,,,,,,,METAR,733.0
CPIR 230000Z AUTO 03011KT 03/02 RMK AO1 6PAST HR M PK WND 03022/2309 P0002 T00270015 50037,CPIR,2022-10-23T00:00:00Z,49.9,-112.73,2.7,1.5,30,11,,,,,,TRUE,TRUE,,,,,,,,,,,,,,,,3.7,,,,,0.02,,,,,,METAR,895.0
CPFI 230000Z AUTO 06012KT 03/01 RMK AO1 PK WND 05019/2355 T00260012 50053,CPFI,2022-10-23T00:00:00Z,49.8,-112.03,2.6,1.2,60,12,,,,,,TRUE,TRUE,,,,,,,,,,,,,,,,5.3,,,,,,,,,,,METAR,804.0
CPEH 230000Z AUTO 00000KT 02/01 RMK AO1 6PAST HR M P0002 T00230009 50040,CPEH,2022-10-23T00:00:00Z,50.18,-112.43,2.3,0.9,0,0,,,,,,TRUE,TRUE,,,,,,,,,,,,,,,,4.0,,,,,0.02,,,,,,METAR,814.0
CPBT 230000Z AUTO 03012KT M00/M00 RMK AO1 8PAST HR M P0003 T10031003 50079,CPBT,2022-10-23T00:00:00Z,49.53,-113.05,-0.3,-0.3,30,12,,,,,,TRUE,TRUE,,,,,,,,,,,,,,,,7.9,,,,,0.03,,,,,,METAR,998.0
CMGB 230000Z AUTO 20002KT 13/03 RMK AO1 SLP218 T01320028 52017,CMGB,2022-10-23T00:00:00Z,45.37,-72.77,13.2,2.8,200,2,,,,1021.8,,TRUE,TRUE,,,,,,,,,,,,,,,,1.7,,,,,,,,,,,METAR,87.0
CMFM 230000Z AUTO 03001KT 04/03 RMK AO1 SLP237 T00420031 51020,CMFM,2022-10-23T00:00:00Z,47.32,-71.15,4.2,3.1,30,1,,,,1023.7,,TRUE,TRUE,,,,,,,,,,,,,,,,2.0,,,,,,,,,,,METAR,663.0
CERM 230000Z AUTO 12003KT 13/04 RMK AO1 SLP218 T01250035 51021,CERM,2022-10-23T00:00:00Z,47.42,-68.32,12.5,3.5,120,3,,,,1021.8,,TRUE,TRUE,,,,,,,,,,,,,,,,2.1,,,,,,,,,,,METAR,151.0
CBBC 230000Z AUTO VRB02KT 9SM CLR 10/05 A2988 RMK SLP122,CBBC,2022-10-23T00:00:00Z,52.18,-128.15,10.0,5.0,0,2,,9.0,29.878937,1012.2,,TRUE,,,,,,,,CLR,,,,,,,,VFR,,,,,,,,,,,,METAR,36.0
CBAR 230000Z AUTO 18004KT ////SM OVC035 M07/M08 A3013,CBAR,2022-10-23T00:00:00Z,,,-7.0,-8.0,180,4,,,30.129921,,,TRUE,,,,,,,,OVC,3500,,,,,,,,,,,,,,,,,,,METAR,
CAHR 230000Z AUTO 22006KT 12/05 RMK AO1 SLP251 T01170054 51013,CAHR,2022-10-23T00:00:00Z,46.35,-63.17,11.7,5.4,220,6,,,,1025.1,,TRUE,TRUE,,,,,,,,,,,,,,,,1.3,,,,,,,,,,,METAR,52.0
BIRK 230000Z 08009KT 9999 FEW020 BKN038 05/02 Q1013,BIRK,2022-10-23T00:00:00Z,64.13,-21.93,5.0,2.0,80,9,,6.21,29.911417,,,,,,,,,,,FEW,2000,BKN,3800,,,,,VFR,,,,,,,,,,,,METAR,12.0
BIAR 230000Z 18004KT CAVOK M05/M06 Q1014,BIAR,2022-10-23T00:00:00Z,65.67,-18.07,-5.0,-6.0,180,4,,6.21,29.940945,,,,,,,,,,,CAVOK,,,,,,,,VFR,,,,,,,,,,,,METAR,1.0
AYPY 230000Z 33010KT 9999 FEW040 31/23 Q1010,AYPY,2022-10-23T00:00:00Z,-9.43,147.22,31.0,23.0,330,10,,6.21,29.822834,,,,,,,,,,,FEW,4000,,,,,,,VFR,,,,,,,,,,,,METAR,44.0
AYNZ 230000Z 08005G10KT 9999 BKN025 28/22 Q1011,AYNZ,2022-10-23T00:00:00Z,-6.57,146.72,28.0,22.0,80,5,10,6.21,29.852362,,,,,,,,,,,BKN,2500,,,,,,,MVFR,,,,,,,,,,,,METAR,74.0
AYMH 230000Z VRB03KT 9999 HZ SCT030 21/16 Q1022,AYMH,2022-10-23T00:00:00Z,-5.83,144.3,21.0,16.0,0,3,,6.21,30.177166,,,,,,,,,,HZ,SCT,3000,,,,,,,VFR,,,,,,,,,,,,METAR,1634.0
ANYN 230000Z 13007KT 9999 FEW020 30/25 Q1010,ANYN,2022-10-23T00:00:00Z,-0.55,166.92,30.0,25.0,130,7,,6.21,29.822834,,,,,,,,,,,FEW,2000,,,,,,,VFR,,,,,,,,,,,,METAR,7.0
AGGH 230000Z 29003KT 9999 FEW018 FEW020CB SCT100 BKN300 30/24 Q1009 RMK CB TO WSW,AGGH,2022-10-23T00:00:00Z,-9.42,160.05,30.0,24.0,290,3,,6.21,29.793306,,,,,,,,,,,FEW,1800,FEW,2000,SCT,10000,BKN,30000,VFR,,,,,,,,,,,,METAR,6.0
MUCF 222359Z AUTO 06004KT 25/22 Q1014,MUCF,2022-10-22T23:59:00Z,22.15,-80.4,25.0,22.0,60,4,,,29.940945,,,TRUE,,,,,,,,,,,,,,,,,,,,,,,,,,,,METAR,35.0
KNOZ 222359Z AUTO 16011KT 10SM CLR 28/16 A2960 RMK AO2 SLP973 T02830156 10306 20278 58010,KNOZ,2022-10-22T23:59:00Z,32.53,-114.5,28.3,15.6,160,11,,10.0,29.601377,997.3,,TRUE,TRUE,,,,,,,CLR,,,,,,,,VFR,-1.0,30.6,27.8,,,,,,,,,SPECI,78.0
KNGU 222359Z 06009KT 10SM BKN250 16/11 A3023 RMK AO2 SLP236 T01610111 10194 20161 53004 $,KNGU,2022-10-22T23:59:00Z,36.93,-76.27,16.1,11.1,60,9,,10.0,30.230314,1023.6,,,TRUE,TRUE,,,,,,BKN,25000,,,,,,,VFR,0.4,19.4,16.1,,,,,,,,,SPECI,3.0
KROG 222358Z 10SM BKN055 23/12 A2975 RMK AO2 SLP062 T02330117 10272 20233 53020 $,KROG,2022-10-22T23:58:00Z,36.37,-94.1,23.3,11.7,,,,10.0,29.749016,1006.2,,,TRUE,TRUE,,,,,,BKN,5500,,,,,,,VFR,2.0,27.2,23.3,,,,,,,,,METAR,407.0
KPRN 222358Z AUTO 00000KT 10SM CLR 15/08 A3009 RMK AO2 SLP138 T01500083 10239 20150 53001,KPRN,2022-10-22T23:58:00Z,31.85,-86.62,15.0,8.3,0,0,,10.0,30.088583,1013.8,,TRUE,TRUE,,,,,,,CLR,,,,,,,,VFR,0.1,23.9,15.0,,,,,,,,,METAR,137.0
KMRH 222358Z AUTO 02011KT 10SM CLR 18/13 A3013 RMK AO2 SLP202 T01830133 10233 20183 53005,KMRH,2022-10-22T23:58:00Z,34.73,-76.65,18.3,13.3,20,11,,10.0,30.129921,1020.2,,TRUE,TRUE,,,,,,,CLR,,,,,,,,VFR,0.5,23.3,18.3,,,,,,,,,METAR,2.0
KMEI 222358Z 00000KT 10SM CLR 18/14 A3004 RMK AO2 SLP171 T01830139 10261 20183 55000,KMEI,2022-10-22T23:58:00Z,32.33,-88.75,18.3,13.9,0,0,,10.0,30.041338,1017.1,,,TRUE,,,,,,,CLR,,,,,,,,VFR,0.0,26.1,18.3,,,,,,,,,METAR,90.0
KGOV 222358Z AUTO 18006KT 10SM CLR 18/08 A2988 RMK AO2 SLP127 T01790080 10220 20177 52016 $,KGOV,2022-10-22T23:58:00Z,44.68,-84.73,17.9,8.0,180,6,,10.0,29.878937,1012.7,,TRUE,TRUE,TRUE,,,,,,CLR,,,,,,,,VFR,1.6,22.0,17.7,,,,,,,,,METAR,350.0
KEUF 222358Z AUTO 00000KT 10SM CLR 13/09 A3011 RMK AO2 SLP196 T01330094 10256 20133 53000,KEUF,2022-10-22T23:58:00Z,31.95,-85.13,13.3,9.4,0,0,,10.0,30.109253,1019.6,,TRUE,TRUE,,,,,,,CLR,,,,,,,,VFR,0.0,25.6,13.3,,,,,,,,,METAR,87.0
KCMY 222358Z AUTO 15004KT 7SM R29/5500FT CLR 22/08 A2966 RMK AO2 SLP049 T02170081 10268 20217 53015 $,KCMY,2022-10-22T23:58:00Z,43.97,-90.73,21.7,8.1,150,4,,7.0,29.660433,1004.9,,TRUE,TRUE,TRUE,,,,,,CLR,,,,,,,,VFR,1.5,26.8,21.7,,,,,,,,,METAR,253.0
KBKF 222358Z 09006KT 10SM FEW140 FEW220 20/M09 A2946 RMK AO2A SLP913 T01981094 10246 20198 57011,KBKF,2022-10-22T23:58:00Z,39.72,-104.75,19.8,-9.4,90,6,,10.0,29.459646,991.3,,,TRUE,,,,,,,FEW,14000,FEW,22000,,,,,VFR,-1.1,24.6,19.8,,,,,,,,,METAR,1703.0
KBCR 222358Z AUTO 00000KT 10SM CLR 14/09 A3010 RMK AO2 SLP179 T01390089 10267 20139 53002 $,KBCR,2022-10-22T23:58:00Z,30.85,-85.6,13.9,8.9,0,0,,10.0,30.100393,1017.9,,TRUE,TRUE,TRUE,,,,,,CLR,,,,,,,,VFR,0.2,26.7,13.9,,,,,,,,,METAR,26.0
K0J4 222358Z AUTO 00000KT 10SM CLR 15/07 A3011 RMK AO2 SLP196 T01500067 10261 20150 53002,K0J4,2022-10-22T23:58:00Z,31.05,-86.32,15.0,6.7,0,0,,10.0,30.109253,1019.6,,TRUE,TRUE,,,,,,,CLR,,,,,,,,VFR,0.2,26.1,15.0,,,,,,,,,METAR,96.0
PGWT 222357Z 11011KT 7SM SCT016 SCT030 SCT080 BKN120 30/24,PGWT,2022-10-22T23:57:00Z,14.98,145.62,30.0,24.0,110,11,,7.0,,,,,,,,,,,,SCT,1600,SCT,3000,SCT,8000,BKN,12000,VFR,,,,,,,,,,,,METAR,84.0
PAJC 222357Z AUTO 23011KT 10SM OVC032 06/02 A2976 RMK AO2 RAE34 SLP079 6//// T00610017 10061 20044 51015 PNO $,PAJC,2022-10-22T23:57:00Z,56.32,-158.37,6.1,1.7,230,11,,10.0,29.760826,1007.9,,TRUE,TRUE,TRUE,,,,,,OVC,3200,,,,,,,VFR,1.5,6.1,4.4,,,,,,,,,METAR,10.0
MMCU 222357Z RTD 08010KT 10SM BKN200 26/08 A2991 RMK SLP000 50000 900 60005 8/001 ISOL AC,MMCU,2022-10-22T23:57:00Z,28.7,-105.97,26.0,8.0,80,10,,10.0,29.911417,1000.0,,,,,,,,,,BKN,20000,,,,,,,VFR,0.0,,,,,,,0.05,,,,METAR,1349.0
KNYL 222357Z AUTO 19010KT 10SM FEW070 29/14 A2958 RMK AO2 SLP014 T02890144 10311 20289 56010,KNYL,2022-10-22T23:57:00Z,32.65,-114.62,28.9,14.4,190,10,,10.0,29.58071,1001.4,,TRUE,TRUE,,,,,,,FEW,7000,,,,,,,VFR,-1.0,31.1,28.9,,,,,,,,,METAR,58.0
KNJW 222357Z AUTO 13006KT 10SM CLR 18/12 A3007 RMK AO2 SLP097 T01830117 10261 20183 55000,KNJW,2022-10-22T23:57:00Z,32.78,-88.82,18.3,11.7,130,6,,10.0,30.070866,1009.7,,TRUE,TRUE,,,,,,,CLR,,,,,,,,VFR,0.0,26.1,18.3,,,,,,,,,METAR,165.0
KNJM 222357Z AUTO 02009KT 10SM CLR 21/12 A3014 RMK AO2 SLP208 T02060117 10256 20206 53009,KNJM,2022-10-22T23:57:00Z,34.68,-77.02,20.6,11.7,20,9,,10.0,30.138779,1020.8,,TRUE,TRUE,,,,,,,CLR,,,,,,,,VFR,0.9,25.6,20.6,,,,,,,,,METAR,5.0
KIWA 222357Z 20018G24KT 10SM CLR 29/11 A2963,KIWA,2022-10-22T23:57:00Z,33.3,-111.65,29.0,11.0,200,18,24,10.0,29.630905,,,,,,,,,,,CLR,,,,,,,,VFR,,,,,,,,,,,,METAR,420.0
KFLG 222357Z COR 21024G34KT 10SM FEW035 13/04 A2977 RMK AO2 PK WND 22042/2335 SLP013 T01280044 10167 20128 58019,KFLG,2022-10-22T23:57:00Z,35.13,-111.67,12.8,4.4,210,24,34,10.0,29.769686,1001.3,TRUE,,TRUE,,,,,,,FEW,3500,,,,,,,VFR,-1.9,16.7,12.8,,,,,,,,,METAR,2134.0
KELY 222357Z AUTO 00000KT 3SM -SN BR OVC033 01/M01 A2968 RMK AO2 P0000 T00061011,KELY,2022-10-22T23:57:00Z,39.3,-114.85,0.6,-1.1,0,0,,3.0,29.681103,,,TRUE,TRUE,,,,,,-SN BR,OVC,3300,,,,,,,MVFR,,,,,,0.005,,,,,,SPECI,1906.0
KAQV 222357Z AUTO 19006KT 10SM CLR 24/14 A2993 RMK AO2 SLP132 T02390139 10300 20239 53004,KAQV,2022-10-22T23:57:00Z,31.4,-93.3,23.9,13.9,190,6,,10.0,29.929134,1013.2,,TRUE,TRUE,,,,,,,CLR,,,,,,,,VFR,0.4,30.0,23.9,,,,,,,,,METAR,123.0
TJSJ 222356Z 09006KT 10SM FEW026 FEW060 27/24 A2991 RMK AO2 SLP128 P0003 60004 T02720244 10311 20272 53017 $,TJSJ,2022-10-22T23:56:00Z,18.43,-66.02,27.2,24.4,90,6,,10.0,29.911417,1012.8,,,TRUE,TRUE,,,,,,FEW,2600,FEW,6000,,,,,VFR,1.7,31.1,27.2,,,0.03,,0.04,,,,METAR,3.0
ROTM 222356Z 31010KT 9999 BKN010 BKN030 26/26 A2983 RMK DZE48 SLP010 P0000 60001 10256 20244 51010,ROTM,2022-10-22T23:56:00Z,26.27,127.75,26.0,26.0,310,10,,6.21,29.828741,1001.0,,,,,,,,,,BKN,1000,BKN,3000,,,,,MVFR,1.0,25.6,24.4,,,0.005,,0.01,,,,METAR,80.0
RJOI 222356Z VRB03KT 9999 FEW025 FEW230 21/14 A2999 RMK AO2 SLP157 T02110144 10211 20167 51003,RJOI,2022-10-22T23:56:00Z,34.13,132.23,21.1,14.4,0,3,,6.21,29.991142,1015.7,,,TRUE,,,,,,,FEW,2500,FEW,23000,,,,,VFR,0.3,21.1,16.7,,,,,,,,,METAR,2.0
PPIZ 222356Z AUTO 13005KT 10SM CLR M07/M09 A2982 RMK AO2 SLP099 T10721094 11067 21133 51003 FZRANO,PPIZ,2022-10-22T23:56:00Z,69.73,-163.0,-7.2,-9.4,130,5,,10.0,29.819881,1009.9,,TRUE,TRUE,,,,TRUE,,,CLR,,,,,,,,VFR,0.3,-6.7,-13.3,,,,,,,,,METAR,5.0
PMDY 222356Z AUTO 05009KT 10SM FEW080 BKN100 BKN120 27/19 A3004 RMK AO2 SLP172 60001 T02670194 10267 20228 58010 TSNO,PMDY,2022-10-22T23:56:00Z,28.22,-177.37,26.7,19.4,50,9,,10.0,30.041338,1017.2,,TRUE,TRUE,,,TRUE,,,,FEW,8000,BKN,10000,BKN,12000,,,VFR,-1.0,26.7,22.8,,,,,0.01,,,,METAR,6.0
PHNY 222356Z AUTO 03013KT 10SM FEW002 SCT031 27/19 A3003 RMK AO2 SLP146 T02720194 10283 20244 58022 $,PHNY,2022-10-22T23:56:00Z,20.77,-156.95,27.2,19.4,30,13,,10.0,30.029528,1014.6,,TRUE,TRUE,TRUE,,,,,,FEW,200,SCT,3100,,,,,VFR,-2.2,28.3,24.4,,,,,,,,,METAR,395.0
PFYU 222356Z 36003KT 10SM BKN006 OVC070 M04/M06 A2998 RMK AO2 SLP167 60000 T10441056 11039 21078 50000,PFYU,2022-10-22T23:56:00Z,66.57,-145.23,-4.4,-5.6,360,3,,10.0,29.97933,1016.7,,,TRUE,,,,,,,BKN,600,OVC,7000,,,,,IFR,0.0,-3.9,-7.8,,,,,0.005,,,,METAR,130.0
PFNO 222356Z AUTO 13010KT 8SM BKN014 OVC030 01/M01 A2987 RMK AO2 RAB18E35 SLP197 P0000 60000 T00061006 10011 21011 51003 FZRANO,PFNO,2022-10-22T23:56:00Z,66.82,-161.02,0.6,-0.6,130,10,,8.0,29.870079,1019.7,,TRUE,TRUE,,,,TRUE,,,BKN,1400,OVC,3000,,,,,MVFR,0.3,1.1,-1.1,,,0.005,,0.005,,,,METAR,14.0
PFKW 222356Z AUTO 35004KT 1/4SM FZFG OVC001 M01/M01 A2991 RMK AO2 SLP129 T10061006 10000 21017 51003 FZRANO,PFKW,2022-10-22T23:56:00Z,60.8,-161.43,-0.6,-0.6,350,4,,0.25,29.911417,1012.9,,TRUE,TRUE,,,,TRUE,,FZFG,OVC,100,,,,,,,LIFR,0.3,0.0,-1.7,,,,,,,,,METAR,4.0
PFCL 222356Z AUTO 01009KT 10SM CLR 02/01 A2983 RMK AO2 SLPNO T00220011 58001 FZRANO TSNO,PFCL,2022-10-22T23:56:00Z,58.83,-158.53,2.2,1.1,10,9,,10.0,29.828741,,,TRUE,TRUE,,,TRUE,TRUE,,,CLR,,,,,,,,VFR,-0.1,,,,,,,,,,,METAR,23.0
PAZK 222356Z AUTO 03003KT 10SM CLR M01/M08 A2973 RMK AO2 SLP128 T10111083 10011 21067 58008 FZRANO,PAZK,2022-10-22T23:56:00Z,61.93,-147.17,-1.1,-8.3,30,3,,10.0,29.731298,1012.8,,TRUE,TRUE,,,,TRUE,,,CLR,,,,,,,,VFR,-0.8,1.1,-6.7,,,,,,,,,METAR,1002.0
PAWS 222356Z AUTO 06004KT 10SM CLR 04/M07 A2982 RMK AO2 SLP104 T00391072 10044 21017 56018,PAWS,2022-10-22T23:56:00Z,61.57,-149.53,3.9,-7.2,60,4,,10.0,29.819881,1010.4,,TRUE,TRUE,,,,,,,CLR,,,,,,,,VFR,-1.8,4.4,-1.7,,,,,,,,,METAR,102.0
PAWM 222356Z AUTO 14004KT 9SM FEW047 SCT100 02/02 A2984 RMK AO2 UPB29E31RAB31E43 SLP109 6//// T00220017 10033 20000 50005 FZRANO PNO $,PAWM,2022-10-22T23:56:00Z,64.68,-163.42,2.2,1.7,140,4,,9.0,29.840551,1010.9,,TRUE,TRUE,TRUE,,,TRUE,,,FEW,4700,SCT,10000,,,,,VFR,0.5,3.3,0.0,,,,,,,,,METAR,80.0
PAWG 222356Z 00000KT 10SM FEW026 FEW038 SCT120 06/04 A2994 RMK AO2 SLPNO 6//// T00640040 $,PAWG,2022-10-22T23:56:00Z,56.48,-132.37,6.4,4.0,0,0,,10.0,29.940945,,,,TRUE,TRUE,,,,,,FEW,2600,FEW,3800,SCT,12000,,,VFR,,,,,,,,,,,,METAR,6.0
PAVD 222356Z 13008KT 10SM SCT200 BKN300 A2989 RMK AO2 SLPNO 11/M01 6//// 58015 PNO $,PAVD,2022-10-22T23:56:00Z,61.13,-146.25,,,130,8,,10.0,29.890747,,,,TRUE,TRUE,,,,,,SCT,20000,BKN,30000,,,,,VFR,-1.5,,,,,,,,,,,METAR,21.0
PAVC 222356Z AUTO 27010KT 7SM RA BKN024 OVC030 06/03 A2995 RMK AO2 SLP141 6//// T00560033 10061 20044 51027 PNO $,PAVC,2022-10-22T23:56:00Z,55.12,-162.27,5.6,3.3,270,10,,7.0,29.949802,1014.1,,TRUE,TRUE,TRUE,,,,,RA,BKN,2400,OVC,3000,,,,,MVFR,2.7,6.1,4.4,,,,,,,,,METAR,48.0
PAVA 222356Z AUTO 21006KT 10SM CLR 04/01 A2990 RMK AO2 SLP129 T00440011 10044 21006 51002,PAVA,2022-10-22T23:56:00Z,61.53,-165.6,4.4,1.1,210,6,,10.0,29.899607,1012.9,,TRUE,TRUE,,,,,,,CLR,,,,,,,,VFR,0.2,4.4,-0.6,,,,,,,,,METAR,14.0
PATQ 222356Z AUTO 10012KT 10SM CLR M06/M07 A2989 RMK AO2 SLP126 60000 T10611072 11050 21061 52001 FZRANO TSNO,PATQ,2022-10-22T23:56:00Z,70.47,-157.43,-6.1,-7.2,100,12,,10.0,29.890747,1012.6,,TRUE,TRUE,,,TRUE,TRUE,,,CLR,,,,,,,,VFR,0.1,-5.0,-6.1,,,,,0.005,,,,METAR,28.0
PATG 222356Z AUTO 07003KT 10SM CLR 04/02 A2987 RMK AO2 SLP113 T00440022 10044 21006 50000,PATG,2022-10-22T23:56:00Z,59.05,-160.38,4.4,2.2,70,3,,10.0,29.870079,1011.3,,TRUE,TRUE,,,,,,,CLR,,,,,,,,VFR,0.0,4.4,-0.6,,,,,,,,,METAR,1.0
PASX 222356Z AUTO 04008KT 10SM SCT011 02/M01 A2983 RMK AO2 SLP109 T00171006 10017 21039 58010 FZRANO,PASX,2022-10-22T23:56:00Z,60.48,-151.05,1.7,-0.6,40,8,,10.0,29.828741,1010.9,,TRUE,TRUE,,,,TRUE,,,SCT,1100,,,,,,,VFR,-1.0,1.7,-3.9,,,,,,,,,METAR,28.0
PASM 222356Z AUTO 15004KT 10SM OVC030 02/01 A2992 RMK AO2 SLP142 T00220011 10022 21017 51004 FZRANO,PASM,2022-10-22T23:56:00Z,62.07,-163.3,2.2,1.1,150,4,,10.0,29.920275,1014.2,,TRUE,TRUE,,,,TRUE,,,OVC,3000,,,,,,,MVFR,0.4,2.2,-1.7,,,,,,,,,METAR,108.0
PASK 222356Z AUTO 11004KT 10SM OVC043 00/M01 A2989 RMK AO2 RAE23 SLP119 P0000 60000 T00001006 10006 21011 51003 FZRANO,PASK,2022-10-22T23:56:00Z,66.6,-160.0,0.0,-0.6,110,4,,10.0,29.890747,1011.9,,TRUE,TRUE,,,,TRUE,,,OVC,4300,,,,,,,VFR,0.3,0.6,-1.1,,,0.005,,0.005,,,,METAR,3.0
PASH 222356Z AUTO 17011KT 10SM FEW120 01/M01 A2976 RMK AO2 SLP079 6//// T00061006 10011 21017 58001 FZRANO PNO $,PASH,2022-10-22T23:56:00Z,66.27,-166.08,0.6,-0.6,170,11,,10.0,29.760826,1007.9,,TRUE,TRUE,TRUE,,,TRUE,,,FEW,12000,,,,,,,VFR,-0.1,1.1,-1.7,,,,,,,,,METAR,3.0
PASD 222356Z 32013KT 10SM FEW024 SCT033 BKN060 07/03 A2985 RMK AO2 SLP112 6//// T00720033 10072 20044 51028 PNO $,PASD,2022-10-22T23:56:00Z,55.33,-160.52,7.2,3.3,320,13,,10.0,29.84941,1011.2,,,TRUE,TRUE,,,,,,FEW,2400,SCT,3300,BKN,6000,,,VFR,2.8,7.2,4.4,,,,,,,,,METAR,6.0
PASA 222356Z AUTO 21025G32KT 5SM BR BKN010 02/01 A2963 RMK AO2 PK WND 21034/2322 SLP035 60000 T00220011 10039 20011 57003 FZRANO,PASA,2022-10-22T23:56:00Z,63.68,-170.5,2.2,1.1,210,25,32,5.0,29.630905,1003.5,,TRUE,TRUE,,,,TRUE,,BR,BKN,1000,,,,,,,MVFR,-0.3,3.9,1.1,,,,,0.005,,,,METAR,9.0
PARS 222356Z AUTO 00000KT 10SM OVC034 A2991 RMK AO2 SLPNO 54000 FZRANO $,PARS,2022-10-22T23:56:00Z,61.77,-161.32,,,0,0,,10.0,29.911417,,,TRUE,TRUE,TRUE,,,TRUE,,,OVC,3400,,,,,,,VFR,,,,,,,,,,,,METAR,15.0
PARC 222356Z AUTO 34003KT 9SM CLR M10/M12 A2986 RMK AO2 SLP178 60001 T11001122 11061 21128 58002 FZRANO,PARC,2022-10-22T23:56:00Z,68.12,-145.58,-10.0,-12.2,340,3,,9.0,29.861221,1017.8,,TRUE,TRUE,,,,TRUE,,,CLR,,,,,,,,VFR,-0.2,-6.1,-12.8,,,,,0.01,,,,METAR,626.0
PAQH 222356Z AUTO 30005KT 10SM OVC070 04/02 A2991 RMK AO2 SLP127 T00390022 10039 21017 53003,PAQH,2022-10-22T23:56:00Z,59.75,-161.85,3.9,2.2,300,5,,10.0,29.911417,1012.7,,TRUE,TRUE,,,,,,,OVC,7000,,,,,,,VFR,0.3,3.9,-1.7,,,,,,,,,METAR,8.0
PAPN 222356Z AUTO 36011KT 9SM OVC055 04/03 A2976 RMK AO2 RAE05 SLP079 6//// T00440028 10044 20033 51005 PNO $,PAPN,2022-10-22T23:56:00Z,57.58,-157.57,4.4,2.8,360,11,,9.0,29.760826,1007.9,,TRUE,TRUE,TRUE,,,,,,OVC,5500,,,,,,,VFR,0.5,4.4,3.3,,,,,,,,,METAR,19.0
PAPM 222356Z AUTO 34008KT 10SM BKN070 05/02 A2989 RMK AO2 SLP124 T00500017 10050 20017 52005,PAPM,2022-10-22T23:56:00Z,59.02,-161.82,5.0,1.7,340,8,,10.0,29.890747,1012.4,,TRUE,TRUE,,,,,,,BKN,7000,,,,,,,VFR,0.5,5.0,1.7,,,,,,,,,METAR,4.0
PAPG 222356Z 00000KT 10SM FEW015 SCT070 06/03 A2994 RMK AO2 SLP144 T00560033 10056 20033 55002,PAPG,2022-10-22T23:56:00Z,56.82,-132.93,5.6,3.3,0,0,,10.0,29.940945,1014.4,,,TRUE,,,,,,,FEW,1500,SCT,7000,,,,,VFR,-0.2,5.6,3.3,,,,,,,,,METAR,24.0
PAOO 222356Z AUTO 15003KT CLR 03/01 A2993 RMK AO2 SLP141 T00280011 10044 21017 53004 PWINO TSNO $,PAOO,2022-10-22T23:56:00Z,60.53,-165.08,2.8,1.1,150,3,,,29.929134,1014.1,,TRUE,TRUE,TRUE,,TRUE,,TRUE,,CLR,,,,,,,,,0.4,4.4,-1.7,,,,,,,,,METAR,15.0
PAOH 222356Z AUTO 08004KT 10SM CLR 07/03 A2992 RMK AO2 SLP131 T00670033 10083 20033 55004,PAOH,2022-10-22T23:56:00Z,58.1,-135.45,6.7,3.3,80,4,,10.0,29.920275,1013.1,,TRUE,TRUE,,,,,,,CLR,,,,,,,,VFR,-0.4,8.3,3.3,,,,,,,,,METAR,0.0
PANW 222356Z AUTO 36010KT 10SM CLR 02/01 A2982 RMK AO2 SLP108 T00170011 10017 21044 56006 FZRANO,PANW,2022-10-22T23:56:00Z,59.45,-157.32,1.7,1.1,360,10,,10.0,29.819881,1010.8,,TRUE,TRUE,,,,TRUE,,,CLR,,,,,,,,VFR,-0.6,1.7,-4.4,,,,,,,,,METAR,100.0
PANV 222356Z AUTO 00000KT 10SM OVC003 02/02 A2989 RMK AO2 SLP217 T00170017 10017 21006 53002 FZRANO TSNO,PANV,2022-10-22T23:56:00Z,62.65,-160.18,1.7,1.7,0,0,,10.0,29.890747,1021.7,,TRUE,TRUE,,,TRUE,TRUE,,,OVC,300,,,,,,,LIFR,0.2,1.7,-0.6,,,,,,,,,METAR,91.0
PANI 222356Z AUTO VRB04KT 10SM BKN011 OVC016 03/01 A2995 RMK AO2 SLP135 60001 T00280011 10039 20006 53001 $,PANI,2022-10-22T23:56:00Z,61.58,-159.53,2.8,1.1,0,4,,10.0,29.949802,1013.5,,TRUE,TRUE,TRUE,,,,,,BKN,1100,OVC,1600,,,,,MVFR,0.1,3.9,0.6,,,,,0.01,,,,METAR,21.0
PAMK 222356Z AUTO 22008KT 10SM FEW010 BKN038 03/01 A2990 RMK AO2 SLP125 60000 T00330006 10033 20000 51003,PAMK,2022-10-22T23:56:00Z,63.48,-162.12,3.3,0.6,220,8,,10.0,29.899607,1012.5,,TRUE,TRUE,,,,,,,FEW,1000,BKN,3800,,,,,VFR,0.3,3.3,0.0,,,,,0.005,,,,METAR,31.0
PAMB 222356Z AUTO 02004KT 8SM CLR 03/01 A2984 RMK AO2 SLP108 T00330011 10033 20000 50003 $,PAMB,2022-10-22T23:56:00Z,58.98,-159.05,3.3,1.1,20,4,,8.0,29.840551,1010.8,,TRUE,TRUE,TRUE,,,,,,CLR,,,,,,,,VFR,0.3,3.3,0.0,,,,,,,,,METAR,28.0
PAKP 222356Z AUTO 21005KT 10SM OVC031 M07/M08 A2983 RMK AO2 SLP158 60000 T10671083 11061 21094 53002 FZRANO,PAKP,2022-10-22T23:56:00Z,68.13,-151.73,-6.7,-8.3,210,5,,10.0,29.828741,1015.8,,TRUE,TRUE,,,,TRUE,,,OVC,3100,,,,,,,VFR,0.2,-6.1,-9.4,,,,,0.005,,,,METAR,649.0
PAKI 222356Z AUTO 03004KT 10SM CLR 03/03 A2992 RMK AO2 SLP135 6//// T00330033 10044 21006 53007 PNO $,PAKI,2022-10-22T23:56:00Z,59.93,-164.03,3.3,3.3,30,4,,10.0,29.920275,1013.5,,TRUE,TRUE,TRUE,,,,,,CLR,,,,,,,,VFR,0.7,4.4,-0.6,,,,,,,,,METAR,4.0
PAKH 222356Z AUTO 10SM -RA BKN026 OVC033 04/02 A2956 RMK AO2 SLP010 P0000 60001 T00440022 10061 20044 56015 TSNO $,PAKH,2022-10-22T23:56:00Z,56.93,-154.18,4.4,2.2,,,,10.0,29.56004,1001.0,,TRUE,TRUE,TRUE,,TRUE,,,-RA,BKN,2600,OVC,3300,,,,,MVFR,-1.5,6.1,4.4,,,0.005,,0.01,,,,METAR,15.0
PAKF 222356Z AUTO 31012G19KT 10SM -RA BKN021 OVC027 A2997 RMK AO2 SLPNO P0002 60009 51024 FZRANO $,PAKF,2022-10-22T23:56:00Z,54.85,-163.42,,,310,12,19,10.0,29.970472,,,TRUE,TRUE,TRUE,,,TRUE,,-RA,BKN,2100,OVC,2700,,,,,MVFR,2.4,,,,,0.02,,0.09,,,,METAR,2.0
PAJZ 222356Z AUTO 35008KT 8SM CLR 03/01 A2988 RMK AO2 SLP124 T00280006 10033 21033 56006 $,PAJZ,2022-10-22T23:56:00Z,59.73,-157.27,2.8,0.6,350,8,,8.0,29.878937,1012.4,,TRUE,TRUE,TRUE,,,,,,CLR,,,,,,,,VFR,-0.6,3.3,-3.3,,,,,,,,,METAR,80.0
PAIN 222356Z AUTO 00000KT 10SM CLR M02/M05 A2984 RMK AO2 SLP142 60000 T10171050 10017 21067 58010 FZRANO $,PAIN,2022-10-22T23:56:00Z,63.73,-148.92,-1.7,-5.0,0,0,,10.0,29.840551,1014.2,,TRUE,TRUE,TRUE,,,TRUE,,,CLR,,,,,,,,VFR,-1.0,1.7,-6.7,,,,,0.005,,,,METAR,525.0
PAIG 222356Z AUTO 36008KT 310V020 10SM FEW018 BKN060 05/02 A2978 RMK AO2 SLP093 T00500017 10050 20033 56007 $,PAIG,2022-10-22T23:56:00Z,59.32,-155.9,5.0,1.7,360,8,,10.0,29.778543,1009.3,,TRUE,TRUE,TRUE,,,,,,FEW,1800,BKN,6000,,,,,VFR,-0.7,5.0,3.3,,,,,,,,,METAR,24.0
PAHY 222356Z AUTO 19003KT 10SM FEW050 10/05 A2992 RMK AO2 RAB20E30 SLP129 P0000 60000 T01000050 10100 20050 53001 $,PAHY,2022-10-22T23:56:00Z,55.2,-132.83,10.0,5.0,190,3,,10.0,29.920275,1012.9,,TRUE,TRUE,TRUE,,,,,,FEW,5000,,,,,,,VFR,0.1,10.0,5.0,,,0.005,,0.005,,,,METAR,0.0
PAHL 222356Z AUTO 00000KT 10SM OVC050 02/M02 A2992 RMK AO2 SLP135 T00171017 10017 21006 52000 FZRANO,PAHL,2022-10-22T23:56:00Z,65.7,-156.35,1.7,-1.7,0,0,,10.0,29.920275,1013.5,,TRUE,TRUE,,,,TRUE,,,OVC,5000,,,,,,,VFR,0.0,1.7,-0.6,,,,,,,,,METAR,49.0
PAGS 222356Z AUTO 10004KT 10SM CLR 07/04 A2993 RMK AO2 SLP134 T00670039 10072 20017 55003,PAGS,2022-10-22T23:56:00Z,58.42,-135.7,6.7,3.9,100,4,,10.0,29.929134,1013.4,,TRUE,TRUE,,,,,,,CLR,,,,,,,,VFR,-0.3,7.2,1.7,,,,,,,,,METAR,9.0
PAGN 222356Z AUTO 00000KT 10SM BKN038 07/04 A2995 RMK AO2 SLP130 T00670044 10072 20033 55003,PAGN,2022-10-22T23:56:00Z,57.5,-134.58,6.7,4.4,0,0,,10.0,29.949802,1013.0,,TRUE,TRUE,,,,,,,BKN,3800,,,,,,,VFR,-0.3,7.2,3.3,,,,,,,,,METAR,2.0
PAGL 222356Z AUTO 26005KT 10SM FEW017 BKN034 BKN044 02/01 A2987 RMK AO2 SLP109 60001 T00170006 10033 20011 51006 PWINO FZRANO $,PAGL,2022-10-22T23:56:00Z,64.55,-163.0,1.7,0.6,260,5,,10.0,29.870079,1010.9,,TRUE,TRUE,TRUE,,,TRUE,TRUE,,FEW,1700,BKN,3400,BKN,4400,,,VFR,0.6,3.3,1.1,,,,,0.01,,,,METAR,20.0
PAFE 222356Z AUTO 00000KT 10SM BKN031 07/04 A2995 RMK AO2 SLP155 T00720039 10072 20033 56001,PAFE,2022-10-22T23:56:00Z,56.97,-133.92,7.2,3.9,0,0,,10.0,29.949802,1015.5,,TRUE,TRUE,,,,,,,BKN,3100,,,,,,,VFR,-0.1,7.2,3.3,,,,,,,,,METAR,1.0
PADM 222356Z AUTO 00000KT 10SM CLR 01/01 A2996 RMK AO2 SLP152 60001 T00110006 10022 21050 53003 FZRANO,PADM,2022-10-22T23:56:00Z,61.87,-162.03,1.1,0.6,0,0,,10.0,29.958662,1015.2,,TRUE,TRUE,,,,TRUE,,,CLR,,,,,,,,VFR,0.3,2.2,-5.0,,,,,0.01,,,,METAR,17.0
PADL 222356Z 35008KT 10SM CLR 03/M01 A2983 RMK AO2 SLP106 T00281006 10028 21006 50001,PADL,2022-10-22T23:56:00Z,59.05,-158.5,2.8,-0.6,350,8,,10.0,29.828741,1010.6,,,TRUE,,,,,,,CLR,,,,,,,,VFR,0.1,2.8,-0.6,,,,,,,,,METAR,20.0
PADK 222356Z AUTO 24016KT BKN034 BKN041 09/04 A3025 RMK AO2 SLP245 60001 T00890039 10094 20067 51026 PWINO $,PADK,2022-10-22T23:56:00Z,51.88,-176.65,8.9,3.9,240,16,,,30.250984,1024.5,,TRUE,TRUE,TRUE,,,,TRUE,,BKN,3400,BKN,4100,,,,,,2.6,9.4,6.7,,,,,0.01,,,,METAR,3.0
PABV 222356Z AUTO 27003KT 10SM CLR 02/M02 A2983 RMK AO2 SLP107 T00171022 10022 21050 56019 FZRANO,PABV,2022-10-22T23:56:00Z,61.42,-149.52,1.7,-2.2,270,3,,10.0,29.828741,1010.7,,TRUE,TRUE,,,,TRUE,,,CLR,,,,,,,,VFR,-1.9,2.2,-5.0,,,,,,,,,METAR,21.0
PABL 222356Z AUTO 14010KT 10SM CLR 02/00 A2986 RMK AO2 SLP112 60000 T00170000 10017 21022 53003 FZRANO $,PABL,2022-10-22T23:56:00Z,65.98,-161.15,1.7,0.0,140,10,,10.0,29.861221,1011.2,,TRUE,TRUE,TRUE,,,TRUE,,,CLR,,,,,,,,VFR,0.3,1.7,-2.2,,,,,0.005,,,,METAR,7.0
PAAK 222356Z AUTO 27018G26KT 10SM SCT020 BKN036 OVC046 A3022 RMK AO2 PK WND 29030/2304 RAB06E16 SLPNO P0000 60002 51020 FZRANO $,PAAK,2022-10-22T23:56:00Z,52.22,-174.2,,,270,18,26,10.0,30.221457,,,TRUE,TRUE,TRUE,,,TRUE,,,SCT,2000,BKN,3600,OVC,4600,,,VFR,2.0,,,,,0.005,,0.02,,,,METAR,11.0
OEPS 222356Z 24003KT 9999 CLR 22/M01 A3018 RMK SLP185 WND DATA ESTMD T02151012 10285 20250 56007 $,OEPS,2022-10-22T23:56:00Z,24.07,47.58,21.5,-1.2,240,3,,6.21,30.180119,1018.5,,,,TRUE,,,,,,CLR,,,,,,,,VFR,-0.7,28.5,25.0,,,,,,,,,METAR,503.0
KYKN 222356Z AUTO 13008KT 10SM CLR 23/03 A2945 RMK AO2 SLP982 T02280028 10289 20228 53010,KYKN,2022-10-22T23:56:00Z,42.92,-97.37,22.8,2.8,130,8,,10.0,29.450787,998.2,,TRUE,TRUE,,,,,,,CLR,,,,,,,,VFR,1.0,28.9,22.8,,,,,,,,,METAR,388.0
KY50 222356Z AUTO 13005KT 10SM CLR 19/10 A2972 RMK AO2 SLP065 6//// T01940100 10250 20189 53014 $,KY50,2022-10-22T23:56:00Z,44.03,-89.3,19.4,10.0,130,5,,10.0,29.719488,1006.5,,TRUE,TRUE,TRUE,,,,,,CLR,,,,,,,,VFR,1.4,25.0,18.9,,,,,,,,,METAR,261.0
KWWD 222356Z AUTO 00000KT 10SM 13/09 A3027 RMK AO2 SLP251 T01280094 10183 20128 53001 $,KWWD,2022-10-22T23:56:00Z,39.02,-74.92,12.8,9.4,0,0,,10.0,30.268702,1025.1,,TRUE,TRUE,TRUE,,,,,,,,,,,,,,,0.1,18.3,12.8,,,,,,,,,METAR,4.0
KWVL 222356Z AUTO 20005KT 10SM CLR 11/07 A3025 RMK AO2 SLP271 T01110072 10183 20111 51015,KWVL,2022-10-22T23:56:00Z,44.52,-69.67,11.1,7.2,200,5,,10.0,30.250984,1027.1,,TRUE,TRUE,,,,,,,CLR,,,,,,,,VFR,1.5,18.3,11.1,,,,,,,,,METAR,87.0
KWMC 222356Z AUTO A2972 RMK AO2 SLPNO 53018 PWINO FZRANO $,KWMC,2022-10-22T23:56:00Z,40.9,-117.8,,,,,,,29.719488,,,TRUE,TRUE,TRUE,,,TRUE,TRUE,,,,,,,,,,,1.8,,,,,,,,,,,METAR,1311.0
KWJF 222356Z 23017G28KT 10SM BKN021 BKN035 OVC042 16/10 A2969 RMK AO2 PK WND 24030/2316 RAB40E49 SLP046 P0000 60000 T01610100 10206 20161 58003,KWJF,2022-10-22T23:56:00Z,34.73,-118.22,16.1,10.0,230,17,28,10.0,29.68996,1004.6,,,TRUE,,,,,,,BKN,2100,BKN,3500,OVC,4200,,,MVFR,-0.3,20.6,16.1,,,0.005,,0.005,,,,METAR,712.0
KVPZ 222356Z AUTO 18006KT 10SM CLR 22/11 A2990 RMK AO2 SLP123 T02170111 10278 20217 53017 $,KVPZ,2022-10-22T23:56:00Z,41.45,-87.0,21.7,11.1,180,6,,10.0,29.899607,1012.3,,TRUE,TRUE,TRUE,,,,,,CLR,,,,,,,,VFR,1.7,27.8,21.7,,,,,,,,,METAR,235.0
KVIS 222356Z AUTO 33007KT 10SM FEW050 SCT065 23/11 A2967 RMK AO2 SLP055 T02280111 10239 20200 56014,KVIS,2022-10-22T23:56:00Z,36.32,-119.4,22.8,11.1,330,7,,10.0,29.66929,1005.5,,TRUE,TRUE,,,,,,,FEW,5000,SCT,6500,,,,,VFR,-1.4,23.9,20.0,,,,,,,,,METAR,92.0
KVBT 222356Z AUTO 17012G17KT 10SM SCT060 23/13 A2975 RMK AO2 SLP066 T02330128 10267 20233 53017,KVBT,2022-10-22T23:56:00Z,36.35,-94.22,23.3,12.8,170,12,17,10.0,29.749016,1006.6,,TRUE,TRUE,,,,,,,SCT,6000,,,,,,,VFR,1.7,26.7,23.3,,,,,,,,,METAR,390.0
KUKI 222356Z AUTO 29017G28KT 10SM CLR 17/02 A2979 RMK AO2 PK WND 31030/2321 SLP083 T01720022 10211 20167 55002,KUKI,2022-10-22T23:56:00Z,39.12,-123.2,17.2,2.2,290,17,28,10.0,29.790354,1008.3,,TRUE,TRUE,,,,,,,CLR,,,,,,,,VFR,-0.2,21.1,16.7,,,,,,,,,METAR,183.0
KUDG 222356Z AUTO 33003KT 10SM CLR 14/11 A3015 RMK AO2 SLP211 6//// T01390106 10239 20139 53004,KUDG,2022-10-22T23:56:00Z,34.45,-79.88,13.9,10.6,330,3,,10.0,30.15059,1021.1,,TRUE,TRUE,,,,,,,CLR,,,,,,,,VFR,0.4,23.9,13.9,,,,,,,,,METAR,57.0
KUCP 222356Z AUTO 14004KT 10SM CLR 17/07 A3015 RMK AO2 SLP227 T01720067 10228 20172 53016,KUCP,2022-10-22T23:56:00Z,41.03,-80.42,17.2,6.7,140,4,,10.0,30.15059,1022.7,,TRUE,TRUE,,,,,,,CLR,,,,,,,,VFR,1.6,22.8,17.2,,,,,,,,,METAR,313.0
KTVF 222356Z AUTO 07012KT 10SM CLR 13/04 A2956 RMK AO2 SLP014 6//// T01280044 10144 20128 53013,KTVF,2022-10-22T23:56:00Z,48.07,-96.17,12.8,4.4,70,12,,10.0,29.56004,1001.4,,TRUE,TRUE,,,,,,,CLR,,,,,,,,VFR,1.3,14.4,12.8,,,,,,,,,METAR,339.0
KTPH 222356Z AUTO 04008KT 10SM SCT075 OVC095 08/03 A2963 RMK AO2 RAE06 SLP007 P0000 60000 T00830033 10150 20072 51004,KTPH,2022-10-22T23:56:00Z,38.05,-117.08,8.3,3.3,40,8,,10.0,29.630905,1000.7,,TRUE,TRUE,,,,,,,SCT,7500,OVC,9500,,,,,VFR,0.4,15.0,7.2,,,0.005,,0.005,,,,METAR,1647.0
KSUE 222356Z AUTO 19018KT 10SM CLR 15/10 A2976 RMK AO2 SLP078 T01500100 10178 20139 51013,KSUE,2022-10-22T23:56:00Z,44.85,-87.42,15.0,10.0,190,18,,10.0,29.760826,1007.8,,TRUE,TRUE,,,,,,,CLR,,,,,,,,VFR,1.3,17.8,13.9,,,,,,,,,METAR,215.0
KSRC 222356Z AUTO 18010KT 10SM CLR 23/13 A2988 RMK AO2 SLP115 T02280128 10278 20228 53005,KSRC,2022-10-22T23:56:00Z,35.22,-91.73,22.8,12.8,180,10,,10.0,29.878937,1011.5,,TRUE,TRUE,,,,,,,CLR,,,,,,,,VFR,0.5,27.8,22.8,,,,,,,,,METAR,80.0
KSQI 222356Z AUTO 14007KT 10SM CLR 23/11 A2975 RMK AO2 SLP938 T02280111 10272 20228 53009,KSQI,2022-10-22T23:56:00Z,41.75,-89.67,22.8,11.1,140,7,,10.0,29.749016,993.8,,TRUE,TRUE,,,,,,,CLR,,,,,,,,VFR,0.9,27.2,22.8,,,,,,,,,METAR,196.0
KSPD 222356Z AUTO 26012G25KT 25/M07 A2953 RMK AO1 PK WND 24027/2309 SLP946 T02501072 10300 20250 53002,KSPD,2022-10-22T23:56:00Z,37.28,-102.62,25.0,-7.2,260,12,25,,29.530512,994.6,,TRUE,TRUE,,,,,,,,,,,,,,,,0.2,30.0,25.0,,,,,,,,,METAR,1340.0
KSOP 222356Z AUTO 00000KT 10SM CLR 14/10 A3018 RMK AO2 SLP224 T01390100 10222 20139 53005 TSNO,KSOP,2022-10-22T23:56:00Z,35.23,-79.4,13.9,10.0,0,0,,10.0,30.180119,1022.4,,TRUE,TRUE,,,TRUE,,,,CLR,,,,,,,,VFR,0.5,22.2,13.9,,,,,,,,,METAR,135.0
KSMP 222356Z AUTO 1/4SM -SN FG VV002 01/00 A2972 RMK AO2 UPB47E53SNB37E47B53 SLP082 P0000 60004 T00060000 10017 20006 53013 $,KSMP,2022-10-22T23:56:00Z,47.28,-121.33,0.6,0.0,,,,0.25,29.719488,1008.2,,TRUE,TRUE,TRUE,,,,,-SN FG,OVX,0,,,,,,,LIFR,1.3,1.7,0.6,,,0.005,,0.04,,,200,METAR,1206.0
KSMN 222356Z AUTO 24003KT 10SM BKN060 OVC080 06/M01 A2953 RMK AO2 RAE01 SLP712 P0000 60000 T00611006 10067 20044 51021,KSMN,2022-10-22T23:56:00Z,45.12,-113.87,6.1,-0.6,240,3,,10.0,29.530512,971.2,,TRUE,TRUE,,,,,,,BKN,6000,OVC,8000,,,,,VFR,2.1,6.7,4.4,,,0.005,,0.005,,,,METAR,1228.0
KSLG 222356Z AUTO 17012G23KT 10SM FEW055 24/13 A2973 RMK AO2 PK WND 18029/2302 SLP056 T02390128 10272 20239 53016,KSLG,2022-10-22T23:56:00Z,36.2,-94.48,23.9,12.8,170,12,23,10.0,29.731298,1005.6,,TRUE,TRUE,,,,,,,FEW,5500,,,,,,,VFR,1.6,27.2,23.9,,,,,,,,,METAR,361.0
KSLE 222356Z 29011KT 10SM CLR 13/04 A2984 RMK AO2 SLP105 T01280039 10167 20122 53013,KSLE,2022-10-22T23:56:00Z,44.9,-123.0,12.8,3.9,290,11,,10.0,29.840551,1010.5,,,TRUE,,,,,,,CLR,,,,,,,,VFR,1.3,16.7,12.2,,,,,,,,,METAR,63.0
KSKX 222356Z AUTO 23012KT 10SM FEW085 16/04 A2981 RMK AO2 SLP060 T01560039 10194 20156 56008,KSKX,2022-10-22T23:56:00Z,36.45,-105.67,15.6,3.9,230,12,,10.0,29.811024,1006.0,,TRUE,TRUE,,,,,,,FEW,8500,,,,,,,VFR,-0.8,19.4,15.6,,,,,,,,,METAR,2163.0
KSHV 222356Z 17012KT 10SM SCT290 26/14 A2984 RMK SLPNO,KSHV,2022-10-22T23:56:00Z,32.45,-93.83,26.0,14.0,170,12,,10.0,29.840551,,,,,,,,,,,SCT,29000,,,,,,,VFR,,,,,,,,,,,,METAR,70.0
KSGT 222356Z AUTO 17012KT 10SM CLR 24/13 A2988 RMK AO2 SLP118 T02390133 10272 20239 55001,KSGT,2022-10-22T23:56:00Z,34.6,-91.57,23.9,13.3,170,12,,10.0,29.878937,1011.8,,TRUE,TRUE,,,,,,,CLR,,,,,,,,VFR,-0.1,27.2,23.9,,,,,,,,,METAR,67.0
KSGJ 222356Z 35006KT 10SM CLR 18/14 A3010 RMK AO2 SLP191 T01830139 10222 20183 53001,KSGJ,2022-10-22T23:56:00Z,29.97,-81.33,18.3,13.9,350,6,,10.0,30.100393,1019.1,,,TRUE,,,,,,,CLR,,,,,,,,VFR,0.1,22.2,18.3,,,,,,,,,METAR,2.0
KSGH 222356Z AUTO 16006KT 10SM CLR 19/09 A3007 RMK AO2 SLP182 T01890094 10250 20189 53014,KSGH,2022-10-22T23:56:00Z,39.83,-83.83,18.9,9.4,160,6,,10.0,30.070866,1018.2,,TRUE,TRUE,,,,,,,CLR,,,,,,,,VFR,1.4,25.0,18.9,,,,,,,,,METAR,318.0
KSFZ 222356Z AUTO 19003KT 10SM CLR 12/10 A3031 RMK AO2 SLP264 T01170100 10194 20117 53012,KSFZ,2022-10-22T23:56:00Z,41.92,-71.5,11.7,10.0,190,3,,10.0,30.31004,1026.4,,TRUE,TRUE,,,,,,,CLR,,,,,,,,VFR,1.2,19.4,11.7,,,,,,,,,METAR,129.0
KSFO 222356Z 29020G26KT 10SM FEW027 BKN200 17/08 A2976 RMK AO2 PK WND 28032/2302 SLP076 T01720078 10189 20167 56009 $,KSFO,2022-10-22T23:56:00Z,37.62,-122.37,17.2,7.8,290,20,26,10.0,29.760826,1007.6,,,TRUE,TRUE,,,,,,FEW,2700,BKN,20000,,,,,VFR,-0.9,18.9,16.7,,,,,,,,,METAR,2.0
KSFM 222356Z AUTO 00000KT 10SM CLR 07/06 A3029 RMK AO2 SLP260 T00670056 10200 20067 53014,KSFM,2022-10-22T23:56:00Z,43.38,-70.72,6.7,5.6,0,0,,10.0,30.28937,1026.0,,TRUE,TRUE,,,,,,,CLR,,,,,,,,VFR,1.4,20.0,6.7,,,,,,,,,METAR,70.0
KSDF 222356Z 16008KT 10SM FEW200 BKN250 22/11 A3003 RMK AO2 SLP166 T02220106 10267 20222 53012,KSDF,2022-10-22T23:56:00Z,38.18,-85.73,22.2,10.6,160,8,,10.0,30.029528,1016.6,,,TRUE,,,,,,,FEW,20000,BKN,25000,,,,,VFR,1.2,26.7,22.2,,,,,,,,,METAR,146.0
KSBP 222356Z 30008KT 10SM OVC026 17/11 A2977 RMK AO2 SLP081 T01720111 10194 20172 55009,KSBP,2022-10-22T23:56:00Z,35.23,-120.63,17.2,11.1,300,8,,10.0,29.769686,1008.1,,,TRUE,,,,,,,OVC,2600,,,,,,,MVFR,-0.9,19.4,17.2,,,,,,,,,METAR,52.0
KRUT 222356Z AUTO 13008KT 10SM CLR 11/04 A3025 RMK AO2 SLP244 T01110039 10211 20111 53017 $,KRUT,2022-10-22T23:56:00Z,43.53,-72.95,11.1,3.9,130,8,,10.0,30.250984,1024.4,,TRUE,TRUE,TRUE,,,,,,CLR,,,,,,,,VFR,1.7,21.1,11.1,,,,,,,,,METAR,238.0
KRDM 222356Z 29018G25KT 10SM SCT042 BKN055 09/M01 A2976 RMK AO2 PK WND 29028/2335 SLP076 T00891011 10100 20072 53014,KRDM,2022-10-22T23:56:00Z,44.25,-121.15,8.9,-1.1,290,18,25,10.0,29.760826,1007.6,,,TRUE,,,,,,,SCT,4200,BKN,5500,,,,,VFR,1.4,10.0,7.2,,,,,,,,,METAR,930.0
KPWG 222356Z AUTO 17013KT 10SM CLR 27/14 A2980 RMK AO2 SLP084 T02720139 10306 20272 53001,KPWG,2022-10-22T23:56:00Z,31.48,-97.32,27.2,13.9,170,13,,10.0,29.799213,1008.4,,TRUE,TRUE,,,,,,,CLR,,,,,,,,VFR,0.1,30.6,27.2,,,,,,,,,METAR,178.0
KPVG 222356Z AUTO 00000KT 10SM CLR 13/11 A3022 RMK AO2 SLP235 6//// T01280111 10211 20128 53005 PNO $,KPVG,2022-10-22T23:56:00Z,36.78,-76.45,12.8,11.1,0,0,,10.0,30.221457,1023.5,,TRUE,TRUE,TRUE,,,,,,CLR,,,,,,,,VFR,0.5,21.1,12.8,,,,,,,,,METAR,7.0
KPVC 222356Z AUTO 18005KT 10SM CLR 12/11 A3031 RMK AO2 SLP264 T01220111 10189 20122 53010,KPVC,2022-10-22T23:56:00Z,42.07,-70.22,12.2,11.1,180,5,,10.0,30.31004,1026.4,,TRUE,TRUE,,,,,,,CLR,,,,,,,,VFR,1.0,18.9,12.2,,,,,,,,,METAR,1.0
KPTV 222356Z AUTO 33007KT 10SM CLR 23/12 A2968 RMK AO2 SLP049 T02280117 10239 20211 56015,KPTV,2022-10-22T23:56:00Z,36.02,-119.07,22.8,11.7,330,7,,10.0,29.681103,1004.9,,TRUE,TRUE,,,,,,,CLR,,,,,,,,VFR,-1.5,23.9,21.1,,,,,,,,,METAR,132.0
KPTN 222356Z AUTO 13004KT 10SM CLR 21/16 A3003 RMK AO2 SLP169 6//// T02110161 10267 20211 58002 $,KPTN,2022-10-22T23:56:00Z,29.72,-91.33,21.1,16.1,130,4,,10.0,30.029528,1016.9,,TRUE,TRUE,TRUE,,,,,,CLR,,,,,,,,VFR,-0.2,26.7,21.1,,,,,,,,,METAR,2.0
KPRX 222356Z AUTO 17016KT 10SM CLR 26/13 A2975 RMK AO2 PK WND 18030/2259 SLP072 T02560133 10294 20256 52001,KPRX,2022-10-22T23:56:00Z,33.63,-95.45,25.6,13.3,170,16,,10.0,29.749016,1007.2,,TRUE,TRUE,,,,,,,CLR,,,,,,,,VFR,0.1,29.4,25.6,,,,,,,,,METAR,165.0
KPQI 222356Z AUTO 18008KT 10SM CLR 12/05 A3020 RMK AO2 SLP253 T01220050 10189 20122 51017,KPQI,2022-10-22T23:56:00Z,46.68,-68.05,12.2,5.0,180,8,,10.0,30.200787,1025.3,,TRUE,TRUE,,,,,,,CLR,,,,,,,,VFR,1.7,18.9,12.2,,,,,,,,,METAR,154.0
KPIB 222356Z AUTO 17005KT 10SM CLR 20/13 A3006 RMK AO2 SLP178 6//// T02000128 10272 20200 53003 PNO $,KPIB,2022-10-22T23:56:00Z,31.47,-89.33,20.0,12.8,170,5,,10.0,30.059055,1017.8,,TRUE,TRUE,TRUE,,,,,,CLR,,,,,,,,VFR,0.3,27.2,20.0,,,,,,,,,METAR,91.0
KP53 222356Z AUTO 18008KT 12/09 A2975 RMK AO1 SLP078 T01220089 10178 20122 53013,KP53,2022-10-22T23:56:00Z,46.42,-86.65,12.2,8.9,180,8,,,29.749016,1007.8,,TRUE,TRUE,,,,,,,,,,,,,,,,1.3,17.8,12.2,,,,,,,,,METAR,185.0
KP28 222356Z AUTO 17007KT 28/M02 A2946 RMK AO1 SLP965 T02831022 10317 20239 53002 $,KP28,2022-10-22T23:56:00Z,37.28,-98.55,28.3,-2.2,170,7,,,29.459646,996.5,,TRUE,TRUE,TRUE,,,,,,,,,,,,,,,0.2,31.7,23.9,,,,,,,,,METAR,469.0
KOWB 222356Z 16009KT 10SM CLR 21/11 A3000 RMK AO2 SLP158 T02110111 10267 20211 53011,KOWB,2022-10-22T23:56:00Z,37.72,-87.17,21.1,11.1,160,9,,10.0,30.0,1015.8,,,TRUE,,,,,,,CLR,,,,,,,,VFR,1.1,26.7,21.1,,,,,,,,,METAR,121.0
KOTH 222356Z 28004KT 6SM +RA SCT026 BKN038 BKN050 12/09 A2994 RMK AO2 RAB2257E20B43 SLP137 P0013 60013 T01170089 10144 20111 53003,KOTH,2022-10-22T23:56:00Z,43.42,-124.25,11.7,8.9,280,4,,6.0,29.940945,1013.7,,,TRUE,,,,,,+RA,SCT,2600,BKN,3800,BKN,5000,,,VFR,0.3,14.4,11.1,,,0.13,,0.13,,,,METAR,3.0
KOTG 222356Z AUTO 18009KT 10SM CLR 21/04 A2952 RMK AO2 SLP999 60001 T02060039 10278 20206 53020,KOTG,2022-10-22T23:56:00Z,43.65,-95.57,20.6,3.9,180,9,,10.0,29.518702,999.9,,TRUE,TRUE,,,,,,,CLR,,,,,,,,VFR,2.0,27.8,20.6,,,,,0.01,,,,METAR,478.0
KOLU 222356Z AUTO 13006KT 10SM CLR 21/05 A2949 RMK AO2 SLP988 T02060050 10283 20206 53010,KOLU,2022-10-22T23:56:00Z,41.45,-97.33,20.6,5.0,130,6,,10.0,29.489174,998.8,,TRUE,TRUE,,,,,,,CLR,,,,,,,,VFR,1.0,28.3,20.6,,,,,,,,,METAR,438.0
KOKK 222356Z AUTO 15009KT 10SM CLR 18/11 A2997 RMK AO2 SLP147 6//// T01780111 10256 20178 53014 PNO $,KOKK,2022-10-22T23:56:00Z,40.53,-86.07,17.8,11.1,150,9,,10.0,29.970472,1014.7,,TRUE,TRUE,TRUE,,,,,,CLR,,,,,,,,VFR,1.4,25.6,17.8,,,,,,,,,METAR,251.0
KOFK 222356Z AUTO 14008KT 10SM CLR 22/04 A2947 RMK AO2 SLP976 T02220039 10300 20217 53010,KOFK,2022-10-22T23:56:00Z,41.98,-97.43,22.2,3.9,140,8,,10.0,29.471457,997.6,,TRUE,TRUE,,,,,,,CLR,,,,,,,,VFR,1.0,30.0,21.7,,,,,,,,,METAR,476.0
KOCH 222356Z AUTO 17012G19KT 10SM CLR 26/13 A2987 RMK AO2 SLP117 T02560133 10294 20256 53001,KOCH,2022-10-22T23:56:00Z,31.57,-94.72,25.6,13.3,170,12,19,10.0,29.870079,1011.7,,TRUE,TRUE,,,,,,,CLR,,,,,,,,VFR,0.1,29.4,25.6,,,,,,,,,METAR,105.0
KOAJ 222356Z 02006KT 10SM CLR 18/12 A3014 RMK AO2 SLP208 T01780122 10244 20178 50007,KOAJ,2022-10-22T23:56:00Z,34.82,-77.62,17.8,12.2,20,6,,10.0,30.138779,1020.8,,,TRUE,,,,,,,CLR,,,,,,,,VFR,0.7,24.4,17.8,,,,,,,,,METAR,26.0
KNYG 222356Z AUTO 17004KT 10SM CLR 16/ A3024 RMK AO2 SLP242 T0161 10211 20161 53004 $,KNYG,2022-10-22T23:56:00Z,38.5,-77.3,16.1,,170,4,,10.0,30.239174,1024.2,,TRUE,TRUE,TRUE,,,,,,CLR,,,,,,,,VFR,0.4,21.1,16.1,,,,,,,,,METAR,2.0
KNXP 222356Z AUTO 23023G28KT 10SM CLR 23/07 A2963 RMK AO2 PK WND 23031/2346 SLP006 T02280067 10294 20228 56011 $,KNXP,2022-10-22T23:56:00Z,34.28,-116.13,22.8,6.7,230,23,28,10.0,29.630905,1000.6,,TRUE,TRUE,TRUE,,,,,,CLR,,,,,,,,VFR,-1.1,29.4,22.8,,,,,,,,,METAR,610.0
KNXF 222356Z AUTO 8SM 19/13 A2977 RMK AO2 SLP166 T01890133 10211 20189 56006 PWINO $,KNXF,2022-10-22T23:56:00Z,33.28,-117.45,18.9,13.3,,,,8.0,29.769686,1016.6,,TRUE,TRUE,TRUE,,,,TRUE,,,,,,,,,,,-0.6,21.1,18.9,,,,,,,,,METAR,28.0
KNUC 222356Z AUTO 27012KT 10SM SCT020 OVC026 17/ A2979 RMK AO2 SLP085 T0172 10178 20167 56009 $,KNUC,2022-10-22T23:56:00Z,33.02,-118.57,17.2,,270,12,,10.0,29.790354,1008.5,,TRUE,TRUE,TRUE,,,,,,SCT,2000,OVC,2600,,,,,MVFR,-0.9,17.8,16.7,,,,,,,,,METAR,52.0
KNTU 222356Z 05007KT 10SM SCT100 BKN250 16/11 A3020 RMK AO2 SLP229 T01610111 10200 20161 53004,KNTU,2022-10-22T23:56:00Z,36.82,-76.02,16.1,11.1,50,7,,10.0,30.200787,1022.9,,,TRUE,,,,,,,SCT,10000,BKN,25000,,,,,VFR,0.4,20.0,16.1,,,,,,,,,METAR,6.0
KNSE 222356Z AUTO 00000KT 10SM CLR 16/07 A3009 RMK AO2 SLP176 6//// T01560067 10261 20156 53004 PNO $,KNSE,2022-10-22T23:56:00Z,30.73,-87.02,15.6,6.7,0,0,,10.0,30.088583,1017.6,,TRUE,TRUE,TRUE,,,,,,CLR,,,,,,,,VFR,0.4,26.1,15.6,,,,,,,,,METAR,56.0
KNQI 222356Z AUTO 14013G21KT 10SM CLR 26/19 A2986 RMK AO2 PK WND 14026/2305 SLP109 T02560194 10317 20256 53005 $,KNQI,2022-10-22T23:56:00Z,27.5,-97.82,25.6,19.4,140,13,21,10.0,29.861221,1010.9,,TRUE,TRUE,TRUE,,,,,,CLR,,,,,,,,VFR,0.5,31.7,25.6,,,,,,,,,METAR,15.0
KNPA 222356Z AUTO 00000KT 10SM CLR 14/08 A3008 RMK AO2 SLP188 T01440083 10239 20139 55000 $,KNPA,2022-10-22T23:56:00Z,30.35,-87.32,14.4,8.3,0,0,,10.0,30.079725,1018.8,,TRUE,TRUE,TRUE,,,,,,CLR,,,,,,,,VFR,0.0,23.9,13.9,,,,,,,,,METAR,6.0
KNOG 222356Z AUTO 13015KT 10SM CLR 25/18 A2987 RMK AO2 PK WND 13027/2322 SLP096 6//// T02500183 10311 20250 53008 PNO $,KNOG,2022-10-22T23:56:00Z,27.9,-98.05,25.0,18.3,130,15,,10.0,29.870079,1009.6,,TRUE,TRUE,TRUE,,,,,,CLR,,,,,,,,VFR,0.8,31.1,25.0,,,,,,,,,SPECI,72.0
KNMM 222356Z AUTO 14004KT 10SM CLR 19/13 A3005 RMK AO2 SLP186 T01940128 10261 20194 55001,KNMM,2022-10-22T23:56:00Z,32.53,-88.53,19.4,12.8,140,4,,10.0,30.050198,1018.6,,TRUE,TRUE,,,,,,,CLR,,,,,,,,VFR,-0.1,26.1,19.4,,,,,,,,,METAR,94.0
KNLC 222356Z 34012G20KT 10SM FEW060 SCT220 24/08 A2966 RMK AO2 SLP045 RH/34 T02440078 10261 20217 56014,KNLC,2022-10-22T23:56:00Z,36.32,-119.95,24.4,7.8,340,12,20,10.0,29.660433,1004.5,,,TRUE,,,,,,,FEW,6000,SCT,22000,,,,,VFR,-1.4,26.1,21.7,,,,,,,,,SPECI,69.0
KNKT 222356Z 04008KT 10SM BKN150 18/12 A3015 RMK AO2 SLP206 T01780117 10239 20178 53008,KNKT,2022-10-22T23:56:00Z,34.9,-76.88,17.8,11.7,40,8,,10.0,30.15059,1020.6,,,TRUE,,,,,,,BKN,15000,,,,,,,VFR,0.8,23.9,17.8,,,,,,,,,SPECI,8.0
KNJK 222356Z AUTO 25028G37KT 9SM CLR 28/09 A2961 RMK AO2 PK WND 25037/2351 SLP040 60000 T02830094 10333 20283 55012 $,KNJK,2022-10-22T23:56:00Z,32.82,-115.67,28.3,9.4,250,28,37,9.0,29.610237,1004.0,,TRUE,TRUE,TRUE,,,,,,CLR,,,,,,,,VFR,-1.2,33.3,28.3,,,,,0.005,,,,METAR,-15.0
KNID 222356Z AUTO 18022G35KT 7SM FEW020 SCT095 22/06 A2945 RMK AO2 PK WND 21040/2326 SLP954 T02220061 10272 20222 56023 $,KNID,2022-10-22T23:56:00Z,35.68,-117.68,22.2,6.1,180,22,35,7.0,29.450787,995.4,,TRUE,TRUE,TRUE,,,,,,FEW,2000,SCT,9500,,,,,VFR,-2.3,27.2,22.2,,,,,,,,,METAR,682.0
KNGP 222356Z AUTO 16018G24KT 10SM CLR 27/19 A2988 RMK AO2 PK WND 14033/2317 SLP118 T02670189 10306 20267 53001,KNGP,2022-10-22T23:56:00Z,27.68,-97.28,26.7,18.9,160,18,24,10.0,29.878937,1011.8,,TRUE,TRUE,,,,,,,CLR,,,,,,,,VFR,0.1,30.6,26.7,,,,,,,,,METAR,5.0
KNFE 222356Z AUTO 03003KT 10SM CLR 16/11 A3021 RMK AO2 SLP231 T01560111 10217 20156 53006,KNFE,2022-10-22T23:56:00Z,36.7,-76.13,15.6,11.1,30,3,,10.0,30.209646,1023.1,,TRUE,TRUE,,,,,,,CLR,,,,,,,,VFR,0.6,21.7,15.6,,,,,,,,,METAR,4.0
KNDZ 222356Z AUTO 00000KT CLR 18/07 A3009 RMK AO2 SLP177 T01780072 10256 20178 53003 $,KNDZ,2022-10-22T23:56:00Z,30.7,-87.02,17.8,7.2,0,0,,,30.088583,1017.7,,TRUE,TRUE,TRUE,,,,,,CLR,,,,,,,,,0.3,25.6,17.8,,,,,,,,,METAR,51.0
KNCA 222356Z AUTO 04007KT 10SM CLR 18/13 A3013 RMK AO2 SLP207 T01780128 10244 20178 53010 $,KNCA,2022-10-22T23:56:00Z,34.72,-77.45,17.8,12.8,40,7,,10.0,30.129921,1020.7,,TRUE,TRUE,TRUE,,,,,,CLR,,,,,,,,VFR,1.0,24.4,17.8,,,,,,,,,METAR,9.0
KNBC 222356Z AUTO 00000KT 10SM CLR 17/13 A3012 RMK AO2 SLP201 T01670133 10244 20167 53006,KNBC,2022-10-22T23:56:00Z,32.47,-80.72,16.7,13.3,0,0,,10.0,30.121063,1020.1,,TRUE,TRUE,,,,,,,CLR,,,,,,,,VFR,0.6,24.4,16.7,,,,,,,,,METAR,9.0
KMYR 222356Z 36004KT 10SM CLR 21/14 A3012 RMK AO2 SLP197 T02060139 10244 20206 53005,KMYR,2022-10-22T23:56:00Z,33.68,-78.92,20.6,13.9,360,4,,10.0,30.121063,1019.7,,,TRUE,,,,,,,CLR,,,,,,,,VFR,0.5,24.4,20.6,,,,,,,,,METAR,7.0
KMVN 222356Z AUTO 18011KT 10SM CLR 21/12 A2992 RMK AO2 SLP134 T02110122 10267 20206 53009,KMVN,2022-10-22T23:56:00Z,38.32,-88.87,21.1,12.2,180,11,,10.0,29.920275,1013.4,,TRUE,TRUE,,,,,,,CLR,,,,,,,,VFR,0.9,26.7,20.6,,,,,,,,,METAR,145.0
KMUO 222356Z 28013KT 10SM SCT070 08/00 A2958 RMK SLP015 60000 T00810003 10110 20081 53008 $,KMUO,2022-10-22T23:56:00Z,43.03,-115.87,8.1,0.3,280,13,,10.0,29.58071,1001.5,,,,TRUE,,,,,,SCT,7000,,,,,,,VFR,0.8,11.0,8.1,,,,,0.005,,,,METAR,915.0
KMTW 222356Z AUTO 17014KT 10SM CLR 15/11 A2978 RMK AO2 SLP086 T01500111 10167 20144 53013,KMTW,2022-10-22T23:56:00Z,44.12,-87.67,15.0,11.1,170,14,,10.0,29.778543,1008.6,,TRUE,TRUE,,,,,,,CLR,,,,,,,,VFR,1.3,16.7,14.4,,,,,,,,,METAR,197.0
KMTC 222356Z 16005KT 10SM FEW230 13/09 A2998 RMK AO2A SLP159 T01300091 10206 20127 53012,KMTC,2022-10-22T23:56:00Z,42.62,-82.83,13.0,9.1,160,5,,10.0,29.97933,1015.9,,,TRUE,,,,,,,FEW,23000,,,,,,,VFR,1.2,20.6,12.7,,,,,,,,,METAR,177.0
KMSV 222356Z AUTO 13003KT 10SM CLR 12/02 A3028 RMK AO2 SLP263 T01170022 10189 20111 53018,KMSV,2022-10-22T23:56:00Z,41.7,-74.78,11.7,2.2,130,3,,10.0,30.280512,1026.3,,TRUE,TRUE,,,,,,,CLR,,,,,,,,VFR,1.8,18.9,11.1,,,,,,,,,METAR,427.0
KMRF 222356Z AUTO 18013KT 10SM CLR 24/07 A2995 RMK AO2 SLP088 T02440067 10278 20244 55003,KMRF,2022-10-22T23:56:00Z,30.37,-104.02,24.4,6.7,180,13,,10.0,29.949802,1008.8,,TRUE,TRUE,,,,,,,CLR,,,,,,,,VFR,-0.3,27.8,24.4,,,,,,,,,METAR,1476.0
KMQY 222356Z 14007KT 10SM CLR 18/11 A3006 RMK AO2 SLP185 T01830111 10250 20183 53001,KMQY,2022-10-22T23:56:00Z,36.02,-86.52,18.3,11.1,140,7,,10.0,30.059055,1018.5,,,TRUE,,,,,,,CLR,,,,,,,,VFR,0.1,25.0,18.3,,,,,,,,,METAR,156.0
KMOB 222356Z 15006KT 10SM BKN250 18/11 A3009 RMK AO2 SLP188 T01830111 10261 20183 53004,KMOB,2022-10-22T23:56:00Z,30.68,-88.25,18.3,11.1,150,6,,10.0,30.088583,1018.8,,,TRUE,,,,,,,BKN,25000,,,,,,,VFR,0.4,26.1,18.3,,,,,,,,,METAR,67.0
KMNM 222356Z AUTO 00000KT 10SM CLR 13/10 A2976 RMK AO2 SLP081 6//// T01330100 10200 20133 53015 PNO $,KMNM,2022-10-22T23:56:00Z,45.12,-87.63,13.3,10.0,0,0,,10.0,29.760826,1008.1,,TRUE,TRUE,TRUE,,,,,,CLR,,,,,,,,VFR,1.5,20.0,13.3,,,,,,,,,METAR,188.0
KMML 222356Z AUTO 17006KT 10SM CLR 20/01 A2947 RMK AO2 SLP982 T02000006 10272 20189 51015,KMML,2022-10-22T23:56:00Z,44.45,-95.82,20.0,0.6,170,6,,10.0,29.471457,998.2,,TRUE,TRUE,,,,,,,CLR,,,,,,,,VFR,1.5,27.2,18.9,,,,,,,,,METAR,358.0
KMKY 222356Z AUTO VRB03KT 10SM FEW055 23/18 A3001 RMK AO2 SLP163 T02330178 10289 20233 53006 TSNO $,KMKY,2022-10-22T23:56:00Z,26.0,-81.67,23.3,17.8,0,3,,10.0,30.008858,1016.3,,TRUE,TRUE,TRUE,,TRUE,,,,FEW,5500,,,,,,,VFR,0.6,28.9,23.3,,,,,,,,,METAR,2.0
KMKT 222356Z AUTO 16010KT 10SM CLR 22/07 A2953 RMK AO2 SLP001 T02220067 10267 20206 53016,KMKT,2022-10-22T23:56:00Z,44.22,-93.92,22.2,6.7,160,10,,10.0,29.530512,1000.1,,TRUE,TRUE,,,,,,,CLR,,,,,,,,VFR,1.6,26.7,20.6,,,,,,,,,METAR,309.0
KMHS 222356Z AUTO VRB05KT 10SM BKN050 BKN060 OVC075 08/M01 A2982 RMK AO2 RAB47E56 SLP110 P0000 60000 T00781006 10117 20061 55000,KMHS,2022-10-22T23:56:00Z,41.32,-122.32,7.8,-0.6,0,5,,10.0,29.819881,1011.0,,TRUE,TRUE,,,,,,,BKN,5000,BKN,6000,OVC,7500,,,VFR,0.0,11.7,6.1,,,0.005,,0.005,,,,METAR,1080.0
KMDT 222356Z 13003KT 10SM SCT250 13/06 A3024 RMK AO2 SLP241 T01280061 10206 20122 53011,KMDT,2022-10-22T23:56:00Z,40.2,-76.77,12.8,6.1,130,3,,10.0,30.239174,1024.1,,,TRUE,,,,,,,SCT,25000,,,,,,,VFR,1.1,20.6,12.2,,,,,,,,,METAR,91.0
KMBL 222356Z AUTO 13004KT 10SM CLR 19/09 A2982 RMK AO2 SLP099 T01890094 10228 20189 53015,KMBL,2022-10-22T23:56:00Z,44.27,-86.25,18.9,9.4,130,4,,10.0,29.819881,1009.9,,TRUE,TRUE,,,,,,,CLR,,,,,,,,VFR,1.5,22.8,18.9,,,,,,,,,METAR,187.0
KLZU 222356Z 00000KT 10SM CLR 14/06 A3015 RMK AO2 SLP221 T01390056 10228 20139 55001,KLZU,2022-10-22T23:56:00Z,33.98,-83.97,13.9,5.6,0,0,,10.0,30.15059,1022.1,,,TRUE,,,,,,,CLR,,,,,,,,VFR,-0.1,22.8,13.9,,,,,,,,,METAR,316.0
KLWS 222356Z 22009KT 10SM BKN090 09/01 A2966 RMK AO2 SLP048 60001 T00940011 10117 20061 53015,KLWS,2022-10-22T23:56:00Z,46.37,-117.02,9.4,1.1,220,9,,10.0,29.660433,1004.8,,,TRUE,,,,,,,BKN,9000,,,,,,,VFR,1.5,11.7,6.1,,,,,0.01,,,,METAR,435.0
KLRF 222356Z AUTO 16004KT 10SM CLR 23/14 A2983 RMK AO2 SLP103 T02330135 10269 20233 53003,KLRF,2022-10-22T23:56:00Z,34.92,-92.12,23.3,13.5,160,4,,10.0,29.828741,1010.3,,TRUE,TRUE,,,,,,,CLR,,,,,,,,VFR,0.3,26.9,23.3,,,,,,,,,METAR,85.0
KLRD 222356Z 15007KT 10SM CLR 29/15 A2981 RMK AO2 SLP091 T02940150 10322 20289 55000,KLRD,2022-10-22T23:56:00Z,27.55,-99.47,29.4,15.0,150,7,,10.0,29.811024,1009.1,,,TRUE,,,,,,,CLR,,,,,,,,VFR,0.0,32.2,28.9,,,,,,,,,METAR,150.0
KLNR 222356Z AUTO 13009KT 10SM CLR 24/09 A2968 RMK AO2 SLP043 T02440094 10289 20239 53009,KLNR,2022-10-22T23:56:00Z,43.22,-90.18,24.4,9.4,130,9,,10.0,29.681103,1004.3,,TRUE,TRUE,,,,,,,CLR,,,,,,,,VFR,0.9,28.9,23.9,,,,,,,,,METAR,218.0
KLEW 222356Z AUTO 17003KT 10SM CLR 09/07 A3027 RMK AO2 SLP260 T00940072 10194 20083 53015,KLEW,2022-10-22T23:56:00Z,44.03,-70.28,9.4,7.2,170,3,,10.0,30.268702,1026.0,,TRUE,TRUE,,,,,,,CLR,,,,,,,,VFR,1.5,19.4,8.3,,,,,,,,,METAR,81.0
KLCI 222356Z AUTO 29004KT 10SM CLR 11/04 A3027 RMK AO2 SLP255 T01110044 10206 20106 53017,KLCI,2022-10-22T23:56:00Z,43.57,-71.42,11.1,4.4,290,4,,10.0,30.268702,1025.5,,TRUE,TRUE,,,,,,,CLR,,,,,,,,VFR,1.7,20.6,10.6,,,,,,,,,METAR,166.0
KLBT 222356Z AUTO 01004KT 10SM CLR 18/11 A3014 RMK AO2 SLP204 T01830111 10261 20183 53006 TSNO,KLBT,2022-10-22T23:56:00Z,34.6,-79.07,18.3,11.1,10,4,,10.0,30.138779,1020.4,,TRUE,TRUE,,,TRUE,,,,CLR,,,,,,,,VFR,0.6,26.1,18.3,,,,,,,,,METAR,37.0
KLBL 222356Z AUTO 21019G24KT 10SM CLR 27/01 A2948 RMK AO2 PK WND 21027/2310 SLP963 T02670006 10311 20267 56009,KLBL,2022-10-22T23:56:00Z,37.03,-100.97,26.7,0.6,210,19,24,10.0,29.480314,996.3,,TRUE,TRUE,,,,,,,CLR,,,,,,,,VFR,-0.9,31.1,26.7,,,,,,,,,METAR,877.0
KLAS 222356Z 20027G45KT 4SM BLDU FEW020 BKN130 BKN200 25/01 A2938 RMK AO2 PK WND 20045/2356 SLP926 DU FEW020 T02500011 10283 20250 56028,KLAS,2022-10-22T23:56:00Z,36.07,-115.17,25.0,1.1,200,27,45,4.0,29.379921,992.6,,,TRUE,,,,,,BLDU,FEW,2000,BKN,13000,BKN,20000,,,MVFR,-2.8,28.3,25.0,,,,,,,,,METAR,662.0
KKLS 222356Z AUTO 30009KT 10SM FEW034 OVC040 14/07 A2981 RMK AO2 SLP098 60005 T01440072 10150 20111 53007,KKLS,2022-10-22T23:56:00Z,46.12,-122.9,14.4,7.2,300,9,,10.0,29.811024,1009.8,,TRUE,TRUE,,,,,,,FEW,3400,OVC,4000,,,,,VFR,0.7,15.0,11.1,,,,,0.05,,,,METAR,4.0
KJXN 222356Z 14005KT 10SM CLR 18/07 A2997 RMK AO2 SLP148 T01830072 10239 20183 53012,KJXN,2022-10-22T23:56:00Z,42.27,-84.47,18.3,7.2,140,5,,10.0,29.970472,1014.8,,,TRUE,,,,,,,CLR,,,,,,,,VFR,1.2,23.9,18.3,,,,,,,,,METAR,303.0
KJRB 222356Z AUTO 06005KT 10SM CLR A3029 RMK AO2 SLPNO 60001 52007 FZRANO $,KJRB,2022-10-22T23:56:00Z,40.7,-74.02,,,60,5,,10.0,30.28937,,,TRUE,TRUE,TRUE,,,TRUE,,,CLR,,,,,,,,VFR,0.7,,,,,,,0.01,,,,METAR,2.0
KJMS 222356Z AUTO 03010KT 10SM CLR 11/02 A2948 RMK AO2 SLP987 T01110022 10172 20111 52014,KJMS,2022-10-22T23:56:00Z,46.93,-98.67,11.1,2.2,30,10,,10.0,29.480314,998.7,,TRUE,TRUE,,,,,,,CLR,,,,,,,,VFR,1.4,17.2,11.1,,,,,,,,,METAR,455.0
KJHW 222356Z AUTO 20009KT 10SM CLR 16/03 A3018 RMK AO2 SLP228 T01610028 10200 20161 53017,KJHW,2022-10-22T23:56:00Z,42.15,-79.27,16.1,2.8,200,9,,10.0,30.180119,1022.8,,TRUE,TRUE,,,,,,,CLR,,,,,,,,VFR,1.7,20.0,16.1,,,,,,,,,METAR,520.0
KJAX 222356Z 00000KT 10SM CLR 16/11 A3009 RMK AO2 SLP191 T01560111 10244 20156 53004,KJAX,2022-10-22T23:56:00Z,30.5,-81.68,15.6,11.1,0,0,,10.0,30.088583,1019.1,,,TRUE,,,,,,,CLR,,,,,,,,VFR,0.4,24.4,15.6,,,,,,,,,METAR,8.0
KIWD 222356Z AUTO 10005KT 10SM CLR 16/06 A2965 RMK AO2 SLP046 T01610061 10211 20156 53008,KIWD,2022-10-22T23:56:00Z,46.52,-90.12,16.1,6.1,100,5,,10.0,29.648623,1004.6,,TRUE,TRUE,,,,,,,CLR,,,,,,,,VFR,0.8,21.1,15.6,,,,,,,,,METAR,373.0
KITH 222356Z 15005KT 10SM CLR 13/03 A3021 RMK AO2 SLP233 T01280028 10211 20128 51015,KITH,2022-10-22T23:56:00Z,42.48,-76.45,12.8,2.8,150,5,,10.0,30.209646,1023.3,,,TRUE,,,,,,,CLR,,,,,,,,VFR,1.5,21.1,12.8,,,,,,,,,METAR,338.0
KISP 222356Z 06003KT 10SM BKN250 11/09 A3028 RMK AO2 SLP253 T01110094 10189 20106 50006,KISP,2022-10-22T23:56:00Z,40.8,-73.1,11.1,9.4,60,3,,10.0,30.280512,1025.3,,,TRUE,,,,,,,BKN,25000,,,,,,,VFR,0.6,18.9,10.6,,,,,,,,,METAR,25.0
KISO 222356Z 36003KT 10SM CLR 18/12 A3016,KISO,2022-10-22T23:56:00Z,35.32,-77.62,18.0,12.0,360,3,,10.0,30.159449,,,,,,,,,,,CLR,,,,,,,,VFR,,,,,,,,,,,,METAR,27.0
KISM 222356Z 05005KT 10SM CLR 22/17 A3005 RMK AO2 SLP177 6//// T02220172 10278 20222 53005 PNO $,KISM,2022-10-22T23:56:00Z,28.28,-81.43,22.2,17.2,50,5,,10.0,30.050198,1017.7,,,TRUE,TRUE,,,,,,CLR,,,,,,,,VFR,0.5,27.8,22.2,,,,,,,,,METAR,25.0
KINW 222356Z AUTO 23022KT 10SM FEW070 21/04 A2974 RMK AO2 PK WND 23031/2306 SLP023 T02060039 10250 20206 56002,KINW,2022-10-22T23:56:00Z,35.03,-110.72,20.6,3.9,230,22,,10.0,29.740158,1002.3,,TRUE,TRUE,,,,,,,FEW,7000,,,,,,,VFR,-0.2,25.0,20.6,,,,,,,,,METAR,1492.0
KILE 222356Z AUTO 17013G19KT 10SM CLR 27/13 A2981 RMK AO2 SLP083 T02720133 10300 20272 51002,KILE,2022-10-22T23:56:00Z,31.08,-97.68,27.2,13.3,170,13,19,10.0,29.811024,1008.3,,TRUE,TRUE,,,,,,,CLR,,,,,,,,VFR,0.2,30.0,27.2,,,,,,,,,METAR,256.0
KHYS 222356Z AUTO 13011KT 10SM CLR 22/00 A2944 RMK AO2 SLP964 6//// T02220000 10294 20222 $,KHYS,2022-10-22T23:56:00Z,38.85,-99.27,22.2,0.0,130,11,,10.0,29.438976,996.4,,TRUE,TRUE,TRUE,,,,,,CLR,,,,,,,,VFR,,29.4,22.2,,,,,,,,,METAR,607.0
KHYI 222356Z 17013KT 10SM CLR 30/14 A2984 RMK AO2 SLPNO T03000140 10311 20278 56003 $,KHYI,2022-10-22T23:56:00Z,29.88,-97.87,30.0,14.0,170,13,,10.0,29.840551,,,,TRUE,TRUE,,,,,,CLR,,,,,,,,VFR,-0.3,31.1,27.8,,,,,,,,,METAR,180.0
KHYA 222356Z 00000KT 10SM CLR 09/08 A3029 RMK AO2 SLP258 T00890083 10172 20089 51006,KHYA,2022-10-22T23:56:00Z,41.67,-70.27,8.9,8.3,0,0,,10.0,30.28937,1025.8,,,TRUE,,,,,,,CLR,,,,,,,,VFR,0.6,17.2,8.9,,,,,,,,,METAR,11.0
KHPN 222356Z 00000KT 10SM CLR 11/08 A3027 RMK AO2 SLP255 T01060078 51007 $,KHPN,2022-10-22T23:56:00Z,41.07,-73.7,10.6,7.8,0,0,,10.0,30.268702,1025.5,,,TRUE,TRUE,,,,,,CLR,,,,,,,,VFR,0.7,,,,,,,,,,,METAR,113.0
KHND 222356Z 21027G40KT 9SM CLR 25/01 A2942 RMK AO2 PK WND 22045/2258 SLP954 T02500011 10289 20250 55020,KHND,2022-10-22T23:56:00Z,35.98,-115.13,25.0,1.1,210,27,40,9.0,29.421259,995.4,,,TRUE,,,,,,,CLR,,,,,,,,VFR,-2.0,28.9,25.0,,,,,,,,,METAR,740.0
KHNB 222356Z AUTO 16005KT 10SM CLR 21/11 A3000 RMK AO2 SLP157 T02110111 10267 20211 53012,KHNB,2022-10-22T23:56:00Z,38.25,-86.95,21.1,11.1,160,5,,10.0,30.0,1015.7,,TRUE,TRUE,,,,,,,CLR,,,,,,,,VFR,1.2,26.7,21.1,,,,,,,,,METAR,159.0
KHEZ 222356Z AUTO 13008KT 10SM CLR 22/13 A2999 RMK AO2 SLP153 T02170128 10272 20217 55004,KHEZ,2022-10-22T23:56:00Z,31.62,-91.3,21.7,12.8,130,8,,10.0,29.991142,1015.3,,TRUE,TRUE,,,,,,,CLR,,,,,,,,VFR,-0.4,27.2,21.7,,,,,,,,,METAR,82.0
KHEF 222356Z 00000KT 10SM CLR 09/06 A3024 RMK AO2 SLP246 T00940061 10217 20089 53009,KHEF,2022-10-22T23:56:00Z,38.72,-77.52,9.4,6.1,0,0,,10.0,30.239174,1024.6,,,TRUE,,,,,,,CLR,,,,,,,,VFR,0.9,21.7,8.9,,,,,,,,,METAR,53.0
KHDN 222356Z AUTO 23017G20KT 10SM BKN100 16/M03 A2956 RMK AO2 SLP961 T01561033 10194 20156 56004,KHDN,2022-10-22T23:56:00Z,40.48,-107.22,15.6,-3.3,230,17,20,10.0,29.56004,996.1,,TRUE,TRUE,,,,,,,BKN,10000,,,,,,,VFR,-0.4,19.4,15.6,,,,,,,,,METAR,2012.0
KGXY 222356Z 11007KT 10SM CLR 19/M06 A2943 RMK AO2 SLP952 T01941056 10250 20194 56013 $,KGXY,2022-10-22T23:56:00Z,40.43,-104.62,19.4,-5.6,110,7,,10.0,29.430119,995.2,,,TRUE,TRUE,,,,,,CLR,,,,,,,,VFR,-1.3,25.0,19.4,,,,,,,,,METAR,1420.0
KGVQ 222356Z AUTO 18004KT 10SM CLR 17/04 A3014 RMK AO2 SLP203 T01670039 10233 20167 53012,KGVQ,2022-10-22T23:56:00Z,43.03,-78.17,16.7,3.9,180,4,,10.0,30.138779,1020.3,,TRUE,TRUE,,,,,,,CLR,,,,,,,,VFR,1.2,23.3,16.7,,,,,,,,,METAR,279.0
KGUC 222356Z AUTO 25015G25KT 10SM CLR 15/M07 A2967 RMK AO2 PK WND 26029/2258 SLP017 T01501072 10178 20128 56012,KGUC,2022-10-22T23:56:00Z,38.52,-106.93,15.0,-7.2,250,15,25,10.0,29.66929,1001.7,,TRUE,TRUE,,,,,,,CLR,,,,,,,,VFR,-1.2,17.8,12.8,,,,,,,,,METAR,2337.0
KGTU 222356Z 18014G19KT 10SM CLR 28/13 A2983 RMK AO2 SLP096 T02780133 10300 20267 55000,KGTU,2022-10-22T23:56:00Z,30.68,-97.68,27.8,13.3,180,14,19,10.0,29.828741,1009.6,,,TRUE,,,,,,,CLR,,,,,,,,VFR,0.0,30.0,26.7,,,,,,,,,METAR,232.0
KGTR 222356Z 15007KT 10SM CLR 21/13 A3004 RMK AO2 SLP179 T02110128 10261 20211 53003,KGTR,2022-10-22T23:56:00Z,33.45,-88.58,21.1,12.8,150,7,,10.0,30.041338,1017.9,,,TRUE,,,,,,,CLR,,,,,,,,VFR,0.3,26.1,21.1,,,,,,,,,METAR,80.0
KGRD 222356Z AUTO 00000KT 10SM CLR 12/03 A3015 RMK AO2 SLP213 T01170033 10228 20117 55001,KGRD,2022-10-22T23:56:00Z,34.25,-82.15,11.7,3.3,0,0,,10.0,30.15059,1021.3,,TRUE,TRUE,,,,,,,CLR,,,,,,,,VFR,-0.1,22.8,11.7,,,,,,,,,METAR,188.0
KGPZ 222356Z AUTO 13005KT 10SM CLR 15/04 A2958 RMK AO2 SLP024 T01500044 10183 20128 53010,KGPZ,2022-10-22T23:56:00Z,47.22,-93.52,15.0,4.4,130,5,,10.0,29.58071,1002.4,,TRUE,TRUE,,,,,,,CLR,,,,,,,,VFR,1.0,18.3,12.8,,,,,,,,,METAR,410.0
KGON 222356Z 34003KT 10SM CLR 11/09 A3029 RMK AO2 SLP257 T01110089 10183 20111 53007,KGON,2022-10-22T23:56:00Z,41.33,-72.05,11.1,8.9,340,3,,10.0,30.28937,1025.7,,,TRUE,,,,,,,CLR,,,,,,,,VFR,0.7,18.3,11.1,,,,,,,,,METAR,2.0
KGNR 222356Z AUTO 14005KT 12/03 A3022 RMK AO1 SLP243 T01170033 10172 20100 50014,KGNR,2022-10-22T23:56:00Z,45.47,-69.55,11.7,3.3,140,5,,,30.221457,1024.3,,TRUE,TRUE,,,,,,,,,,,,,,,,1.4,17.2,10.0,,,,,,,,,METAR,426.0
KGNA 222356Z AUTO 06010G17KT 13/04 A2968 RMK AO1 SLP053 T01330044 10133 20100 50011,KGNA,2022-10-22T23:56:00Z,47.75,-90.35,13.3,4.4,60,10,17,,29.681103,1005.3,,TRUE,TRUE,,,,,,,,,,,,,,,,1.1,13.3,10.0,,,,,,,,,METAR,186.0
KGDV 222356Z AUTO 05013KT 10SM CLR 08/05 A2945 RMK AO2 SLP981 T00780050 10089 20072 50002,KGDV,2022-10-22T23:56:00Z,47.13,-104.8,7.8,5.0,50,13,,10.0,29.450787,998.1,,TRUE,TRUE,,,,,,,CLR,,,,,,,,VFR,0.2,8.9,7.2,,,,,,,,,METAR,749.0
KGBD 222356Z AUTO 13009KT 10SM CLR 21/01 A2946 RMK AO2 SLP973 T02060006 10289 20206 53004,KGBD,2022-10-22T23:56:00Z,38.35,-98.87,20.6,0.6,130,9,,10.0,29.459646,997.3,,TRUE,TRUE,,,,,,,CLR,,,,,,,,VFR,0.4,28.9,20.6,,,,,,,,,METAR,573.0
KGAI 222356Z AUTO 00000KT 10SM CLR 13/05 A3025 RMK AO2 SLP259 T01280050 10211 20128 53009,KGAI,2022-10-22T23:56:00Z,39.17,-77.17,12.8,5.0,0,0,,10.0,30.250984,1025.9,,TRUE,TRUE,,,,,,,CLR,,,,,,,,VFR,0.9,21.1,12.8,,,,,,,,,METAR,151.0
KGAD 222356Z AUTO 00000KT 10SM CLR 17/12 A3011 RMK AO2 SLP201 T01670117 10244 20167 53003 $,KGAD,2022-10-22T23:56:00Z,33.97,-86.08,16.7,11.7,0,0,,10.0,30.109253,1020.1,,TRUE,TRUE,TRUE,,,,,,CLR,,,,,,,,VFR,0.3,24.4,16.7,,,,,,,,,METAR,169.0
KFSD 222356Z 14005KT 10SM SCT250 22/01 A2947 RMK AO2 SLP978 T02170006 10283 20211 53013,KFSD,2022-10-22T23:56:00Z,43.58,-96.75,21.7,0.6,140,5,,10.0,29.471457,997.8,,,TRUE,,,,,,,SCT,25000,,,,,,,VFR,1.3,28.3,21.1,,,,,,,,,METAR,433.0
KFRM 222356Z AUTO 17011KT 10SM CLR 20/07 A2953 RMK AO2 SLP006 T02000072 10272 20200 53017,KFRM,2022-10-22T23:56:00Z,43.63,-94.42,20.0,7.2,170,11,,10.0,29.530512,1000.6,,TRUE,TRUE,,,,,,,CLR,,,,,,,,VFR,1.7,27.2,20.0,,,,,,,,,METAR,353.0
KFOD 222356Z AUTO 16003KT 10SM CLR 23/08 A2956 RMK AO2 SLP023 T02280083 10278 20228 53015,KFOD,2022-10-22T23:56:00Z,42.53,-94.17,22.8,8.3,160,3,,10.0,29.56004,1002.3,,TRUE,TRUE,,,,,,,CLR,,,,,,,,VFR,1.5,27.8,22.8,,,,,,,,,METAR,347.0
KFNL 222356Z 11010KT 10SM CLR 21/M07 A2944 RMK AO2 SLP913 T02111072 10256 20211 55009,KFNL,2022-10-22T23:56:00Z,40.45,-105.02,21.1,-7.2,110,10,,10.0,29.438976,991.3,,,TRUE,,,,,,,CLR,,,,,,,,VFR,-0.9,25.6,21.1,,,,,,,,,METAR,1529.0
KFLP 222356Z AUTO 16010G16KT 10SM CLR 23/13 A2979 RMK AO2 SLP082 T02280128 10256 20222 53005,KFLP,2022-10-22T23:56:00Z,36.28,-92.58,22.8,12.8,160,10,16,10.0,29.790354,1008.2,,TRUE,TRUE,,,,,,,CLR,,,,,,,,VFR,0.5,25.6,22.2,,,,,,,,,METAR,215.0
KFKL 222356Z AUTO 15005KT 10SM CLR 16/04 A3018 RMK AO2 SLP224 T01610044 10206 20156 53017,KFKL,2022-10-22T23:56:00Z,41.37,-79.87,16.1,4.4,150,5,,10.0,30.180119,1022.4,,TRUE,TRUE,,,,,,,CLR,,,,,,,,VFR,1.7,20.6,15.6,,,,,,,,,METAR,468.0
KFCI 222356Z AUTO 00000KT 10SM CLR 15/07 A3022 RMK AO2 SLP244 6//// T01500072 10222 20150,KFCI,2022-10-22T23:56:00Z,37.4,-77.52,15.0,7.2,0,0,,10.0,30.221457,1024.4,,TRUE,TRUE,,,,,,,CLR,,,,,,,,VFR,,22.2,15.0,,,,,,,,,METAR,63.0
KFAM 222356Z AUTO 17014G20KT 10SM CLR 21/12 A2987 RMK AO2 PK WND 17026/2327 SLP119 T02060122 10244 20206 53002,KFAM,2022-10-22T23:56:00Z,37.77,-90.42,20.6,12.2,170,14,20,10.0,29.870079,1011.9,,TRUE,TRUE,,,,,,,CLR,,,,,,,,VFR,0.2,24.4,20.6,,,,,,,,,METAR,276.0
KEWK 222356Z AUTO 15008KT 10SM CLR 24/02 A2951 RMK AO2 SLP980 T02390017 10289 20239 53006,KEWK,2022-10-22T23:56:00Z,38.05,-97.27,23.9,1.7,150,8,,10.0,29.509842,998.0,,TRUE,TRUE,,,,,,,CLR,,,,,,,,VFR,0.6,28.9,23.9,,,,,,,,,METAR,468.0
KESC 222356Z AUTO 18003KT 10SM CLR 12/11 A2977 RMK AO2 SLP089 6//// T01220106 10144 20117 51012 PNO $,KESC,2022-10-22T23:56:00Z,45.72,-87.08,12.2,10.6,180,3,,10.0,29.769686,1008.9,,TRUE,TRUE,TRUE,,,,,,CLR,,,,,,,,VFR,1.2,14.4,11.7,,,,,,,,,METAR,180.0
KENV 222356Z AUTO 29008KT 10SM CLR 08/M02 A2962 RMK AO2 SLP011 60000 T00831017 10133 20067 51023,KENV,2022-10-22T23:56:00Z,40.72,-114.02,8.3,-1.7,290,8,,10.0,29.619095,1001.1,,TRUE,TRUE,,,,,,,CLR,,,,,,,,VFR,2.3,13.3,6.7,,,,,0.005,,,,METAR,1291.0
KELZ 222356Z AUTO 16009KT 10SM CLR 16/01 A3022 RMK AO2 SLP237 T01560011 10206 20156 53017,KELZ,2022-10-22T23:56:00Z,42.1,-77.98,15.6,1.1,160,9,,10.0,30.221457,1023.7,,TRUE,TRUE,,,,,,,CLR,,,,,,,,VFR,1.7,20.6,15.6,,,,,,,,,METAR,639.0
KEKY 222356Z AUTO 14003KT 10SM CLR 19/12 A3011 RMK AO2 SLP042 T01890117 10244 20189 53002,KEKY,2022-10-22T23:56:00Z,33.32,-86.93,18.9,11.7,140,3,,10.0,30.109253,1004.2,,TRUE,TRUE,,,,,,,CLR,,,,,,,,VFR,0.2,24.4,18.9,,,,,,,,,METAR,213.0
KEKQ 222356Z AUTO 14006KT 10SM CLR 18/08 A3012 RMK AO2 SLP195 T01830083 10256 20161 53008,KEKQ,2022-10-22T23:56:00Z,36.85,-84.85,18.3,8.3,140,6,,10.0,30.121063,1019.5,,TRUE,TRUE,,,,,,,CLR,,,,,,,,VFR,0.8,25.6,16.1,,,,,,,,,METAR,291.0
KEKO 222356Z AUTO 21007KT 10SM FEW110 03/01 A2964 RMK AO2 SLP024 60007 T00330011 10044 20006 55003,KEKO,2022-10-22T23:56:00Z,40.82,-115.78,3.3,1.1,210,7,,10.0,29.639763,1002.4,,TRUE,TRUE,,,,,,,FEW,11000,,,,,,,VFR,-0.3,4.4,0.6,,,,,0.07,,,,METAR,1541.0
KEHR 222356Z AUTO 19010KT 10SM CLR 21/09 A2999 RMK AO2 SLP153 T02110094 10261 20211 53012,KEHR,2022-10-22T23:56:00Z,37.82,-87.67,21.1,9.4,190,10,,10.0,29.991142,1015.3,,TRUE,TRUE,,,,,,,CLR,,,,,,,,VFR,1.2,26.1,21.1,,,,,,,,,METAR,117.0
KEGE 222356Z 24011KT 10SM FEW090 16/M04 A2961 RMK AO2 PK WND 23028/2345 SLP963 T01611039 10183 20161 56008,KEGE,2022-10-22T23:56:00Z,39.63,-106.92,16.1,-3.9,240,11,,10.0,29.610237,996.3,,,TRUE,,,,,,,FEW,9000,,,,,,,VFR,-0.8,18.3,16.1,,,,,,,,,METAR,1993.0
KEEN 222356Z AUTO 00000KT 10SM CLR 09/06 A3029 RMK AO2 SLP264 T00940056 10206 20089 53017 $,KEEN,2022-10-22T23:56:00Z,42.88,-72.27,9.4,5.6,0,0,,10.0,30.28937,1026.4,,TRUE,TRUE,TRUE,,,,,,CLR,,,,,,,,VFR,1.7,20.6,8.9,,,,,,,,,METAR,143.0
KEED 222356Z AUTO 20017G24KT 10SM CLR 31/04 A2948 RMK AO2 PK WND 19028/2258 SLP954 T03060039 10317 20283 56021,KEED,2022-10-22T23:56:00Z,34.77,-114.62,30.6,3.9,200,17,24,10.0,29.480314,995.4,,TRUE,TRUE,,,,,,,CLR,,,,,,,,VFR,-2.1,31.7,28.3,,,,,,,,,METAR,271.0
KEAU 222356Z 12007KT 10SM CLR 21/07 A2960 RMK AO2 SLP024 T02110067 10250 20189 53012,KEAU,2022-10-22T23:56:00Z,44.87,-91.48,21.1,6.7,120,7,,10.0,29.601377,1002.4,,,TRUE,,,,,,,CLR,,,,,,,,VFR,1.2,25.0,18.9,,,,,,,,,METAR,271.0
KEAR 222356Z AUTO 14008KT 10SM CLR 21/03 A2946 RMK AO2 SLP970 T02060028 10311 20206 53010,KEAR,2022-10-22T23:56:00Z,40.72,-99.0,20.6,2.8,140,8,,10.0,29.459646,997.0,,TRUE,TRUE,,,,,,,CLR,,,,,,,,VFR,1.0,31.1,20.6,,,,,,,,,METAR,649.0
KDYR 222356Z AUTO 14005KT 10SM CLR 22/12 A2996 RMK AO2 SLP148 T02170117 10256 20217 53005,KDYR,2022-10-22T23:56:00Z,36.0,-89.4,21.7,11.7,140,5,,10.0,29.958662,1014.8,,TRUE,TRUE,,,,,,,CLR,,,,,,,,VFR,0.5,25.6,21.7,,,,,,,,,METAR,98.0
KDWU 222356Z AUTO 00000KT 10SM CLR 16/11 A3011 RMK AO2 SLP197 T01560111 10261 20150 53012,KDWU,2022-10-22T23:56:00Z,38.55,-82.73,15.6,11.1,0,0,,10.0,30.109253,1019.7,,TRUE,TRUE,,,,,,,CLR,,,,,,,,VFR,1.2,26.1,15.0,,,,,,,,,METAR,165.0
KDVL 222356Z AUTO 06016G20KT 10SM CLR 09/06 A2954 RMK AO2 SLP024 T00940061 10117 20094 51013,KDVL,2022-10-22T23:56:00Z,48.12,-98.92,9.4,6.1,60,16,20,10.0,29.53937,1002.4,,TRUE,TRUE,,,,,,,CLR,,,,,,,,VFR,1.3,11.7,9.4,,,,,,,,,METAR,439.0
KDIK 222356Z AUTO 06014KT 10SM CLR 07/04 A2945 RMK AO2 SLP982 60000 T00720044 10089 20067 53005,KDIK,2022-10-22T23:56:00Z,46.8,-102.8,7.2,4.4,60,14,,10.0,29.450787,998.2,,TRUE,TRUE,,,,,,,CLR,,,,,,,,VFR,0.5,8.9,6.7,,,,,0.005,,,,METAR,788.0
KDAY 222356Z 17007KT 10SM BKN250 19/09 A3006 RMK AO2 SLP175 T01940089 10250 20194 53014,KDAY,2022-10-22T23:56:00Z,39.9,-84.22,19.4,8.9,170,7,,10.0,30.059055,1017.5,,,TRUE,,,,,,,BKN,25000,,,,,,,VFR,1.4,25.0,19.4,,,,,,,,,METAR,303.0
KD07 222356Z AUTO 06010KT 11/02 A2942 RMK AO1 SLP970 T01060017 10144 20106 53003,KD07,2022-10-22T23:56:00Z,45.03,-102.02,10.6,1.7,60,10,,,29.421259,997.0,,TRUE,TRUE,,,,,,,,,,,,,,,,0.3,14.4,10.6,,,,,,,,,METAR,786.0
KCXY 222356Z 14003KT 10SM CLR 14/06 A3024 RMK AO2 SLP241 T01390056 10211 20133 53008,KCXY,2022-10-22T23:56:00Z,40.22,-76.85,13.9,5.6,140,3,,10.0,30.239174,1024.1,,,TRUE,,,,,,,CLR,,,,,,,,VFR,0.8,21.1,13.3,,,,,,,,,METAR,102.0
KCWI 222356Z AUTO 15012KT 10SM CLR 22/11 A2971 RMK AO2 SLP062 T02220106 10272 20222 53009,KCWI,2022-10-22T23:56:00Z,41.82,-90.32,22.2,10.6,150,12,,10.0,29.71063,1006.2,,TRUE,TRUE,,,,,,,CLR,,,,,,,,VFR,0.9,27.2,22.2,,,,,,,,,METAR,212.0
KCVO 222356Z AUTO 28011KT 10SM OVC095 11/05 A2988 RMK AO2 SLP119 60001 T01110050 10144 20106 53009,KCVO,2022-10-22T23:56:00Z,44.5,-123.28,11.1,5.0,280,11,,10.0,29.878937,1011.9,,TRUE,TRUE,,,,,,,OVC,9500,,,,,,,VFR,0.9,14.4,10.6,,,,,0.01,,,,METAR,75.0
KCVN 222356Z AUTO 21013KT 10SM CLR 22/09 A2975 RMK AO2 SLP046 T02170094 10244 20217 50002,KCVN,2022-10-22T23:56:00Z,34.42,-103.07,21.7,9.4,210,13,,10.0,29.749016,1004.6,,TRUE,TRUE,,,,,,,CLR,,,,,,,,VFR,0.2,24.4,21.7,,,,,,,,,METAR,1278.0
KCOE 222356Z AUTO 30004KT 10SM OVC070 08/01 A2962 RMK AO2 SLP057 6//// T00780006 10089 20061 53019 PNO $,KCOE,2022-10-22T23:56:00Z,47.77,-116.82,7.8,0.6,300,4,,10.0,29.619095,1005.7,,TRUE,TRUE,TRUE,,,,,,OVC,7000,,,,,,,VFR,1.9,8.9,6.1,,,,,,,,,METAR,693.0
KCOD 222356Z AUTO 34004KT 10SM BKN080 OVC095 09/04 A2937 RMK AO2 SLP932 T00940044 10161 20094 53020,KCOD,2022-10-22T23:56:00Z,44.52,-109.02,9.4,4.4,340,4,,10.0,29.371063,993.2,,TRUE,TRUE,,,,,,,BKN,8000,OVC,9500,,,,,VFR,2.0,16.1,9.4,,,,,,,,,METAR,1550.0
KCIU 222356Z AUTO 11010KT 10SM CLR 11/08 A2984 RMK AO2 SLP107 T01110083 10194 20111 53009,KCIU,2022-10-22T23:56:00Z,46.25,-84.47,11.1,8.3,110,10,,10.0,29.840551,1010.7,,TRUE,TRUE,,,,,,,CLR,,,,,,,,VFR,0.9,19.4,11.1,,,,,,,,,METAR,242.0
KCHS 222356Z 34005KT 10SM FEW043 16/12 A3012 RMK AO2 SLP198 T01560117 10239 20156 53007,KCHS,2022-10-22T23:56:00Z,32.9,-80.03,15.6,11.7,340,5,,10.0,30.121063,1019.8,,,TRUE,,,,,,,FEW,4300,,,,,,,VFR,0.7,23.9,15.6,,,,,,,,,METAR,12.0
KCGZ 222356Z AUTO 22017KT 10SM CLR 28/11 A2963 RMK AO2 SLP021 6//// T02830111 10306 20261 56016 $,KCGZ,2022-10-22T23:56:00Z,32.95,-111.77,28.3,11.1,220,17,,10.0,29.630905,1002.1,,TRUE,TRUE,TRUE,,,,,,CLR,,,,,,,,VFR,-1.6,30.6,26.1,,,,,,,,,METAR,444.0
KCEC 222356Z AUTO 33006KT 6SM HZ CLR 14/08 A2995 RMK AO2 SLP143 T01390083 10150 20133 52002,KCEC,2022-10-22T23:56:00Z,41.78,-124.23,13.9,8.3,330,6,,6.0,29.949802,1014.3,,TRUE,TRUE,,,,,,HZ,CLR,,,,,,,,VFR,0.2,15.0,13.3,,,,,,,,,METAR,17.0
KCAE 222356Z 00000KT 10SM FEW250 14/07 A3013 RMK AO2 SLP204 T01390067 10233 20139 55001,KCAE,2022-10-22T23:56:00Z,33.93,-81.12,13.9,6.7,0,0,,10.0,30.129921,1020.4,,,TRUE,,,,,,,FEW,25000,,,,,,,VFR,-0.1,23.3,13.9,,,,,,,,,METAR,69.0
KBZN 222356Z 28006KT 8SM -RA FEW005 OVC025 03/02 A2944 RMK AO2 SLP972 P0008 60022 T00330022 10067 20033 53018,KBZN,2022-10-22T23:56:00Z,45.78,-111.17,3.3,2.2,280,6,,8.0,29.438976,997.2,,,TRUE,,,,,,-RA,FEW,500,OVC,2500,,,,,MVFR,1.8,6.7,3.3,,,0.08,,0.22,,,,METAR,1349.0
KBVX 222356Z AUTO 15006KT 10SM CLR 23/13 A2986 RMK AO2 SLP110 T02330128 10261 20228 53003,KBVX,2022-10-22T23:56:00Z,35.73,-91.65,23.3,12.8,150,6,,10.0,29.861221,1011.0,,TRUE,TRUE,,,,,,,CLR,,,,,,,,VFR,0.3,26.1,22.8,,,,,,,,,METAR,137.0
KBTP 222356Z AUTO 13004KT 10SM CLR 16/04 A3017 RMK AO2 SLP225 T01610039 10211 20156 53012 TSNO,KBTP,2022-10-22T23:56:00Z,40.77,-79.95,16.1,3.9,130,4,,10.0,30.171259,1022.5,,TRUE,TRUE,,,TRUE,,,,CLR,,,,,,,,VFR,1.2,21.1,15.6,,,,,,,,,METAR,375.0
KBOK 222356Z AUTO 31008G19KT 10SM CLR 13/08 A2994 RMK AO2 SLP139 T01280078 10139 20122 56002 $,KBOK,2022-10-22T23:56:00Z,42.07,-124.28,12.8,7.8,310,8,19,10.0,29.940945,1013.9,,TRUE,TRUE,TRUE,,,,,,CLR,,,,,,,,VFR,-0.2,13.9,12.2,,,,,,,,,METAR,140.0
KBMI 222356Z 17016KT 10SM CLR 20/10 A2985 RMK AO2 SLP101 T02000100 10261 20200 53011,KBMI,2022-10-22T23:56:00Z,40.47,-88.92,20.0,10.0,170,16,,10.0,29.84941,1010.1,,,TRUE,,,,,,,CLR,,,,,,,,VFR,1.1,26.1,20.0,,,,,,,,,METAR,262.0
KBLM 222356Z AUTO 10004KT 10SM CLR 12/10 A3028 RMK AO2 SLP256 T01170100 10178 20117 53005,KBLM,2022-10-22T23:56:00Z,40.17,-74.12,11.7,10.0,100,4,,10.0,30.280512,1025.6,,TRUE,TRUE,,,,,,,CLR,,,,,,,,VFR,0.5,17.8,11.7,,,,,,,,,METAR,45.0
KBKX 222356Z AUTO 15007KT 10SM CLR A2947 RMK AO2 SLPNO 6//// 51013 FZRANO $,KBKX,2022-10-22T23:56:00Z,44.3,-96.82,,,150,7,,10.0,29.471457,,,TRUE,TRUE,TRUE,,,TRUE,,,CLR,,,,,,,,VFR,1.3,,,,,,,,,,,METAR,494.0
KBJJ 222356Z AUTO 15007KT 10SM CLR 16/09 A3011 RMK AO2 SLP198 T01610089 10217 20161 53015,KBJJ,2022-10-22T23:56:00Z,40.87,-81.88,16.1,8.9,150,7,,10.0,30.109253,1019.8,,TRUE,TRUE,,,,,,,CLR,,,,,,,,VFR,1.5,21.7,16.1,,,,,,,,,METAR,338.0
KBIH 222356Z AUTO 28012G20KT 10SM CLR 20/M04 A2956 RMK AO2 PK WND 25030/2316 SLP973 T02001044 10261 20200 53033,KBIH,2022-10-22T23:56:00Z,37.37,-118.35,20.0,-4.4,280,12,20,10.0,29.56004,997.3,,TRUE,TRUE,,,,,,,CLR,,,,,,,,VFR,3.3,26.1,20.0,,,,,,,,,METAR,1252.0
KBID 222356Z AUTO 13003KT 10SM CLR 11/08 A3031 RMK AO2 SLP263 T01110078 10167 20111 53005,KBID,2022-10-22T23:56:00Z,41.17,-71.58,11.1,7.8,130,3,,10.0,30.31004,1026.3,,TRUE,TRUE,,,,,,,CLR,,,,,,,,VFR,0.5,16.7,11.1,,,,,,,,,METAR,32.0
KBHB 222356Z AUTO 20008KT 10SM CLR 11/10 A3029 RMK AO2 SLP258 6//// T01060100 10156 20106 50009 PNO $,KBHB,2022-10-22T23:56:00Z,44.45,-68.37,10.6,10.0,200,8,,10.0,30.28937,1025.8,,TRUE,TRUE,TRUE,,,,,,CLR,,,,,,,,VFR,0.9,15.6,10.6,,,,,,,,,METAR,21.0
KAWO 222356Z AUTO 00000KT 10SM BKN085 11/06 A2980 RMK AO2 SLP095 60006 T01060056 10111 20078 53009,KAWO,2022-10-22T23:56:00Z,48.17,-122.17,10.6,5.6,0,0,,10.0,29.799213,1009.5,,TRUE,TRUE,,,,,,,BKN,8500,,,,,,,VFR,0.9,11.1,7.8,,,,,0.06,,,,METAR,38.0
KAUO 222356Z AUTO 00000KT 10SM CLR 17/07 A3013 RMK AO2 SLP229 T01670072 10239 20167 53001,KAUO,2022-10-22T23:56:00Z,32.62,-85.43,16.7,7.2,0,0,,10.0,30.129921,1022.9,,TRUE,TRUE,,,,,,,CLR,,,,,,,,VFR,0.1,23.9,16.7,,,,,,,,,METAR,231.0
KASH 222356Z 00000KT 10SM CLR 11/07 A3029 RMK AO2 SLP263 T01060067 10217 20106 53016 $,KASH,2022-10-22T23:56:00Z,42.78,-71.52,10.6,6.7,0,0,,10.0,30.28937,1026.3,,,TRUE,TRUE,,,,,,CLR,,,,,,,,VFR,1.6,21.7,10.6,,,,,,,,,METAR,56.0
KART 222356Z AUTO 16005KT 10SM CLR 16/03 A3015 RMK AO2 SLP207 T01560033 10222 20144 53012,KART,2022-10-22T23:56:00Z,43.98,-76.03,15.6,3.3,160,5,,10.0,30.15059,1020.7,,TRUE,TRUE,,,,,,,CLR,,,,,,,,VFR,1.2,22.2,14.4,,,,,,,,,METAR,100.0
KARG 222356Z AUTO 17012KT 10SM CLR 22/12 A2987 RMK AO2 SLP116 T02220122 10256 20222 53005,KARG,2022-10-22T23:56:00Z,36.12,-90.92,22.2,12.2,170,12,,10.0,29.870079,1011.6,,TRUE,TRUE,,,,,,,CLR,,,,,,,,VFR,0.5,25.6,22.2,,,,,,,,,METAR,82.0
KANE 222356Z 12005KT 10SM FEW200 SCT250 21/06 A2953,KANE,2022-10-22T23:56:00Z,45.15,-93.22,21.0,6.0,120,5,,10.0,29.530512,,,,,,,,,,,FEW,20000,SCT,25000,,,,,VFR,,,,,,,,,,,,METAR,276.0
KAND 222356Z AUTO 00000KT 10SM CLR 14/04 A3014 RMK AO2 SLP206 T01440039 10233 20139 55001,KAND,2022-10-22T23:56:00Z,34.5,-82.72,14.4,3.9,0,0,,10.0,30.138779,1020.6,,TRUE,TRUE,,,,,,,CLR,,,,,,,,VFR,-0.1,23.3,13.9,,,,,,,,,METAR,233.0
KALK 222356Z AUTO 22015G23KT 10SM SCT050 SCT065 BKN110 22/12 A2988 RMK AO2 SLP039 T02220117 10261 20222 58005,KALK,2022-10-22T23:56:00Z,31.6,-110.43,22.2,11.7,220,15,23,10.0,29.878937,1003.9,,TRUE,TRUE,,,,,,,SCT,5000,SCT,6500,BKN,11000,,,VFR,-0.5,26.1,22.2,,,,,,,,,METAR,1451.0
KAJO 222356Z AUTO 26010G18KT 10SM CLR 19/13 A2974 RMK AO2 SLP066 T01890128 10222 20189 56010,KAJO,2022-10-22T23:56:00Z,33.9,-117.6,18.9,12.8,260,10,18,10.0,29.740158,1006.6,,TRUE,TRUE,,,,,,,CLR,,,,,,,,VFR,-1.0,22.2,18.9,,,,,,,,,METAR,161.0
KAIZ 222356Z AUTO 17010G18KT 10SM CLR 23/11 RMK AO2 SLPNO T02280111 10278 20228 $,KAIZ,2022-10-22T23:56:00Z,38.1,-92.53,22.8,11.1,170,10,18,10.0,,,,TRUE,TRUE,TRUE,,,,,,CLR,,,,,,,,VFR,,27.8,22.8,,,,,,,,,METAR,263.0
KAFJ 222356Z AUTO 00000KT 10SM CLR 12/06 A3019 RMK AO2 SLP226 T01170061 10222 20117 53011,KAFJ,2022-10-22T23:56:00Z,40.13,-80.28,11.7,6.1,0,0,,10.0,30.188976,1022.6,,TRUE,TRUE,,,,,,,CLR,,,,,,,,VFR,1.1,22.2,11.7,,,,,,,,,METAR,360.0
KADF 222356Z AUTO 16004KT 10SM CLR 23/14 A2983 RMK AO2 SLP101 T02330144 10278 20233 55002,KADF,2022-10-22T23:56:00Z,34.1,-93.07,23.3,14.4,160,4,,10.0,29.828741,1010.1,,TRUE,TRUE,,,,,,,CLR,,,,,,,,VFR,-0.2,27.8,23.3,,,,,,,,,METAR,54.0
K8D3 222356Z AUTO 18004KT 16/01 A2943 RMK AO1 SLP964 T01560006 10233 20156 51020,K8D3,2022-10-22T23:56:00Z,45.67,-96.98,15.6,0.6,180,4,,,29.430119,996.4,,TRUE,TRUE,,,,,,,,,,,,,,,,2.0,23.3,15.6,,,,,,,,,METAR,535.0
K7N0 222356Z AUTO VRB04KT 10SM CLR 22/14 A3006 RMK AO2 SLP179 6//// T02220144 10261 20222 56001 PNO $,K7N0,2022-10-22T23:56:00Z,29.95,-90.07,22.2,14.4,0,4,,10.0,30.059055,1017.9,,TRUE,TRUE,TRUE,,,,,,CLR,,,,,,,,VFR,-0.1,26.1,22.2,,,,,,,,,METAR,0.0
K79J 222356Z AUTO 00000KT 10SM CLR 18/06 A3009 RMK AO2 SLP189 T01780061 10278 20178 53002,K79J,2022-10-22T23:56:00Z,31.32,-86.4,17.8,6.1,0,0,,10.0,30.088583,1018.9,,TRUE,TRUE,,,,,,,CLR,,,,,,,,VFR,0.2,27.8,17.8,,,,,,,,,METAR,93.0
K2WX 222356Z AUTO 09008KT 09/02 A2939 RMK AO1 SLP961 T00940022 10122 20094 53008,K2WX,2022-10-22T23:56:00Z,45.6,-103.55,9.4,2.2,90,8,,,29.388779,996.1,,TRUE,TRUE,,,,,,,,,,,,,,,,0.8,12.2,9.4,,,,,,,,,METAR,925.0
K1M4 222356Z AUTO 17005KT 10SM CLR 19/12 A3009 RMK AO2 SLP178 T01890117 10244 20189 53005,K1M4,2022-10-22T23:56:00Z,34.28,-87.6,18.9,11.7,170,5,,10.0,30.088583,1017.8,,TRUE,TRUE,,,,,,,CLR,,,,,,,,VFR,0.5,24.4,18.9,,,,,,,,,METAR,283.0
K1KW 222356Z AUTO 17008KT 10SM CLR 17/M07 A2942 RMK AO2 SLP937 T01661071 10244 20166 55007 $,K1KW,2022-10-22T23:56:00Z,41.13,-103.48,16.6,-7.1,170,8,,10.0,29.421259,993.7,,TRUE,TRUE,TRUE,,,,,,CLR,,,,,,,,VFR,-0.7,24.4,16.6,,,,,,,,,METAR,1443.0
K1JW 222356Z AUTO 12008KT 10SM CLR 18/M10 A2931 RMK AO2 SLP894 T01821098 10250 20182 56009 $,K1JW,2022-10-22T23:56:00Z,40.97,-103.2,18.2,-9.8,120,8,,10.0,29.309055,989.4,,TRUE,TRUE,TRUE,,,,,,CLR,,,,,,,,VFR,-0.9,25.0,18.2,,,,,,,,,METAR,1382.0
K1IW 222356Z AUTO 17009KT 10SM CLR 19/M07 A2942 RMK AO2 SLP940 T01941071 10258 20194 56007 $,K1IW,2022-10-22T23:56:00Z,41.05,-102.87,19.4,-7.1,170,9,,10.0,29.421259,994.0,,TRUE,TRUE,TRUE,,,,,,CLR,,,,,,,,VFR,-0.7,25.8,19.4,,,,,,,,,METAR,1294.0
K1HW 222356Z AUTO 17009KT 10SM CLR 18/M09 A2941 RMK AO2 SLP932 T01831088 10265 20183 55007 $,K1HW,2022-10-22T23:56:00Z,41.32,-102.83,18.3,-8.8,170,9,,10.0,29.409449,993.2,,TRUE,TRUE,TRUE,,,,,,CLR,,,,,,,,VFR,-0.7,26.5,18.3,,,,,,,,,METAR,1265.0
K1FW 222356Z AUTO 16009KT 10SM CLR 18/M08 A2944 RMK AO2 SLP932 T01801082 10248 20180 55009 $,K1FW,2022-10-22T23:56:00Z,41.37,-103.48,18.0,-8.2,160,9,,10.0,29.438976,993.2,,TRUE,TRUE,TRUE,,,,,,CLR,,,,,,,,VFR,-0.9,24.8,18.0,,,,,,,,,METAR,1451.0
K1EW 222356Z AUTO 34010KT 10SM CLR 16/M11 A2945 RMK AO2 SLP943 T01601107 10224 20160 56011 $,K1EW,2022-10-22T23:56:00Z,41.12,-103.98,16.0,-10.7,340,10,,10.0,29.450787,994.3,,TRUE,TRUE,TRUE,,,,,,CLR,,,,,,,,VFR,-1.1,22.4,16.0,,,,,,,,,METAR,1609.0
K1DW 222356Z AUTO 15007KT 10SM CLR 17/M10 A2947 RMK AO2 SLP936 T01661102 10237 20166 55008 $,K1DW,2022-10-22T23:56:00Z,41.37,-103.8,16.6,-10.2,150,7,,10.0,29.471457,993.6,,TRUE,TRUE,TRUE,,,,,,CLR,,,,,,,,VFR,-0.8,23.7,16.6,,,,,,,,,METAR,1539.0
K1CW 222356Z AUTO 19011KT 10SM CLR 19/M12 A2941 RMK AO2 SLP912 T01941119 10262 20194 55006 $,K1CW,2022-10-22T23:56:00Z,41.58,-103.57,19.4,-11.9,190,11,,10.0,29.409449,991.2,,TRUE,TRUE,TRUE,,,,,,CLR,,,,,,,,VFR,-0.6,26.2,19.4,,,,,,,,,METAR,1370.0
K1BW 222356Z AUTO 16010KT 10SM CLR 15/M09 A2945 RMK AO2 SLP928 T01521090 10233 20152 55006 $,K1BW,2022-10-22T23:56:00Z,41.52,-104.0,15.2,-9.0,160,10,,10.0,29.450787,992.8,,TRUE,TRUE,TRUE,,,,,,CLR,,,,,,,,VFR,-0.6,23.3,15.2,,,,,,,,,METAR,1606.0
K1AW 222356Z AUTO 14010KT 10SM CLR 17/M09 A2945 RMK AO2 SLP939 T01671093 10227 20167 56008 $,K1AW,2022-10-22T23:56:00Z,41.33,-104.27,16.7,-9.3,140,10,,10.0,29.450787,993.9,,TRUE,TRUE,TRUE,,,,,,CLR,,,,,,,,VFR,-0.8,22.7,16.7,,,,,,,,,METAR,1670.0
TXKF 222355Z 10008KT 9999 SCT020 BKN300 24/21 Q1021 ,TXKF,2022-10-22T23:55:00Z,32.37,-64.68,24.0,21.0,100,8,,6.21,30.147638,,,,,,,,,,,SCT,2000,BKN,30000,,,,,VFR,,,,,,,,,,,,METAR,4.0
TNCE 222355Z AUTO 06012KT //// // ///////// 28/24 Q1012 RE//,TNCE,2022-10-22T23:55:00Z,17.48,-62.97,28.0,24.0,60,12,,,29.88189,,,TRUE,,,,,,,,,,,,,,,,,,,,,,,,,,,,METAR,38.0
TNCB 222355Z 08010KT 050V110 CAVOK 29/24 Q1009,TNCB,2022-10-22T23:55:00Z,12.13,-68.28,29.0,24.0,80,10,,6.21,29.793306,,,,,,,,,,,CAVOK,,,,,,,,VFR,,,,,,,,,,,,METAR,6.0
RODN 222355Z 32009KT 7SM BR BKN008 BKN018 26/24 A2985 RMK AO2A SLP113 60001 10263 20250 $,RODN,2022-10-22T23:55:00Z,26.35,127.77,26.0,24.0,320,9,,7.0,29.84941,1011.3,,,TRUE,TRUE,,,,,BR,BKN,800,BKN,1800,,,,,IFR,,26.3,25.0,,,,,0.01,,,,METAR,38.0
RKSO 222355Z AUTO 01003KT 8SM CLR 13/13 A3013 RMK AO2 SLP207 T01320130 10137 20093 52010 TSNO CHINO RWY09 $,RKSO,2022-10-22T23:55:00Z,37.08,127.02,13.2,13.0,10,3,,8.0,30.129921,1020.7,,TRUE,TRUE,TRUE,,TRUE,,,,CLR,,,,,,,,VFR,1.0,13.7,9.3,,,,,,,,,METAR,10.0
RKSG 222355Z 30004KT 5SM BR CLR 14/13 A3011 RMK AO2A TWR VIS 2 1/2 SLP199 60000 T01350133 10143 20113 52010 TSNO $,RKSG,2022-10-22T23:55:00Z,36.97,127.02,13.5,13.3,300,4,,5.0,30.109253,1019.9,,,TRUE,TRUE,,TRUE,,,BR,CLR,,,,,,,,MVFR,1.0,14.3,11.3,,,,,0.005,,,,METAR,12.0
RKJK 222355Z AUTO 34011KT 9SM CLR 16/08 A3010 RMK AO2 SLP197 T01560083 10156 20119 52009 $,RKJK,2022-10-22T23:55:00Z,35.9,126.62,15.6,8.3,340,11,,9.0,30.100393,1019.7,,TRUE,TRUE,TRUE,,,,,,CLR,,,,,,,,VFR,0.9,15.6,11.9,,,,,,,,,METAR,8.0
RJTY 222355Z 32003KT 10SM FEW030 19/09 A2990 RMK AO2A SLP128 T01890088 10189 20103 56005 $,RJTY,2022-10-22T23:55:00Z,35.75,139.33,18.9,8.8,320,3,,10.0,29.899607,1012.8,,,TRUE,TRUE,,,,,,FEW,3000,,,,,,,VFR,-0.5,18.9,10.3,,,,,,,,,METAR,136.0
PWAK 222355Z AUTO 05018G23KT 9999 SCT023 30/23 A2991 RMK AO2 SLP135 T03030232 10307 20270 58003 $,PWAK,2022-10-22T23:55:00Z,19.28,166.62,30.3,23.2,50,18,23,6.21,29.911417,1013.5,,TRUE,TRUE,TRUE,,,,,,SCT,2300,,,,,,,VFR,-0.3,30.7,27.0,,,,,,,,,METAR,7.0
PASV 222355Z AUTO 09004KT 10SM FEW170 00/M04 A2979 RMK AO2 SLP112 T10021039 10003 21030 55005,PASV,2022-10-22T23:55:00Z,61.1,-155.57,-0.2,-3.9,90,4,,10.0,29.790354,1011.2,,TRUE,TRUE,,,,,,,FEW,17000,,,,,,,VFR,-0.5,0.3,-3.0,,,,,,,,,METAR,462.0
PAFR 222355Z AUTO 33004KT 10SM SCT270 01/M01 A2976 RMK AO2 SLP088 T00121007 10012 21054 57017 VISNO RWY35 CHINO RWY35 $,PAFR,2022-10-22T23:55:00Z,61.27,-149.65,1.2,-0.7,330,4,,10.0,29.760826,1008.8,,TRUE,TRUE,TRUE,,,,,,SCT,27000,,,,,,,VFR,-1.7,1.2,-5.4,,,,,,,,,METAR,106.0
PAFB 222355Z AUTO 13003KT 9SM OVC004 M00/M00 A2992 RMK AO2 SLP143 60000 T10011004 11001 21013 58002,PAFB,2022-10-22T23:55:00Z,64.83,-147.62,-0.1,-0.4,130,3,,9.0,29.920275,1014.3,,TRUE,TRUE,,,,,,,OVC,400,,,,,,,LIFR,-0.2,-0.1,-1.3,,,,,0.005,,,,METAR,137.0
PAEI 222355Z 00000KT 10SM -SN FEW006 BKN033 BKN060 M00/M01 A2990 RMK AO2A SLP135 60001 4/009 T10041013 10000 21018 57002 $,PAEI,2022-10-22T23:55:00Z,64.67,-147.1,-0.4,-1.3,0,0,,10.0,29.899607,1013.5,,,TRUE,TRUE,,,,,-SN,FEW,600,BKN,3300,BKN,6000,,,VFR,-0.2,0.0,-1.8,,,,,0.01,,9.0,,METAR,166.0
PAEH 222355Z AUTO 35010KT 280V360 10SM BKN013 04/03 A2989 RMK AO2 SLP129 T00440029 10043 20019 52007,PAEH,2022-10-22T23:55:00Z,58.65,-162.07,4.4,2.9,350,10,,10.0,29.890747,1012.9,,TRUE,TRUE,,,,,,,BKN,1300,,,,,,,MVFR,0.7,4.3,1.9,,,,,,,,,METAR,101.0
PAED 222355Z 01006KT 10SM FEW011 BKN170 02/M01 A2979 RMK AO2A SLP086 T00221006 10022 21035 57017 $,PAED,2022-10-22T23:55:00Z,61.25,-149.83,2.2,-0.6,10,6,,10.0,29.790354,1008.6,,,TRUE,TRUE,,,,,,FEW,1100,BKN,17000,,,,,VFR,-1.7,2.2,-3.5,,,,,,,,,METAR,54.0
PACZ 222355Z AUTO 19010G22KT 10SM CLR 03/00 A2986 RMK AO2 SLP117 T00291005 10031 20007 52002,PACZ,2022-10-22T23:55:00Z,61.78,-166.03,2.9,-0.5,190,10,22,10.0,29.861221,1011.7,,TRUE,TRUE,,,,,,,CLR,,,,,,,,VFR,0.2,3.1,0.7,,,,,,,,,METAR,129.0
OTBH 222355Z 00000KT 9999 CLR 25/22 A2997 RMK AO2A SLPNO ALSTG ESTMD T02470220 10287 20247 PWINO FZRANO TSNO CHINO RWY34 $,OTBH,2022-10-22T23:55:00Z,25.12,51.32,24.7,22.0,0,0,,6.21,29.970472,,,,TRUE,TRUE,,TRUE,TRUE,TRUE,,CLR,,,,,,,,VFR,,28.7,24.7,,,,,,,,,METAR,40.0
OPMT 222355Z 00000KT 3500 FU NSC 21/16 Q1015 NOSIG,OPMT,2022-10-22T23:55:00Z,30.2,71.42,21.0,16.0,0,0,,2.17,29.970472,,,,,,TRUE,,,,FU,CLR,,,,,,,,IFR,,,,,,,,,,,,METAR,122.0
OPFA 222355Z 00000KT 4000 FU NSC 17/14 Q1016 BECMG 3000 BR,OPFA,2022-10-22T23:55:00Z,31.37,73.0,17.0,14.0,0,0,,2.49,30.0,,,,,,,,,,FU,CLR,,,,,,,,IFR,,,,,,,,,,,,METAR,180.0
OKAS 222355Z 18010KT 9999 CLR 27/07 A2996 RMK AO2A SLP140 $,OKAS,2022-10-22T23:55:00Z,29.35,47.52,27.0,7.0,180,10,,6.21,29.958662,1014.0,,,TRUE,TRUE,,,,,,CLR,,,,,,,,VFR,,,,,,,,,,,,METAR,144.0
NZCM 222355Z AUTO 09013G23KT 050V120 9999 OVC027 M20/M28 A2934 RMK AO2 SLP943 T12031276 11195 21222 56007 $,NZCM,2022-10-22T23:55:00Z,-77.85,166.67,-20.3,-27.6,90,13,23,6.21,29.338583,994.3,,TRUE,TRUE,TRUE,,,,,,OVC,2700,,,,,,,MVFR,-0.7,-19.5,-22.2,,,,,,,,,METAR,24.0
MMIO 222355Z 36010KT 10SM BKN200 24/11 A3008 RMK 8/008,MMIO,2022-10-22T23:55:00Z,25.55,-100.93,24.0,11.0,360,10,,10.0,30.079725,,,,,,,,,,,BKN,20000,,,,,,,VFR,,,,,,,,,,,,METAR,1430.0
LIVT 222355Z AUTO 08003KT //// 18/16 Q1021,LIVT,2022-10-22T23:55:00Z,45.68,13.75,18.0,16.0,80,3,,,30.147638,,,TRUE,,,,,,,,,,,,,,,,,,,,,,,,,,,,METAR,20.0
LIVP 222355Z 18008KT 0000 FG VV/// 06/06 Q1024 RMK MON INVIS VAL INVIS VIS MIN 0000,LIVP,2022-10-22T23:55:00Z,46.15,11.03,6.0,6.0,180,8,,0.0,30.236221,,,,,,,,,,FG,OVX,0,,,,,,,LIFR,,,,,,,,,,,,METAR,2099.0
LIVM 222355Z AUTO /////KT //// ///// Q////,LIVM,2022-10-22T23:55:00Z,44.45,12.3,,,,,,,,,,TRUE,,,,,,,,,,,,,,,,,,,,,,,,,,,,METAR,6.0
LIVF 222355Z 24004KT 9999 FEW026 18/12 Q1021 RMK BKN SCT120 MON S W CIME INC NC VAL NIL VIS MIN 9999,LIVF,2022-10-22T23:55:00Z,43.52,12.72,18.0,12.0,240,4,,6.21,30.147638,,,,,,,,,,,FEW,2600,,,,,,,VFR,,,,,,,,,,,,METAR,549.0
LIVE 222355Z 09001KT CAVOK 05/03 Q1024 RMK SKC VIS MIN 9999,LIVE,2022-10-22T23:55:00Z,46.82,10.5,5.0,3.0,90,1,,6.21,30.236221,,,,,,,,,,,CAVOK,,,,,,,,VFR,,,,,,,,,,,,METAR,1684.0
LIVD 222355Z AUTO VRB02KT //// 07/06 Q1026,LIVD,2022-10-22T23:55:00Z,46.72,12.22,7.0,6.0,0,2,,,30.295275,,,TRUE,,,,,,,,,,,,,,,,,,,,,,,,,,,,METAR,1221.0
LIRS 222355Z 14009KT 9999 FEW017 21/20 Q1022 RMK BKN BKN070 VIS MIN 9999 WIND THR03 14010KT WIND THR21 14008KT BLU,LIRS,2022-10-22T23:55:00Z,42.75,11.07,21.0,20.0,140,9,,6.21,30.177166,,,,,,,,,,,FEW,1700,,,,,,,VFR,,,,,,,,,,,,SPECI,3.0
LIRM 222355Z 34002KT 3000 BR FEW010 15/15 Q1025 RMK BKN BKN200 VIS MIN 3000 WIND THR06 34002KT YLO,LIRM,2022-10-22T23:55:00Z,41.05,14.07,15.0,15.0,340,2,,1.86,30.265747,,,,,,,,,,BR,FEW,1000,,,,,,,IFR,,,,,,,,,,,,METAR,6.0
LIRK 222355Z AUTO 27010KT 240V310 //// 10/M05 Q1030,LIRK,2022-10-22T23:55:00Z,42.47,12.97,10.0,-5.0,270,10,,,30.413385,,,TRUE,,,,,,,,,,,,,,,,,,,,,,,,,,,,METAR,1721.0
LIRE 222355Z 11009KT 9999 BKN030 21/19 Q1023 RMK BKN VIS MIN 9999 WIND THR13 14008KT WIND THR31 /////KT BLU,LIRE,2022-10-22T23:55:00Z,41.65,12.43,21.0,19.0,110,9,,6.21,30.206694,,,,,,,,,,,BKN,3000,,,,,,,MVFR,,,,,,,,,,,,METAR,16.0
LIQO 222355Z AUTO /////KT //// ///// Q////,LIQO,2022-10-22T23:55:00Z,42.38,11.17,,,,,,,,,,TRUE,,,,,,,,,,,,,,,,,,,,,,,,,,,,METAR,627.0
LIQC 222355Z 00000KT CAVOK 18/17 Q1024 RMK SCT SCT200 QUK / QUL / VIS MAR 10 KM VIS MIN 9999,LIQC,2022-10-22T23:55:00Z,40.55,14.2,18.0,17.0,0,0,,6.21,30.236221,,,,,,,,,,,CAVOK,,,,,,,,VFR,,,,,,,,,,,,SPECI,154.0
LIPS 222355Z /////KT 9999 SCT060 16/14 Q1021 RMK SCT VIS MIN 9999 WIND THR26 00000KT WIND THR08 00000KT BLU,LIPS,2022-10-22T23:55:00Z,45.68,12.1,16.0,14.0,,,,6.21,30.147638,,,,,,,,,,,SCT,6000,,,,,,,VFR,,,,,,,,,,,,SPECI,42.0
LIPL 222355Z 07008KT CAVOK 17/15 Q1020 RMK SKC VIS MIN 9999 WIND THR31 06008KT WIND THR13 07008KT BLU,LIPL,2022-10-22T23:55:00Z,45.42,10.27,17.0,15.0,70,8,,6.21,30.11811,,,,,,,,,,,CAVOK,,,,,,,,VFR,,,,,,,,,,,,METAR,96.0
LIPI 222355Z 35006KT 9999 FEW020 14/11 Q1021 RMK FEW VIS MIN 9999 WIND THR06 03006KT WIND THR24 01005KT BLU,LIPI,2022-10-22T23:55:00Z,45.97,13.05,14.0,11.0,350,6,,6.21,30.147638,,,,,,,,,,,FEW,2000,,,,,,,VFR,,,,,,,,,,,,METAR,49.0
LIPC 222355Z 17002KT CAVOK 16/14 Q1020 RMK FEW FEW130 VIS MIN 9999 WIND THR11 19002KT WIND THR29 17002KT BLU,LIPC,2022-10-22T23:55:00Z,44.22,12.3,16.0,14.0,170,2,,6.21,30.11811,,,,,,,,,,,CAVOK,,,,,,,,VFR,,,,,,,,,,,,METAR,10.0
LIMU 222355Z 18006KT 9999 FEW030 17/14 Q1020 RMK SCT SCT200 QUK / QUL / VIS MAR 20 KM VIS MIN 9999,LIMU,2022-10-22T23:55:00Z,43.95,8.17,17.0,14.0,180,6,,6.21,30.11811,,,,,,,,,,,FEW,3000,,,,,,,VFR,,,,,,,,,,,,METAR,215.0
LIED 222355Z 13004KT 8000 FEW008 19/17 Q1020 RMK FEW VIS MIN 8000 WIND THR35 /////KT WIND THR17 13003KT BLU,LIED,2022-10-22T23:55:00Z,39.35,8.97,19.0,17.0,130,4,,4.97,30.11811,,,,,,,,,,,FEW,800,,,,,,,MVFR,,,,,,,,,,,,METAR,26.0
LIEB 222355Z 21011KT CAVOK 19/16 Q1021 RMK SCT SCT200 QUK / QUL / VIS MAR 20 KM MON INVIS VIS MIN 9999,LIEB,2022-10-22T23:55:00Z,39.93,9.72,19.0,16.0,210,11,,6.21,30.147638,,,,,,,,,,,CAVOK,,,,,,,,VFR,,,,,,,,,,,,METAR,126.0
LICZ 222355Z /////KT CAVOK 20/16 Q1023 RMK SKC VIS MIN 9999 WIND THR28 26003KT WIND THR10 30005KT A3023 BLU,LICZ,2022-10-22T23:55:00Z,37.4,14.92,20.0,16.0,,,,6.21,30.206694,,,,,,,,,,,CAVOK,,,,,,,,VFR,,,,,,,,,,,,SPECI,22.0
LICT 222355Z 13007KT CAVOK 18/16 Q1023 RMK SKC VIS MIN 9999 WIND THR13 13007KT BLU,LICT,2022-10-22T23:55:00Z,37.92,12.5,18.0,16.0,130,7,,6.21,30.206694,,,,,,,,,,,CAVOK,,,,,,,,VFR,,,,,,,,,,,,SPECI,4.0
LICF 222355Z 28004KT CAVOK 20/15 Q1023 RMK FEW FEW200 QUK / QUL / VIS MAR 20 KM MON INVIS NC VIS MIN 9999,LICF,2022-10-22T23:55:00Z,38.2,15.55,20.0,15.0,280,4,,6.21,30.206694,,,,,,,,,,,CAVOK,,,,,,,,VFR,,,,,,,,,,,,SPECI,66.0
LIBV 222355Z 19001KT 0300 FG NSC 16/16 Q1022 RMK SKC VIS MIN 0300 WIND THR32 15002KT WIND THR14 22001KT,LIBV,2022-10-22T23:55:00Z,40.77,16.93,16.0,16.0,190,1,,0.19,30.177166,,,,,,,,,,FG,CLR,,,,,,,,LIFR,,,,,,,,,,,,SPECI,344.0
LIBQ 222355Z AUTO 08006KT //// 17/00 Q1031,LIBQ,2022-10-22T23:55:00Z,39.32,16.38,17.0,0.0,80,6,,,30.442913,,,TRUE,,,,,,,,,,,,,,,,,,,,,,,,,,,,METAR,1660.0
LIBN 222355Z 10004KT 3000 BR SCT008 15/14 Q1023 RMK SCT VIS MIN 3000 WIND THR14 10003KT WIND THR32 10003KT YLO,LIBN,2022-10-22T23:55:00Z,40.23,18.13,15.0,14.0,100,4,,1.86,30.206694,,,,,,,,,,BR,SCT,800,,,,,,,IFR,,0.3,,,,,,,,,,SPECI,46.0
LIBA 222355Z 25005KT CAVOK 15/13 Q1022 RMK FEW FEW220 VIS MIN 9999 WIND THR11 25006KT WIND THR29 /////KT BLU,LIBA,2022-10-22T23:55:00Z,41.53,15.72,15.0,13.0,250,5,,6.21,30.177166,,,,,,,,,,,CAVOK,,,,,,,,VFR,,,,,,,,,,,,METAR,55.0
KXNO 222355Z AUTO 03003KT 10SM CLR 13/08 A3014 RMK AO2 SLP210 T01340080 10234 20134 53001 $,KXNO,2022-10-22T23:55:00Z,33.62,-81.07,13.4,8.0,30,3,,10.0,30.138779,1021.0,,TRUE,TRUE,TRUE,,,,,,CLR,,,,,,,,VFR,0.1,23.4,13.4,,,,,,,,,METAR,94.0
KXMR 222355Z AUTO 36008KT 10SM CLR 22/19 A3001 RMK AO2 SLP165 T02230189 10270 20223 58001 $,KXMR,2022-10-22T23:55:00Z,28.47,-80.57,22.3,18.9,360,8,,10.0,30.008858,1016.5,,TRUE,TRUE,TRUE,,,,,,CLR,,,,,,,,VFR,-0.1,27.0,22.3,,,,,,,,,METAR,5.0
KXIF 222355Z AUTO 00000KT 9SM CLR 10/05 A3023 RMK AO2 SLP245 T00960048 10193 20095 53009 $,KXIF,2022-10-22T23:55:00Z,,,9.6,4.8,0,0,,9.0,30.230314,1024.5,,TRUE,TRUE,TRUE,,,,,,CLR,,,,,,,,VFR,0.9,19.3,9.5,,,,,,,,,METAR,
KWRI 222355Z 00000KT 10SM CLR 10/07 A3026 RMK AO2A SLP248 T01000067 10215 20100 52007 $,KWRI,2022-10-22T23:55:00Z,40.02,-74.58,10.0,6.7,0,0,,10.0,30.259842,1024.8,,,TRUE,TRUE,,,,,,CLR,,,,,,,,VFR,0.7,21.5,10.0,,,,,,,,,METAR,35.0
KWRB 222355Z 00000KT 10SM FEW250 14/08 A3011 RMK AO2A SLP200 T01380080 10241 20138 58000,KWRB,2022-10-22T23:55:00Z,32.63,-83.58,13.8,8.0,0,0,,10.0,30.109253,1020.0,,,TRUE,,,,,,,FEW,25000,,,,,,,VFR,0.0,24.1,13.8,,,,,,,,,METAR,82.0
KVPS 222355Z AUTO 00000KT 10SM CLR 19/09 A3006 RMK AO2 SLP186 T01850085 10240 20185 55001 $,KVPS,2022-10-22T23:55:00Z,30.47,-86.52,18.5,8.5,0,0,,10.0,30.059055,1018.6,,TRUE,TRUE,TRUE,,,,,,CLR,,,,,,,,VFR,-0.1,24.0,18.5,,,,,,,,,METAR,21.0
KVOK 222355Z AUTO 14005KT 10SM CLR 19/08 A2965 RMK AO2 SLP047 T01940084 10262 20194 52012,KVOK,2022-10-22T23:55:00Z,43.93,-90.27,19.4,8.4,140,5,,10.0,29.648623,1004.7,,TRUE,TRUE,,,,,,,CLR,,,,,,,,VFR,1.2,26.2,19.4,,,,,,,,,METAR,278.0
KVAD 222355Z AUTO 00000KT 10SM CLR 13/06 A3008 RMK AO2 SLP189 T01330064 10238 20133 55000 $,KVAD,2022-10-22T23:55:00Z,30.97,-83.2,13.3,6.4,0,0,,10.0,30.079725,1018.9,,TRUE,TRUE,TRUE,,,,,,CLR,,,,,,,,VFR,0.0,23.8,13.3,,,,,,,,,METAR,70.0
KUGN 222355Z 18009KT 10SM CLR 22/11 A2980 RMK AO2 SLP086 T02170106 10250 20183 53014,KUGN,2022-10-22T23:55:00Z,42.42,-87.87,21.7,10.6,180,9,,10.0,29.799213,1008.6,,,TRUE,,,,,,,CLR,,,,,,,,VFR,1.4,25.0,18.3,,,,,,,,,METAR,217.0
KUBE 222355Z AUTO 14004KT 10SM CLR 17/10 A2960 RMK AO2,KUBE,2022-10-22T23:55:00Z,45.5,-91.98,17.0,10.0,140,4,,10.0,29.601377,,,TRUE,TRUE,,,,,,,CLR,,,,,,,,VFR,,,,,,,,,,,,METAR,376.0
KTTS 222355Z AUTO 01008KT 10SM CLR 21/18 A3002 RMK AO2 VIS 1 RWY15/33 SLP170 T02100180 10264 20209 55002 $,KTTS,2022-10-22T23:55:00Z,28.58,-80.67,21.0,18.0,10,8,,10.0,30.02067,1017.0,,TRUE,TRUE,TRUE,,,,,,CLR,,,,,,,,VFR,-0.2,26.4,20.9,,,,,,,,,METAR,1.0
KTIK 222355Z AUTO 18014KT 10SM CLR 28/10 A2955 RMK AO2 SLP000 T02830100 10325 20264 53007,KTIK,2022-10-22T23:55:00Z,35.4,-97.38,28.3,10.0,180,14,,10.0,29.551182,1000.0,,TRUE,TRUE,,,,,,,CLR,,,,,,,,VFR,0.7,32.5,26.4,,,,,,,,,METAR,387.0
KTDR 222355Z AUTO 00000KT 10SM CLR 17/13 A3005 RMK AO2 SLP180 T01710134 10276 20171 55000 $,KTDR,2022-10-22T23:55:00Z,30.05,-85.52,17.1,13.4,0,0,,10.0,30.050198,1018.0,,TRUE,TRUE,TRUE,,,,,,CLR,,,,,,,,VFR,0.0,27.6,17.1,,,,,,,,,METAR,4.0
KTBN 222355Z AUTO 15017G28KT 10SM FEW220 22/10 A2975 RMK AO2 SLP071 T02160095 10265 20214 53007,KTBN,2022-10-22T23:55:00Z,37.73,-92.13,21.6,9.5,150,17,28,10.0,29.749016,1007.1,,TRUE,TRUE,,,,,,,FEW,22000,,,,,,,VFR,0.7,26.5,21.4,,,,,,,,,METAR,349.0
KT70 222355Z AUTO 02007KT 8SM CLR 26/15 A2980 RMK AO2 SLP081 T02630153 10294 20241 55003 $,KT70,2022-10-22T23:55:00Z,29.12,-100.48,26.3,15.3,20,7,,8.0,29.799213,1008.1,,TRUE,TRUE,TRUE,,,,,,CLR,,,,,,,,VFR,-0.3,29.4,24.1,,,,,,,,,METAR,296.0
KSZL 222355Z 16010G19KT 10SM CLR 24/11 A2959 RMK AO2A SLP017 T02430106 10292 20243 52016,KSZL,2022-10-22T23:55:00Z,38.73,-93.53,24.3,10.6,160,10,19,10.0,29.589567,1001.7,,,TRUE,,,,,,,CLR,,,,,,,,VFR,1.6,29.2,24.3,,,,,,,,,SPECI,259.0
KSXS 222355Z AUTO 00000KT 10SM CLR 18/08 A3009 RMK AO2 SLP191 T01760076 10240 20176 55000 $,KSXS,2022-10-22T23:55:00Z,31.37,-85.85,17.6,7.6,0,0,,10.0,30.088583,1019.1,,TRUE,TRUE,TRUE,,,,,,CLR,,,,,,,,VFR,0.0,24.0,17.6,,,,,,,,,METAR,120.0
KSVN 222355Z AUTO 00000KT 10SM CLR 15/08 A3009 RMK AO2 SLP193 T01510079 10239 20150 53004 $,KSVN,2022-10-22T23:55:00Z,32.02,-81.12,15.1,7.9,0,0,,10.0,30.088583,1019.3,,TRUE,TRUE,TRUE,,,,,,CLR,,,,,,,,VFR,0.4,23.9,15.0,,,,,,,,,METAR,13.0
KSSC 222355Z AUTO 00000KT 10SM CLR 15/09 A3013 RMK AO2 SLP205 T01470093 10239 20145 53005 $,KSSC,2022-10-22T23:55:00Z,33.97,-80.47,14.7,9.3,0,0,,10.0,30.129921,1020.5,,TRUE,TRUE,TRUE,,,,,,CLR,,,,,,,,VFR,0.5,23.9,14.5,,,,,,,,,METAR,71.0
KSKF 222355Z AUTO 15010KT 10SM CLR 27/14 A2982 RMK AO2 SLP093 T02730143 10307 20273 53001 $,KSKF,2022-10-22T23:55:00Z,29.38,-98.57,27.3,14.3,150,10,,10.0,29.819881,1009.3,,TRUE,TRUE,TRUE,,,,,,CLR,,,,,,,,VFR,0.1,30.7,27.3,,,,,,,,,METAR,214.0
KSKA 222355Z 34004KT 10SM BKN080 08/M01 A2960 RMK AO2A SLP251 60000 T00841014 10101 20052 $,KSKA,2022-10-22T23:55:00Z,47.62,-117.67,8.4,-1.4,340,4,,10.0,29.601377,1025.1,,,TRUE,TRUE,,,,,,BKN,8000,,,,,,,VFR,,10.1,5.2,,,,,0.005,,,,METAR,754.0
KSEQ 222355Z AUTO 17014KT 9SM CLR 27/15 A2982 RMK AO2 SLP095 T02680152 10309 20268 53002 $,KSEQ,2022-10-22T23:55:00Z,29.57,-97.9,26.8,15.2,170,14,,9.0,29.819881,1009.5,,TRUE,TRUE,TRUE,,,,,,CLR,,,,,,,,VFR,0.2,30.9,26.8,,,,,,,,,METAR,160.0
KSCK 222355Z 28012KT 10SM FEW070 23/06 A2969 RMK AO2 SLP052 T02330056 10250 20211 58009,KSCK,2022-10-22T23:55:00Z,37.88,-121.22,23.3,5.6,280,12,,10.0,29.68996,1005.2,,,TRUE,,,,,,,FEW,7000,,,,,,,VFR,-0.9,25.0,21.1,,,,,,,,,METAR,8.0
KRYM 222355Z AUTO 13010KT 10SM CLR 18/05 A2947 RMK AO2 SLP986 T01830045 10226 20183 52011 $,KRYM,2022-10-22T23:55:00Z,46.08,-94.37,18.3,4.5,130,10,,10.0,29.471457,998.6,,TRUE,TRUE,TRUE,,,,,,CLR,,,,,,,,VFR,1.1,22.6,18.3,,,,,,,,,METAR,344.0
KRNO 222355Z 35022G30KT 10SM BKN040 11/M12 A2971 RMK AO2 PK WND 34030/2353 SLP024 BR SE-SW 60000 T01111122 10172 20094 50005,KRNO,2022-10-22T23:55:00Z,39.5,-119.77,11.1,-12.2,350,22,30,10.0,29.71063,1002.4,,,TRUE,,,,,,,BKN,4000,,,,,,,VFR,0.5,17.2,9.4,,,,,0.005,,,,METAR,1344.0
KRND 222355Z AUTO 16009KT 10SM CLR 27/14 A2982 RMK AO2 SLP092 T02730136 10304 20273 55000,KRND,2022-10-22T23:55:00Z,29.53,-98.27,27.3,13.6,160,9,,10.0,29.819881,1009.2,,TRUE,TRUE,,,,,,,CLR,,,,,,,,VFR,0.0,30.4,27.3,,,,,,,,,METAR,224.0
KRIV 222355Z AUTO 18015KT 10SM BKN038 19/10 A2974 RMK AO2 SLP062 T01910096 10220 20191 56008,KRIV,2022-10-22T23:55:00Z,33.87,-117.23,19.1,9.6,180,15,,10.0,29.740158,1006.2,,TRUE,TRUE,,,,,,,BKN,3800,,,,,,,VFR,-0.8,22.0,19.1,,,,,,,,,METAR,454.0
KRDR 222355Z AUTO 04009KT 10SM BKN140 12/04 A2950 RMK AO2 SLP998 T01200040 10148 20120 53011 CHINO RWY17 $,KRDR,2022-10-22T23:55:00Z,47.93,-97.4,12.0,4.0,40,9,,10.0,29.500984,999.8,,TRUE,TRUE,TRUE,,,,,,BKN,14000,,,,,,,VFR,1.1,14.8,12.0,,,,,,,,,METAR,276.0
KRCA 222355Z AUTO 12006KT 10SM CLR 14/03 A2939 RMK AO2 SLP950 T01380030 10182 20100 50009 $,KRCA,2022-10-22T23:55:00Z,44.15,-103.12,13.8,3.0,120,6,,10.0,29.388779,995.0,,TRUE,TRUE,TRUE,,,,,,CLR,,,,,,,,VFR,0.9,18.2,10.0,,,,,,,,,METAR,993.0
KQVF 222355Z AUTO 00000KT 9999 FEW018 SCT025 23/23 A2997 RMK AO2 SLP151 WND DATA ESTMD T02310225 10246 20231 57015,KQVF,2022-10-22T23:55:00Z,,,23.1,22.5,0,0,,6.21,29.970472,1015.1,,TRUE,TRUE,,,,,,,FEW,1800,SCT,2500,,,,,VFR,-1.5,24.6,23.1,,,,,,,,,METAR,
KQTZ 222355Z 35003KT 9999 BKN150 22/11 A2996 RMK SLP144 WND DATA ESTMD ALSTG/SLP ESTMD 58007,KQTZ,2022-10-22T23:55:00Z,,,22.0,11.0,350,3,,6.21,29.958662,1014.4,,,,,,,,,,BKN,15000,,,,,,,VFR,-0.7,,,,,,,,,,,SPECI,
KQRH 222355Z AUTO VRB04KT 9999 FEW024 SCT045 29/23 A2989 RMK AO2 SLP124 WND DATA ESTMD T02870227 10292 20286 57012,KQRH,2022-10-22T23:55:00Z,,,28.7,22.7,0,4,,6.21,29.890747,1012.4,,TRUE,TRUE,,,,,,,FEW,2400,SCT,4500,,,,,VFR,-1.2,29.2,28.6,,,,,,,,,METAR,
KQN3 222355Z AUTO 00000KT 9999 CLR 28/12 A2996 RMK AO2 SLP129 T02760120 10351 20277 403820237 58003 $,KQN3,2022-10-22T23:55:00Z,,,27.6,12.0,0,0,,6.21,29.958662,1012.9,,TRUE,TRUE,TRUE,,,,,,CLR,,,,,,,,VFR,-0.3,35.1,27.7,38.2,23.7,,,,,,,METAR,
KQD3 222355Z AUTO 00000KT 9999 FEW021 28/23 A2994 RMK AO2 SLP123 WND DATA ESTMD T02760228 10286 20276,KQD3,2022-10-22T23:55:00Z,,,27.6,22.8,0,0,,6.21,29.940945,1012.3,,TRUE,TRUE,,,,,,,FEW,2100,,,,,,,VFR,,28.6,27.6,,,,,,,,,METAR,
KQBL 222355Z AUTO 00000KT 10SM CLR 17/10 A3009 RMK AO2 SLP196 WND DATA ESTMD T01650102 10230 20165 55000,KQBL,2022-10-22T23:55:00Z,,,16.5,10.2,0,0,,10.0,30.088583,1019.6,,TRUE,TRUE,,,,,,,CLR,,,,,,,,VFR,0.0,23.0,16.5,,,,,,,,,METAR,
KQAZ 222355Z AUTO 08004KT 9999 CLR 26/00 A3005 RMK AO2 SLP173 WND DATA ESTMD T02560001 10298 20247 58002,KQAZ,2022-10-22T23:55:00Z,,,25.6,0.1,80,4,,6.21,30.050198,1017.3,,TRUE,TRUE,,,,,,,CLR,,,,,,,,VFR,-0.2,29.8,24.7,,,,,,,,,METAR,
KPSM 222355Z 00000KT 10SM SCT250 12/09 A3027 RMK AO2A SLP253 T01150089 10206 20115 52012,KPSM,2022-10-22T23:55:00Z,43.08,-70.82,11.5,8.9,0,0,,10.0,30.268702,1025.3,,,TRUE,,,,,,,SCT,25000,,,,,,,VFR,1.2,20.6,11.5,,,,,,,,,METAR,34.0
KPOE 222355Z AUTO 17015KT 9SM CLR 23/15 A2994 RMK AO2 SLP139 T02330151 10282 20233 53003,KPOE,2022-10-22T23:55:00Z,31.05,-93.2,23.3,15.1,170,15,,9.0,29.940945,1013.9,,TRUE,TRUE,,,,,,,CLR,,,,,,,,VFR,0.3,28.2,23.3,,,,,,,,,METAR,98.0
KPOB 222355Z AUTO 00000KT 10SM CLR 14/11 A3015 RMK AO2 SLP213 T01430105 10233 20143 53006 $,KPOB,2022-10-22T23:55:00Z,35.17,-79.02,14.3,10.5,0,0,,10.0,30.15059,1021.3,,TRUE,TRUE,TRUE,,,,,,CLR,,,,,,,,VFR,0.6,23.3,14.3,,,,,,,,,METAR,57.0
KPHP 222355Z AUTO 07007KT 10SM CLR 11/03 A2941 RMK AO2 SLP958 T01110033 10178 20111 53003,KPHP,2022-10-22T23:55:00Z,44.05,-101.6,11.1,3.3,70,7,,10.0,29.409449,995.8,,TRUE,TRUE,,,,,,,CLR,,,,,,,,VFR,0.3,17.8,11.1,,,,,,,,,METAR,673.0
KPAM 222355Z AUTO 00000KT 10SM CLR 17/10 A3007 RMK AO2 SLP186 T01720098 10254 20172 55000 $,KPAM,2022-10-22T23:55:00Z,30.07,-85.57,17.2,9.8,0,0,,10.0,30.070866,1018.6,,TRUE,TRUE,TRUE,,,,,,CLR,,,,,,,,VFR,0.0,25.4,17.2,,,,,,,,,METAR,4.0
KP58 222355Z AUTO 16007KT 17/09 A2995 RMK AO1 SLP141 T01720094 10233 20172 53020,KP58,2022-10-22T23:55:00Z,44.02,-82.8,17.2,9.4,160,7,,,29.949802,1014.1,,TRUE,TRUE,,,,,,,,,,,,,,,,2.0,23.3,17.2,,,,,,,,,SPECI,180.0
KOZR 222355Z AUTO 03004KT 10SM CLR 18/05 A3008 RMK AO2 SLP188 T01790048 10243 20175 55001 $,KOZR,2022-10-22T23:55:00Z,31.28,-85.72,17.9,4.8,30,4,,10.0,30.079725,1018.8,,TRUE,TRUE,TRUE,,,,,,CLR,,,,,,,,VFR,-0.1,24.3,17.5,,,,,,,,,METAR,90.0
KOFF 222355Z 14009KT 8SM CLR 22/07 A2954 RMK AO2A SLP005 T02230073 10277 20223 52012 PWINO PNO FZRANO TSNO VISNO RWY13 $,KOFF,2022-10-22T23:55:00Z,41.12,-95.92,22.3,7.3,140,9,,8.0,29.53937,1000.5,,,TRUE,TRUE,,TRUE,TRUE,TRUE,,CLR,,,,,,,,VFR,1.2,27.7,22.3,,,,,,,,,METAR,308.0
KNKX 222355Z 24008KT 10SM SCT023 SCT028 OVC035 18/13 A2979 RMK AO2 SLP083 T01780128 10217 20178 56005,KNKX,2022-10-22T23:55:00Z,32.87,-117.13,17.8,12.8,240,8,,10.0,29.790354,1008.3,,,TRUE,,,,,,,SCT,2300,SCT,2800,OVC,3500,,,VFR,-0.5,21.7,17.8,,,,,,,,,METAR,138.0
KNBG 222355Z AUTO 12005KT 10SM CLR 21/16 A3005 RMK AO2 SLP173 T02110161 10261 20211 56003 $,KNBG,2022-10-22T23:55:00Z,29.83,-90.02,21.1,16.1,120,5,,10.0,30.050198,1017.3,,TRUE,TRUE,TRUE,,,,,,CLR,,,,,,,,VFR,-0.3,26.1,21.1,,,,,,,,,METAR,0.0
KMXF 222355Z AUTO 00000KT 10SM CLR 16/08 A3007 RMK AO2 SLP185 T01640076 10244 20161 55003,KMXF,2022-10-22T23:55:00Z,32.38,-86.37,16.4,7.6,0,0,,10.0,30.070866,1018.5,,TRUE,TRUE,,,,,,,CLR,,,,,,,,VFR,-0.3,24.4,16.1,,,,,,,,,METAR,47.0
KMUI 222355Z AUTO 00000KT 10SM CLR 10/05 A3022 RMK AO2 SLP240 T01040045 10197 20104 53007,KMUI,2022-10-22T23:55:00Z,40.43,-76.57,10.4,4.5,0,0,,10.0,30.221457,1024.0,,TRUE,TRUE,,,,,,,CLR,,,,,,,,VFR,0.7,19.7,10.4,,,,,,,,,METAR,146.0
KMTN 222355Z 00000KT 10SM CLR 12/08 A3026,KMTN,2022-10-22T23:55:00Z,39.32,-76.42,12.0,8.0,0,0,,10.0,30.259842,,,,,,,,,,,CLR,,,,,,,,VFR,,,,,,,,,,,,METAR,2.0
KMMT 222355Z AUTO 00000KT 10SM CLR 13/12 A3012 RMK AO2 SLP204 T01290116 10234 20129 53003 $,KMMT,2022-10-22T23:55:00Z,33.92,-80.8,12.9,11.6,0,0,,10.0,30.121063,1020.4,,TRUE,TRUE,TRUE,,,,,,CLR,,,,,,,,VFR,0.3,23.4,12.9,,,,,,,,,METAR,76.0
KMKG 222355Z 14008KT 10SM FEW250 21/09 A2986 RMK AO2 SLP112 T02110094 10261 20211 53013,KMKG,2022-10-22T23:55:00Z,43.17,-86.23,21.1,9.4,140,8,,10.0,29.861221,1011.2,,,TRUE,,,,,,,FEW,25000,,,,,,,VFR,1.3,26.1,21.1,,,,,,,,,METAR,190.0
KMIB 222355Z 09012G18KT 10SM BKN120 08/04 A2954 RMK AO2A SLP018 60000 T00820044 10098 20072 53009 $,KMIB,2022-10-22T23:55:00Z,48.42,-101.35,8.2,4.4,90,12,18,10.0,29.53937,1001.8,,,TRUE,TRUE,,,,,,BKN,12000,,,,,,,VFR,0.9,9.8,7.2,,,,,0.005,,,,METAR,505.0
KMGE 222355Z AUTO 00000KT 10SM CLR 15/05 A3012 RMK AO2 SLP202 T01540053 10226 20149 55002 $,KMGE,2022-10-22T23:55:00Z,33.92,-84.52,15.4,5.3,0,0,,10.0,30.121063,1020.2,,TRUE,TRUE,TRUE,,,,,,CLR,,,,,,,,VFR,-0.2,22.6,14.9,,,,,,,,,METAR,309.0
KMCF 222355Z AUTO 31006KT 10SM CLR 21/16 A2999 RMK AO2 SLP158 T02060160 10261 20205 53002 FZRANO $,KMCF,2022-10-22T23:55:00Z,27.85,-82.52,20.6,16.0,310,6,,10.0,29.991142,1015.8,,TRUE,TRUE,TRUE,,,TRUE,,,CLR,,,,,,,,VFR,0.2,26.1,20.5,,,,,,,,,METAR,3.0
KLUF 222355Z AUTO 22017KT 10SM CLR 29/12 A2958 RMK AO2 SLP006 T02920117 10304 20266 56015 $,KLUF,2022-10-22T23:55:00Z,33.53,-112.37,29.2,11.7,220,17,,10.0,29.58071,1000.6,,TRUE,TRUE,TRUE,,,,,,CLR,,,,,,,,VFR,-1.5,30.4,26.6,,,,,,,,,METAR,333.0
KLTS 222355Z AUTO 19011KT 10SM CLR 29/09 A2957 RMK AO2 PK WND 22026/2256 SLP999 T02850087 10349 20285 53004 $,KLTS,2022-10-22T23:55:00Z,34.67,-99.27,28.5,8.7,190,11,,10.0,29.568897,999.9,,TRUE,TRUE,TRUE,,,,,,CLR,,,,,,,,VFR,0.4,34.9,28.5,,,,,,,,,METAR,416.0
KLSF 222355Z AUTO 00000KT 10SM CLR 12/09 M RMK AO2 SLPNO T01240085 10247 20124 CHINO RWY15 $,KLSF,2022-10-22T23:55:00Z,32.32,-84.97,12.4,8.5,0,0,,10.0,,,,TRUE,TRUE,TRUE,,,,,,CLR,,,,,,,,VFR,,24.7,12.4,,,,,,,,,METAR,68.0
KLOR 222355Z AUTO 00000KT 10SM CLR 14/09 A3009 RMK AO2 SLP174 T01390091 10240 20139 55000 $,KLOR,2022-10-22T23:55:00Z,31.35,-85.75,13.9,9.1,0,0,,10.0,30.088583,1017.4,,TRUE,TRUE,TRUE,,,,,,CLR,,,,,,,,VFR,0.0,24.0,13.9,,,,,,,,,METAR,92.0
KLLJ 222355Z AUTO 29010KT 10SM FEW075 OVC100 03/M02 A2953 RMK AO2 UPB40E49SNB38E40 SLP982 P0000 60003 T00331017 10094 20017 53024 $,KLLJ,2022-10-22T23:55:00Z,44.52,-114.22,3.3,-1.7,290,10,,10.0,29.530512,998.2,,TRUE,TRUE,TRUE,,,,,,FEW,7500,OVC,10000,,,,,VFR,2.4,9.4,1.7,,,0.005,,0.03,,,,METAR,1535.0
KLIC 222355Z AUTO 20008KT 10SM CLR 21/M11 A2949 RMK AO2 SLP934 T02111111 10261 20211 56007,KLIC,2022-10-22T23:55:00Z,39.27,-103.67,21.1,-11.1,200,8,,10.0,29.489174,993.4,,TRUE,TRUE,,,,,,,CLR,,,,,,,,VFR,-0.7,26.1,21.1,,,,,,,,,METAR,1635.0
KLHW 222355Z AUTO 00000KT 10SM CLR 14/09 A3009 RMK AO2 SLP193 T01350088 10236 20135 53004 $,KLHW,2022-10-22T23:55:00Z,31.88,-81.57,13.5,8.8,0,0,,10.0,30.088583,1019.3,,TRUE,TRUE,TRUE,,,,,,CLR,,,,,,,,VFR,0.4,23.6,13.5,,,,,,,,,METAR,14.0
KLGF 222355Z AUTO 19012KT M M FEW075 29/13 A2959 RMK AO2 SLP017 T02860133 10311 20286 57009 RVRNO PWINO TSNO $,KLGF,2022-10-22T23:55:00Z,32.87,-114.4,28.6,13.3,190,12,,,29.589567,1001.7,,TRUE,TRUE,TRUE,,TRUE,,TRUE,,FEW,7500,,,,,,,,-0.9,31.1,28.6,,,,,,,,,METAR,118.0
KLCK 222355Z AUTO 15005KT 10SM CLR 18/09 A3008 RMK AO2 T01770087 10246 20177,KLCK,2022-10-22T23:55:00Z,39.82,-82.92,17.7,8.7,150,5,,10.0,30.079725,,,TRUE,TRUE,,,,,,,CLR,,,,,,,,VFR,,24.6,17.7,,,,,,,,,METAR,225.0
KIRK 222355Z AUTO 10SM CLR 22/08 A2966 RMK AO2 SLP041 T02220078 10306 20206 53020 $,KIRK,2022-10-22T23:55:00Z,40.1,-92.55,22.2,7.8,,,,10.0,29.660433,1004.1,,TRUE,TRUE,TRUE,,,,,,CLR,,,,,,,,VFR,2.0,30.6,20.6,,,,,,,,,METAR,292.0
KINS 222355Z AUTO 00000KT 10SM CLR 23/01 A2938 RMK AO2 PK WND 18042/2256 SLP911 T02290007 10251 20208 55018 $,KINS,2022-10-22T23:55:00Z,36.58,-115.68,22.9,0.7,0,0,,10.0,29.379921,991.1,,TRUE,TRUE,TRUE,,,,,,CLR,,,,,,,,VFR,-1.8,25.1,20.8,,,,,,,,,METAR,954.0
KIAB 222355Z AUTO 19005KT 10SM CLR 27/01 A2947 RMK AO2 SLP971 T02680012 10302 20261 53003,KIAB,2022-10-22T23:55:00Z,37.62,-97.27,26.8,1.2,190,5,,10.0,29.471457,997.1,,TRUE,TRUE,,,,,,,CLR,,,,,,,,VFR,0.3,30.2,26.1,,,,,,,,,METAR,413.0
KHST 222355Z AUTO 03005KT 10SM CLR 23/18 A2997 RMK AO2 SLP152 T02250180 10285 20225 52009,KHST,2022-10-22T23:55:00Z,25.48,-80.37,22.5,18.0,30,5,,10.0,29.970472,1015.2,,TRUE,TRUE,,,,,,,CLR,,,,,,,,VFR,0.9,28.5,22.5,,,,,,,,,METAR,1.0
KHRT 222355Z 00000KT 10SM CLR 16/10 A3008 RMK AO2A SLP188 T01590102 10232 20159 55000 $,KHRT,2022-10-22T23:55:00Z,30.42,-86.68,15.9,10.2,0,0,,10.0,30.079725,1018.8,,,TRUE,TRUE,,,,,,CLR,,,,,,,,VFR,0.0,23.2,15.9,,,,,,,,,METAR,10.0
KHOP 222355Z AUTO 17004KT 10SM CLR 21/11 A3001 RMK AO2 SLP162 T02050114 10245 20205 53007,KHOP,2022-10-22T23:55:00Z,36.67,-87.5,20.5,11.4,170,4,,10.0,30.008858,1016.2,,TRUE,TRUE,,,,,,,CLR,,,,,,,,VFR,0.7,24.5,20.5,,,,,,,,,METAR,170.0
KHON 222355Z AUTO 36003KT 6SM HZ CLR 13/02 A2945 RMK AO2 SLP973 T01330017 10200 20133 53011,KHON,2022-10-22T23:55:00Z,44.38,-98.23,13.3,1.7,360,3,,6.0,29.450787,997.3,,TRUE,TRUE,,,,,,HZ,CLR,,,,,,,,VFR,1.1,20.0,13.3,,,,,,,,,METAR,391.0
KHMN 222355Z AUTO 19009KT 10SM SCT100 25/10 A2983 RMK AO2 SLP041 T02500097 10266 20250 57010 $,KHMN,2022-10-22T23:55:00Z,32.85,-106.1,25.0,9.7,190,9,,10.0,29.828741,1004.1,,TRUE,TRUE,TRUE,,,,,,SCT,10000,,,,,,,VFR,-1.0,26.6,25.0,,,,,,,,,METAR,1240.0
KHLR 222355Z AUTO 18012G18KT 6SM HZ CLR 27/12 A2980 RMK AO2 SLP082 60000 T02710123 10301 20271 50001,KHLR,2022-10-22T23:55:00Z,31.13,-97.72,27.1,12.3,180,12,18,6.0,29.799213,1008.2,,TRUE,TRUE,,,,,,HZ,CLR,,,,,,,,VFR,0.1,30.1,27.1,,,,,0.005,,,,METAR,271.0
KHFF 222355Z AUTO 00000KT 10SM CLR 14/10 A3014 RMK AO2 SLP210 T01360104 10234 20132 53005 $,KHFF,2022-10-22T23:55:00Z,35.03,-79.5,13.6,10.4,0,0,,10.0,30.138779,1021.0,,TRUE,TRUE,TRUE,,,,,,CLR,,,,,,,,VFR,0.5,23.4,13.2,,,,,,,,,METAR,100.0
KHEY 222355Z AUTO 01003KT 10SM CLR 15/10 A3007 RMK AO2 SLP185 T01510103 10247 20151 55000 $,KHEY,2022-10-22T23:55:00Z,31.35,-85.65,15.1,10.3,10,3,,10.0,30.070866,1018.5,,TRUE,TRUE,TRUE,,,,,,CLR,,,,,,,,VFR,0.0,24.7,15.1,,,,,,,,,METAR,95.0
KGXF 222355Z AUTO 21017G25KT 10SM CLR 29/12 A2961 RMK AO2 SLP016 T02870117 10317 20287 55007 FZRANO $,KGXF,2022-10-22T23:55:00Z,32.88,-112.72,28.7,11.7,210,17,25,10.0,29.610237,1001.6,,TRUE,TRUE,TRUE,,,TRUE,,,CLR,,,,,,,,VFR,-0.7,31.7,28.7,,,,,,,,,METAR,261.0
KGUS 222355Z AUTO 16007KT 10SM CLR 17/11 A2993 RMK AO2 SLP139 T01740105 10256 20174 53014 $,KGUS,2022-10-22T23:55:00Z,40.63,-86.15,17.4,10.5,160,7,,10.0,29.929134,1013.9,,TRUE,TRUE,TRUE,,,,,,CLR,,,,,,,,VFR,1.4,25.6,17.4,,,,,,,,,METAR,245.0
KGTB 222355Z AUTO 17009KT 10SM CLR 16/03 A3013 RMK AO2 SLP205 T01560031 10227 20151 52012,KGTB,2022-10-22T23:55:00Z,44.07,-75.72,15.6,3.1,170,9,,10.0,30.129921,1020.5,,TRUE,TRUE,,,,,,,CLR,,,,,,,,VFR,1.2,22.7,15.1,,,,,,,,,METAR,206.0
KGSB 222355Z 01003KT 10SM BKN200 18/10 A3013 RMK AO2A SLP206 T01800096 10244 20173 53005 $,KGSB,2022-10-22T23:55:00Z,35.33,-77.93,18.0,9.6,10,3,,10.0,30.129921,1020.6,,,TRUE,TRUE,,,,,,BKN,20000,,,,,,,VFR,0.5,24.4,17.3,,,,,,,,,METAR,33.0
KGRK 222355Z AUTO 16012KT 10SM CLR 27/12 A2977 RMK AO2 SLP072 T02700122 10299 20269 51001,KGRK,2022-10-22T23:55:00Z,31.07,-97.83,27.0,12.2,160,12,,10.0,29.769686,1007.2,,TRUE,TRUE,,,,,,,CLR,,,,,,,,VFR,0.1,29.9,26.9,,,,,,,,,METAR,311.0
KGRF 222355Z 06004KT 10SM FEW025 BKN044 12/05 A2977 RMK AO2A SLP085 60000 T01150051 10122 20084 52007 $,KGRF,2022-10-22T23:55:00Z,47.07,-122.57,11.5,5.1,60,4,,10.0,29.769686,1008.5,,,TRUE,TRUE,,,,,,FEW,2500,BKN,4400,,,,,VFR,0.7,12.2,8.4,,,,,0.005,,,,METAR,91.0
KFSI 222355Z AUTO 20015G18KT 10SM CLR 30/09 A2956 RMK AO2 SLP001 T02960086 10338 20296 52008,KFSI,2022-10-22T23:55:00Z,34.65,-98.4,29.6,8.6,200,15,18,10.0,29.56004,1000.1,,TRUE,TRUE,,,,,,,CLR,,,,,,,,VFR,0.8,33.8,29.6,,,,,,,,,METAR,360.0
KFRI 222355Z AUTO 15008KT 10SM CLR 25/07 A2948 RMK AO2 SLP974 T02540070 10294 20254 52007 FZRANO $,KFRI,2022-10-22T23:55:00Z,39.05,-96.77,25.4,7.0,150,8,,10.0,29.480314,997.4,,TRUE,TRUE,TRUE,,,TRUE,,,CLR,,,,,,,,VFR,0.7,29.4,25.4,,,,,,,,,METAR,232.0
KFHU 222355Z AUTO 21012G21KT 10SM FEW050 FEW110 23/11 A2987 RMK AO2 PK WND 21026/01 SLP056 T02280106 10278 20228 55006,KFHU,2022-10-22T23:55:00Z,31.58,-110.35,22.8,10.6,210,12,21,10.0,29.870079,1005.6,,TRUE,TRUE,,,,,,,FEW,5000,FEW,11000,,,,,VFR,-0.6,27.8,22.8,,,,,,,,,METAR,1424.0
KFFO 222355Z 16005KT 10SM BKN250 20/10 A3002 RMK AO2A SLP168 T01980097 10249 20198 53013,KFFO,2022-10-22T23:55:00Z,39.83,-84.03,19.8,9.7,160,5,,10.0,30.02067,1016.8,,,TRUE,,,,,,,BKN,25000,,,,,,,VFR,1.3,24.9,19.8,,,,,,,,,METAR,250.0
KFCS 222355Z AUTO 21009KT 10SM CLR 21/M09 A2951 RMK AO2 SLP956 T02081087 10242 20208 57006 $,KFCS,2022-10-22T23:55:00Z,38.67,-104.77,20.8,-8.7,210,9,,10.0,29.509842,995.6,,TRUE,TRUE,TRUE,,,,,,CLR,,,,,,,,VFR,-0.6,24.2,20.8,,,,,,,,,METAR,1789.0
KFBG 222355Z AUTO M 10SM CLR 17/10 A3014 RMK AO2 SLP209 T01660102 10238 20165 53003 $,KFBG,2022-10-22T23:55:00Z,35.12,-78.92,16.6,10.2,,,,10.0,30.138779,1020.9,,TRUE,TRUE,TRUE,,,,,,CLR,,,,,,,,VFR,0.3,23.8,16.5,,,,,,,,,METAR,69.0
KFAF 222355Z AUTO 07003KT 10SM CLR 15/10 A3020 RMK AO2 SLP230 T01480098 10209 20148 53002 $,KFAF,2022-10-22T23:55:00Z,37.13,-76.62,14.8,9.8,70,3,,10.0,30.200787,1023.0,,TRUE,TRUE,TRUE,,,,,,CLR,,,,,,,,VFR,0.2,20.9,14.8,,,,,,,,,METAR,3.0
KEND 222355Z AUTO 17011KT 10SM CLR 27/02 A2948 RMK AO2 SLP973 T02740024 10329 20274 53003,KEND,2022-10-22T23:55:00Z,36.33,-97.92,27.4,2.4,170,11,,10.0,29.480314,997.3,,TRUE,TRUE,,,,,,,CLR,,,,,,,,VFR,0.3,32.9,27.4,,,,,,,,,METAR,392.0
KEDW 222355Z 23028G35KT 20SM SCT190 17/10 A2962 RMK AO2A PK WND 23042/49 SLP018 T01720098 10209 20172 55006,KEDW,2022-10-22T23:55:00Z,34.9,-117.87,17.2,9.8,230,28,35,20.0,29.619095,1001.8,,,TRUE,,,,,,,SCT,19000,,,,,,,VFR,-0.6,20.9,17.2,,,,,,,,,METAR,698.0
KEAT 222355Z AUTO 30016KT 10SM CLR 13/M04 A2964 RMK AO2 SLP036 T01281044 10144 20106 53012,KEAT,2022-10-22T23:55:00Z,47.4,-120.2,12.8,-4.4,300,16,,10.0,29.639763,1003.6,,TRUE,TRUE,,,,,,,CLR,,,,,,,,VFR,1.2,14.4,10.6,,,,,,,,,METAR,375.0
KDYS 222355Z AUTO 18013KT 10SM CLR 29/10 A2968 RMK AO2 SLP012 T02910097 10319 20283 55005,KDYS,2022-10-22T23:55:00Z,32.42,-99.83,29.1,9.7,180,13,,10.0,29.681103,1001.2,,TRUE,TRUE,,,,,,,CLR,,,,,,,,VFR,-0.5,31.9,28.3,,,,,,,,,METAR,544.0
KDOV 222355Z AUTO 00000KT 10SM CLR 11/08 A3024 RMK AO2 SLP244 T01100080 10190 20110 53002,KDOV,2022-10-22T23:55:00Z,39.12,-75.47,11.0,8.0,0,0,,10.0,30.239174,1024.4,,TRUE,TRUE,,,,,,,CLR,,,,,,,,VFR,0.2,19.0,11.0,,,,,,,,,METAR,6.0
KDMA 222355Z AUTO 21018G22KT 10SM SCT190 28/12 A2969 RMK AO2 SLP056 T02810120 10297 20266 57015 $,KDMA,2022-10-22T23:55:00Z,32.17,-110.88,28.1,12.0,210,18,22,10.0,29.68996,1005.6,,TRUE,TRUE,TRUE,,,,,,SCT,19000,,,,,,,VFR,-1.5,29.7,26.6,,,,,,,,,METAR,804.0
KDLH 222355Z 09017G23KT 10SM CLR 11/04 A2963 RMK AO2 SLP040 T01060039 10172 20106 53016,KDLH,2022-10-22T23:55:00Z,46.85,-92.2,10.6,3.9,90,17,23,10.0,29.630905,1004.0,,,TRUE,,,,,,,CLR,,,,,,,,VFR,1.6,17.2,10.6,,,,,,,,,METAR,434.0
KDLF 222355Z AUTO 14008KT 10SM CLR 26/16 A2978 RMK AO2 SLP076 T02600157 10287 20236 55003 $,KDLF,2022-10-22T23:55:00Z,29.37,-100.78,26.0,15.7,140,8,,10.0,29.778543,1007.6,,TRUE,TRUE,TRUE,,,,,,CLR,,,,,,,,VFR,-0.3,28.7,23.6,,,,,,,,,METAR,328.0
KDCM 222355Z AUTO 00000KT 10SM CLR 12/03 A3017 RMK AO2,KDCM,2022-10-22T23:55:00Z,34.78,-81.2,12.0,3.0,0,0,,10.0,30.171259,,,TRUE,TRUE,,,,,,,CLR,,,,,,,,VFR,,,,,,,,,,,,METAR,191.0
KDAA 222355Z AUTO 00000KT 10SM CLR 11/07 A3022 RMK AO2 SLP237 T01120073 10214 20112 51007,KDAA,2022-10-22T23:55:00Z,38.72,-77.17,11.2,7.3,0,0,,10.0,30.221457,1023.7,,TRUE,TRUE,,,,,,,CLR,,,,,,,,VFR,0.7,21.4,11.2,,,,,,,,,METAR,17.0
KCWN 222355Z AUTO 16006KT 10SM CLR 18/M08 A2951 RMK AO2 PRESFR SLP826 T01771085 10219 20176 56125 $,KCWN,2022-10-22T23:55:00Z,38.75,-104.85,17.7,-8.5,160,6,,10.0,29.509842,982.6,,TRUE,TRUE,TRUE,,,,,,CLR,,,,,,,,VFR,0.0,21.9,17.6,,,,,,,,,METAR,2040.0
KCVS 222355Z AUTO 21011KT 10SM CLR 22/09 A2974 RMK AO2 SLP025 T02150091 10248 20215 50004 $,KCVS,2022-10-22T23:55:00Z,34.37,-103.32,21.5,9.1,210,11,,10.0,29.740158,1002.5,,TRUE,TRUE,TRUE,,,,,,CLR,,,,,,,,VFR,0.4,24.8,21.5,,,,,,,,,METAR,1305.0
KCOF 222355Z AUTO 35007KT 10SM CLR 22/22 A3000 RMK AO2 SLP163 T02200218 10266 20220 50001,KCOF,2022-10-22T23:55:00Z,28.23,-80.6,22.0,21.8,350,7,,10.0,30.0,1016.3,,TRUE,TRUE,,,,,,,CLR,,,,,,,,VFR,0.1,26.6,22.0,,,,,,,,,METAR,1.0
KCNK 222355Z AUTO 15010KT 10SM CLR 23/06 A2947 RMK AO2 SLP968 T02330056 10294 20233 53005,KCNK,2022-10-22T23:55:00Z,39.55,-97.65,23.3,5.6,150,10,,10.0,29.471457,996.8,,TRUE,TRUE,,,,,,,CLR,,,,,,,,VFR,0.5,29.4,23.3,,,,,,,,,METAR,445.0
KCMA 222355Z 24007KT 10SM OVC043 19/12 A2974 RMK AO2 SLP077 T01890122 10217 20189 57012,KCMA,2022-10-22T23:55:00Z,34.22,-119.1,18.9,12.2,240,7,,10.0,29.740158,1007.7,,,TRUE,,,,,,,OVC,4300,,,,,,,VFR,-1.2,21.7,18.9,,,,,,,,,METAR,20.0
KCEF 222355Z 00000KT 10SM FEW200 BKN250 08/05 A3026 RMK AO2A SLP255 T00830045 10209 20081 52016,KCEF,2022-10-22T23:55:00Z,42.2,-72.52,8.3,4.5,0,0,,10.0,30.259842,1025.5,,,TRUE,,,,,,,FEW,20000,BKN,25000,,,,,VFR,1.6,20.9,8.1,,,,,,,,,METAR,72.0
KCBM 222355Z AUTO 15008KT 10SM CLR 17/12 A3000 RMK AO2 SLP161 T01740119 10266 20174 53003 $,KCBM,2022-10-22T23:55:00Z,33.65,-88.45,17.4,11.9,150,8,,10.0,30.0,1016.1,,TRUE,TRUE,TRUE,,,,,,CLR,,,,,,,,VFR,0.3,26.6,17.4,,,,,,,,,METAR,59.0
KCAO 222355Z AUTO 24010G20KT 10SM CLR 23/M02 A2964 RMK AO2 SLP978 T02281017 10267 20228 50002,KCAO,2022-10-22T23:55:00Z,36.45,-103.15,22.8,-1.7,240,10,20,10.0,29.639763,997.8,,TRUE,TRUE,,,,,,,CLR,,,,,,,,VFR,0.2,26.7,22.8,,,,,,,,,METAR,1517.0
KBYS 222355Z AUTO 22029G41KT 7SM CLR 21/06 A2950 RMK AO2 PK WND 23047/05 SLP968 T02060062 10253 20206 57016,KBYS,2022-10-22T23:55:00Z,35.28,-116.63,20.6,6.2,220,29,41,7.0,29.500984,996.8,,TRUE,TRUE,,,,,,,CLR,,,,,,,,VFR,-1.6,25.3,20.6,,,,,,,,,METAR,717.0
KBLV 222355Z COR 16010G15KT 10SM FEW140 BKN220 21/13 A2983 RMK AO2A SLP103 T02140128 10276 20214 53006 $ COR 0011,KBLV,2022-10-22T23:55:00Z,38.53,-89.83,21.4,12.8,160,10,15,10.0,29.828741,1010.3,TRUE,,TRUE,TRUE,,,,,,FEW,14000,BKN,22000,,,,,VFR,0.6,27.6,21.4,,,,,,,,,METAR,134.0
KBIX 222355Z AUTO 12007KT 10SM CLR 20/14 A3005 RMK AO2 SLP179 T02040143 10255 20203 55001,KBIX,2022-10-22T23:55:00Z,30.42,-88.92,20.4,14.3,120,7,,10.0,30.050198,1017.9,,TRUE,TRUE,,,,,,,CLR,,,,,,,,VFR,-0.1,25.5,20.3,,,,,,,,,METAR,4.0
KBIF 222355Z AUTO 18018G22KT 9SM CLR 26/08 A2981 RMK AO2 SLP034 T02640084 10285 20258 57008 $,KBIF,2022-10-22T23:55:00Z,31.85,-106.38,26.4,8.4,180,18,22,9.0,29.811024,1003.4,,TRUE,TRUE,TRUE,,,,,,CLR,,,,,,,,VFR,-0.8,28.5,25.8,,,,,,,,,METAR,1201.0
KBAD 222355Z AUTO 17016KT 10SM CLR 25/13 A2984 RMK AO2 SLP108 T02510130 10296 20251 56004,KBAD,2022-10-22T23:55:00Z,32.5,-93.67,25.1,13.0,170,16,,10.0,29.840551,1010.8,,TRUE,TRUE,,,,,,,CLR,,,,,,,,VFR,-0.4,29.6,25.1,,,,,,,,,METAR,49.0
KBAB 222355Z AUTO 31013KT 10SM CLR 22/M05 A2968 RMK AO2 SLP053 T02221048 10231 20196 56008 $,KBAB,2022-10-22T23:55:00Z,39.13,-121.43,22.2,-4.8,310,13,,10.0,29.681103,1005.3,,TRUE,TRUE,TRUE,,,,,,CLR,,,,,,,,VFR,-0.8,23.1,19.6,,,,,,,,,METAR,31.0
KAST 222355Z AUTO 28005KT 10SM FEW025 BKN050 OVC070 12/09 A2983 RMK AO2 RAE03B25E53 SLP102 P0003 60004 T01170089 10144 20111 53010,KAST,2022-10-22T23:55:00Z,46.15,-123.88,11.7,8.9,280,5,,10.0,29.828741,1010.2,,TRUE,TRUE,,,,,,,FEW,2500,BKN,5000,OVC,7000,,,VFR,1.0,14.4,11.1,,,0.03,,0.04,,,,METAR,3.0
KANJ 222355Z AUTO 10005KT 10SM CLR 13/08 A2984 RMK AO2 SLP107 T01280083 10167 20128 53009,KANJ,2022-10-22T23:55:00Z,46.47,-84.37,12.8,8.3,100,5,,10.0,29.840551,1010.7,,TRUE,TRUE,,,,,,,CLR,,,,,,,,VFR,0.9,16.7,12.8,,,,,,,,,METAR,220.0
KAFF 222355Z AUTO 18012KT 10SM CLR 19/M09 A2954 RMK AO2 PK WND 28026/2256 SLP921 T01901091 10227 20190 57006,KAFF,2022-10-22T23:55:00Z,38.97,-104.82,19.0,-9.1,180,12,,10.0,29.53937,992.1,,TRUE,TRUE,,,,,,,CLR,,,,,,,,VFR,-0.6,22.7,19.0,,,,,,,,,METAR,2003.0
KADW 222355Z AUTO 00000KT 10SM CLR 12/06 A3021 RMK AO2 SLP238 T01150058 10205 20111 53005 $,KADW,2022-10-22T23:55:00Z,38.82,-76.87,11.5,5.8,0,0,,10.0,30.209646,1023.8,,TRUE,TRUE,TRUE,,,,,,CLR,,,,,,,,VFR,0.5,20.5,11.1,,,,,,,,,METAR,87.0
KABH 222355Z AUTO 19006KT 10SM CLR 19/M10 A2956 RMK AO2 SLP963 T01851105 10244 20185 55006,KABH,2022-10-22T23:55:00Z,38.75,-104.3,18.5,-10.5,190,6,,10.0,29.56004,996.3,,TRUE,TRUE,,,,,,,CLR,,,,,,,,VFR,-0.6,24.4,18.5,,,,,,,,,METAR,1838.0
KAAT 222355Z AUTO 32019G27KT 10SM BKN055 BKN070 07/M05 A2978 RMK AO2 PK WND 32032/2317 SLP077 T00671050 10089 20056 53003,KAAT,2022-10-22T23:55:00Z,41.48,-120.57,6.7,-5.0,320,19,27,10.0,29.778543,1007.7,,TRUE,TRUE,,,,,,,BKN,5500,BKN,7000,,,,,VFR,0.3,8.9,5.6,,,,,,,,,METAR,1336.0
K9L2 222355Z AUTO 21024G35KT 9SM CLR 17/10 A2962 RMK AO2 PK WND 21038/2257 SLP016 T01690096 10211 20169 55013 $,K9L2,2022-10-22T23:55:00Z,34.98,-117.87,16.9,9.6,210,24,35,9.0,29.619095,1001.6,,TRUE,TRUE,TRUE,,,,,,CLR,,,,,,,,VFR,-1.3,21.1,16.9,,,,,,,,,METAR,697.0
K4MR 222355Z AUTO 22010KT 10SM CLR 22/11 A2972 RMK AO2 SLP994 T02170108 10268 20217 50000 $,K4MR,2022-10-22T23:55:00Z,34.3,-103.8,21.7,10.8,220,10,,10.0,29.719488,999.4,,TRUE,TRUE,TRUE,,,,,,CLR,,,,,,,,VFR,0.0,26.8,21.7,,,,,,,,,METAR,1339.0
K2DP 222355Z AUTO 01008KT 10SM OVC220 16/16 A3012 RMK AO2 SLPNO T01630163 10213 20162 55001 $,K2DP,2022-10-22T23:55:00Z,35.68,-75.9,16.3,16.3,10,8,,10.0,30.121063,,,TRUE,TRUE,TRUE,,,,,,OVC,22000,,,,,,,VFR,-0.1,21.3,16.2,,,,,,,,,METAR,1.0
K1YT 222355Z AUTO 32009KT 10SM FEW140 11/M02 A2964 RMK AO2 SLP044 T01101021 10137 20105 53012 $,K1YT,2022-10-22T23:55:00Z,46.67,-120.45,11.0,-2.1,320,9,,10.0,29.639763,1004.4,,TRUE,TRUE,TRUE,,,,,,FEW,14000,,,,,,,VFR,1.2,13.7,10.5,,,,,,,,,METAR,423.0
K1OM 222355Z AUTO 08010KT 10SM -DZ BKN006 OVC025 05/04 A2941 RMK AO2 RAE2259DZB2259 SLP975 P0001 60036 T00490043 10071 20049 52019 $,K1OM,2022-10-22T23:55:00Z,47.33,-108.93,4.9,4.3,80,10,,10.0,29.409449,997.5,,TRUE,TRUE,TRUE,,,,,-DZ,BKN,600,OVC,2500,,,,,IFR,1.9,7.1,4.9,,,0.01,,0.36,,,,METAR,1088.0
K1NM 222355Z AUTO 05006KT 4SM -RA BKN005 OVC012 05/05 A2938 RMK AO2 SLP963 P0004 60042 T00520051 10069 20052 52019 $,K1NM,2022-10-22T23:55:00Z,47.07,-109.03,5.2,5.1,50,6,,4.0,29.379921,996.3,,TRUE,TRUE,TRUE,,,,,-RA,BKN,500,OVC,1200,,,,,IFR,1.9,6.9,5.2,,,0.04,,0.42,,,,METAR,1169.0
K1MW 222355Z AUTO 14007KT 10SM M 18/M11 A2525 RMK AO2 PRESFR SLP492 T01801109 10256 20180 58036 FZRANO $,K1MW,2022-10-22T23:55:00Z,40.7,-103.48,18.0,-10.9,140,7,,10.0,25.249016,1049.2,,TRUE,TRUE,TRUE,,,TRUE,,,,,,,,,,,,-3.6,25.6,18.0,,,,,,,,,METAR,1338.0
K1MM 222355Z AUTO 30011KT 10SM -RA OVC004 02/01 A2942 RMK AO2 OVC V BKN SLP978 P0004 60027 T00200008 10060 20019 52020 $,K1MM,2022-10-22T23:55:00Z,47.02,-109.63,2.0,0.8,300,11,,10.0,29.421259,997.8,,TRUE,TRUE,TRUE,,,,,-RA,OVC,400,,,,,,,LIFR,2.0,6.0,1.9,,,0.04,,0.27,,,,METAR,1256.0
K1LM 222355Z AUTO 36015KT 10SM -RA SCT006 OVC013 02/02 A2941 RMK AO2 SLP969 P0000 60021 T00210017 10060 20021 52015 $,K1LM,2022-10-22T23:55:00Z,46.7,-109.73,2.1,1.7,360,15,,10.0,29.409449,996.9,,TRUE,TRUE,TRUE,,,,,-RA,SCT,600,OVC,1300,,,,,MVFR,1.5,6.0,2.1,,,0.005,,0.21,,,,METAR,1417.0
K1KM 222355Z AUTO 01013KT 10SM FEW026 BKN110 04/03 A2937 RMK AO2 RAE29 SLP955 P0000 60020 T00430026 10067 20043 51012 $,K1KM,2022-10-22T23:55:00Z,46.45,-109.8,4.3,2.6,10,13,,10.0,29.371063,995.5,,TRUE,TRUE,TRUE,,,,,,FEW,2600,BKN,11000,,,,,VFR,1.2,6.7,4.3,,,0.005,,0.2,,,,METAR,1332.0
K1JM 222355Z AUTO 33008KT 10SM -RA BKN007 OVC019 02/01 A2948 RMK AO2 SLP003 P0004 60020 T00210012 10031 20021 52019 $,K1JM,2022-10-22T23:55:00Z,47.75,-111.55,2.1,1.2,330,8,,10.0,29.480314,1000.3,,TRUE,TRUE,TRUE,,,,,-RA,BKN,700,OVC,1900,,,,,IFR,1.9,3.1,2.1,,,0.04,,0.2,,,,METAR,1154.0
K1IM 222355Z AUTO 31007KT 6SM -SN BKN006 OVC010 01/01 A2948 RMK AO2 PLE15SNB15E43PLB43E48SNB48 SLPNO P0006 6//// T00140014 10025 20014 $,K1IM,2022-10-22T23:55:00Z,47.32,-111.47,1.4,1.4,310,7,,6.0,29.480314,,,TRUE,TRUE,TRUE,,,,,-SN,BKN,600,OVC,1000,,,,,IFR,,2.5,1.4,,,0.06,,,,,,METAR,1110.0
K1HM 222355Z AUTO 26012KT 10SM -RA OVC007 02/01 A2948 RMK AO2 CIG 007V009 SLP003 P0002 60021 T00240008 10034 20022 52021 $,K1HM,2022-10-22T23:55:00Z,47.7,-111.95,2.4,0.8,260,12,,10.0,29.480314,1000.3,,TRUE,TRUE,TRUE,,,,,-RA,OVC,700,,,,,,,IFR,2.1,3.4,2.2,,,0.02,,0.21,,,,METAR,1181.0
K1FM 222355Z AUTO 36017G23KT 4SM -SN SCT006 OVC038 01/01 A2948 RMK AO2 SLP001 P0002 60012 T00100009 10023 20010 52020 $,K1FM,2022-10-22T23:55:00Z,47.6,-112.32,1.0,0.9,360,17,23,4.0,29.480314,1000.1,,TRUE,TRUE,TRUE,,,,,-SN,SCT,600,OVC,3800,,,,,MVFR,2.0,2.3,1.0,,,0.02,,0.12,,,,METAR,1344.0
K1DM 222355Z AUTO 32015KT 7SM -RA OVC009 03/02 A2943 RMK AO2 SLP985 P0006 60042 T00260020 10054 20026 52015 $,K1DM,2022-10-22T23:55:00Z,47.37,-109.8,2.6,2.0,320,15,,7.0,29.430119,998.5,,TRUE,TRUE,TRUE,,,,,-RA,OVC,900,,,,,,,IFR,1.5,5.4,2.6,,,0.06,,0.42,,,,METAR,1093.0
K1CM 222355Z AUTO 31009KT 5SM -SN SCT003 OVC022 01/01 A2943 RMK AO2 SLP982 P0002 60022 T00070006 10038 20006 52014 $,K1CM,2022-10-22T23:55:00Z,47.1,-110.17,0.7,0.6,310,9,,5.0,29.430119,998.2,,TRUE,TRUE,TRUE,,,,,-SN,SCT,300,OVC,2200,,,,,MVFR,1.4,3.8,0.6,,,0.02,,0.22,,,,METAR,1338.0
K1BM 222355Z AUTO 27006KT 10SM -RA SCT008 SCT013 OVC019 03/02 A2945 RMK AO2 PLE02RAB02 CIG 013V019 SLP988 P0004 60024 T00270021 10042 20020 52014 $,K1BM,2022-10-22T23:55:00Z,47.28,-110.37,2.7,2.1,270,6,,10.0,29.450787,998.8,,TRUE,TRUE,TRUE,,,,,-RA,SCT,800,SCT,1300,OVC,1900,,,MVFR,1.4,4.2,2.0,,,0.04,,0.24,,,,METAR,1234.0
K1AM 222355Z AUTO 30007KT 10SM -RA OVC006 02/02 A2947 RMK AO2 SLP996 P0003 60020 T00180017 10042 20018 53020 $,K1AM,2022-10-22T23:55:00Z,47.28,-110.8,1.8,1.7,300,7,,10.0,29.471457,999.6,,TRUE,TRUE,TRUE,,,,,-RA,OVC,600,,,,,,,IFR,2.0,4.2,1.8,,,0.03,,0.2,,,,METAR,1228.0
ETOU 222355Z AUTO 00000KT 9999 CLR 11/10 A3002 RMK AO2 SLPNO T01050103 10144 20101 58005 $,ETOU,2022-10-22T23:55:00Z,50.03,8.32,10.5,10.3,0,0,,6.21,30.02067,,,TRUE,TRUE,TRUE,,,,,,CLR,,,,,,,,VFR,-0.5,14.4,10.1,,,,,,,,,METAR,141.0
ETIK 222355Z AUTO 16005KT 9999 FEW240 12/09 A3007 RMK AO2 SLP180 T01200088 10120 20080 58005 $,ETIK,2022-10-22T23:55:00Z,49.47,10.38,12.0,8.8,160,5,,6.21,30.070866,1018.0,,TRUE,TRUE,TRUE,,,,,,FEW,24000,,,,,,,VFR,-0.5,12.0,8.0,,,,,,,,,METAR,326.0
ETEB 222355Z AUTO 17004KT 9999 CLR 10/10 A3008 RMK AO2 SLP195 T01040096 10123 20102 58003 $,ETEB,2022-10-22T23:55:00Z,49.32,10.63,10.4,9.6,170,4,,6.21,30.079725,1019.5,,TRUE,TRUE,TRUE,,,,,,CLR,,,,,,,,VFR,-0.3,12.3,10.2,,,,,,,,,METAR,466.0
ETAD 222355Z AUTO 08003KT 9999 CLR 10/10 A2998 RMK AO2 SLP141 T01020100 10128 20097 56006 $,ETAD,2022-10-22T23:55:00Z,49.98,6.7,10.2,10.0,80,3,,6.21,29.97933,1014.1,,TRUE,TRUE,TRUE,,,,,,CLR,,,,,,,,VFR,-0.6,12.8,9.7,,,,,,,,,METAR,365.0
EGUN 222355Z 13007KT 9999 SCT150 14/14 A2982 RMK AO2A SLP101 60000 T01350135 10150 20135 401740128 57010 $,EGUN,2022-10-22T23:55:00Z,52.37,0.48,13.5,13.5,130,7,,6.21,29.819881,1010.1,,,TRUE,TRUE,,,,,,SCT,15000,,,,,,,VFR,-1.0,15.0,13.5,17.4,12.8,,,0.005,,,,METAR,10.0
EGUL 222355Z AUTO 14006KT 9999 OVC140 14/14 A2981 RMK AO2 DZE2257 SLP098 P0000 60000 T01400138 10151 20140 401750128 57010 $,EGUL,2022-10-22T23:55:00Z,52.42,0.57,14.0,13.8,140,6,,6.21,29.811024,1009.8,,TRUE,TRUE,TRUE,,,,,,OVC,14000,,,,,,,VFR,-1.0,15.1,14.0,17.5,12.8,0.005,,0.005,,,,METAR,8.0
PHOG 222354Z 06017G28KT 10SM SCT035 34/14 A2993 RMK AO2 PK WND 05028/2352 SLP140 T03390144 10339 20272 56029,PHOG,2022-10-22T23:54:00Z,20.9,-156.43,33.9,14.4,60,17,28,10.0,29.929134,1014.0,,,TRUE,,,,,,,SCT,3500,,,,,,,VFR,-2.9,33.9,27.2,,,,,,,,,METAR,14.0
PHMK 222354Z 03010KT 10SM CLR 29/20 A2998 RMK AO2 SLP150 T02940200 10306 20267 58023,PHMK,2022-10-22T23:54:00Z,21.15,-157.1,29.4,20.0,30,10,,10.0,29.97933,1015.0,,,TRUE,,,,,,,CLR,,,,,,,,VFR,-2.3,30.6,26.7,,,,,,,,,METAR,135.0
PGUM 222354Z 11010KT 10SM CLR 28/24 A2988 RMK AO2 SLP111 60003 T02830244 10289 20256 51012,PGUM,2022-10-22T23:54:00Z,13.48,144.8,28.3,24.4,110,10,,10.0,29.878937,1011.1,,,TRUE,,,,,,,CLR,,,,,,,,VFR,1.2,28.9,25.6,,,,,0.03,,,,METAR,74.0
PGSN 222354Z 10012KT 10SM SCT070 29/26 A2988 RMK AO2 PK WND 13028/2313 RAB15E43 SLP140 P0011 60011 T02940256 10300 20261 51012,PGSN,2022-10-22T23:54:00Z,15.12,145.72,29.4,25.6,100,12,,10.0,29.878937,1014.0,,,TRUE,,,,,,,SCT,7000,,,,,,,VFR,1.2,30.0,26.1,,,0.11,,0.11,,,,METAR,65.0
PAKN 222354Z 36011KT 10SM OVC007 03/03 A2974 RMK AO2 SLP071 T00330028 10033 20006 56007,PAKN,2022-10-22T23:54:00Z,58.68,-156.65,3.3,2.8,360,11,,10.0,29.740158,1007.1,,,TRUE,,,,,,,OVC,700,,,,,,,IFR,-0.7,3.3,0.6,,,,,,,,,METAR,20.0
PAHN 222354Z AUTO 10007KT 10SM CLR 06/03 A2990 RMK AO2 SLP127 T00610028 10083 20028 55007 TSNO,PAHN,2022-10-22T23:54:00Z,59.25,-135.52,6.1,2.8,100,7,,10.0,29.899607,1012.7,,TRUE,TRUE,,,TRUE,,,,CLR,,,,,,,,VFR,-0.7,8.3,2.8,,,,,,,,,METAR,15.0
MMGL 222354Z 19005KT 10SM BKN020 OVC090 22/14 A3007 RMK SLP085 52011 952 8/47/,MMGL,2022-10-22T23:54:00Z,20.52,-103.32,22.0,14.0,190,5,,10.0,30.070866,1008.5,,,,,,,,,,BKN,2000,OVC,9000,,,,,MVFR,1.1,,,,,,,,,,,METAR,1531.0
MMDO 222354Z 13004KT 10SM SCT090 OVC200 22/06 A3011 RMK SLP097 57006 967 8/072,MMDO,2022-10-22T23:54:00Z,24.12,-104.52,22.0,6.0,130,4,,10.0,30.109253,1009.7,,,,,,,,,,SCT,9000,OVC,20000,,,,,VFR,-0.6,,,,,,,,,,,METAR,1863.0
MMCL 222354Z 24005KT 10SM BKN250 31/21 A2976 RMK SLP076 54000 901 8/008,MMCL,2022-10-22T23:54:00Z,24.77,-107.47,31.0,21.0,240,5,,10.0,29.760826,1007.6,,,,,,,,,,BKN,25000,,,,,,,VFR,,,,,,,,,,,,METAR,35.0
KWLD 222354Z AUTO 15009KT 10SM CLR 28/08 A2952 RMK AO2 PK WND 18026/2305 SLP985 T02780078 10311 20278 53004,KWLD,2022-10-22T23:54:00Z,37.17,-97.03,27.8,7.8,150,9,,10.0,29.518702,998.5,,TRUE,TRUE,,,,,,,CLR,,,,,,,,VFR,0.4,31.1,27.8,,,,,,,,,METAR,351.0
KWAL 222354Z AUTO 02004KT 10SM CLR 14/09 A3023 RMK AO2 SLP235 T01390089 10189 20139 53002,KWAL,2022-10-22T23:54:00Z,37.93,-75.47,13.9,8.9,20,4,,10.0,30.230314,1023.5,,TRUE,TRUE,,,,,,,CLR,,,,,,,,VFR,0.2,18.9,13.9,,,,,,,,,METAR,10.0
KVTA 222354Z AUTO A3009 RMK AO2 SLPNO 53013 PWINO FZRANO $,KVTA,2022-10-22T23:54:00Z,40.02,-82.47,,,,,,,30.088583,,,TRUE,TRUE,TRUE,,,TRUE,TRUE,,,,,,,,,,,1.3,,,,,,,,,,,METAR,268.0
KVSF 222354Z AUTO 00000KT 10SM CLR 08/06 A3027 RMK AO2 SLP256 T00830056 10206 20083 53019,KVSF,2022-10-22T23:54:00Z,43.35,-72.52,8.3,5.6,0,0,,10.0,30.268702,1025.6,,TRUE,TRUE,,,,,,,CLR,,,,,,,,VFR,1.9,20.6,8.3,,,,,,,,,METAR,176.0
KVAY 222354Z AUTO 00000KT 10SM CLR 12/08 A3027 RMK AO2 SLP249 T01170078 10206 20111 53009 $,KVAY,2022-10-22T23:54:00Z,39.93,-74.83,11.7,7.8,0,0,,10.0,30.268702,1024.9,,TRUE,TRUE,TRUE,,,,,,CLR,,,,,,,,VFR,0.9,20.6,11.1,,,,,,,,,METAR,15.0
KUZA 222354Z AUTO 00000KT 10SM CLR 09/04 A3016 RMK AO2 SLP219 T00940044 10228 20094 53001,KUZA,2022-10-22T23:54:00Z,34.98,-81.05,9.4,4.4,0,0,,10.0,30.159449,1021.9,,TRUE,TRUE,,,,,,,CLR,,,,,,,,VFR,0.1,22.8,9.4,,,,,,,,,METAR,198.0
KUIN 222354Z AUTO 17013G22KT 10SM FEW120 23/09 A2970 RMK AO2 PK WND 15026/2256 PRESRR SLP052 T02330094 10294 20233 53011,KUIN,2022-10-22T23:54:00Z,39.95,-91.2,23.3,9.4,170,13,22,10.0,29.698818,1005.2,,TRUE,TRUE,,,,,,,FEW,12000,,,,,,,VFR,1.1,29.4,23.3,,,,,,,,,METAR,233.0
KTQE 222354Z AUTO 14007KT 8SM CLR 19/06 A2949 RMK AO2 SLP985 T01890061 10278 20189 53010,KTQE,2022-10-22T23:54:00Z,41.77,-96.18,18.9,6.1,140,7,,8.0,29.489174,998.5,,TRUE,TRUE,,,,,,,CLR,,,,,,,,VFR,1.0,27.8,18.9,,,,,,,,,METAR,312.0
KTAD 222354Z AUTO 26010G22KT 10SM CLR 21/M03 A2962 RMK AO2 PK WND 26034/2317 SLP980 T02061028 10250 20206 58003,KTAD,2022-10-22T23:54:00Z,37.27,-104.33,20.6,-2.8,260,10,22,10.0,29.619095,998.0,,TRUE,TRUE,,,,,,,CLR,,,,,,,,VFR,-0.3,25.0,20.6,,,,,,,,,METAR,1751.0
KSYR 222354Z 12007KT 10SM CLR 15/03 A3018 RMK AO2 SLP217 T01500033 10233 20150 51015 $,KSYR,2022-10-22T23:54:00Z,43.12,-76.1,15.0,3.3,120,7,,10.0,30.180119,1021.7,,,TRUE,TRUE,,,,,,CLR,,,,,,,,VFR,1.5,23.3,15.0,,,,,,,,,METAR,125.0
KSUS 222354Z 16011G22KT 10SM CLR 22/12 A2977 RMK AO2 PK WND 16026/2321 SLP080 T02220117 10283 20222 53005,KSUS,2022-10-22T23:54:00Z,38.65,-90.65,22.2,11.7,160,11,22,10.0,29.769686,1008.0,,,TRUE,,,,,,,CLR,,,,,,,,VFR,0.5,28.3,22.2,,,,,,,,,METAR,140.0
KSUN 222354Z 27009KT 10SM SCT100 06/M05 A2949,KSUN,2022-10-22T23:54:00Z,43.5,-114.28,6.0,-5.0,270,9,,10.0,29.489174,,,,,,,,,,,SCT,10000,,,,,,,VFR,,,,,,,,,,,,METAR,1619.0
KSLC 222354Z 04006KT 6SM -RA BR FEW010 BKN021 OVC028 04/02 A2965 RMK AO2 SLP016 P0017 60049 T00390022 10161 20033 53026 $,KSLC,2022-10-22T23:54:00Z,40.77,-111.97,3.9,2.2,40,6,,6.0,29.648623,1001.6,,,TRUE,TRUE,,,,,-RA BR,FEW,1000,BKN,2100,OVC,2800,,,MVFR,2.6,16.1,3.3,,,0.17,,0.49,,,,METAR,1286.0
KSET 222354Z AUTO 16016G27KT 10SM -RA CLR 23/12 A2979 RMK AO2 PK WND 18032/2315 RAB19 SLP084 P0000 60000 T02330117 10306 20233 53006,KSET,2022-10-22T23:54:00Z,38.93,-90.43,23.3,11.7,160,16,27,10.0,29.790354,1008.4,,TRUE,TRUE,,,,,,-RA,CLR,,,,,,,,VFR,0.6,30.6,23.3,,,0.005,,0.005,,,,METAR,133.0
KSBY 222354Z 00000KT 10SM CLR 12/08 A3024 RMK AO2 SLP243 T01220083 10211 20117 53003,KSBY,2022-10-22T23:54:00Z,38.33,-75.5,12.2,8.3,0,0,,10.0,30.239174,1024.3,,,TRUE,,,,,,,CLR,,,,,,,,VFR,0.3,21.1,11.7,,,,,,,,,METAR,14.0
KSBN 222354Z 17010KT 10SM CLR 21/11 A2992 RMK AO2 SLP129 T02110106 10256 20211 53014,KSBN,2022-10-22T23:54:00Z,41.7,-86.32,21.1,10.6,170,10,,10.0,29.920275,1012.9,,,TRUE,,,,,,,CLR,,,,,,,,VFR,1.4,25.6,21.1,,,,,,,,,METAR,236.0
KRST 222354Z 15010KT 10SM CLR 21/07 A2959 RMK AO2 SLP022 T02110067 10261 20211 53011,KRST,2022-10-22T23:54:00Z,43.9,-92.5,21.1,6.7,150,10,,10.0,29.589567,1002.2,,,TRUE,,,,,,,CLR,,,,,,,,VFR,1.1,26.1,21.1,,,,,,,,,METAR,398.0
KROC 222354Z 17005KT 10SM CLR 12/06 A3014 RMK AO2 SLP210 T01220056 10228 20122 53015,KROC,2022-10-22T23:54:00Z,43.12,-77.68,12.2,5.6,170,5,,10.0,30.138779,1021.0,,,TRUE,,,,,,,CLR,,,,,,,,VFR,1.5,22.8,12.2,,,,,,,,,METAR,166.0
KROA 222354Z 00000KT 10SM CLR 14/04 A3022 RMK AO2 SLP234 T01390044 10217 20139 53003 $,KROA,2022-10-22T23:54:00Z,37.32,-79.97,13.9,4.4,0,0,,10.0,30.221457,1023.4,,,TRUE,TRUE,,,,,,CLR,,,,,,,,VFR,0.3,21.7,13.9,,,,,,,,,METAR,349.0
KRKS 222354Z AUTO 21016G27KT 10SM OVC085 11/M01 A2949 RMK AO2 PK WND 20031/2256 SLP929 T01061006 10133 20106 55007,KRKS,2022-10-22T23:54:00Z,41.6,-109.07,10.6,-0.6,210,16,27,10.0,29.489174,992.9,,TRUE,TRUE,,,,,,,OVC,8500,,,,,,,VFR,-0.7,13.3,10.6,,,,,,,,,METAR,2062.0
KRIC 222354Z 06004KT 10SM SCT250 14/06 A3022 RMK AO2 SLP238 T01390056 10228 20133 53003 $,KRIC,2022-10-22T23:54:00Z,37.52,-77.32,13.9,5.6,60,4,,10.0,30.221457,1023.8,,,TRUE,TRUE,,,,,,SCT,25000,,,,,,,VFR,0.3,22.8,13.3,,,,,,,,,METAR,51.0
KRFD 222354Z 16008G19KT 10SM FEW250 22/11 A2977 RMK AO2 SLP081 T02220111 10267 20222 53012,KRFD,2022-10-22T23:54:00Z,42.2,-89.1,22.2,11.1,160,8,19,10.0,29.769686,1008.1,,,TRUE,,,,,,,FEW,25000,,,,,,,VFR,1.2,26.7,22.2,,,,,,,,,METAR,222.0
KRDG 222354Z 16004KT 10SM R36/6000VP6000FT CLR 16/05 A3024 RMK AO2 SLP246 T01560050 10211 20156 53009 $,KRDG,2022-10-22T23:54:00Z,40.37,-75.97,15.6,5.0,160,4,,10.0,30.239174,1024.6,,,TRUE,TRUE,,,,,,CLR,,,,,,,,VFR,0.9,21.1,15.6,,,,,,,,,METAR,101.0
KRBL 222354Z AUTO 31015G22KT 10SM FEW110 22/M04 A2971 RMK AO2 WSHFT 2248 SLP058 T02221044 10233 20200 55008,KRBL,2022-10-22T23:54:00Z,40.15,-122.25,22.2,-4.4,310,15,22,10.0,29.71063,1005.8,,TRUE,TRUE,,,,,,,FEW,11000,,,,,,,VFR,-0.8,23.3,20.0,,,,,,,,,METAR,107.0
KPTW 222354Z AUTO 00000KT 10SM CLR 10/05 A3027 RMK AO2 SLP250 T01000050 10194 20100 53009,KPTW,2022-10-22T23:54:00Z,40.23,-75.55,10.0,5.0,0,0,,10.0,30.268702,1025.0,,TRUE,TRUE,,,,,,,CLR,,,,,,,,VFR,0.9,19.4,10.0,,,,,,,,,METAR,88.0
KPSF 222354Z AUTO 00000KT 10SM CLR 10/02 A3027 RMK AO2 SLP252 T01000017 10189 20100 53014,KPSF,2022-10-22T23:54:00Z,42.43,-73.28,10.0,1.7,0,0,,10.0,30.268702,1025.2,,TRUE,TRUE,,,,,,,CLR,,,,,,,,VFR,1.4,18.9,10.0,,,,,,,,,METAR,352.0
KPNE 222354Z 00000KT 10SM CLR 13/07 A3027 RMK AO2 SLP252 T01280067 10206 20128 53008,KPNE,2022-10-22T23:54:00Z,40.08,-75.02,12.8,6.7,0,0,,10.0,30.268702,1025.2,,,TRUE,,,,,,,CLR,,,,,,,,VFR,0.8,20.6,12.8,,,,,,,,,METAR,32.0
KPLN 222354Z AUTO 00000KT 10SM CLR 13/09 A2983 RMK AO2 SLP107 T01280094 10250 20122 53016,KPLN,2022-10-22T23:54:00Z,45.57,-84.8,12.8,9.4,0,0,,10.0,29.828741,1010.7,,TRUE,TRUE,,,,,,,CLR,,,,,,,,VFR,1.6,25.0,12.2,,,,,,,,,METAR,215.0
KPIA 222354Z 17012G25KT 10SM CLR 23/09 A2978 RMK AO2 SLP081 T02330094 10278 20233 53009,KPIA,2022-10-22T23:54:00Z,40.67,-89.68,23.3,9.4,170,12,25,10.0,29.778543,1008.1,,,TRUE,,,,,,,CLR,,,,,,,,VFR,0.9,27.8,23.3,,,,,,,,,METAR,200.0
KPHL 222354Z 12004KT 10SM BKN260 14/09 A3027 RMK AO2 SLP248 T01440089 10211 20139 53010,KPHL,2022-10-22T23:54:00Z,39.87,-75.23,14.4,8.9,120,4,,10.0,30.268702,1024.8,,,TRUE,,,,,,,BKN,26000,,,,,,,VFR,1.0,21.1,13.9,,,,,,,,,METAR,2.0
KPHF 222354Z 06003KT 10SM CLR 13/11 A3022 RMK AO2 SLP233 T01280106 10194 20122 53002,KPHF,2022-10-22T23:54:00Z,37.13,-76.5,12.8,10.6,60,3,,10.0,30.221457,1023.3,,,TRUE,,,,,,,CLR,,,,,,,,VFR,0.2,19.4,12.2,,,,,,,,,METAR,12.0
KORH 222354Z 24006KT 10SM CLR 12/06 A3029 RMK AO2 SLP262 T01220056 10189 20117 53010,KORH,2022-10-22T23:54:00Z,42.27,-71.87,12.2,5.6,240,6,,10.0,30.28937,1026.2,,,TRUE,,,,,,,CLR,,,,,,,,VFR,1.0,18.9,11.7,,,,,,,,,METAR,306.0
KOLS 222354Z AUTO 10SM FEW050 SCT060 SCT110 24/13 A2982 RMK AO2 SLP044 T02390133 10272 20239 58008,KOLS,2022-10-22T23:54:00Z,31.42,-110.85,23.9,13.3,,,,10.0,29.819881,1004.4,,TRUE,TRUE,,,,,,,FEW,5000,SCT,6000,SCT,11000,,,VFR,-0.8,27.2,23.9,,,,,,,,,METAR,1194.0
KOLM 222354Z 09005KT 10SM SCT037 BKN055 12/07 A2979 RMK AO2 SLP087 T01170067 10128 20089 53006 $,KOLM,2022-10-22T23:54:00Z,46.97,-122.9,11.7,6.7,90,5,,10.0,29.790354,1008.7,,,TRUE,TRUE,,,,,,SCT,3700,BKN,5500,,,,,VFR,0.6,12.8,8.9,,,,,,,,,METAR,58.0
KOFP 222354Z AUTO 00000KT 10SM CLR 12/07 A3023 RMK AO2 SLP238 T01220067 10228 20122 53004,KOFP,2022-10-22T23:54:00Z,37.7,-77.43,12.2,6.7,0,0,,10.0,30.230314,1023.8,,TRUE,TRUE,,,,,,,CLR,,,,,,,,VFR,0.4,22.8,12.2,,,,,,,,,METAR,63.0
KNAK 222354Z AUTO 00000KT 10SM CLR 14/09 A3024 RMK AO2 SLP243 T01390089 10183 20139 53007,KNAK,2022-10-22T23:54:00Z,38.98,-76.48,13.9,8.9,0,0,,10.0,30.239174,1024.3,,TRUE,TRUE,,,,,,,CLR,,,,,,,,VFR,0.7,18.3,13.9,,,,,,,,,METAR,2.0
KMVL 222354Z AUTO 00000KT 10SM CLR 09/04 A3023 RMK AO2 SLP243 T00890044 10222 20083 53020,KMVL,2022-10-22T23:54:00Z,44.53,-72.62,8.9,4.4,0,0,,10.0,30.230314,1024.3,,TRUE,TRUE,,,,,,,CLR,,,,,,,,VFR,2.0,22.2,8.3,,,,,,,,,METAR,226.0
KMTP 222354Z AUTO 00000KT 11/08 A3030 RMK AO1 SLP261 T01060078 10189 20106 53004,KMTP,2022-10-22T23:54:00Z,41.07,-71.92,10.6,7.8,0,0,,,30.301182,1026.1,,TRUE,TRUE,,,,,,,,,,,,,,,,0.4,18.9,10.6,,,,,,,,,METAR,2.0
KMRY 222354Z 29010G18KT 9SM CLR 16/08 A2981 RMK AO2 SLP107 T01560083 10183 20150 56007,KMRY,2022-10-22T23:54:00Z,36.58,-121.85,15.6,8.3,290,10,18,9.0,29.811024,1010.7,,,TRUE,,,,,,,CLR,,,,,,,,VFR,-0.7,18.3,15.0,,,,,,,,,METAR,51.0
KMKC 222354Z 17007KT 10SM CLR 25/12 A2958 RMK AO2 SLP010 T02500117 10272 20250 53007,KMKC,2022-10-22T23:54:00Z,39.12,-94.6,25.0,11.7,170,7,,10.0,29.58071,1001.0,,,TRUE,,,,,,,CLR,,,,,,,,VFR,0.7,27.2,25.0,,,,,,,,,METAR,228.0
KMIV 222354Z AUTO 00000KT 10SM CLR 09/09 A3026 RMK AO2 SLP248 T00940089 10200 20094 53002 $,KMIV,2022-10-22T23:54:00Z,39.37,-75.08,9.4,8.9,0,0,,10.0,30.259842,1024.8,,TRUE,TRUE,TRUE,,,,,,CLR,,,,,,,,VFR,0.2,20.0,9.4,,,,,,,,,METAR,18.0
KMGJ 222354Z AUTO 00000KT 10SM CLR 08/04 A3026 RMK AO2 SLP251 T00780044 10194 20078 53016,KMGJ,2022-10-22T23:54:00Z,41.52,-74.27,7.8,4.4,0,0,,10.0,30.259842,1025.1,,TRUE,TRUE,,,,,,,CLR,,,,,,,,VFR,1.6,19.4,7.8,,,,,,,,,METAR,106.0
KMFI 222354Z AUTO 15007KT 10SM CLR 20/08 A2968 RMK AO2 SLP053 T02000083 10233 20194 53013,KMFI,2022-10-22T23:54:00Z,44.63,-90.18,20.0,8.3,150,7,,10.0,29.681103,1005.3,,TRUE,TRUE,,,,,,,CLR,,,,,,,,VFR,1.3,23.3,19.4,,,,,,,,,METAR,383.0
KMEM 222354Z 15009KT 10SM FEW075 SCT220 SCT240 23/12 A2993 RMK AO2 SLP133 T02280117 10261 20228 55000,KMEM,2022-10-22T23:54:00Z,35.07,-89.98,22.8,11.7,150,9,,10.0,29.929134,1013.3,,,TRUE,,,,,,,FEW,7500,SCT,22000,SCT,24000,,,VFR,0.0,26.1,22.8,,,,,,,,,METAR,78.0
KLYH 222354Z 00000KT 10SM CLR 12/03 A3020 RMK AO2 SLP230 T01170028 10228 20106 53003,KLYH,2022-10-22T23:54:00Z,37.32,-79.2,11.7,2.8,0,0,,10.0,30.200787,1023.0,,,TRUE,,,,,,,CLR,,,,,,,,VFR,0.3,22.8,10.6,,,,,,,,,METAR,282.0
KLWM 222354Z 00000KT 10SM CLR 11/06 A3030 RMK AO2 SLP262 T01110061 10206 20111 53015,KLWM,2022-10-22T23:54:00Z,42.72,-71.13,11.1,6.1,0,0,,10.0,30.301182,1026.2,,,TRUE,,,,,,,CLR,,,,,,,,VFR,1.5,20.6,11.1,,,,,,,,,METAR,42.0
KLNK 222354Z 14007KT 10SM CLR 22/08 A2950 RMK AO2 SLP987 T02220083 10278 20222 53008,KLNK,2022-10-22T23:54:00Z,40.85,-96.77,22.2,8.3,140,7,,10.0,29.500984,998.7,,,TRUE,,,,,,,CLR,,,,,,,,VFR,0.8,27.8,22.2,,,,,,,,,METAR,357.0
KLEX 222354Z AUTO 17006KT 10SM CLR 20/09 A3008 RMK AO2 SLP182 T02000089 10261 20200 53010,KLEX,2022-10-22T23:54:00Z,38.03,-84.6,20.0,8.9,170,6,,10.0,30.079725,1018.2,,TRUE,TRUE,,,,,,,CLR,,,,,,,,VFR,1.0,26.1,20.0,,,,,,,,,METAR,294.0
KLAF 222354Z 14003KT 10SM CLR 21/12 A2991 RMK AO2 SLP127 T02060117 10261 20206 51014,KLAF,2022-10-22T23:54:00Z,40.42,-86.93,20.6,11.7,140,3,,10.0,29.911417,1012.7,,,TRUE,,,,,,,CLR,,,,,,,,VFR,1.4,26.1,20.6,,,,,,,,,METAR,182.0
KJST 222354Z AUTO 14005KT CLR 13/01 A3021 RMK AO2 SLP235 T01280011 10200 20128 51013 $,KJST,2022-10-22T23:54:00Z,40.32,-78.83,12.8,1.1,140,5,,,30.209646,1023.5,,TRUE,TRUE,TRUE,,,,,,CLR,,,,,,,,,1.3,20.0,12.8,,,,,,,,,METAR,695.0
KJAN 222354Z 15007KT 10SM SCT120 21/11 A3000 RMK AO2 SLP155 T02060111 10278 20206 55002,KJAN,2022-10-22T23:54:00Z,32.32,-90.08,20.6,11.1,150,7,,10.0,30.0,1015.5,,,TRUE,,,,,,,SCT,12000,,,,,,,VFR,-0.2,27.8,20.6,,,,,,,,,METAR,92.0
KIZG 222354Z AUTO 20003KT 10SM CLR 07/04 A3027 RMK AO2 SLP255 T00670044 10211 20067 53018,KIZG,2022-10-22T23:54:00Z,43.98,-70.95,6.7,4.4,200,3,,10.0,30.268702,1025.5,,TRUE,TRUE,,,,,,,CLR,,,,,,,,VFR,1.8,21.1,6.7,,,,,,,,,METAR,138.0
KISW 222354Z AUTO 15006KT 10SM CLR 21/08 A2969 RMK AO2 SLP056 T02060083 10256 20206 53012,KISW,2022-10-22T23:54:00Z,44.37,-89.83,20.6,8.3,150,6,,10.0,29.68996,1005.6,,TRUE,TRUE,,,,,,,CLR,,,,,,,,VFR,1.2,25.6,20.6,,,,,,,,,METAR,311.0
KIPT 222354Z 04003KT 10SM CLR 13/03 A3023 RMK AO2 SLP239 T01280033 10206 20117 53014,KIPT,2022-10-22T23:54:00Z,41.25,-76.92,12.8,3.3,40,3,,10.0,30.230314,1023.9,,,TRUE,,,,,,,CLR,,,,,,,,VFR,1.4,20.6,11.7,,,,,,,,,METAR,160.0
KINT 222354Z 00000KT 10SM CLR 13/03 A3019 RMK AO2 SLP224 T01330033 10222 20133 53003,KINT,2022-10-22T23:54:00Z,36.13,-80.22,13.3,3.3,0,0,,10.0,30.188976,1022.4,,,TRUE,,,,,,,CLR,,,,,,,,VFR,0.3,22.2,13.3,,,,,,,,,METAR,292.0
KINL 222354Z AUTO 07008G17KT 10SM CLR 12/05 A2962 RMK AO2 SLP038 T01170050 10139 20117 53001,KINL,2022-10-22T23:54:00Z,48.57,-93.4,11.7,5.0,70,8,17,10.0,29.619095,1003.8,,TRUE,TRUE,,,,,,,CLR,,,,,,,,VFR,0.1,13.9,11.7,,,,,,,,,METAR,353.0
KIND 222354Z 17011KT 10SM FEW055 BKN250 21/11 A2997 RMK AO2 SLP147 T02110111 10256 20211 53013,KIND,2022-10-22T23:54:00Z,39.72,-86.27,21.1,11.1,170,11,,10.0,29.970472,1014.7,,,TRUE,,,,,,,FEW,5500,BKN,25000,,,,,VFR,1.3,25.6,21.1,,,,,,,,,METAR,242.0
KIMT 222354Z AUTO 14005KT 10SM CLR 14/09 A2974 RMK AO2 SLP078 T01440094 10206 20144 53015,KIMT,2022-10-22T23:54:00Z,45.82,-88.12,14.4,9.4,140,5,,10.0,29.740158,1007.8,,TRUE,TRUE,,,,,,,CLR,,,,,,,,VFR,1.5,20.6,14.4,,,,,,,,,METAR,343.0
KILN 222354Z AUTO 16005KT 10SM CLR 18/09 A3007 RMK AO2 SLP188 T01830089 10256 20183 53015,KILN,2022-10-22T23:54:00Z,39.43,-83.8,18.3,8.9,160,5,,10.0,30.070866,1018.8,,TRUE,TRUE,,,,,,,CLR,,,,,,,,VFR,1.5,25.6,18.3,,,,,,,,,METAR,325.0
KHWD 222354Z 24011KT 10SM CLR 17/09 A2975 RMK AO2 SLP083 T01720094 10200 20172 56006,KHWD,2022-10-22T23:54:00Z,37.67,-122.12,17.2,9.4,240,11,,10.0,29.749016,1008.3,,,TRUE,,,,,,,CLR,,,,,,,,VFR,-0.6,20.0,17.2,,,,,,,,,METAR,9.0
KGSO 222354Z 00000KT 10SM CLR 14/04 A3018 RMK AO2 SLP218 T01390039 10217 20133 53004,KGSO,2022-10-22T23:54:00Z,36.1,-79.95,13.9,3.9,0,0,,10.0,30.180119,1021.8,,,TRUE,,,,,,,CLR,,,,,,,,VFR,0.4,21.7,13.3,,,,,,,,,METAR,275.0
KGED 222354Z AUTO 00000KT 10SM CLR 12/08 A3025 RMK AO2 SLP244 T01170083 10200 20117 53003,KGED,2022-10-22T23:54:00Z,38.68,-75.37,11.7,8.3,0,0,,10.0,30.250984,1024.4,,TRUE,TRUE,,,,,,,CLR,,,,,,,,VFR,0.3,20.0,11.7,,,,,,,,,METAR,15.0
KGCN 222354Z 21024G32KT 10SM FEW044 SCT055 BKN070 14/05 A2973 RMK AO2 PK WND 20036/2318 SLP001 T01390050 10172 20139 56019,KGCN,2022-10-22T23:54:00Z,35.95,-112.15,13.9,5.0,210,24,32,10.0,29.731298,1000.1,,,TRUE,,,,,,,FEW,4400,SCT,5500,BKN,7000,,,VFR,-1.9,17.2,13.9,,,,,,,,,METAR,1993.0
KGCK 222354Z 17006KT 10SM CLR 23/M05 A2946 RMK AO2 SLP954 T02281050 10300 20228 56004,KGCK,2022-10-22T23:54:00Z,37.92,-100.72,22.8,-5.0,170,6,,10.0,29.459646,995.4,,,TRUE,,,,,,,CLR,,,,,,,,VFR,-0.4,30.0,22.8,,,,,,,,,METAR,877.0
KFWA 222354Z 18007KT 10SM SCT250 18/10 A2998 RMK AO2 SLP153 T01780100 10256 20172 53016 $,KFWA,2022-10-22T23:54:00Z,40.98,-85.2,17.8,10.0,180,7,,10.0,29.97933,1015.3,,,TRUE,TRUE,,,,,,SCT,25000,,,,,,,VFR,1.6,25.6,17.2,,,,,,,,,METAR,243.0
KFIG 222354Z AUTO 35004KT 10SM CLR 12/03 A3022 RMK AO2 SLP240 T01220033 10217 20122 51017,KFIG,2022-10-22T23:54:00Z,41.05,-78.42,12.2,3.3,350,4,,10.0,30.221457,1024.0,,TRUE,TRUE,,,,,,,CLR,,,,,,,,VFR,1.7,21.7,12.2,,,,,,,,,METAR,461.0
KFFZ 222354Z 20012G21KT 10SM FEW065 29/11 A2960 RMK AO2 PK WND 19026/2325 SLP001 T02940106 10306 20267 56017,KFFZ,2022-10-22T23:54:00Z,33.47,-111.72,29.4,10.6,200,12,21,10.0,29.601377,1000.1,,,TRUE,,,,,,,FEW,6500,,,,,,,VFR,-1.7,30.6,26.7,,,,,,,,,METAR,420.0
KEWN 222354Z AUTO 06007KT 10SM CLR 17/12 A3016 RMK AO2 SLP214 T01720122 10233 20172 53010,KEWN,2022-10-22T23:54:00Z,35.07,-77.05,17.2,12.2,60,7,,10.0,30.159449,1021.4,,TRUE,TRUE,,,,,,,CLR,,,,,,,,VFR,1.0,23.3,17.2,,,,,,,,,METAR,3.0
KEVV 222354Z 17008KT 10SM CLR 22/11 A2998 RMK AO2 SLP150 T02220111 10261 20222 53009,KEVV,2022-10-22T23:54:00Z,38.05,-87.52,22.2,11.1,170,8,,10.0,29.97933,1015.0,,,TRUE,,,,,,,CLR,,,,,,,,VFR,0.9,26.1,22.2,,,,,,,,,METAR,123.0
KEUG 222354Z 23009KT 10SM -RA SCT020 BKN050 BKN070 11/07 A2988 RMK AO2 RAB33 SLP119 P0000 60004 T01110072 10150 20100 53002 $,KEUG,2022-10-22T23:54:00Z,44.13,-123.22,11.1,7.2,230,9,,10.0,29.878937,1011.9,,,TRUE,TRUE,,,,,-RA,SCT,2000,BKN,5000,BKN,7000,,,VFR,0.2,15.0,10.0,,,0.005,,0.04,,,,METAR,109.0
KEFD 222354Z 15010G18KT 10SM FEW055 25/16 A2992,KEFD,2022-10-22T23:54:00Z,29.6,-95.17,25.0,16.0,150,10,18,10.0,29.920275,,,,,,,,,,,FEW,5500,,,,,,,VFR,,,,,,,,,,,,METAR,9.0
KECG 222354Z 01009KT 10SM CLR 16/13 A3019 RMK AO2 SLP222 T01610128 10217 20161 53006,KECG,2022-10-22T23:54:00Z,36.27,-76.18,16.1,12.8,10,9,,10.0,30.188976,1022.2,,,TRUE,,,,,,,CLR,,,,,,,,VFR,0.6,21.7,16.1,,,,,,,,,METAR,2.0
KDYL 222354Z AUTO 00000KT 10SM CLR 13/06 A3025 RMK AO2 SLP249 T01330056 10206 20122 53006,KDYL,2022-10-22T23:54:00Z,40.33,-75.12,13.3,5.6,0,0,,10.0,30.250984,1024.9,,TRUE,TRUE,,,,,,,CLR,,,,,,,,VFR,0.6,20.6,12.2,,,,,,,,,METAR,121.0
KDSV 222354Z AUTO 16006KT 10SM CLR 14/04 A3017 RMK AO2 SLP227 T01390039 10239 20133 53022,KDSV,2022-10-22T23:54:00Z,42.57,-77.72,13.9,3.9,160,6,,10.0,30.171259,1022.7,,TRUE,TRUE,,,,,,,CLR,,,,,,,,VFR,2.2,23.9,13.3,,,,,,,,,METAR,195.0
KDSM 222354Z 18007KT 10SM FEW070 24/09 A2957 RMK AO2 SLP010 T02390094 10283 20239 53016,KDSM,2022-10-22T23:54:00Z,41.53,-93.67,23.9,9.4,180,7,,10.0,29.568897,1001.0,,,TRUE,,,,,,,FEW,7000,,,,,,,VFR,1.6,28.3,23.9,,,,,,,,,METAR,286.0
KDMH 222354Z AUTO 16/03 A3025 RMK AO1 SLP243 T01610033 10206 20161 53006,KDMH,2022-10-22T23:54:00Z,39.28,-76.62,16.1,3.3,,,,,30.250984,1024.3,,TRUE,TRUE,,,,,,,,,,,,,,,,0.6,20.6,16.1,,,,,,,,,METAR,4.0
KDEC 222354Z 17016G27KT 10SM CLR 21/13 A2986 RMK AO2 PK WND 16027/2347 SLP108 T02110128 10267 20211 53014,KDEC,2022-10-22T23:54:00Z,39.83,-88.87,21.1,12.8,170,16,27,10.0,29.861221,1010.8,,,TRUE,,,,,,,CLR,,,,,,,,VFR,1.4,26.7,21.1,,,,,,,,,METAR,205.0
KDDH 222354Z AUTO 00000KT 10SM CLR 12/M01 A3026 RMK AO2 SLP250 T01221006 10222 20122 53016,KDDH,2022-10-22T23:54:00Z,42.9,-73.25,12.2,-0.6,0,0,,10.0,30.259842,1025.0,,TRUE,TRUE,,,,,,,CLR,,,,,,,,VFR,1.6,22.2,12.2,,,,,,,,,METAR,241.0
KCRW 222354Z 00000KT 10SM FEW250 16/08 A3013 RMK AO2 SLP204 T01610078 10244 20161 53008,KCRW,2022-10-22T23:54:00Z,38.38,-81.58,16.1,7.8,0,0,,10.0,30.129921,1020.4,,,TRUE,,,,,,,FEW,25000,,,,,,,VFR,0.8,24.4,16.1,,,,,,,,,METAR,278.0
KCOU 222354Z 17021G31KT 10SM CLR 23/10 A2971 RMK AO2 PK WND 16031/2351 SLP054 T02330100 10306 20233 53016,KCOU,2022-10-22T23:54:00Z,38.82,-92.22,23.3,10.0,170,21,31,10.0,29.71063,1005.4,,,TRUE,,,,,,,CLR,,,,,,,,VFR,1.6,30.6,23.3,,,,,,,,,METAR,272.0
KCOS 222354Z 19011KT 10SM FEW070 20/M08 A2956 RMK AO2 SLP934 T02001078 10250 20200 56002 $,KCOS,2022-10-22T23:54:00Z,38.82,-104.68,20.0,-7.8,190,11,,10.0,29.56004,993.4,,,TRUE,TRUE,,,,,,FEW,7000,,,,,,,VFR,-0.2,25.0,20.0,,,,,,,,,METAR,1886.0
KCEU 222354Z AUTO 00000KT 10SM CLR 16/04 A3015 RMK AO2 SLP209 T01560044 10222 20156 55001,KCEU,2022-10-22T23:54:00Z,34.67,-82.88,15.6,4.4,0,0,,10.0,30.15059,1020.9,,TRUE,TRUE,,,,,,,CLR,,,,,,,,VFR,-0.1,22.2,15.6,,,,,,,,,METAR,270.0
KCAR 222354Z AUTO 18006KT 10SM CLR 13/04 A3017 RMK AO2 SLP224 T01280039 10189 20122 51017,KCAR,2022-10-22T23:54:00Z,46.87,-68.02,12.8,3.9,180,6,,10.0,30.171259,1022.4,,TRUE,TRUE,,,,,,,CLR,,,,,,,,VFR,1.7,18.9,12.2,,,,,,,,,METAR,189.0
KBWI 222354Z 10004KT 10SM SCT250 13/06 A3024 RMK AO2 SLP240 T01330056 10217 20122 53008 $,KBWI,2022-10-22T23:54:00Z,39.17,-76.68,13.3,5.6,100,4,,10.0,30.239174,1024.0,,,TRUE,TRUE,,,,,,SCT,25000,,,,,,,VFR,0.8,21.7,12.2,,,,,,,,,METAR,42.0
KBUY 222354Z AUTO 00000KT 10SM CLR 11/07 A3018 RMK AO2 SLP220 T01110072 10222 20111 53005,KBUY,2022-10-22T23:54:00Z,36.05,-79.47,11.1,7.2,0,0,,10.0,30.180119,1022.0,,TRUE,TRUE,,,,,,,CLR,,,,,,,,VFR,0.5,22.2,11.1,,,,,,,,,METAR,185.0
KBUF 222354Z 17008G17KT 10SM FEW300 18/03 A3012 RMK AO2 SLP200 T01780033 10228 20161 53013 $,KBUF,2022-10-22T23:54:00Z,42.93,-78.73,17.8,3.3,170,8,17,10.0,30.121063,1020.0,,,TRUE,TRUE,,,,,,FEW,30000,,,,,,,VFR,1.3,22.8,16.1,,,,,,,,,METAR,217.0
KBTV 222354Z 20010KT 10SM CLR 17/02 A3021 RMK AO2 SLP230 T01670022 10206 20167 53018,KBTV,2022-10-22T23:54:00Z,44.47,-73.15,16.7,2.2,200,10,,10.0,30.209646,1023.0,,,TRUE,,,,,,,CLR,,,,,,,,VFR,1.8,20.6,16.7,,,,,,,,,METAR,101.0
KBOS 222354Z 21006KT 10SM OVC250 14/08 A3030 RMK AO2 SLP259 T01440078 10200 20144 53013,KBOS,2022-10-22T23:54:00Z,42.37,-71.02,14.4,7.8,210,6,,10.0,30.301182,1025.9,,,TRUE,,,,,,,OVC,25000,,,,,,,VFR,1.3,20.0,14.4,,,,,,,,,METAR,4.0
KBFL 222354Z 32013KT 8SM CLR 23/11 A2966 RMK AO2 SLP038 T02330106 10244 20211 56017,KBFL,2022-10-22T23:54:00Z,35.43,-119.05,23.3,10.6,320,13,,8.0,29.660433,1003.8,,,TRUE,,,,,,,CLR,,,,,,,,VFR,-1.7,24.4,21.1,,,,,,,,,METAR,146.0
KAVP 222354Z A3025 RMK AO2 SLPNO 53017 $,KAVP,2022-10-22T23:54:00Z,41.33,-75.72,,,,,,,30.250984,,,,TRUE,TRUE,,,,,,,,,,,,,,,1.7,,,,,,,,,,,METAR,290.0
KAVL 222354Z 00000KT 10SM CLR 12/02 A3019 RMK AO2 SLP224 T01220022 10206 20122 51003,KAVL,2022-10-22T23:54:00Z,35.43,-82.53,12.2,2.2,0,0,,10.0,30.188976,1022.4,,,TRUE,,,,,,,CLR,,,,,,,,VFR,0.3,20.6,12.2,,,,,,,,,METAR,646.0
KAUW 222354Z AUTO A2968 RMK AO2 SLPNO 53013 PWINO FZRANO $,KAUW,2022-10-22T23:54:00Z,44.93,-89.62,,,,,,,29.681103,,,TRUE,TRUE,TRUE,,,TRUE,TRUE,,,,,,,,,,,1.3,,,,,,,,,,,METAR,367.0
KAPN 222354Z AUTO 18007KT 10SM CLR 17/08 A2988 RMK AO2 SLP119 T01670083 10239 20167 53016,KAPN,2022-10-22T23:54:00Z,45.07,-83.57,16.7,8.3,180,7,,10.0,29.878937,1011.9,,TRUE,TRUE,,,,,,,CLR,,,,,,,,VFR,1.6,23.9,16.7,,,,,,,,,METAR,208.0
KAPC 222354Z AUTO 26017KT 10SM CLR 22/06 A2970 RMK AO2 SLP050 T02220056 10244 20200 56009,KAPC,2022-10-22T23:54:00Z,38.2,-122.28,22.2,5.6,260,17,,10.0,29.698818,1005.0,,TRUE,TRUE,,,,,,,CLR,,,,,,,,VFR,-0.9,24.4,20.0,,,,,,,,,METAR,5.0
KALO 222354Z 15009G18KT 10SM CLR 25/08 A2959 RMK AO2 SLP019 T02500083 10289 20250 53014,KALO,2022-10-22T23:54:00Z,42.55,-92.4,25.0,8.3,150,9,18,10.0,29.589567,1001.9,,,TRUE,,,,,,,CLR,,,,,,,,VFR,1.4,28.9,25.0,,,,,,,,,METAR,264.0
KAKR 222354Z AUTO 14004KT 7SM CLR 19/07 A3011 RMK AO2 SLP194 T01890072 10239 20189 53016,KAKR,2022-10-22T23:54:00Z,41.03,-81.47,18.9,7.2,140,4,,7.0,30.109253,1019.4,,TRUE,TRUE,,,,,,,CLR,,,,,,,,VFR,1.6,23.9,18.9,,,,,,,,,METAR,319.0
KAKQ 222354Z AUTO 00000KT 10SM CLR 13/09 A3022 RMK AO2 SLP234 T01280094 10228 20122 53006,KAKQ,2022-10-22T23:54:00Z,36.98,-77.0,12.8,9.4,0,0,,10.0,30.221457,1023.4,,TRUE,TRUE,,,,,,,CLR,,,,,,,,VFR,0.6,22.8,12.2,,,,,,,,,METAR,34.0
KAKH 222354Z AUTO 00000KT 9SM CLR 12/04 A3016 RMK AO2 SLP216 T01170044 10228 20117 55000,KAKH,2022-10-22T23:54:00Z,35.2,-81.15,11.7,4.4,0,0,,9.0,30.159449,1021.6,,TRUE,TRUE,,,,,,,CLR,,,,,,,,VFR,0.0,22.8,11.7,,,,,,,,,METAR,242.0
KACY 222354Z 00000KT 10SM CLR 11/09 A3026 RMK AO2 SLP248 T01060089 10189 20106 53001,KACY,2022-10-22T23:54:00Z,39.45,-74.57,10.6,8.9,0,0,,10.0,30.259842,1024.8,,,TRUE,,,,,,,CLR,,,,,,,,VFR,0.1,18.9,10.6,,,,,,,,,METAR,18.0
KAAO 222354Z AUTO 17008KT 10SM CLR 26/01 A2950 RMK AO2 SLP977 T02610011 10300 20261 53002,KAAO,2022-10-22T23:54:00Z,37.75,-97.22,26.1,1.1,170,8,,10.0,29.500984,997.7,,TRUE,TRUE,,,,,,,CLR,,,,,,,,VFR,0.2,30.0,26.1,,,,,,,,,METAR,429.0
K1V4 222354Z AUTO 10/04 A3024 RMK AO1 SLP245 6//// T01000044 10200 20100 53021 PNO,K1V4,2022-10-22T23:54:00Z,44.42,-72.02,10.0,4.4,,,,,30.239174,1024.5,,TRUE,TRUE,,,,,,,,,,,,,,,,2.1,20.0,10.0,,,,,,,,,METAR,213.0
K12N 222354Z AUTO 00000KT 11/06 A3027 RMK AO1 SLP256 T01060061 10222 20106 53011,K12N,2022-10-22T23:54:00Z,41.02,-74.73,10.6,6.1,0,0,,,30.268702,1025.6,,TRUE,TRUE,,,,,,,,,,,,,,,,1.1,22.2,10.6,,,,,,,,,METAR,178.0
TISX 222353Z 02004KT 10SM CLR 27/23 A2990 RMK AO2 SLP125 T02670233 10311 20267 53015 $,TISX,2022-10-22T23:53:00Z,17.7,-64.8,26.7,23.3,20,4,,10.0,29.899607,1012.5,,,TRUE,TRUE,,,,,,CLR,,,,,,,,VFR,1.5,31.1,26.7,,,,,,,,,METAR,16.0
TIST 222353Z 08003KT 10SM CLR 27/23 A2990 RMK AO2 SLP124 60008 T02670233 10306 20267 53014,TIST,2022-10-22T23:53:00Z,18.33,-64.98,26.7,23.3,80,3,,10.0,29.899607,1012.4,,,TRUE,,,,,,,CLR,,,,,,,,VFR,1.4,30.6,26.7,,,,,0.08,,,,METAR,5.0
PHTO 222353Z 11009KT 070V130 10SM SCT040 29/20 A2999 RMK AO2 SLP154 60000 T02940200 10294 20228 58026,PHTO,2022-10-22T23:53:00Z,19.72,-155.05,29.4,20.0,110,9,,10.0,29.991142,1015.4,,,TRUE,,,,,,,SCT,4000,,,,,,,VFR,-2.6,29.4,22.8,,,,,0.005,,,,METAR,9.0
PHNL 222353Z 06014KT 10SM FEW028 SCT042 32/21 A2998 RMK AO2 SLP150 T03170206 10317 20267 58021,PHNL,2022-10-22T23:53:00Z,21.33,-157.93,31.7,20.6,60,14,,10.0,29.97933,1015.0,,,TRUE,,,,,,,FEW,2800,SCT,4200,,,,,VFR,-2.1,31.7,26.7,,,,,,,,,METAR,2.0
PHKO 222353Z 23014KT 10SM SCT050 32/22 A2993 RMK AO2 SLP134 T03170217 10322 20283 56021,PHKO,2022-10-22T23:53:00Z,19.73,-156.05,31.7,21.7,230,14,,10.0,29.929134,1013.4,,,TRUE,,,,,,,SCT,5000,,,,,,,VFR,-2.1,32.2,28.3,,,,,,,,,METAR,11.0
PHJR 222353Z 07007G14KT 040V100 10SM BKN043 31/19 A2998 RMK AO2 SLP160 T03110189 10322 20256 58022,PHJR,2022-10-22T23:53:00Z,21.32,-158.07,31.1,18.9,70,7,14,10.0,29.97933,1016.0,,,TRUE,,,,,,,BKN,4300,,,,,,,VFR,-2.2,32.2,25.6,,,,,,,,,METAR,9.0
PAYA 222353Z AUTO 07005KT 10SM OVC100 07/04 A2987 RMK AO2 SLP115 T00720039 10078 20006 58009 TSNO $,PAYA,2022-10-22T23:53:00Z,59.52,-139.67,7.2,3.9,70,5,,10.0,29.870079,1011.5,,TRUE,TRUE,TRUE,,TRUE,,,,OVC,10000,,,,,,,VFR,-0.9,7.8,0.6,,,,,,,,,METAR,9.0
PAWD 222353Z AUTO 01004KT 10SM CLR 06/M03 A2977 RMK AO2 SLP081 T00611033 10067 20011 56017 TSNO,PAWD,2022-10-22T23:53:00Z,60.12,-149.42,6.1,-3.3,10,4,,10.0,29.769686,1008.1,,TRUE,TRUE,,,TRUE,,,,CLR,,,,,,,,VFR,-1.7,6.7,1.1,,,,,,,,,METAR,3.0
PATO 222353Z AUTO 00000KT 10SM OVC065 01/M01 A2981 RMK AO2 SLP094 T00111006 10022 21028 57021 TSNO,PATO,2022-10-22T23:53:00Z,60.78,-148.85,1.1,-0.6,0,0,,10.0,29.811024,1009.4,,TRUE,TRUE,,,TRUE,,,,OVC,6500,,,,,,,VFR,-2.1,2.2,-2.8,,,,,,,,,METAR,47.0
PATK 222353Z 01003KT 10SM CLR 02/M03 A2983 RMK AO2 SLP107 T00221033 10022 21044 58019,PATK,2022-10-22T23:53:00Z,62.32,-150.1,2.2,-3.3,10,3,,10.0,29.828741,1010.7,,,TRUE,,,,,,,CLR,,,,,,,,VFR,-1.9,2.2,-4.4,,,,,,,,,METAR,107.0
PASO 222353Z AUTO 01006KT 10SM CLR 06/02 A2973 RMK AO2 SLP066 T00610017 10067 20022 58021 TSNO,PASO,2022-10-22T23:53:00Z,59.45,-151.7,6.1,1.7,10,6,,10.0,29.731298,1006.6,,TRUE,TRUE,,,TRUE,,,,CLR,,,,,,,,VFR,-2.1,6.7,2.2,,,,,,,,,METAR,20.0
PASN 222353Z AUTO 23013KT 10SM FEW010 BKN065 06/04 A2997 RMK AO2 SLP150 T00610039 10067 20017 51009 TSNO $,PASN,2022-10-22T23:53:00Z,57.15,-170.22,6.1,3.9,230,13,,10.0,29.970472,1015.0,,TRUE,TRUE,TRUE,,TRUE,,,,FEW,1000,BKN,6500,,,,,VFR,0.9,6.7,1.7,,,,,,,,,METAR,8.0
PASI 222353Z 14003KT 9SM FEW025 BKN200 09/03 A2991,PASI,2022-10-22T23:53:00Z,57.03,-135.35,9.0,3.0,140,3,,9.0,29.911417,,,,,,,,,,,FEW,2500,BKN,20000,,,,,VFR,,,,,,,,,,,,METAR,2.0
PASC 222353Z 10014KT 10SM OVC048 M04/M06 A2996 RMK AO2 SLP145 I6000 T10391056 11039 21044 53003 $,PASC,2022-10-22T23:53:00Z,70.2,-148.47,-3.9,-5.6,100,14,,10.0,29.958662,1014.5,,,TRUE,TRUE,,,,,,OVC,4800,,,,,,,VFR,0.3,-3.9,-4.4,,,,,,,,,METAR,17.0
PAQT 222353Z AUTO 09007KT 10SM BKN090 M06/M08 A2997 RMK AO2 SLP148 T10611078 11044 21061 52003 TSNO,PAQT,2022-10-22T23:53:00Z,70.22,-151.0,-6.1,-7.8,90,7,,10.0,29.970472,1014.8,,TRUE,TRUE,,,TRUE,,,,BKN,9000,,,,,,,VFR,0.3,-4.4,-6.1,,,,,,,,,METAR,11.0
PAOT 222353Z 13013KT 3SM R09/6000VP6000FT -SN BR SCT006 BKN044 OVC060 M01/M01 A2981 RMK AO2 VIS 2 E SNB34 SLP094 P0000 60000 I6015 T10111011 11011 21022 50000,PAOT,2022-10-22T23:53:00Z,66.88,-162.6,-1.1,-1.1,130,13,,3.0,29.811024,1009.4,,,TRUE,,,,,,-SN BR,SCT,600,BKN,4400,OVC,6000,,,MVFR,0.0,-1.1,-2.2,,,0.005,,0.005,,,,METAR,3.0
PAOR 222353Z 31004KT 5SM -SN BR BKN040 OVC045 M01/M03 A2984 RMK AO2 SLP134 4/006 P0000 60000 T10061028 11006 21028 57004 $,PAOR,2022-10-22T23:53:00Z,62.97,-141.93,-0.6,-2.8,310,4,,5.0,29.840551,1013.4,,,TRUE,TRUE,,,,,-SN BR,BKN,4000,OVC,4500,,,,,MVFR,-0.4,-0.6,-2.8,,,0.005,,0.005,,6.0,,METAR,524.0
PANC 222353Z 03008KT 10SM FEW010 BKN180 02/M02 A2981 RMK AO2 SLP095 T00221017 10022 21022 57018,PANC,2022-10-22T23:53:00Z,61.17,-150.02,2.2,-1.7,30,8,,10.0,29.811024,1009.5,,,TRUE,,,,,,,FEW,1000,BKN,18000,,,,,VFR,-1.8,2.2,-2.2,,,,,,,,,METAR,39.0
PAMR 222353Z 01007KT 10SM CLR 02/M02 A2981 RMK AO2 SLP097 I6001 T00221022 10022 21033 58017,PAMR,2022-10-22T23:53:00Z,61.22,-149.85,2.2,-2.2,10,7,,10.0,29.811024,1009.7,,,TRUE,,,,,,,CLR,,,,,,,,VFR,-1.7,2.2,-3.3,,,,,,,,,METAR,43.0
PALH 222353Z 05009KT 10SM CLR 01/M01 A2982 RMK AO2 SLP099 T00111011 10011 21028 58018,PALH,2022-10-22T23:53:00Z,61.18,-149.97,1.1,-1.1,50,9,,10.0,29.819881,1009.9,,,TRUE,,,,,,,CLR,,,,,,,,VFR,-1.8,1.1,-2.8,,,,,,,,,METAR,26.0
PAKW 222353Z AUTO 00000KT 10SM BKN050 10/03 A2991 RMK AO2 SLP127 T01000028 10117 20039 53002 TSNO $,PAKW,2022-10-22T23:53:00Z,55.58,-133.07,10.0,2.8,0,0,,10.0,29.911417,1012.7,,TRUE,TRUE,TRUE,,TRUE,,,,BKN,5000,,,,,,,VFR,0.2,11.7,3.9,,,,,,,,,METAR,7.0
PAKT 222353Z 28004KT 10SM SCT045 08/02 A2993 RMK AO2 SLP135 HARBOR WIND 28010KT T00830022 10094 20078 53001,PAKT,2022-10-22T23:53:00Z,55.35,-131.72,8.3,2.2,280,4,,10.0,29.929134,1013.5,,,TRUE,,,,,,,SCT,4500,,,,,,,VFR,0.1,9.4,7.8,,,,,,,,,METAR,27.0
PAJN 222353Z 00000KT 10SM FEW022 SCT038 BKN280 06/04 A2992 RMK AO2 SLP130 T00610044 10078 20056 55006 $,PAJN,2022-10-22T23:53:00Z,58.35,-134.55,6.1,4.4,0,0,,10.0,29.920275,1013.0,,,TRUE,TRUE,,,,,,FEW,2200,SCT,3800,BKN,28000,,,VFR,-0.6,7.8,5.6,,,,,,,,,METAR,6.0
PAIL 222353Z 36008G16KT 10SM BKN044 OVC120 03/M01 A2978 RMK AO2 SLP089 I6000 T00281006 10028 21006 58014,PAIL,2022-10-22T23:53:00Z,59.75,-154.92,2.8,-0.6,360,8,16,10.0,29.778543,1008.9,,,TRUE,,,,,,,BKN,4400,OVC,12000,,,,,VFR,-1.4,2.8,-0.6,,,,,,,,,METAR,44.0
PAHO 222353Z 06006KT 10SM CLR 06/01 A2974 RMK AO2 SLP071 T00560011 10061 20011 58021,PAHO,2022-10-22T23:53:00Z,59.63,-151.48,5.6,1.1,60,6,,10.0,29.740158,1007.1,,,TRUE,,,,,,,CLR,,,,,,,,VFR,-2.1,6.1,1.1,,,,,,,,,METAR,6.0
PAGY 222353Z AUTO 22012KT 10SM CLR 07/03 A2987 RMK AO2 SLP115 T00670033 10067 20039 56017 TSNO $,PAGY,2022-10-22T23:53:00Z,59.47,-135.32,6.7,3.3,220,12,,10.0,29.870079,1011.5,,TRUE,TRUE,TRUE,,TRUE,,,,CLR,,,,,,,,VFR,-1.7,6.7,3.9,,,,,,,,,METAR,7.0
PAFA 222353Z 11003KT 3SM -SN BR BKN004 OVC010 01/M01 A2992 RMK AO2 SLP142 VIS HYR NE P0000 60001 T00061011 10006 20000 58001,PAFA,2022-10-22T23:53:00Z,64.8,-147.87,0.6,-1.1,110,3,,3.0,29.920275,1014.2,,,TRUE,,,,,,-SN BR,BKN,400,OVC,1000,,,,,LIFR,-0.1,0.6,0.0,,,0.005,,0.01,,,,METAR,130.0
PAEN 222353Z 03013KT 10SM FEW011 02/00 A2981 RMK AO2 SLP096 I6004 T00220000 10022 21006 58017,PAEN,2022-10-22T23:53:00Z,60.57,-151.25,2.2,0.0,30,13,,10.0,29.811024,1009.6,,,TRUE,,,,,,,FEW,1100,,,,,,,VFR,-1.7,2.2,-0.6,,,,,,,,,METAR,30.0
PADQ 222353Z 02007KT 10SM -RA BKN021 OVC034 06/03 A2964 RMK AO2 SLP037 P0001 60010 T00610028 10072 20028 58031,PADQ,2022-10-22T23:53:00Z,57.75,-152.5,6.1,2.8,20,7,,10.0,29.639763,1003.7,,,TRUE,,,,,,-RA,BKN,2100,OVC,3400,,,,,MVFR,-3.1,7.2,2.8,,,0.01,,0.1,,,,METAR,5.0
PACV 222353Z 07006KT 10SM FEW020 SCT055 BKN200 08/M02 A2980 RMK AO2 SLP090 I6000 T00781017 10094 21011 56017,PACV,2022-10-22T23:53:00Z,60.5,-145.47,7.8,-1.7,70,6,,10.0,29.799213,1009.0,,,TRUE,,,,,,,FEW,2000,SCT,5500,BKN,20000,,,VFR,-1.7,9.4,-1.1,,,,,,,,,METAR,15.0
PACD 222353Z 31011G19KT 10SM -RA BKN016 BKN028 OVC034 06/06 A2995 RMK AO2 RAE05B29 SLP141 P0001 60010 T00610056 10067 20039 53016,PACD,2022-10-22T23:53:00Z,55.22,-162.72,6.1,5.6,310,11,19,10.0,29.949802,1014.1,,,TRUE,,,,,,-RA,BKN,1600,BKN,2800,OVC,3400,,,MVFR,1.6,6.7,3.9,,,0.01,,0.1,,,,METAR,23.0
PABT 222353Z 35003KT 10SM -SN FEW006 BKN024 BKN034 M02/M05 A2994 RMK AO2 SLP153 PCPN VRY LGT 4/007 P0000 60002 T10221050 11017 21050 51003 $,PABT,2022-10-22T23:53:00Z,66.92,-151.52,-2.2,-5.0,350,3,,10.0,29.940945,1015.3,,,TRUE,TRUE,,,,,-SN,FEW,600,BKN,2400,BKN,3400,,,MVFR,0.3,-1.7,-5.0,,,0.005,,0.02,,7.0,,METAR,195.0
PABR 222353Z 11019KT 6SM BR OVC008 M03/M04 A2993 RMK AO2 PK WND 10031/2315 SLP135 60000 T10331044 11028 21033 51001,PABR,2022-10-22T23:53:00Z,71.28,-156.78,-3.3,-4.4,110,19,,6.0,29.929134,1013.5,,,TRUE,,,,,,BR,OVC,800,,,,,,,IFR,0.1,-2.8,-3.3,,,,,0.005,,,,METAR,6.0
PABI 222353Z 33003KT 10SM SCT008 BKN050 OVC110 M02/M03 A2991 RMK AO2 T10171033,PABI,2022-10-22T23:53:00Z,64.0,-145.72,-1.7,-3.3,330,3,,10.0,29.911417,,,,TRUE,,,,,,,SCT,800,BKN,5000,OVC,11000,,,VFR,,,,,,,,,,,,METAR,388.0
PABE 222353Z 36005KT 1/4SM FG OVC001 00/00 A2992 RMK AO2 SLP134 I6001 T00000000 10000 21044 51004 RVRNO,PABE,2022-10-22T23:53:00Z,60.78,-161.83,0.0,0.0,360,5,,0.25,29.920275,1013.4,,,TRUE,,,,,,FG,OVC,100,,,,,,,LIFR,0.4,0.0,-4.4,,,,,,,,,METAR,28.0
PAAQ 222353Z 16004KT 10SM CLR 03/M04 A2980 RMK AO2 SLP094 T00331039 10050 21017 56019,PAAQ,2022-10-22T23:53:00Z,61.6,-149.08,3.3,-3.9,160,4,,10.0,29.799213,1009.4,,,TRUE,,,,,,,CLR,,,,,,,,VFR,-1.9,5.0,-1.7,,,,,,,,,METAR,68.0
MMLT 222353Z 28018KT 10SM SCT200 BKN260 30/16 A2972 RMK SLP064 8/008,MMLT,2022-10-22T23:53:00Z,25.98,-111.33,30.0,16.0,280,18,,10.0,29.719488,1006.4,,,,,,,,,,SCT,20000,BKN,26000,,,,,VFR,,,,,,,,,,,,METAR,4.0
KZZV 222353Z AUTO 13006KT 10SM CLR 18/08 A3012 RMK AO2 SLP198 T01780083 10233 20178 53014,KZZV,2022-10-22T23:53:00Z,39.95,-81.9,17.8,8.3,130,6,,10.0,30.121063,1019.8,,TRUE,TRUE,,,,,,,CLR,,,,,,,,VFR,1.4,23.3,17.8,,,,,,,,,METAR,268.0
KYKM 222353Z AUTO 31009KT 10SM SCT120 12/01 A2968 RMK AO2 SLP052 T01220006 10150 20117 53011,KYKM,2022-10-22T23:53:00Z,46.57,-120.53,12.2,0.6,310,9,,10.0,29.681103,1005.2,,TRUE,TRUE,,,,,,,SCT,12000,,,,,,,VFR,1.1,15.0,11.7,,,,,,,,,METAR,319.0
KYIP 222353Z 17008KT 10SM CLR 20/07 A3000 RMK AO2 SLP155 T02000072 10267 20200 53014,KYIP,2022-10-22T23:53:00Z,42.23,-83.53,20.0,7.2,170,8,,10.0,30.0,1015.5,,,TRUE,,,,,,,CLR,,,,,,,,VFR,1.4,26.7,20.0,,,,,,,,,METAR,215.0
KXNA 222353Z 17018G24KT 10SM FEW060 23/12 A2973 RMK AO2 PK WND 17028/2326 SLP055 60000 T02330122 10267 20233 53017,KXNA,2022-10-22T23:53:00Z,36.28,-94.3,23.3,12.2,170,18,24,10.0,29.731298,1005.5,,,TRUE,,,,,,,FEW,6000,,,,,,,VFR,1.7,26.7,23.3,,,,,0.005,,,,METAR,390.0
KWVI 222353Z AUTO 28006G17KT 10SM CLR 18/05 A2975 RMK AO2 SLP072 T01780050 10222 20172 56006,KWVI,2022-10-22T23:53:00Z,36.93,-121.78,17.8,5.0,280,6,17,10.0,29.749016,1007.2,,TRUE,TRUE,,,,,,,CLR,,,,,,,,VFR,-0.6,22.2,17.2,,,,,,,,,METAR,47.0
KWST 222353Z AUTO 00000KT 10SM CLR 10/08 A3030 RMK AO2 SLP259 T01000083 10183 20100 53005,KWST,2022-10-22T23:53:00Z,41.35,-71.8,10.0,8.3,0,0,,10.0,30.301182,1025.9,,TRUE,TRUE,,,,,,,CLR,,,,,,,,VFR,0.5,18.3,10.0,,,,,,,,,METAR,20.0
KWRL 222353Z AUTO 19016KT 10SM FEW110 17/01 A2927 RMK AO2 SLP889 T01670011 10206 20167 53006,KWRL,2022-10-22T23:53:00Z,43.97,-107.95,16.7,1.1,190,16,,10.0,29.27067,988.9,,TRUE,TRUE,,,,,,,FEW,11000,,,,,,,VFR,0.6,20.6,16.7,,,,,,,,,METAR,1281.0
KWHP 222353Z 13009G14KT 10SM FEW024 SCT029 BKN036 18/11 A2978,KWHP,2022-10-22T23:53:00Z,34.25,-118.42,18.0,11.0,130,9,14,10.0,29.778543,,,,,,,,,,,FEW,2400,SCT,2900,BKN,3600,,,VFR,,,,,,,,,,,,METAR,302.0
KVUO 222353Z AUTO 32006KT 10SM CLR 14/02 A2982 RMK AO2 SLP097 60000 T01390017 10156 20111 53008,KVUO,2022-10-22T23:53:00Z,45.62,-122.65,13.9,1.7,320,6,,10.0,29.819881,1009.7,,TRUE,TRUE,,,,,,,CLR,,,,,,,,VFR,0.8,15.6,11.1,,,,,0.005,,,,METAR,7.0
KVRB 222353Z 35003KT 10SM CLR 22/18 A3003 RMK AO2 SLP167 T02220183 10283 20222 53002,KVRB,2022-10-22T23:53:00Z,27.65,-80.42,22.2,18.3,350,3,,10.0,30.029528,1016.7,,,TRUE,,,,,,,CLR,,,,,,,,VFR,0.2,28.3,22.2,,,,,,,,,METAR,7.0
KVLD 222353Z 00000KT 10SM CLR 14/07 A3010 RMK AO2 SLP201 T01390067 10250 20139 53001 $,KVLD,2022-10-22T23:53:00Z,30.78,-83.27,13.9,6.7,0,0,,10.0,30.100393,1020.1,,,TRUE,TRUE,,,,,,CLR,,,,,,,,VFR,0.1,25.0,13.9,,,,,,,,,METAR,59.0
KVIH 222353Z AUTO 15015G31KT 10SM CLR 21/12 A2976 RMK AO2 PK WND 15034/2309 SLP071 T02110117 10267 20211 53005 $,KVIH,2022-10-22T23:53:00Z,38.13,-91.77,21.1,11.7,150,15,31,10.0,29.760826,1007.1,,TRUE,TRUE,TRUE,,,,,,CLR,,,,,,,,VFR,0.5,26.7,21.1,,,,,,,,,METAR,342.0
KVEL 222353Z AUTO 28008G18KT 10SM -RA OVC046 11/06 A2954 RMK AO2 SLP983 P0001 60001 T01060056 10194 20106 53008,KVEL,2022-10-22T23:53:00Z,40.45,-109.52,10.6,5.6,280,8,18,10.0,29.53937,998.3,,TRUE,TRUE,,,,,,-RA,OVC,4600,,,,,,,VFR,0.8,19.4,10.6,,,0.01,,0.01,,,,METAR,1604.0
KVCB 222353Z AUTO 36007KT 10SM CLR 22/00 A2971 RMK AO2 SLP059 T02170000 10250 20211 56010,KVCB,2022-10-22T23:53:00Z,38.38,-121.95,21.7,0.0,360,7,,10.0,29.71063,1005.9,,TRUE,TRUE,,,,,,,CLR,,,,,,,,VFR,-1.0,25.0,21.1,,,,,,,,,METAR,30.0
KUUU 222353Z AUTO 00000KT 10SM CLR 09/09 A3029 RMK AO2 SLP257 T00940089 10167 20094 53006,KUUU,2022-10-22T23:53:00Z,41.53,-71.28,9.4,8.9,0,0,,10.0,30.28937,1025.7,,TRUE,TRUE,,,,,,,CLR,,,,,,,,VFR,0.6,16.7,9.4,,,,,,,,,METAR,45.0
KUTS 222353Z AUTO 18008G17KT 10SM CLR 27/14 A2987 RMK AO2 PK WND 17026/2339 SLP111 T02670139 10306 20267 53001,KUTS,2022-10-22T23:53:00Z,30.75,-95.58,26.7,13.9,180,8,17,10.0,29.870079,1011.1,,TRUE,TRUE,,,,,,,CLR,,,,,,,,VFR,0.1,30.6,26.7,,,,,,,,,METAR,103.0
KUNV 222353Z 15004KT 10SM CLR 15/02 A3023,KUNV,2022-10-22T23:53:00Z,40.85,-77.83,15.0,2.0,150,4,,10.0,30.230314,,,,,,,,,,,CLR,,,,,,,,VFR,,,,,,,,,,,,METAR,365.0
KUNO 222353Z AUTO 16009KT 10SM CLR 21/10 A2984 RMK AO2 SLP097 T02110100 10239 20206 55000,KUNO,2022-10-22T23:53:00Z,36.88,-91.9,21.1,10.0,160,9,,10.0,29.840551,1009.7,,TRUE,TRUE,,,,,,,CLR,,,,,,,,VFR,0.0,23.9,20.6,,,,,,,,,METAR,376.0
KUAO 222353Z 25006KT 10SM BKN055 BKN070 OVC085 14/04 A2983 RMK AO2 SLP100 60000 T01390044 10161 20106 53008,KUAO,2022-10-22T23:53:00Z,45.25,-122.77,13.9,4.4,250,6,,10.0,29.828741,1010.0,,,TRUE,,,,,,,BKN,5500,BKN,7000,OVC,8500,,,VFR,0.8,16.1,10.6,,,,,0.005,,,,METAR,60.0
KTYS 222353Z 04004KT 10SM BKN250 17/08 A3012 RMK AO2 SLP199 T01670078 10228 20167 53001,KTYS,2022-10-22T23:53:00Z,35.82,-83.98,16.7,7.8,40,4,,10.0,30.121063,1019.9,,,TRUE,,,,,,,BKN,25000,,,,,,,VFR,0.1,22.8,16.7,,,,,,,,,METAR,300.0
KTYR 222353Z 18013KT 10SM CLR 27/12 A2980 RMK AO2 PK WND 18029/2324 SLP085 T02670122 10300 20267 56004,KTYR,2022-10-22T23:53:00Z,32.37,-95.4,26.7,12.2,180,13,,10.0,29.799213,1008.5,,,TRUE,,,,,,,CLR,,,,,,,,VFR,-0.4,30.0,26.7,,,,,,,,,METAR,161.0
KTXK 222353Z 18010KT 10SM CLR 27/13 A2981 RMK AO2 SLP091 T02720128 10294 20272 55001,KTXK,2022-10-22T23:53:00Z,33.45,-93.98,27.2,12.8,180,10,,10.0,29.811024,1009.1,,,TRUE,,,,,,,CLR,,,,,,,,VFR,-0.1,29.4,27.2,,,,,,,,,METAR,118.0
KTWF 222353Z 28014G24KT 10SM CLR 07/00 A2958 RMK AO2 PK WND 28029/2318 SLP994 60006 T00670000 10078 20039 53008,KTWF,2022-10-22T23:53:00Z,42.48,-114.48,6.7,0.0,280,14,24,10.0,29.58071,999.4,,,TRUE,,,,,,,CLR,,,,,,,,VFR,0.8,7.8,3.9,,,,,0.06,,,,METAR,1269.0
KTVR 222353Z AUTO 17008KT 10SM CLR 23/11 A2996 RMK AO2 SLP151 T02330111 10294 20233 55007,KTVR,2022-10-22T23:53:00Z,32.35,-91.03,23.3,11.1,170,8,,10.0,29.958662,1015.1,,TRUE,TRUE,,,,,,,CLR,,,,,,,,VFR,-0.7,29.4,23.3,,,,,,,,,METAR,25.0
KTVC 222353Z 22003KT 10SM SCT250 21/08 A2982 RMK AO2 SLP096 T02110083 10261 20211 53020,KTVC,2022-10-22T23:53:00Z,44.73,-85.58,21.1,8.3,220,3,,10.0,29.819881,1009.6,,,TRUE,,,,,,,SCT,25000,,,,,,,VFR,2.0,26.1,21.1,,,,,,,,,METAR,188.0
KTUS 222353Z 21015G26KT 10SM CLR 29/13 A2971 RMK AO2 PK WND 20029/2338 RAB06E15B45E49 SLP018 P0000 60000 T02890128 10311 20272 56014,KTUS,2022-10-22T23:53:00Z,32.13,-110.95,28.9,12.8,210,15,26,10.0,29.71063,1001.8,,,TRUE,,,,,,,CLR,,,,,,,,VFR,-1.4,31.1,27.2,,,0.005,,0.005,,,,METAR,776.0
KTUP 222353Z 16009KT 10SM CLR 23/11 A3001 RMK AO2 SLP160 T02280111 10272 20228 53004 $,KTUP,2022-10-22T23:53:00Z,34.27,-88.77,22.8,11.1,160,9,,10.0,30.008858,1016.0,,,TRUE,TRUE,,,,,,CLR,,,,,,,,VFR,0.4,27.2,22.8,,,,,,,,,METAR,107.0
KTUL 222353Z 17015G25KT 10SM FEW250 27/14 A2961 RMK AO2 PK WND 16028/2254 SLP020 T02720139 10294 20267 53013,KTUL,2022-10-22T23:53:00Z,36.2,-95.88,27.2,13.9,170,15,25,10.0,29.610237,1002.0,,,TRUE,,,,,,,FEW,25000,,,,,,,VFR,1.3,29.4,26.7,,,,,,,,,METAR,196.0
KTTN 222353Z 12004KT 10SM CLR 12/06 A3026 RMK AO2 SLP242 T01170061 10194 20117 53007,KTTN,2022-10-22T23:53:00Z,40.28,-74.82,11.7,6.1,120,4,,10.0,30.259842,1024.2,,,TRUE,,,,,,,CLR,,,,,,,,VFR,0.7,19.4,11.7,,,,,,,,,METAR,58.0
KTTD 222353Z 09008KT 10SM CLR 12/07 A2981 RMK AO2 SLP095 60003 T01220072 10156 20111 53006,KTTD,2022-10-22T23:53:00Z,45.55,-122.42,12.2,7.2,90,8,,10.0,29.811024,1009.5,,,TRUE,,,,,,,CLR,,,,,,,,VFR,0.6,15.6,11.1,,,,,0.03,,,,METAR,8.0
KTRL 222353Z AUTO 18016G24KT 10SM CLR 27/12 A2977 RMK AO2 PK WND 18030/2328 SLP075 T02720122 10300 20267 53001,KTRL,2022-10-22T23:53:00Z,32.72,-96.27,27.2,12.2,180,16,24,10.0,29.769686,1007.5,,TRUE,TRUE,,,,,,,CLR,,,,,,,,VFR,0.1,30.0,26.7,,,,,,,,,METAR,144.0
KTRI 222353Z 00000KT 10SM SCT250 12/06 A3016 RMK AO2 SLP205 T01170061 10228 20117 53003 $,KTRI,2022-10-22T23:53:00Z,36.48,-82.4,11.7,6.1,0,0,,10.0,30.159449,1020.5,,,TRUE,TRUE,,,,,,SCT,25000,,,,,,,VFR,0.3,22.8,11.7,,,,,,,,,METAR,456.0
KTPA 222353Z 36005KT 10SM CLR 23/14 A3003 RMK AO2 SLP170 T02330139 10278 20233 53004,KTPA,2022-10-22T23:53:00Z,27.97,-82.53,23.3,13.9,360,5,,10.0,30.029528,1017.0,,,TRUE,,,,,,,CLR,,,,,,,,VFR,0.4,27.8,23.3,,,,,,,,,METAR,2.0
KTOP 222353Z 15008KT 10SM CLR 25/11 A2954 RMK AO2 SLP996 T02500106 10283 20250 53009,KTOP,2022-10-22T23:53:00Z,39.07,-95.63,25.0,10.6,150,8,,10.0,29.53937,999.6,,,TRUE,,,,,,,CLR,,,,,,,,VFR,0.9,28.3,25.0,,,,,,,,,METAR,268.0
KTOI 222353Z AUTO 00000KT 10SM CLR 16/08 A3011 RMK AO2 SLP196 T01560078 10267 20156 53002,KTOI,2022-10-22T23:53:00Z,31.85,-86.02,15.6,7.8,0,0,,10.0,30.109253,1019.6,,TRUE,TRUE,,,,,,,CLR,,,,,,,,VFR,0.2,26.7,15.6,,,,,,,,,METAR,120.0
KTMB 222353Z 05006KT 10SM CLR 25/17 A2999 RMK AO2 SLP155 T02500172 10294 20250 53010,KTMB,2022-10-22T23:53:00Z,25.65,-80.43,25.0,17.2,50,6,,10.0,29.991142,1015.5,,,TRUE,,,,,,,CLR,,,,,,,,VFR,1.0,29.4,25.0,,,,,,,,,METAR,2.0
KTLH 222353Z COR 00000KT 10SM CLR 17/05 A3008 RMK AO2 SLP186 T01670050 10267 20167 53002,KTLH,2022-10-22T23:53:00Z,30.4,-84.35,16.7,5.0,0,0,,10.0,30.079725,1018.6,TRUE,,TRUE,,,,,,,CLR,,,,,,,,VFR,0.2,26.7,16.7,,,,,,,,,METAR,17.0
KTKI 222353Z 19017G23KT 10SM CLR 27/13 A2972 RMK AO2 PK WND 18030/2255 SLP061 T02720133 10294 20272 53003,KTKI,2022-10-22T23:53:00Z,33.18,-96.58,27.2,13.3,190,17,23,10.0,29.719488,1006.1,,,TRUE,,,,,,,CLR,,,,,,,,VFR,0.3,29.4,27.2,,,,,,,,,METAR,173.0
KTIW 222353Z VRB05KT 10SM BKN021 BKN046 09/06 A2980 RMK AO2 SLP093 T00940061 10128 20083 53009,KTIW,2022-10-22T23:53:00Z,47.27,-122.58,9.4,6.1,0,5,,10.0,29.799213,1009.3,,,TRUE,,,,,,,BKN,2100,BKN,4600,,,,,MVFR,0.9,12.8,8.3,,,,,,,,,METAR,89.0
KTHV 222353Z AUTO 00000KT 10SM CLR 12/04 A3024 RMK AO2 SLP245 T01220039 10211 20122 53011,KTHV,2022-10-22T23:53:00Z,39.92,-76.88,12.2,3.9,0,0,,10.0,30.239174,1024.5,,TRUE,TRUE,,,,,,,CLR,,,,,,,,VFR,1.1,21.1,12.2,,,,,,,,,METAR,141.0
KTDZ 222353Z AUTO 16005KT 10SM CLR 17/08 A3001 RMK AO2 SLP164 T01670083 10256 20167 53015,KTDZ,2022-10-22T23:53:00Z,41.57,-83.48,16.7,8.3,160,5,,10.0,30.008858,1016.4,,TRUE,TRUE,,,,,,,CLR,,,,,,,,VFR,1.5,25.6,16.7,,,,,,,,,METAR,189.0
KTCS 222353Z AUTO 21014G21KT 10SM OVC095 23/09 A2979 RMK AO2 SLP023 T02330089 10244 20194 56013,KTCS,2022-10-22T23:53:00Z,33.23,-107.27,23.3,8.9,210,14,21,10.0,29.790354,1002.3,,TRUE,TRUE,,,,,,,OVC,9500,,,,,,,VFR,-1.3,24.4,19.4,,,,,,,,,METAR,1471.0
KTCL 222353Z 00000KT 10SM CLR 21/12 A3007 RMK AO2 SLP181 T02060117 10256 20206 53002,KTCL,2022-10-22T23:53:00Z,33.22,-87.62,20.6,11.7,0,0,,10.0,30.070866,1018.1,,,TRUE,,,,,,,CLR,,,,,,,,VFR,0.2,25.6,20.6,,,,,,,,,METAR,48.0
KTCC 222353Z AUTO 23016G24KT 10SM CLR 23/07 A2966 RMK AO2 PK WND 26037/2258 SLP992 T02280072 10261 20228 51003,KTCC,2022-10-22T23:53:00Z,35.18,-103.6,22.8,7.2,230,16,24,10.0,29.660433,999.2,,TRUE,TRUE,,,,,,,CLR,,,,,,,,VFR,0.3,26.1,22.8,,,,,,,,,METAR,1233.0
KSWO 222353Z 16013G24KT 10SM CLR 28/12 A2954 RMK AO2 PK WND 16027/2326 SLP988 T02830122 10328 20283 53001,KSWO,2022-10-22T23:53:00Z,36.17,-97.08,28.3,12.2,160,13,24,10.0,29.53937,998.8,,,TRUE,,,,,,,CLR,,,,,,,,VFR,0.1,32.8,28.3,,,,,,,,,METAR,293.0
KSTS 222353Z AUTO 31016G25KT 10SM CLR 21/00 A2974 RMK AO2 PK WND 32028/2341 SLP066 T02110000 10222 20183 56005,KSTS,2022-10-22T23:53:00Z,38.5,-122.82,21.1,0.0,310,16,25,10.0,29.740158,1006.6,,TRUE,TRUE,,,,,,,CLR,,,,,,,,VFR,-0.5,22.2,18.3,,,,,,,,,METAR,35.0
KSTP 222353Z 15005KT 10SM CLR 19/07 A2954 RMK AO2 SLP003 T01890067 10250 20183 53013,KSTP,2022-10-22T23:53:00Z,44.93,-93.05,18.9,6.7,150,5,,10.0,29.53937,1000.3,,,TRUE,,,,,,,CLR,,,,,,,,VFR,1.3,25.0,18.3,,,,,,,,,METAR,213.0
KSTJ 222353Z AUTO 15008KT 10SM CLR 21/11 A2957 RMK AO2 SLP008 T02110111 10267 20206 53013,KSTJ,2022-10-22T23:53:00Z,39.77,-94.92,21.1,11.1,150,8,,10.0,29.568897,1000.8,,TRUE,TRUE,,,,,,,CLR,,,,,,,,VFR,1.3,26.7,20.6,,,,,,,,,METAR,247.0
KSTC 222353Z 11006KT 10SM CLR 19/05 A2950 RMK AO2 SLP000 T01890050 10228 20178 51020,KSTC,2022-10-22T23:53:00Z,45.55,-94.05,18.9,5.0,110,6,,10.0,29.500984,1000.0,,,TRUE,,,,,,,CLR,,,,,,,,VFR,2.0,22.8,17.8,,,,,,,,,METAR,302.0
KSSI 222353Z AUTO 00000KT 10SM CLR 17/10 A3010 RMK AO2 SLP194 T01720100 10239 20172 53001,KSSI,2022-10-22T23:53:00Z,31.15,-81.38,17.2,10.0,0,0,,10.0,30.100393,1019.4,,TRUE,TRUE,,,,,,,CLR,,,,,,,,VFR,0.1,23.9,17.2,,,,,,,,,METAR,6.0
KSSF 222353Z 17009KT 10SM CLR 28/14 A2982 RMK AO2 SLP091 T02830139 10311 20283 53001,KSSF,2022-10-22T23:53:00Z,29.33,-98.47,28.3,13.9,170,9,,10.0,29.819881,1009.1,,,TRUE,,,,,,,CLR,,,,,,,,VFR,0.1,31.1,28.3,,,,,,,,,METAR,175.0
KSRQ 222353Z 35005KT 10SM CLR 21/16 A3000 RMK AO2 SLP158 T02110156 10272 20211 53002,KSRQ,2022-10-22T23:53:00Z,27.4,-82.57,21.1,15.6,350,5,,10.0,30.0,1015.8,,,TRUE,,,,,,,CLR,,,,,,,,VFR,0.2,27.2,21.1,,,,,,,,,METAR,5.0
KSPW 222353Z AUTO 16009KT 10SM CLR 19/05 A2952 RMK AO2 SLP999 T01940050 10283 20194 53014,KSPW,2022-10-22T23:53:00Z,43.17,-95.22,19.4,5.0,160,9,,10.0,29.518702,999.9,,TRUE,TRUE,,,,,,,CLR,,,,,,,,VFR,1.4,28.3,19.4,,,,,,,,,METAR,407.0
KSPG 222353Z 32007KT 10SM CLR 22/17 A3001 RMK AO2 SLP161 T02220167 10261 20222 53002,KSPG,2022-10-22T23:53:00Z,27.77,-82.63,22.2,16.7,320,7,,10.0,30.008858,1016.1,,,TRUE,,,,,,,CLR,,,,,,,,VFR,0.2,26.1,22.2,,,,,,,,,METAR,1.0
KSPB 222353Z AUTO 10SM FEW047 14/04 A2980 RMK AO2 SLP092 60001 T01390044 10156 20111 53011,KSPB,2022-10-22T23:53:00Z,45.77,-122.87,13.9,4.4,,,,10.0,29.799213,1009.2,,TRUE,TRUE,,,,,,,FEW,4700,,,,,,,VFR,1.1,15.6,11.1,,,,,0.01,,,,METAR,15.0
KSNY 222353Z AUTO 16009KT 10SM CLR 17/M07 A2943 RMK AO2 SLP949 T01671072 10261 20167 56008,KSNY,2022-10-22T23:53:00Z,41.1,-102.98,16.7,-7.2,160,9,,10.0,29.430119,994.9,,TRUE,TRUE,,,,,,,CLR,,,,,,,,VFR,-0.8,26.1,16.7,,,,,,,,,METAR,1307.0
KSNS 222353Z AUTO 26015KT 10SM CLR 17/09 A2979 RMK AO2 SLP095 T01670089 10189 20167 56006 TSNO,KSNS,2022-10-22T23:53:00Z,36.67,-121.6,16.7,8.9,260,15,,10.0,29.790354,1009.5,,TRUE,TRUE,,,TRUE,,,,CLR,,,,,,,,VFR,-0.6,18.9,16.7,,,,,,,,,METAR,20.0
KSNA 222353Z 20009KT 10SM FEW027 BKN041 20/12 A2976 RMK AO2 SLP077 T02000122 10228 20200 56009,KSNA,2022-10-22T23:53:00Z,33.67,-117.87,20.0,12.2,200,9,,10.0,29.760826,1007.7,,,TRUE,,,,,,,FEW,2700,BKN,4100,,,,,VFR,-0.9,22.8,20.0,,,,,,,,,METAR,14.0
KSMQ 222353Z AUTO 32003KT 10SM CLR 11/07 A3025 RMK AO2 SLP245 T01060067 10211 20106 53008,KSMQ,2022-10-22T23:53:00Z,40.62,-74.67,10.6,6.7,320,3,,10.0,30.250984,1024.5,,TRUE,TRUE,,,,,,,CLR,,,,,,,,VFR,0.8,21.1,10.6,,,,,,,,,METAR,30.0
KSMF 222353Z 33016G22KT 10SM FEW070 FEW250 24/M04 A2968 RMK AO2 SLP050 T02391044 10250 20200 56012,KSMF,2022-10-22T23:53:00Z,38.7,-121.6,23.9,-4.4,330,16,22,10.0,29.681103,1005.0,,,TRUE,,,,,,,FEW,7000,FEW,25000,,,,,VFR,-1.2,25.0,20.0,,,,,,,,,METAR,7.0
KSLN 222353Z 17008KT 10SM CLR 23/03 A2947 RMK AO2 SLP970 T02280033 10294 20228 53006,KSLN,2022-10-22T23:53:00Z,38.8,-97.65,22.8,3.3,170,8,,10.0,29.471457,997.0,,,TRUE,,,,,,,CLR,,,,,,,,VFR,0.6,29.4,22.8,,,,,,,,,METAR,377.0
KSJC 222353Z 31010G18KT 10SM FEW050 BKN200 19/04 A2976 RMK AO2 SLP076 T01890044 10217 20189 56004,KSJC,2022-10-22T23:53:00Z,37.37,-121.92,18.9,4.4,310,10,18,10.0,29.760826,1007.6,,,TRUE,,,,,,,FEW,5000,BKN,20000,,,,,VFR,-0.4,21.7,18.9,,,,,,,,,METAR,13.0
KSIY 222353Z AUTO 03018KT 10SM FEW050 BKN065 OVC080 10/01 A2986 RMK AO2 SLP118 60000 T01000006 10133 20083 55004,KSIY,2022-10-22T23:53:00Z,41.77,-122.47,10.0,0.6,30,18,,10.0,29.861221,1011.8,,TRUE,TRUE,,,,,,,FEW,5000,BKN,6500,OVC,8000,,,VFR,-0.4,13.3,8.3,,,,,0.005,,,,METAR,807.0
KSHR 222353Z AUTO 33007KT 10SM FEW120 11/04 A2931 RMK AO2 SLP920 T01060039 10150 20106 53006,KSHR,2022-10-22T23:53:00Z,44.77,-106.97,10.6,3.9,330,7,,10.0,29.309055,992.0,,TRUE,TRUE,,,,,,,FEW,12000,,,,,,,VFR,0.6,15.0,10.6,,,,,,,,,METAR,1212.0
KSGR 222353Z 18012KT 10SM CLR 25/16 A2990 RMK AO2 SLP127 T02500156 10306 20250 53001,KSGR,2022-10-22T23:53:00Z,29.62,-95.65,25.0,15.6,180,12,,10.0,29.899607,1012.7,,,TRUE,,,,,,,CLR,,,,,,,,VFR,0.1,30.6,25.0,,,,,,,,,METAR,22.0
KSFF 222353Z 00000KT 10SM OVC080 09/01 A2962 RMK AO2 SLP035 T00940006 10100 20067 52016,KSFF,2022-10-22T23:53:00Z,47.68,-117.32,9.4,0.6,0,0,,10.0,29.619095,1003.5,,,TRUE,,,,,,,OVC,8000,,,,,,,VFR,1.6,10.0,6.7,,,,,,,,,METAR,593.0
KSFB 222353Z 02010KT 10SM CLR 20/16 A3005 RMK AO2 SLP177 T02000161 10267 20200 53005,KSFB,2022-10-22T23:53:00Z,28.77,-81.23,20.0,16.1,20,10,,10.0,30.050198,1017.7,,,TRUE,,,,,,,CLR,,,,,,,,VFR,0.5,26.7,20.0,,,,,,,,,METAR,16.0
KSEG 222353Z AUTO 00000KT 10SM CLR 07/05 A3024 RMK AO2 SLP243 T00670050 10206 20067 53011,KSEG,2022-10-22T23:53:00Z,40.82,-76.87,6.7,5.0,0,0,,10.0,30.239174,1024.3,,TRUE,TRUE,,,,,,,CLR,,,,,,,,VFR,1.1,20.6,6.7,,,,,,,,,METAR,136.0
KSEA 222353Z 11007KT 10SM FEW005 OVC046 08/06 A2980 RMK AO2 RAE30 SLP099 P0004 60025 T00830061 10100 20078 51008 $,KSEA,2022-10-22T23:53:00Z,47.45,-122.32,8.3,6.1,110,7,,10.0,29.799213,1009.9,,,TRUE,TRUE,,,,,,FEW,500,OVC,4600,,,,,VFR,0.8,10.0,7.8,,,0.04,,0.25,,,,METAR,115.0
KSDL 222353Z VRB06KT 10SM SCT080 BKN095 29/12 A2962 RMK AO2 SLP006 T02890122 10300 20256 56016,KSDL,2022-10-22T23:53:00Z,33.62,-111.92,28.9,12.2,0,6,,10.0,29.619095,1000.6,,,TRUE,,,,,,,SCT,8000,BKN,9500,,,,,VFR,-1.6,30.0,25.6,,,,,,,,,METAR,438.0
KSBM 222353Z AUTO 17012KT 10SM CLR 18/11 A2978 RMK AO2 SLP084 T01830111 10211 20178 51014,KSBM,2022-10-22T23:53:00Z,43.78,-87.85,18.3,11.1,170,12,,10.0,29.778543,1008.4,,TRUE,TRUE,,,,,,,CLR,,,,,,,,VFR,1.4,21.1,17.8,,,,,,,,,METAR,225.0
KSBA 222353Z 25011G19KT 10SM BKN040 19/14 A2974,KSBA,2022-10-22T23:53:00Z,34.43,-119.85,19.0,14.0,250,11,19,10.0,29.740158,,,,,,,,,,,BKN,4000,,,,,,,VFR,,,,,,,,,,,,METAR,2.0
KSAV 222353Z 00000KT 10SM CLR 16/07 A3012 RMK AO2 SLP199 T01560072 10239 20144 53003,KSAV,2022-10-22T23:53:00Z,32.12,-81.2,15.6,7.2,0,0,,10.0,30.121063,1019.9,,,TRUE,,,,,,,CLR,,,,,,,,VFR,0.3,23.9,14.4,,,,,,,,,METAR,10.0
KSAF 222353Z 20010G17KT 10SM CLR 18/06 A2978 RMK AO2 PK WND 21033/2256 SLP010 T01830056 10217 20172 56017,KSAF,2022-10-22T23:53:00Z,35.62,-106.1,18.3,5.6,200,10,17,10.0,29.778543,1001.0,,,TRUE,,,,,,,CLR,,,,,,,,VFR,-1.7,21.7,17.2,,,,,,,,,METAR,1918.0
KSAC 222353Z AUTO 33014KT 10SM CLR 23/M06 A2969 RMK AO2 SLP053 T02331061 10244 20200 56010,KSAC,2022-10-22T23:53:00Z,38.5,-121.5,23.3,-6.1,330,14,,10.0,29.68996,1005.3,,TRUE,TRUE,,,,,,,CLR,,,,,,,,VFR,-1.0,24.4,20.0,,,,,,,,,METAR,5.0
KRXE 222353Z AUTO 20011G23KT 10SM BKN016 BKN021 OVC090 05/01 A2950 RMK AO2 PK WND 20026/2333 SLP978 60000 T00500011 10072 20050 53006,KRXE,2022-10-22T23:53:00Z,43.83,-111.8,5.0,1.1,200,11,23,10.0,29.500984,997.8,,TRUE,TRUE,,,,,,,BKN,1600,BKN,2100,OVC,9000,,,MVFR,0.6,7.2,5.0,,,,,0.005,,,,METAR,1483.0
KRWL 222353Z AUTO 23024G38KT 10SM OVC075 14/M03 A2950 RMK AO2 PK WND 24038/2353 RAB2256E01 SLP921 P0000 60000 T01391028 10167 20139 56001,KRWL,2022-10-22T23:53:00Z,41.8,-107.2,13.9,-2.8,230,24,38,10.0,29.500984,992.1,,TRUE,TRUE,,,,,,,OVC,7500,,,,,,,VFR,-0.1,16.7,13.9,,,0.005,,0.005,,,,METAR,2066.0
KRWI 222353Z AUTO 00000KT 10SM CLR 16/10 A3018 RMK AO2 SLP220 T01610100 10239 20161 53006,KRWI,2022-10-22T23:53:00Z,35.85,-77.9,16.1,10.0,0,0,,10.0,30.180119,1022.0,,TRUE,TRUE,,,,,,,CLR,,,,,,,,VFR,0.6,23.9,16.1,,,,,,,,,METAR,46.0
KRWF 222353Z AUTO 16008KT 10SM CLR 20/04 A2948 RMK AO2 SLP981 T02000039 10267 20200 53017,KRWF,2022-10-22T23:53:00Z,44.55,-95.08,20.0,3.9,160,8,,10.0,29.480314,998.1,,TRUE,TRUE,,,,,,,CLR,,,,,,,,VFR,1.7,26.7,20.0,,,,,,,,,METAR,312.0
KRVS 222353Z 17011KT 10SM CLR 27/13 A2961 RMK AO2 PK WND 18028/2314 SLP028 T02720133 10294 20267 51013,KRVS,2022-10-22T23:53:00Z,36.05,-95.98,27.2,13.3,170,11,,10.0,29.610237,1002.8,,,TRUE,,,,,,,CLR,,,,,,,,VFR,1.3,29.4,26.7,,,,,,,,,METAR,191.0
KRUE 222353Z AUTO 13004KT 10SM CLR 24/13 A2980 RMK AO2 SLP083 T02390128 10278 20239 53012 $,KRUE,2022-10-22T23:53:00Z,35.25,-93.1,23.9,12.8,130,4,,10.0,29.799213,1008.3,,TRUE,TRUE,TRUE,,,,,,CLR,,,,,,,,VFR,1.2,27.8,23.9,,,,,,,,,METAR,119.0
KRTN 222353Z AUTO 23014G22KT 10SM CLR 18/00 A2969 RMK AO2 PK WND 24034/2321 SLP976 T01830000 10233 20183 56004,KRTN,2022-10-22T23:53:00Z,36.73,-104.5,18.3,0.0,230,14,22,10.0,29.68996,997.6,,TRUE,TRUE,,,,,,,CLR,,,,,,,,VFR,-0.4,23.3,18.3,,,,,,,,,METAR,1939.0
KRSW 222353Z 07003KT 10SM CLR 24/16 A3000 RMK AO2 SLP155 T02390156 10294 20239 53004,KRSW,2022-10-22T23:53:00Z,26.53,-81.75,23.9,15.6,70,3,,10.0,30.0,1015.5,,,TRUE,,,,,,,CLR,,,,,,,,VFR,0.4,29.4,23.9,,,,,,,,,METAR,8.0
KRSL 222353Z AUTO 14011KT 10SM CLR 22/01 A2944 RMK AO2 SLP964 T02170006 10294 20217 53005,KRSL,2022-10-22T23:53:00Z,38.87,-98.82,21.7,0.6,140,11,,10.0,29.438976,996.4,,TRUE,TRUE,,,,,,,CLR,,,,,,,,VFR,0.5,29.4,21.7,,,,,,,,,METAR,569.0
KRQE 222353Z AUTO 21014G23KT 10SM CLR 17/03 A2979 RMK AO2 PK WND 21030/2335 SLP004 T01670033 10200 20167 56008,KRQE,2022-10-22T23:53:00Z,35.65,-109.07,16.7,3.3,210,14,23,10.0,29.790354,1000.4,,TRUE,TRUE,,,,,,,CLR,,,,,,,,VFR,-0.8,20.0,16.7,,,,,,,,,METAR,2056.0
KRNT 222353Z 15003KT 10SM OVC047 09/07 A2981 RMK AO2 RAB00E44 SLP098 P0001 60031 T00940072 10100 20089 51012,KRNT,2022-10-22T23:53:00Z,47.5,-122.22,9.4,7.2,150,3,,10.0,29.811024,1009.8,,,TRUE,,,,,,,OVC,4700,,,,,,,VFR,1.2,10.0,8.9,,,0.01,,0.31,,,,METAR,7.0
KRNM 222353Z 24011KT 10SM BKN031 OVC038 17/12 A2979 RMK AO2 SLP079 T01720117 10217 20167 55003,KRNM,2022-10-22T23:53:00Z,33.03,-116.92,17.2,11.7,240,11,,10.0,29.790354,1007.9,,,TRUE,,,,,,,BKN,3100,OVC,3800,,,,,VFR,-0.3,21.7,16.7,,,,,,,,,METAR,423.0
KRMG 222353Z AUTO 00000KT 10SM CLR 17/09 A3011 RMK AO2 SLP193 T01720089 10244 20172 53003,KRMG,2022-10-22T23:53:00Z,34.35,-85.17,17.2,8.9,0,0,,10.0,30.109253,1019.3,,TRUE,TRUE,,,,,,,CLR,,,,,,,,VFR,0.3,24.4,17.2,,,,,,,,,METAR,196.0
KRME 222353Z 00000KT 10SM CLR 10/04 A3021 RMK AO2 SLP232 T01000044 10222 20100 53015,KRME,2022-10-22T23:53:00Z,43.22,-75.4,10.0,4.4,0,0,,10.0,30.209646,1023.2,,,TRUE,,,,,,,CLR,,,,,,,,VFR,1.5,22.2,10.0,,,,,,,,,METAR,146.0
KRKP 222353Z AUTO 16011G18KT 10SM CLR 26/19 A2989 RMK AO2 SLP122 T02610189 10306 20261 53002,KRKP,2022-10-22T23:53:00Z,28.08,-97.05,26.1,18.9,160,11,18,10.0,29.890747,1012.2,,TRUE,TRUE,,,,,,,CLR,,,,,,,,VFR,0.2,30.6,26.1,,,,,,,,,METAR,8.0
KRIW 222353Z AUTO 18011G18KT 10SM CLR 12/01 A2936 RMK AO2 SLP906 T01220011 10183 20122 50007 $,KRIW,2022-10-22T23:53:00Z,43.07,-108.43,12.2,1.1,180,11,18,10.0,29.359253,990.6,,TRUE,TRUE,TRUE,,,,,,CLR,,,,,,,,VFR,0.7,18.3,12.2,,,,,,,,,METAR,1662.0
KRIL 222353Z AUTO 19013G22KT 10SM BKN110 19/M02 A2953 RMK AO2 PK WND 18029/2328 SLP963 T01891022 10222 20178 56010,KRIL,2022-10-22T23:53:00Z,39.53,-107.73,18.9,-2.2,190,13,22,10.0,29.530512,996.3,,TRUE,TRUE,,,,,,,BKN,11000,,,,,,,VFR,-1.0,22.2,17.8,,,,,,,,,METAR,1683.0
KRHI 222353Z AUTO 13006KT 10SM CLR 16/06 A2971 RMK AO2 SLP070 T01610061 10217 20161 53010,KRHI,2022-10-22T23:53:00Z,45.63,-89.48,16.1,6.1,130,6,,10.0,29.71063,1007.0,,TRUE,TRUE,,,,,,,CLR,,,,,,,,VFR,1.0,21.7,16.1,,,,,,,,,METAR,493.0
KRDD 222353Z 34010G17KT 10SM FEW120 22/M06 A2971 RMK AO2 SLP056 T02171056 10228 20200 55005,KRDD,2022-10-22T23:53:00Z,40.52,-122.3,21.7,-5.6,340,10,17,10.0,29.71063,1005.6,,,TRUE,,,,,,,FEW,12000,,,,,,,VFR,-0.5,22.8,20.0,,,,,,,,,METAR,152.0
KRBD 222353Z 18016G23KT 10SM CLR 27/14 A2975 RMK AO2 PK WND 19033/2321 SLP065 T02670139 10300 20267 53001,KRBD,2022-10-22T23:53:00Z,32.68,-96.87,26.7,13.9,180,16,23,10.0,29.749016,1006.5,,,TRUE,,,,,,,CLR,,,,,,,,VFR,0.1,30.0,26.7,,,,,,,,,METAR,200.0
KRAL 222353Z 27015KT 10SM OVC047 20/12 A2973 RMK AO2 SLP052 T02000117 10228 20200 56011 $,KRAL,2022-10-22T23:53:00Z,33.95,-117.45,20.0,11.7,270,15,,10.0,29.731298,1005.2,,,TRUE,TRUE,,,,,,OVC,4700,,,,,,,VFR,-1.1,22.8,20.0,,,,,,,,,METAR,254.0
KRAC 222353Z AUTO 18010KT 10SM CLR 18/11 A2981 RMK AO2 SLP095 T01830111 10211 20183 53013,KRAC,2022-10-22T23:53:00Z,42.77,-87.82,18.3,11.1,180,10,,10.0,29.811024,1009.5,,TRUE,TRUE,,,,,,,CLR,,,,,,,,VFR,1.3,21.1,18.3,,,,,,,,,METAR,203.0
KPWA 222353Z 21012KT 10SM CLR 29/06 A2955 RMK AO2 SLP993 T02890056 10328 20283 53005,KPWA,2022-10-22T23:53:00Z,35.53,-97.65,28.9,5.6,210,12,,10.0,29.551182,999.3,,,TRUE,,,,,,,CLR,,,,,,,,VFR,0.5,32.8,28.3,,,,,,,,,METAR,390.0
KPUW 222353Z AUTO 27006KT 10SM FEW026 BKN050 OVC060 06/03 A2966 RMK AO2 SLP054 T00610028 10078 20033 53018 $,KPUW,2022-10-22T23:53:00Z,46.75,-117.12,6.1,2.8,270,6,,10.0,29.660433,1005.4,,TRUE,TRUE,TRUE,,,,,,FEW,2600,BKN,5000,OVC,6000,,,VFR,1.8,7.8,3.3,,,,,,,,,METAR,774.0
KPUC 222353Z AUTO 27013G19KT 10SM -RA OVC080 12/01 A2953 RMK AO2 SLP981 P0000 60000 T01220006 10161 20111 58006,KPUC,2022-10-22T23:53:00Z,39.62,-110.75,12.2,0.6,270,13,19,10.0,29.530512,998.1,,TRUE,TRUE,,,,,,-RA,OVC,8000,,,,,,,VFR,-0.6,16.1,11.1,,,0.005,,0.005,,,,METAR,1777.0
KPUB 222353Z 23011KT 10SM CLR 25/M07 A2948 RMK AO2 SLP925 T02501072 10272 20233 56012,KPUB,2022-10-22T23:53:00Z,38.28,-104.5,25.0,-7.2,230,11,,10.0,29.480314,992.5,,,TRUE,,,,,,,CLR,,,,,,,,VFR,-1.2,27.2,23.3,,,,,,,,,METAR,1441.0
KPTK 222353Z 14004KT 10SM FEW250 17/08 A3000 RMK AO2 SLP158 T01670083 10233 20167 53014,KPTK,2022-10-22T23:53:00Z,42.67,-83.42,16.7,8.3,140,4,,10.0,30.0,1015.8,,,TRUE,,,,,,,FEW,25000,,,,,,,VFR,1.4,23.3,16.7,,,,,,,,,METAR,295.0
KPSX 222353Z AUTO 17009KT 10SM CLR 24/18 A2990 RMK AO2 SLP126 T02440178 10289 20244 50001,KPSX,2022-10-22T23:53:00Z,28.72,-96.25,24.4,17.8,170,9,,10.0,29.899607,1012.6,,TRUE,TRUE,,,,,,,CLR,,,,,,,,VFR,0.1,28.9,24.4,,,,,,,,,METAR,4.0
KPSP 222353Z 30011G23KT 10SM CLR 27/08 A2960 RMK AO2 SLP020 T02720078 10294 20267 55006 $,KPSP,2022-10-22T23:53:00Z,33.82,-116.5,27.2,7.8,300,11,23,10.0,29.601377,1002.0,,,TRUE,TRUE,,,,,,CLR,,,,,,,,VFR,-0.6,29.4,26.7,,,,,,,,,METAR,123.0
KPSC 222353Z AUTO 22005KT 10SM CLR 15/02 A2968 RMK AO2 SLP049 T01500022 10150 20100 53005 $,KPSC,2022-10-22T23:53:00Z,46.27,-119.12,15.0,2.2,220,5,,10.0,29.681103,1004.9,,TRUE,TRUE,TRUE,,,,,,CLR,,,,,,,,VFR,0.5,15.0,10.0,,,,,,,,,METAR,121.0
KPRC 222353Z 19012G26KT 10SM CLR 17/08 A2974 RMK AO2 PK WND 19030/2258 SLP017 T01670083 10200 20167 58021,KPRC,2022-10-22T23:53:00Z,34.65,-112.42,16.7,8.3,190,12,26,10.0,29.740158,1001.7,,,TRUE,,,,,,,CLR,,,,,,,,VFR,-2.1,20.0,16.7,,,,,,,,,METAR,1528.0
KPRB 222353Z AUTO 20015KT 10SM BKN043 17/12 A2977 RMK AO2 SLP078 T01670117 10206 20156 55013,KPRB,2022-10-22T23:53:00Z,35.67,-120.63,16.7,11.7,200,15,,10.0,29.769686,1007.8,,TRUE,TRUE,,,,,,,BKN,4300,,,,,,,VFR,-1.3,20.6,15.6,,,,,,,,,METAR,249.0
KPQL 222353Z AUTO 00000KT 10SM CLR 16/13 A3008 RMK AO2 SLP188 T01560133 10256 20156 53002,KPQL,2022-10-22T23:53:00Z,30.47,-88.53,15.6,13.3,0,0,,10.0,30.079725,1018.8,,TRUE,TRUE,,,,,,,CLR,,,,,,,,VFR,0.2,25.6,15.6,,,,,,,,,METAR,4.0
KPOU 222353Z 00000KT 10SM CLR 11/04 A3027 RMK AO2 SLP248 T01060044 10206 20100 53017,KPOU,2022-10-22T23:53:00Z,41.63,-73.88,10.6,4.4,0,0,,10.0,30.268702,1024.8,,,TRUE,,,,,,,CLR,,,,,,,,VFR,1.7,20.6,10.0,,,,,,,,,METAR,45.0
KPOF 222353Z AUTO 10SM CLR 22/12 A2988 RMK AO2 SLP116 T02170117 10244 20217 51002 $,KPOF,2022-10-22T23:53:00Z,36.77,-90.32,21.7,11.7,,,,10.0,29.878937,1011.6,,TRUE,TRUE,TRUE,,,,,,CLR,,,,,,,,VFR,0.2,24.4,21.7,,,,,,,,,METAR,99.0
KPNS 222353Z 00000KT 10SM CLR 18/08 A3008 RMK AO2 SLP189 T01830078 10244 20178 55000,KPNS,2022-10-22T23:53:00Z,30.48,-87.18,18.3,7.8,0,0,,10.0,30.079725,1018.9,,,TRUE,,,,,,,CLR,,,,,,,,VFR,0.0,24.4,17.8,,,,,,,,,METAR,34.0
KPNC 222353Z AUTO 16015G21KT 10SM CLR 29/10 A2951 RMK AO2 SLP980 T02890100 10317 20283 53003,KPNC,2022-10-22T23:53:00Z,36.73,-97.1,28.9,10.0,160,15,21,10.0,29.509842,998.0,,TRUE,TRUE,,,,,,,CLR,,,,,,,,VFR,0.3,31.7,28.3,,,,,,,,,METAR,304.0
KPMP 222353Z 02007KT 10SM CLR 26/16 A2999 RMK AO2 SLP157 T02560161 10289 20256 53006,KPMP,2022-10-22T23:53:00Z,26.25,-80.12,25.6,16.1,20,7,,10.0,29.991142,1015.7,,,TRUE,,,,,,,CLR,,,,,,,,VFR,0.6,28.9,25.6,,,,,,,,,METAR,4.0
KPMD 222353Z 25018G28KT 10SM OVC037 17/09 A2970 RMK AO2 PK WND 25028/2351 SLP037 T01670094 10206 20167 58008,KPMD,2022-10-22T23:53:00Z,34.63,-118.08,16.7,9.4,250,18,28,10.0,29.698818,1003.7,,,TRUE,,,,,,,OVC,3700,,,,,,,VFR,-0.8,20.6,16.7,,,,,,,,,METAR,764.0
KPKD 222353Z AUTO 07007KT 10SM CLR 13/04 A2950 RMK AO2 SLP993 T01330039 10167 20133 52014,KPKD,2022-10-22T23:53:00Z,46.9,-95.07,13.3,3.9,70,7,,10.0,29.500984,999.3,,TRUE,TRUE,,,,,,,CLR,,,,,,,,VFR,1.4,16.7,13.3,,,,,,,,,METAR,439.0
KPKB 222353Z 00000KT 10SM CLR 17/08 A3013 RMK AO2 SLP205 T01670078 10239 20167 53011,KPKB,2022-10-22T23:53:00Z,39.35,-81.43,16.7,7.8,0,0,,10.0,30.129921,1020.5,,,TRUE,,,,,,,CLR,,,,,,,,VFR,1.1,23.9,16.7,,,,,,,,,METAR,245.0
KPIR 222353Z AUTO 10003KT 10SM CLR 12/03 A2942 RMK AO2 SLP965 T01220028 10172 20106 53007,KPIR,2022-10-22T23:53:00Z,44.38,-100.28,12.2,2.8,100,3,,10.0,29.421259,996.5,,TRUE,TRUE,,,,,,,CLR,,,,,,,,VFR,0.7,17.2,10.6,,,,,,,,,METAR,524.0
KPIL 222353Z AUTO 15013G21KT 10SM CLR 26/19 A2987 RMK AO2 PK WND 14026/2308 SLP116 60000 T02610194 10300 20261 52003,KPIL,2022-10-22T23:53:00Z,26.17,-97.33,26.1,19.4,150,13,21,10.0,29.870079,1011.6,,TRUE,TRUE,,,,,,,CLR,,,,,,,,VFR,0.3,30.0,26.1,,,,,0.005,,,,METAR,5.0
KPIH 222353Z 22018G28KT 10SM FEW019 SCT075 BKN120 05/01 A2952 RMK AO2 PK WND 22028/2344 SLP985 60009 T00500011 10072 20044 55005 $,KPIH,2022-10-22T23:53:00Z,42.92,-112.57,5.0,1.1,220,18,28,10.0,29.518702,998.5,,,TRUE,TRUE,,,,,,FEW,1900,SCT,7500,BKN,12000,,,VFR,-0.5,7.2,4.4,,,,,0.09,,,,METAR,1357.0
KPIE 222353Z 31006KT 10SM CLR 21/16 A3004 RMK AO2 SLP170 T02060156 10261 20200 53004,KPIE,2022-10-22T23:53:00Z,27.92,-82.68,20.6,15.6,310,6,,10.0,30.041338,1017.0,,,TRUE,,,,,,,CLR,,,,,,,,VFR,0.4,26.1,20.0,,,,,,,,,METAR,1.0
KPHD 222353Z AUTO 14005KT 10SM CLR 14/08 A3013 RMK AO2 SLP205 T01440083 10233 20144 53015,KPHD,2022-10-22T23:53:00Z,40.47,-81.42,14.4,8.3,140,5,,10.0,30.129921,1020.5,,TRUE,TRUE,,,,,,,CLR,,,,,,,,VFR,1.5,23.3,14.4,,,,,,,,,METAR,272.0
KPGD 222353Z 03003KT 10SM CLR 23/13 A3002 RMK AO2 SLP163 T02280133 10289 20222 53003,KPGD,2022-10-22T23:53:00Z,26.92,-82.0,22.8,13.3,30,3,,10.0,30.02067,1016.3,,,TRUE,,,,,,,CLR,,,,,,,,VFR,0.3,28.9,22.2,,,,,,,,,METAR,7.0
KPGA 222353Z AUTO 22012G20KT 170V250 10SM CLR 23/00 A2951 RMK AO2 SLP943 T02280000 10244 20217 56019,KPGA,2022-10-22T23:53:00Z,36.92,-111.45,22.8,0.0,220,12,20,10.0,29.509842,994.3,,TRUE,TRUE,,,,,,,CLR,,,,,,,,VFR,-1.9,24.4,21.7,,,,,,,,,METAR,1310.0
KPEO 222353Z AUTO 17003KT 10SM CLR 10/03 A3019 RMK AO2 SLP224 T01000033 10222 20100 53018,KPEO,2022-10-22T23:53:00Z,42.65,-77.05,10.0,3.3,170,3,,10.0,30.188976,1022.4,,TRUE,TRUE,,,,,,,CLR,,,,,,,,VFR,1.8,22.2,10.0,,,,,,,,,METAR,268.0
KPDX 222353Z 29011KT 10SM FEW050 FEW070 14/04 A2981 RMK AO2 SLP095 60004 T01390039 10161 20111 53006,KPDX,2022-10-22T23:53:00Z,45.6,-122.62,13.9,3.9,290,11,,10.0,29.811024,1009.5,,,TRUE,,,,,,,FEW,5000,FEW,7000,,,,,VFR,0.6,16.1,11.1,,,,,0.04,,,,METAR,7.0
KPDT 222353Z 21004KT 10SM BKN042 10/03 A2969 RMK AO2 SLP052 60000 T01000028 10122 20089 53009,KPDT,2022-10-22T23:53:00Z,45.7,-118.83,10.0,2.8,210,4,,10.0,29.68996,1005.2,,,TRUE,,,,,,,BKN,4200,,,,,,,VFR,0.9,12.2,8.9,,,,,0.005,,,,METAR,453.0
KPDK 222353Z 00000KT 10SM CLR 12/06 A3014 RMK AO2 SLP212 T01170061 10222 20117 55001,KPDK,2022-10-22T23:53:00Z,33.88,-84.3,11.7,6.1,0,0,,10.0,30.138779,1021.2,,,TRUE,,,,,,,CLR,,,,,,,,VFR,-0.1,22.2,11.7,,,,,,,,,METAR,299.0
KPBI 222353Z 33004KT 10SM FEW045 24/17 A3000 RMK AO2 SLP159 T02390172 10289 20239 53003 $,KPBI,2022-10-22T23:53:00Z,26.68,-80.1,23.9,17.2,330,4,,10.0,30.0,1015.9,,,TRUE,TRUE,,,,,,FEW,4500,,,,,,,VFR,0.3,28.9,23.9,,,,,,,,,METAR,4.0
KPBG 222353Z AUTO 18005KT 10SM CLR 10/06 A3018 RMK AO2 SLP223 T01000056 10194 20094 53017,KPBG,2022-10-22T23:53:00Z,44.65,-73.47,10.0,5.6,180,5,,10.0,30.180119,1022.3,,TRUE,TRUE,,,,,,,CLR,,,,,,,,VFR,1.7,19.4,9.4,,,,,,,,,METAR,61.0
KPBF 222353Z AUTO 16009KT 10SM CLR 24/13 A2987 RMK AO2 SLP111 T02390128 10278 20239 58006,KPBF,2022-10-22T23:53:00Z,34.18,-91.93,23.9,12.8,160,9,,10.0,29.870079,1011.1,,TRUE,TRUE,,,,,,,CLR,,,,,,,,VFR,-0.6,27.8,23.9,,,,,,,,,METAR,63.0
KPAH 222353Z 15006KT 10SM CLR 19/12 A2995 RMK AO2 SLP140 T01940117 10256 20194 51012,KPAH,2022-10-22T23:53:00Z,37.07,-88.77,19.4,11.7,150,6,,10.0,29.949802,1014.0,,,TRUE,,,,,,,CLR,,,,,,,,VFR,1.2,25.6,19.4,,,,,,,,,METAR,125.0
KPAE 222353Z 00000KT 10SM FEW044 OVC055 11/04 A2980 RMK AO2 SLP092 60001 T01060039 10122 20083 53012,KPAE,2022-10-22T23:53:00Z,47.92,-122.28,10.6,3.9,0,0,,10.0,29.799213,1009.2,,,TRUE,,,,,,,FEW,4400,OVC,5500,,,,,VFR,1.2,12.2,8.3,,,,,0.01,,,,METAR,166.0
KP68 222353Z AUTO 13006KT 02/00 A2964 RMK AO1 SLP999 60032 T00220000 10050 20000 56009,KP68,2022-10-22T23:53:00Z,39.6,-116.0,2.2,0.0,130,6,,,29.639763,999.9,,TRUE,TRUE,,,,,,,,,,,,,,,,-0.9,5.0,0.0,,,,,0.32,,,,METAR,1813.0
KOWD 222353Z 00000KT 10SM CLR 09/07 A3030 RMK AO2 SLP260 T00890067 10211 20083 53014,KOWD,2022-10-22T23:53:00Z,42.18,-71.17,8.9,6.7,0,0,,10.0,30.301182,1026.0,,,TRUE,,,,,,,CLR,,,,,,,,VFR,1.4,21.1,8.3,,,,,,,,,METAR,14.0
KOVS 222353Z AUTO VRB05KT 10SM CLR 24/09 A2966 RMK AO2 SLP044 T02440094 10283 20244 53012 $,KOVS,2022-10-22T23:53:00Z,43.15,-90.68,24.4,9.4,0,5,,10.0,29.660433,1004.4,,TRUE,TRUE,TRUE,,,,,,CLR,,,,,,,,VFR,1.2,28.3,24.4,,,,,,,,,METAR,205.0
KOVE 222353Z AUTO 31011G24KT 10SM CLR 22/M06 A2970 RMK AO2 PK WND 31026/2330 SLP057 T02221056 10228 20194 55008,KOVE,2022-10-22T23:53:00Z,39.5,-121.62,22.2,-5.6,310,11,24,10.0,29.698818,1005.7,,TRUE,TRUE,,,,,,,CLR,,,,,,,,VFR,-0.8,22.8,19.4,,,,,,,,,METAR,56.0
KOTM 222353Z AUTO 16012KT 10SM CLR 25/05 A2961 RMK AO2 SLP022 T02500050 10306 20250 53015,KOTM,2022-10-22T23:53:00Z,41.1,-92.45,25.0,5.0,160,12,,10.0,29.610237,1002.2,,TRUE,TRUE,,,,,,,CLR,,,,,,,,VFR,1.5,30.6,25.0,,,,,,,,,METAR,254.0
KOSU 222353Z 16006KT 10SM CLR 21/09 A3007 RMK AO2 SLP182 T02110089 10250 20211 53014,KOSU,2022-10-22T23:53:00Z,40.08,-83.08,21.1,8.9,160,6,,10.0,30.070866,1018.2,,,TRUE,,,,,,,CLR,,,,,,,,VFR,1.4,25.0,21.1,,,,,,,,,METAR,276.0
KOSH 222353Z 15007KT 10SM CLR 16/09 A2973 RMK AO2 SLP067 T01610094 10244 20161 53013,KOSH,2022-10-22T23:53:00Z,43.98,-88.55,16.1,9.4,150,7,,10.0,29.731298,1006.7,,,TRUE,,,,,,,CLR,,,,,,,,VFR,1.3,24.4,16.1,,,,,,,,,METAR,239.0
KORL 222353Z 04007KT 10SM CLR 21/16 A3005 RMK AO2 SLP181 T02110161 10278 20211 53007,KORL,2022-10-22T23:53:00Z,28.55,-81.33,21.1,16.1,40,7,,10.0,30.050198,1018.1,,,TRUE,,,,,,,CLR,,,,,,,,VFR,0.7,27.8,21.1,,,,,,,,,METAR,32.0
KOQT 222353Z AUTO 00000KT 10SM CLR 15/09 A3014 RMK AO2 SLP210 T01500089 10228 20150 53005,KOQT,2022-10-22T23:53:00Z,36.02,-84.23,15.0,8.9,0,0,,10.0,30.138779,1021.0,,TRUE,TRUE,,,,,,,CLR,,,,,,,,VFR,0.5,22.8,15.0,,,,,,,,,METAR,276.0
KOPF 222353Z 04006KT 10SM CLR 24/16 A3000 RMK AO2 SLP160 T02440161 10289 20244 53008,KOPF,2022-10-22T23:53:00Z,25.92,-80.28,24.4,16.1,40,6,,10.0,30.0,1016.0,,,TRUE,,,,,,,CLR,,,,,,,,VFR,0.8,28.9,24.4,,,,,,,,,METAR,1.0
KONT 222353Z 23014G19KT 10SM FEW033 BKN050 19/12 A2974 RMK AO2 SLP062 T01890122 10222 20189 56008,KONT,2022-10-22T23:53:00Z,34.05,-117.58,18.9,12.2,230,14,19,10.0,29.740158,1006.2,,,TRUE,,,,,,,FEW,3300,BKN,5000,,,,,VFR,-0.8,22.2,18.9,,,,,,,,,METAR,279.0
KONO 222353Z AUTO 32016KT 10SM CLR 11/00 A2964 RMK AO2 SLP038 T01110000 10144 20106 53014,KONO,2022-10-22T23:53:00Z,44.02,-117.02,11.1,0.0,320,16,,10.0,29.639763,1003.8,,TRUE,TRUE,,,,,,,CLR,,,,,,,,VFR,1.4,14.4,10.6,,,,,,,,,METAR,668.0
KOMK 222353Z AUTO 36010G16KT 10SM FEW090 12/M03 A2965 RMK AO2 SLP044 T01221028 10144 20100 53015,KOMK,2022-10-22T23:53:00Z,48.47,-119.52,12.2,-2.8,360,10,16,10.0,29.648623,1004.4,,TRUE,TRUE,,,,,,,FEW,9000,,,,,,,VFR,1.5,14.4,10.0,,,,,,,,,METAR,395.0
KOLF 222353Z AUTO 07008KT BKN070 OVC100 08/06 A2949 RMK AO2 RAE2254 SLP998 P0000 60003 T00780056 10089 20078 51006 $,KOLF,2022-10-22T23:53:00Z,48.1,-105.58,7.8,5.6,70,8,,,29.489174,999.8,,TRUE,TRUE,TRUE,,,,,,BKN,7000,OVC,10000,,,,,,0.6,8.9,7.8,,,0.005,,0.03,,,,METAR,605.0
KOJC 222353Z 19008KT 10SM CLR 24/12 A2960 RMK AO2 SLP012 T02440117 10267 20244 53010,KOJC,2022-10-22T23:53:00Z,38.85,-94.73,24.4,11.7,190,8,,10.0,29.601377,1001.2,,,TRUE,,,,,,,CLR,,,,,,,,VFR,1.0,26.7,24.4,,,,,,,,,METAR,328.0
KOGD 222353Z 08008KT 10SM -RA FEW013 OVC023 06/02 A2962 RMK AO2 SLP000 P0009 60021 T00560022 10156 20044 53020,KOGD,2022-10-22T23:53:00Z,41.2,-112.02,5.6,2.2,80,8,,10.0,29.619095,1000.0,,,TRUE,,,,,,-RA,FEW,1300,OVC,2300,,,,,MVFR,2.0,15.6,4.4,,,0.09,,0.21,,,,METAR,1356.0
KOGB 222353Z AUTO 00000KT 10SM CLR 15/11 A3013 RMK AO2 SLP203 T01500111 10233 20150 53002,KOGB,2022-10-22T23:53:00Z,33.47,-80.85,15.0,11.1,0,0,,10.0,30.129921,1020.3,,TRUE,TRUE,,,,,,,CLR,,,,,,,,VFR,0.2,23.3,15.0,,,,,,,,,METAR,59.0
KODX 222353Z AUTO 13008KT 10SM CLR 24/01 A2943 RMK AO2 SLP965 60000 T02390006 10311 20239 53006,KODX,2022-10-22T23:53:00Z,41.62,-98.95,23.9,0.6,130,8,,10.0,29.430119,996.5,,TRUE,TRUE,,,,,,,CLR,,,,,,,,VFR,0.6,31.1,23.9,,,,,0.005,,,,METAR,628.0
KODO 222353Z AUTO 21008KT 10SM CLR 27/12 A2979 RMK AO2 SLP050 T02670117 10300 20267 58003 $,KODO,2022-10-22T23:53:00Z,31.92,-102.4,26.7,11.7,210,8,,10.0,29.790354,1005.0,,TRUE,TRUE,TRUE,,,,,,CLR,,,,,,,,VFR,-0.3,30.0,26.7,,,,,,,,,METAR,912.0
KOAK 222353Z 26008KT 10SM FEW015 BKN180 18/08 A2976 RMK AO2 SLP075 T01830078 10206 20183 55004,KOAK,2022-10-22T23:53:00Z,37.72,-122.23,18.3,7.8,260,8,,10.0,29.760826,1007.5,,,TRUE,,,,,,,FEW,1500,BKN,18000,,,,,VFR,-0.4,20.6,18.3,,,,,,,,,METAR,3.0
KNUW 222353Z 29003KT 10SM FEW030 SCT100 BKN250 11/05 A2983 RMK AO2 SLP099 T01060050 10128 20100 53009 $,KNUW,2022-10-22T23:53:00Z,48.35,-122.65,10.6,5.0,290,3,,10.0,29.828741,1009.9,,,TRUE,TRUE,,,,,,FEW,3000,SCT,10000,BKN,25000,,,VFR,0.9,12.8,10.0,,,,,,,,,METAR,14.0
KNUI 222353Z AUTO 00000KT CLR 13/10 A3022 RMK AO2 SLP234 T01330100 10217 20128 55000,KNUI,2022-10-22T23:53:00Z,38.15,-76.43,13.3,10.0,0,0,,,30.221457,1023.4,,TRUE,TRUE,,,,,,,CLR,,,,,,,,,0.0,21.7,12.8,,,,,,,,,METAR,4.0
KNSI 222353Z AUTO 31012KT BKN013 18/13 A2978 RMK AO2 SLP078 T01780133 10189 20172 56007 PWINO $,KNSI,2022-10-22T23:53:00Z,33.23,-119.45,17.8,13.3,310,12,,,29.778543,1007.8,,TRUE,TRUE,TRUE,,,,TRUE,,BKN,1300,,,,,,,,-0.7,18.9,17.2,,,,,,,,,SPECI,161.0
KNQX 222353Z 02008KT 10SM FEW040 27/20 A2999 RMK AO2 SLP153 T02720200 10294 20272 51006 $,KNQX,2022-10-22T23:53:00Z,24.57,-81.67,27.2,20.0,20,8,,10.0,29.991142,1015.3,,,TRUE,TRUE,,,,,,FEW,4000,,,,,,,VFR,0.6,29.4,27.2,,,,,,,,,METAR,2.0
KNIP 222353Z 04005KT 10SM CLR 19/12 A3011 RMK AO2 SLP190 T01890117 10244 20189 53004,KNIP,2022-10-22T23:53:00Z,30.23,-81.67,18.9,11.7,40,5,,10.0,30.109253,1019.0,,,TRUE,,,,,,,CLR,,,,,,,,VFR,0.4,24.4,18.9,,,,,,,,,METAR,3.0
KNEW 222353Z 13007KT 10SM CLR 22/14 A3005 RMK AO2 SLP171 T02170139 10267 20217 56001,KNEW,2022-10-22T23:53:00Z,30.05,-90.03,21.7,13.9,130,7,,10.0,30.050198,1017.1,,,TRUE,,,,,,,CLR,,,,,,,,VFR,-0.1,26.7,21.7,,,,,,,,,METAR,1.0
KMYV 222353Z AUTO 33019G24KT 10SM CLR 23/M05 A2969 RMK AO2 SLP056 T02281050 10244 20206 56010 $,KMYV,2022-10-22T23:53:00Z,39.1,-121.57,22.8,-5.0,330,19,24,10.0,29.68996,1005.6,,TRUE,TRUE,TRUE,,,,,,CLR,,,,,,,,VFR,-1.0,24.4,20.6,,,,,,,,,METAR,18.0
KMYF 222353Z 24009KT 10SM BKN024 OVC037 18/12 A2980 RMK AO2 SLP087 T01830117 10211 20183 55004,KMYF,2022-10-22T23:53:00Z,32.82,-117.13,18.3,11.7,240,9,,10.0,29.799213,1008.7,,,TRUE,,,,,,,BKN,2400,OVC,3700,,,,,MVFR,-0.4,21.1,18.3,,,,,,,,,METAR,128.0
KMWT 222353Z AUTO VRB05KT 10SM CLR 24/12 A2978 RMK AO2 SLP075 T02440122 10272 20239 53001,KMWT,2022-10-22T23:53:00Z,34.55,-93.58,24.4,12.2,0,5,,10.0,29.778543,1007.5,,TRUE,TRUE,,,,,,,CLR,,,,,,,,VFR,0.1,27.2,23.9,,,,,,,,,METAR,220.0
KMWN 222353Z 28021KT 60SM SCT130 07/02 RMK 10068 20043,KMWN,2022-10-22T23:53:00Z,44.27,-71.3,7.0,2.0,280,21,,60.0,,,,,,,,,,,,SCT,13000,,,,,,,VFR,,6.8,4.3,,,,,,,,,METAR,1911.0
KMWL 222353Z AUTO 17012G22KT 10SM CLR 28/12 A2970 RMK AO2 PK WND 17030/2255 SLP045 T02830122 10339 20283 50003,KMWL,2022-10-22T23:53:00Z,32.78,-98.07,28.3,12.2,170,12,22,10.0,29.698818,1004.5,,TRUE,TRUE,,,,,,,CLR,,,,,,,,VFR,0.3,33.9,28.3,,,,,,,,,METAR,288.0
KMVY 222353Z 00000KT 10SM CLR 08/07 A3030 RMK AO2 SLP260 T00830072 10189 20078 53006,KMVY,2022-10-22T23:53:00Z,41.4,-70.62,8.3,7.2,0,0,,10.0,30.301182,1026.0,,,TRUE,,,,,,,CLR,,,,,,,,VFR,0.6,18.9,7.8,,,,,,,,,METAR,18.0
KMTO 222353Z AUTO 16010KT 10SM CLR 21/12 A2990 RMK AO2 SLP123 T02110117 10261 20211 53016,KMTO,2022-10-22T23:53:00Z,39.47,-88.27,21.1,11.7,160,10,,10.0,29.899607,1012.3,,TRUE,TRUE,,,,,,,CLR,,,,,,,,VFR,1.6,26.1,21.1,,,,,,,,,METAR,216.0
KMTJ 222353Z AUTO 23013G24KT 10SM CLR 19/M02 A2958 RMK AO2 PK WND 18034/2320 SLP961 T01891017 10206 20183 56019,KMTJ,2022-10-22T23:53:00Z,38.5,-107.9,18.9,-1.7,230,13,24,10.0,29.58071,996.1,,TRUE,TRUE,,,,,,,CLR,,,,,,,,VFR,-1.9,20.6,18.3,,,,,,,,,METAR,1755.0
KMTH 222353Z AUTO 06009KT 10SM CLR 26/19 A2998 RMK AO2 SLP150 T02610194 10289 20261 53007 $,KMTH,2022-10-22T23:53:00Z,24.73,-81.05,26.1,19.4,60,9,,10.0,29.97933,1015.0,,TRUE,TRUE,TRUE,,,,,,CLR,,,,,,,,VFR,0.7,28.9,26.1,,,,,,,,,METAR,1.0
KMSY 222353Z 14005KT 10SM FEW050 SCT250 22/14 A3004 RMK AO2 SLP177 T02170144 10261 20217 57002 $,KMSY,2022-10-22T23:53:00Z,30.0,-90.25,21.7,14.4,140,5,,10.0,30.041338,1017.7,,,TRUE,TRUE,,,,,,FEW,5000,SCT,25000,,,,,VFR,-0.2,26.1,21.7,,,,,,,,,METAR,0.0
KMSS 222353Z AUTO 00000KT 10SM CLR 09/04 A3015 RMK AO2 SLP213 T00890044 10222 20089 53017,KMSS,2022-10-22T23:53:00Z,44.93,-74.85,8.9,4.4,0,0,,10.0,30.15059,1021.3,,TRUE,TRUE,,,,,,,CLR,,,,,,,,VFR,1.7,22.2,8.9,,,,,,,,,METAR,60.0
KMSP 222353Z 14006KT 10SM FEW200 SCT250 22/06 A2953 RMK AO2 SLP001 T02170056 10250 20194 53012,KMSP,2022-10-22T23:53:00Z,44.88,-93.23,21.7,5.6,140,6,,10.0,29.530512,1000.1,,,TRUE,,,,,,,FEW,20000,SCT,25000,,,,,VFR,1.2,25.0,19.4,,,,,,,,,METAR,255.0
KMSO 222353Z 29012KT 10SM -RA FEW026 SCT036 OVC050 06/01 A2957 RMK AO2 RAB50 SLP026 P0000 60001 T00560011 10078 20050 53021 $,KMSO,2022-10-22T23:53:00Z,46.92,-114.1,5.6,1.1,290,12,,10.0,29.568897,1002.6,,,TRUE,TRUE,,,,,-RA,FEW,2600,SCT,3600,OVC,5000,,,VFR,2.1,7.8,5.0,,,0.005,,0.01,,,,METAR,974.0
KMSN 222353Z 16011KT 10SM FEW250 21/10 A2972 RMK AO2 SLP062 T02110100 10250 20211 53012,KMSN,2022-10-22T23:53:00Z,43.13,-89.35,21.1,10.0,160,11,,10.0,29.719488,1006.2,,,TRUE,,,,,,,FEW,25000,,,,,,,VFR,1.2,25.0,21.1,,,,,,,,,METAR,262.0
KMSL 222353Z AUTO 16004KT 10SM CLR 20/11 A3004 RMK AO2 SLP170 T02000106 10256 20194 53004,KMSL,2022-10-22T23:53:00Z,34.75,-87.6,20.0,10.6,160,4,,10.0,30.041338,1017.0,,TRUE,TRUE,,,,,,,CLR,,,,,,,,VFR,0.4,25.6,19.4,,,,,,,,,METAR,170.0
KMRB 222353Z AUTO 00000KT 10SM CLR 11/04 A3021 RMK AO2 SLP234 T01110039 10206 20106 53008 $,KMRB,2022-10-22T23:53:00Z,39.4,-77.98,11.1,3.9,0,0,,10.0,30.209646,1023.4,,TRUE,TRUE,TRUE,,,,,,CLR,,,,,,,,VFR,0.8,20.6,10.6,,,,,,,,,METAR,165.0
KMPO 222353Z AUTO 00000KT 10SM CLR 07/03 A3027 RMK AO2 SLP264 T00720033 10172 20067 53009,KMPO,2022-10-22T23:53:00Z,41.13,-75.38,7.2,3.3,0,0,,10.0,30.268702,1026.4,,TRUE,TRUE,,,,,,,CLR,,,,,,,,VFR,0.9,17.2,6.7,,,,,,,,,METAR,576.0
KMOD 222353Z COR 30013KT 10SM SCT060 22/07 A2969 RMK AO2 SLP053 T02170072 10233 20194 56008 $,KMOD,2022-10-22T23:53:00Z,37.62,-120.95,21.7,7.2,300,13,,10.0,29.68996,1005.3,TRUE,,TRUE,TRUE,,,,,,SCT,6000,,,,,,,VFR,-0.8,23.3,19.4,,,,,,,,,METAR,25.0
KMNN 222353Z AUTO 17005KT 8SM CLR 18/09 A3006 RMK AO2 SLP182 T01780089 10233 20167 53014,KMNN,2022-10-22T23:53:00Z,40.62,-83.07,17.8,8.9,170,5,,8.0,30.059055,1018.2,,TRUE,TRUE,,,,,,,CLR,,,,,,,,VFR,1.4,23.3,16.7,,,,,,,,,METAR,301.0
KMMK 222353Z AUTO 00000KT 10SM CLR 09/05 A3029 RMK AO2 SLP258 T00890050 10194 20083 53011,KMMK,2022-10-22T23:53:00Z,41.52,-72.83,8.9,5.0,0,0,,10.0,30.28937,1025.8,,TRUE,TRUE,,,,,,,CLR,,,,,,,,VFR,1.1,19.4,8.3,,,,,,,,,METAR,30.0
KMLU 222353Z 18007KT 10SM CLR 26/14 A2992 RMK AO2 SLP132 T02560139 10294 20256 53000,KMLU,2022-10-22T23:53:00Z,32.52,-92.03,25.6,13.9,180,7,,10.0,29.920275,1013.2,,,TRUE,,,,,,,CLR,,,,,,,,VFR,0.0,29.4,25.6,,,,,,,,,METAR,22.0
KMLT 222353Z AUTO VRB04KT 10SM CLR 12/08 A3024 RMK AO2 SLP248 T01220078 10183 20111 51014,KMLT,2022-10-22T23:53:00Z,45.65,-68.7,12.2,7.8,0,4,,10.0,30.239174,1024.8,,TRUE,TRUE,,,,,,,CLR,,,,,,,,VFR,1.4,18.3,11.1,,,,,,,,,METAR,121.0
KMLS 222353Z AUTO 07012KT 10SM BKN120 11/04 A2937 RMK AO2 SLP945 T01110039 10122 20089 51003,KMLS,2022-10-22T23:53:00Z,46.43,-105.88,11.1,3.9,70,12,,10.0,29.371063,994.5,,TRUE,TRUE,,,,,,,BKN,12000,,,,,,,VFR,0.3,12.2,8.9,,,,,,,,,METAR,800.0
KMLC 222353Z AUTO 17010G24KT 10SM FEW100 SCT120 26/14 A2967 RMK AO2 PK WND 16032/2321 SLP039 60000 T02610144 10283 20261 53008,KMLC,2022-10-22T23:53:00Z,34.88,-95.78,26.1,14.4,170,10,24,10.0,29.66929,1003.9,,TRUE,TRUE,,,,,,,FEW,10000,SCT,12000,,,,,VFR,0.8,28.3,26.1,,,,,0.005,,,,METAR,231.0
KMLB 222353Z 36012KT 10SM CLR 22/19 A3003 RMK AO2 SLP167 T02220189 10272 20222 53000,KMLB,2022-10-22T23:53:00Z,28.1,-80.65,22.2,18.9,360,12,,10.0,30.029528,1016.7,,,TRUE,,,,,,,CLR,,,,,,,,VFR,0.0,27.2,22.2,,,,,,,,,METAR,7.0
KMKO 222353Z AUTO 16014G23KT 10SM CLR 26/14 A2968 RMK AO2 PK WND 16031/2324 SLP043 T02560139 10294 20256 53007,KMKO,2022-10-22T23:53:00Z,35.65,-95.37,25.6,13.9,160,14,23,10.0,29.681103,1004.3,,TRUE,TRUE,,,,,,,CLR,,,,,,,,VFR,0.7,29.4,25.6,,,,,,,,,METAR,184.0
KMKL 222353Z AUTO 14004KT 10SM CLR 21/12 A2998 RMK AO2 SLP150 T02110117 10239 20211 53002 $,KMKL,2022-10-22T23:53:00Z,35.6,-88.92,21.1,11.7,140,4,,10.0,29.97933,1015.0,,TRUE,TRUE,TRUE,,,,,,CLR,,,,,,,,VFR,0.2,23.9,21.1,,,,,,,,,METAR,130.0
KMIW 222353Z AUTO 15008KT 10SM CLR 25/08 A2958 RMK AO2 SLP013 T02500078 10283 20250 53014,KMIW,2022-10-22T23:53:00Z,42.12,-92.92,25.0,7.8,150,8,,10.0,29.58071,1001.3,,TRUE,TRUE,,,,,,,CLR,,,,,,,,VFR,1.4,28.3,25.0,,,,,,,,,METAR,296.0
KMIE 222353Z 18010KT 10SM CLR 22/10 A2999 RMK AO2 SLP148 T02170100 10261 20217 53014,KMIE,2022-10-22T23:53:00Z,40.23,-85.4,21.7,10.0,180,10,,10.0,29.991142,1014.8,,,TRUE,,,,,,,CLR,,,,,,,,VFR,1.4,26.1,21.7,,,,,,,,,METAR,286.0
KMIC 222353Z 14005KT 10SM CLR 22/06 A2952 RMK AO2 SLP996 T02170061 10256 20183 53014,KMIC,2022-10-22T23:53:00Z,45.07,-93.35,21.7,6.1,140,5,,10.0,29.518702,999.6,,,TRUE,,,,,,,CLR,,,,,,,,VFR,1.4,25.6,18.3,,,,,,,,,METAR,263.0
KMIA 222353Z 03005KT 10SM FEW055 26/17 A2999 RMK AO2 SLP156 T02610167 10300 20261 53008 $,KMIA,2022-10-22T23:53:00Z,25.8,-80.32,26.1,16.7,30,5,,10.0,29.991142,1015.6,,,TRUE,TRUE,,,,,,FEW,5500,,,,,,,VFR,0.8,30.0,26.1,,,,,,,,,METAR,1.0
KMHT 222353Z 15004KT 10SM SCT250 13/05 A3027 RMK AO2 SLP265 T01330050 10217 20133 53016,KMHT,2022-10-22T23:53:00Z,42.93,-71.43,13.3,5.0,150,4,,10.0,30.268702,1026.5,,,TRUE,,,,,,,SCT,25000,,,,,,,VFR,1.6,21.7,13.3,,,,,,,,,METAR,68.0
KMHE 222353Z AUTO 05004KT 10SM CLR 18/01 A2944 RMK AO2 SLP968 T01830011 10244 20178 53004,KMHE,2022-10-22T23:53:00Z,43.77,-98.03,18.3,1.1,50,4,,10.0,29.438976,996.8,,TRUE,TRUE,,,,,,,CLR,,,,,,,,VFR,0.4,24.4,17.8,,,,,,,,,METAR,397.0
KMGY 222353Z AUTO 15006KT 10SM CLR 20/09 A3005 RMK AO2 SLP173 T02000094 10250 20194 53014,KMGY,2022-10-22T23:53:00Z,39.6,-84.23,20.0,9.4,150,6,,10.0,30.050198,1017.3,,TRUE,TRUE,,,,,,,CLR,,,,,,,,VFR,1.4,25.0,19.4,,,,,,,,,METAR,290.0
KMGW 222353Z 10003KT 10SM CLR 17/02 A3017 RMK AO2 SLP220 T01720022 10233 20144 53009,KMGW,2022-10-22T23:53:00Z,39.65,-79.92,17.2,2.2,100,3,,10.0,30.171259,1022.0,,,TRUE,,,,,,,CLR,,,,,,,,VFR,0.9,23.3,14.4,,,,,,,,,METAR,375.0
KMGM 222353Z AUTO 09003KT 10SM CLR 17/09 A3009 RMK AO2 SLP189 T01720089 10250 20172 56002,KMGM,2022-10-22T23:53:00Z,32.3,-86.4,17.2,8.9,90,3,,10.0,30.088583,1018.9,,TRUE,TRUE,,,,,,,CLR,,,,,,,,VFR,-0.2,25.0,17.2,,,,,,,,,METAR,64.0
KMFE 222353Z 14014G25KT 10SM CLR 27/19 A2985 RMK AO2 PK WND 13027/2258 SLP107 T02670189 10328 20267 53005 $,KMFE,2022-10-22T23:53:00Z,26.18,-98.25,26.7,18.9,140,14,25,10.0,29.84941,1010.7,,,TRUE,TRUE,,,,,,CLR,,,,,,,,VFR,0.5,32.8,26.7,,,,,,,,,METAR,29.0
KMDW 222353Z 19012G22KT 10SM FEW250 24/11 A2983 RMK AO2 SLP096 T02390106 10278 20239 53015,KMDW,2022-10-22T23:53:00Z,41.78,-87.75,23.9,10.6,190,12,22,10.0,29.828741,1009.6,,,TRUE,,,,,,,FEW,25000,,,,,,,VFR,1.5,27.8,23.9,,,,,,,,,METAR,186.0
KMCW 222353Z AUTO 17006KT 10SM CLR 19/07 A2959 RMK AO2 SLP016 T01890072 10267 20189 53014,KMCW,2022-10-22T23:53:00Z,43.15,-93.33,18.9,7.2,170,6,,10.0,29.589567,1001.6,,TRUE,TRUE,,,,,,,CLR,,,,,,,,VFR,1.4,26.7,18.9,,,,,,,,,METAR,363.0
KMCO 222353Z 03007KT 10SM CLR 21/17 A3005 RMK AO2 SLP174 T02110167 10289 20211 53008 $,KMCO,2022-10-22T23:53:00Z,28.42,-81.33,21.1,16.7,30,7,,10.0,30.050198,1017.4,,,TRUE,TRUE,,,,,,CLR,,,,,,,,VFR,0.8,28.9,21.1,,,,,,,,,METAR,27.0
KMCN 222353Z AUTO 00000KT 10SM CLR 15/06 A3012 RMK AO2 SLP198 T01500056 10244 20150 55002,KMCN,2022-10-22T23:53:00Z,32.68,-83.65,15.0,5.6,0,0,,10.0,30.121063,1019.8,,TRUE,TRUE,,,,,,,CLR,,,,,,,,VFR,-0.2,24.4,15.0,,,,,,,,,METAR,104.0
KMCK 222353Z AUTO 14008KT 10SM CLR 23/M03 A2941 RMK AO2 SLP950 T02281033 10300 20228 55002,KMCK,2022-10-22T23:53:00Z,40.2,-100.58,22.8,-3.3,140,8,,10.0,29.409449,995.0,,TRUE,TRUE,,,,,,,CLR,,,,,,,,VFR,-0.2,30.0,22.8,,,,,,,,,METAR,780.0
KMCI 222353Z 17008KT 10SM CLR 23/11 A2959 RMK AO2 SLP010 T02330111 10283 20228 53012,KMCI,2022-10-22T23:53:00Z,39.3,-94.73,23.3,11.1,170,8,,10.0,29.589567,1001.0,,,TRUE,,,,,,,CLR,,,,,,,,VFR,1.2,28.3,22.8,,,,,,,,,METAR,308.0
KMCE 222353Z AUTO 35012KT 10SM FEW055 24/09 A2967 RMK AO2 SLP047 T02390089 10244 20206 56014,KMCE,2022-10-22T23:53:00Z,37.28,-120.5,23.9,8.9,350,12,,10.0,29.66929,1004.7,,TRUE,TRUE,,,,,,,FEW,5500,,,,,,,VFR,-1.4,24.4,20.6,,,,,,,,,METAR,49.0
KMCB 222353Z AUTO 16006KT 10SM CLR 19/12 A3003 RMK AO2 SLP165 T01890122 10267 20183 58001,KMCB,2022-10-22T23:53:00Z,31.18,-90.47,18.9,12.2,160,6,,10.0,30.029528,1016.5,,TRUE,TRUE,,,,,,,CLR,,,,,,,,VFR,-0.1,26.7,18.3,,,,,,,,,METAR,124.0
KMBS 222353Z 17009KT 10SM CLR 19/08 A2994 RMK AO2 SLP140 T01890083 10244 20189 53018,KMBS,2022-10-22T23:53:00Z,43.53,-84.08,18.9,8.3,170,9,,10.0,29.940945,1014.0,,,TRUE,,,,,,,CLR,,,,,,,,VFR,1.8,24.4,18.9,,,,,,,,,METAR,201.0
KMAI 222353Z AUTO 00000KT 10SM CLR 17/06 A3008 RMK AO1 SLP186 T01720061 10256 20172 55001 $,KMAI,2022-10-22T23:53:00Z,30.83,-85.18,17.2,6.1,0,0,,10.0,30.079725,1018.6,,TRUE,TRUE,TRUE,,,,,,CLR,,,,,,,,VFR,-0.1,25.6,17.2,,,,,,,,,METAR,33.0
KMAF 222353Z 21008KT 10SM CLR 27/12 A2978 RMK AO2 SLP043 T02670122 10300 20267 58001,KMAF,2022-10-22T23:53:00Z,31.95,-102.2,26.7,12.2,210,8,,10.0,29.778543,1004.3,,,TRUE,,,,,,,CLR,,,,,,,,VFR,-0.1,30.0,26.7,,,,,,,,,METAR,874.0
KMAE 222353Z AUTO 33014KT 10SM CLR 23/11 A2969 RMK AO2 SLP052 T02280106 10250 20206 55010,KMAE,2022-10-22T23:53:00Z,36.98,-120.12,22.8,10.6,330,14,,10.0,29.68996,1005.2,,TRUE,TRUE,,,,,,,CLR,,,,,,,,VFR,-1.0,25.0,20.6,,,,,,,,,METAR,77.0
KLXV 222353Z AUTO 25011G21KT 210V280 10SM CLR 08/M12 A2976 RMK AO2 PK WND 22027/2308 SLP966 T00831117 10128 20083 57003 $,KLXV,2022-10-22T23:53:00Z,39.23,-106.32,8.3,-11.7,250,11,21,10.0,29.760826,996.6,,TRUE,TRUE,TRUE,,,,,,CLR,,,,,,,,VFR,-0.3,12.8,8.3,,,,,,,,,METAR,3027.0
KLXT 222353Z AUTO 19010KT 10SM CLR 24/12 A2961 RMK AO2 SLP019 T02440117 10267 20244 53009,KLXT,2022-10-22T23:53:00Z,38.97,-94.37,24.4,11.7,190,10,,10.0,29.610237,1001.9,,TRUE,TRUE,,,,,,,CLR,,,,,,,,VFR,0.9,26.7,24.4,,,,,,,,,METAR,306.0
KLWV 222353Z AUTO 15009KT 10SM CLR 19/12 A2995 RMK AO2 SLP141 T01940117 10272 20194 53010 $,KLWV,2022-10-22T23:53:00Z,38.77,-87.6,19.4,11.7,150,9,,10.0,29.949802,1014.1,,TRUE,TRUE,TRUE,,,,,,CLR,,,,,,,,VFR,1.0,27.2,19.4,,,,,,,,,METAR,128.0
KLWD 222353Z AUTO 18007KT 10SM CLR 23/10 A2959 RMK AO2 RAE31 SLP016 P0000 60000 T02280100 10283 20228 53017,KLWD,2022-10-22T23:53:00Z,40.63,-93.9,22.8,10.0,180,7,,10.0,29.589567,1001.6,,TRUE,TRUE,,,,,,,CLR,,,,,,,,VFR,1.7,28.3,22.8,,,0.005,,0.005,,,,METAR,345.0
KLVS 222353Z AUTO 23013G19KT 10SM CLR 15/05 A2980 RMK AO2 SLP011 T01500050 10194 20150 58003,KLVS,2022-10-22T23:53:00Z,35.65,-105.13,15.0,5.0,230,13,19,10.0,29.799213,1001.1,,TRUE,TRUE,,,,,,,CLR,,,,,,,,VFR,-0.3,19.4,15.0,,,,,,,,,METAR,2095.0
KLVM 222353Z AUTO 26011KT 10SM -RA BKN039 OVC055 06/03 A2940 RMK AO2 RAB29 SLP950 P0001 60023 T00610033 10072 20061 53009 $,KLVM,2022-10-22T23:53:00Z,45.7,-110.43,6.1,3.3,260,11,,10.0,29.40059,995.0,,TRUE,TRUE,TRUE,,,,,-RA,BKN,3900,OVC,5500,,,,,VFR,0.9,7.2,6.1,,,0.01,,0.23,,,,METAR,1418.0
KLVK 222353Z 25011KT 10SM CLR 19/07 A2974 RMK AO2 SLP067 T01890067 10217 20178 56002,KLVK,2022-10-22T23:53:00Z,37.7,-121.82,18.9,6.7,250,11,,10.0,29.740158,1006.7,,,TRUE,,,,,,,CLR,,,,,,,,VFR,-0.2,21.7,17.8,,,,,,,,,METAR,120.0
KLVJ 222353Z AUTO 17008KT 10SM CLR 26/17 A2993 RMK AO2 SLP135 T02560167 10294 20256 54000,KLVJ,2022-10-22T23:53:00Z,29.52,-95.25,25.6,16.7,170,8,,10.0,29.929134,1013.5,,TRUE,TRUE,,,,,,,CLR,,,,,,,,VFR,,29.4,25.6,,,,,,,,,METAR,11.0
KLUK 222353Z 00000KT 10SM CLR 16/10 A3006 RMK AO2 SLP178 T01610100 10261 20156 53014,KLUK,2022-10-22T23:53:00Z,39.1,-84.42,16.1,10.0,0,0,,10.0,30.059055,1017.8,,,TRUE,,,,,,,CLR,,,,,,,,VFR,1.4,26.1,15.6,,,,,,,,,METAR,144.0
KLSE 222353Z 16007KT 10SM CLR 23/08 A2962 RMK AO2 SLP027 T02280078 10272 20211 53014 $,KLSE,2022-10-22T23:53:00Z,43.88,-91.25,22.8,7.8,160,7,,10.0,29.619095,1002.7,,,TRUE,TRUE,,,,,,CLR,,,,,,,,VFR,1.4,27.2,21.1,,,,,,,,,METAR,198.0
KLPR 222353Z AUTO 17008KT 10SM CLR 18/09 A3007 RMK AO2 SLP183 T01830094 10239 20178 53016,KLPR,2022-10-22T23:53:00Z,41.35,-82.18,18.3,9.4,170,8,,10.0,30.070866,1018.3,,TRUE,TRUE,,,,,,,CLR,,,,,,,,VFR,1.6,23.9,17.8,,,,,,,,,METAR,241.0
KLOZ 222353Z AUTO 00000KT 10SM CLR 17/08 A3012 RMK AO2 SLP199 T01720083 10239 20167 53010,KLOZ,2022-10-22T23:53:00Z,37.08,-84.07,17.2,8.3,0,0,,10.0,30.121063,1019.9,,TRUE,TRUE,,,,,,,CLR,,,,,,,,VFR,1.0,23.9,16.7,,,,,,,,,METAR,361.0
KLOU 222353Z 17006KT 10SM CLR 21/11 A3003 RMK AO2 SLP167 T02060106 10267 20206 53012,KLOU,2022-10-22T23:53:00Z,38.22,-85.67,20.6,10.6,170,6,,10.0,30.029528,1016.7,,,TRUE,,,,,,,CLR,,,,,,,,VFR,1.2,26.7,20.6,,,,,,,,,METAR,165.0
KLOL 222353Z AUTO 35014G23KT 10SM CLR 11/M06 A2967 RMK AO2 PK WND 31029/2258 SLP025 T01111056 10144 20106 53000 $,KLOL,2022-10-22T23:53:00Z,40.07,-118.57,11.1,-5.6,350,14,23,10.0,29.66929,1002.5,,TRUE,TRUE,TRUE,,,,,,CLR,,,,,,,,VFR,0.0,14.4,10.6,,,,,,,,,METAR,1191.0
KLNS 222353Z 11004KT 10SM CLR 12/06 A3025 RMK AO2 SLP244 T01170056 10211 20117 53008,KLNS,2022-10-22T23:53:00Z,40.12,-76.3,11.7,5.6,110,4,,10.0,30.250984,1024.4,,,TRUE,,,,,,,CLR,,,,,,,,VFR,0.8,21.1,11.7,,,,,,,,,METAR,122.0
KLND 222353Z AUTO 11017KT 10SM BKN060 BKN075 OVC090 12/02 A2936 RMK AO2 SLP901 T01170022 10183 20117 53001 $,KLND,2022-10-22T23:53:00Z,42.82,-108.73,11.7,2.2,110,17,,10.0,29.359253,990.1,,TRUE,TRUE,TRUE,,,,,,BKN,6000,BKN,7500,OVC,9000,,,VFR,0.1,18.3,11.7,,,,,,,,,METAR,1700.0
KLMT 222353Z 29013KT 10SM FEW042 FEW100 06/M02 A2981 RMK AO2 PK WND 28026/2308 RAE02 SLP087 P0000 60000 T00611022 10089 20056 53004,KLMT,2022-10-22T23:53:00Z,42.15,-121.72,6.1,-2.2,290,13,,10.0,29.811024,1008.7,,,TRUE,,,,,,,FEW,4200,FEW,10000,,,,,VFR,0.4,8.9,5.6,,,0.005,,0.005,,,,METAR,1246.0
KLLQ 222353Z AUTO 16007KT 10SM CLR 24/13 A2990 RMK AO2 SLP121 T02440133 10278 20244 58003,KLLQ,2022-10-22T23:53:00Z,33.63,-91.75,24.4,13.3,160,7,,10.0,29.899607,1012.1,,TRUE,TRUE,,,,,,,CLR,,,,,,,,VFR,-0.3,27.8,24.4,,,,,,,,,METAR,86.0
KLKV 222353Z AUTO 30013G25KT 10SM FEW060 06/M08 A2975 RMK AO2 SLP083 60000 T00561078 10078 20028 53003,KLKV,2022-10-22T23:53:00Z,42.17,-120.4,5.6,-7.8,300,13,25,10.0,29.749016,1008.3,,TRUE,TRUE,,,,,,,FEW,6000,,,,,,,VFR,0.3,7.8,2.8,,,,,0.005,,,,METAR,1440.0
KLIT 222353Z 16009KT 10SM SCT250 23/13 A2985 RMK AO2 SLP107 T02330133 10278 20233 53000,KLIT,2022-10-22T23:53:00Z,34.73,-92.23,23.3,13.3,160,9,,10.0,29.84941,1010.7,,,TRUE,,,,,,,SCT,25000,,,,,,,VFR,0.0,27.8,23.3,,,,,,,,,METAR,77.0
KLHX 222353Z AUTO 23019G27KT 10SM CLR 24/M05 A2949 RMK AO2 PK WND 24037/2301 SLP935 T02441050 10289 20244 55001 $,KLHX,2022-10-22T23:53:00Z,38.05,-103.52,24.4,-5.0,230,19,27,10.0,29.489174,993.5,,TRUE,TRUE,TRUE,,,,,,CLR,,,,,,,,VFR,-0.1,28.9,24.4,,,,,,,,,METAR,1289.0
KLHQ 222353Z AUTO 13004KT 10SM CLR 14/09 A3010 RMK AO2 SLP193 T01440089 10244 20144 53013,KLHQ,2022-10-22T23:53:00Z,39.75,-82.67,14.4,8.9,130,4,,10.0,30.100393,1019.3,,TRUE,TRUE,,,,,,,CLR,,,,,,,,VFR,1.3,24.4,14.4,,,,,,,,,METAR,259.0
KLGB 222353Z 18008KT 10SM OVC038 19/14 A2976 RMK AO2 SLP076 T01940139 10222 20194 56008,KLGB,2022-10-22T23:53:00Z,33.82,-118.15,19.4,13.9,180,8,,10.0,29.760826,1007.6,,,TRUE,,,,,,,OVC,3800,,,,,,,VFR,-0.8,22.2,19.4,,,,,,,,,METAR,10.0
KLFT 222353Z 16006KT 10SM CLR 23/16 A3000 RMK AO2 SLP158 T02280156 10283 20228 57004,KLFT,2022-10-22T23:53:00Z,30.2,-91.97,22.8,15.6,160,6,,10.0,30.0,1015.8,,,TRUE,,,,,,,CLR,,,,,,,,VFR,-0.4,28.3,22.8,,,,,,,,,METAR,9.0
KLFK 222353Z AUTO 18011G20KT 10SM CLR 26/13 A2989 RMK AO2 SLP118 T02560128 10300 20256 53003,KLFK,2022-10-22T23:53:00Z,31.23,-94.75,25.6,12.8,180,11,20,10.0,29.890747,1011.8,,TRUE,TRUE,,,,,,,CLR,,,,,,,,VFR,0.3,30.0,25.6,,,,,,,,,METAR,87.0
KLEE 222353Z AUTO 04006KT 10SM CLR 21/16 A3007 RMK AO2 SLP181 T02060161 10278 20206 53008,KLEE,2022-10-22T23:53:00Z,28.82,-81.82,20.6,16.1,40,6,,10.0,30.070866,1018.1,,TRUE,TRUE,,,,,,,CLR,,,,,,,,VFR,0.8,27.8,20.6,,,,,,,,,METAR,21.0
KLEB 222353Z 05003KT 10SM CLR 09/04 A3025 RMK AO2 SLP249 T00890044 10217 20083 53020,KLEB,2022-10-22T23:53:00Z,43.63,-72.3,8.9,4.4,50,3,,10.0,30.250984,1024.9,,,TRUE,,,,,,,CLR,,,,,,,,VFR,2.0,21.7,8.3,,,,,,,,,METAR,169.0
KLCH 222353Z 16008KT 10SM CLR 21/16 A2997 RMK AO2 SLP154 T02110161 10278 20211 58003,KLCH,2022-10-22T23:53:00Z,30.13,-93.22,21.1,16.1,160,8,,10.0,29.970472,1015.4,,,TRUE,,,,,,,CLR,,,,,,,,VFR,-0.3,27.8,21.1,,,,,,,,,METAR,2.0
KLBX 222353Z AUTO 17009KT 10SM SCT045 BKN055 24/17 A2992 RMK AO2 SLP131 T02440172 10294 20239 58002,KLBX,2022-10-22T23:53:00Z,29.12,-95.47,24.4,17.2,170,9,,10.0,29.920275,1013.1,,TRUE,TRUE,,,,,,,SCT,4500,BKN,5500,,,,,VFR,-0.2,29.4,23.9,,,,,,,,,METAR,4.0
KLBF 222353Z AUTO 13006KT 10SM CLR 23/M04 A2941 RMK AO2 SLP953 T02281044 10306 20228 55001,KLBF,2022-10-22T23:53:00Z,41.12,-100.67,22.8,-4.4,130,6,,10.0,29.409449,995.3,,TRUE,TRUE,,,,,,,CLR,,,,,,,,VFR,-0.1,30.6,22.8,,,,,,,,,METAR,843.0
KLBB 222353Z 22013G22KT 10SM FEW180 SCT220 OVC250 25/11 A2973 RMK AO2 PK WND 22028/2256 SLP025 T02500111 10294 20250 53001,KLBB,2022-10-22T23:53:00Z,33.67,-101.82,25.0,11.1,220,13,22,10.0,29.731298,1002.5,,,TRUE,,,,,,,FEW,18000,SCT,22000,OVC,25000,,,VFR,0.1,29.4,25.0,,,,,,,,,METAR,996.0
KLAX 222353Z 27007KT 10SM FEW021 BKN028 OVC034 19/13 A2975 RMK AO2 SLP072 T01890133 10206 20189 56012,KLAX,2022-10-22T23:53:00Z,33.93,-118.38,18.9,13.3,270,7,,10.0,29.749016,1007.2,,,TRUE,,,,,,,FEW,2100,BKN,2800,OVC,3400,,,MVFR,-1.2,20.6,18.9,,,,,,,,,METAR,30.0
KLAW 222353Z AUTO 18009KT 10SM CLR 29/09 A2959 RMK AO2 PK WND 21027/2258 SLP006 T02940094 10350 20294 53009,KLAW,2022-10-22T23:53:00Z,34.55,-98.42,29.4,9.4,180,9,,10.0,29.589567,1000.6,,TRUE,TRUE,,,,,,,CLR,,,,,,,,VFR,0.9,35.0,29.4,,,,,,,,,METAR,328.0
KLAR 222353Z AUTO 24022G30KT 10SM CLR 14/M10 A2954 RMK AO2 PK WND 22039/2323 SLP920 T01441100 10183 20144 55004,KLAR,2022-10-22T23:53:00Z,41.32,-105.67,14.4,-10.0,240,22,30,10.0,29.53937,992.0,,TRUE,TRUE,,,,,,,CLR,,,,,,,,VFR,-0.4,18.3,14.4,,,,,,,,,METAR,2217.0
KLAN 222353Z 16008KT 10SM CLR 19/08 A2995 RMK AO2 SLP142 T01890078 10244 20189 53015 $,KLAN,2022-10-22T23:53:00Z,42.78,-84.58,18.9,7.8,160,8,,10.0,29.949802,1014.2,,,TRUE,TRUE,,,,,,CLR,,,,,,,,VFR,1.5,24.4,18.9,,,,,,,,,METAR,261.0
KLAA 222353Z AUTO 25009KT 9SM CLR 24/M07 A2945 RMK AO2 SLP936 T02441072 10300 20244 55006,KLAA,2022-10-22T23:53:00Z,38.07,-102.68,24.4,-7.2,250,9,,9.0,29.450787,993.6,,TRUE,TRUE,,,,,,,CLR,,,,,,,,VFR,-0.6,30.0,24.4,,,,,,,,,METAR,1129.0
KJLN 222353Z 19012G19KT 10SM CLR 25/12 A2966 RMK AO2 PK WND 17035/2255 SLP035 T02500117 10294 20250 53021 $,KJLN,2022-10-22T23:53:00Z,37.15,-94.5,25.0,11.7,190,12,19,10.0,29.660433,1003.5,,,TRUE,TRUE,,,,,,CLR,,,,,,,,VFR,2.1,29.4,25.0,,,,,,,,,METAR,297.0
KJKL 222353Z AUTO VRB03KT 10SM CLR 21/07 A3013 RMK AO2 SLP195 T02060067 10256 20200 53008,KJKL,2022-10-22T23:53:00Z,37.6,-83.32,20.6,6.7,0,3,,10.0,30.129921,1019.5,,TRUE,TRUE,,,,,,,CLR,,,,,,,,VFR,0.8,25.6,20.0,,,,,,,,,METAR,414.0
KJER 222353Z AUTO 27021G30KT 10SM CLR 07/M01 A2955 RMK AO2 PK WND 27030/2351 SLP000 60000 T00721011 10094 20056 53006,KJER,2022-10-22T23:53:00Z,42.72,-114.45,7.2,-1.1,270,21,30,10.0,29.551182,1000.0,,TRUE,TRUE,,,,,,,CLR,,,,,,,,VFR,0.6,9.4,5.6,,,,,0.005,,,,METAR,1226.0
KJEF 222353Z 16015G27KT 10SM CLR 24/11 A2971 RMK AO2 PK WND 16032/2319 SLP048 T02440111 10306 20244 53015 $,KJEF,2022-10-22T23:53:00Z,38.6,-92.15,24.4,11.1,160,15,27,10.0,29.71063,1004.8,,,TRUE,TRUE,,,,,,CLR,,,,,,,,VFR,1.5,30.6,24.4,,,,,,,,,METAR,167.0
KJBR 222353Z AUTO 18010KT 10SM CLR 23/12 A2989 RMK AO2 SLP121 T02280117 10261 20228 53001 $,KJBR,2022-10-22T23:53:00Z,35.83,-90.65,22.8,11.7,180,10,,10.0,29.890747,1012.1,,TRUE,TRUE,TRUE,,,,,,CLR,,,,,,,,VFR,0.1,26.1,22.8,,,,,,,,,METAR,79.0
KIXD 222353Z 17010KT 10SM CLR 24/12 A2960 RMK AO2 PK WND 16026/2256 SLP013 T02440117 10272 20244 53011 $,KIXD,2022-10-22T23:53:00Z,38.82,-94.88,24.4,11.7,170,10,,10.0,29.601377,1001.3,,,TRUE,TRUE,,,,,,CLR,,,,,,,,VFR,1.1,27.2,24.4,,,,,,,,,METAR,322.0
KIWI 222353Z AUTO 00000KT 10SM CLR 08/07 A3030 RMK AO2 SLP260 T00830067 10172 20083 51013,KIWI,2022-10-22T23:53:00Z,43.97,-69.72,8.3,6.7,0,0,,10.0,30.301182,1026.0,,TRUE,TRUE,,,,,,,CLR,,,,,,,,VFR,1.3,17.2,8.3,,,,,,,,,METAR,16.0
KITR 222353Z AUTO 18010KT 10SM CLR 18/M10 A2947 RMK AO2 SLP952 T01831100 10278 20183 56005 $,KITR,2022-10-22T23:53:00Z,39.23,-102.28,18.3,-10.0,180,10,,10.0,29.471457,995.2,,TRUE,TRUE,TRUE,,,,,,CLR,,,,,,,,VFR,-0.5,27.8,18.3,,,,,,,,,METAR,1285.0
KIPL 222353Z AUTO 27022G32KT 9SM CLR 27/10 A2957 RMK AO2 PK WND 25034/2337 SLP014 T02670100 10306 20267 56013,KIPL,2022-10-22T23:53:00Z,32.83,-115.58,26.7,10.0,270,22,32,9.0,29.568897,1001.4,,TRUE,TRUE,,,,,,,CLR,,,,,,,,VFR,-1.3,30.6,26.7,,,,,,,,,METAR,-16.0
KINK 222353Z AUTO 22006KT 10SM CLR 28/11 A2976 RMK AO2 RAB03E12B34E37 SLP040 P0000 60000 T02780106 10306 20278 56006,KINK,2022-10-22T23:53:00Z,31.78,-103.2,27.8,10.6,220,6,,10.0,29.760826,1004.0,,TRUE,TRUE,,,,,,,CLR,,,,,,,,VFR,-0.6,30.6,27.8,,,0.005,,0.005,,,,METAR,857.0
KIML 222353Z AUTO 15006KT 10SM CLR 21/M07 A2941 RMK AO2 SLP949 T02111072 10294 20206 56006 $,KIML,2022-10-22T23:53:00Z,40.52,-101.62,21.1,-7.2,150,6,,10.0,29.409449,994.9,,TRUE,TRUE,TRUE,,,,,,CLR,,,,,,,,VFR,-0.6,29.4,20.6,,,,,,,,,METAR,997.0
KILM 222353Z 02006KT 10SM CLR 19/13 A3011 RMK AO2 SLP196 T01940128 10261 20189 50004 PWINO,KILM,2022-10-22T23:53:00Z,34.27,-77.9,19.4,12.8,20,6,,10.0,30.109253,1019.6,,,TRUE,,,,,TRUE,,CLR,,,,,,,,VFR,0.4,26.1,18.9,,,,,,,,,METAR,9.0
KICT 222353Z 17008KT 10SM FEW250 23/01 A2948 RMK AO2 SLP974 T02280006 10306 20228 53004,KICT,2022-10-22T23:53:00Z,37.65,-97.43,22.8,0.6,170,8,,10.0,29.480314,997.4,,,TRUE,,,,,,,FEW,25000,,,,,,,VFR,0.4,30.6,22.8,,,,,,,,,METAR,428.0
KICR 222353Z AUTO 07010KT CLR 17/02 A2941 RMK AO2 SLP955 T01670017 10239 20167 55001,KICR,2022-10-22T23:53:00Z,43.38,-99.85,16.7,1.7,70,10,,,29.409449,995.5,,TRUE,TRUE,,,,,,,CLR,,,,,,,,,-0.1,23.9,16.7,,,,,,,,,METAR,618.0
KIAH 222353Z 17010G19KT 140V200 10SM FEW048 BKN250 25/16 A2991 RMK AO2 PK WND 16026/2304 SLP126 T02500161 10294 20250 53002,KIAH,2022-10-22T23:53:00Z,30.0,-95.37,25.0,16.1,170,10,19,10.0,29.911417,1012.6,,,TRUE,,,,,,,FEW,4800,BKN,25000,,,,,VFR,0.2,29.4,25.0,,,,,,,,,METAR,27.0
KIAG 222353Z 18010KT 10SM CLR 17/06 A3010 RMK AO2 SLP197 T01720056 10228 20161 53012,KIAG,2022-10-22T23:53:00Z,43.12,-78.93,17.2,5.6,180,10,,10.0,30.100393,1019.7,,,TRUE,,,,,,,CLR,,,,,,,,VFR,1.2,22.8,16.1,,,,,,,,,METAR,179.0
KHZY 222353Z AUTO 14006KT 10SM CLR 18/08 A3012 RMK AO2 SLP200 T01830078 10233 20178 53017,KHZY,2022-10-22T23:53:00Z,41.78,-80.7,18.3,7.8,140,6,,10.0,30.121063,1020.0,,TRUE,TRUE,,,,,,,CLR,,,,,,,,VFR,1.7,23.3,17.8,,,,,,,,,METAR,279.0
KHYR 222353Z AUTO 00000KT 10SM CLR 16/05 A2961 RMK AO2 SLP034 T01560050 10233 20156 53012,KHYR,2022-10-22T23:53:00Z,46.02,-91.45,15.6,5.0,0,0,,10.0,29.610237,1003.4,,TRUE,TRUE,,,,,,,CLR,,,,,,,,VFR,1.2,23.3,15.6,,,,,,,,,METAR,369.0
KHWO 222353Z 04006KT 10SM CLR 24/16 A3001 RMK AO2 SLP161 T02440161 10289 20244 53009,KHWO,2022-10-22T23:53:00Z,26.0,-80.23,24.4,16.1,40,6,,10.0,30.008858,1016.1,,,TRUE,,,,,,,CLR,,,,,,,,VFR,0.9,28.9,24.4,,,,,,,,,METAR,2.0
KHVN 222353Z 00000KT 9SM CLR 10/07 A3029 RMK AO2 SLP257 T01000072 10194 20100 53008,KHVN,2022-10-22T23:53:00Z,41.27,-72.88,10.0,7.2,0,0,,9.0,30.28937,1025.7,,,TRUE,,,,,,,CLR,,,,,,,,VFR,0.8,19.4,10.0,,,,,,,,,METAR,4.0
KHUL 222353Z AUTO 19006KT 10SM CLR 12/06 A3021 RMK AO2 SLP234 T01220056 10178 20117 51017,KHUL,2022-10-22T23:53:00Z,46.12,-67.8,12.2,5.6,190,6,,10.0,30.209646,1023.4,,TRUE,TRUE,,,,,,,CLR,,,,,,,,VFR,1.7,17.8,11.7,,,,,,,,,METAR,148.0
KHUF 222353Z 19009KT 10SM CLR 21/12 A2995 RMK AO2 SLP139 T02110122 10267 20211 53016,KHUF,2022-10-22T23:53:00Z,39.45,-87.32,21.1,12.2,190,9,,10.0,29.949802,1013.9,,,TRUE,,,,,,,CLR,,,,,,,,VFR,1.6,26.7,21.1,,,,,,,,,METAR,174.0
KHTL 222353Z AUTO 17007KT 10SM CLR 17/08 A2990 RMK AO2 SLP128 T01720083 10222 20172 53014,KHTL,2022-10-22T23:53:00Z,44.35,-84.67,17.2,8.3,170,7,,10.0,29.899607,1012.8,,TRUE,TRUE,,,,,,,CLR,,,,,,,,VFR,1.4,22.2,17.2,,,,,,,,,METAR,350.0
KHSV 222353Z 14006KT 10SM BKN250 17/12 A3007 RMK AO2 SLP182 T01720117 10250 20172 53003,KHSV,2022-10-22T23:53:00Z,34.65,-86.78,17.2,11.7,140,6,,10.0,30.070866,1018.2,,,TRUE,,,,,,,BKN,25000,,,,,,,VFR,0.3,25.0,17.2,,,,,,,,,METAR,190.0
KHRO 222353Z AUTO 16015KT 10SM CLR 22/12 A2977 RMK AO2 SLP070 60000 T02170117 10256 20217 51005,KHRO,2022-10-22T23:53:00Z,36.27,-93.15,21.7,11.7,160,15,,10.0,29.769686,1007.0,,TRUE,TRUE,,,,,,,CLR,,,,,,,,VFR,0.5,25.6,21.7,,,,,0.005,,,,METAR,417.0
KHRI 222353Z AUTO 22006KT 10SM CLR 12/04 A2969 RMK AO2 SLP053 60000 T01170044 10150 20106 53007,KHRI,2022-10-22T23:53:00Z,45.83,-119.27,11.7,4.4,220,6,,10.0,29.68996,1005.3,,TRUE,TRUE,,,,,,,CLR,,,,,,,,VFR,0.7,15.0,10.6,,,,,0.005,,,,METAR,194.0
KHQM 222353Z AUTO 30011KT 10SM CLR 13/06 A2981 RMK AO2 SLP098 T01330056 10144 20122 51010,KHQM,2022-10-22T23:53:00Z,46.97,-123.93,13.3,5.6,300,11,,10.0,29.811024,1009.8,,TRUE,TRUE,,,,,,,CLR,,,,,,,,VFR,1.0,14.4,12.2,,,,,,,,,METAR,4.0
KHOU 222353Z 17014G21KT 10SM FEW050 BKN250 26/16 A2991 RMK AO2 SLP134 T02560156 10300 20256 53002,KHOU,2022-10-22T23:53:00Z,29.63,-95.28,25.6,15.6,170,14,21,10.0,29.911417,1013.4,,,TRUE,,,,,,,FEW,5000,BKN,25000,,,,,VFR,0.2,30.0,25.6,,,,,,,,,METAR,13.0
KHOT 222353Z AUTO 15005KT 10SM CLR 24/14 A2983 RMK AO2 SLP096 T02390139 10267 20239 55000,KHOT,2022-10-22T23:53:00Z,34.48,-93.1,23.9,13.9,150,5,,10.0,29.828741,1009.6,,TRUE,TRUE,,,,,,,CLR,,,,,,,,VFR,0.0,26.7,23.9,,,,,,,,,METAR,153.0
KHLG 222353Z 13006KT 10SM CLR 17/06 A3015 RMK AO2 SLP212 T01720061 10228 20172 53012,KHLG,2022-10-22T23:53:00Z,40.17,-80.65,17.2,6.1,130,6,,10.0,30.15059,1021.2,,,TRUE,,,,,,,CLR,,,,,,,,VFR,1.2,22.8,17.2,,,,,,,,,METAR,365.0
KHLC 222353Z AUTO 12004KT 10SM CLR 22/M02 A2943 RMK AO2 SLP954 T02221022 10306 20222 55001,KHLC,2022-10-22T23:53:00Z,39.37,-99.83,22.2,-2.2,120,4,,10.0,29.430119,995.4,,TRUE,TRUE,,,,,,,CLR,,,,,,,,VFR,-0.1,30.6,22.2,,,,,,,,,METAR,667.0
KHKY 222353Z 00000KT 10SM CLR 13/05 A3017 RMK AO2 SLP207 T01330050 10222 20133 55001,KHKY,2022-10-22T23:53:00Z,35.75,-81.38,13.3,5.0,0,0,,10.0,30.171259,1020.7,,,TRUE,,,,,,,CLR,,,,,,,,VFR,-0.1,22.2,13.3,,,,,,,,,METAR,357.0
KHKS 222353Z 16007KT 10SM CLR 22/12 A3000 RMK AO2 SLP151 T02220117 10278 20222 56003,KHKS,2022-10-22T23:53:00Z,32.33,-90.22,22.2,11.7,160,7,,10.0,30.0,1015.1,,,TRUE,,,,,,,CLR,,,,,,,,VFR,-0.3,27.8,22.2,,,,,,,,,METAR,103.0
KHKA 222353Z AUTO 15006KT 10SM CLR 21/12 A2991 RMK AO2 SLP127 T02110117 10250 20211 52004 $,KHKA,2022-10-22T23:53:00Z,35.93,-89.83,21.1,11.7,150,6,,10.0,29.911417,1012.7,,TRUE,TRUE,TRUE,,,,,,CLR,,,,,,,,VFR,0.4,25.0,21.1,,,,,,,,,METAR,78.0
KHJO 222353Z AUTO 33009KT 10SM FEW055 24/09 A2967 RMK AO2 SLP048 T02390089 10250 20211 56014,KHJO,2022-10-22T23:53:00Z,36.32,-119.62,23.9,8.9,330,9,,10.0,29.66929,1004.8,,TRUE,TRUE,,,,,,,FEW,5500,,,,,,,VFR,-1.4,25.0,21.1,,,,,,,,,METAR,73.0
KHIO 222353Z 30008KT 10SM BKN060 13/04 A2981 RMK AO2 SLP095 T01280044 10156 20106 53009,KHIO,2022-10-22T23:53:00Z,45.55,-122.95,12.8,4.4,300,8,,10.0,29.811024,1009.5,,,TRUE,,,,,,,BKN,6000,,,,,,,VFR,0.9,15.6,10.6,,,,,,,,,METAR,62.0
KHIB 222353Z AUTO 11007KT 10SM CLR 12/04 A2960 RMK AO2 SLP033 T01220039 10167 20122 53011,KHIB,2022-10-22T23:53:00Z,47.38,-92.83,12.2,3.9,110,7,,10.0,29.601377,1003.3,,TRUE,TRUE,,,,,,,CLR,,,,,,,,VFR,1.1,16.7,12.2,,,,,,,,,METAR,409.0
KHGR 222353Z 00000KT 10SM CLR 15/02 A3023 RMK AO2 SLP247 T01500022 10206 20144 53008 $,KHGR,2022-10-22T23:53:00Z,39.7,-77.73,15.0,2.2,0,0,,10.0,30.230314,1024.7,,,TRUE,TRUE,,,,,,CLR,,,,,,,,VFR,0.8,20.6,14.4,,,,,,,,,METAR,206.0
KHFD 222353Z 00000KT 10SM CLR 11/07 A3029 RMK AO2 SLP255 T01060067 10206 20106 53013,KHFD,2022-10-22T23:53:00Z,41.73,-72.65,10.6,6.7,0,0,,10.0,30.28937,1025.5,,,TRUE,,,,,,,CLR,,,,,,,,VFR,1.3,20.6,10.6,,,,,,,,,METAR,3.0
KHEI 222353Z AUTO 09010KT 10SM BKN120 09/03 A2945 RMK AO2 SLP979 T00940033 10122 20094 53007 $,KHEI,2022-10-22T23:53:00Z,46.02,-102.65,9.4,3.3,90,10,,10.0,29.450787,997.9,,TRUE,TRUE,TRUE,,,,,,BKN,12000,,,,,,,VFR,0.7,12.2,9.4,,,,,,,,,METAR,824.0
KHBR 222353Z AUTO 22020KT 9SM CLR 28/08 A2958 RMK AO2 PK WND 24026/2259 SLP001 T02830078 10339 20267 53013,KHBR,2022-10-22T23:53:00Z,34.98,-99.05,28.3,7.8,220,20,,9.0,29.58071,1000.1,,TRUE,TRUE,,,,,,,CLR,,,,,,,,VFR,1.3,33.9,26.7,,,,,,,,,METAR,475.0
KHBG 222353Z AUTO 18007KT 10SM CLR 21/12 A3006 RMK AO2 SLP179 T02110122 10278 20211 53005,KHBG,2022-10-22T23:53:00Z,31.27,-89.25,21.1,12.2,180,7,,10.0,30.059055,1017.9,,TRUE,TRUE,,,,,,,CLR,,,,,,,,VFR,0.5,27.8,21.1,,,,,,,,,METAR,45.0
KHAO 222353Z AUTO 00000KT 10SM CLR 16/09 A3005 RMK AO2 SLP177 T01560089 10267 20156 53014,KHAO,2022-10-22T23:53:00Z,39.37,-84.52,15.6,8.9,0,0,,10.0,30.050198,1017.7,,TRUE,TRUE,,,,,,,CLR,,,,,,,,VFR,1.4,26.7,15.6,,,,,,,,,METAR,185.0
KGZH 222353Z AUTO 00000KT 10SM CLR 15/11 A3008 RMK AO2 SLP186 60000 T01500106 10256 20150 55001,KGZH,2022-10-22T23:53:00Z,31.42,-87.05,15.0,10.6,0,0,,10.0,30.079725,1018.6,,TRUE,TRUE,,,,,,,CLR,,,,,,,,VFR,-0.1,25.6,15.0,,,,,0.005,,,,METAR,77.0
KGWO 222353Z AUTO 16007KT 10SM CLR 23/11 A2997 RMK AO2 SLP146 T02280111 10289 20228 53000,KGWO,2022-10-22T23:53:00Z,33.5,-90.08,22.8,11.1,160,7,,10.0,29.970472,1014.6,,TRUE,TRUE,,,,,,,CLR,,,,,,,,VFR,0.0,28.9,22.8,,,,,,,,,METAR,42.0
KGVL 222353Z AUTO 00000KT 10SM CLR 16/03 A3016 RMK AO2 SLP210 T01560033 10233 20156 55001,KGVL,2022-10-22T23:53:00Z,34.27,-83.83,15.6,3.3,0,0,,10.0,30.159449,1021.0,,TRUE,TRUE,,,,,,,CLR,,,,,,,,VFR,-0.1,23.3,15.6,,,,,,,,,METAR,387.0
KGUY 222353Z AUTO 22022G30KT 10SM CLR 27/00 A2948 RMK AO2 PK WND 22035/2313 SLP941 T02720000 10317 20272 55001,KGUY,2022-10-22T23:53:00Z,36.68,-101.5,27.2,0.0,220,22,30,10.0,29.480314,994.1,,TRUE,TRUE,,,,,,,CLR,,,,,,,,VFR,-0.1,31.7,27.2,,,,,,,,,METAR,950.0
KGUP 222353Z AUTO 22022G36KT 10SM -RA FEW070 18/03 A2979 RMK AO2 PK WND 23040/2306 SLP000 P0000 60000 T01780033 10206 20172 56009,KGUP,2022-10-22T23:53:00Z,35.52,-108.8,17.8,3.3,220,22,36,10.0,29.790354,1000.0,,TRUE,TRUE,,,,,,-RA,FEW,7000,,,,,,,VFR,-0.9,20.6,17.2,,,0.005,,0.005,,,,METAR,1972.0
KGSP 222353Z 00000KT 10SM CLR 12/04 A3016 RMK AO2 SLP213 T01220039 10222 20122 58002,KGSP,2022-10-22T23:53:00Z,34.9,-82.22,12.2,3.9,0,0,,10.0,30.159449,1021.3,,,TRUE,,,,,,,CLR,,,,,,,,VFR,-0.2,22.2,12.2,,,,,,,,,METAR,285.0
KGSH 222353Z AUTO 16008KT 10SM CLR 19/11 A2994 RMK AO2 SLP136 T01940106 10250 20189 53015,KGSH,2022-10-22T23:53:00Z,41.53,-85.78,19.4,10.6,160,8,,10.0,29.940945,1013.6,,TRUE,TRUE,,,,,,,CLR,,,,,,,,VFR,1.5,25.0,18.9,,,,,,,,,METAR,252.0
KGRR 222353Z 15007KT 10SM CLR 17/08 A2991 RMK AO2 SLP127 T01670083 10239 20167 53015 $,KGRR,2022-10-22T23:53:00Z,42.88,-85.52,16.7,8.3,150,7,,10.0,29.911417,1012.7,,,TRUE,TRUE,,,,,,CLR,,,,,,,,VFR,1.5,23.9,16.7,,,,,,,,,METAR,239.0
KGRI 222353Z 14009KT 10SM CLR 23/03 A2947 RMK AO2 SLP980 T02280033 10300 20228 53008 $,KGRI,2022-10-22T23:53:00Z,40.97,-98.32,22.8,3.3,140,9,,10.0,29.471457,998.0,,,TRUE,TRUE,,,,,,CLR,,,,,,,,VFR,0.8,30.0,22.8,,,,,,,,,METAR,562.0
KGRB 222353Z AUTO 14005KT 10SM CLR 17/10 A2975 RMK AO2 SLP076 T01670100 10261 20161 53016 $,KGRB,2022-10-22T23:53:00Z,44.48,-88.13,16.7,10.0,140,5,,10.0,29.749016,1007.6,,TRUE,TRUE,TRUE,,,,,,CLR,,,,,,,,VFR,1.6,26.1,16.1,,,,,,,,,METAR,209.0
KGPT 222353Z 11003KT 10SM CLR 20/16 A3006 RMK AO2 SLP180 T02000161 10250 20194 55002,KGPT,2022-10-22T23:53:00Z,30.42,-89.08,20.0,16.1,110,3,,10.0,30.059055,1018.0,,,TRUE,,,,,,,CLR,,,,,,,,VFR,-0.2,25.0,19.4,,,,,,,,,METAR,5.0
KGOK 222353Z AUTO 19013KT 10SM CLR 30/03 A2953 RMK AO2 SLP989 T03000033 10322 20272 53002 $,KGOK,2022-10-22T23:53:00Z,35.85,-97.4,30.0,3.3,190,13,,10.0,29.530512,998.9,,TRUE,TRUE,TRUE,,,,,,CLR,,,,,,,,VFR,0.2,32.2,27.2,,,,,,,,,METAR,326.0
KGNV 222353Z 02003KT 10SM CLR 18/11 A3011 RMK AO2 SLP195 T01780106 10250 20167 53005,KGNV,2022-10-22T23:53:00Z,29.7,-82.28,17.8,10.6,20,3,,10.0,30.109253,1019.5,,,TRUE,,,,,,,CLR,,,,,,,,VFR,0.5,25.0,16.7,,,,,,,,,METAR,41.0
KGMU 222353Z 00000KT 10SM CLR 17/02 A3016 RMK AO2 SLP212 T01670022 10233 20167 58003,KGMU,2022-10-22T23:53:00Z,34.85,-82.35,16.7,2.2,0,0,,10.0,30.159449,1021.2,,,TRUE,,,,,,,CLR,,,,,,,,VFR,-0.3,23.3,16.7,,,,,,,,,METAR,309.0
KGLR 222353Z AUTO 19006KT 10SM CLR 17/07 A2988 RMK AO2 SLP118 T01720072 10228 20172 53018,KGLR,2022-10-22T23:53:00Z,45.02,-84.68,17.2,7.2,190,6,,10.0,29.878937,1011.8,,TRUE,TRUE,,,,,,,CLR,,,,,,,,VFR,1.8,22.8,17.2,,,,,,,,,METAR,403.0
KGLH 222353Z AUTO 16011KT 10SM CLR 25/12 A2993 RMK AO2 SLP139 T02500117 10294 20250 53001,KGLH,2022-10-22T23:53:00Z,33.47,-90.98,25.0,11.7,160,11,,10.0,29.929134,1013.9,,TRUE,TRUE,,,,,,,CLR,,,,,,,,VFR,0.1,29.4,25.0,,,,,,,,,METAR,40.0
KGLD 222353Z AUTO 20006KT 10SM CLR 22/M10 A2944 RMK AO2 SLP943 T02221100 10283 20222 58004,KGLD,2022-10-22T23:53:00Z,39.37,-101.7,22.2,-10.0,200,6,,10.0,29.438976,994.3,,TRUE,TRUE,,,,,,,CLR,,,,,,,,VFR,-0.4,28.3,22.2,,,,,,,,,METAR,1111.0
KGKY 222353Z 16012G25KT 10SM CLR 28/13 A2974 RMK AO2 PK WND 17034/2315 SLP061 T02780133 10306 20278 53001,KGKY,2022-10-22T23:53:00Z,32.67,-97.1,27.8,13.3,160,12,25,10.0,29.740158,1006.1,,,TRUE,,,,,,,CLR,,,,,,,,VFR,0.1,30.6,27.8,,,,,,,,,METAR,189.0
KGKJ 222353Z AUTO VRB04KT 10SM CLR 17/07 A3015 RMK AO2 SLP210 T01670067 10211 20167 53015,KGKJ,2022-10-22T23:53:00Z,41.63,-80.22,16.7,6.7,0,4,,10.0,30.15059,1021.0,,TRUE,TRUE,,,,,,,CLR,,,,,,,,VFR,1.5,21.1,16.7,,,,,,,,,METAR,428.0
KGJT 222353Z 18007G17KT 10SM BKN110 20/00 A2950 RMK AO2 PK WND 19027/2257 SLP939 T02000000 10228 20200 56013,KGJT,2022-10-22T23:53:00Z,39.13,-108.53,20.0,0.0,180,7,17,10.0,29.500984,993.9,,,TRUE,,,,,,,BKN,11000,,,,,,,VFR,-1.3,22.8,20.0,,,,,,,,,METAR,1475.0
KGIF 222353Z AUTO 05009KT 10SM CLR A3004 RMK AO2 SLPNO 53003 $,KGIF,2022-10-22T23:53:00Z,28.07,-81.75,,,50,9,,10.0,30.041338,,,TRUE,TRUE,TRUE,,,,,,CLR,,,,,,,,VFR,0.3,,,,,,,,,,,METAR,44.0
KGGG 222353Z 17013G20KT 10SM CLR 26/13 A2982 RMK AO2 SLP092 T02610133 10300 20261 56002,KGGG,2022-10-22T23:53:00Z,32.38,-94.72,26.1,13.3,170,13,20,10.0,29.819881,1009.2,,,TRUE,,,,,,,CLR,,,,,,,,VFR,-0.2,30.0,26.1,,,,,,,,,METAR,107.0
KGFL 222353Z AUTO 00000KT 10SM CLR 07/03 A3024 RMK AO2 SLP246 T00670033 10194 20050 53015,KGFL,2022-10-22T23:53:00Z,43.33,-73.62,6.7,3.3,0,0,,10.0,30.239174,1024.6,,TRUE,TRUE,,,,,,,CLR,,,,,,,,VFR,1.5,19.4,5.0,,,,,,,,,METAR,99.0
KGFK 222353Z 05010KT 8SM BKN140 OVC170 14/04 A2952 RMK AO2 SLP999 T01390039 10156 20133 53010 $,KGFK,2022-10-22T23:53:00Z,47.95,-97.18,13.9,3.9,50,10,,8.0,29.518702,999.9,,,TRUE,TRUE,,,,,,BKN,14000,OVC,17000,,,,,VFR,1.0,15.6,13.3,,,,,,,,,METAR,256.0
KGEZ 222353Z AUTO 16009KT 10SM FEW060 22/11 A2999 RMK AO2 SLP151 T02220111 10261 20222 53013,KGEZ,2022-10-22T23:53:00Z,39.58,-85.8,22.2,11.1,160,9,,10.0,29.991142,1015.1,,TRUE,TRUE,,,,,,,FEW,6000,,,,,,,VFR,1.3,26.1,22.2,,,,,,,,,METAR,245.0
KGEY 222353Z AUTO 33017G25KT 10SM OVC100 13/04 A2927 RMK AO2 PK WND 33026/2325 SLP900 T01280039 10167 20106 53008,KGEY,2022-10-22T23:53:00Z,44.52,-108.08,12.8,3.9,330,17,25,10.0,29.27067,990.0,,TRUE,TRUE,,,,,,,OVC,10000,,,,,,,VFR,0.8,16.7,10.6,,,,,,,,,METAR,1191.0
KGEG 222353Z 32005KT 10SM FEW045 BKN080 08/M02 A2961 RMK AO2 SLP035 T00831017 10089 20044 53016,KGEG,2022-10-22T23:53:00Z,47.62,-117.53,8.3,-1.7,320,5,,10.0,29.610237,1003.5,,,TRUE,,,,,,,FEW,4500,BKN,8000,,,,,VFR,1.6,8.9,4.4,,,,,,,,,METAR,718.0
KGCC 222353Z AUTO 21019G30KT 10SM CLR 18/M01 A2932 RMK AO2 PK WND 23041/2254 SLP908 T01831011 10211 20100 53006,KGCC,2022-10-22T23:53:00Z,44.33,-105.55,18.3,-1.1,210,19,30,10.0,29.320866,990.8,,TRUE,TRUE,,,,,,,CLR,,,,,,,,VFR,0.6,21.1,10.0,,,,,,,,,METAR,1328.0
KGAG 222353Z AUTO 21010KT 10SM CLR 25/01 A2951 RMK AO2 SLP974 T02500011 10328 20250 53003,KGAG,2022-10-22T23:53:00Z,36.3,-99.77,25.0,1.1,210,10,,10.0,29.509842,997.4,,TRUE,TRUE,,,,,,,CLR,,,,,,,,VFR,0.3,32.8,25.0,,,,,,,,,METAR,670.0
KFYV 222353Z 17017G25KT 10SM CLR 23/12 A2974 RMK AO2 PK WND 17033/2259 SLP059 T02330122 10278 20233 53009,KFYV,2022-10-22T23:53:00Z,36.02,-94.17,23.3,12.2,170,17,25,10.0,29.740158,1005.9,,,TRUE,,,,,,,CLR,,,,,,,,VFR,0.9,27.8,23.3,,,,,,,,,METAR,377.0
KFXE 222353Z AUTO 01003KT 10SM CLR 26/17 A2999 RMK AO2 SLP158 T02560172 10294 20256 53008 TSNO $,KFXE,2022-10-22T23:53:00Z,26.2,-80.18,25.6,17.2,10,3,,10.0,29.991142,1015.8,,TRUE,TRUE,TRUE,,TRUE,,,,CLR,,,,,,,,VFR,0.8,29.4,25.6,,,,,,,,,METAR,3.0
KFVE 222353Z AUTO 17008KT 10SM CLR 13/03 A3014 RMK AO2 SLP211 T01280033 10178 20128 51014,KFVE,2022-10-22T23:53:00Z,47.28,-68.3,12.8,3.3,170,8,,10.0,30.138779,1021.1,,TRUE,TRUE,,,,,,,CLR,,,,,,,,VFR,1.4,17.8,12.8,,,,,,,,,METAR,299.0
KFUL 222353Z COR 19008KT 10SM BKN024 BKN039 19/13 A2975 RMK AO2 SLP072 T01940133 10222 20194 56008,KFUL,2022-10-22T23:53:00Z,33.87,-117.98,19.4,13.3,190,8,,10.0,29.749016,1007.2,TRUE,,TRUE,,,,,,,BKN,2400,BKN,3900,,,,,MVFR,-0.8,22.2,19.4,,,,,,,,,METAR,23.0
KFTY 222353Z 00000KT 10SM CLR 14/07 A3013 RMK AO2 SLP203 T01390067 10239 20139 55000,KFTY,2022-10-22T23:53:00Z,33.78,-84.52,13.9,6.7,0,0,,10.0,30.129921,1020.3,,,TRUE,,,,,,,CLR,,,,,,,,VFR,0.0,23.9,13.9,,,,,,,,,METAR,245.0
KFTW 222353Z 17015G25KT 10SM CLR 27/14 A2972 RMK AO2 PK WND 15031/2319 SLP056 T02720144 10311 20272 53002 $,KFTW,2022-10-22T23:53:00Z,32.83,-97.37,27.2,14.4,170,15,25,10.0,29.719488,1005.6,,,TRUE,TRUE,,,,,,CLR,,,,,,,,VFR,0.2,31.1,27.2,,,,,,,,,METAR,213.0
KFST 222353Z AUTO 17008KT 10SM CLR 28/11 A2979 RMK AO2 SLP044 T02780111 10306 20278 56009 $,KFST,2022-10-22T23:53:00Z,30.92,-102.92,27.8,11.1,170,8,,10.0,29.790354,1004.4,,TRUE,TRUE,TRUE,,,,,,CLR,,,,,,,,VFR,-0.9,30.6,27.8,,,,,,,,,METAR,917.0
KFSM 222353Z AUTO 16007G17KT 10SM CLR 26/13 A2973 RMK AO2 SLP063 T02560133 10289 20256 51016,KFSM,2022-10-22T23:53:00Z,35.33,-94.37,25.6,13.3,160,7,17,10.0,29.731298,1006.3,,TRUE,TRUE,,,,,,,CLR,,,,,,,,VFR,1.6,28.9,25.6,,,,,,,,,METAR,136.0
KFRG 222353Z AUTO 01003KT 10SM CLR 12/08 A3028 RMK AO2 SLP255 T01170078 10178 20111 51008 $,KFRG,2022-10-22T23:53:00Z,40.73,-73.42,11.7,7.8,10,3,,10.0,30.280512,1025.5,,TRUE,TRUE,TRUE,,,,,,CLR,,,,,,,,VFR,0.8,17.8,11.1,,,,,,,,,METAR,23.0
KFPR 222353Z 02003KT 10SM CLR 23/18 A3001 RMK AO2 SLP162 T02280178 10283 20228 51002,KFPR,2022-10-22T23:53:00Z,27.5,-80.38,22.8,17.8,20,3,,10.0,30.008858,1016.2,,,TRUE,,,,,,,CLR,,,,,,,,VFR,0.2,28.3,22.8,,,,,,,,,METAR,7.0
KFOE 222353Z 16011G18KT 10SM CLR 24/13 A2955 RMK AO2 SLP997 T02440133 10283 20244 $,KFOE,2022-10-22T23:53:00Z,38.93,-95.65,24.4,13.3,160,11,18,10.0,29.551182,999.7,,,TRUE,TRUE,,,,,,CLR,,,,,,,,VFR,,28.3,24.4,,,,,,,,,METAR,315.0
KFNT 222353Z 17005KT 10SM CLR 17/08 A2997 RMK AO2 SLP147 T01670078 10244 20161 53014,KFNT,2022-10-22T23:53:00Z,42.97,-83.75,16.7,7.8,170,5,,10.0,29.970472,1014.7,,,TRUE,,,,,,,CLR,,,,,,,,VFR,1.4,24.4,16.1,,,,,,,,,METAR,235.0
KFNB 222353Z AUTO 14007KT 10SM CLR 21/11 A2954 RMK AO2 SLP997 T02110106 10278 20211 53012,KFNB,2022-10-22T23:53:00Z,40.07,-95.58,21.1,10.6,140,7,,10.0,29.53937,999.7,,TRUE,TRUE,,,,,,,CLR,,,,,,,,VFR,1.2,27.8,21.1,,,,,,,,,METAR,301.0
KFMY 222353Z AUTO 28004KT 10SM CLR 23/17 A2999 RMK AO2 SLP159 T02280172 10289 20228 53003,KFMY,2022-10-22T23:53:00Z,26.58,-81.87,22.8,17.2,280,4,,10.0,29.991142,1015.9,,TRUE,TRUE,,,,,,,CLR,,,,,,,,VFR,0.3,28.9,22.8,,,,,,,,,METAR,4.0
KFMN 222353Z 23015G26KT 10SM CLR 22/M01 A2965 RMK AO2 PK WND 24026/2312 WSHFT 2255 SLP002 T02171011 10233 20178 56024,KFMN,2022-10-22T23:53:00Z,36.75,-108.23,21.7,-1.1,230,15,26,10.0,29.648623,1000.2,,,TRUE,,,,,,,CLR,,,,,,,,VFR,-2.4,23.3,17.8,,,,,,,,,METAR,1677.0
KFLO 222353Z 35005KT 10SM CLR 15/11 A3014 RMK AO2 SLP203 T01500106 10244 20150 53004,KFLO,2022-10-22T23:53:00Z,34.18,-79.73,15.0,10.6,350,5,,10.0,30.138779,1020.3,,,TRUE,,,,,,,CLR,,,,,,,,VFR,0.4,24.4,15.0,,,,,,,,,METAR,43.0
KFLL 222353Z 03005KT 10SM FEW035 25/17 A2998 RMK AO2 SLP153 T02500167 10289 20250 53007 $,KFLL,2022-10-22T23:53:00Z,26.07,-80.15,25.0,16.7,30,5,,10.0,29.97933,1015.3,,,TRUE,TRUE,,,,,,FEW,3500,,,,,,,VFR,0.7,28.9,25.0,,,,,,,,,METAR,1.0
KFLD 222353Z AUTO 17009KT 10SM CLR 20/09 A2973 RMK AO2 SLP068 T02000089 10256 20194 53012,KFLD,2022-10-22T23:53:00Z,43.77,-88.48,20.0,8.9,170,9,,10.0,29.731298,1006.8,,TRUE,TRUE,,,,,,,CLR,,,,,,,,VFR,1.2,25.6,19.4,,,,,,,,,METAR,242.0
KFHR 222353Z AUTO 01005KT 10SM CLR 11/04 A2980 RMK AO2 SLP090 T01110044 10133 20100 53010,KFHR,2022-10-22T23:53:00Z,48.52,-123.03,11.1,4.4,10,5,,10.0,29.799213,1009.0,,TRUE,TRUE,,,,,,,CLR,,,,,,,,VFR,1.0,13.3,10.0,,,,,,,,,METAR,34.0
KFFT 222353Z AUTO 14004KT 10SM SCT060 20/09 A3006 RMK AO2 SLP177 T02000094 10261 20200 53009,KFFT,2022-10-22T23:53:00Z,38.18,-84.9,20.0,9.4,140,4,,10.0,30.059055,1017.7,,TRUE,TRUE,,,,,,,SCT,6000,,,,,,,VFR,0.9,26.1,20.0,,,,,,,,,METAR,235.0
KFFC 222353Z AUTO 00000KT 10SM CLR 12/07 A3014 RMK AO2 SLP208 T01220067 10244 20122 53000,KFFC,2022-10-22T23:53:00Z,33.35,-84.57,12.2,6.7,0,0,,10.0,30.138779,1020.8,,TRUE,TRUE,,,,,,,CLR,,,,,,,,VFR,0.0,24.4,12.2,,,,,,,,,METAR,242.0
KFDY 222353Z AUTO 17009KT 10SM CLR 18/09 A3001 RMK AO2 SLP158 T01780089 10261 20172 53014,KFDY,2022-10-22T23:53:00Z,41.02,-83.67,17.8,8.9,170,9,,10.0,30.008858,1015.8,,TRUE,TRUE,,,,,,,CLR,,,,,,,,VFR,1.4,26.1,17.2,,,,,,,,,METAR,247.0
KFDR 222353Z AUTO 20013KT 10SM CLR 29/08 A2957 RMK AO2 SLP994 T02940083 10356 20294 51005,KFDR,2022-10-22T23:53:00Z,34.35,-98.98,29.4,8.3,200,13,,10.0,29.568897,999.4,,TRUE,TRUE,,,,,,,CLR,,,,,,,,VFR,0.5,35.6,29.4,,,,,,,,,METAR,378.0
KFCM 222353Z 14008KT 10SM CLR 21/06 A2952 RMK AO2 SLP996 T02110056 10261 20200 53013 $,KFCM,2022-10-22T23:53:00Z,44.83,-93.47,21.1,5.6,140,8,,10.0,29.518702,999.6,,,TRUE,TRUE,,,,,,CLR,,,,,,,,VFR,1.3,26.1,20.0,,,,,,,,,METAR,276.0
KFAY 222353Z 36005KT 10SM CLR 17/11 A3014 RMK AO2 SLP202 T01720111 10244 20172 53004 $,KFAY,2022-10-22T23:53:00Z,34.98,-78.88,17.2,11.1,360,5,,10.0,30.138779,1020.2,,,TRUE,TRUE,,,,,,CLR,,,,,,,,VFR,0.4,24.4,17.2,,,,,,,,,METAR,57.0
KFAT 222353Z 32012KT 10SM BKN060 BKN250 23/10 A2968 RMK AO2 SLP047 CU OMTNS DSNT N-E-S MTNS OBSC HZ DSNT E-S T02280100 10244 20194 55015,KFAT,2022-10-22T23:53:00Z,36.78,-119.72,22.8,10.0,320,12,,10.0,29.681103,1004.7,,,TRUE,,,,,,,BKN,6000,BKN,25000,,,,,VFR,-1.5,24.4,19.4,,,,,,,,,METAR,102.0
KFAR 222353Z AUTO 07010KT 10SM CLR 14/03 A2944 RMK AO2 SLP973 T01440028 10189 20144 53009 TSNO,KFAR,2022-10-22T23:53:00Z,46.9,-96.82,14.4,2.8,70,10,,10.0,29.438976,997.3,,TRUE,TRUE,,,TRUE,,,,CLR,,,,,,,,VFR,0.9,18.9,14.4,,,,,,,,,METAR,276.0
KEYW 222353Z 02006KT 10SM CLR 24/20 A2999 RMK AO2 SLP155 T02440200 10278 20244 53007,KEYW,2022-10-22T23:53:00Z,24.55,-81.75,24.4,20.0,20,6,,10.0,29.991142,1015.5,,,TRUE,,,,,,,CLR,,,,,,,,VFR,0.7,27.8,24.4,,,,,,,,,METAR,1.0
KEYE 222353Z AUTO 16005KT 10SM CLR 22/12 A2996 RMK AO2 SLP144 T02170117 10256 20211 53011,KEYE,2022-10-22T23:53:00Z,39.83,-86.3,21.7,11.7,160,5,,10.0,29.958662,1014.4,,TRUE,TRUE,,,,,,,CLR,,,,,,,,VFR,1.1,25.6,21.1,,,,,,,,,METAR,248.0
KEWB 222353Z 00000KT 10SM CLR 08/08 A3030 RMK AO2 SLP259 T00830078 10194 20078 53008,KEWB,2022-10-22T23:53:00Z,41.68,-70.95,8.3,7.8,0,0,,10.0,30.301182,1025.9,,,TRUE,,,,,,,CLR,,,,,,,,VFR,0.8,19.4,7.8,,,,,,,,,METAR,22.0
KESF 222353Z AUTO 18008KT 10SM CLR 24/15 A2994 RMK AO2 SLP139 T02390150 10294 20239 55000,KESF,2022-10-22T23:53:00Z,31.4,-92.28,23.9,15.0,180,8,,10.0,29.940945,1013.9,,TRUE,TRUE,,,,,,,CLR,,,,,,,,VFR,0.0,29.4,23.9,,,,,,,,,METAR,27.0
KEQY 222353Z AUTO 00000KT 10SM CLR 13/04 A3016 RMK AO2 SLP227 T01280039 10228 20128 53002,KEQY,2022-10-22T23:53:00Z,35.02,-80.62,12.8,3.9,0,0,,10.0,30.159449,1022.7,,TRUE,TRUE,,,,,,,CLR,,,,,,,,VFR,0.2,22.8,12.8,,,,,,,,,METAR,205.0
KEPH 222353Z AUTO 18007KT 10SM BKN090 14/M01 A2962 RMK AO2 SLP033 T01391011 10150 20106 53008,KEPH,2022-10-22T23:53:00Z,47.3,-119.52,13.9,-1.1,180,7,,10.0,29.619095,1003.3,,TRUE,TRUE,,,,,,,BKN,9000,,,,,,,VFR,0.8,15.0,10.6,,,,,,,,,METAR,382.0
KENW 222353Z 18008KT 10SM CLR 22/11 A2980 RMK AO2 SLP090 T02170111 10261 20211 53014,KENW,2022-10-22T23:53:00Z,42.6,-87.93,21.7,11.1,180,8,,10.0,29.799213,1009.0,,,TRUE,,,,,,,CLR,,,,,,,,VFR,1.4,26.1,21.1,,,,,,,,,METAR,222.0
KEMP 222353Z AUTO 15008KT 10SM CLR 24/09 A2954 RMK AO2 SLP994 T02440094 10289 20244 53008,KEMP,2022-10-22T23:53:00Z,38.33,-96.2,24.4,9.4,150,8,,10.0,29.53937,999.4,,TRUE,TRUE,,,,,,,CLR,,,,,,,,VFR,0.8,28.9,24.4,,,,,,,,,METAR,366.0
KELN 222353Z AUTO 31018G27KT 10SM SCT100 10/00 A2967 RMK AO2 PK WND 32031/2325 SLP051 T01000000 10133 20100 53015 $,KELN,2022-10-22T23:53:00Z,47.03,-120.53,10.0,0.0,310,18,27,10.0,29.66929,1005.1,,TRUE,TRUE,TRUE,,,,,,SCT,10000,,,,,,,VFR,1.5,13.3,10.0,,,,,,,,,METAR,532.0
KELM 222353Z 00000KT 10SM CLR 11/03 A3020 RMK AO2 SLP234 T01060028 10217 20106 51020,KELM,2022-10-22T23:53:00Z,42.15,-76.9,10.6,2.8,0,0,,10.0,30.200787,1023.4,,,TRUE,,,,,,,CLR,,,,,,,,VFR,2.0,21.7,10.6,,,,,,,,,METAR,287.0
KELD 222353Z AUTO 16009KT 10SM CLR 24/14 A2986 RMK AO2 SLP109 T02390139 10272 20239 56005,KELD,2022-10-22T23:53:00Z,33.22,-92.82,23.9,13.9,160,9,,10.0,29.861221,1010.9,,TRUE,TRUE,,,,,,,CLR,,,,,,,,VFR,-0.5,27.2,23.9,,,,,,,,,METAR,76.0
KEET 222353Z AUTO 14004KT 10SM CLR 19/11 A3009 RMK AO2 SLP187 T01940106 10250 20194 53002,KEET,2022-10-22T23:53:00Z,33.18,-86.78,19.4,10.6,140,4,,10.0,30.088583,1018.7,,TRUE,TRUE,,,,,,,CLR,,,,,,,,VFR,0.2,25.0,19.4,,,,,,,,,METAR,172.0
KEEO 222353Z AUTO 19020G29KT 10SM BKN085 14/M01 A2956 RMK AO2 PK WND 19029/2353 SLP942 60000 T01441006 10178 20144 56005,KEEO,2022-10-22T23:53:00Z,40.05,-107.88,14.4,-0.6,190,20,29,10.0,29.56004,994.2,,TRUE,TRUE,,,,,,,BKN,8500,,,,,,,VFR,-0.5,17.8,14.4,,,,,0.005,,,,METAR,1957.0
KECP 222353Z 00000KT 10SM CLR 17/09 A3008 RMK AO1 SLP196 T01670089 10267 20167 53002,KECP,2022-10-22T23:53:00Z,30.35,-85.8,16.7,8.9,0,0,,10.0,30.079725,1019.6,,,TRUE,,,,,,,CLR,,,,,,,,VFR,0.2,26.7,16.7,,,,,,,,,METAR,17.0
KDXR 222353Z 00000KT 10SM CLR 11/05 A3030 RMK AO2 SLP261 T01060050 10206 20106 53013,KDXR,2022-10-22T23:53:00Z,41.37,-73.48,10.6,5.0,0,0,,10.0,30.301182,1026.1,,,TRUE,,,,,,,CLR,,,,,,,,VFR,1.3,20.6,10.6,,,,,,,,,METAR,138.0
KDWH 222353Z AUTO 17007G20KT 140V210 10SM SCT050 26/16 A2990 RMK AO2 SLP121 T02610161 10306 20261 53001,KDWH,2022-10-22T23:53:00Z,30.07,-95.55,26.1,16.1,170,7,20,10.0,29.899607,1012.1,,TRUE,TRUE,,,,,,,SCT,5000,,,,,,,VFR,0.1,30.6,26.1,,,,,,,,,METAR,46.0
KDVT 222353Z 25012KT 10SM CLR 28/13 A2961 RMK AO2 SLP006 T02780133 10294 20261 56016,KDVT,2022-10-22T23:53:00Z,33.68,-112.07,27.8,13.3,250,12,,10.0,29.610237,1000.6,,,TRUE,,,,,,,CLR,,,,,,,,VFR,-1.6,29.4,26.1,,,,,,,,,METAR,454.0
KDUJ 222353Z AUTO 13006KT 10SM CLR 16/02 A3020 RMK AO2 SLP227 T01560017 10206 20156 53015,KDUJ,2022-10-22T23:53:00Z,41.17,-78.9,15.6,1.7,130,6,,10.0,30.200787,1022.7,,TRUE,TRUE,,,,,,,CLR,,,,,,,,VFR,1.5,20.6,15.6,,,,,,,,,METAR,552.0
KDTW 222353Z 16008KT 10SM FEW250 19/08 A3000 RMK AO2 SLP160 T01890083 10233 20189 53014,KDTW,2022-10-22T23:53:00Z,42.23,-83.33,18.9,8.3,160,8,,10.0,30.0,1016.0,,,TRUE,,,,,,,FEW,25000,,,,,,,VFR,1.4,23.3,18.9,,,,,,,,,METAR,192.0
KDTS 222353Z 00000KT 10SM CLR 18/09 A3008 RMK AO2 SLP186 T01830094 10267 20183 55000,KDTS,2022-10-22T23:53:00Z,30.4,-86.47,18.3,9.4,0,0,,10.0,30.079725,1018.6,,,TRUE,,,,,,,CLR,,,,,,,,VFR,0.0,26.7,18.3,,,,,,,,,METAR,5.0
KDTO 222353Z 18021G30KT 10SM CLR 28/13 A2971 RMK AO2 PK WND 19031/2311 SLP052 T02780133 10311 20272 51001,KDTO,2022-10-22T23:53:00Z,33.2,-97.2,27.8,13.3,180,21,30,10.0,29.71063,1005.2,,,TRUE,,,,,,,CLR,,,,,,,,VFR,0.1,31.1,27.2,,,,,,,,,METAR,199.0
KDTN 222353Z AUTO 17011G21KT 10SM CLR 26/14 A2985 RMK AO2 SLP105 T02610139 10294 20261 56005,KDTN,2022-10-22T23:53:00Z,32.55,-93.75,26.1,13.9,170,11,21,10.0,29.84941,1010.5,,TRUE,TRUE,,,,,,,CLR,,,,,,,,VFR,-0.5,29.4,26.1,,,,,,,,,METAR,53.0
KDRT 222353Z AUTO 13008KT 10SM CLR 27/16 A2979 RMK AO2 SLP083 T02670156 10289 20239 56004,KDRT,2022-10-22T23:53:00Z,29.37,-100.92,26.7,15.6,130,8,,10.0,29.790354,1008.3,,TRUE,TRUE,,,,,,,CLR,,,,,,,,VFR,-0.4,28.9,23.9,,,,,,,,,METAR,303.0
KDRO 222353Z AUTO 20003KT 10SM FEW090 17/01 A2973 RMK AO2 SLP028 T01670006 10183 20133 58023,KDRO,2022-10-22T23:53:00Z,37.15,-107.77,16.7,0.6,200,3,,10.0,29.731298,1002.8,,TRUE,TRUE,,,,,,,FEW,9000,,,,,,,VFR,-2.3,18.3,13.3,,,,,,,,,METAR,2021.0
KDNL 222353Z AUTO 02006KT 10SM CLR 18/00 A3014 RMK AO2 SLP203 T01830000 10239 20183 53000,KDNL,2022-10-22T23:53:00Z,33.47,-82.03,18.3,0.0,20,6,,10.0,30.138779,1020.3,,TRUE,TRUE,,,,,,,CLR,,,,,,,,VFR,0.0,23.9,18.3,,,,,,,,,METAR,126.0
KDMO 222353Z AUTO 16014G24KT 10SM CLR 24/11 A2967 RMK AO2 PK WND 17028/2315 RAE17B33E43 SLP039 P0000 60000 T02390106 10311 20239 53018,KDMO,2022-10-22T23:53:00Z,38.72,-93.17,23.9,10.6,160,14,24,10.0,29.66929,1003.9,,TRUE,TRUE,,,,,,,CLR,,,,,,,,VFR,1.8,31.1,23.9,,,0.005,,0.005,,,,METAR,271.0
KDMN 222353Z AUTO 21011KT 10SM SCT080 25/10 A2981 RMK AO2 SLP033 T02500100 10272 20239 56011,KDMN,2022-10-22T23:53:00Z,32.27,-107.72,25.0,10.0,210,11,,10.0,29.811024,1003.3,,TRUE,TRUE,,,,,,,SCT,8000,,,,,,,VFR,-1.1,27.2,23.9,,,,,,,,,METAR,1310.0
KDLS 222353Z AUTO 27015G23KT 10SM CLR 14/03 A2974 RMK AO2 PK WND 27026/2315 SLP070 T01390033 10156 20122 53008,KDLS,2022-10-22T23:53:00Z,45.62,-121.17,13.9,3.3,270,15,23,10.0,29.740158,1007.0,,TRUE,TRUE,,,,,,,CLR,,,,,,,,VFR,0.8,15.6,12.2,,,,,,,,,METAR,71.0
KDKK 222353Z AUTO 17011KT 10SM CLR 19/03 A3012 RMK AO2 SLP200 T01890033 10239 20144 53014,KDKK,2022-10-22T23:53:00Z,42.5,-79.28,18.9,3.3,170,11,,10.0,30.121063,1020.0,,TRUE,TRUE,,,,,,,CLR,,,,,,,,VFR,1.4,23.9,14.4,,,,,,,,,METAR,205.0
KDHT 222353Z AUTO 22016KT 10SM CLR 23/02 A2962 RMK AO2 PK WND 21028/2256 SLP988 T02330022 10294 20233 53005,KDHT,2022-10-22T23:53:00Z,36.02,-102.55,23.3,2.2,220,16,,10.0,29.619095,998.8,,TRUE,TRUE,,,,,,,CLR,,,,,,,,VFR,0.5,29.4,23.3,,,,,,,,,METAR,1217.0
KDHN 222353Z 02004KT 10SM CLR 13/06 A3013 RMK AO2 SLP202 T01330061 10256 20133 53001,KDHN,2022-10-22T23:53:00Z,31.32,-85.45,13.3,6.1,20,4,,10.0,30.129921,1020.2,,,TRUE,,,,,,,CLR,,,,,,,,VFR,0.1,25.6,13.3,,,,,,,,,METAR,113.0
KDGW 222353Z AUTO 24012KT 10SM CLR 19/M04 A2942 RMK AO2 SLP907 T01891044 10200 20178 50001,KDGW,2022-10-22T23:53:00Z,42.8,-105.38,18.9,-4.4,240,12,,10.0,29.421259,990.7,,TRUE,TRUE,,,,,,,CLR,,,,,,,,VFR,0.1,20.0,17.8,,,,,,,,,METAR,1503.0
KDFW 222353Z 18018G27KT 10SM BKN250 28/14 A2972 RMK AO2 PK WND 20035/2314 SLP055 T02780139 10311 20278 53003,KDFW,2022-10-22T23:53:00Z,32.9,-97.02,27.8,13.9,180,18,27,10.0,29.719488,1005.5,,,TRUE,,,,,,,BKN,25000,,,,,,,VFR,0.3,31.1,27.8,,,,,,,,,METAR,168.0
KDFI 222353Z AUTO 17007KT 10SM CLR 21/09 A2999 RMK AO2 SLP153 T02060089 10256 20200 53014,KDFI,2022-10-22T23:53:00Z,41.33,-84.43,20.6,8.9,170,7,,10.0,29.991142,1015.3,,TRUE,TRUE,,,,,,,CLR,,,,,,,,VFR,1.4,25.6,20.0,,,,,,,,,METAR,215.0
KDEW 222353Z AUTO 27005KT 10SM OVC070 08/M01 A2962 RMK AO2 SLP036 T00831006 10100 20072 53019,KDEW,2022-10-22T23:53:00Z,47.97,-117.43,8.3,-0.6,270,5,,10.0,29.619095,1003.6,,TRUE,TRUE,,,,,,,OVC,7000,,,,,,,VFR,1.9,10.0,7.2,,,,,,,,,METAR,672.0
KDET 222353Z 16007KT 8SM CLR 19/08 A3001 RMK AO2 SLP161 T01890083 10233 20189 53014,KDET,2022-10-22T23:53:00Z,42.4,-83.02,18.9,8.3,160,7,,8.0,30.008858,1016.1,,,TRUE,,,,,,,CLR,,,,,,,,VFR,1.4,23.3,18.9,,,,,,,,,METAR,190.0
KDEQ 222353Z AUTO 18004KT 10SM 26/11 A2976 RMK AO2 SLP075 T02610111 10289 20261 55002 $,KDEQ,2022-10-22T23:53:00Z,34.05,-94.4,26.1,11.1,180,4,,10.0,29.760826,1007.5,,TRUE,TRUE,TRUE,,,,,,,,,,,,,,,-0.2,28.9,26.1,,,,,,,,,METAR,107.0
KDEN 222353Z 08007KT 10SM FEW090 FEW140 FEW200 19/M09 A2945 RMK AO2 SLP911 T01941094 10250 20194 56015,KDEN,2022-10-22T23:53:00Z,39.85,-104.65,19.4,-9.4,80,7,,10.0,29.450787,991.1,,,TRUE,,,,,,,FEW,9000,FEW,14000,FEW,20000,,,VFR,-1.5,25.0,19.4,,,,,,,,,METAR,1656.0
KDCU 222353Z AUTO 12003KT 10SM CLR 17/11 A3007 RMK AO2 SLP182 T01670106 10250 20167 53003,KDCU,2022-10-22T23:53:00Z,34.65,-86.95,16.7,10.6,120,3,,10.0,30.070866,1018.2,,TRUE,TRUE,,,,,,,CLR,,,,,,,,VFR,0.3,25.0,16.7,,,,,,,,,METAR,180.0
KDBQ 222353Z 16013KT 10SM CLR 22/10 A2969 RMK AO2 RAB06E43 SLP051 P0000 60000 T02170100 10267 20217 53012,KDBQ,2022-10-22T23:53:00Z,42.4,-90.7,21.7,10.0,160,13,,10.0,29.68996,1005.1,,,TRUE,,,,,,,CLR,,,,,,,,VFR,1.2,26.7,21.7,,,0.005,,0.005,,,,METAR,317.0
KDAN 222353Z AUTO 06003KT 10SM CLR 11/04 A3019 RMK AO2 SLP221 T01110044 10222 20106 53005,KDAN,2022-10-22T23:53:00Z,36.57,-79.33,11.1,4.4,60,3,,10.0,30.188976,1022.1,,TRUE,TRUE,,,,,,,CLR,,,,,,,,VFR,0.5,22.2,10.6,,,,,,,,,METAR,170.0
KDAL 222353Z 18012G26KT 10SM BKN250 28/14 A2974 RMK AO2 PK WND 19030/2325 SLP066 T02780139 10300 20267 53004,KDAL,2022-10-22T23:53:00Z,32.85,-96.85,27.8,13.9,180,12,26,10.0,29.740158,1006.6,,,TRUE,,,,,,,BKN,25000,,,,,,,VFR,0.4,30.0,26.7,,,,,,,,,METAR,148.0
KDAB 222353Z 36007KT 10SM FEW025 21/16 A3007 RMK AO2 SLP180 T02060156 10261 20206 55001,KDAB,2022-10-22T23:53:00Z,29.18,-81.07,20.6,15.6,360,7,,10.0,30.070866,1018.0,,,TRUE,,,,,,,FEW,2500,,,,,,,VFR,-0.1,26.1,20.6,,,,,,,,,METAR,8.0
KCYS 222353Z 16008KT 10SM CLR 17/M09 A2949 RMK AO2 SLP918 T01671089 10222 20167 56008,KCYS,2022-10-22T23:53:00Z,41.15,-104.8,16.7,-8.9,160,8,,10.0,29.489174,991.8,,,TRUE,,,,,,,CLR,,,,,,,,VFR,-0.8,22.2,16.7,,,,,,,,,METAR,1868.0
KCXO 222353Z 16014KT 10SM CLR 25/16 A2990 RMK AO2 SLP122 T02500156 10300 20250 53001,KCXO,2022-10-22T23:53:00Z,30.35,-95.42,25.0,15.6,160,14,,10.0,29.899607,1012.2,,,TRUE,,,,,,,CLR,,,,,,,,VFR,0.1,30.0,25.0,,,,,,,,,METAR,69.0
KCUT 222353Z AUTO 16003KT 10SM CLR 14/M01 A2947 RMK AO2 SLP939 T01391011 10194 20111 53006,KCUT,2022-10-22T23:53:00Z,43.73,-103.62,13.9,-1.1,160,3,,10.0,29.471457,993.9,,TRUE,TRUE,,,,,,,CLR,,,,,,,,VFR,0.6,19.4,11.1,,,,,,,,,METAR,1700.0
KCUB 222353Z AUTO 00000KT 10SM CLR 15/08 A3015 RMK AO2 SLP208 T01500083 10244 20150 53001,KCUB,2022-10-22T23:53:00Z,33.97,-81.0,15.0,8.3,0,0,,10.0,30.15059,1020.8,,TRUE,TRUE,,,,,,,CLR,,,,,,,,VFR,0.1,24.4,15.0,,,,,,,,,METAR,55.0
KCSV 222353Z AUTO 00000KT 10SM CLR 14/09 A3015 RMK AO2 SLP202 T01390089 10206 20139 53007,KCSV,2022-10-22T23:53:00Z,35.95,-85.08,13.9,8.9,0,0,,10.0,30.15059,1020.2,,TRUE,TRUE,,,,,,,CLR,,,,,,,,VFR,0.7,20.6,13.9,,,,,,,,,METAR,569.0
KCSM 222353Z AUTO 20014KT 10SM CLR 27/08 A2957 RMK AO2 PK WND 21029/2315 SLP996 T02670078 10311 20267 53010,KCSM,2022-10-22T23:53:00Z,35.35,-99.2,26.7,7.8,200,14,,10.0,29.568897,999.6,,TRUE,TRUE,,,,,,,CLR,,,,,,,,VFR,1.0,31.1,26.7,,,,,,,,,METAR,586.0
KCRS 222353Z AUTO 17013KT 10SM CLR 27/13 A2980 RMK AO2 SLP087 T02720128 10311 20272 55001,KCRS,2022-10-22T23:53:00Z,32.03,-96.4,27.2,12.8,170,13,,10.0,29.799213,1008.7,,TRUE,TRUE,,,,,,,CLR,,,,,,,,VFR,-0.1,31.1,27.2,,,,,,,,,METAR,136.0
KCRQ 222353Z 22010KT 10SM SCT021 BKN030 OVC035 18/13 A2978 RMK AO2 SLP081 T01830128 10206 20183 56004,KCRQ,2022-10-22T23:53:00Z,33.13,-117.28,18.3,12.8,220,10,,10.0,29.778543,1008.1,,,TRUE,,,,,,,SCT,2100,BKN,3000,OVC,3500,,,MVFR,-0.4,20.6,18.3,,,,,,,,,METAR,96.0
KCRG 222353Z VRB03KT 10SM CLR 16/13 A3010 RMK AO2 SLP191 T01610128 10233 20161 53001,KCRG,2022-10-22T23:53:00Z,30.33,-81.52,16.1,12.8,0,3,,10.0,30.100393,1019.1,,,TRUE,,,,,,,CLR,,,,,,,,VFR,0.1,23.3,16.1,,,,,,,,,METAR,12.0
KCRE 222353Z 00000KT 10SM FEW055 17/14 A3010 RMK AO1 SLP195 T01720144 10250 20172 53005,KCRE,2022-10-22T23:53:00Z,33.82,-78.72,17.2,14.4,0,0,,10.0,30.100393,1019.5,,,TRUE,,,,,,,FEW,5500,,,,,,,VFR,0.5,25.0,17.2,,,,,,,,,METAR,9.0
KCQC 222353Z AUTO 23021G32KT 10SM CLR 15/07 A2987 RMK AO2 PK WND 23034/2333 SLP045 T01500072 10200 20150 58008,KCQC,2022-10-22T23:53:00Z,35.0,-105.67,15.0,7.2,230,21,32,10.0,29.870079,1004.5,,TRUE,TRUE,,,,,,,CLR,,,,,,,,VFR,-0.8,20.0,15.0,,,,,,,,,METAR,2163.0
KCPS 222353Z 16011G19KT 10SM CLR 22/12 A2982 RMK AO2 SLP097 T02170122 10278 20217 53007 $,KCPS,2022-10-22T23:53:00Z,38.53,-90.15,21.7,12.2,160,11,19,10.0,29.819881,1009.7,,,TRUE,TRUE,,,,,,CLR,,,,,,,,VFR,0.7,27.8,21.7,,,,,,,,,METAR,125.0
KCPR 222353Z 26012KT 10SM FEW100 FEW120 16/M03 A2939 RMK AO2 PK WND 23031/2259 SLP902 T01611033 10189 20156 56001,KCPR,2022-10-22T23:53:00Z,42.9,-106.47,16.1,-3.3,260,12,,10.0,29.388779,990.2,,,TRUE,,,,,,,FEW,10000,FEW,12000,,,,,VFR,-0.1,18.9,15.6,,,,,,,,,METAR,1623.0
KCOT 222353Z AUTO 15009KT 8SM FEW065 29/14 A2982 RMK AO2 SLP090 T02940139 10322 20294 53001,KCOT,2022-10-22T23:53:00Z,28.45,-99.22,29.4,13.9,150,9,,8.0,29.819881,1009.0,,TRUE,TRUE,,,,,,,FEW,6500,,,,,,,VFR,0.1,32.2,29.4,,,,,,,,,METAR,144.0
KCNY 222353Z AUTO 20016G24KT 10SM CLR 21/00 A2944 RMK AO2 PK WND 19026/2342 SLP924 T02060000 10217 20206 58024,KCNY,2022-10-22T23:53:00Z,38.77,-109.75,20.6,0.0,200,16,24,10.0,29.438976,992.4,,TRUE,TRUE,,,,,,,CLR,,,,,,,,VFR,-2.4,21.7,20.6,,,,,,,,,METAR,1392.0
KCNO 222353Z 22016G23KT 10SM BKN050 19/12 A2974 RMK AO2 PK WND 23026/2331 SLP067 T01940122 10233 20194 56010,KCNO,2022-10-22T23:53:00Z,33.98,-117.62,19.4,12.2,220,16,23,10.0,29.740158,1006.7,,,TRUE,,,,,,,BKN,5000,,,,,,,VFR,-1.0,23.3,19.4,,,,,,,,,METAR,191.0
KCNM 222353Z AUTO 20008KT 10SM CLR 25/12 A2976 RMK AO2 SLP032 T02500117 10272 20233 58002,KCNM,2022-10-22T23:53:00Z,32.33,-104.25,25.0,11.7,200,8,,10.0,29.760826,1003.2,,TRUE,TRUE,,,,,,,CLR,,,,,,,,VFR,-0.2,27.2,23.3,,,,,,,,,METAR,993.0
KCMX 222353Z AUTO 07009KT 10SM CLR 11/07 A2970 RMK AO2 SLP062 T01110072 10156 20111 53011,KCMX,2022-10-22T23:53:00Z,47.17,-88.48,11.1,7.2,70,9,,10.0,29.698818,1006.2,,TRUE,TRUE,,,,,,,CLR,,,,,,,,VFR,1.1,15.6,11.1,,,,,,,,,METAR,326.0
KCMI 222353Z 18017G27KT 10SM CLR 21/11 A2989 RMK AO2 PK WND 17027/2344 SLP119 T02110111 10267 20211 53014,KCMI,2022-10-22T23:53:00Z,40.03,-88.27,21.1,11.1,180,17,27,10.0,29.890747,1011.9,,,TRUE,,,,,,,CLR,,,,,,,,VFR,1.4,26.7,21.1,,,,,,,,,METAR,227.0
KCLL 222353Z 16016G24KT 10SM CLR 27/15 A2985 RMK AO2 SLP103 T02720150 10306 20272 53001,KCLL,2022-10-22T23:53:00Z,30.58,-96.37,27.2,15.0,160,16,24,10.0,29.84941,1010.3,,,TRUE,,,,,,,CLR,,,,,,,,VFR,0.1,30.6,27.2,,,,,,,,,METAR,96.0
KCKB 222353Z 00000KT 10SM CLR 16/03 A3016 RMK AO2 SLP210 T01610033 10244 20156 53007,KCKB,2022-10-22T23:53:00Z,39.3,-80.22,16.1,3.3,0,0,,10.0,30.159449,1021.0,,,TRUE,,,,,,,CLR,,,,,,,,VFR,0.7,24.4,15.6,,,,,,,,,METAR,368.0
KCHO 222353Z 05003KT 10SM CLR 15/03 A3021 RMK AO2 SLP228 T01500033 10222 20150 53002 $,KCHO,2022-10-22T23:53:00Z,38.13,-78.45,15.0,3.3,50,3,,10.0,30.209646,1022.8,,,TRUE,TRUE,,,,,,CLR,,,,,,,,VFR,0.2,22.2,15.0,,,,,,,,,METAR,193.0
KCHA 222353Z 00000KT 10SM SCT200 BKN230 18/10 A3012 RMK AO2 SLP198 T01830100 10244 20178 53005,KCHA,2022-10-22T23:53:00Z,35.03,-85.2,18.3,10.0,0,0,,10.0,30.121063,1019.8,,,TRUE,,,,,,,SCT,20000,BKN,23000,,,,,VFR,0.5,24.4,17.8,,,,,,,,,METAR,203.0
KCGI 222353Z AUTO 15009KT 10SM BLDU CLR 21/13 A2991 RMK AO2 SLP125 T02110133 10256 20211 50001,KCGI,2022-10-22T23:53:00Z,37.23,-89.58,21.1,13.3,150,9,,10.0,29.911417,1012.5,,TRUE,TRUE,,,,,,BLDU,CLR,,,,,,,,VFR,0.1,25.6,21.1,,,,,,,,,METAR,103.0
KCEZ 222353Z AUTO 22014G26KT 10SM FEW095 18/M01 A2965 RMK AO2 PK WND 19026/2350 SLP996 T01831011 10217 20167 56028,KCEZ,2022-10-22T23:53:00Z,37.3,-108.63,18.3,-1.1,220,14,26,10.0,29.648623,999.6,,TRUE,TRUE,,,,,,,FEW,9500,,,,,,,VFR,-2.8,21.7,16.7,,,,,,,,,METAR,1801.0
KCEW 222353Z AUTO 00000KT 10SM CLR 14/08 A3010 RMK AO2 SLP192 T01390083 10272 20139 53002,KCEW,2022-10-22T23:53:00Z,30.78,-86.52,13.9,8.3,0,0,,10.0,30.100393,1019.2,,TRUE,TRUE,,,,,,,CLR,,,,,,,,VFR,0.2,27.2,13.9,,,,,,,,,METAR,47.0
KCDW 222353Z 00000KT 10SM CLR 12/05 A3028 RMK AO2 SLP260 T01170050 10206 20111 53010,KCDW,2022-10-22T23:53:00Z,40.88,-74.28,11.7,5.0,0,0,,10.0,30.280512,1026.0,,,TRUE,,,,,,,CLR,,,,,,,,VFR,1.0,20.6,11.1,,,,,,,,,METAR,52.0
KCDS 222353Z AUTO 22014KT 10SM CLR 29/06 A2961 RMK AO2 SLP004 T02890061 10328 20289 56005,KCDS,2022-10-22T23:53:00Z,34.43,-100.28,28.9,6.1,220,14,,10.0,29.610237,1000.4,,TRUE,TRUE,,,,,,,CLR,,,,,,,,VFR,-0.5,32.8,28.9,,,,,,,,,METAR,595.0
KCDR 222353Z AUTO 17013KT 10SM CLR 23/M09 A2936 RMK AO2 SLP935 T02281089 10272 20178 55002,KCDR,2022-10-22T23:53:00Z,42.83,-103.1,22.8,-8.9,170,13,,10.0,29.359253,993.5,,TRUE,TRUE,,,,,,,CLR,,,,,,,,VFR,-0.2,27.2,17.8,,,,,,,,,METAR,1002.0
KCDC 222353Z AUTO 21020G30KT 10SM SCT060 OVC075 12/02 A2958 RMK AO2 PK WND 23044/2319 RAB34E49 SLP971 P0000 60000 T01220022 10200 20122 53014,KCDC,2022-10-22T23:53:00Z,37.7,-113.1,12.2,2.2,210,20,30,10.0,29.58071,997.1,,TRUE,TRUE,,,,,,,SCT,6000,OVC,7500,,,,,VFR,1.4,20.0,12.2,,,0.005,,0.005,,,,METAR,1703.0
KCCR 222353Z 27011G20KT 10SM CLR 21/04 A2972 RMK AO2 SLP051 T02060044 10228 20189 56007,KCCR,2022-10-22T23:53:00Z,38.0,-122.05,20.6,4.4,270,11,20,10.0,29.719488,1005.1,,,TRUE,,,,,,,CLR,,,,,,,,VFR,-0.7,22.8,18.9,,,,,,,,,METAR,6.0
KCAG 222353Z AUTO 22015G22KT 10SM OVC095 16/M02 A2953 RMK AO2 PK WND 24033/2305 SLP944 T01611017 10200 20156 55004,KCAG,2022-10-22T23:53:00Z,40.5,-107.52,16.1,-1.7,220,15,22,10.0,29.530512,994.4,,TRUE,TRUE,,,,,,,OVC,9500,,,,,,,VFR,-0.4,20.0,15.6,,,,,,,,,METAR,1888.0
KBYI 222353Z AUTO 27014G26KT 10SM CLR 07/01 A2953 RMK AO2 PK WND 26027/2316 SLP988 60001 T00670006 10067 20044 53001,KBYI,2022-10-22T23:53:00Z,42.55,-113.77,6.7,0.6,270,14,26,10.0,29.530512,998.8,,TRUE,TRUE,,,,,,,CLR,,,,,,,,VFR,0.1,6.7,4.4,,,,,0.01,,,,METAR,1263.0
KBYG 222353Z AUTO 32004KT 10SM CLR 11/03 A2934 RMK AO2 SLP914 T01060028 10189 20106 53016,KBYG,2022-10-22T23:53:00Z,44.38,-106.72,10.6,2.8,320,4,,10.0,29.338583,991.4,,TRUE,TRUE,,,,,,,CLR,,,,,,,,VFR,1.6,18.9,10.6,,,,,,,,,METAR,1503.0
KBWG 222353Z AUTO 17005KT 10SM CLR 21/10 A3005 RMK AO2 SLP171 T02110100 10256 20211 53006,KBWG,2022-10-22T23:53:00Z,36.97,-86.42,21.1,10.0,170,5,,10.0,30.050198,1017.1,,TRUE,TRUE,,,,,,,CLR,,,,,,,,VFR,0.6,25.6,21.1,,,,,,,,,METAR,159.0
KBVY 222353Z 22003KT 10SM CLR 09/08 A3028 RMK AO2 SLP250 T00940078 10200 20094 53009,KBVY,2022-10-22T23:53:00Z,42.58,-70.92,9.4,7.8,220,3,,10.0,30.280512,1025.0,,,TRUE,,,,,,,CLR,,,,,,,,VFR,0.9,20.0,9.4,,,,,,,,,METAR,28.0
KBVO 222353Z AUTO 17014G28KT 10SM CLR 26/14 A2959 RMK AO2 PK WND 16028/2350 SLP009 T02610139 10294 20261 51016,KBVO,2022-10-22T23:53:00Z,36.77,-96.02,26.1,13.9,170,14,28,10.0,29.589567,1000.9,,TRUE,TRUE,,,,,,,CLR,,,,,,,,VFR,1.6,29.4,26.1,,,,,,,,,METAR,210.0
KBUR 222353Z 17010KT 10SM FEW024 FEW044 BKN055 19/12 A2974 RMK AO2 SLP059 T01940117 10217 20194 56010,KBUR,2022-10-22T23:53:00Z,34.2,-118.37,19.4,11.7,170,10,,10.0,29.740158,1005.9,,,TRUE,,,,,,,FEW,2400,FEW,4400,BKN,5500,,,VFR,-1.0,21.7,19.4,,,,,,,,,METAR,221.0
KBTR 222353Z 17010KT 10SM CLR 23/14 A3001 RMK AO2 SLP160 T02330139 10283 20228 55002 $,KBTR,2022-10-22T23:53:00Z,30.53,-91.15,23.3,13.9,170,10,,10.0,30.008858,1016.0,,,TRUE,TRUE,,,,,,CLR,,,,,,,,VFR,-0.2,28.3,22.8,,,,,,,,,METAR,20.0
KBTL 222353Z 15006KT 10SM CLR 19/08 A2994 RMK AO2 SLP137 T01890078 10250 20189 53011,KBTL,2022-10-22T23:53:00Z,42.32,-85.25,18.9,7.8,150,6,,10.0,29.940945,1013.7,,,TRUE,,,,,,,CLR,,,,,,,,VFR,1.1,25.0,18.9,,,,,,,,,METAR,282.0
KBRO 222353Z 15013KT 10SM CLR 26/19 A2988 RMK AO2 SLP115 60000 T02610189 10317 20261 50001,KBRO,2022-10-22T23:53:00Z,25.92,-97.42,26.1,18.9,150,13,,10.0,29.878937,1011.5,,,TRUE,,,,,,,CLR,,,,,,,,VFR,0.1,31.7,26.1,,,,,0.005,,,,METAR,6.0
KBRL 222353Z AUTO 15010KT 10SM CLR 23/08 A2968 RMK AO2 SLP049 T02330078 10278 20233 53008,KBRL,2022-10-22T23:53:00Z,40.77,-91.13,23.3,7.8,150,10,,10.0,29.681103,1004.9,,TRUE,TRUE,,,,,,,CLR,,,,,,,,VFR,0.8,27.8,23.3,,,,,,,,,METAR,208.0
KBRD 222353Z AUTO VRB03KT 9SM CLR 18/04 A2951 RMK AO2 SLP995 T01780039 10211 20178 53010,KBRD,2022-10-22T23:53:00Z,46.4,-94.13,17.8,3.9,0,3,,9.0,29.509842,999.5,,TRUE,TRUE,,,,,,,CLR,,,,,,,,VFR,1.0,21.1,17.8,,,,,,,,,METAR,372.0
KBPT 222353Z 16008KT 10SM CLR 23/18 A2994 RMK AO2 SLP138 T02280178 10289 20228 58003,KBPT,2022-10-22T23:53:00Z,29.95,-94.03,22.8,17.8,160,8,,10.0,29.940945,1013.8,,,TRUE,,,,,,,CLR,,,,,,,,VFR,-0.3,28.9,22.8,,,,,,,,,METAR,6.0
KBPK 222353Z AUTO 19009G17KT 10SM CLR 22/11 A2979 RMK AO2 SLP081 T02220111 10250 20211 53004 TSNO,KBPK,2022-10-22T23:53:00Z,36.37,-92.47,22.2,11.1,190,9,17,10.0,29.790354,1008.1,,TRUE,TRUE,,,TRUE,,,,CLR,,,,,,,,VFR,0.4,25.0,21.1,,,,,,,,,METAR,279.0
KBPI 222353Z AUTO 36010KT 10SM SCT028 OVC035 03/01 A2950 RMK AO2 PK WND 33039/2304 WSHFT 2251 RAB10E17B44E45UPB33E44SNB17E33 SLP945 P0001 60001 T00280006 10117 20017 53007,KBPI,2022-10-22T23:53:00Z,42.58,-110.1,2.8,0.6,360,10,,10.0,29.500984,994.5,,TRUE,TRUE,,,,,,,SCT,2800,OVC,3500,,,,,VFR,0.7,11.7,1.7,,,0.01,,0.01,,,,METAR,2120.0
KBOI 222353Z 30012KT 10SM CLR 09/00 A2959 RMK AO2 SLP017 T00940000 10117 20094 53008,KBOI,2022-10-22T23:53:00Z,43.57,-116.23,9.4,0.0,300,12,,10.0,29.589567,1001.7,,,TRUE,,,,,,,CLR,,,,,,,,VFR,0.8,11.7,9.4,,,,,,,,,METAR,860.0
KBNA 222353Z 15011KT 10SM BKN220 21/09 A3004 RMK AO2 SLP170 T02110094 10250 20206 58001 $,KBNA,2022-10-22T23:53:00Z,36.12,-86.68,21.1,9.4,150,11,,10.0,30.041338,1017.0,,,TRUE,TRUE,,,,,,BKN,22000,,,,,,,VFR,-0.1,25.0,20.6,,,,,,,,,METAR,168.0
KBMQ 222353Z AUTO 18010G29KT 10SM CLR 27/13 A2984 RMK AO2 PK WND 17029/2344 SLP088 T02720128 10300 20261 53000,KBMQ,2022-10-22T23:53:00Z,30.73,-98.23,27.2,12.8,180,10,29,10.0,29.840551,1008.8,,TRUE,TRUE,,,,,,,CLR,,,,,,,,VFR,0.0,30.0,26.1,,,,,,,,,METAR,387.0
KBMG 222353Z 17006KT 10SM CLR 21/12 A2998 RMK AO2 SLP151 T02060117 10261 20206 53015,KBMG,2022-10-22T23:53:00Z,39.15,-86.62,20.6,11.7,170,6,,10.0,29.97933,1015.1,,,TRUE,,,,,,,CLR,,,,,,,,VFR,1.5,26.1,20.6,,,,,,,,,METAR,254.0
KBLI 222353Z 00000KT 10SM BKN060 09/09 A2978 RMK AO2 SLP092 60009 T00940089 10106 20089 53007,KBLI,2022-10-22T23:53:00Z,48.8,-122.53,9.4,8.9,0,0,,10.0,29.778543,1009.2,,,TRUE,,,,,,,BKN,6000,,,,,,,VFR,0.7,10.6,8.9,,,,,0.09,,,,METAR,46.0
KBKV 222353Z 04005KT 10SM CLR 21/16 A3005 RMK AO2 SLP176 T02110161 10278 20211 53005,KBKV,2022-10-22T23:53:00Z,28.47,-82.45,21.1,16.1,40,5,,10.0,30.050198,1017.6,,,TRUE,,,,,,,CLR,,,,,,,,VFR,0.5,27.8,21.1,,,,,,,,,METAR,21.0
KBKL 222353Z 15008KT 10SM CLR 21/09 A3007 RMK AO2 SLP181 T02110089 10239 20206 53017,KBKL,2022-10-22T23:53:00Z,41.53,-81.67,21.1,8.9,150,8,,10.0,30.070866,1018.1,,,TRUE,,,,,,,CLR,,,,,,,,VFR,1.7,23.9,20.6,,,,,,,,,METAR,177.0
KBKE 222353Z AUTO 36014G28KT 9SM -RA FEW028 BKN060 OVC075 03/01 A2967 RMK AO2 PK WND 34030/2330 RAB02 SLP057 P0000 60000 T00330011 10089 20033 53021,KBKE,2022-10-22T23:53:00Z,44.85,-117.82,3.3,1.1,360,14,28,9.0,29.66929,1005.7,,TRUE,TRUE,,,,,,-RA,FEW,2800,BKN,6000,OVC,7500,,,VFR,2.1,8.9,3.3,,,0.005,,0.005,,,,METAR,1025.0
KBIV 222353Z AUTO 15008KT 10SM CLR 19/09 A2988 RMK AO2 SLP116 T01890094 10250 20183 53013,KBIV,2022-10-22T23:53:00Z,42.75,-86.1,18.9,9.4,150,8,,10.0,29.878937,1011.6,,TRUE,TRUE,,,,,,,CLR,,,,,,,,VFR,1.3,25.0,18.3,,,,,,,,,METAR,207.0
KBHM 222353Z 13003KT 10SM BKN250 20/11 A3012 RMK AO2 SLP195 T02000111 10244 20200 53002,KBHM,2022-10-22T23:53:00Z,33.57,-86.75,20.0,11.1,130,3,,10.0,30.121063,1019.5,,,TRUE,,,,,,,BKN,25000,,,,,,,VFR,0.2,24.4,20.0,,,,,,,,,METAR,191.0
KBGR 222353Z 18005KT 10SM FEW200 12/09 A3027 RMK AO2 SLP249 T01170089 10183 20117 51012,KBGR,2022-10-22T23:53:00Z,44.8,-68.82,11.7,8.9,180,5,,10.0,30.268702,1024.9,,,TRUE,,,,,,,FEW,20000,,,,,,,VFR,1.2,18.3,11.7,,,,,,,,,METAR,45.0
KBGM 222353Z AUTO 18005KT 10SM CLR 14/01 A3023 RMK AO2 SLP240 T01390011 10189 20139 53014,KBGM,2022-10-22T23:53:00Z,42.22,-75.98,13.9,1.1,180,5,,10.0,30.230314,1024.0,,TRUE,TRUE,,,,,,,CLR,,,,,,,,VFR,1.4,18.9,13.9,,,,,,,,,METAR,485.0
KBFM 222353Z 18006KT 10SM CLR 20/11 A3010 RMK AO2 SLP192 T02000111 10250 20194 53002,KBFM,2022-10-22T23:53:00Z,30.62,-88.07,20.0,11.1,180,6,,10.0,30.100393,1019.2,,,TRUE,,,,,,,CLR,,,,,,,,VFR,0.2,25.0,19.4,,,,,,,,,METAR,7.0
KBFI 222353Z 17005KT 10SM BKN060 08/07 A2981 RMK AO2 RAE20 SLP094 P0001 60012 T00830072 10111 20083 51013,KBFI,2022-10-22T23:53:00Z,47.55,-122.32,8.3,7.2,170,5,,10.0,29.811024,1009.4,,,TRUE,,,,,,,BKN,6000,,,,,,,VFR,1.3,11.1,8.3,,,0.01,,0.12,,,,METAR,7.0
KBFF 222353Z AUTO 14006KT 10SM CLR 21/M08 A2941 RMK AO2 SLP925 T02111078 10283 20211 55003,KBFF,2022-10-22T23:53:00Z,41.87,-103.6,21.1,-7.8,140,6,,10.0,29.409449,992.5,,TRUE,TRUE,,,,,,,CLR,,,,,,,,VFR,-0.3,28.3,21.1,,,,,,,,,METAR,1204.0
KBFD 222353Z AUTO 15006KT 10SM CLR 14/02 A3020 RMK AO2 SLP228 T01440022 10211 20111 53016,KBFD,2022-10-22T23:53:00Z,41.8,-78.63,14.4,2.2,150,6,,10.0,30.200787,1022.8,,TRUE,TRUE,,,,,,,CLR,,,,,,,,VFR,1.6,21.1,11.1,,,,,,,,,METAR,642.0
KBEH 222353Z AUTO 13007KT 10SM CLR 21/11 A2988 RMK AO2 SLP116 T02060111 10256 20200 53013,KBEH,2022-10-22T23:53:00Z,42.13,-86.42,20.6,11.1,130,7,,10.0,29.878937,1011.6,,TRUE,TRUE,,,,,,,CLR,,,,,,,,VFR,1.3,25.6,20.0,,,,,,,,,METAR,196.0
KBDE 222353Z AUTO 07009KT 10SM CLR 12/04 A2961 RMK AO2 SLP034 T01220039 10150 20122 53004,KBDE,2022-10-22T23:53:00Z,48.73,-94.62,12.2,3.9,70,9,,10.0,29.610237,1003.4,,TRUE,TRUE,,,,,,,CLR,,,,,,,,VFR,0.4,15.0,12.2,,,,,,,,,METAR,330.0
KBCE 222353Z AUTO 22028G44KT 10SM -RA BKN075 12/M03 A2964 RMK AO2 PK WND 20044/2352 SLP948 P0000 60000 T01171028 10144 20117 56017,KBCE,2022-10-22T23:53:00Z,37.7,-112.15,11.7,-2.8,220,28,44,10.0,29.639763,994.8,,TRUE,TRUE,,,,,,-RA,BKN,7500,,,,,,,VFR,-1.7,14.4,11.7,,,0.005,,0.005,,,,METAR,2311.0
KBBW 222353Z AUTO 14008KT 10SM CLR 23/M04 A2943 RMK AO2 SLP955 T02331044 10311 20233 53004,KBBW,2022-10-22T23:53:00Z,41.43,-99.63,23.3,-4.4,140,8,,10.0,29.430119,995.5,,TRUE,TRUE,,,,,,,CLR,,,,,,,,VFR,0.4,31.1,23.3,,,,,,,,,METAR,771.0
KBAF 222353Z 00000KT 10SM CLR 09/06 A3028 RMK AO2 SLP257 T00940056 10206 20094 51016,KBAF,2022-10-22T23:53:00Z,42.17,-72.72,9.4,5.6,0,0,,10.0,30.280512,1025.7,,,TRUE,,,,,,,CLR,,,,,,,,VFR,1.6,20.6,9.4,,,,,,,,,METAR,80.0
KAZO 222353Z 16005KT 10SM CLR 21/08 A2993 RMK AO2 SLP134 T02060083 10250 20206 53013 $,KAZO,2022-10-22T23:53:00Z,42.23,-85.55,20.6,8.3,160,5,,10.0,29.929134,1013.4,,,TRUE,TRUE,,,,,,CLR,,,,,,,,VFR,1.3,25.0,20.6,,,,,,,,,METAR,264.0
KAXN 222353Z AUTO 00000KT 10SM CLR 18/02 A2948 RMK AO2 SLP985 T01780022 10228 20167 53018,KAXN,2022-10-22T23:53:00Z,45.87,-95.4,17.8,2.2,0,0,,10.0,29.480314,998.5,,TRUE,TRUE,,,,,,,CLR,,,,,,,,VFR,1.8,22.8,16.7,,,,,,,,,METAR,433.0
KAWM 222353Z AUTO 16010KT 10SM CLR 23/12 A2991 RMK AO2 RAB31E42 SLP124 P0000 60000 T02280117 10272 20222 55000,KAWM,2022-10-22T23:53:00Z,35.13,-90.23,22.8,11.7,160,10,,10.0,29.911417,1012.4,,TRUE,TRUE,,,,,,,CLR,,,,,,,,VFR,0.0,27.2,22.2,,,0.005,,0.005,,,,METAR,64.0
KAUS 222353Z 16012G23KT 10SM BKN250 27/15 A2982 RMK AO2 SLP090 T02720150 10311 20261 53001,KAUS,2022-10-22T23:53:00Z,30.18,-97.68,27.2,15.0,160,12,23,10.0,29.819881,1009.0,,,TRUE,,,,,,,BKN,25000,,,,,,,VFR,0.1,31.1,26.1,,,,,,,,,METAR,148.0
KAUG 222353Z AUTO 19004KT 10SM CLR 12/08 A3028 RMK AO2 SLP255 T01170083 10189 20117 51012,KAUG,2022-10-22T23:53:00Z,44.32,-69.8,11.7,8.3,190,4,,10.0,30.280512,1025.5,,TRUE,TRUE,,,,,,,CLR,,,,,,,,VFR,1.2,18.9,11.7,,,,,,,,,METAR,107.0
KATY 222353Z AUTO 17003KT 10SM CLR 13/02 A2946 RMK AO2 SLP976 T01330022 10206 20128 53014,KATY,2022-10-22T23:53:00Z,44.9,-97.15,13.3,2.2,170,3,,10.0,29.459646,997.6,,TRUE,TRUE,,,,,,,CLR,,,,,,,,VFR,1.4,20.6,12.8,,,,,,,,,METAR,531.0
KASX 222353Z AUTO 01006KT 10SM CLR 08/07 A2965 RMK AO2 SLP046 T00830072 10172 20078 53012,KASX,2022-10-22T23:53:00Z,46.55,-90.92,8.3,7.2,10,6,,10.0,29.648623,1004.6,,TRUE,TRUE,,,,,,,CLR,,,,,,,,VFR,1.2,17.2,7.8,,,,,,,,,METAR,249.0
KASE 222353Z 18009KT 10SM BKN100 13/M06 A2965 RMK AO2 SLP963 T01331061 10167 20133 56010,KASE,2022-10-22T23:53:00Z,39.23,-106.87,13.3,-6.1,180,9,,10.0,29.648623,996.3,,,TRUE,,,,,,,BKN,10000,,,,,,,VFR,-1.0,16.7,13.3,,,,,,,,,METAR,2384.0
KASD 222353Z AUTO 12003KT 10SM CLR 21/14 A3005 RMK AO2 SLP176 T02060139 10267 20206 56003,KASD,2022-10-22T23:53:00Z,30.35,-89.82,20.6,13.9,120,3,,10.0,30.050198,1017.6,,TRUE,TRUE,,,,,,,CLR,,,,,,,,VFR,-0.3,26.7,20.6,,,,,,,,,METAR,8.0
KARB 222353Z 18006KT 10SM CLR 19/07 A2999 RMK AO2 SLP154 T01890067 10244 20183 53013,KARB,2022-10-22T23:53:00Z,42.22,-83.73,18.9,6.7,180,6,,10.0,29.991142,1015.4,,,TRUE,,,,,,,CLR,,,,,,,,VFR,1.3,24.4,18.3,,,,,,,,,METAR,251.0
KARA 222353Z 15009KT 10SM CLR 22/15 A3000 RMK AO2 SLP159 T02170150 10283 20217 56004,KARA,2022-10-22T23:53:00Z,30.03,-91.88,21.7,15.0,150,9,,10.0,30.0,1015.9,,,TRUE,,,,,,,CLR,,,,,,,,VFR,-0.4,28.3,21.7,,,,,,,,,METAR,5.0
KAPF 222353Z 35005KT 10SM CLR 23/19 A3000 RMK AO2 SLP157 T02280194 10278 20228 53005 $,KAPF,2022-10-22T23:53:00Z,26.15,-81.77,22.8,19.4,350,5,,10.0,30.0,1015.7,,,TRUE,TRUE,,,,,,CLR,,,,,,,,VFR,0.5,27.8,22.8,,,,,,,,,METAR,2.0
KAPA 222353Z 00000KT 10SM FEW090 FEW150 21/M09 A2948 RMK AO2 SLP922 T02111089 10233 20200 56009,KAPA,2022-10-22T23:53:00Z,39.57,-104.85,21.1,-8.9,0,0,,10.0,29.480314,992.2,,,TRUE,,,,,,,FEW,9000,FEW,15000,,,,,VFR,-0.9,23.3,20.0,,,,,,,,,METAR,1791.0
KAOO 222353Z AUTO 19003KT 10SM CLR 12/01 A3023 RMK AO2 SLP244 T01170011 10211 20094 51013,KAOO,2022-10-22T23:53:00Z,40.3,-78.32,11.7,1.1,190,3,,10.0,30.230314,1024.4,,TRUE,TRUE,,,,,,,CLR,,,,,,,,VFR,1.3,21.1,9.4,,,,,,,,,METAR,450.0
KAOH 222353Z AUTO 17006KT 10SM CLR 17/09 A3003 RMK AO2 SLP167 T01670089 10244 20167 53013,KAOH,2022-10-22T23:53:00Z,40.7,-84.02,16.7,8.9,170,6,,10.0,30.029528,1016.7,,TRUE,TRUE,,,,,,,CLR,,,,,,,,VFR,1.3,24.4,16.7,,,,,,,,,METAR,294.0
KANB 222353Z AUTO 00000KT 10SM CLR 17/10 A3010 RMK AO2 SLP197 T01670100 10250 20167 53002,KANB,2022-10-22T23:53:00Z,33.58,-85.85,16.7,10.0,0,0,,10.0,30.100393,1019.7,,TRUE,TRUE,,,,,,,CLR,,,,,,,,VFR,0.2,25.0,16.7,,,,,,,,,METAR,187.0
KAMW 222353Z AUTO 18006KT 10SM CLR 19/09 A2956 RMK AO2 SLP007 T01940089 10278 20194 53011,KAMW,2022-10-22T23:53:00Z,41.98,-93.62,19.4,8.9,180,6,,10.0,29.56004,1000.7,,TRUE,TRUE,,,,,,,CLR,,,,,,,,VFR,1.1,27.8,19.4,,,,,,,,,METAR,282.0
KAMG 222353Z AUTO 00000KT 10SM CLR 13/06 A3010 RMK AO2 SLP192 T01330061 10250 20128 55001,KAMG,2022-10-22T23:53:00Z,31.53,-82.5,13.3,6.1,0,0,,10.0,30.100393,1019.2,,TRUE,TRUE,,,,,,,CLR,,,,,,,,VFR,-0.1,25.0,12.8,,,,,,,,,METAR,61.0
KAMA 222353Z 22022G31KT 10SM CLR 24/08 A2964 RMK AO2 PK WND 23031/2348 SLP990 T02440078 10272 20244 56003,KAMA,2022-10-22T23:53:00Z,35.22,-101.72,24.4,7.8,220,22,31,10.0,29.639763,999.0,,,TRUE,,,,,,,CLR,,,,,,,,VFR,-0.3,27.2,24.4,,,,,,,,,METAR,1102.0
KALW 222353Z 16007KT 10SM CLR 10/03 A2968 RMK AO2 SLP055 60000 T01000033 10100 20067 51006 $,KALW,2022-10-22T23:53:00Z,46.1,-118.28,10.0,3.3,160,7,,10.0,29.681103,1005.5,,,TRUE,TRUE,,,,,,CLR,,,,,,,,VFR,0.6,10.0,6.7,,,,,0.005,,,,METAR,355.0
KALI 222353Z AUTO 13016G21KT 10SM CLR 26/19 A2985 RMK AO2 SLP107 T02560194 10317 20256 53006,KALI,2022-10-22T23:53:00Z,27.73,-98.02,25.6,19.4,130,16,21,10.0,29.84941,1010.7,,TRUE,TRUE,,,,,,,CLR,,,,,,,,VFR,0.6,31.7,25.6,,,,,,,,,METAR,52.0
KAKO 222353Z AUTO 12003KT 10SM CLR 22/M08 A2945 RMK AO2 SLP932 T02171078 10244 20217 57011,KAKO,2022-10-22T23:53:00Z,40.17,-103.22,21.7,-7.8,120,3,,10.0,29.450787,993.2,,TRUE,TRUE,,,,,,,CLR,,,,,,,,VFR,-1.1,24.4,21.7,,,,,,,,,METAR,1431.0
KAIA 222353Z AUTO 16009KT 10SM CLR 17/M05 A2942 RMK AO2 SLP939 T01721050 10278 20172 55001,KAIA,2022-10-22T23:53:00Z,42.05,-102.8,17.2,-5.0,160,9,,10.0,29.421259,993.9,,TRUE,TRUE,,,,,,,CLR,,,,,,,,VFR,-0.1,27.8,17.2,,,,,,,,,METAR,1198.0
KAGS 222353Z 00000KT 10SM CLR 11/06 A3013 RMK AO2 SLP202 T01060061 10239 20106 53001,KAGS,2022-10-22T23:53:00Z,33.37,-81.97,10.6,6.1,0,0,,10.0,30.129921,1020.2,,,TRUE,,,,,,,CLR,,,,,,,,VFR,0.1,23.9,10.6,,,,,,,,,METAR,40.0
KAGC 222353Z 15004KT 10SM CLR 19/02 A3016 RMK AO2 SLP217 T01890022 10222 20183 53009,KAGC,2022-10-22T23:53:00Z,40.35,-79.92,18.9,2.2,150,4,,10.0,30.159449,1021.7,,,TRUE,,,,,,,CLR,,,,,,,,VFR,0.9,22.2,18.3,,,,,,,,,METAR,380.0
KAFW 222353Z 18021G33KT 10SM BKN250 28/13 A2970 RMK AO2 PK WND 17033/2322 SLP045 T02780133 10311 20278 53001,KAFW,2022-10-22T23:53:00Z,32.97,-97.32,27.8,13.3,180,21,33,10.0,29.698818,1004.5,,,TRUE,,,,,,,BKN,25000,,,,,,,VFR,0.1,31.1,27.8,,,,,,,,,METAR,208.0
KAEX 222353Z 17010KT 10SM CLR 25/14 A2993 RMK AO2 SLP138 T02500139 10306 20250 53001,KAEX,2022-10-22T23:53:00Z,31.33,-92.57,25.0,13.9,170,10,,10.0,29.929134,1013.8,,,TRUE,,,,,,,CLR,,,,,,,,VFR,0.1,30.6,25.0,,,,,,,,,METAR,25.0
KADG 222353Z AUTO 18006KT 10SM CLR 18/08 A3000 RMK AO2 SLP160 T01780078 10244 20178 53013,KADG,2022-10-22T23:53:00Z,41.87,-84.08,17.8,7.8,180,6,,10.0,30.0,1016.0,,TRUE,TRUE,,,,,,,CLR,,,,,,,,VFR,1.3,24.4,17.8,,,,,,,,,METAR,244.0
KACV 222353Z AUTO 31014KT 10SM CLR 14/09 A2994 RMK AO2 SLP145 T01390089 10150 20139 53003,KACV,2022-10-22T23:53:00Z,40.98,-124.1,13.9,8.9,310,14,,10.0,29.940945,1014.5,,TRUE,TRUE,,,,,,,CLR,,,,,,,,VFR,0.3,15.0,13.9,,,,,,,,,METAR,63.0
KACK 222353Z 07005KT 10SM CLR 14/12 A3030 RMK AO2 SLP259 T01390117 10183 20133 51004,KACK,2022-10-22T23:53:00Z,41.25,-70.07,13.9,11.7,70,5,,10.0,30.301182,1025.9,,,TRUE,,,,,,,CLR,,,,,,,,VFR,0.4,18.3,13.3,,,,,,,,,METAR,12.0
KABY 222353Z AUTO 00000KT 10SM CLR 16/06 A3012 RMK AO2 SLP200 T01560061 10250 20156 53001,KABY,2022-10-22T23:53:00Z,31.53,-84.2,15.6,6.1,0,0,,10.0,30.121063,1020.0,,TRUE,TRUE,,,,,,,CLR,,,,,,,,VFR,0.1,25.0,15.6,,,,,,,,,METAR,60.0
KABR 222353Z AUTO 20006KT 10SM CLR 11/02 A2944 RMK AO2 SLP973 T01110017 10200 20111 53018,KABR,2022-10-22T23:53:00Z,45.45,-98.42,11.1,1.7,200,6,,10.0,29.438976,997.3,,TRUE,TRUE,,,,,,,CLR,,,,,,,,VFR,1.8,20.0,11.1,,,,,,,,,METAR,397.0
KAAF 222353Z AUTO 00000KT 10SM CLR 16/11 A3008 RMK AO2 SLP184 T01560111 10233 20156 53001,KAAF,2022-10-22T23:53:00Z,29.73,-85.03,15.6,11.1,0,0,,10.0,30.079725,1018.4,,TRUE,TRUE,,,,,,,CLR,,,,,,,,VFR,0.1,23.3,15.6,,,,,,,,,METAR,5.0
PTKK 222352Z VRB05KT 15SM FEW014 BKN280 31/26 A2981 RMK SLP096 8/101 T03060260 10306 20267 50003,PTKK,2022-10-22T23:52:00Z,7.47,151.85,30.6,26.0,0,5,,15.0,29.811024,1009.6,,,,,,,,,,FEW,1400,BKN,28000,,,,,VFR,0.3,30.6,26.7,,,,,,,,,METAR,3.0
PABA 222352Z AUTO 10018KT 10SM OVC010 M04/M06 A3001 RMK AO2 PK WND 10026/2335 SLP168 6//// T10441056 11044 21050 51005 FZRANO PNO $,PABA,2022-10-22T23:52:00Z,70.13,-143.58,-4.4,-5.6,100,18,,10.0,30.008858,1016.8,,TRUE,TRUE,TRUE,,,TRUE,,,OVC,1000,,,,,,,MVFR,0.5,-4.4,-5.0,,,,,,,,,METAR,1.0
MMCS 222352Z 21007KT 10SM SCT030 SCT100 26/09 A2983 RMK SLP003 57009 990 8/130,MMCS,2022-10-22T23:52:00Z,31.63,-106.42,26.0,9.0,210,7,,10.0,29.828741,1000.3,,,,,,,,,,SCT,3000,SCT,10000,,,,,VFR,-0.9,,,,,,,,,,,METAR,1194.0
KVTN 222352Z AUTO 05009KT 10SM CLR 21/M01 A2940 RMK AO2 SLP947 T02111011 10283 20194 55002,KVTN,2022-10-22T23:52:00Z,42.87,-100.55,21.1,-1.1,50,9,,10.0,29.40059,994.7,,TRUE,TRUE,,,,,,,CLR,,,,,,,,VFR,-0.2,28.3,19.4,,,,,,,,,METAR,790.0
KTRM 222352Z AUTO 30021G27KT 4SM HZ CLR 27/08 A2955 RMK AO2 PK WND 30027/2349 SLP007 T02720083 10311 20267 56013,KTRM,2022-10-22T23:52:00Z,33.63,-116.17,27.2,8.3,300,21,27,4.0,29.551182,1000.7,,TRUE,TRUE,,,,,,HZ,CLR,,,,,,,,MVFR,-1.3,31.1,26.7,,,,,,,,,METAR,-39.0
KTOL 222352Z 16005KT 10SM CLR 20/08 A3000 RMK AO2 SLP156 T02000083 10261 20200 53013,KTOL,2022-10-22T23:52:00Z,41.58,-83.8,20.0,8.3,160,5,,10.0,30.0,1015.6,,,TRUE,,,,,,,CLR,,,,,,,,VFR,1.3,26.1,20.0,,,,,,,,,METAR,206.0
KTAN 222352Z AUTO A3030 RMK AO2 SLPNO 53010 PWINO FZRANO TSNO $,KTAN,2022-10-22T23:52:00Z,41.88,-71.02,,,,,,,30.301182,,,TRUE,TRUE,TRUE,,TRUE,TRUE,TRUE,,,,,,,,,,,1.0,,,,,,,,,,,METAR,8.0
KSUX 222352Z 15008KT 10SM CLR 22/07 A2948 RMK AO2 SLP984 T02170067 10278 20217 53011,KSUX,2022-10-22T23:52:00Z,42.38,-96.38,21.7,6.7,150,8,,10.0,29.480314,998.4,,,TRUE,,,,,,,CLR,,,,,,,,VFR,1.1,27.8,21.7,,,,,,,,,METAR,332.0
KSPS 222352Z AUTO 19019G27KT 10SM CLR 30/11 A2961 RMK AO2 PK WND 18027/2351 SLP012 T03000106 10361 20300 50004,KSPS,2022-10-22T23:52:00Z,33.98,-98.5,30.0,10.6,190,19,27,10.0,29.610237,1001.2,,TRUE,TRUE,,,,,,,CLR,,,,,,,,VFR,0.4,36.1,30.0,,,,,,,,,METAR,310.0
KSPI 222352Z 17015G27KT 10SM CLR 22/11 A2980 RMK AO2 PK WND 16033/2319 SLP089 T02170111 10272 20217 53009,KSPI,2022-10-22T23:52:00Z,39.85,-89.68,21.7,11.1,170,15,27,10.0,29.799213,1008.9,,,TRUE,,,,,,,CLR,,,,,,,,VFR,0.9,27.2,21.7,,,,,,,,,METAR,179.0
KSGF 222352Z 17019G32KT 10SM CLR 23/12 A2969 RMK AO2 PK WND 17036/2325 SLP045 T02280117 10267 20222 53010 $,KSGF,2022-10-22T23:52:00Z,37.23,-93.38,22.8,11.7,170,19,32,10.0,29.68996,1004.5,,,TRUE,TRUE,,,,,,CLR,,,,,,,,VFR,1.0,26.7,22.2,,,,,,,,,METAR,387.0
KSBD 222352Z 24012G18KT 6SM HZ OVC040 20/10 A2974,KSBD,2022-10-22T23:52:00Z,34.08,-117.25,20.0,10.0,240,12,18,6.0,29.740158,,,,,,,,,,HZ,OVC,4000,,,,,,,VFR,,,,,,,,,,,,METAR,353.0
KREO 222352Z AUTO 29008KT 07/M02 A2967 RMK AO1 SLP042 T00671017 10100 20067 52013,KREO,2022-10-22T23:52:00Z,42.58,-117.87,6.7,-1.7,290,8,,,29.66929,1004.2,,TRUE,TRUE,,,,,,,,,,,,,,,,1.3,10.0,6.7,,,,,,,,,METAR,1237.0
KRAP 222352Z 06005KT 10SM CLR 12/03 A2941 RMK AO2 SLP956 T01170033 10183 20117 53007 $,KRAP,2022-10-22T23:52:00Z,44.05,-103.05,11.7,3.3,60,5,,10.0,29.409449,995.6,,,TRUE,TRUE,,,,,,CLR,,,,,,,,VFR,0.7,18.3,11.7,,,,,,,,,METAR,965.0
KPYM 222352Z AUTO 00000KT 10SM CLR 09/06 A3030 RMK AO2 SLP264 T00940061 10200 20089 53010,KPYM,2022-10-22T23:52:00Z,41.92,-70.73,9.4,6.1,0,0,,10.0,30.301182,1026.4,,TRUE,TRUE,,,,,,,CLR,,,,,,,,VFR,1.0,20.0,8.9,,,,,,,,,METAR,42.0
KPWK 222352Z 17013G21KT 10SM CLR 23/11 A2983 RMK AO2 PK WND 18026/2304 SLP098 T02280111 10261 20228 53013,KPWK,2022-10-22T23:52:00Z,42.12,-87.9,22.8,11.1,170,13,21,10.0,29.828741,1009.8,,,TRUE,,,,,,,CLR,,,,,,,,VFR,1.3,26.1,22.8,,,,,,,,,METAR,194.0
KPPF 222352Z AUTO 17009KT 10SM CLR 26/12 A2960 RMK AO2 PK WND 19029/2256 SLP015 T02610122 10289 20256 53010 PWINO $,KPPF,2022-10-22T23:52:00Z,37.33,-95.5,26.1,12.2,170,9,,10.0,29.601377,1001.5,,TRUE,TRUE,TRUE,,,,TRUE,,CLR,,,,,,,,VFR,1.0,28.9,25.6,,,,,,,,,METAR,265.0
KP69 222352Z AUTO 00000KT 07/06 A2969 RMK AO1 SLP062 60007 T00670056 10078 20067 51024,KP69,2022-10-22T23:52:00Z,46.15,-115.6,6.7,5.6,0,0,,,29.68996,1006.2,,TRUE,TRUE,,,,,,,,,,,,,,,,2.4,7.8,6.7,,,,,0.07,,,,METAR,447.0
KORE 222352Z AUTO 00000KT 10SM CLR 08/05 A3029 RMK AO2 SLP263 T00780050 10194 20078 53011,KORE,2022-10-22T23:52:00Z,42.57,-72.28,7.8,5.0,0,0,,10.0,30.28937,1026.3,,TRUE,TRUE,,,,,,,CLR,,,,,,,,VFR,1.1,19.4,7.8,,,,,,,,,METAR,165.0
KOMA 222352Z 17012KT 10SM CLR 23/09 A2951 RMK AO2 SLP989 T02330089 10272 20233 53010,KOMA,2022-10-22T23:52:00Z,41.32,-95.9,23.3,8.9,170,12,,10.0,29.509842,998.9,,,TRUE,,,,,,,CLR,,,,,,,,VFR,1.0,27.2,23.3,,,,,,,,,METAR,299.0
KOKC 222352Z 21010KT 10SM FEW200 FEW250 28/04 A2957 RMK AO2 PK WND 20031/2306 SLP997 T02830044 10328 20283 53005,KOKC,2022-10-22T23:52:00Z,35.38,-97.6,28.3,4.4,210,10,,10.0,29.568897,999.7,,,TRUE,,,,,,,FEW,20000,FEW,25000,,,,,VFR,0.5,32.8,28.3,,,,,,,,,METAR,391.0
KOKB 222352Z AUTO 24009KT 8SM FEW023 OVC041 19/13 A2977 RMK AO2 SLP081 T01940133 10228 20194 56005,KOKB,2022-10-22T23:52:00Z,33.22,-117.35,19.4,13.3,240,9,,8.0,29.769686,1008.1,,TRUE,TRUE,,,,,,,FEW,2300,OVC,4100,,,,,VFR,-0.5,22.8,19.4,,,,,,,,,METAR,7.0
KNZY 222352Z 24007KT 10SM BKN026 OVC036 19/13 A2979 RMK AO2 SLP087 T01940128 10206 20194 55007,KNZY,2022-10-22T23:52:00Z,32.7,-117.22,19.4,12.8,240,7,,10.0,29.790354,1008.7,,,TRUE,,,,,,,BKN,2600,OVC,3600,,,,,MVFR,-0.7,20.6,19.4,,,,,,,,,METAR,4.0
KNRB 222352Z AUTO 02010KT 10SM CLR A3009 RMK AO2 SLP190 55000 $,KNRB,2022-10-22T23:52:00Z,30.38,-81.42,,,20,10,,10.0,30.088583,1019.0,,TRUE,TRUE,TRUE,,,,,,CLR,,,,,,,,VFR,0.0,,,,,,,,,,,METAR,4.0
KNHK 222352Z AUTO 22003KT 10SM CLR 12/09 A3024 RMK AO2 SLP238 T01220094 10200 20117 53003 $,KNHK,2022-10-22T23:52:00Z,38.28,-76.4,12.2,9.4,220,3,,10.0,30.239174,1023.8,,TRUE,TRUE,TRUE,,,,,,CLR,,,,,,,,VFR,0.3,20.0,11.7,,,,,,,,,METAR,5.0
KNFW 222352Z AUTO 17018G29KT 10SM CLR A2972 RMK AO2 PK WND 19030/2307 SLP051 53003 TSNO $,KNFW,2022-10-22T23:52:00Z,32.78,-97.43,,,170,18,29,10.0,29.719488,1005.1,,TRUE,TRUE,TRUE,,TRUE,,,,CLR,,,,,,,,VFR,0.3,,,,,,,,,,,METAR,188.0
KN60 222352Z AUTO 04007KT 08/07 A2952 RMK AO1 SLP007 T00830067 10100 20072 53009,KN60,2022-10-22T23:52:00Z,47.65,-101.43,8.3,6.7,40,7,,,29.518702,1000.7,,TRUE,TRUE,,,,,,,,,,,,,,,,0.9,10.0,7.2,,,,,,,,,METAR,582.0
KMWH 222352Z 22008KT 10SM FEW095 13/M01 A2964 RMK AO2 SLP040 T01281011 10150 20100 53008,KMWH,2022-10-22T23:52:00Z,47.2,-119.32,12.8,-1.1,220,8,,10.0,29.639763,1004.0,,,TRUE,,,,,,,FEW,9500,,,,,,,VFR,0.8,15.0,10.0,,,,,,,,,METAR,355.0
KMLI 222352Z 15011KT 10SM CLR 23/10 A2969 RMK AO2 SLP051 T02280100 10289 20228 53008,KMLI,2022-10-22T23:52:00Z,41.45,-90.52,22.8,10.0,150,11,,10.0,29.68996,1005.1,,,TRUE,,,,,,,CLR,,,,,,,,VFR,0.8,28.9,22.8,,,,,,,,,METAR,174.0
KMLF 222352Z AUTO 22029G53KT 8SM -RA FEW050 OVC075 14/03 A2953 RMK AO2 PK WND 23053/2345 RAB47 PRESRR SLP962 P0000 60000 T01440033 10183 20144 $,KMLF,2022-10-22T23:52:00Z,38.42,-113.02,14.4,3.3,220,29,53,8.0,29.530512,996.2,,TRUE,TRUE,TRUE,,,,,-RA,FEW,5000,OVC,7500,,,,,VFR,,18.3,14.4,,,0.005,,0.005,,,,METAR,1537.0
KMKE 222352Z 17010KT 10SM FEW250 21/11 A2978 RMK AO2 SLP084 T02060106 10250 20200 53014,KMKE,2022-10-22T23:52:00Z,42.95,-87.9,20.6,10.6,170,10,,10.0,29.778543,1008.4,,,TRUE,,,,,,,FEW,25000,,,,,,,VFR,1.4,25.0,20.0,,,,,,,,,METAR,203.0
KMHK 222352Z 17006KT 10SM CLR 24/07 A2949 RMK AO2 SLP981 T02440067 10300 20244 53008,KMHK,2022-10-22T23:52:00Z,39.13,-96.68,24.4,6.7,170,6,,10.0,29.489174,998.1,,,TRUE,,,,,,,CLR,,,,,,,,VFR,0.8,30.0,24.4,,,,,,,,,METAR,320.0
KMFD 222352Z 15008KT 10SM CLR 18/09 A3009 RMK AO2 SLP188 T01780089 10228 20172 53013,KMFD,2022-10-22T23:52:00Z,40.82,-82.52,17.8,8.9,150,8,,10.0,30.088583,1018.8,,,TRUE,,,,,,,CLR,,,,,,,,VFR,1.3,22.8,17.2,,,,,,,,,METAR,394.0
KMEB 222352Z AUTO 03005KT 10SM CLR 16/09 A3016 RMK AO2 SLP211 T01610094 10250 20161 53005,KMEB,2022-10-22T23:52:00Z,34.78,-79.37,16.1,9.4,30,5,,10.0,30.159449,1021.1,,TRUE,TRUE,,,,,,,CLR,,,,,,,,VFR,0.5,25.0,16.1,,,,,,,,,METAR,65.0
KMDH 222352Z 16011G20KT 10SM CLR 22/12 A2991 RMK AO2 SLP125 T02170122 10256 20217 51007,KMDH,2022-10-22T23:52:00Z,37.78,-89.25,21.7,12.2,160,11,20,10.0,29.911417,1012.5,,,TRUE,,,,,,,CLR,,,,,,,,VFR,0.7,25.6,21.7,,,,,,,,,METAR,122.0
KMBG 222352Z AUTO 02005KT 10SM CLR 11/02 A2942 RMK AO2 SLP965 T01060017 10183 20106 53007,KMBG,2022-10-22T23:52:00Z,45.55,-100.42,10.6,1.7,20,5,,10.0,29.421259,996.5,,TRUE,TRUE,,,,,,,CLR,,,,,,,,VFR,0.7,18.3,10.6,,,,,,,,,METAR,515.0
KLWC 222352Z AUTO 17010KT 10SM CLR 25/12 A2957 RMK AO1 SLP006 T02500117 10283 20250 53010,KLWC,2022-10-22T23:52:00Z,39.02,-95.22,25.0,11.7,170,10,,10.0,29.568897,1000.6,,TRUE,TRUE,,,,,,,CLR,,,,,,,,VFR,1.0,28.3,25.0,,,,,,,,,METAR,252.0
KIOW 222352Z AUTO 14009KT 10SM CLR 23/09 A2966 RMK AO2 SLP043 60000 T02330089 10294 20233 53014,KIOW,2022-10-22T23:52:00Z,41.63,-91.55,23.3,8.9,140,9,,10.0,29.660433,1004.3,,TRUE,TRUE,,,,,,,CLR,,,,,,,,VFR,1.4,29.4,23.3,,,,,0.005,,,,METAR,199.0
KIJD 222352Z AUTO 00000KT 10SM CLR 09/07 A3031 RMK AO2 SLP263 T00940072 10194 20094 53015,KIJD,2022-10-22T23:52:00Z,41.75,-72.18,9.4,7.2,0,0,,10.0,30.31004,1026.3,,TRUE,TRUE,,,,,,,CLR,,,,,,,,VFR,1.5,19.4,9.4,,,,,,,,,METAR,73.0
KIEN 222352Z AUTO VRB06KT 10SM CLR 17/M03 A2939 RMK AO2 SLP948 T01671028 10261 20167 53001,KIEN,2022-10-22T23:52:00Z,43.03,-102.52,16.7,-2.8,0,6,,10.0,29.388779,994.8,,TRUE,TRUE,,,,,,,CLR,,,,,,,,VFR,0.1,26.1,16.7,,,,,,,,,METAR,1002.0
KIAD 222352Z 12004KT 10SM CLR 13/04 A3023 RMK AO2 SLP237 T01280044 10217 20100 53007,KIAD,2022-10-22T23:52:00Z,38.93,-77.45,12.8,4.4,120,4,,10.0,30.230314,1023.7,,,TRUE,,,,,,,CLR,,,,,,,,VFR,0.7,21.7,10.0,,,,,,,,,METAR,90.0
KHUT 222352Z 13005KT 10SM CLR 19/M01 A2948 RMK AO2 SLP967 T01941011 10289 20194 50003,KHUT,2022-10-22T23:52:00Z,38.07,-97.87,19.4,-1.1,130,5,,10.0,29.480314,996.7,,,TRUE,,,,,,,CLR,,,,,,,,VFR,0.3,28.9,19.4,,,,,,,,,METAR,464.0
KHRL 222352Z 15016KT 10SM SCT038 26/19 A2986 RMK AO2 SLP111 T02610189 10322 20261 53005,KHRL,2022-10-22T23:52:00Z,26.23,-97.65,26.1,18.9,150,16,,10.0,29.861221,1011.1,,,TRUE,,,,,,,SCT,3800,,,,,,,VFR,0.5,32.2,26.1,,,,,,,,,METAR,9.0
KHIE 222352Z AUTO 00000KT 10SM CLR 04/03 A3025 RMK AO2 SLP259 T00440033 10206 20044 53020,KHIE,2022-10-22T23:52:00Z,44.37,-71.55,4.4,3.3,0,0,,10.0,30.250984,1025.9,,TRUE,TRUE,,,,,,,CLR,,,,,,,,VFR,2.0,20.6,4.4,,,,,,,,,METAR,321.0
KGLS 222352Z AUTO 15012KT 10SM FEW040 SCT055 24/18 A2993 RMK AO2 SLP136 T02440183 10283 20244 58006,KGLS,2022-10-22T23:52:00Z,29.27,-94.87,24.4,18.3,150,12,,10.0,29.929134,1013.6,,TRUE,TRUE,,,,,,,FEW,4000,SCT,5500,,,,,VFR,-0.6,28.3,24.4,,,,,,,,,METAR,2.0
KFWS 222352Z 16013G22KT 10SM CLR 27/12 A2975,KFWS,2022-10-22T23:52:00Z,32.57,-97.3,27.0,12.0,160,13,22,10.0,29.749016,,,,,,,,,,,CLR,,,,,,,,VFR,,,,,,,,,,,,METAR,211.0
KFIT 222352Z AUTO 00000KT 10SM CLR 09/04 A3029 RMK AO2 SLP260 T00940044 10217 20089 53014,KFIT,2022-10-22T23:52:00Z,42.55,-71.75,9.4,4.4,0,0,,10.0,30.28937,1026.0,,TRUE,TRUE,,,,,,,CLR,,,,,,,,VFR,1.4,21.7,8.9,,,,,,,,,METAR,102.0
KEST 222352Z AUTO 17010KT 10SM CLR 21/07 A2953 RMK AO2 SLP000 T02110067 10267 20206 53014,KEST,2022-10-22T23:52:00Z,43.4,-94.75,21.1,6.7,170,10,,10.0,29.530512,1000.0,,TRUE,TRUE,,,,,,,CLR,,,,,,,,VFR,1.4,26.7,20.6,,,,,,,,,METAR,401.0
KDVN 222352Z AUTO 15013G21KT 10SM CLR 23/10 A2971 RMK AO2 PK WND 14026/2303 SLP052 T02330100 10283 20233 53008,KDVN,2022-10-22T23:52:00Z,41.62,-90.58,23.3,10.0,150,13,21,10.0,29.71063,1005.2,,TRUE,TRUE,,,,,,,CLR,,,,,,,,VFR,0.8,28.3,23.3,,,,,,,,,METAR,227.0
KDPA 222352Z 17009KT 10SM CLR 21/11 A2981 RMK AO2 SLP093 T02110111 10261 20206 53014,KDPA,2022-10-22T23:52:00Z,41.88,-88.25,21.1,11.1,170,9,,10.0,29.811024,1009.3,,,TRUE,,,,,,,CLR,,,,,,,,VFR,1.4,26.1,20.6,,,,,,,,,METAR,228.0
KDDC 222352Z AUTO 19007KT 10SM CLR 22/M04 A2948 RMK AO2 SLP966 T02221044 10306 20222 53002,KDDC,2022-10-22T23:52:00Z,37.77,-99.97,22.2,-4.4,190,7,,10.0,29.480314,996.6,,TRUE,TRUE,,,,,,,CLR,,,,,,,,VFR,0.2,30.6,22.2,,,,,,,,,METAR,786.0
KDCA 222352Z 00000KT 10SM BKN250 16/06 A3024 RMK AO2 SLP242 T01610056 10222 20161 53009 $,KDCA,2022-10-22T23:52:00Z,38.85,-77.03,16.1,5.6,0,0,,10.0,30.239174,1024.2,,,TRUE,TRUE,,,,,,BKN,25000,,,,,,,VFR,0.9,22.2,16.1,,,,,,,,,METAR,4.0
KCVG 222352Z COR 19005KT 10SM SCT250 19/09 A3005 RMK AO2 SLP172 T01890089 10256 20183 53013,KCVG,2022-10-22T23:52:00Z,39.05,-84.67,18.9,8.9,190,5,,10.0,30.050198,1017.2,TRUE,,TRUE,,,,,,,SCT,25000,,,,,,,VFR,1.3,25.6,18.3,,,,,,,,,METAR,264.0
KCQX 222352Z AUTO 00000KT 10SM CLR 10/08 A3031 RMK AO2 SLP266 T01000083 10183 20100 53006,KCQX,2022-10-22T23:52:00Z,41.68,-70.0,10.0,8.3,0,0,,10.0,30.31004,1026.6,,TRUE,TRUE,,,,,,,CLR,,,,,,,,VFR,0.6,18.3,10.0,,,,,,,,,METAR,17.0
KCNU 222352Z AUTO 17015G23KT 10SM CLR 27/13 A2959 RMK AO2 PK WND 18031/2253 SLP010 T02670128 10289 20261 53011 $,KCNU,2022-10-22T23:52:00Z,37.67,-95.48,26.7,12.8,170,15,23,10.0,29.589567,1001.0,,TRUE,TRUE,TRUE,,,,,,CLR,,,,,,,,VFR,1.1,28.9,26.1,,,,,,,,,METAR,301.0
KCLT 222352Z 36005KT 10SM FEW250 16/03 A3016 RMK SLP214 T01560033 10228 20150 55000 $,KCLT,2022-10-22T23:52:00Z,35.22,-80.95,15.6,3.3,360,5,,10.0,30.159449,1021.4,,,,TRUE,,,,,,FEW,25000,,,,,,,VFR,0.0,22.8,15.0,,,,,,,,,METAR,223.0
KCKV 222352Z AUTO 15004KT 10SM CLR 20/11 A3002 RMK AO2 SLP163 T02000106 10256 20200 53006,KCKV,2022-10-22T23:52:00Z,36.62,-87.42,20.0,10.6,150,4,,10.0,30.02067,1016.3,,TRUE,TRUE,,,,,,,CLR,,,,,,,,VFR,0.6,25.6,20.0,,,,,,,,,METAR,166.0
KCID 222352Z 15013KT 10SM CLR 24/08 A2963 RMK AO2 SLP031 T02390083 10289 20233 53015 $,KCID,2022-10-22T23:52:00Z,41.88,-91.72,23.9,8.3,150,13,,10.0,29.630905,1003.1,,,TRUE,TRUE,,,,,,CLR,,,,,,,,VFR,1.5,28.9,23.3,,,,,,,,,METAR,257.0
KCFV 222352Z AUTO 17013G26KT 10SM -RA CLR 26/13 A2959 RMK AO2 PK WND 16029/2309 RAB2256 SLP011 P0000 60000 T02610133 10289 20261 53014,KCFV,2022-10-22T23:52:00Z,37.08,-95.57,26.1,13.3,170,13,26,10.0,29.589567,1001.1,,TRUE,TRUE,,,,,,-RA,CLR,,,,,,,,VFR,1.4,28.9,26.1,,,0.005,,0.005,,,,METAR,228.0
KBML 222352Z AUTO 14003KT 10SM CLR 06/04 A3025 RMK AO2 SLP258 T00610039 10217 20061 53021,KBML,2022-10-22T23:52:00Z,44.58,-71.18,6.1,3.9,140,3,,10.0,30.250984,1025.8,,TRUE,TRUE,,,,,,,CLR,,,,,,,,VFR,2.1,21.7,6.1,,,,,,,,,METAR,344.0
KBLU 222352Z AUTO 04011G20KT 5SM -RA FEW036 OVC043 04/M01 A2978 RMK AO2 RAB03E12B48 SLP056 P0000 60000 T00391006 10100 20039 53005 $,KBLU,2022-10-22T23:52:00Z,39.28,-120.7,3.9,-0.6,40,11,20,5.0,29.778543,1005.6,,TRUE,TRUE,TRUE,,,,,-RA,FEW,3600,OVC,4300,,,,,MVFR,0.5,10.0,3.9,,,0.005,,0.005,,,,METAR,1605.0
KBLH 222352Z AUTO 23020G26KT 10SM CLR 30/07 A2955 RMK AO2 PK WND 23027/2325 SLP002 T03000072 10317 20278 56018 TSNO,KBLH,2022-10-22T23:52:00Z,33.62,-114.72,30.0,7.2,230,20,26,10.0,29.551182,1000.2,,TRUE,TRUE,,,TRUE,,,,CLR,,,,,,,,VFR,-1.8,31.7,27.8,,,,,,,,,METAR,119.0
KBLF 222352Z AUTO 09003KT 10SM CLR 14/M01 A3021 RMK AO2 SLP223 T01441011 10194 20144 51006,KBLF,2022-10-22T23:52:00Z,37.3,-81.2,14.4,-1.1,90,3,,10.0,30.209646,1022.3,,TRUE,TRUE,,,,,,,CLR,,,,,,,,VFR,0.6,19.4,14.4,,,,,,,,,METAR,871.0
KBKB 222352Z AUTO 10SM CLR 23/14 A2993 RMK AO2 SLP161 T02330144 10294 20233 53003,KBKB,2022-10-22T23:52:00Z,31.02,-92.92,23.3,14.4,,,,10.0,29.929134,1016.1,,TRUE,TRUE,,,,,,,CLR,,,,,,,,VFR,0.3,29.4,23.3,,,,,,,,,METAR,74.0
KBIS 222352Z 05007KT 10SM CLR 12/03 A2949 RMK AO2 SLP991 T01170028 10128 20100 53007,KBIS,2022-10-22T23:52:00Z,46.77,-100.75,11.7,2.8,50,7,,10.0,29.489174,999.1,,,TRUE,,,,,,,CLR,,,,,,,,VFR,0.7,12.8,10.0,,,,,,,,,METAR,506.0
KBDR 222352Z 00000KT 10SM CLR 12/08 A3029 RMK AO2 SLP255 T01170083 10183 20111 53008,KBDR,2022-10-22T23:52:00Z,41.17,-73.13,11.7,8.3,0,0,,10.0,30.28937,1025.5,,,TRUE,,,,,,,CLR,,,,,,,,VFR,0.8,18.3,11.1,,,,,,,,,METAR,5.0
KATL 222352Z 15003KT 10SM SCT200 BKN250 17/04 A3013 RMK AO2 SLP204 T01670039 10233 20167 55002,KATL,2022-10-22T23:52:00Z,33.63,-84.45,16.7,3.9,150,3,,10.0,30.129921,1020.4,,,TRUE,,,,,,,SCT,20000,BKN,25000,,,,,VFR,-0.2,23.3,16.7,,,,,,,,,METAR,309.0
KARR 222352Z 15008KT 10SM CLR 21/11 A2981 RMK AO2 SLP093 T02060106 10261 20206 53014,KARR,2022-10-22T23:52:00Z,41.77,-88.48,20.6,10.6,150,8,,10.0,29.811024,1009.3,,,TRUE,,,,,,,CLR,,,,,,,,VFR,1.4,26.1,20.6,,,,,,,,,METAR,213.0
KAQW 222352Z AUTO 16003KT 10SM CLR 08/04 A3027 RMK AO2 SLP257 T00780039 10217 20072 53018,KAQW,2022-10-22T23:52:00Z,42.7,-73.17,7.8,3.9,160,3,,10.0,30.268702,1025.7,,TRUE,TRUE,,,,,,,CLR,,,,,,,,VFR,1.8,21.7,7.2,,,,,,,,,METAR,196.0
KALS 222352Z AUTO 25010KT 10SM CLR 15/M02 A2976 RMK AO2 PK WND 27030/2307 SLP038 T01501022 10189 20150 58006,KALS,2022-10-22T23:52:00Z,37.43,-105.87,15.0,-2.2,250,10,,10.0,29.760826,1003.8,,TRUE,TRUE,,,,,,,CLR,,,,,,,,VFR,-0.6,18.9,15.0,,,,,,,,,METAR,2299.0
KAFN 222352Z AUTO 16003KT 10SM CLR 08/04 A3029 RMK AO2 SLP269 T00780044 10200 20078 53012,KAFN,2022-10-22T23:52:00Z,42.8,-72.0,7.8,4.4,160,3,,10.0,30.28937,1026.9,,TRUE,TRUE,,,,,,,CLR,,,,,,,,VFR,1.2,20.0,7.8,,,,,,,,,METAR,308.0
KABQ 222352Z 20017G29KT 10SM FEW090 SCT150 BKN250 23/06 A2975 RMK AO2 PK WND 19029/2349 SLP008 T02280056 10239 20189 56016,KABQ,2022-10-22T23:52:00Z,35.05,-106.62,22.8,5.6,200,17,29,10.0,29.749016,1000.8,,,TRUE,,,,,,,FEW,9000,SCT,15000,BKN,25000,,,VFR,-1.6,23.9,18.9,,,,,,,,,METAR,1620.0
KABI 222352Z 20011G20KT 10SM CLR 29/12 A2972 RMK AO2 SLP037 T02940117 10317 20272 56006,KABI,2022-10-22T23:52:00Z,32.42,-99.68,29.4,11.7,200,11,20,10.0,29.719488,1003.7,,,TRUE,,,,,,,CLR,,,,,,,,VFR,-0.6,31.7,27.2,,,,,,,,,METAR,543.0
PTYA 222351Z VRB04KT 12SM SCT016CB BKN130 OVC300 30/26 A2981 RMK CB ALQDS SLP095 8/371 T02990261 10299 20252 52020,PTYA,2022-10-22T23:51:00Z,9.48,138.08,29.9,26.1,0,4,,12.0,29.811024,1009.5,,,,,,,,,,SCT,1600,BKN,13000,OVC,30000,,,VFR,2.0,29.9,25.2,,,,,,,,,METAR,4.0
PTTP 222351Z 05005KT 15SM SCT018TCU BKN130 OVC300 29/24 A2983 RMK TCU N SLP102 60007 8/221 T02900243 10302 20246 50002,PTTP,2022-10-22T23:51:00Z,6.97,158.22,29.0,24.3,50,5,,15.0,29.828741,1010.2,,,,,,,,,,SCT,1800,BKN,13000,OVC,30000,,,VFR,0.2,30.2,24.6,,,,,0.07,,,,METAR,36.0
PHBK 222351Z AUTO 31007KT 10SM CLR 30/22 A2998 RMK AO2 SLP153 T03000217 10306 20267 58020,PHBK,2022-10-22T23:51:00Z,22.03,-159.78,30.0,21.7,310,7,,10.0,29.97933,1015.3,,TRUE,TRUE,,,,,,,CLR,,,,,,,,VFR,-2.0,30.6,26.7,,,,,,,,,METAR,5.0
PAMD 222351Z AUTO 12005KT 10SM SCT035 08/01 A2975 RMK AO2 SLP061 6//// T00830011 10094 20072 56021 PNO $,PAMD,2022-10-22T23:51:00Z,59.43,-146.3,8.3,1.1,120,5,,10.0,29.749016,1006.1,,TRUE,TRUE,TRUE,,,,,,SCT,3500,,,,,,,VFR,-2.1,9.4,7.2,,,,,,,,,METAR,20.0
MUGM 222351Z 33010KT 10SM FEW050 BKN200 24/22 A2993 RMK AO2 WSHFT 2301 SLP135 T02440222 10317 20239 51018 $,MUGM,2022-10-22T23:51:00Z,19.9,-75.2,24.4,22.2,330,10,,10.0,29.929134,1013.5,,,TRUE,TRUE,,,,,,FEW,5000,BKN,20000,,,,,VFR,1.8,31.7,23.9,,,,,,,,,METAR,21.0
MMAA 222351Z 27005KT 8SM SCT015 SCT300 28/23 A2984 RMK SLP101 57002 900 8/101 HZY DSNT TCU E N,MMAA,2022-10-22T23:51:00Z,16.75,-99.75,28.0,23.0,270,5,,8.0,29.840551,1010.1,,,,,,,,,,SCT,1500,SCT,30000,,,,,VFR,-0.2,,,,,,,,,,,METAR,5.0
KYNG 222351Z 14007KT 10SM FEW250 18/07 A3014 RMK AO2 SLP206 T01780072 10228 20178 53015,KYNG,2022-10-22T23:51:00Z,41.25,-80.67,17.8,7.2,140,7,,10.0,30.138779,1020.6,,,TRUE,,,,,,,FEW,25000,,,,,,,VFR,1.5,22.8,17.8,,,,,,,,,METAR,356.0
KVNY 222351Z 19008KT 10SM BKN030 BKN050 19/12 A2974 RMK AO2 SLP063 T01940117 10228 20189 56008 $,KVNY,2022-10-22T23:51:00Z,34.22,-118.48,19.4,11.7,190,8,,10.0,29.740158,1006.3,,,TRUE,TRUE,,,,,,BKN,3000,BKN,5000,,,,,MVFR,-0.8,22.8,18.9,,,,,,,,,METAR,241.0
KVCT 222351Z 16015KT 10SM CLR 26/18 A2990 RMK AO2 SLP121 T02560178 10317 20256 51007,KVCT,2022-10-22T23:51:00Z,28.87,-96.93,25.6,17.8,160,15,,10.0,29.899607,1012.1,,,TRUE,,,,,,,CLR,,,,,,,,VFR,0.7,31.7,25.6,,,,,,,,,METAR,33.0
KTPL 222351Z AUTO 16015KT 10SM CLR 27/14 A2980 RMK AO2 SLP083 T02720139 10300 20267 55000,KTPL,2022-10-22T23:51:00Z,31.15,-97.4,27.2,13.9,160,15,,10.0,29.799213,1008.3,,TRUE,TRUE,,,,,,,CLR,,,,,,,,VFR,0.0,30.0,26.7,,,,,,,,,METAR,206.0
KTEB 222351Z 00000KT 10SM CLR 13/06 A3027 RMK AO2 SLP249 T01280056 10200 20117 53010,KTEB,2022-10-22T23:51:00Z,40.87,-74.05,12.8,5.6,0,0,,10.0,30.268702,1024.9,,,TRUE,,,,,,,CLR,,,,,,,,VFR,1.0,20.0,11.7,,,,,,,,,METAR,3.0
KSTL 222351Z 17019G30KT 10SM SCT130 BKN200 23/11 A2980 RMK AO2 PK WND 20035/2323 SLP083 T02330111 10289 20233 55000 $,KSTL,2022-10-22T23:51:00Z,38.75,-90.37,23.3,11.1,170,19,30,10.0,29.799213,1008.3,,,TRUE,TRUE,,,,,,SCT,13000,BKN,20000,,,,,VFR,0.0,28.9,23.3,,,,,,,,,METAR,163.0
KSNT 222351Z AUTO 33005KT 01/M03 A2955 RMK AO1 SLP973 60004 T00111033 10050 20000 51014,KSNT,2022-10-22T23:51:00Z,44.17,-114.93,1.1,-3.3,330,5,,,29.551182,997.3,,TRUE,TRUE,,,,,,,,,,,,,,,,1.4,5.0,0.0,,,,,0.04,,,,METAR,1980.0
KSMX 222351Z 31014KT 10SM BKN019 17/12 A2978 RMK AO2 SLP088 T01670122 10189 20161 56009,KSMX,2022-10-22T23:51:00Z,34.9,-120.45,16.7,12.2,310,14,,10.0,29.778543,1008.8,,,TRUE,,,,,,,BKN,1900,,,,,,,MVFR,-0.9,18.9,16.1,,,,,,,,,METAR,73.0
KSMO 222351Z 23007KT 10SM FEW021 OVC036 18/13 A2975 RMK AO2 SLP072 T01830128 10194 20183 56012,KSMO,2022-10-22T23:51:00Z,34.02,-118.45,18.3,12.8,230,7,,10.0,29.749016,1007.2,,,TRUE,,,,,,,FEW,2100,OVC,3600,,,,,VFR,-1.2,19.4,18.3,,,,,,,,,METAR,56.0
KSLK 222351Z AUTO 00000KT 10SM CLR 08/04 A3020 RMK AO2 SLP240 T00830039 10206 20083 53018,KSLK,2022-10-22T23:51:00Z,44.4,-74.2,8.3,3.9,0,0,,10.0,30.200787,1024.0,,TRUE,TRUE,,,,,,,CLR,,,,,,,,VFR,1.8,20.6,8.3,,,,,,,,,METAR,502.0
KSJT 222351Z 20009KT 10SM CLR 27/11 A2976 RMK AO2 SLP057 T02720111 10322 20272 50000,KSJT,2022-10-22T23:51:00Z,31.37,-100.5,27.2,11.1,200,9,,10.0,29.760826,1005.7,,,TRUE,,,,,,,CLR,,,,,,,,VFR,0.0,32.2,27.2,,,,,,,,,METAR,582.0
KSAT 222351Z 17013KT 10SM SCT250 28/13 A2985 RMK AO2 SLP091 T02830133 10300 20272 53000,KSAT,2022-10-22T23:51:00Z,29.53,-98.48,28.3,13.3,170,13,,10.0,29.84941,1009.1,,,TRUE,,,,,,,SCT,25000,,,,,,,VFR,0.0,30.0,27.2,,,,,,,,,METAR,246.0
KSAN 222351Z 23009KT 10SM BKN029 OVC036 20/12 A2981 RMK AO2 SLP094 T02000122 10211 20194 55007,KSAN,2022-10-22T23:51:00Z,32.73,-117.18,20.0,12.2,230,9,,10.0,29.811024,1009.4,,,TRUE,,,,,,,BKN,2900,OVC,3600,,,,,MVFR,-0.7,21.1,19.4,,,,,,,,,METAR,3.0
KSAD 222351Z AUTO 15005KT 10SM CLR 26/11 A2969 RMK AO2 SLP011 T02610106 10283 20256 56016,KSAD,2022-10-22T23:51:00Z,32.85,-109.63,26.1,10.6,150,5,,10.0,29.68996,1001.1,,TRUE,TRUE,,,,,,,CLR,,,,,,,,VFR,-1.6,28.3,25.6,,,,,,,,,METAR,937.0
KROW 222351Z 19007KT 10SM CLR 23/14 A2974 RMK AO2 SLP021 T02280139 10272 20228 56006,KROW,2022-10-22T23:51:00Z,33.3,-104.5,22.8,13.9,190,7,,10.0,29.740158,1002.1,,,TRUE,,,,,,,CLR,,,,,,,,VFR,-0.6,27.2,22.8,,,,,,,,,METAR,1105.0
KRDU 222351Z 06004KT 10SM FEW250 16/10 A3019 RMK AO2 SLP221 T01560100 10233 20150 53003,KRDU,2022-10-22T23:51:00Z,35.9,-78.78,15.6,10.0,60,4,,10.0,30.188976,1022.1,,,TRUE,,,,,,,FEW,25000,,,,,,,VFR,0.3,23.3,15.0,,,,,,,,,METAR,121.0
KPWM 222351Z 21005KT 10SM FEW250 13/09 A3028 RMK AO2 SLP254 T01280094 10167 20128 53013,KPWM,2022-10-22T23:51:00Z,43.65,-70.3,12.8,9.4,210,5,,10.0,30.280512,1025.4,,,TRUE,,,,,,,FEW,25000,,,,,,,VFR,1.3,16.7,12.8,,,,,,,,,METAR,15.0
KPVD 222351Z 26003KT 10SM SCT200 BKN250 12/10 A3031 RMK AO2 SLP264 T01220100 10189 20117 53012 $,KPVD,2022-10-22T23:51:00Z,41.72,-71.43,12.2,10.0,260,3,,10.0,30.31004,1026.4,,,TRUE,TRUE,,,,,,SCT,20000,BKN,25000,,,,,VFR,1.2,18.9,11.7,,,,,,,,,METAR,15.0
KPIT 222351Z 15003KT 10SM FEW250 17/04 A3015 RMK AO2 SLP221 T01670044 10217 20161 53012,KPIT,2022-10-22T23:51:00Z,40.47,-80.2,16.7,4.4,150,3,,10.0,30.15059,1022.1,,,TRUE,,,,,,,FEW,25000,,,,,,,VFR,1.2,21.7,16.1,,,,,,,,,METAR,339.0
KPHX 222351Z 25015G22KT 10SM FEW070 BKN085 BKN250 31/11 A2957 RMK AO2 SLP997 T03110106 10322 20278 56018 $,KPHX,2022-10-22T23:51:00Z,33.43,-112.02,31.1,10.6,250,15,22,10.0,29.568897,999.7,,,TRUE,TRUE,,,,,,FEW,7000,BKN,8500,BKN,25000,,,VFR,-1.8,32.2,27.8,,,,,,,,,METAR,338.0
KP59 222351Z AUTO VRB03KT 09/07 A2972 RMK AO1 SLP069 T00890072 10144 20089 53012 $,KP59,2022-10-22T23:51:00Z,47.47,-87.88,8.9,7.2,0,3,,,29.719488,1006.9,,TRUE,TRUE,TRUE,,,,,,,,,,,,,,,1.2,14.4,8.9,,,,,,,,,METAR,185.0
KOXC 222351Z 00000KT 10SM CLR 11/07 A3029 RMK AO2 SLP274 T01110067 10183 20106 51009,KOXC,2022-10-22T23:51:00Z,41.47,-73.13,11.1,6.7,0,0,,10.0,30.28937,1027.4,,,TRUE,,,,,,,CLR,,,,,,,,VFR,0.9,18.3,10.6,,,,,,,,,METAR,211.0
KORF 222351Z 05008KT 10SM CLR 16/12 A3021 RMK AO2 SLP229 T01610117 10194 20156 53002,KORF,2022-10-22T23:51:00Z,36.9,-76.2,16.1,11.7,50,8,,10.0,30.209646,1022.9,,,TRUE,,,,,,,CLR,,,,,,,,VFR,0.2,19.4,15.6,,,,,,,,,METAR,5.0
KORD 222351Z 18014G21KT 10SM FEW300 23/11 A2982 RMK AO2 SLP094 T02280111 10261 20228 53014,KORD,2022-10-22T23:51:00Z,41.95,-87.93,22.8,11.1,180,14,21,10.0,29.819881,1009.4,,,TRUE,,,,,,,FEW,30000,,,,,,,VFR,1.4,26.1,22.8,,,,,,,,,METAR,202.0
KOCF 222351Z 05004KT 10SM CLR 21/14 A3008 RMK AO2 SLP186 6//// T02060139 10261 20206 402610061 53007 PNO $,KOCF,2022-10-22T23:51:00Z,29.17,-82.22,20.6,13.9,50,4,,10.0,30.079725,1018.6,,,TRUE,TRUE,,,,,,CLR,,,,,,,,VFR,0.7,26.1,20.6,26.1,6.1,,,,,,,METAR,24.0
KNYC 222351Z AUTO 00000KT 10SM CLR 14/05 A3030 RMK AO2 SLP252 T01390050 10189 20139 52007 $,KNYC,2022-10-22T23:51:00Z,40.78,-73.97,13.9,5.0,0,0,,10.0,30.301182,1025.2,,TRUE,TRUE,TRUE,,,,,,CLR,,,,,,,,VFR,0.7,18.9,13.9,,,,,,,,,METAR,33.0
KMYL 222351Z AUTO 30005KT 10SM FEW034 BKN048 04/M02 A2957 RMK AO2 SLP013 60000 T00391022 10061 20022 53017,KMYL,2022-10-22T23:51:00Z,44.9,-116.1,3.9,-2.2,300,5,,10.0,29.568897,1001.3,,TRUE,TRUE,,,,,,,FEW,3400,BKN,4800,,,,,VFR,1.7,6.1,2.2,,,,,0.005,,,,METAR,1532.0
KMPV 222351Z AUTO 14003KT 10SM -RA CLR 13/03 A3028 RMK AO2 RAB25 SLP261 P0000 60000 T01280028 10206 20100 53019,KMPV,2022-10-22T23:51:00Z,44.2,-72.57,12.8,2.8,140,3,,10.0,30.280512,1026.1,,TRUE,TRUE,,,,,,-RA,CLR,,,,,,,,VFR,1.9,20.6,10.0,,,0.005,,0.005,,,,METAR,336.0
KLGA 222351Z 13006KT 10SM FEW150 BKN250 15/06 A3027 RMK AO2 SLP251 T01500056 10194 20150 53008,KLGA,2022-10-22T23:51:00Z,40.78,-73.88,15.0,5.6,130,6,,10.0,30.268702,1025.1,,,TRUE,,,,,,,FEW,15000,BKN,25000,,,,,VFR,0.8,19.4,15.0,,,,,,,,,METAR,9.0
KJFK 222351Z 09003KT 10SM SCT150 BKN250 13/09 A3029 RMK AO2 SLP256 T01330089 10183 20117 51007,KJFK,2022-10-22T23:51:00Z,40.63,-73.77,13.3,8.9,90,3,,10.0,30.28937,1025.6,,,TRUE,,,,,,,SCT,15000,BKN,25000,,,,,VFR,0.7,18.3,11.7,,,,,,,,,METAR,3.0
KJCT 222351Z AUTO 17012G21KT 10SM CLR 27/13 A2983 RMK AO2 SLP067 T02720128 10306 20272 53002 $,KJCT,2022-10-22T23:51:00Z,30.5,-99.77,27.2,12.8,170,12,21,10.0,29.828741,1006.7,,TRUE,TRUE,TRUE,,,,,,CLR,,,,,,,,VFR,0.2,30.6,27.2,,,,,,,,,METAR,522.0
KILG 222351Z 14005KT 10SM CLR 14/11 A3026 RMK AO2 SLP246 T01390111 10200 20139 53004,KILG,2022-10-22T23:51:00Z,39.67,-75.6,13.9,11.1,140,5,,10.0,30.259842,1024.6,,,TRUE,,,,,,,CLR,,,,,,,,VFR,0.4,20.0,13.9,,,,,,,,,METAR,22.0
KIGM 222351Z AUTO 21030G41KT 10SM CLR 22/08 A2959 RMK AO2 PK WND 22043/2259 SLP963 T02220078 10250 20222 58023,KIGM,2022-10-22T23:51:00Z,35.25,-113.93,22.2,7.8,210,30,41,10.0,29.589567,996.3,,TRUE,TRUE,,,,,,,CLR,,,,,,,,VFR,-2.3,25.0,22.2,,,,,,,,,METAR,1045.0
KHTS 222351Z 12005KT 10SM CLR 19/07 A3010 RMK AO2 SLP193 T01940072 10256 20194 53009,KHTS,2022-10-22T23:51:00Z,38.37,-82.55,19.4,7.2,120,5,,10.0,30.100393,1019.3,,,TRUE,,,,,,,CLR,,,,,,,,VFR,0.9,25.6,19.4,,,,,,,,,METAR,252.0
KHSE 222351Z AUTO 03008G14KT 10SM CLR 18/14 A3012 RMK AO2 SLP200 T01830139 10200 20183 53001,KHSE,2022-10-22T23:51:00Z,35.23,-75.62,18.3,13.9,30,8,14,10.0,30.121063,1020.0,,TRUE,TRUE,,,,,,,CLR,,,,,,,,VFR,0.1,20.0,18.3,,,,,,,,,METAR,4.0
KHDO 222351Z AUTO 18009KT 10SM CLR 27/13 A2984 RMK AO2 SLP093 T02670133 10306 20267 55000,KHDO,2022-10-22T23:51:00Z,29.37,-99.17,26.7,13.3,180,9,,10.0,29.840551,1009.3,,TRUE,TRUE,,,,,,,CLR,,,,,,,,VFR,0.0,30.6,26.7,,,,,,,,,METAR,280.0
KGDP 222351Z AUTO 23023G37KT 8SM CLR 22/08 A2991 RMK AO2 PK WND 24043/2325 SLP059 T02170083 10233 20211 55002,KGDP,2022-10-22T23:51:00Z,31.83,-104.82,21.7,8.3,230,23,37,8.0,29.911417,1005.9,,TRUE,TRUE,,,,,,,CLR,,,,,,,,VFR,-0.2,23.3,21.1,,,,,,,,,METAR,1664.0
KEWR 222351Z VRB03KT 10SM FEW150 BKN250 16/09 A3028 RMK AO2 SLP251 T01560089 10206 20156 53008,KEWR,2022-10-22T23:51:00Z,40.68,-74.17,15.6,8.9,0,3,,10.0,30.280512,1025.1,,,TRUE,,,,,,,FEW,15000,BKN,25000,,,,,VFR,0.8,20.6,15.6,,,,,,,,,METAR,2.0
KERI 222351Z 16009KT 10SM CLR 18/08 A3011 RMK AO2 SLP195 T01830078 10228 20178 53016,KERI,2022-10-22T23:51:00Z,42.08,-80.18,18.3,7.8,160,9,,10.0,30.109253,1019.5,,,TRUE,,,,,,,CLR,,,,,,,,VFR,1.6,22.8,17.8,,,,,,,,,METAR,222.0
KELP 222351Z 25020G26KT 10SM FEW075 SCT180 SCT250 28/08 A2981 RMK AO2 PK WND 24029/2310 SLP023 ACSL DSNT NE T02780083 10294 20261 56008,KELP,2022-10-22T23:51:00Z,31.82,-106.35,27.8,8.3,250,20,26,10.0,29.811024,1002.3,,,TRUE,,,,,,,FEW,7500,SCT,18000,SCT,25000,,,VFR,-0.8,29.4,26.1,,,,,,,,,METAR,1205.0
KEKN 222351Z AUTO 00000KT 10SM CLR 08/03 A3019 RMK AO2 SLP241 T00830028 10228 20083 53012,KEKN,2022-10-22T23:51:00Z,38.88,-79.85,8.3,2.8,0,0,,10.0,30.188976,1024.1,,TRUE,TRUE,,,,,,,CLR,,,,,,,,VFR,1.2,22.8,8.3,,,,,,,,,METAR,596.0
KDAW 222351Z AUTO 00000KT 10SM CLR 12/07 A3027 RMK AO2 SLP249 T01220072 10211 20117 53013,KDAW,2022-10-22T23:51:00Z,43.28,-70.92,12.2,7.2,0,0,,10.0,30.268702,1024.9,,TRUE,TRUE,,,,,,,CLR,,,,,,,,VFR,1.3,21.1,11.7,,,,,,,,,METAR,100.0
KCSG 222351Z 06003KT 10SM CLR 18/06 A3011 RMK AO2 SLP193 T01830061 10244 20183 55001,KCSG,2022-10-22T23:51:00Z,32.52,-84.95,18.3,6.1,60,3,,10.0,30.109253,1019.3,,,TRUE,,,,,,,CLR,,,,,,,,VFR,-0.1,24.4,18.3,,,,,,,,,METAR,120.0
KCRP 222351Z 15017KT 10SM FEW037 SCT250 26/19 A2987 RMK AO2 PK WND 15029/2253 SLP115 T02610189 10306 20261 53004,KCRP,2022-10-22T23:51:00Z,27.77,-97.5,26.1,18.9,150,17,,10.0,29.870079,1011.5,,,TRUE,,,,,,,FEW,3700,SCT,25000,,,,,VFR,0.4,30.6,26.1,,,,,,,,,METAR,11.0
KCON 222351Z AUTO 11007KT 10SM CLR 12/04 A3027 RMK AO2 SLP254 T01170039 10211 20106 53017,KCON,2022-10-22T23:51:00Z,43.2,-71.5,11.7,3.9,110,7,,10.0,30.268702,1025.4,,TRUE,TRUE,,,,,,,CLR,,,,,,,,VFR,1.7,21.1,10.6,,,,,,,,,METAR,102.0
KCMH 222351Z 15006KT 10SM BKN250 19/09 A3008 RMK AO2 SLP185 T01940094 10244 20194 53013 $,KCMH,2022-10-22T23:51:00Z,40.0,-82.88,19.4,9.4,150,6,,10.0,30.079725,1018.5,,,TRUE,TRUE,,,,,,BKN,25000,,,,,,,VFR,1.3,24.4,19.4,,,,,,,,,METAR,257.0
KCLE 222351Z 16008KT 10SM SCT250 18/08 A3006 RMK AO2 SLP194 T01830083 10233 20183 53015 $,KCLE,2022-10-22T23:51:00Z,41.42,-81.85,18.3,8.3,160,8,,10.0,30.059055,1019.4,,,TRUE,TRUE,,,,,,SCT,25000,,,,,,,VFR,1.5,23.3,18.3,,,,,,,,,METAR,237.0
KCDJ 222351Z AUTO 19003KT 24/11 A2961 RMK AO1 SLP021 T02390106 10300 20239 53015,KCDJ,2022-10-22T23:51:00Z,39.82,-93.57,23.9,10.6,190,3,,,29.610237,1002.1,,TRUE,TRUE,,,,,,,,,,,,,,,,1.5,30.0,23.9,,,,,,,,,METAR,234.0
KCAK 222351Z 16008KT 10SM FEW250 18/08 A3012 RMK AO2 SLP200 T01780083 10233 20178 53017,KCAK,2022-10-22T23:51:00Z,40.92,-81.45,17.8,8.3,160,8,,10.0,30.121063,1020.0,,,TRUE,,,,,,,FEW,25000,,,,,,,VFR,1.7,23.3,17.8,,,,,,,,,METAR,369.0
KBKW 222351Z AUTO 14004KT 10SM CLR 15/01 A3019 RMK AO2 SLP221 T01500006 10211 20144 51007,KBKW,2022-10-22T23:51:00Z,37.8,-81.12,15.0,0.6,140,4,,10.0,30.188976,1022.1,,TRUE,TRUE,,,,,,,CLR,,,,,,,,VFR,0.7,21.1,14.4,,,,,,,,,METAR,762.0
KBHK 222351Z AUTO 10015KT 10SM CLR 10/03 A2941 RMK AO2 SLP961 T01000028 10111 20078 53002,KBHK,2022-10-22T23:51:00Z,46.35,-104.25,10.0,2.8,100,15,,10.0,29.409449,996.1,,TRUE,TRUE,,,,,,,CLR,,,,,,,,VFR,0.2,11.1,7.8,,,,,,,,,METAR,904.0
KBGD 222351Z AUTO 20014G26KT 10SM CLR 26/07 A2958 RMK AO2 PK WND 22040/2301 SLP979 T02610072 10294 20261 55003,KBGD,2022-10-22T23:51:00Z,35.7,-101.4,26.1,7.2,200,14,26,10.0,29.58071,997.9,,TRUE,TRUE,,,,,,,CLR,,,,,,,,VFR,-0.3,29.4,26.1,,,,,,,,,METAR,928.0
KBED 222351Z 00000KT 10SM CLR 12/06 A3028 RMK AO2 SLP267 T01170061 10211 20117 53014,KBED,2022-10-22T23:51:00Z,42.47,-71.3,11.7,6.1,0,0,,10.0,30.280512,1026.7,,,TRUE,,,,,,,CLR,,,,,,,,VFR,1.4,21.1,11.7,,,,,,,,,METAR,39.0
KBDL 222351Z 21004KT 10SM FEW200 BKN250 13/03 A3028 RMK AO2 SLP254 T01330033 10211 20128 53013,KBDL,2022-10-22T23:51:00Z,41.93,-72.68,13.3,3.3,210,4,,10.0,30.280512,1025.4,,,TRUE,,,,,,,FEW,20000,BKN,25000,,,,,VFR,1.3,21.1,12.8,,,,,,,,,METAR,52.0
KBAZ 222351Z AUTO 18011KT 10SM CLR 28/14 A2983 RMK AO2 PK WND 19026/2257 SLP092 T02830144 10311 20283 55000,KBAZ,2022-10-22T23:51:00Z,29.72,-98.05,28.3,14.4,180,11,,10.0,29.828741,1009.2,,TRUE,TRUE,,,,,,,CLR,,,,,,,,VFR,0.0,31.1,28.3,,,,,,,,,METAR,199.0
KAVX 222351Z AUTO 25008KT 9SM BKN005 OVC011 14/12 A2979 RMK AO2 CIG 004V008 SLP080 T01390122 10167 20139 56008,KAVX,2022-10-22T23:51:00Z,33.4,-118.42,13.9,12.2,250,8,,9.0,29.790354,1008.0,,TRUE,TRUE,,,,,,,BKN,500,OVC,1100,,,,,IFR,-0.8,16.7,13.9,,,,,,,,,METAR,482.0
KATT 222351Z AUTO 10SM CLR 28/13 A2983 RMK AO2 SLP090 T02780133 10317 20278 55001,KATT,2022-10-22T23:51:00Z,30.32,-97.77,27.8,13.3,,,,10.0,29.828741,1009.0,,TRUE,TRUE,,,,,,,CLR,,,,,,,,VFR,-0.1,31.7,27.8,,,,,,,,,METAR,203.0
KALB 222351Z 15006KT 10SM SCT250 16/03 A3024 RMK AO2 SLP242 T01560028 10206 20156 53014,KALB,2022-10-22T23:51:00Z,42.75,-73.8,15.6,2.8,150,6,,10.0,30.239174,1024.2,,,TRUE,,,,,,,SCT,25000,,,,,,,VFR,1.4,20.6,15.6,,,,,,,,,METAR,82.0
KAHN 222351Z AUTO 08003KT 10SM CLR 14/04 A3014 RMK AO2 SLP209 T01440039 10233 20133 55002,KAHN,2022-10-22T23:51:00Z,33.95,-83.33,14.4,3.9,80,3,,10.0,30.138779,1020.9,,TRUE,TRUE,,,,,,,CLR,,,,,,,,VFR,-0.2,23.3,13.3,,,,,,,,,METAR,241.0
KACT 222351Z 17014KT 10SM CLR 27/14 A2978 RMK AO2 PK WND 19027/2319 SLP078 T02720144 10311 20272 58001 $,KACT,2022-10-22T23:51:00Z,31.62,-97.23,27.2,14.4,170,14,,10.0,29.778543,1007.8,,,TRUE,TRUE,,,,,,CLR,,,,,,,,VFR,-0.1,31.1,27.2,,,,,,,,,METAR,150.0
KABE 222351Z 13003KT 10SM CLR 16/03 A3025 RMK AO2 SLP246 T01560033 10206 20150 53009,KABE,2022-10-22T23:51:00Z,40.65,-75.45,15.6,3.3,130,3,,10.0,30.250984,1024.6,,,TRUE,,,,,,,CLR,,,,,,,,VFR,0.9,20.6,15.0,,,,,,,,,METAR,117.0
K6R6 222351Z AUTO 10007KT 23/16 A2984 RMK AO1 SLP080 T02280161 10267 20228 55001,K6R6,2022-10-22T23:51:00Z,30.05,-102.22,22.8,16.1,100,7,,,29.840551,1008.0,,TRUE,TRUE,,,,,,,,,,,,,,,,-0.1,26.7,22.8,,,,,,,,,METAR,702.0
PTRO 222350Z 00000KT 14SM SCT016 BKN120 BKN300 27/25 A2979,PTRO,2022-10-22T23:50:00Z,7.37,134.55,27.0,25.0,0,0,,14.0,29.790354,,,,,,,,,,,SCT,1600,BKN,12000,BKN,30000,,,VFR,,,,,,,,,,,,METAR,30.0
OOSH 222350Z AUTO 26003KT //// ////// 25/22 Q1015 RMK 1011,OOSH,2022-10-22T23:50:00Z,24.38,56.62,25.0,22.0,260,3,,,29.970472,,,TRUE,,,,,,,,,,,,,,,,,,,,,,,,,,,,METAR,35.0
OOSA 222350Z 36003KT 9999 BKN025 25/19 Q1015 NOSIG,OOSA,2022-10-22T23:50:00Z,17.03,54.1,25.0,19.0,360,3,,6.21,29.970472,,,,,,TRUE,,,,,BKN,2500,,,,,,,MVFR,,,,,,,,,,,,METAR,20.0
OOMS 222350Z 25004KT CAVOK 26/20 Q1015 NOSIG,OOMS,2022-10-22T23:50:00Z,23.58,58.28,26.0,20.0,250,4,,6.21,29.970472,,,,,,TRUE,,,,,CAVOK,,,,,,,,VFR,,,,,,,,,,,,METAR,8.0
OOKB 222350Z AUTO 00000KT 9999 FEW025 27/23 Q1015 NOSIG,OOKB,2022-10-22T23:50:00Z,26.17,56.23,27.0,23.0,0,0,,6.21,29.970472,,,TRUE,,,TRUE,,,,,FEW,2500,,,,,,,VFR,,,,,,,,,,,,METAR,30.0
OODQ 222350Z AUTO 09007KT 9999 FEW018 SCT030 24/22 Q1016 NOSIG RMK RH90? 0,OODQ,2022-10-22T23:50:00Z,19.52,57.65,24.0,22.0,90,7,,6.21,30.0,,,TRUE,,,TRUE,,,,,FEW,1800,SCT,3000,,,,,VFR,,,,,,,,,,,,METAR,116.0
OOAD 222350Z AUTO 12006KT //// R31///// // NCD 23/16 Q1018 NOSIG,OOAD,2022-10-22T23:50:00Z,22.5,57.37,23.0,16.0,120,6,,,30.059055,,,TRUE,,,TRUE,,,,,CLR,,,,,,,,,,,,,,,,,,,,METAR,327.0
OIYY 222350Z 28006KT CAVOK 19/00 Q1026,OIYY,2022-10-22T23:50:00Z,31.9,54.28,19.0,0.0,280,6,,6.21,30.295275,,,,,,,,,,,CAVOK,,,,,,,,VFR,,,,,,,,,,,,METAR,1226.0
NZSP 222350Z 09008KT 9999 IC FEW060 M55/ A2831 RMK CLN AIR 08010KT ALL WNDS GRID SDG/HDG,NZSP,2022-10-22T23:50:00Z,-89.98,179.98,-55.0,,90,8,,6.21,28.311024,,,,,,,,,,IC,FEW,6000,,,,,,,VFR,,,,,,,,,,,,METAR,2830.0
NSTU 222350Z 11011KT 12SM SCT020 BKN220 31/27 A2983 RMK SLP103 8/101 T03120265 10312 20275 57017,NSTU,2022-10-22T23:50:00Z,-14.33,-170.72,31.2,26.5,110,11,,12.0,29.828741,1010.3,,,,,,,,,,SCT,2000,BKN,22000,,,,,VFR,-1.7,31.2,27.5,,,,,,,,,METAR,8.0
MUVR 222350Z 05004KT 8000 SCT020 23/21 Q1015,MUVR,2022-10-22T23:50:00Z,23.03,-81.43,23.0,21.0,50,4,,4.97,29.970472,,,,,,,,,,,SCT,2000,,,,,,,MVFR,,,,,,,,,,,,METAR,65.0
MUSC 222350Z 04002KT 9000 FEW020 24/22 Q1015,MUSC,2022-10-22T23:50:00Z,22.5,-79.92,24.0,22.0,40,2,,5.59,29.970472,,,,,,,,,,,FEW,2000,,,,,,,VFR,,,,,,,,,,,,METAR,97.0
MUHG 222350Z 06004KT 010V100 9000 FEW045 BKN120 25/24 Q1015,MUHG,2022-10-22T23:50:00Z,20.78,-76.32,25.0,24.0,60,4,,5.59,29.970472,,,,,,,,,,,FEW,4500,BKN,12000,,,,,VFR,,,,,,,,,,,,METAR,100.0
MUHA 222350Z 05005KT 9000 SCT030 23/19 Q1015,MUHA,2022-10-22T23:50:00Z,22.98,-82.42,23.0,19.0,50,5,,5.59,29.970472,,,,,,,,,,,SCT,3000,,,,,,,VFR,,,,,,,,,,,,METAR,61.0
MUCU 222350Z 34009KT 8000 VCTS SCT020CB BKN060 25/21 Q1013,MUCU,2022-10-22T23:50:00Z,19.97,-75.83,25.0,21.0,340,9,,4.97,29.911417,,,,,,,,,,VCTS,SCT,2000,BKN,6000,,,,,MVFR,,,,,,,,,,,,METAR,70.0
MUCM 222350Z 04005KT 9000 FEW020 BKN100 24/23 Q1014,MUCM,2022-10-22T23:50:00Z,21.42,-77.85,24.0,23.0,40,5,,5.59,29.940945,,,,,,,,,,,FEW,2000,BKN,10000,,,,,VFR,,,,,,,,,,,,METAR,125.0
MUCL 222350Z AUTO 32004KT 27/20 Q1013,MUCL,2022-10-22T23:50:00Z,21.63,-81.55,27.0,20.0,320,4,,,29.911417,,,TRUE,,,,,,,,,,,,,,,,,,,,,,,,,,,,METAR,5.0
MUCC 222350Z 05003KT 9000 FEW018CB SCT020 25/23 Q1013,MUCC,2022-10-22T23:50:00Z,22.47,-78.33,25.0,23.0,50,3,,5.59,29.911417,,,,,,,,,,,FEW,1800,SCT,2000,,,,,VFR,,,,,,,,,,,,METAR,7.0
LTFO 222350Z 14006KT CAVOK 14/08 Q1024,LTFO,2022-10-22T23:50:00Z,41.18,40.85,14.0,8.0,140,6,,6.21,30.236221,,,,,,,,,,,CAVOK,,,,,,,,VFR,,,,,,,,,,,,METAR,5.0
LTFH 222350Z VRB01KT CAVOK 06/06 Q1023 NOSIG,LTFH,2022-10-22T23:50:00Z,41.27,36.57,6.0,6.0,0,1,,6.21,30.206694,,,,,,TRUE,,,,,CAVOK,,,,,,,,VFR,,,,,,,,,,,,METAR,7.0
LTFG 222350Z 12006KT CAVOK 15/04 Q1021,LTFG,2022-10-22T23:50:00Z,36.3,32.3,15.0,4.0,120,6,,6.21,30.147638,,,,,,,,,,,CAVOK,,,,,,,,VFR,,,,,,,,,,,,METAR,26.0
LTFD 222350Z 10004KT CAVOK 07/04 Q1022,LTFD,2022-10-22T23:50:00Z,39.55,27.02,7.0,4.0,100,4,,6.21,30.177166,,,,,,,,,,,CAVOK,,,,,,,,VFR,,,,,,,,,,,,METAR,15.0
LTDA 222350Z VRB01KT 9999 FEW045 11/08 Q1020 NOSIG,LTDA,2022-10-22T23:50:00Z,36.37,36.28,11.0,8.0,0,1,,6.21,30.11811,,,,,,TRUE,,,,,FEW,4500,,,,,,,VFR,,,,,,,,,,,,METAR,80.0
LTCW 222350Z 11007KT 080V140 6000 FEW010 FEW020CB BKN030 07/06 Q1024,LTCW,2022-10-22T23:50:00Z,37.55,44.23,7.0,6.0,110,7,,3.73,30.236221,,,,,,,,,,,FEW,1000,FEW,2000,BKN,3000,,,MVFR,,,,,,,,,,,,METAR,1852.0
LTCV 222350Z 26006KT 9999 SCT035 BKN100 12/11 Q1021,LTCV,2022-10-22T23:50:00Z,37.37,42.07,12.0,11.0,260,6,,6.21,30.147638,,,,,,,,,,,SCT,3500,BKN,10000,,,,,VFR,,,,,,,,,,,,METAR,620.0
LTCT 222350Z 00000KT 9999 SCT040 BKN070 09/07 Q1025,LTCT,2022-10-22T23:50:00Z,39.98,43.87,9.0,7.0,0,0,,6.21,30.265747,,,,,,,,,,,SCT,4000,BKN,7000,,,,,VFR,,,,,,,,,,,,METAR,936.0
LTCN 222350Z 05006KT CAVOK 10/02 Q1022 NOSIG,LTCN,2022-10-22T23:50:00Z,37.53,36.95,10.0,2.0,50,6,,6.21,30.177166,,,,,,TRUE,,,,,CAVOK,,,,,,,,VFR,,,,,,,,,,,,METAR,505.0
LTCI 222350Z 03004KT 8000 SCT030 BKN070 06/05 Q1026 TEMPO SHRA,LTCI,2022-10-22T23:50:00Z,38.47,43.33,6.0,5.0,30,4,,4.97,30.295275,,,,,,,,,,,SCT,3000,BKN,7000,,,,,MVFR,,,,,,,,,,,,METAR,1654.0
LTCF 222350Z 30006KT 9999 FEW040 M03/M03 Q1027,LTCF,2022-10-22T23:50:00Z,40.57,43.12,-3.0,-3.0,300,6,,6.21,30.324802,,,,,,,,,,,FEW,4000,,,,,,,VFR,,,,,,,,,,,,METAR,1794.0
LTCB 222350Z 00000KT 9999 SCT035 10/07 Q1024,LTCB,2022-10-22T23:50:00Z,40.97,38.07,10.0,7.0,0,0,,6.21,30.236221,,,,,,,,,,,SCT,3500,,,,,,,VFR,,,,,,,,,,,,METAR,5.0
LTCA 222350Z 27004KT CAVOK 06/03 Q1024 NOSIG,LTCA,2022-10-22T23:50:00Z,38.6,39.28,6.0,3.0,270,4,,6.21,30.236221,,,,,,TRUE,,,,,CAVOK,,,,,,,,VFR,,,,,,,,,,,,METAR,887.0
LTBY 222350Z VRB02KT CAVOK M00/M02 Q1025,LTBY,2022-10-22T23:50:00Z,39.82,30.52,0.0,-2.0,0,2,,6.21,30.265747,,,,,,,,,,,CAVOK,,,,,,,,VFR,,,,,,,,,,,,METAR,788.0
LTBQ 222350Z 19004KT 160V220 CAVOK 05/05 Q1021 NOSIG,LTBQ,2022-10-22T23:50:00Z,40.73,30.07,5.0,5.0,190,4,,6.21,30.147638,,,,,,TRUE,,,,,CAVOK,,,,,,,,VFR,,,,,,,,,,,,METAR,51.0
LTBH 222350Z 07004KT CAVOK 09/06 Q1022,LTBH,2022-10-22T23:50:00Z,40.13,26.42,9.0,6.0,70,4,,6.21,30.177166,,,,,,,,,,,CAVOK,,,,,,,,VFR,,,,,,,,,,,,METAR,8.0
LTBF 222350Z 00000KT CAVOK 06/02 Q1023 NOSIG,LTBF,2022-10-22T23:50:00Z,39.62,27.92,6.0,2.0,0,0,,6.21,30.206694,,,,,,TRUE,,,,,CAVOK,,,,,,,,VFR,,,,,,,,,,,,METAR,95.0
LTAY 222350Z 00000KT CAVOK 01/M04 Q1024,LTAY,2022-10-22T23:50:00Z,37.78,29.7,1.0,-4.0,0,0,,6.21,30.236221,,,,,,,,,,,CAVOK,,,,,,,,VFR,,,,,,,,,,,,METAR,851.0
LTAR 222350Z 24001KT CAVOK 00/M01 Q1026,LTAR,2022-10-22T23:50:00Z,39.8,36.9,0.0,-1.0,240,1,,6.21,30.295275,,,,,,,,,,,CAVOK,,,,,,,,VFR,,,,,,,,,,,,METAR,1601.0
LTAN 222350Z 34003KT CAVOK 03/M03 Q1025 NOSIG,LTAN,2022-10-22T23:50:00Z,37.97,32.55,3.0,-3.0,340,3,,6.21,30.265747,,,,,,TRUE,,,,,CAVOK,,,,,,,,VFR,,,,,,,,,,,,METAR,1029.0
LTAE 222350Z 32004KT CAVOK M03/M05 Q1026 NOSIG RMK RWY21 02004KT,LTAE,2022-10-22T23:50:00Z,40.07,32.57,-3.0,-5.0,320,4,,6.21,30.295275,,,,,,TRUE,,,,,CAVOK,,,,,,,,VFR,,,,,,,,,,,,METAR,836.0
LOXZ 222350Z VRB02KT 0300 R26/0500N FG VV002 07/07 Q1024,LOXZ,2022-10-22T23:50:00Z,47.2,14.75,7.0,7.0,0,2,,0.19,30.236221,,,,,,,,,,FG,OVX,0,,,,,,,LIFR,,,,,,,,,,,200,METAR,678.0
LGSM 222350Z 00000KT CAVOK 16/11 Q1021,LGSM,2022-10-22T23:50:00Z,37.68,26.92,16.0,11.0,0,0,,6.21,30.147638,,,,,,,,,,,CAVOK,,,,,,,,VFR,,,,,,,,,,,,METAR,5.0
LGSA 222350Z 00000KT 9999 FEW025 12/08 Q1023,LGSA,2022-10-22T23:50:00Z,35.53,24.13,12.0,8.0,0,0,,6.21,30.206694,,,,,,,,,,,FEW,2500,,,,,,,VFR,,,,,,,,,,,,METAR,122.0
LGRX 222350Z 00000KT CAVOK 11/10 Q1024,LGRX,2022-10-22T23:50:00Z,38.17,21.42,11.0,10.0,0,0,,6.21,30.236221,,,,,,,,,,,CAVOK,,,,,,,,VFR,,,,,,,,,,,,METAR,16.0
LGMK 222350Z 00000KT CAVOK 15/10 Q1022,LGMK,2022-10-22T23:50:00Z,37.43,25.35,15.0,10.0,0,0,,6.21,30.177166,,,,,,,,,,,CAVOK,,,,,,,,VFR,,,,,,,,,,,,METAR,126.0
LGLM 222350Z 00000KT CAVOK 10/08 Q1021,LGLM,2022-10-22T23:50:00Z,39.92,25.23,10.0,8.0,0,0,,6.21,30.147638,,,,,,,,,,,CAVOK,,,,,,,,VFR,,,,,,,,,,,,METAR,4.0
LGHI 222350Z 00000KT CAVOK 10/06 Q1022,LGHI,2022-10-22T23:50:00Z,38.33,26.13,10.0,6.0,0,0,,6.21,30.177166,,,,,,,,,,,CAVOK,,,,,,,,VFR,,,,,,,,,,,,METAR,6.0
LGBL 222350Z 00000KT CAVOK 12/09 Q1022,LGBL,2022-10-22T23:50:00Z,39.22,22.8,12.0,9.0,0,0,,6.21,30.177166,,,,,,,,,,,CAVOK,,,,,,,,VFR,,,,,,,,,,,,METAR,13.0
LGAL 222350Z 29003KT CAVOK 10/06 Q1022,LGAL,2022-10-22T23:50:00Z,40.85,25.95,10.0,6.0,290,3,,6.21,30.177166,,,,,,,,,,,CAVOK,,,,,,,,VFR,,,,,,,,,,,,METAR,5.0
KWDG 222350Z 20013KT 10 SM FEW200 30/00 A2949,KWDG,2022-10-22T23:50:00Z,36.37,-97.78,30.0,0.0,200,13,,,29.489174,,,,,,,,,,,FEW,20000,,,,,,,,,,,,,,,,,,,METAR,352.0
KRYY 222350Z 00000KT 10SM CLR 16/06 A3014 RMK AO2 SLP205 T01610056 10239 20156 55001 $,KRYY,2022-10-22T23:50:00Z,34.02,-84.6,16.1,5.6,0,0,,10.0,30.138779,1020.5,,,TRUE,TRUE,,,,,,CLR,,,,,,,,VFR,-0.1,23.9,15.6,,,,,,,,,METAR,306.0
KQEX 222350Z AUTO 04002KT 8000 CLR 12/10 A3002 RMK A02 TSNO,KQEX,2022-10-22T23:50:00Z,,,12.0,10.0,40,2,,4.97,30.02067,,,TRUE,TRUE,,,TRUE,,,,CLR,,,,,,,,MVFR,,,,,,,,,,,,METAR,
KOLV 222350Z 16009G15KT 10SM FEW060 22/11 A2994,KOLV,2022-10-22T23:50:00Z,34.98,-89.78,22.0,11.0,160,9,15,10.0,29.940945,,,,,,,,,,,FEW,6000,,,,,,,VFR,,,,,,,,,,,,METAR,124.0
KNQA 222350Z 16008KT 10SM CLR 23/11 A2992,KNQA,2022-10-22T23:50:00Z,35.35,-89.87,23.0,11.0,160,8,,10.0,29.920275,,,,,,,,,,,CLR,,,,,,,,VFR,,,,,,,,,,,,METAR,90.0
KJQF 222350Z 00000KT 10SM CLR 14/03 A3019,KJQF,2022-10-22T23:50:00Z,35.38,-80.72,14.0,3.0,0,0,,10.0,30.188976,,,,,,,,,,,CLR,,,,,,,,VFR,,,,,,,,,,,,METAR,204.0
KIFP 222350Z 18020KT 10SM SCT100 31/03 A2944,KIFP,2022-10-22T23:50:00Z,35.15,-114.57,31.0,3.0,180,20,,10.0,29.438976,,,,,,,,,,,SCT,10000,,,,,,,VFR,,,,,,,,,,,,METAR,210.0
KHQZ 222350Z 16018G28KT 10SM CLR 27/12 A2976,KHQZ,2022-10-22T23:50:00Z,32.75,-96.53,27.0,12.0,160,18,28,10.0,29.760826,,,,,,,,,,,CLR,,,,,,,,VFR,,,,,,,,,,,,METAR,136.0
KGPM 222350Z 18012G20KT 10SM SKC 27/12 A2975,KGPM,2022-10-22T23:50:00Z,32.7,-97.05,27.0,12.0,180,12,20,10.0,29.749016,,,,,,,,,,,SKC,,,,,,,,VFR,,,,,,,,,,,,METAR,178.0
KGEU 222350Z 21016G25KT 10SM SCT100 SCT180 29/12 A2959,KGEU,2022-10-22T23:50:00Z,33.53,-112.3,29.0,12.0,210,16,25,10.0,29.589567,,,,,,,,,,,SCT,10000,SCT,18000,,,,,VFR,,,,,,,,,,,,METAR,319.0
KDAG 222350Z AUTO 24022G34KT 10SM CLR 23/07 A2956 RMK AO2 PK WND 24036/2258 SLP989 T02330072 10283 20233 58012,KDAG,2022-10-22T23:50:00Z,34.85,-116.78,23.3,7.2,240,22,34,10.0,29.56004,998.9,,TRUE,TRUE,,,,,,,CLR,,,,,,,,VFR,-1.2,28.3,23.3,,,,,,,,,METAR,584.0
KALN 222350Z 16016G28KT 10SM CLR 22/11 A2983,KALN,2022-10-22T23:50:00Z,38.88,-90.03,22.0,11.0,160,16,28,10.0,29.828741,,,,,,,,,,,CLR,,,,,,,,VFR,,,,,,,,,,,,METAR,159.0
K00U 222350Z AUTO 35010KT 10/06 A2934 RMK A01,K00U,2022-10-22T23:50:00Z,45.75,-107.67,10.0,6.0,350,10,,,29.338583,,,TRUE,TRUE,,,,,,,,,,,,,,,,,,,,,,,,,,,METAR,922.0
ENJS 222350Z 19013KT 0100 FG VV003 12/11 Q1007 W11/S/,ENJS,2022-10-22T23:50:00Z,,,12.0,11.0,190,13,,0.06,29.734253,,,,,,,,,,FG,OVX,0,,,,,,,LIFR,,,,,,,,,,,300,METAR,
ENGC 222350Z 06012KT 9999 SCT008 BKN045 10/09 Q1009 W09/S4,ENGC,2022-10-22T23:50:00Z,61.02,2.02,10.0,9.0,60,12,,6.21,29.793306,,,,,,,,,,,SCT,800,BKN,4500,,,,,VFR,,,,,,,,,,,,METAR,10.0
EGYP 222350Z 29008KT CAVOK 07/M01 Q1005,EGYP,2022-10-22T23:50:00Z,-51.82,-58.45,7.0,-1.0,290,8,,6.21,29.675198,,,,,,,,,,,CAVOK,,,,,,,,VFR,,,,,,,,,,,,METAR,70.0
EGXW 222350Z AUTO 18008KT 9999 -RA BKN070/// 13/13 Q1009,EGXW,2022-10-22T23:50:00Z,53.18,-0.52,13.0,13.0,180,8,,6.21,29.793306,,,TRUE,,,,,,,-RA,BKN,7000,,,,,,,VFR,,,,,,,,,,,,METAR,70.0
EGXS 222350Z AUTO 15006KT 9999 OVC070/// 13/12 Q1009 RERA,EGXS,2022-10-22T23:50:00Z,53.48,0.15,13.0,12.0,150,6,,6.21,29.793306,,,TRUE,,,,,,,,OVC,7000,,,,,,,VFR,,,,,,,,,,,,METAR,6.0
EGUW 222350Z AUTO 14005KT 9999 BKN140/// BKN190/// 14/12 Q1010,EGUW,2022-10-22T23:50:00Z,52.12,0.97,14.0,12.0,140,5,,6.21,29.822834,,,TRUE,,,,,,,,BKN,14000,BKN,19000,,,,,VFR,,,,,,,,,,,,METAR,86.0
EGQS 222350Z 20002KT 0250 FG VV/// 11/10 Q1004 RMK RED,EGQS,2022-10-22T23:50:00Z,57.72,-3.32,11.0,10.0,200,2,,0.16,29.64567,,,,,,,,,,FG,OVX,0,,,,,,,LIFR,,,,,,,,,,,,METAR,6.0
EGQL 222350Z 08003KT CAVOK 09/08 Q1005 RMK BLU,EGQL,2022-10-22T23:50:00Z,56.38,-2.87,9.0,8.0,80,3,,6.21,29.675198,,,,,,,,,,,CAVOK,,,,,,,,VFR,,,,,,,,,,,,METAR,11.0
EGNS 222350Z 17010KT 9999 BKN010 BKN020 14/13 Q1005,EGNS,2022-10-22T23:50:00Z,54.08,-4.63,14.0,13.0,170,10,,6.21,29.675198,,,,,,,,,,,BKN,1000,BKN,2000,,,,,MVFR,,,,,,,,,,,,METAR,18.0
EGMC 222350Z 06002KT CAVOK 13/12 Q1010,EGMC,2022-10-22T23:50:00Z,51.57,0.7,13.0,12.0,60,2,,6.21,29.822834,,,,,,,,,,,CAVOK,,,,,,,,VFR,,,,,,,,,,,,METAR,15.0
EGJB 222350Z 12014KT 9999 -SHRA NSC 17/14 Q1004,EGJB,2022-10-22T23:50:00Z,49.42,-2.6,17.0,14.0,120,14,,6.21,29.64567,,,,,,,,,,-SHRA,CLR,,,,,,,,VFR,,,,,,,,,,,,METAR,102.0
EDVK 222350Z AUTO VRB02KT 9999 // NCD 10/10 Q1017,EDVK,2022-10-22T23:50:00Z,51.4,9.37,10.0,10.0,0,2,,6.21,30.029528,,,TRUE,,,,,,,,CLR,,,,,,,,VFR,,,,,,,,,,,,METAR,277.0
BGSF 222350Z AUTO 05012KT 9999NDV SCT060/// OVC075/// 05/M03 Q0999,BGSF,2022-10-22T23:50:00Z,67.0,-50.72,5.0,-3.0,50,12,,,29.498032,,,TRUE,,,,,,,,SCT,6000,OVC,7500,,,,,,,,,,,,,,,,,METAR,75.0
BGKK 222350Z AUTO 08018KT 9999NDV -SHRA BKN012/// OVC040/// M00/M02 Q1011,BGKK,2022-10-22T23:50:00Z,65.57,-37.13,0.0,-2.0,80,18,,,29.852362,,,TRUE,,,,,,,-SHRA,BKN,1200,OVC,4000,,,,,,,,,,,,,,,,,METAR,37.0
BGJN 222350Z AUTO 10019KT 9999NDV OVC160/// 03/M05 Q0999,BGJN,2022-10-22T23:50:00Z,69.25,-51.07,3.0,-5.0,100,19,,,29.498032,,,TRUE,,,,,,,,OVC,16000,,,,,,,,,,,,,,,,,,,METAR,22.0
BGGH 222350Z AUTO 16032G47KT 6000NDV -SN OVC029/// 04/01 Q0997,BGGH,2022-10-22T23:50:00Z,64.2,-51.68,4.0,1.0,160,32,47,,29.438976,,,TRUE,,,,,,,-SN,OVC,2900,,,,,,,,,,,,,,,,,,,METAR,76.0
BGBW 222350Z AUTO 05004KT 9999NDV BKN060/// BKN075/// 02/01 Q1008,BGBW,2022-10-22T23:50:00Z,61.17,-45.42,2.0,1.0,50,4,,,29.763779,,,TRUE,,,,,,,,BKN,6000,BKN,7500,,,,,,,,,,,,,,,,,METAR,49.0
MMOX 222348Z 00000KT 12SM SCT040 BKN120 OVC210 24/11 A3010 RMK SLP087 57002 964 8/526 BINOVC,MMOX,2022-10-22T23:48:00Z,17.0,-96.72,24.0,11.0,0,0,,12.0,30.100393,1008.7,,,,,,,,,,SCT,4000,BKN,12000,OVC,21000,,,VFR,-0.2,,,,,,,,,,,METAR,1528.0
KTOA 222348Z 25010KT 10SM FEW012 SCT023 BKN033 19/13 A2976,KTOA,2022-10-22T23:48:00Z,33.8,-118.33,19.0,13.0,250,10,,10.0,29.760826,,,,,,,,,,,FEW,1200,SCT,2300,BKN,3300,,,VFR,,,,,,,,,,,,METAR,30.0
KJDN 222348Z AUTO 08012G21KT 07/06 A2943 RMK AO1 SLP977 60004 T00720056 10083 20072 53008,KJDN,2022-10-22T23:48:00Z,47.33,-106.95,7.2,5.6,80,12,21,,29.430119,997.7,,TRUE,TRUE,,,,,,,,,,,,,,,,0.8,8.3,7.2,,,,,0.04,,,,METAR,802.0
MMMX 222347Z 14012KT 8SM FEW020TCU SCT100 BKN250 21/11 A3021 NOSIG RMK SLP072 52003 961 8/238 DSNT CB AND PCPN 4TH QUAD HZY,MMMX,2022-10-22T23:47:00Z,19.43,-99.08,21.0,11.0,140,12,,8.0,30.209646,1007.2,,,,,TRUE,,,,,FEW,2000,SCT,10000,BKN,25000,,,VFR,0.3,,,,,,,,,,,METAR,2224.0
KSEE 222347Z 23010KT 10SM BKN042 19/12 A2980,KSEE,2022-10-22T23:47:00Z,32.82,-116.97,19.0,12.0,230,10,,10.0,29.799213,,,,,,,,,,,BKN,4200,,,,,,,VFR,,,,,,,,,,,,METAR,113.0
KRHV 222347Z 34012KT 10SM SCT200 18/07 A2977,KRHV,2022-10-22T23:47:00Z,37.33,-121.82,18.0,7.0,340,12,,10.0,29.769686,,,,,,,,,,,SCT,20000,,,,,,,VFR,,,,,,,,,,,,METAR,37.0
KPOC 222347Z 20014G19KT 5SM BR SCT036 A2976,KPOC,2022-10-22T23:47:00Z,34.1,-117.77,,,200,14,19,5.0,29.760826,,,,,,,,,,BR,SCT,3600,,,,,,,MVFR,,,,,,,,,,,,METAR,304.0
KPAO 222347Z 29014G22KT 10SM FEW020 SCT120 18/06 A2976 RMK TFR STANFORD,KPAO,2022-10-22T23:47:00Z,37.47,-122.12,18.0,6.0,290,14,22,10.0,29.760826,,,,,,,,,,,FEW,2000,SCT,12000,,,,,VFR,,,,,,,,,,,,METAR,2.0
KGYH 222347Z 06003KT 10SM CLR 17/03 A3016,KGYH,2022-10-22T23:47:00Z,34.75,-82.38,17.0,3.0,60,3,,10.0,30.159449,,,,,,,,,,,CLR,,,,,,,,VFR,,,,,,,,,,,,METAR,283.0
KCHD 222347Z 20015G21KT 10SM SCT110 30/11 A2961,KCHD,2022-10-22T23:47:00Z,33.27,-111.82,30.0,11.0,200,15,21,10.0,29.610237,,,,,,,,,,,SCT,11000,,,,,,,VFR,,,,,,,,,,,,METAR,378.0
KCFO 222347Z 09008KT 10SM SKC 22/M12 A2947,KCFO,2022-10-22T23:47:00Z,39.78,-104.55,22.0,-12.0,90,8,,10.0,29.471457,,,,,,,,,,,SKC,,,,,,,,VFR,,,,,,,,,,,,METAR,1672.0
MMCE 222346Z 03009KT 7SM SKC 27/20 A2992 RMK SLP129 57007 967 HZY,MMCE,2022-10-22T23:46:00Z,18.65,-91.8,27.0,20.0,30,9,,7.0,29.920275,1012.9,,,,,,,,,,SKC,,,,,,,,VFR,-0.7,,,,,,,,,,,METAR,5.0
MMVR 222345Z 11007KT 7SM SCT070 BKN250 25/20 A2991 RMK SLP108 57001 970 8/071 HZY,MMVR,2022-10-22T23:45:00Z,19.15,-96.18,25.0,20.0,110,7,,7.0,29.911417,1010.8,,,,,,,,,,SCT,7000,BKN,25000,,,,,VFR,-0.1,,,,,,,,,,,METAR,26.0
MMPS 222345Z 28008KT 12SM SKC 28/19 A2985 RMK HZY,MMPS,2022-10-22T23:45:00Z,15.87,-97.08,28.0,19.0,280,8,,12.0,29.84941,,,,,,,,,,,SKC,,,,,,,,VFR,,,,,,,,,,,,METAR,65.0
MMPR 222345Z 00000KT 10SM FEW025 SCT100 OVC120 27/25 A2976 RMK SLP075 57006 960 8/57/ HZY,MMPR,2022-10-22T23:45:00Z,20.67,-105.25,27.0,25.0,0,0,,10.0,29.760826,1007.5,,,,,,,,,,FEW,2500,SCT,10000,OVC,12000,,,VFR,-0.6,,,,,,,,,,,METAR,6.0
MMMZ 222345Z 28005KT 14SM FEW090 OVC250 29/23 A2978 RMK SLP080 54000 951 8/077,MMMZ,2022-10-22T23:45:00Z,23.17,-106.27,29.0,23.0,280,5,,14.0,29.778543,1008.0,,,,,,,,,,FEW,9000,OVC,25000,,,,,VFR,,,,,,,,,,,,METAR,7.0
MMEP 222345Z 00000KT 7SM BKN035CB OVC090 23/22 A2994 RMK SLP112 54001 902 8/37/ OCNL DROPS RA N,MMEP,2022-10-22T23:45:00Z,21.42,-104.85,23.0,22.0,0,0,,7.0,29.940945,1011.2,,,,,,,,,,BKN,3500,OVC,9000,,,,,VFR,,,,,,,,,,,,METAR,921.0
LMML 222345Z 22002KT CAVOK 17/15 Q1025 NOSIG,LMML,2022-10-22T23:45:00Z,35.85,14.47,17.0,15.0,220,2,,6.21,30.265747,,,,,,TRUE,,,,,CAVOK,,,,,,,,VFR,,,,,,,,,,,,METAR,78.0
KUES 222345Z 14008KT 10SM CLR 18/09 A2979,KUES,2022-10-22T23:45:00Z,43.05,-88.25,18.0,9.0,140,8,,10.0,29.790354,,,,,,,,,,,CLR,,,,,,,,VFR,,,,,,,,,,,,METAR,273.0
KTRK 222345Z 15003KT 10SM SCT011 BKN034 OVC040 02/M01 A2976,KTRK,2022-10-22T23:45:00Z,39.32,-120.13,2.0,-1.0,150,3,,10.0,29.760826,,,,,,,,,,,SCT,1100,BKN,3400,OVC,4000,,,VFR,,,,,,,,,,,,METAR,1800.0
KSWF 222345Z VRB05KT 10SM BKN120 14/05 A3027,KSWF,2022-10-22T23:45:00Z,41.5,-74.08,14.0,5.0,0,5,,10.0,30.268702,,,,,,,,,,,BKN,12000,,,,,,,VFR,,,,,,,,,,,,METAR,139.0
KMWC 222345Z AUTO 17007KT 10SM CLR 20/08 A2979,KMWC,2022-10-22T23:45:00Z,43.12,-88.03,20.0,8.0,170,7,,10.0,29.790354,,,TRUE,,,,,,,,CLR,,,,,,,,VFR,,,,,,,,,,,,METAR,225.0
KMMU 222345Z 00000KT 10SM SKC 09/08 A3028,KMMU,2022-10-22T23:45:00Z,40.78,-74.42,9.0,8.0,0,0,,10.0,30.280512,,,,,,,,,,,SKC,,,,,,,,VFR,,,,,,,,,,,,METAR,55.0
KJVL 222345Z 16010KT 10SM CLR 22/07 A2975,KJVL,2022-10-22T23:45:00Z,42.62,-89.05,22.0,7.0,160,10,,10.0,29.749016,,,,,,,,,,,CLR,,,,,,,,VFR,,,,,,,,,,,,METAR,244.0
KGYY 222345Z 16007KT 10SM CLR 22/11 A2986,KGYY,2022-10-22T23:45:00Z,41.62,-87.42,22.0,11.0,160,7,,10.0,29.861221,,,,,,,,,,,CLR,,,,,,,,VFR,,,,,,,,,,,,METAR,179.0
MMZO 222344Z 12020KT 4SM -RA OVC020 25/24 A2987 RMK SLP037 6//// 8/1// HZY,MMZO,2022-10-22T23:44:00Z,19.13,-104.57,25.0,24.0,120,20,,4.0,29.870079,1003.7,,,,,,,,,-RA,OVC,2000,,,,,,,MVFR,,,,,,,,,,,,METAR,11.0
MMTO 222344Z 27008KT 6SM -RA BKN015CB BKN080 OVC200 15/11 A3031 RMK SLP099 52021 902 8/362 -RAB44 BINOVC HZY,MMTO,2022-10-22T23:44:00Z,19.35,-99.57,15.0,11.0,270,8,,6.0,30.31004,1009.9,,,,,,,,,-RA,BKN,1500,BKN,8000,OVC,20000,,,MVFR,2.1,,,,,,,,,,,METAR,2582.0
MMPG 222344Z 12006KT 10SM FEW220 29/22 A2983 RMK 8/001,MMPG,2022-10-22T23:44:00Z,28.62,-100.53,29.0,22.0,120,6,,10.0,29.828741,,,,,,,,,,,FEW,22000,,,,,,,VFR,,,,,,,,,,,,METAR,224.0
MMML 222344Z 22008KT 10SM SKC 30/00 A2989 RMK SLP020 57010 993 ISOL CU,MMML,2022-10-22T23:44:00Z,32.62,-115.23,30.0,0.0,220,8,,10.0,29.890747,1002.0,,,,,,,,,,SKC,,,,,,,,VFR,-1.0,,,,,,,,,,,METAR,21.0
MMMD 222344Z 08005KT 7SM FEW020 25/16 A2997 RMK SLP150 52007 957 8/100 HZY,MMMD,2022-10-22T23:44:00Z,20.95,-89.65,25.0,16.0,80,5,,7.0,29.970472,1015.0,,,,,,,,,,FEW,2000,,,,,,,VFR,0.7,,,,,,,,,,,METAR,10.0
MMTJ 222343Z 19006KT 8SM BKN030 19/13 A2982 RMK SLP139 52027 917 8/600 HZY,MMTJ,2022-10-22T23:43:00Z,32.53,-116.97,19.0,13.0,190,6,,8.0,29.819881,1013.9,,,,,,,,,,BKN,3000,,,,,,,MVFR,2.7,,,,,,,,,,,METAR,150.0
MMTG 222343Z 28011KT 6SM FEW030 SCT080 BKN100 25/19 A2992 RMK SLP104 52007 968 8/470 HZY,MMTG,2022-10-22T23:43:00Z,16.57,-93.03,25.0,19.0,280,11,,6.0,29.920275,1010.4,,,,,,,,,,FEW,3000,SCT,8000,BKN,10000,,,VFR,0.7,,,,,,,,,,,METAR,463.0
MMTC 222343Z 07007KT 10SM SCT110 BKN300 29/05 A2993 RMK SLP059 57003 977 8/072,MMTC,2022-10-22T23:43:00Z,25.57,-103.4,29.0,5.0,70,7,,10.0,29.929134,1005.9,,,,,,,,,,SCT,11000,BKN,30000,,,,,VFR,-0.3,,,,,,,,,,,METAR,1128.0
MMSP 222343Z 07005KT 9SM FEW030 OVC210 22/06 A3011 RMK SLP096 57013 966 8/507,MMSP,2022-10-22T23:43:00Z,22.25,-100.93,22.0,6.0,70,5,,9.0,30.109253,1009.6,,,,,,,,,,FEW,3000,OVC,21000,,,,,VFR,-1.3,,,,,,,,,,,METAR,1841.0
MMQT 222343Z 29005KT 10SM SCT020 OVC250 24/10 A3017 RMK 8/407,MMQT,2022-10-22T23:43:00Z,20.62,-100.18,24.0,10.0,290,5,,10.0,30.171259,,,,,,,,,,,SCT,2000,OVC,25000,,,,,VFR,,,,,,,,,,,,METAR,1909.0
MMMM 222343Z 15007KT 8SM FEW030 SCT090 BKN300 20/14 A3014 RMK SLP083 57006 959 8/463 HZY DSTN CB NNE AND S,MMMM,2022-10-22T23:43:00Z,19.85,-101.03,20.0,14.0,150,7,,8.0,30.138779,1008.3,,,,,,,,,,FEW,3000,SCT,9000,BKN,30000,,,VFR,-0.6,,,,,,,,,,,METAR,1840.0
MMLP 222343Z 20010KT 10SM FEW025 FEW070 SCT220 32/12 A2978 RMK SLP083 57001 962 8/138,MMLP,2022-10-22T23:43:00Z,24.07,-110.37,32.0,12.0,200,10,,10.0,29.778543,1008.3,,,,,,,,,,FEW,2500,FEW,7000,SCT,22000,,,VFR,-0.1,,,,,,,,,,,METAR,16.0
MMLO 222343Z 00000KT 10SM SCT030 BKN220 24/11 A3016 RMK SLP082 57003 960 8/508,MMLO,2022-10-22T23:43:00Z,21.0,-101.47,24.0,11.0,0,0,,10.0,30.159449,1008.2,,,,,,,,,,SCT,3000,BKN,22000,,,,,VFR,-0.3,,,,,,,,,,,METAR,1805.0
MMCM 222343Z 03006KT 7SM FEW020 26/18 A2994 RMK SLP140 957 8/500,MMCM,2022-10-22T23:43:00Z,18.5,-88.33,26.0,18.0,30,6,,7.0,29.940945,1014.0,,,,,,,,,,FEW,2000,,,,,,,VFR,,,,,,,,,,,,METAR,10.0
MMBT 222343Z 25010KT 10SM FEW020 SCT120 SCT220 28/24 A2989 RMK 8/168 TCU N,MMBT,2022-10-22T23:43:00Z,15.77,-96.27,28.0,24.0,250,10,,10.0,29.890747,,,,,,,,,,,FEW,2000,SCT,12000,SCT,22000,,,VFR,,,,,,,,,,,,METAR,137.0
MMVA 222342Z 00000KT 8SM SKC 26/22 A2991 RMK SLP127 52003 977 DSNT CB N,MMVA,2022-10-22T23:42:00Z,18.0,-92.82,26.0,22.0,0,0,,8.0,29.911417,1012.7,,,,,,,,,,SKC,,,,,,,,VFR,0.3,,,,,,,,,,,METAR,13.0
MMTM 222342Z 13012KT 8SM FEW015 BKN200 26/20 A2989 RMK SLP120 57002 967 8/108,MMTM,2022-10-22T23:42:00Z,22.28,-97.87,26.0,20.0,130,12,,8.0,29.890747,1012.0,,,,,,,,,,FEW,1500,BKN,20000,,,,,VFR,-0.2,,,,,,,,,,,METAR,21.0
MMCP 222342Z 00000KT 7SM FEW040 24/19 A2994 RMK SLP126 52002 962 8/100,MMCP,2022-10-22T23:42:00Z,19.82,-90.5,24.0,19.0,0,0,,7.0,29.940945,1012.6,,,,,,,,,,FEW,4000,,,,,,,VFR,0.2,,,,,,,,,,,METAR,9.0
MMAN 222342Z 11005KT 10SM BKN200 27/17 A2987 RMK SLP/// 5//// 9// 8/008 HZY,MMAN,2022-10-22T23:42:00Z,25.87,-100.23,27.0,17.0,110,5,,10.0,29.870079,,,,,,,,,,,BKN,20000,,,,,,,VFR,,,,,,,,,,,,METAR,447.0
MMPB 222341Z 19012KT 6SM SCT015TCU 18/13 A3023 RMK 8/200 HZY,MMPB,2022-10-22T23:41:00Z,19.17,-98.37,18.0,13.0,190,12,,6.0,30.230314,,,,,,,,,,,SCT,1500,,,,,,,VFR,,,,,,,,,,,,METAR,2250.0
MMCZ 222341Z 03010KT 7SM BKN015 26/18 A2995 RMK SLP146 52001 955 8/500 CU,MMCZ,2022-10-22T23:41:00Z,20.52,-86.92,26.0,18.0,30,10,,7.0,29.949802,1014.6,,,,,,,,,,BKN,1500,,,,,,,MVFR,0.1,,,,,,,,,,,METAR,7.0
MMZC 222340Z E16005KT 10SM SCT100 BKN200 23/07 A3015 RMK 8/041,MMZC,2022-10-22T23:40:00Z,22.9,-102.68,23.0,7.0,160,5,,10.0,30.15059,,,,,,,,,,,SCT,10000,BKN,20000,,,,,VFR,,,,,,,,,,,,METAR,2175.0
MMUN 222340Z 00000KT 7SM FEW015 23/15 A2997 RMK SLP150 52003 957 8/500,MMUN,2022-10-22T23:40:00Z,21.03,-86.85,23.0,15.0,0,0,,7.0,29.970472,1015.0,,,,,,,,,,FEW,1500,,,,,,,VFR,0.3,,,,,,,,,,,METAR,13.0
MMTP 222340Z 23003KT 8SM SCT020TCU BKN070 29/27 A2983 RMK SLP126 52008 957 8/270 TCU NE DSNT CB NE,MMTP,2022-10-22T23:40:00Z,14.78,-92.37,29.0,27.0,230,3,,8.0,29.828741,1012.6,,,,,,,,,,SCT,2000,BKN,7000,,,,,VFR,0.8,,,,,,,,,,,METAR,27.0
MMSD 222340Z 11008KT 12SM FEW040 SCT250 29/20 A2979 RMK 8/208,MMSD,2022-10-22T23:40:00Z,23.15,-109.72,29.0,20.0,110,8,,12.0,29.790354,,,,,,,,,,,FEW,4000,SCT,25000,,,,,VFR,,,,,,,,,,,,METAR,107.0
MMRX 222340Z 16015G25KT 10SM FEW040 SCT350 27/18 A2985 RMK SLP154 52003 981 8/105,MMRX,2022-10-22T23:40:00Z,26.02,-98.22,27.0,18.0,160,15,25,10.0,29.84941,1015.4,,,,,,,,,,FEW,4000,SCT,35000,,,,,VFR,0.3,,,,,,,,,,,METAR,45.0
MMPN 222340Z 00000KT 8SM FEW020 OVC200 20/17 A3012 RMK 8/403 HZY AC,MMPN,2022-10-22T23:40:00Z,19.38,-102.03,20.0,17.0,0,0,,8.0,30.121063,,,,,,,,,,,FEW,2000,OVC,20000,,,,,VFR,,,,,,,,,,,,METAR,1602.0
MMNL 222340Z 17006KT 10SM SKC 29/16 A2981 RMK SLP081 57002 984,MMNL,2022-10-22T23:40:00Z,27.43,-99.57,29.0,16.0,170,6,,10.0,29.811024,1008.1,,,,,,,,,,SKC,,,,,,,,VFR,-0.2,,,,,,,,,,,METAR,146.0
MMMY 222340Z 12009KT 10SM BKN200 27/17 A2984 RMK SLP/// 5//// 9// 8/008,MMMY,2022-10-22T23:40:00Z,25.77,-100.1,27.0,17.0,120,9,,10.0,29.840551,,,,,,,,,,,BKN,20000,,,,,,,VFR,,,,,,,,,,,,METAR,382.0
MMMT 222340Z 01010KT 7SM SKC 26/22 A2988 RMK SLP119 52003 970 VCHZ,MMMT,2022-10-22T23:40:00Z,18.1,-94.57,26.0,22.0,10,10,,7.0,29.878937,1011.9,,,,,,,,,,SKC,,,,,,,,VFR,0.3,,,,,,,,,,,METAR,15.0
MMMA 222340Z 14011KT 10SM BKN020 26/19 A2988 RMK SLP118 52002 981 8/100,MMMA,2022-10-22T23:40:00Z,25.77,-97.52,26.0,19.0,140,11,,10.0,29.878937,1011.8,,,,,,,,,,BKN,2000,,,,,,,MVFR,0.2,,,,,,,,,,,METAR,7.0
MMLM 222340Z 23006KT 10SM SCT220 29/22 A2977 RMK SLP082 8/001 HZY,MMLM,2022-10-22T23:40:00Z,25.68,-109.08,29.0,22.0,230,6,,10.0,29.769686,1008.2,,,,,,,,,,SCT,22000,,,,,,,VFR,,,,,,,,,,,,METAR,6.0
MMIA 222340Z 00000KT 4SM SCT010 OVC120 21/20 A2998 RMK 8/72/,MMIA,2022-10-22T23:40:00Z,19.27,-103.57,21.0,20.0,0,0,,4.0,29.97933,,,,,,,,,,,SCT,1000,OVC,12000,,,,,MVFR,,,,,,,,,,,,METAR,744.0
MMHO 222340Z 21009KT 10SM FEW030 SCT100 BKN200 31/21 A2974 RMK SLP065 57009 975 8/131 HZY,MMHO,2022-10-22T23:40:00Z,29.08,-111.05,31.0,21.0,210,9,,10.0,29.740158,1006.5,,,,,,,,,,FEW,3000,SCT,10000,BKN,20000,,,VFR,-0.9,,,,,,,,,,,METAR,186.0
MMGM 222340Z 20008KT 10SM SCT030 BKN120 29/26 A2969 RMK 8/110,MMGM,2022-10-22T23:40:00Z,27.95,-110.92,29.0,26.0,200,8,,10.0,29.68996,,,,,,,,,,,SCT,3000,BKN,12000,,,,,VFR,,,,,,,,,,,,METAR,13.0
MMCV 222340Z 16009KT 10SM BKN250 26/15 A2988 RMK SLP110 52005 978 8/008 ISOL AC,MMCV,2022-10-22T23:40:00Z,23.72,-98.97,26.0,15.0,160,9,,10.0,29.878937,1011.0,,,,,,,,,,BKN,25000,,,,,,,VFR,0.5,,,,,,,,,,,METAR,230.0
MMCN 222340Z 24005KT 10SM BKN210 29/20 A2973 RMK SLP068 8/001 DSNT TCU N HZY,MMCN,2022-10-22T23:40:00Z,27.4,-109.83,29.0,20.0,240,5,,10.0,29.731298,1006.8,,,,,,,,,,BKN,21000,,,,,,,VFR,,,,,,,,,,,,METAR,57.0
MMCB 222340Z 00000KT 9SM SCT015 BKN080 BKN250 25/19 A3004 RMK 8/134 HZY,MMCB,2022-10-22T23:40:00Z,18.83,-99.27,25.0,19.0,0,0,,9.0,30.041338,,,,,,,,,,,SCT,1500,BKN,8000,BKN,25000,,,VFR,,,,,,,,,,,,METAR,1281.0
MMAS 222340Z 19005KT 9SM SCT100 SCT200 22/07 A3013 RMK SLP091 5//// 9// 8/038 HZY,MMAS,2022-10-22T23:40:00Z,21.7,-102.32,22.0,7.0,190,5,,9.0,30.129921,1009.1,,,,,,,,,,SCT,10000,SCT,20000,,,,,VFR,,,,,,,,,,,,METAR,1866.0
